nColumns=19
nRows=228
DataType=double
version=3
OpenSimVersion=4.1
endheader
time	ground_force_calcn_l_vx	ground_force_calcn_l_vy	ground_force_calcn_l_vz	ground_force_calcn_l_px	ground_force_calcn_l_py	ground_force_calcn_l_pz	ground_force_calcn_l_mx	ground_force_calcn_l_my	ground_force_calcn_l_mz	ground_force_calcn_r_vx	ground_force_calcn_r_vy	ground_force_calcn_r_vz	ground_force_calcn_r_px	ground_force_calcn_r_py	ground_force_calcn_r_pz	ground_force_calcn_r_mx	ground_force_calcn_r_my	ground_force_calcn_r_mz
3.47	0	0	0	0	-0.193062	0	0	0	0	0	0	0	0	-0.00770755	0	0	0	0
3.47999	0	0	0	0	-0.174647	0	0	0	0	0	0	0	0	-0.00823645	0	0	0	0
3.48997	0	0	0	0	-0.157314	0	0	0	0	0	0	0	0	-0.00888256	0	0	0	0
3.49996	0	0	0	0	-0.141032	0	0	0	0	0	0	0	0	-0.0096197	0	0	0	0
3.50995	0	0	0	0	-0.125788	0	0	0	0	0	0	0	0	-0.0104134	0	0	0	0
3.51994	0	0	0	0	-0.111594	0	0	0	0	0	0	0	0	-0.0112231	0	0	0	0
3.52992	0	0	0	0	-0.0984974	0	0	0	0	0	0	0	0	-0.0120035	0	0	0	0
3.53991	0	0	0	0	-0.0865653	0	0	0	0	0	0	0	0	-0.0127101	0	0	0	0
3.5499	0	0	0	0	-0.0759023	0	0	0	0	0	0	0	0	-0.0132835	0	0	0	0
3.55989	0	0	0	0	-0.0665604	0	0	0	0	0	0	0	0	-0.0136878	0	0	0	0
3.56987	0	0	0	0	-0.0585348	0	0	0	0	0	0	0	0	-0.013921	0	0	0	0
3.57986	0	0	0	0	-0.0518051	0	0	0	0	0	0	0	0	-0.0139991	0	0	0	0
3.58985	0	0	0	0	-0.0463157	0	0	0	0	0	0	0	0	-0.0139624	0	0	0	0
3.59984	0	0	0	0	-0.0419882	0	0	0	0	0	0	0	0	-0.013872	0	0	0	0
3.60982	0	0	0	0	-0.0387528	0	0	0	0	0	0	0	0	-0.0137615	0	0	0	0
3.61981	-0.681557	-3.4407	0.272172	-0.394144	4.37596e-17	0.350843	-6.60314e-05	-0.000333346	2.63689e-05	0	0	0	0	4.37596e-17	0	0	0	0
3.6298	-1.06256	-5.1804	0.342813	-0.394224	4.37687e-17	0.350849	-0.000148647	-0.000724711	4.79578e-05	0	0	0	0	4.37687e-17	0	0	0	0
3.63979	-1.52192	-7.23388	0.409303	-0.394326	4.378e-17	0.35085	-0.00026028	-0.00123715	6.99994e-05	0	0	0	0	4.378e-17	0	0	0	0
3.64977	-2.04505	-9.51523	0.46064	-0.394446	4.37934e-17	0.350849	-0.00040239	-0.00187224	9.06368e-05	0	0	0	0	4.37934e-17	0	0	0	0
3.65976	-2.60133	-11.8631	0.481662	-0.394581	4.38083e-17	0.350846	-0.000573457	-0.0026152	0.000106181	0	0	0	0	4.38083e-17	0	0	0	0
3.66975	-3.13945	-14.0219	0.452809	-0.394722	4.38238e-17	0.350843	-0.000784819	-0.00350529	0.000113196	0	0	0	0	4.38238e-17	0	0	0	0
3.67974	-3.58312	-15.6255	0.350396	-0.394854	4.38384e-17	0.350842	-0.00104649	-0.0045636	0.000102337	0	0	0	0	4.38384e-17	0	0	0	0
3.68972	-3.82787	-16.1869	0.147614	-0.394958	4.38495e-17	0.350847	-0.00136773	-0.00578376	5.2744e-05	0	0	0	0	4.38495e-17	0	0	0	0
3.69971	-3.73975	-15.0999	-0.183472	-0.395007	4.38539e-17	0.350868	-0.00176306	-0.00711865	-8.64958e-05	0	0	0	0	4.38539e-17	0	0	0	0
3.7097	-3.15727	-11.6536	-0.66874	-0.394983	4.38473e-17	0.350939	-0.00228445	-0.00843198	-0.000483869	0	0	0	0	4.38473e-17	0	0	0	0
3.71969	-1.8973	-5.06802	-1.32753	-0.395185	4.38242e-17	0.351386	-0.00326887	-0.00873172	-0.00228721	0	0	0	0	4.38242e-17	0	0	0	0
3.72967	0.234015	5.45044	-2.16696	-0.395062	4.37783e-17	0.350668	-0.000437165	-0.010182	0.00404811	0	0	0	0	4.37783e-17	0	0	0	0
3.73966	3.42518	20.6332	-3.17545	-0.393724	4.37022e-17	0.350673	-0.00199163	-0.0119975	0.00184642	0	0	0	0	4.37022e-17	0	0	0	0
3.74965	7.83874	41.0592	-4.31615	-0.392641	4.35884e-17	0.350753	-0.00231036	-0.0121016	0.00127213	0	0	0	0	4.35884e-17	0	0	0	0
3.75963	13.588	67.0629	-5.5216	-0.391196	4.34299e-17	0.350841	-0.0022891	-0.0112978	0.000930197	0	0	0	0	4.34299e-17	0	0	0	0
3.76962	20.7141	98.6568	-6.69109	-0.389307	4.32211e-17	0.350951	-0.00191023	-0.00909802	0.000617045	0	0	0	0	4.32211e-17	0	0	0	0
3.77961	29.168	135.491	-7.69273	-0.386946	4.29595e-17	0.351096	-0.00100185	-0.00465379	0.000264226	0	0	0	0	4.29595e-17	0	0	0	0
3.7896	38.8018	176.872	-8.37173	-0.384138	4.26479e-17	0.351281	0.000716167	0.00326453	-0.000154517	0	0	0	0	4.26479e-17	0	0	0	0
3.79958	49.3726	221.836	-8.56573	-0.380928	4.22918e-17	0.351514	0.00363595	0.0163367	-0.000630807	0	0	0	0	4.22918e-17	0	0	0	0
3.80957	60.5572	269.282	-8.12604	-0.377382	4.18983e-17	0.3518	0.00826742	0.0367631	-0.00110939	0	0	0	0	4.18983e-17	0	0	0	0
3.81956	71.9728	318.079	-6.94073	-0.373576	4.14758e-17	0.352138	0.0152251	0.0672864	-0.00146824	0	0	0	0	4.14758e-17	0	0	0	0
3.82955	83.1966	367.131	-4.95333	-0.369599	4.10342e-17	0.352526	0.025169	0.111066	-0.00149851	0	0	0	0	4.10342e-17	0	0	0	0
3.83953	93.7863	415.389	-2.17264	-0.365548	4.05842e-17	0.352958	0.038678	0.171309	-0.00089601	0	0	0	0	4.05842e-17	0	0	0	0
3.84952	103.302	461.837	1.32765	-0.361521	4.01367e-17	0.353425	0.0560615	0.250638	0.000720515	0	0	0	0	4.01367e-17	0	0	0	0
3.85951	111.335	505.483	5.4183	-0.35761	3.97019e-17	0.353915	0.0771658	0.350348	0.00375541	0	0	0	0	3.97019e-17	0	0	0	0
3.8695	117.548	545.37	9.92919	-0.353889	3.92879e-17	0.354419	0.101258	0.469793	0.00855321	0	0	0	0	3.92879e-17	0	0	0	0
3.87948	121.708	580.63	14.6651	-0.350407	3.89001e-17	0.354929	0.127057	0.606149	0.0153097	0	0	0	0	3.89001e-17	0	0	0	0
3.88947	123.71	610.535	19.4207	-0.347187	3.85411e-17	0.355439	0.152904	0.754614	0.0240037	0	0	0	0	3.85411e-17	0	0	0	0
3.89946	123.585	634.563	23.9945	-0.344224	3.82106e-17	0.355945	0.177016	0.908912	0.0343683	0	0	0	0	3.82106e-17	0	0	0	0
3.90945	121.482	652.44	28.2033	-0.341494	3.79056e-17	0.356444	0.197734	1.06196	0.0459059	0	0	0	0	3.79056e-17	0	0	0	0
3.91943	117.65	664.156	31.8955	-0.338952	3.76216e-17	0.356937	0.21374	1.2066	0.0579458	0	0	0	0	3.76216e-17	0	0	0	0
3.92942	112.402	669.961	34.9619	-0.336549	3.73528e-17	0.357424	0.224183	1.33623	0.0697309	0	0	0	0	3.73528e-17	0	0	0	0
3.93941	106.08	670.327	37.3422	-0.334225	3.70931e-17	0.357907	0.228732	1.44538	0.0805183	0	0	0	0	3.70931e-17	0	0	0	0
3.9494	99.0297	665.902	39.0263	-0.331926	3.68362e-17	0.358391	0.227552	1.53012	0.0896755	0	0	0	0	3.68362e-17	0	0	0	0
3.95938	91.5754	657.459	40.0501	-0.329601	3.65768e-17	0.35888	0.221233	1.58833	0.0967554	0	0	0	0	3.65768e-17	0	0	0	0
3.96937	84.0016	645.839	40.4867	-0.327209	3.63101e-17	0.35938	0.210668	1.6197	0.101537	0	0	0	0	3.63101e-17	0	0	0	0
3.97936	76.5454	631.907	40.4347	-0.324718	3.60327e-17	0.359894	0.196922	1.62566	0.104023	0	0	0	0	3.60327e-17	0	0	0	0
3.98935	69.3915	616.507	40.0034	-0.322109	3.57425e-17	0.360424	0.181095	1.60894	0.104399	0	0	0	0	3.57425e-17	0	0	0	0
3.99933	62.6725	600.437	39.299	-0.319373	3.54385e-17	0.360971	0.164196	1.57309	0.10296	0	0	0	0	3.54385e-17	0	0	0	0
4.00932	56.4705	584.42	38.4123	-0.316513	3.5121e-17	0.361529	0.14705	1.52184	0.100026	0	0	0	0	3.5121e-17	0	0	0	0
4.01931	50.8219	569.092	37.4108	-0.31354	3.47913e-17	0.36209	0.13025	1.45851	0.095879	0	0	0	0	3.47913e-17	0	0	0	0
4.02929	45.7223	554.986	36.3369	-0.310475	3.44516e-17	0.362639	0.114146	1.38553	0.0907153	0	0	0	0	3.44516e-17	0	0	0	0
4.03928	41.1337	542.528	35.2106	-0.307343	3.41046e-17	0.363161	0.0988855	1.30424	0.0846464	0	0	0	0	3.41046e-17	0	0	0	0
4.04927	36.9934	532.023	34.038	-0.30417	3.37534e-17	0.363642	0.0844786	1.21494	0.0777296	0	0	0	0	3.37534e-17	0	0	0	0
4.05926	33.2223	523.66	32.8201	-0.300981	3.34008e-17	0.364066	0.0708773	1.11719	0.0700194	0	0	0	0	3.34008e-17	0	0	0	0
4.06924	29.734	517.513	31.5627	-0.2978	3.30492e-17	0.364423	0.0580466	1.01029	0.0616165	0	0	0	0	3.30492e-17	0	0	0	0
4.07923	26.4419	513.554	30.2815	-0.294639	3.27001e-17	0.364707	0.0460133	0.893668	0.0526948	0	0	0	0	3.27001e-17	0	0	0	0
4.08922	23.265	511.67	29.0052	-0.291507	3.23543e-17	0.364918	0.0348855	0.767243	0.0434929	0	0	0	0	3.23543e-17	0	0	0	0
4.09921	20.1314	511.69	27.7736	-0.288401	3.20115e-17	0.365059	0.0248454	0.631508	0.0342771	0	0	0	0	3.20115e-17	0	0	0	0
4.10919	16.9804	513.409	26.6336	-0.285314	3.16707e-17	0.365137	0.0161231	0.487487	0.0252889	0	0	0	0	3.16707e-17	0	0	0	0
4.11918	13.762	516.618	25.6331	-0.282234	3.13307e-17	0.365162	0.00896514	0.336546	0.0166984	0	0	0	0	3.13307e-17	0	0	0	0
4.12917	10.4355	521.127	24.8149	-0.279149	3.09899e-17	0.365142	0.00360751	0.180152	0.00857841	0	0	0	0	3.09899e-17	0	0	0	0
4.13916	6.96667	526.789	24.2118	-0.276046	3.06471e-17	0.365083	0.00026014	0.0196706	0.000904084	0	0	0	0	3.06471e-17	0	0	0	0
4.14914	3.32489	533.507	23.8432	-0.27292	3.03016e-17	0.36499	-0.000895859	-0.143748	-0.00642431	0	0	0	0	3.03016e-17	0	0	0	0
4.15913	-0.520111	541.236	23.7142	-0.26977	2.99532e-17	0.364866	0.00029711	-0.309177	-0.0135466	0	0	0	0	2.99532e-17	0	0	0	0
4.16912	-4.60059	549.971	23.8168	-0.2666	2.96027e-17	0.364708	0.00398026	-0.475815	-0.0206054	0	0	0	0	2.96027e-17	0	0	0	0
4.17911	-8.95217	559.73	24.132	-0.263423	2.92514e-17	0.364517	0.0102812	-0.642825	-0.0277145	0	0	0	0	2.92514e-17	0	0	0	0
4.18909	-13.614	570.528	24.6326	-0.260255	2.8901e-17	0.364289	0.0193083	-0.809156	-0.0349354	0	0	0	0	2.8901e-17	0	0	0	0
4.19908	-18.6278	582.355	25.286	-0.257115	2.85536e-17	0.364023	0.031136	-0.973398	-0.0422652	-0.587678	-3.63983	-0.386968	0.311367	2.85536e-17	0.251016	0.00114743	0.0071067	0.000755548
4.20907	-24.0348	595.158	26.0547	-0.254024	2.82116e-17	0.363718	0.0457836	-1.13371	-0.0496313	-0.952425	-5.46476	-0.485717	0.311251	-3.45365e-17	0.251011	0.00186387	0.0106944	0.000950535
4.21906	-29.8731	608.821	26.8967	-0.251	2.7877e-17	0.363376	0.063191	-1.28785	-0.056895	-1.40105	-7.61725	-0.577715	0.311124	-3.45252e-17	0.251015	0.0027463	0.0149311	0.00113242
4.22904	-36.1727	623.161	27.7645	-0.248063	2.75519e-17	0.362999	0.0832002	-1.43332	-0.0638606	-1.92328	-10.0057	-0.64725	0.310983	-3.45119e-17	0.251023	0.00377504	0.0196393	0.00127043
4.23903	-42.9512	637.913	28.6043	-0.245228	2.72381e-17	0.362592	0.105544	-1.56755	-0.0702896	-2.49382	-12.4591	-0.672882	0.31083	-3.44973e-17	0.25103	0.00489913	0.024476	0.00132188
4.24902	-50.2089	652.727	29.3567	-0.242509	2.69369e-17	0.362161	0.129847	-1.68804	-0.0759204	-3.06761	-14.7072	-0.627231	0.310672	-3.44822e-17	0.251028	0.00607347	0.0291183	0.00124184
4.25901	-57.9233	667.165	29.9583	-0.239917	2.66495e-17	0.361714	0.155626	-1.79252	-0.0804909	-3.57513	-16.3633	-0.477502	0.310522	-3.44683e-17	0.251008	0.00721281	0.0330129	0.000963357
4.26899	-66.043	680.694	30.3447	-0.237459	2.63769e-17	0.36126	0.182298	-1.87892	-0.0837604	-3.91853	-16.9146	-0.187058	0.310395	-3.44582e-17	0.250955	0.00818564	0.0353339	0.000390756
4.27898	-74.4814	692.685	30.4557	-0.235142	2.61197e-17	0.36081	0.209171	-1.94531	-0.0855307	-3.96946	-15.7227	0.281646	0.310304	-3.44551e-17	0.250844	0.00882022	0.0349362	-0.000625822
4.28897	-83.1097	702.42	30.239	-0.232967	2.5878e-17	0.360374	0.235435	-1.98983	-0.0856616	-3.5697	-12.0409	0.962562	0.310218	-3.44634e-17	0.250591	0.00895198	0.0301959	-0.00241388
4.29895	-91.7502	709.106	29.6549	-0.230932	2.56518e-17	0.359961	0.26015	-2.01061	-0.0840841	-2.53574	-5.05137	1.87993	0.309415	-3.44885e-17	0.249559	0.00838145	0.0166964	-0.00621376
4.30894	-100.173	711.9	28.6785	-0.229031	2.54401e-17	0.359576	0.282267	-2.00599	-0.0808102	-0.668223	6.07552	3.04077	0.310694	-3.45369e-17	0.250958	-0.00051685	0.00469923	0.00235195
4.31893	-108.096	709.948	27.301	-0.227251	2.52418e-17	0.359222	0.300676	-1.97478	-0.0759397	2.23321	22.1001	4.42679	0.311967	-3.46156e-17	0.250708	-0.00197756	-0.0195701	-0.00392002
4.32892	-115.19	702.44	25.5305	-0.225574	2.50547e-17	0.358896	0.3143	-1.91663	-0.0696609	6.34988	43.6176	5.98669	0.313013	-3.4732e-17	0.250288	-0.00808346	-0.0555256	-0.00762112
4.3389	-121.097	688.67	23.3929	-0.223976	2.48764e-17	0.358589	0.322209	-1.83238	-0.0622427	11.8203	70.9602	7.63094	0.314442	-3.48929e-17	0.249827	-0.0170325	-0.10225	-0.0109958
4.34889	-125.449	668.105	20.932	-0.22243	2.47037e-17	0.358291	0.323747	-1.72418	-0.0540193	18.7157	104.115	9.23094	0.316319	-3.51033e-17	0.249304	-0.0288082	-0.160259	-0.0142088
4.35888	-127.899	640.454	18.2103	-0.220902	2.45329e-17	0.357983	0.31863	-1.59554	-0.0453669	27.0181	142.681	10.625	0.31866	-3.53651e-17	0.248727	-0.0434836	-0.229635	-0.0171001
4.36887	-128.155	605.736	15.3092	-0.219356	2.43602e-17	0.357647	0.307009	-1.4511	-0.0366747	36.6074	185.89	11.6325	0.321433	-3.56746e-17	0.24811	-0.0610235	-0.309872	-0.0193909
4.37885	-126.02	564.321	12.3266	-0.217759	2.41816e-17	0.357261	0.289472	-1.29626	-0.0283146	47.2604	232.689	12.0762	0.324578	-3.60255e-17	0.247469	-0.0812197	-0.39989	-0.0207537
4.38884	-121.417	516.961	9.37317	-0.216075	2.39936e-17	0.356806	0.266985	-1.13675	-0.0206107	58.6621	281.884	11.8091	0.328022	-3.64096e-17	0.246822	-0.103671	-0.498164	-0.0208698
4.39883	-114.422	464.786	6.56468	-0.214278	2.37929e-17	0.356261	0.240781	-0.978059	-0.0138142	70.4278	332.26	10.7381	0.331676	-3.68169e-17	0.246187	-0.1278	-0.602925	-0.0194855
4.40882	-105.268	409.255	4.0118	-0.212349	2.35777e-17	0.355613	0.212221	-0.825066	-0.00808786	82.1259	382.658	8.83823	0.33544	-3.72366e-17	0.245585	-0.152882	-0.712339	-0.0164529
4.4188	-94.3406	352.078	1.80856	-0.210285	2.33475e-17	0.354852	0.182654	-0.681664	-0.00350158	93.3012	431.999	6.15504	0.33921	-3.76568e-17	0.245032	-0.178085	-0.82456	-0.0117482
4.42879	-82.1558	295.091	0.0216384	-0.208104	2.31042e-17	0.353979	0.153303	-0.550641	-4.03773e-05	103.5	479.279	2.79537	0.34288	-3.80661e-17	0.244543	-0.202477	-0.937612	-0.00546858
4.43878	-69.3108	240.114	-1.31695	-0.205845	2.28523e-17	0.353003	0.125188	-0.43369	0.00237866	112.301	523.567	-1.08902	0.346359	-3.8454e-17	0.244129	-0.225035	-1.04915	0.00218223
4.44877	-56.4282	188.794	-2.21218	-0.203578	2.25994e-17	0.351947	0.0990935	-0.331541	0.0038848	119.351	564.008	-5.32055	0.349573	-3.88126e-17	0.243792	-0.244677	-1.15625	0.0109074
4.45875	-44.0926	142.475	-2.70277	-0.201392	2.23554e-17	0.350849	0.0755626	-0.244164	0.00463181	124.395	599.847	-9.71261	0.352477	-3.91366e-17	0.24353	-0.260348	-1.25543	0.0203276
4.46874	-32.7952	102.103	-2.85329	-0.199395	2.21321e-17	0.34976	0.0549252	-0.171001	0.00477868	127.295	630.456	-14.0822	0.355053	-3.94241e-17	0.243335	-0.271155	-1.34295	0.0299969
4.47873	-22.895	68.1835	-2.74326	-0.19768	2.19396e-17	0.34874	0.0373388	-0.111199	0.0044739	128.036	655.373	-18.2599	0.357309	-3.96759e-17	0.243196	-0.276505	-1.41533	0.0394339
4.48872	-14.6019	40.8028	-2.45567	-0.196291	2.17823e-17	0.347846	0.0228328	-0.0638029	0.00383991	126.721	674.334	-22.0992	0.359275	-3.98954e-17	0.2431	-0.276189	-1.46972	0.0481655
4.4987	-7.981	19.6779	-2.0671	-0.195244	2.16599e-17	0.347108	0.0113128	-0.0278928	0.00293005	123.545	687.288	-25.4838	0.360997	-4.00877e-17	0.243035	-0.270398	-1.50424	0.0557754
4.50869	-2.97346	4.24089	-1.64106	-0.194552	2.15696e-17	0.346427	0.00207805	-0.00296381	0.00114688	118.776	694.401	-28.3336	0.362531	-4.02589e-17	0.242989	-0.259674	-1.51814	0.0619443
4.51868	0.57282	-6.26896	-1.22508	-0.193308	2.15069e-17	0.34568	-0.00119901	0.013122	0.0025643	112.721	696.043	-30.6072	0.363934	-4.04154e-17	0.242953	-0.244816	-1.51172	0.0664751
4.52866	2.86923	-12.7117	-0.850781	-0.193233	2.1467e-17	0.34559	-0.00533445	0.0236334	0.00158177	105.702	692.761	-32.3016	0.365262	-4.05634e-17	0.24292	-0.22676	-1.48616	0.0692959
4.53865	4.15464	-15.9643	-0.535765	-0.193097	2.14447e-17	0.345425	-0.00742581	0.0285338	0.000957601	98.0309	685.238	-33.4474	0.366566	-4.07084e-17	0.242887	-0.20646	-1.44316	0.0704426
4.54864	4.6691	-16.8557	-0.286461	-0.193043	2.14354e-17	0.345323	-0.00820802	0.0296314	0.000503582	89.9955	674.256	-34.1009	0.367888	-4.08553e-17	0.242852	-0.184802	-1.38456	0.0700247
4.55863	4.63454	-16.1211	-0.101267	-0.193061	2.14353e-17	0.345279	-0.00809334	0.0281524	0.000176844	81.8466	660.657	-34.3339	0.369261	-4.10076e-17	0.242816	-0.162545	-1.31204	0.0681861
4.56861	4.24261	-14.3762	0.0265542	-0.193126	2.14409e-17	0.345279	-0.00740097	0.0250783	-4.63222e-05	73.7941	645.296	-34.2238	0.370712	-4.11685e-17	0.242783	-0.140304	-1.2269	0.0650695
4.5786	3.64889	-12.108	0.106455	-0.193218	2.14498e-17	0.345308	-0.0063819	0.0211768	-0.000186189	66.0056	629.015	-33.8444	0.372264	-4.13403e-17	0.242759	-0.118564	-1.12988	0.0607938
4.58859	2.97197	-9.67885	0.148759	-0.193322	2.14601e-17	0.345357	-0.00522652	0.0170212	-0.000261608	58.6075	612.606	-33.2598	0.373934	-4.1525e-17	0.24275	-0.0977073	-1.0213	0.055449
4.59858	2.29614	-7.33915	0.163398	-0.193428	2.14704e-17	0.345416	-0.00407103	0.0130122	-0.000289702	51.6889	596.787	-32.5209	0.375739	-4.17245e-17	0.242764	-0.0780538	-0.901188	0.0491088
4.60856	1.67605	-5.245	0.159138	-0.193529	2.148e-17	0.34548	-0.00300396	0.00940058	-0.000285223	45.3057	582.176	-31.6654	0.377695	-4.19406e-17	0.242808	-0.0598856	-0.769526	0.0418557
4.61855	1.14246	-3.47798	0.14321	-0.193624	2.14882e-17	0.345549	-0.00207756	0.00632471	-0.000260427	39.4858	569.276	-30.7198	0.379822	-4.21753e-17	0.242886	-0.0434557	-0.626511	0.0338084
4.62854	0	0	0	0	-4.24307e-17	0	0	0	0	34.2344	558.457	-29.7033	0.382137	-4.24307e-17	0.243002	-0.0289775	-0.472703	0.0251422
4.63853	0	0	0	0	-4.2709e-17	0	0	0	0	29.5387	549.947	-28.6315	0.384659	-4.2709e-17	0.243157	-0.0166021	-0.309096	0.0160923
4.64851	0	0	0	0	-4.30121e-17	0	0	0	0	25.3719	543.831	-27.52	0.387405	-4.30121e-17	0.243349	-0.00639676	-0.137111	0.00693835
4.6585	0	0	0	0	-4.33418e-17	0	0	0	0	21.6949	540.06	-26.3858	0.390392	-4.33418e-17	0.243573	0.00166512	0.0414504	-0.00202515
4.66849	0	0	0	0	-4.36994e-17	0	0	0	0	18.4594	538.472	-25.2482	0.393629	-4.36994e-17	0.243823	0.00769538	0.224479	-0.0105255
4.67848	0	0	0	0	-4.40859e-17	0	0	0	0	15.6085	538.816	-24.1279	0.397124	-4.40859e-17	0.244092	0.0118667	0.409648	-0.0183438
4.68846	0	0	0	0	-4.45012e-17	0	0	0	0	13.0788	540.786	-23.0457	0.400878	-4.45012e-17	0.244371	0.0143783	0.594518	-0.0253354
4.69845	0	0	0	0	-4.49448e-17	0	0	0	0	10.8017	544.058	-22.0209	0.404885	-4.49448e-17	0.244653	0.0154199	0.77667	-0.0314359
4.70844	0	0	0	0	-4.54154e-17	0	0	0	0	8.70474	548.318	-21.0714	0.409132	-4.54154e-17	0.244928	0.0151426	0.953844	-0.0366554
4.71843	0	0	0	0	-4.59105e-17	0	0	0	0	6.71326	553.293	-20.2131	0.413599	-4.59105e-17	0.245192	0.0136387	1.12407	-0.0410651
4.72841	0	0	0	0	-4.64267e-17	0	0	0	0	4.75071	558.77	-19.4612	0.418254	-4.64267e-17	0.245436	0.0109318	1.28578	-0.0447819
4.7384	0	0	0	0	-4.69592e-17	0	0	0	0	2.73883	564.608	-18.8303	0.423056	-4.69592e-17	0.245657	0.00697471	1.43783	-0.0479533
4.74839	0	0	0	0	-4.75024e-17	0	0	0	0	0.597131	570.738	-18.3357	0.427952	-4.75024e-17	0.245851	0.00165254	1.5795	-0.0507434
4.75838	0	0	0	0	-4.80492e-17	0	0	0	0	-1.75768	577.162	-17.9922	0.432881	-4.80492e-17	0.246015	-0.00520872	1.71036	-0.0533182
4.76836	0	0	0	0	-4.85918e-17	0	0	0	0	-4.41147	583.932	-17.8136	0.437771	-4.85918e-17	0.246148	-0.0138265	1.83017	-0.0558317
4.77835	0	0	0	0	-4.91219e-17	0	0	0	0	-7.45105	591.138	-17.8107	0.44255	-4.91219e-17	0.246251	-0.0244356	1.93863	-0.0584101
4.78834	0	0	0	0	-4.96316e-17	0	0	0	0	-10.9609	598.88	-17.9889	0.447144	-4.96316e-17	0.246324	-0.037251	2.03532	-0.0611361
4.79832	0	0	0	0	-5.01132e-17	0	0	0	0	-15.0181	607.243	-18.3457	0.451485	-5.01132e-17	0.24637	-0.0524211	2.1196	-0.064036
4.80831	0	0	0	0	-5.05606e-17	0	0	0	0	-19.6869	616.264	-18.8687	0.455518	-5.05606e-17	0.24639	-0.0699793	2.19058	-0.0670708
4.8183	0	0	0	0	-5.09691e-17	0	0	0	0	-25.0124	625.912	-19.5345	0.4592	-5.09691e-17	0.246386	-0.0898026	2.24722	-0.070135
4.82829	0	0	0	0	-5.13357e-17	0	0	0	0	-31.0146	636.056	-20.3088	0.462506	-5.13357e-17	0.246357	-0.111584	2.28839	-0.0730666
4.83827	0	0	0	0	-5.16596e-17	0	0	0	0	-37.6828	646.451	-21.1481	0.465425	-5.16596e-17	0.246302	-0.134823	2.3129	-0.0756647
4.84826	0	0	0	0	-5.19416e-17	0	0	0	0	-44.9708	656.722	-22.003	0.467967	-5.19416e-17	0.246219	-0.158834	2.3195	-0.0777132
4.85825	0	0	0	0	-5.21841e-17	0	0	0	0	-52.7923	666.365	-22.821	0.470151	-5.21841e-17	0.246106	-0.18276	2.30687	-0.0790032
4.86824	0	0	0	0	-5.23907e-17	0	0	0	0	-61.0175	674.757	-23.5489	0.472011	-5.23907e-17	0.245963	-0.205608	2.2737	-0.0793518
4.87822	0	0	0	0	-5.25657e-17	0	0	0	0	-69.4702	681.17	-24.1335	0.473586	-5.25657e-17	0.245789	-0.2263	2.21892	-0.0786154
4.88821	0.794173	5.31204	-0.618078	0.959773	-1.05597e-16	0.361425	-0.00345295	-0.023096	0.00268732	-77.9275	684.808	-24.5205	0.47492	-5.27143e-17	0.245589	-0.243758	2.14209	-0.0767003
4.8982	2.54633	16.4559	-1.70885	0.958957	-1.05764e-16	0.361743	-0.00987425	-0.0638133	0.00662667	-86.1228	684.841	-24.6542	0.476062	-5.28416e-17	0.245373	-0.257006	2.04369	-0.0735729
4.90819	5.42405	33.861	-3.1199	0.95964	-1.05952e-16	0.36209	-0.0193309	-0.120678	0.0111191	-93.7523	680.457	-24.4795	0.477059	-5.29528e-17	0.245151	-0.265279	1.9254	-0.0692666
4.91817	9.5653	57.8071	-4.68208	0.960782	-1.06172e-16	0.36248	-0.0314057	-0.189798	0.0153727	-100.488	670.907	-23.9454	0.477955	-5.30531e-17	0.244942	-0.268107	1.79002	-0.0638879
4.92816	15.054	88.237	-6.19521	0.962297	-1.06431e-16	0.362918	-0.0453936	-0.266068	0.0186809	-105.992	655.565	-23.0129	0.478795	-5.31471e-17	0.244763	-0.26536	1.64126	-0.0576149
4.93815	21.8896	124.708	-7.44102	0.964211	-1.06734e-16	0.363402	-0.060285	-0.343451	0.0204929	-109.942	633.984	-21.6636	0.47962	-5.32397e-17	0.244635	-0.257241	1.48339	-0.0506883
4.94814	29.9747	166.383	-8.19278	0.966554	-1.07076e-16	0.363928	-0.0747962	-0.415179	0.0204436	-112.05	605.946	-19.908	0.48047	-5.3335e-17	0.244577	-0.244246	1.32084	-0.0433953
4.95812	39.1126	212.095	-8.23381	0.969316	-1.07454e-16	0.364494	-0.0874235	-0.47407	0.018404	-112.094	571.521	-17.7914	0.481382	-5.34371e-17	0.244609	-0.227102	1.1579	-0.0360454
4.96811	49.0184	260.473	-7.38371	0.972465	-1.07862e-16	0.365093	-0.0965475	-0.513032	0.0145431	-109.937	531.101	-15.3943	0.48239	-5.355e-17	0.244746	-0.206697	0.998547	-0.0289436
4.9781	59.3404	310.107	-5.52706	0.975953	-1.08294e-16	0.365718	-0.100586	-0.525655	0.0093688	-105.555	485.422	-12.8276	0.483525	-5.36769e-17	0.245003	-0.184014	0.846235	-0.0223623
4.98809	69.6864	359.672	-2.63694	0.979713	-1.08745e-16	0.366355	-0.0981807	-0.50674	0.00371517	-99.0528	435.557	-10.2208	0.484812	-5.38207e-17	0.245387	-0.160065	0.703841	-0.0165163
4.99807	79.6483	407.984	1.21389	0.983666	-1.09207e-16	0.366989	-0.0883917	-0.452771	-0.00134714	-90.669	382.874	-7.70767	0.486267	-5.39831e-17	0.245902	-0.135824	0.573553	-0.0115462
5.00806	88.8229	454.004	5.85754	0.987725	-1.09673e-16	0.367599	-0.0709021	-0.362405	-0.00467573	-80.7721	328.95	-5.40912	0.487892	-5.41643e-17	0.246545	-0.112167	0.456808	-0.00751156
5.01805	96.8339	496.815	11.0509	0.991801	-1.10134e-16	0.368164	-0.0461812	-0.236937	-0.00527029	-69.8369	275.464	-3.4192	0.48967	-5.43625e-17	0.247308	-0.0898188	0.354281	-0.00439751
5.02804	103.36	535.614	16.507	0.995814	-1.10585e-16	0.368665	-0.0155526	-0.0805942	-0.00248381	-58.4053	224.061	-1.79583	0.491561	-5.45731e-17	0.24817	-0.0693239	0.265948	-0.00213155
5.03802	108.165	569.723	21.9313	0.999704	-1.11018e-16	0.369085	0.0188998	0.0995487	0.0038321	-47.0342	176.218	-0.558085	0.493499	-5.47891e-17	0.249107	-0.0510445	0.191243	-0.000605669
5.04801	111.12	598.613	27.0554	1.00343	-1.11432e-16	0.369413	0.0546074	0.294175	0.0132958	-36.2396	133.123	0.310413	0.495398	-5.50005e-17	0.250083	-0.0351873	0.129258	0.000301399
5.058	112.214	621.94	31.6617	1.00699	-1.11825e-16	0.369645	0.0889039	0.492746	0.0250847	-26.4473	95.6033	0.853331	0.497157	-5.51963e-17	0.251055	-0.0218467	0.0789728	0.000704892
5.06798	111.547	639.571	35.5981	1.01038	-1.122e-16	0.36978	0.119415	0.684684	0.0381091	-17.9594	64.0902	1.13101	0.498687	-5.53666e-17	0.251984	-0.01105	0.0394333	0.000695885
5.07797	109.312	651.591	38.7806	1.01364	-1.1256e-16	0.369821	0.144355	0.860474	0.0512126	-10.9406	38.6371	1.20963	0.499954	-5.55069e-17	0.252847	-0.00278824	0.00984674	0.000308277
5.08796	105.771	658.301	41.1875	1.01681	-1.1291e-16	0.369776	0.162681	1.0125	0.0633483	-5.42515	18.9699	1.15229	0.500987	-5.5617e-17	0.253707	0.00297767	-0.0104119	-0.000632452
5.09795	101.223	660.188	42.8475	1.01993	-1.13255e-16	0.369653	0.174103	1.13552	0.0736973	-1.33777	4.55998	1.01313	0.502723	-5.5699e-17	0.255408	0.00620857	-0.0211628	-0.00470193
5.10793	95.9777	657.881	43.8239	1.02305	-1.136e-16	0.369462	0.178976	1.2268	0.0817214	1.47617	-5.29314	0.834725	0.503029	-5.57565e-17	0.252968	0.00767481	-0.0275198	0.00433985
5.11792	90.3307	652.105	44.2003	1.02621	-1.1395e-16	0.369212	0.178121	1.28587	0.0871573	3.21884	-11.3791	0.647859	0.502694	-5.57937e-17	0.253941	0.00840471	-0.0297121	0.00169162
5.12791	84.5462	643.626	44.0664	1.02944	-1.14308e-16	0.368913	0.172621	1.31411	0.0899717	4.1111	-14.5032	0.472723	0.502802	-5.58151e-17	0.25429	0.00813175	-0.0286874	0.000935047
5.1379	78.8423	633.211	43.5074	1.03277	-1.14677e-16	0.368572	0.163635	1.31421	0.0902982	4.36936	-15.4274	0.320849	0.502859	-5.58246e-17	0.254475	0.00733607	-0.0259022	0.000538699
5.14788	73.3837	621.586	42.5969	1.03621	-1.15057e-16	0.368196	0.152248	1.2896	0.0883755	4.18942	-14.8288	0.19724	0.502855	-5.58259e-17	0.254573	0.00626766	-0.0221849	0.000295084
5.15787	68.2799	609.414	41.3957	1.03974	-1.15449e-16	0.367788	0.13938	1.244	0.0845013	3.7369	-13.2764	0.102371	0.502807	-5.58217e-17	0.254619	0.00510488	-0.0181365	0.000139847
5.16786	63.5895	597.275	39.9544	1.04336	-1.15849e-16	0.36735	0.125741	1.18104	0.0790053	3.14329	-11.2217	0.0338816	0.502735	-5.58143e-17	0.254633	0.00397183	-0.0141796	4.28124e-05
5.17785	59.3278	585.654	38.3194	1.04703	-1.16256e-16	0.366882	0.111839	1.10401	0.0722356	2.50641	-9.00215	-0.0121041	0.502651	-5.58056e-17	0.254628	0.00294734	-0.0105858	-1.42335e-05
5.18783	55.4779	574.934	36.5386	1.05073	-1.16666e-16	0.366383	0.0980063	1.01567	0.0645485	1.89354	-6.85223	-0.0400229	0.502565	-5.57967e-17	0.254614	0.00207182	-0.00749737	-4.37911e-05
5.19782	52.0002	565.393	34.6632	1.05443	-1.17076e-16	0.365846	0.0844435	0.918147	0.0562899	1.34632	-4.91948	-0.0542396	0.502485	-5.57883e-17	0.254603	0.00134975	-0.00493202	-5.43779e-05
5.20781	48.841	557.214	32.7456	1.05809	-1.1748e-16	0.36527	0.071249	0.81286	0.0477692	0.886178	-3.28233	-0.0586711	0.502415	-5.5781e-17	0.254602	0.000782034	-0.00289658	-5.1776e-05
5.2178	45.9383	550.49	30.8348	1.06168	-1.17877e-16	0.364647	0.0584473	0.700389	0.0392312	0	0	0	0	-1.17877e-16	0	0	0	0
5.22778	43.2256	545.243	28.9713	1.06516	-1.18262e-16	0.363973	0.0460139	0.580414	0.0308402	0	0	0	0	-1.18262e-16	0	0	0	0
5.23777	40.6345	541.44	27.1845	1.06852	-1.18634e-16	0.363248	0.0339056	0.45178	0.0226829	0	0	0	0	-1.18634e-16	0	0	0	0
5.24776	38.0974	539.005	25.4933	1.07175	-1.18991e-16	0.36247	0.0221041	0.31273	0.0147912	0	0	0	0	-1.18991e-16	0	0	0	0
5.25775	35.5494	537.836	23.9102	1.07484	-1.19333e-16	0.361645	0.0106653	0.161358	0.00717337	0	0	0	0	-1.19333e-16	0	0	0	0
5.26773	32.932	537.816	22.4469	1.0778	-1.19659e-16	0.360782	-0.000235459	-0.0038453	-0.000160492	0	0	0	0	-1.19659e-16	0	0	0	0
5.27772	30.1955	538.825	21.1184	1.08063	-1.19972e-16	0.359892	-0.0102814	-0.183466	-0.00719066	0	0	0	0	-1.19972e-16	0	0	0	0
5.28771	27.3018	540.756	19.9452	1.08335	-1.20274e-16	0.358993	-0.0190255	-0.376831	-0.013899	0	0	0	0	-1.20274e-16	0	0	0	0
5.2977	24.2257	543.528	18.9522	1.08599	-1.20566e-16	0.358099	-0.0259377	-0.581937	-0.0202915	0	0	0	0	-1.20566e-16	0	0	0	0
5.30768	20.9548	547.094	18.1648	1.08857	-1.2085e-16	0.357229	-0.0304756	-0.795665	-0.0264179	0	0	0	0	-1.2085e-16	0	0	0	0
5.31767	17.4871	551.451	17.6037	1.0911	-1.2113e-16	0.356395	-0.032161	-1.01419	-0.0323755	0	0	0	0	-1.2113e-16	0	0	0	0
5.32766	13.8272	556.636	17.2806	1.0936	-1.21407e-16	0.35561	-0.0306397	-1.23345	-0.0382921	0	0	0	0	-1.21407e-16	0	0	0	0
5.33764	9.98207	562.719	17.1961	1.09608	-1.2168e-16	0.354883	-0.0257136	-1.44956	-0.0442969	0	0	0	0	-1.2168e-16	0	0	0	0
5.34763	5.95624	569.786	17.3392	1.09852	-1.2195e-16	0.354217	-0.017343	-1.65907	-0.0504872	0	0	0	0	-1.2195e-16	0	0	0	0
5.35762	1.74828	577.913	17.6895	1.10092	-1.22216e-16	0.353618	-0.00562402	-1.85908	-0.0569051	0	0	0	0	-1.22216e-16	0	0	0	0
5.36761	-2.6518	587.146	18.2205	1.10327	-1.22476e-16	0.353086	0.0092456	-2.0471	-0.0635263	0	0	0	0	-1.22476e-16	0	0	0	0
5.37759	-7.26337	597.478	18.9021	1.10555	-1.22728e-16	0.352621	0.0269993	-2.22094	-0.0702626	0	0	0	0	-1.22728e-16	0	0	0	0
5.38758	-12.1141	608.834	19.7033	1.10774	-1.2297e-16	0.352224	0.0473241	-2.37843	-0.0769719	0	0	0	0	-1.2297e-16	0	0	0	0
5.39757	-17.2369	621.062	20.5932	1.10982	-1.232e-16	0.351897	0.0698677	-2.5174	-0.0834722	0	0	0	0	-1.232e-16	0	0	0	0
5.40756	-22.6655	633.921	21.541	1.11178	-1.23417e-16	0.35164	0.094233	-2.63556	-0.0895576	0	0	0	0	-1.23417e-16	0	0	0	0
5.41754	-28.4289	647.082	22.5161	1.11361	-1.23619e-16	0.351457	0.119966	-2.7306	-0.0950145	0	0	0	0	-1.23619e-16	0	0	0	0
5.42753	-34.5449	660.127	23.4882	1.11531	-1.23807e-16	0.351351	0.14654	-2.80028	-0.0996377	0	0	0	0	-1.23807e-16	0	0	0	0
5.43752	-41.0145	672.548	24.4283	1.11686	-1.2398e-16	0.351325	0.173345	-2.84248	-0.103244	0	0	0	0	-1.2398e-16	0	0	0	0
5.44751	-47.8152	683.755	25.3084	1.11829	-1.24138e-16	0.351382	0.19967	-2.85526	-0.105684	0	0	0	0	-1.24138e-16	0	0	0	0
5.45749	-54.8952	693.088	26.102	1.1196	-1.24284e-16	0.351522	0.224699	-2.83697	-0.106842	0	0	0	0	-1.24284e-16	0	0	0	0
5.46748	-62.1665	699.834	26.7833	1.1208	-1.24417e-16	0.351746	0.247514	-2.78636	-0.106637	0	0	0	0	-1.24417e-16	0	0	0	0
5.47747	-69.5008	703.252	27.3246	1.12191	-1.2454e-16	0.352049	0.267122	-2.70291	-0.10502	0	0	0	0	-1.2454e-16	0	0	0	0
5.48746	-76.726	702.603	27.6937	1.12293	-1.24654e-16	0.352423	0.282521	-2.58713	-0.101974	0	0	0	0	-1.24654e-16	0	0	0	0
5.49744	-83.627	697.189	27.8528	1.12388	-1.2476e-16	0.352857	0.292792	-2.44098	-0.0975172	0	0	0	0	-1.2476e-16	0	0	0	0
5.50743	-89.952	686.396	27.7584	1.12479	-1.24862e-16	0.353331	0.297223	-2.26802	-0.0917203	0	0	0	0	-1.24862e-16	0	0	0	0
5.51742	-95.4223	669.733	27.3647	1.12565	-1.24959e-16	0.353824	0.295422	-2.07346	-0.0847196	0	0	0	0	-1.24959e-16	0	0	0	0
5.52741	-99.7498	646.886	26.6301	1.1265	-1.25054e-16	0.354309	0.287412	-1.86389	-0.07673	0	0	0	0	-1.25054e-16	0	0	0	0
5.53739	-102.657	617.758	25.5253	1.12734	-1.25148e-16	0.354755	0.273662	-1.6468	-0.0680448	0	0	0	0	-1.25148e-16	0	0	0	0
5.54738	-103.903	582.505	24.0419	1.12818	-1.25242e-16	0.355131	0.255067	-1.42996	-0.0590192	0	0	0	0	-1.25242e-16	0	0	0	0
5.55737	-103.305	541.572	22.199	1.12903	-1.25337e-16	0.355401	0.232856	-1.22074	-0.0500378	0	0	0	0	-1.25337e-16	0	0	0	0
5.56736	-100.763	495.696	20.0463	1.12989	-1.25434e-16	0.355531	0.20846	-1.0255	-0.041472	0	0	0	0	-1.25434e-16	0	0	0	0
5.57734	-96.28	445.9	17.6622	1.13078	-1.25533e-16	0.355489	0.183354	-0.849163	-0.0336357	0	0	0	0	-1.25533e-16	0	0	0	0
5.58733	-89.972	393.452	15.147	1.13168	-1.25634e-16	0.355245	0.158912	-0.69493	-0.0267533	0	0	0	0	-1.25634e-16	0	0	0	0
5.59732	-82.0706	339.808	12.6116	1.1326	-1.25737e-16	0.354774	0.136295	-0.564321	-0.0209442	0	0	0	0	-1.25737e-16	0	0	0	0
5.6073	-72.914	286.517	10.1652	1.13353	-1.2584e-16	0.354063	0.116384	-0.457335	-0.0162255	0	0	0	0	-1.2584e-16	0	0	0	0
5.61729	-62.9235	235.121	7.90281	1.13444	-1.25943e-16	0.353116	0.0997528	-0.372738	-0.0125283	0	0	0	0	-1.25943e-16	0	0	0	0
5.62728	-52.5683	187.028	5.89606	1.13534	-1.26042e-16	0.35196	0.0866834	-0.308403	-0.0097224	0	0	0	0	-1.26042e-16	0	0	0	0
5.63727	-42.3211	143.4	4.18772	1.13617	-1.26135e-16	0.350656	0.0772202	-0.261651	-0.00764102	0	0	0	0	-1.26135e-16	0	0	0	0
5.64725	-32.6092	105.053	2.79174	1.13693	-1.26218e-16	0.349311	0.0712613	-0.229574	-0.00610083	0	0	0	0	-1.26218e-16	0	0	0	0
5.65724	-23.7709	72.404	1.6971	1.13758	-1.26289e-16	0.348092	0.0687103	-0.209285	-0.0049055	0	0	0	0	-1.26289e-16	0	0	0	0
5.66723	-16.0248	45.4584	0.874088	1.13811	-1.26346e-16	0.347291	0.0697711	-0.197923	-0.00380573	0	0	0	0	-1.26346e-16	0	0	0	0
5.67722	-9.45723	23.8505	0.281437	1.13853	-1.26392e-16	0.347712	0.0759611	-0.191569	-0.00226052	0	0	0	0	-1.26392e-16	0	0	0	0
5.6872	-4.02914	6.91784	-0.127137	1.13829	-1.26426e-16	0.357747	0.0987794	-0.1696	0.00311693	0	0	0	0	-1.26426e-16	0	0	0	0
5.69719	0.401494	-6.20516	-0.39782	1.13658	-1.26452e-16	0.340147	0.0150192	-0.232124	-0.0148818	0	0	0	0	-1.26452e-16	0	0	0	0
5.70718	4.04634	-16.4832	-0.573108	1.13868	-1.26472e-16	0.338416	0.0556745	-0.226796	-0.00788553	0	0	0	0	-1.26472e-16	0	0	0	0
5.71717	7.14888	-24.8764	-0.689402	1.13905	-1.26488e-16	0.338477	0.0654904	-0.227891	-0.00631557	0	0	0	0	-1.26488e-16	0	0	0	0
5.72715	9.94578	-32.2405	-0.775411	1.13925	-1.26501e-16	0.33827	0.0711253	-0.230562	-0.0055452	0	0	0	0	-1.26501e-16	0	0	0	0
5.73714	0	0	0	0	-0.198401	0	0	0	0	0	0	0	0	-0.0184261	0	0	0	0
