nColumns=19
nRows=192
DataType=double
version=3
OpenSimVersion=4.1
endheader
time	ground_force_calcn_l_vx	ground_force_calcn_l_vy	ground_force_calcn_l_vz	ground_force_calcn_l_px	ground_force_calcn_l_py	ground_force_calcn_l_pz	ground_force_calcn_l_mx	ground_force_calcn_l_my	ground_force_calcn_l_mz	ground_force_calcn_r_vx	ground_force_calcn_r_vy	ground_force_calcn_r_vz	ground_force_calcn_r_px	ground_force_calcn_r_py	ground_force_calcn_r_pz	ground_force_calcn_r_mx	ground_force_calcn_r_my	ground_force_calcn_r_mz
0	0	0	0	0	0.00810942	0	0	0	0	0	0	0	0	0.0106743	0	0	0	0
0.00994792	0	0	0	0	0.0120694	0	0	0	0	0	0	0	0	0.0103522	0	0	0	0
0.0198958	0	0	0	0	-0.002	0	0	0	0	-0.492759	7.58667	-0.948144	0.221113	-0.002	0.0922531	-0.00267775	0.0412275	-0.0051524
0.0298437	0	0	0	0	-0.002	0	0	0	0	-1.30208	21.8097	-2.75262	0.220424	-0.002	0.0923975	-0.00675329	0.113117	-0.0142766
0.0397917	0	0	0	0	-0.002	0	0	0	0	-2.24694	41.6445	-5.31232	0.219659	-0.002	0.0926141	-0.0110434	0.204678	-0.0261095
0.0497396	0	0	0	0	-0.002	0	0	0	0	-3.13356	65.853	-8.49921	0.218787	-0.002	0.092948	-0.0144556	0.303791	-0.0392083
0.0596875	0	0	0	0	-0.002	0	0	0	0	-3.74617	92.7891	-12.1332	0.217788	-0.002	0.0934526	-0.016	0.396305	-0.0518213
0.0696354	0	0	0	0	-0.002	0	0	0	0	-3.89961	121.028	-16.0528	0.216662	-0.002	0.0941853	-0.0152005	0.471764	-0.0625731
0.0795833	0	0	0	0	-0.002	0	0	0	0	-3.46427	149.504	-20.1189	0.215424	-0.002	0.0951907	-0.012142	0.524003	-0.0705153
0.0895312	0	0	0	0	-0.002	0	0	0	0	-2.38453	177.563	-24.2156	0.214105	-0.002	0.0964903	-0.00739579	0.550723	-0.0751062
0.0994792	0	0	0	0	-0.002	0	0	0	0	-0.685175	204.919	-28.2477	0.212745	-0.002	0.098076	-0.00184711	0.552426	-0.0761509
0.109427	0	0	0	0	-0.002	0	0	0	0	1.53554	231.547	-32.1345	0.211396	-0.002	0.09991	0.00352386	0.531369	-0.0737443
0.119375	0	0	0	0	-0.002	0	0	0	0	4.12424	257.545	-35.801	0.210113	-0.002	0.10193	0.00786189	0.490948	-0.068246
0.129323	0	0	0	0	-0.002	0	0	0	0	6.89814	283.017	-39.1711	0.208951	-0.002	0.10406	0.0106135	0.43545	-0.0602688
0.139271	0	0	0	0	-0.002	0	0	0	0	9.67248	307.993	-42.1684	0.207953	-0.002	0.106224	0.0116151	0.36985	-0.0506374
0.149219	0	0	0	0	-0.002	0	0	0	0	12.2841	332.389	-44.7217	0.207147	-0.002	0.10836	0.0110658	0.299422	-0.0402862
0.159167	0	0	0	0	-0.002	0	0	0	0	14.6075	355.997	-46.7736	0.206544	-0.002	0.110423	0.00940487	0.229205	-0.0301147
0.169115	0	0	0	0	-0.002	0	0	0	0	16.5613	378.509	-48.2866	0.206138	-0.002	0.112395	0.0071515	0.163447	-0.0208511
0.179062	0	0	0	0	-0.002	0	0	0	0	18.1088	399.556	-49.246	0.20591	-0.002	0.114285	0.00476594	0.105157	-0.0129608
0.18901	0	0	0	0	-0.002	0	0	0	0	19.251	418.758	-49.6598	0.205831	-0.002	0.11612	0.00256523	0.0558003	-0.00661726
0.198958	0	0	0	0	-0.002	0	0	0	0	20.0191	435.774	-49.5566	0.205868	-0.002	0.117946	0.000698247	0.0151994	-0.00172848
0.208906	0	0	0	0	-0.002	0	0	0	0	20.4656	450.341	-48.9843	0.205987	-0.002	0.119818	-0.000833691	-0.0183451	0.00199543
0.218854	0	0	0	0	-0.002	0	0	0	0	20.6554	462.296	-48.0077	0.206152	-0.002	0.121798	-0.00213323	-0.0477445	0.00495809
0.228802	0	0	0	0	-0.002	0	0	0	0	20.6583	471.588	-46.706	0.206335	-0.002	0.123944	-0.00335814	-0.0766598	0.00759237
0.23875	0	0	0	0	-0.002	0	0	0	0	20.541	478.272	-45.1676	0.206508	-0.002	0.126311	-0.00467713	-0.108901	0.0102845
0.248698	0	0	0	0	-0.002	0	0	0	0	20.3608	482.498	-43.4835	0.206651	-0.002	0.128943	-0.00623498	-0.147753	0.0133158
0.258646	0	0	0	0	-0.002	0	0	0	0	20.1586	484.496	-41.7389	0.206748	-0.002	0.131875	-0.00812612	-0.195305	0.0168254
0.268594	0	0	0	0	-0.002	0	0	0	0	19.9558	484.555	-40.0061	0.206792	-0.002	0.135123	-0.0103736	-0.251886	0.0207963
0.278542	0	0	0	0	-0.002	0	0	0	0	19.7535	483.007	-38.3402	0.206778	-0.002	0.138693	-0.0129139	-0.315768	0.0250651
0.28849	0	0	0	0	-0.002	0	0	0	0	19.5365	480.201	-36.7779	0.206708	-0.002	0.14257	-0.0155933	-0.383277	0.0293546
0.298437	0	0	0	0	-0.002	0	0	0	0	19.2818	476.487	-35.3392	0.206585	-0.002	0.14673	-0.0181826	-0.449324	0.0333246
0.308385	0	0	0	0	-0.002	0	0	0	0	18.968	472.189	-34.0307	0.206417	-0.002	0.151134	-0.0204167	-0.508253	0.0366298
0.318333	0	0	0	0	-0.002	0	0	0	0	18.5841	467.601	-32.8494	0.206207	-0.002	0.155735	-0.0220496	-0.554798	0.0389751
0.328281	0	0	0	0	-0.002	0	0	0	0	18.1328	462.973	-31.7856	0.205965	-0.002	0.160478	-0.022907	-0.584867	0.0401543
0.338229	0	0	0	0	-0.002	0	0	0	0	17.6297	458.511	-30.8238	0.205695	-0.002	0.165308	-0.0229139	-0.595943	0.0400628
0.348177	0	0	0	0	-0.002	0	0	0	0	17.0979	454.379	-29.9441	0.205404	-0.002	0.170165	-0.0220895	-0.587033	0.0386861
0.358125	0	0	0	0	-0.002	0	0	0	0	16.563	450.705	-29.1216	0.205098	-0.002	0.174995	-0.0205161	-0.558274	0.036072
0.368073	0	0	0	0	-0.002	0	0	0	0	16.0485	447.573	-28.3273	0.204785	-0.002	0.179744	-0.018301	-0.510393	0.0323032
0.378021	0	0	0	0	-0.002	0	0	0	0	15.5742	445.036	-27.5295	0.204468	-0.002	0.184369	-0.0155471	-0.444262	0.0274816
0.387969	0	0	0	0	-0.002	0	0	0	0	15.1564	443.107	-26.6948	0.204151	-0.002	0.188832	-0.0123366	-0.360668	0.0217283
0.397917	0	0	0	0	-0.002	0	0	0	0	14.81	441.779	-25.7904	0.203833	-0.002	0.193102	-0.00872671	-0.260316	0.0151969
0.407865	0	0	0	0	-0.002	0	0	0	0	14.5494	441.025	-24.7847	0.203512	-0.002	0.197158	-0.0047507	-0.144004	0.00809272
0.417812	0	0	0	0	-0.002	0	0	0	0	14.3901	440.821	-23.6485	0.203184	-0.002	0.200986	-0.000419854	-0.0128616	0.000689981
0.42776	0	0	0	0	-0.002	0	0	0	0	14.3475	441.149	-22.3561	0.202842	-0.002	0.204575	0.0042738	0.131408	-0.00665937
0.437708	0	0	0	0	-0.002	0	0	0	0	14.4361	442.01	-20.886	0.202482	-0.002	0.207917	0.00935322	0.286381	-0.0135322
0.447656	0	0	0	0	-0.002	0	0	0	0	14.6676	443.423	-19.2217	0.202096	-0.002	0.211006	0.0148493	0.448916	-0.0194598
0.457604	0	0	0	0	-0.002	0	0	0	0	15.0501	445.423	-17.3522	0.20168	-0.002	0.21384	0.0207897	0.615293	-0.0239697
0.467552	0	0	0	0	-0.002	0	0	0	0	15.5868	448.061	-15.2713	0.201229	-0.002	0.216416	0.0271832	0.781411	-0.026633
0.4775	0	0	0	0	-0.002	0	0	0	0	16.2751	451.389	-12.9771	0.200742	-0.002	0.218736	0.0340014	0.943028	-0.0271113
0.487448	0	0	0	0	-0.002	0	0	0	0	17.1054	455.457	-10.4699	0.200219	-0.002	0.220802	0.0411627	1.09602	-0.0251949
0.497396	0	0	0	0	-0.002	0	0	0	0	18.0605	460.296	-7.75139	0.199665	-0.002	0.22262	0.0485225	1.23666	-0.0208254
0.507344	0	0	0	0	-0.002	0	0	0	0	19.1151	465.908	-4.82232	0.199086	-0.002	0.224199	0.0558777	1.36195	-0.0140967
0.517292	0	0	0	0	-0.002	0	0	0	0	20.2372	472.256	-1.68113	0.198493	-0.002	0.22555	0.0629856	1.46984	-0.00523229
0.52724	0	0	0	0	-0.002	0	0	0	0	21.39	479.252	1.67741	0.197896	-0.002	0.226684	0.0695975	1.55936	0.00545787
0.537187	0	0	0	0	-0.002	0	0	0	0	22.5356	486.758	5.26243	0.197306	-0.002	0.227614	0.0754949	1.63066	0.0176293
0.547135	0	0	0	0	-0.002	0	0	0	0	23.6372	494.584	9.08561	0.196733	-0.002	0.228357	0.0805197	1.68479	0.0309499
0.557083	0	0	0	0	-0.002	0	0	0	0	24.6622	502.483	13.158	0.196186	-0.002	0.228931	0.0845873	1.72344	0.04513
0.567031	0	0	0	0	-0.002	0	0	0	0	25.5827	510.167	17.4859	0.195672	-0.002	0.229357	0.0876792	1.74849	0.0599291
0.576979	0	0	0	0	-0.002	0	0	0	0	26.3768	517.303	22.0657	0.195198	-0.002	0.229662	0.0898186	1.76153	0.0751383
0.586927	0	0	0	0	-0.002	0	0	0	0	27.0269	523.526	26.8796	0.194766	-0.002	0.229875	0.0910394	1.76349	0.0905434
0.596875	0	0	0	0	-0.002	0	0	0	0	27.5178	528.447	31.8916	0.194381	-0.002	0.230028	0.0913611	1.75448	0.105882
0.606823	0	0	0	0	-0.002	0	0	0	0	27.8338	531.664	37.0435	0.194046	-0.002	0.230154	0.0907759	1.73395	0.120812
0.616771	0	0	0	0	-0.002	0	0	0	0	27.9549	532.773	42.2531	0.193763	-0.002	0.230285	0.0892519	1.70099	0.134902
0.626719	0	0	0	0	-0.002	0	0	0	0	27.8558	531.375	47.4123	0.193535	-0.002	0.230452	0.0867488	1.65481	0.147652
0.636667	0.263222	7.02529	-0.689643	0.306558	-0.002	0.591269	-7.99267e-05	-0.00213321	0.000209409	27.5063	527.082	52.3886	0.193363	-0.002	0.230679	0.0832392	1.59505	0.158538
0.646615	0.694232	20.2567	-2.07946	0.306504	-0.002	0.592694	-0.000273301	-0.00797453	0.000818631	26.8748	519.521	57.0278	0.193248	-0.002	0.230989	0.0787253	1.52185	0.167054
0.656562	1.19502	38.8062	-4.17324	0.306457	-0.002	0.594274	-0.000587296	-0.0190714	0.00205095	25.9343	508.346	61.1599	0.193186	-0.002	0.231396	0.0732421	1.43564	0.172724
0.66651	1.66078	61.5876	-6.95439	0.306422	-0.002	0.596069	-0.000994607	-0.0368834	0.00416483	24.6696	493.252	64.6075	0.193173	-0.002	0.231915	0.0668508	1.33664	0.175076
0.676458	1.97501	87.1343	-10.3655	0.306408	-0.002	0.598116	-0.00142047	-0.0626688	0.00745506	23.0836	474.01	67.1949	0.193207	-0.002	0.232556	0.0596371	1.22462	0.1736
0.686406	2.02479	114.199	-14.2794	0.306425	-0.002	0.600418	-0.0017342	-0.0978095	0.0122301	21.2017	450.493	68.7565	0.193283	-0.002	0.233332	0.0517322	1.0992	0.167766
0.696354	1.7146	141.837	-18.5245	0.306487	-0.002	0.60295	-0.00172705	-0.142868	0.0186591	19.0724	422.716	69.1431	0.193397	-0.002	0.234257	0.0433499	0.960797	0.157156
0.706302	0.981923	169.429	-22.9203	0.306601	-0.002	0.605669	-0.00114057	-0.196803	0.0266234	16.7646	390.864	68.2315	0.193545	-0.002	0.235346	0.0348042	0.811453	0.141652
0.71625	-0.191194	196.628	-27.3045	0.30677	-0.002	0.608522	0.00024935	-0.256437	0.0356098	14.3617	355.31	65.9376	0.19372	-0.002	0.236615	0.0264845	0.655226	0.121596
0.726198	-1.77458	223.281	-31.5409	0.306987	-0.002	0.611442	0.0025148	-0.316418	0.0446975	11.9545	316.638	62.2346	0.193916	-0.002	0.238078	0.0187979	0.497896	0.0978607
0.736146	-3.69454	249.341	-35.513	0.307242	-0.002	0.614355	0.00548115	-0.369917	0.0526863	9.63312	275.645	57.1711	0.194123	-0.002	0.239743	0.0121069	0.346431	0.0718528
0.746094	-5.84496	274.795	-39.1158	0.307514	-0.002	0.617184	0.00871994	-0.409959	0.0583559	7.47991	233.336	50.8862	0.194336	-0.002	0.241607	0.006682	0.208446	0.0454579
0.756042	-8.10205	299.618	-42.2546	0.307786	-0.002	0.619863	0.0116526	-0.43092	0.0607718	5.56276	190.899	43.6172	0.194547	-0.002	0.243653	0.00266963	0.0916145	0.0209324
0.76599	-10.3398	323.746	-44.8495	0.308039	-0.002	0.622345	0.0137207	-0.429604	0.0595142	3.92948	149.656	35.6976	0.194751	-0.002	0.24584	7.45161e-05	0.00283798	0.000676947
0.775937	-12.4438	347.059	-46.8438	0.308256	-0.002	0.624612	0.0145418	-0.405571	0.0547415	2.60421	110.996	27.5428	0.194946	-0.002	0.248102	-0.00124447	-0.0530415	-0.0131618
0.785885	-14.3218	369.38	-48.211	0.308431	-0.002	0.626674	0.0139883	-0.36078	0.0470885	1.58721	76.2996	19.6271	0.195128	-0.002	0.250352	-0.00156093	-0.0750362	-0.0193021
0.795833	-15.9109	390.479	-48.957	0.30856	-0.002	0.628568	0.0121746	-0.298784	0.0374606	0.857898	46.868	12.4565	0.195291	-0.002	0.252499	-0.0012475	-0.0681522	-0.0181134
0.805781	-17.1809	410.086	-49.1177	0.308649	-0.002	0.630348	0.00937855	-0.223853	0.0268118	0.380401	23.8921	6.54469	0.195441	-0.002	0.254517	-0.000722513	-0.0453793	-0.0124306
0.815729	-18.1328	427.916	-48.7518	0.308709	-0.002	0.632078	0.00594317	-0.140253	0.0159788	0.110438	8.10348	2.28331	0.195584	-0.002	0.256424	-0.000256674	-0.0188338	-0.00530678
0.825677	-18.7925	443.698	-47.9318	0.308756	-0.002	0.633821	0.00219474	-0.0518184	0.00559785	0	0	0	0	-0.002	0	0	0	0
0.835625	-19.2036	457.202	-46.7346	0.308806	-0.002	0.635636	-0.00160413	0.0381914	-0.00390387	0	0	0	0	-0.002	0	0	0	0
0.845573	-19.4183	468.26	-45.2347	0.308875	-0.002	0.63757	-0.0052687	0.127052	-0.0122734	0	0	0	0	-0.002	0	0	0	0
0.855521	-19.4912	476.784	-43.5009	0.308976	-0.002	0.63966	-0.00868762	0.212512	-0.0193892	0	0	0	0	-0.002	0	0	0	0
0.865469	-19.4742	482.764	-41.5957	0.309115	-0.002	0.641932	-0.0118117	0.292811	-0.0252291	0	0	0	0	-0.002	0	0	0	0
0.875417	-19.4121	486.279	-39.575	0.309296	-0.002	0.644397	-0.0146392	0.366717	-0.0298446	0	0	0	0	-0.002	0	0	0	0
0.885365	-19.3384	487.499	-37.4876	0.309518	-0.002	0.647058	-0.0171967	0.433509	-0.0333359	0	0	0	0	-0.002	0	0	0	0
0.895312	-19.2724	486.68	-35.3734	0.309774	-0.002	0.649904	-0.0195171	0.49286	-0.0358225	0	0	0	0	-0.002	0	0	0	0
0.90526	-19.2174	484.163	-33.2622	0.310053	-0.002	0.652917	-0.0216181	0.544644	-0.0374173	0	0	0	0	-0.002	0	0	0	0
0.915208	-19.1632	480.345	-31.1732	0.310342	-0.002	0.656066	-0.0234854	0.588686	-0.0382043	0	0	0	0	-0.002	0	0	0	0
0.925156	-19.0893	475.657	-29.1159	0.310625	-0.002	0.659315	-0.0250648	0.624554	-0.0382302	0	0	0	0	-0.002	0	0	0	0
0.935104	-18.9712	470.531	-27.0925	0.310887	-0.002	0.662623	-0.0262661	0.651463	-0.0375104	0	0	0	0	-0.002	0	0	0	0
0.945052	-18.7858	465.369	-25.1009	0.311114	-0.002	0.665948	-0.026979	0.668333	-0.0360484	0	0	0	0	-0.002	0	0	0	0
0.955	-18.5162	460.521	-23.1367	0.311297	-0.002	0.66925	-0.0270989	0.67398	-0.033861	0	0	0	0	-0.002	0	0	0	0
0.964948	-18.1547	456.265	-21.1953	0.311427	-0.002	0.672494	-0.0265557	0.667401	-0.0310033	0	0	0	0	-0.002	0	0	0	0
0.974896	-17.7034	452.795	-19.2725	0.311503	-0.002	0.675652	-0.025337	0.648038	-0.0275827	0	0	0	0	-0.002	0	0	0	0
0.984844	-17.1738	450.214	-17.3656	0.311524	-0.002	0.678706	-0.0234962	0.615959	-0.0237587	0	0	0	0	-0.002	0	0	0	0
0.994792	-16.5846	448.541	-15.474	0.311496	-0.002	0.68165	-0.0211455	0.571894	-0.0197295	0	0	0	0	-0.002	0	0	0	0
1.00474	-15.9588	447.717	-13.5993	0.311425	-0.002	0.684488	-0.0184343	0.517166	-0.0157087	0	0	0	0	-0.002	0	0	0	0
1.01469	-15.3215	447.627	-11.7462	0.311318	-0.002	0.68724	-0.0155242	0.45355	-0.0119016	0	0	0	0	-0.002	0	0	0	0
1.02464	-14.6969	448.123	-9.92252	0.311183	-0.002	0.689931	-0.0125669	0.383177	-0.00848444	0	0	0	0	-0.002	0	0	0	0
1.03458	-14.1067	449.043	-8.1381	0.311027	-0.002	0.692595	-0.00969081	0.308477	-0.00559059	0	0	0	0	-0.002	0	0	0	0
1.04453	-13.5679	450.235	-6.40387	0.310856	-0.002	0.695268	-0.00699572	0.232146	-0.0033019	0	0	0	0	-0.002	0	0	0	0
1.05448	-13.0926	451.576	-4.72959	0.310674	-0.002	0.69798	-0.00455399	0.157072	-0.00164509	0	0	0	0	-0.002	0	0	0	0
1.06443	-12.6887	452.983	-3.12138	0.310483	-0.002	0.700756	-0.00241615	0.0862562	-0.000594368	0	0	0	0	-0.002	0	0	0	0
1.07437	-12.3607	454.421	-1.57891	0.310284	-0.002	0.703605	-0.000618012	0.0227202	-7.89423e-05	0	0	0	0	-0.002	0	0	0	0
1.08432	-12.1122	455.908	-0.0926777	0.310078	-0.002	0.706525	0.000814056	-0.0306414	6.22885e-06	0	0	0	0	-0.002	0	0	0	0
1.09427	-11.9463	457.502	1.35797	0.309864	-0.002	0.709496	0.00185999	-0.0712308	-0.00021143	0	0	0	0	-0.002	0	0	0	0
1.10422	-11.8663	459.301	2.80534	0.309641	-0.002	0.712486	0.00250386	-0.0969152	-0.000591943	0	0	0	0	-0.002	0	0	0	0
1.11417	-11.8737	461.421	4.29188	0.309408	-0.002	0.715451	0.0027324	-0.106183	-0.000987655	0	0	0	0	-0.002	0	0	0	0
1.12411	-11.9665	463.985	5.86712	0.309161	-0.002	0.718343	0.0025345	-0.098272	-0.00124266	0	0	0	0	-0.002	0	0	0	0
1.13406	-12.1367	467.107	7.58358	0.308896	-0.002	0.72111	0.00190359	-0.0732636	-0.00118945	0	0	0	0	-0.002	0	0	0	0
1.14401	-12.3688	470.87	9.49251	0.308608	-0.002	0.723705	0.000843998	-0.0321302	-0.00064773	0	0	0	0	-0.002	0	0	0	0
1.15396	-12.639	475.314	11.6401	0.30829	-0.002	0.726088	-0.000618559	0.0232622	0.000569675	0	0	0	0	-0.002	0	0	0	0
1.16391	-12.916	480.426	14.0645	0.307934	-0.002	0.72823	-0.00242499	0.0902005	0.00264062	0	0	0	0	-0.002	0	0	0	0
1.17385	-13.164	486.124	16.7928	0.307535	-0.002	0.730111	-0.00447498	0.165254	0.00570859	0	0	0	0	-0.002	0	0	0	0
1.1838	-13.3466	492.257	19.8398	0.307088	-0.002	0.731727	-0.00662998	0.24453	0.00985549	0	0	0	0	-0.002	0	0	0	0
1.19375	-13.4322	498.609	23.2059	0.306591	-0.002	0.733083	-0.00873091	0.324095	0.0150838	0	0	0	0	-0.002	0	0	0	0
1.2037	-13.3977	504.9	26.8768	0.306046	-0.002	0.734196	-0.0106288	0.400552	0.0213221	0	0	0	0	-0.002	0	0	0	0
1.21365	-13.2311	510.803	30.8226	0.305457	-0.002	0.735087	-0.0122161	0.471618	0.0284581	0	0	0	0	-0.002	0	0	0	0
1.22359	-12.9311	515.95	34.9982	0.304835	-0.002	0.735786	-0.0134442	0.536423	0.036387	0	0	0	0	-0.002	0	0	0	0
1.23354	-12.5041	519.945	39.3424	0.304187	-0.002	0.736321	-0.0143196	0.595439	0.0450548	0	0	0	0	-0.002	0	0	0	0
1.24349	-11.9602	522.368	43.7769	0.303525	-0.002	0.736724	-0.0148823	0.649992	0.0544724	0	0	0	0	-0.002	0	0	0	0
1.25344	-11.3093	522.791	48.205	0.302856	-0.002	0.737024	-0.0151759	0.701532	0.0646862	0	0	0	0	-0.002	0	0	0	0
1.26339	-10.558	520.771	52.5103	0.302184	-0.002	0.73725	-0.0152229	0.750868	0.0757114	0	0	0	0	-0.002	0	0	0	0
1.27333	-9.70848	515.864	56.556	0.301511	-0.002	0.73743	-0.01501	0.797564	0.0874397	0	0	0	0	-0.002	0	0	0	0
1.28328	-8.75939	507.622	60.1844	0.300835	-0.002	0.737589	-0.0144877	0.839588	0.0995429	0	0	0	0	-0.002	0	0	0	0
1.29323	-7.70853	495.614	63.2198	0.300154	-0.002	0.737755	-0.0135827	0.873291	0.111396	0	0	0	0	-0.002	0	0	0	0
1.30318	-6.55722	479.452	65.4737	0.299464	-0.002	0.737957	-0.0122241	0.893799	0.122057	0	0	0	0	-0.002	0	0	0	0
1.31312	-5.315	458.825	66.7556	0.298765	-0.002	0.738223	-0.0103777	0.89587	0.130342	0	0	0	0	-0.002	0	0	0	0
1.32307	-4.00387	433.556	66.8894	0.298054	-0.002	0.738582	-0.00808052	0.874992	0.134995	0	0	0	0	-0.002	0	0	0	0
1.33302	-2.66146	403.653	65.7333	0.297332	-0.002	0.73906	-0.00546154	0.828332	0.134891	0	0	0	0	-0.002	0	0	0	0
1.34297	-1.342	369.367	63.2005	0.296601	-0.002	0.739676	-0.00274438	0.755351	0.129244	0	0	0	0	-0.002	0	0	0	0
1.35292	-0.114301	331.218	59.2785	0.295867	-0.002	0.740446	-0.000227135	0.658189	0.117797	0	0	0	0	-0.002	0	0	0	0
1.36286	0.944739	290.017	54.0455	0.295138	-0.002	0.741374	0.00176567	0.542027	0.101008	0	0	0	0	-0.002	0	0	0	0
1.37281	1.76084	246.843	47.6793	0.294431	-0.002	0.742455	0.00296235	0.415275	0.0802131	0	0	0	0	-0.002	0	0	0	0
1.38276	2.27604	202.999	40.4573	0.293761	-0.002	0.743669	0.00324095	0.289059	0.0576087	0	0	0	0	-0.002	0	0	0	0
1.39271	2.46234	159.947	32.7445	0.293144	-0.002	0.744983	0.00270412	0.175652	0.0359597	0	0	0	0	-0.002	0	0	0	0
1.40266	2.33186	119.22	24.9692	0.292592	-0.002	0.746347	0.00168205	0.0859975	0.0180111	0	0	0	0	-0.002	0	0	0	0
1.4126	1.94088	82.3515	17.5881	0.29211	-0.002	0.747702	0.000632146	0.0268219	0.00572846	0	0	0	0	-0.002	0	0	0	0
1.42255	1.38714	50.8153	11.0484	0.291689	-0.002	0.748995	-5.69326e-05	-0.00208561	-0.00045346	0	0	0	0	-0.002	0	0	0	0
1.4325	0.801931	26.0161	5.75117	0.291322	-0.002	0.750208	-0.000310053	-0.0100587	-0.00222359	0	0	0	0	-0.002	0	0	0	0
1.44245	0.302936	8.86039	1.98947	0.290996	-0.002	0.751352	-0.000216688	-0.00633777	-0.00142305	0	0	0	0	-0.002	0	0	0	0
1.4524	0	0	0	0	0.157303	0	0	0	0	0	0	0	0	0.0137585	0	0	0	0
1.46234	0	0	0	0	0.162714	0	0	0	0	0	0	0	0	0.0137729	0	0	0	0
1.47229	0	0	0	0	0.167038	0	0	0	0	0	0	0	0	0.0137425	0	0	0	0
1.48224	0	0	0	0	0.17019	0	0	0	0	0	0	0	0	0.0136833	0	0	0	0
1.49219	0	0	0	0	0.172106	0	0	0	0	0	0	0	0	0.0136105	0	0	0	0
1.50214	0	0	0	0	0.172742	0	0	0	0	0	0	0	0	0.0135351	0	0	0	0
1.51208	0	0	0	0	0.172075	0	0	0	0	0	0	0	0	0.0134619	0	0	0	0
1.52203	0	0	0	0	0.170105	0	0	0	0	0	0	0	0	0.013392	0	0	0	0
1.53198	0	0	0	0	0.166857	0	0	0	0	0	0	0	0	0.0133235	0	0	0	0
1.54193	0	0	0	0	0.162386	0	0	0	0	0	0	0	0	0.0132528	0	0	0	0
1.55187	0	0	0	0	0.156768	0	0	0	0	0	0	0	0	0.0131762	0	0	0	0
1.56182	0	0	0	0	0.150108	0	0	0	0	0	0	0	0	0.0130903	0	0	0	0
1.57177	0	0	0	0	0.142527	0	0	0	0	0	0	0	0	0.0129927	0	0	0	0
1.58172	0	0	0	0	0.134163	0	0	0	0	0	0	0	0	0.0128818	0	0	0	0
1.59167	0	0	0	0	0.125166	0	0	0	0	0	0	0	0	0.0127575	0	0	0	0
1.60161	0	0	0	0	0.115694	0	0	0	0	0	0	0	0	0.0126211	0	0	0	0
1.61156	0	0	0	0	0.105908	0	0	0	0	0	0	0	0	0.0124751	0	0	0	0
1.62151	0	0	0	0	0.0959725	0	0	0	0	0	0	0	0	0.012323	0	0	0	0
1.63146	0	0	0	0	0.0860477	0	0	0	0	0	0	0	0	0.0121685	0	0	0	0
1.64141	0	0	0	0	0.0762903	0	0	0	0	0	0	0	0	0.0120151	0	0	0	0
1.65135	0	0	0	0	0.0668499	0	0	0	0	0	0	0	0	0.011866	0	0	0	0
1.6613	0	0	0	0	0.0578686	0	0	0	0	0	0	0	0	0.0117242	0	0	0	0
1.67125	0	0	0	0	0.0494761	0	0	0	0	0	0	0	0	0.0115917	0	0	0	0
1.6812	0	0	0	0	0.0417877	0	0	0	0	0	0	0	0	0.0114691	0	0	0	0
1.69115	0	0	0	0	0.0349004	0	0	0	0	0	0	0	0	0.011356	0	0	0	0
1.70109	0	0	0	0	0.0288898	0	0	0	0	0	0	0	0	0.0112514	0	0	0	0
1.71104	0	0	0	0	0.0238062	0	0	0	0	0	0	0	0	0.0111551	0	0	0	0
1.72099	0	0	0	0	0.0196717	0	0	0	0	0	0	0	0	0.0110687	0	0	0	0
1.73094	0	0	0	0	0.0164768	0	0	0	0	0	0	0	0	0.010997	0	0	0	0
1.74089	0	0	0	0	0.0141777	0	0	0	0	0	0	0	0	0.010949	0	0	0	0
1.75083	0	0	0	0	0.0126952	0	0	0	0	0	0	0	0	0.0109381	0	0	0	0
1.76078	0	0	0	0	0.011914	0	0	0	0	0	0	0	0	0.0109821	0	0	0	0
1.77073	0	0	0	0	0.0116862	0	0	0	0	0	0	0	0	0.0111021	0	0	0	0
1.78068	0	0	0	0	0.0118393	0	0	0	0	0	0	0	0	0.0113206	0	0	0	0
1.79062	0	0	0	0	0.0121892	0	0	0	0	0	0	0	0	0.0116601	0	0	0	0
1.80057	0	0	0	0	0.0125585	0	0	0	0	0	0	0	0	0.0121422	0	0	0	0
1.81052	0	0	0	0	0.012795	0	0	0	0	0	0	0	0	0.0127864	0	0	0	0
1.82047	0	0	0	0	0.0127876	0	0	0	0	0	0	0	0	0.0136097	0	0	0	0
1.83042	0	0	0	0	0.0124757	0	0	0	0	0	0	0	0	0.0146248	0	0	0	0
1.84036	0	0	0	0	0.0118517	0	0	0	0	0	0	0	0	0.0158403	0	0	0	0
1.85031	0	0	0	0	0.0109541	0	0	0	0	0	0	0	0	0.0172599	0	0	0	0
1.86026	0	0	0	0	0.00985296	0	0	0	0	0	0	0	0	0.018882	0	0	0	0
1.87021	0	0	0	0	0.00863171	0	0	0	0	0	0	0	0	0.0206993	0	0	0	0
1.88016	0	0	0	0	0.00736918	0	0	0	0	0	0	0	0	0.0226987	0	0	0	0
1.8901	0	0	0	0	0.00612733	0	0	0	0	0	0	0	0	0.024863	0	0	0	0
1.90005	0	0	0	0	0.0049448	0	0	0	0	0	0	0	0	0.027174	0	0	0	0
