Coordinates
version=1
nRows=190
nColumns=38
inDegrees=no

Units are S.I. units (second, meters, Newtons, ...)
If the header above contains a line with 'inDegrees', this indicates whether rotational values are in degrees (yes) or radians (no).

endheader
time	pelvis_tilt_moment	pelvis_list_moment	pelvis_rotation_moment	pelvis_tx_force	pelvis_ty_force	pelvis_tz_force	hip_flexion_r_moment	hip_adduction_r_moment	hip_rotation_r_moment	knee_angle_r_moment	ankle_angle_r_moment	subtalar_angle_r_moment	mtp_angle_r_moment	hip_flexion_l_moment	hip_adduction_l_moment	hip_rotation_l_moment	knee_angle_l_moment	ankle_angle_l_moment	subtalar_angle_l_moment	mtp_angle_l_moment	lumbar_extension_moment	lumbar_bending_moment	lumbar_rotation_moment	arm_flex_r_moment	arm_add_r_moment	arm_rot_r_moment	elbow_flex_r_moment	pro_sup_r_moment	wrist_flex_r_moment	wrist_dev_r_moment	arm_flex_l_moment	arm_add_l_moment	arm_rot_l_moment	elbow_flex_l_moment	pro_sup_l_moment	wrist_flex_l_moment	wrist_dev_l_moment
0	0	0	0	0	0	0	0	0	0	0	0	0	0	0	0	0	0	0	0	0	0	0	0	0	0	0	0	0	0	0	0	0	0	0	0	0	0
0.00994737	-3.91429	-39.0133	-0.92775	-1.2904	656.246	5.22554	19.2805	0.574821	-0.181142	-3.67113	1.02855	-0.143919	-0.0398082	-8.19059	1.79108	0.105617	4.27697	0.989357	-0.192484	-0.0396193	7.7638	4.23695	0.904434	-0.0217067	-2.94066	-0.271114	0.589096	-0.0095565	0.0419188	-0.0611496	0.551495	-2.72797	-0.494239	0.996456	-0.0251756	0.0293491	-0.114969
0.0198947	-4.44527	-41.2444	-0.90947	-4.92799	654.637	5.24002	15.0663	0.624665	-0.130472	-2.34686	1.26066	-0.158765	-0.0411887	-6.75045	1.09949	0.158258	4.20392	0.92532	-0.177953	-0.0361255	7.96619	3.46656	1.47528	-0.0612061	-2.86388	-0.241026	0.590319	-0.00965201	0.044125	-0.0557602	0.0368536	-2.74178	-0.391472	0.909131	-0.0206131	0.0375261	-0.0955367
0.0298421	-5.64312	-43.1612	-0.185989	-7.5802	648.066	3.4664	9.75903	0.344144	-0.0372739	-1.20501	1.7646	-0.163035	-0.0432233	-4.59092	0.354399	0.199651	4.00297	0.851768	-0.15952	-0.0319532	8.3437	2.89914	2.68216	-0.0603812	-2.83688	-0.219654	0.590434	-0.00999025	0.0459754	-0.0510581	-0.534348	-2.70966	-0.269562	0.827746	-0.0153201	0.0482331	-0.0744733
0.0397895	-7.81732	-43.944	1.2634	-11.114	635.766	-1.01244	4.2188	-0.00255401	0.0827274	-0.659651	2.5385	-0.127025	-0.0457941	-1.75788	-0.75176	0.240737	3.61241	0.783134	-0.145772	-0.027621	8.82571	2.25318	4.44774	0.0153947	-2.78024	-0.210318	0.617791	-0.0101686	0.0496687	-0.0500292	-1.07333	-2.70343	-0.156652	0.750201	-0.0103238	0.0580106	-0.054797
0.0497368	-10.3829	-43.4349	3.83229	-12.2613	617.21	-6.499	-1.183	-0.920326	0.260711	-0.946995	3.54816	-0.0389189	-0.0486856	1.41913	-1.72279	0.253504	3.14181	0.722965	-0.132209	-0.0237723	9.50246	1.97654	7.18967	0.13909	-2.79858	-0.220149	0.638707	-0.00975345	0.0525669	-0.0513657	-1.56729	-2.58824	-0.0316996	0.709069	-0.00534543	0.0709592	-0.0375975
0.0596842	-13.276	-41.4781	7.26366	-12.0185	592.89	-12.9539	-6.01485	-2.26967	0.500324	-2.1798	4.7049	0.12073	-0.0516074	4.82241	-2.66152	0.245652	2.58084	0.681356	-0.122797	-0.0208981	10.2887	1.87741	10.6567	0.304042	-2.84522	-0.243951	0.664708	-0.00867295	0.0561134	-0.055329	-1.9775	-2.39329	0.0935202	0.701678	-0.000661696	0.0856628	-0.024075
0.0696316	-16.3034	-38.1515	11.3226	-10.297	563.618	-19.8559	-10.0593	-4.06123	0.817351	-4.33386	5.89348	0.362803	-0.0542672	8.29387	-3.51433	0.21596	1.95576	0.665902	-0.118745	-0.0194928	11.1507	1.95746	14.6338	0.489486	-2.92366	-0.278711	0.691209	-0.00692357	0.0601409	-0.0612173	-2.28182	-2.12824	0.21219	0.727622	0.00357787	0.101208	-0.0149399
0.0795789	-19.3593	-33.7212	15.7766	-6.86675	530.607	-26.6587	-13.2584	-6.30027	1.22853	-7.27438	6.9884	0.692218	-0.0564315	11.6674	-4.22019	0.162193	1.30113	0.683474	-0.120751	-0.0200175	12.0757	2.29066	18.8841	0.672337	-3.06102	-0.325297	0.70756	-0.00462588	0.0633813	-0.0684307	-2.46021	-1.82924	0.312844	0.780283	0.0071485	0.11551	-0.0104831
0.0895263	-22.0421	-30.7542	21.4793	-2.09114	495.41	-37.0165	-15.6992	-8.98102	1.74735	-10.7851	7.87191	1.10844	-0.0579481	14.7576	-4.73751	0.0816885	0.663856	0.739068	-0.129522	-0.0228203	11.3503	2.44421	24.4143	0.905662	-3.31003	-0.389286	0.699331	-0.00284901	0.0647589	-0.0745218	-2.48105	-1.56851	0.365736	0.856997	0.00920695	0.124835	-0.0143236
0.0994737	-24.1606	-26.9271	24.8616	2.44618	457.868	-47.0293	-17.3783	-11.9752	2.36701	-14.664	8.44567	1.60856	-0.0586663	17.6174	-5.1744	-0.0250701	0.021389	0.836568	-0.146787	-0.0280359	10.7958	2.72008	27.621	1.06104	-3.67728	-0.452391	0.648799	-0.00265894	0.0601082	-0.0789565	-2.30286	-1.46916	0.343319	0.91943	0.00930339	0.123245	-0.0238875
0.109421	-25.3252	-23.1197	25.0637	5.63747	418.578	-57.7321	-18.4354	-15.2271	3.07882	-18.6837	8.64403	2.18266	-0.058567	20.1945	-5.52642	-0.161307	-0.615076	0.975207	-0.171689	-0.0356213	9.90058	2.90519	27.776	1.15601	-4.19944	-0.527531	0.545159	-0.00479645	0.0455868	-0.083322	-1.92758	-1.65204	0.222107	0.932586	0.0066689	0.105664	-0.038119
0.119368	-25.1643	-20.228	21.1124	6.1385	377.986	-70.1158	-18.9923	-18.6401	3.86092	-22.6407	8.43674	2.8163	-0.0577176	22.4681	-5.81186	-0.327945	-1.24507	1.15035	-0.202614	-0.0452798	8.05498	2.76157	24.0256	1.18015	-4.80588	-0.612904	0.40921	-0.0088625	0.0225062	-0.089558	-1.40247	-2.12987	0.0146736	0.873961	0.00153218	0.0731465	-0.0538646
0.129316	-23.8639	-19.2264	11.9957	3.11243	336.31	-85.3483	-19.0973	-22.0252	4.67614	-26.3719	7.8282	3.49169	-0.0562696	24.4557	-6.09017	-0.518496	-1.88157	1.35494	-0.237668	-0.0565266	4.41953	2.41075	15.3108	1.07249	-5.26518	-0.680343	0.307485	-0.0129365	0.000754053	-0.0994794	-0.831763	-2.73611	-0.213577	0.751373	-0.00406645	0.0366297	-0.0649597
0.139263	-21.6883	-19.3826	1.89846	-1.6492	294.156	-100.719	-18.9137	-25.3954	5.50312	-29.7321	6.85447	4.18341	-0.0543585	26.1335	-6.1764	-0.752159	-2.517	1.57388	-0.270022	-0.0685945	-0.224852	1.69508	5.66264	0.913337	-5.47973	-0.727233	0.274683	-0.0162115	-0.0124297	-0.112163	-0.354209	-3.28001	-0.401796	0.611663	-0.00904024	0.00700138	-0.0712853
0.149211	-20.2921	-18.9069	-7.3264	-5.11974	251.281	-113.224	-18.4222	-28.577	6.29865	-32.647	5.57239	4.86825	-0.0521224	27.6135	-6.0773	-1.02606	-3.19283	1.79334	-0.296444	-0.0805918	-4.60417	1.6734	-3.53531	0.680986	-5.35102	-0.735729	0.335703	-0.0173716	-0.0105806	-0.126906	-0.0331527	-3.56098	-0.494654	0.504034	-0.0122077	-0.00600845	-0.0703665
0.159158	-18.3867	-15.5966	-13.405	-6.07117	207.558	-118.051	-17.8213	-31.793	7.06286	-35.0554	4.05426	5.51681	-0.0495919	28.9035	-5.38413	-1.38579	-3.90773	1.99248	-0.30757	-0.0915083	-6.72549	1.59144	-9.70632	0.423425	-4.91353	-0.694891	0.461299	-0.016539	0.00392065	-0.137295	0.0549691	-3.42511	-0.467195	0.476783	-0.0122819	0.00229363	-0.0645566
0.169105	-15.6507	-10.1623	-16.996	-4.76429	164.115	-116.728	-17.1737	-34.9521	7.76706	-36.9283	2.37541	6.10768	-0.0469187	29.9734	-4.0288	-1.82078	-4.65942	2.15794	-0.302304	-0.100548	-6.96942	1.3309	-13.3639	0.154198	-4.33813	-0.623161	0.597462	-0.0146687	0.0229505	-0.141885	0.00062298	-3.08227	-0.384542	0.499625	-0.0111358	0.0205741	-0.0576198
0.179053	-11.8842	-3.33381	-18.7083	-1.30097	122.024	-110.654	-16.5304	-37.9675	8.38632	-38.2646	0.606159	6.62367	-0.0442394	30.7594	-1.95832	-2.29717	-5.42927	2.27886	-0.281981	-0.107098	-5.73171	0.847207	-15.0009	-0.10988	-3.75587	-0.540069	0.708572	-0.0125718	0.0403379	-0.140929	-0.120119	-2.70499	-0.293038	0.539001	-0.0101834	0.0395866	-0.0515479
0.189	-6.98641	4.18521	-19.1256	4.30055	82.1884	-101.175	-15.9276	-40.7566	8.90056	-39.0839	-1.19469	7.05333	-0.0416682	31.1917	0.856872	-2.75219	-6.19022	2.34841	-0.250544	-0.110806	-3.42203	0.137383	-15.0979	-0.352646	-3.24191	-0.460983	0.779538	-0.0107016	0.0526502	-0.135726	-0.254138	-2.40148	-0.218333	0.568992	-0.0101405	0.0536077	-0.0470011
0.198947	-0.821376	11.7734	-19.1241	11.3349	45.2792	-89.3217	-15.3905	-43.1996	9.29256	-39.4162	-2.98391	7.3922	-0.0392962	31.2019	4.37688	-3.08185	-6.91835	2.36495	-0.215174	-0.111603	-0.424235	-0.918555	-14.3684	-0.567041	-2.79589	-0.381693	0.813788	-0.0100587	0.060101	-0.126089	-0.379792	-2.24685	-0.179255	0.568936	-0.010773	0.0590856	-0.044683
0.208895	-1.81623	17.8107	-17.9204	6.90146	16.7288	-76.9359	-14.5954	-45.6774	9.56845	-39.3925	-4.72026	7.63276	-0.0375031	30.3255	1.79546	-2.76956	-7.60981	2.36035	-0.278977	-0.108167	2.67462	-1.47823	-12.6566	-0.751662	-2.57562	-0.330675	0.795498	-0.0104144	0.0607082	-0.115575	-0.475419	-2.11253	-0.15894	0.585949	-0.0119029	0.0619528	-0.0467351
0.218842	0.221371	23.1071	-16.455	7.24946	-7.77323	-64.1601	-13.9029	-47.7113	9.70924	-38.9675	-6.39973	7.78428	-0.0359792	29.1459	1.78953	-2.71542	-8.02789	2.29338	-0.285928	-0.103233	5.77	-2.20575	-10.7358	-0.894511	-2.39962	-0.289734	0.764068	-0.0108265	0.0583246	-0.104708	-0.546603	-2.07987	-0.159599	0.578677	-0.013018	0.059303	-0.0493967
0.228789	-4.3143	26.1949	-13.6614	-3.31582	-23.7438	-51.2036	-13.0459	-49.7197	9.73432	-38.2644	-8.00335	7.84296	-0.0350242	27.0738	-3.56813	-2.224	-8.2155	2.20551	-0.352882	-0.0955826	8.53276	-2.30703	-8.41878	-1.01664	-2.39782	-0.273681	0.703042	-0.0115933	0.0521535	-0.0949735	-0.600031	-2.00415	-0.15911	0.597432	-0.0142278	0.0582912	-0.0543756
0.238737	-5.03304	28.2544	-10.9189	-8.34781	-35.8809	-38.7925	-12.2904	-51.1748	9.63483	-37.2624	-9.54268	7.82182	-0.0343015	24.7866	-5.62813	-2.23321	-8.00552	2.05995	-0.344465	-0.0875221	10.9311	-2.59387	-6.30988	-1.09288	-2.36645	-0.256736	0.656454	-0.0125447	0.0470902	-0.085974	-0.626076	-1.9808	-0.165935	0.602983	-0.0151133	0.0553261	-0.058916
0.248684	-2.89732	29.3118	-8.50621	-7.09833	-43.544	-28.0478	-11.5151	-52.0851	9.41251	-36.0341	-11.0171	7.72621	-0.0338975	22.4148	-4.94898	-2.534	-7.48667	1.878	-0.28785	-0.0795306	12.8155	-2.78621	-4.51425	-1.13954	-2.31893	-0.242641	0.625986	-0.0128602	0.043498	-0.0788296	-0.619811	-1.97046	-0.172209	0.606956	-0.0158074	0.0524382	-0.0627061
0.258632	1.65569	29.5582	-6.84312	-0.253589	-47.3572	-19.6237	-10.7	-52.4328	9.08354	-34.6306	-12.4309	7.56524	-0.0337716	20.1424	-1.91772	-2.95552	-6.76632	1.67813	-0.2028	-0.072003	14.1266	-2.93125	-3.10261	-1.15788	-2.24008	-0.228351	0.616078	-0.0126303	0.0421086	-0.0735958	-0.576821	-1.97289	-0.178629	0.610147	-0.0162288	0.0498061	-0.0658584
0.268579	8.58194	29.2468	-6.37845	10.4635	-48.4107	-13.8474	-9.86288	-52.1373	8.66229	-33.0896	-13.7901	7.35196	-0.0338544	18.1452	3.28329	-3.40762	-5.93536	1.47292	-0.0988485	-0.0652262	14.873	-3.26393	-2.09156	-1.14237	-2.09631	-0.209181	0.634652	-0.0119365	0.0439062	-0.0703046	-0.490923	-2.01824	-0.190265	0.605866	-0.0164396	0.046447	-0.068495
0.278526	8.15966	27.4943	-4.96837	8.74532	-44.8251	-8.30269	-8.91879	-51.8029	8.18622	-31.4882	-15.0912	7.08937	-0.0342077	15.8429	2.56952	-3.10667	-5.12822	1.30912	-0.0833534	-0.0580846	15.1633	-3.01803	-1.25352	-1.14757	-2.04475	-0.19514	0.639319	-0.0113134	0.0455321	-0.067404	-0.416017	-1.98866	-0.191868	0.627702	-0.0158068	0.0470807	-0.0720409
0.288474	11.4145	25.6385	-4.89335	14.6851	-39.8957	-5.77009	-7.86592	-50.9696	7.64951	-29.8582	-16.3484	6.79984	-0.0346285	13.9412	5.3283	-3.10024	-4.17491	1.14881	-0.0266918	-0.0526398	14.9234	-2.87998	-0.967735	-1.12334	-1.94374	-0.175057	0.664037	-0.0104951	0.0493873	-0.0654502	-0.298484	-1.99553	-0.202242	0.641632	-0.0148457	0.0465102	-0.0754097
0.298421	18.7896	23.8808	-6.50687	28.8567	-34.7268	-6.21218	-6.70969	-49.7034	7.07183	-28.2372	-17.5695	6.49723	-0.0349967	12.4562	11.8881	-3.42831	-3.07424	0.988973	0.0790547	-0.0488921	14.2228	-2.93844	-1.23331	-1.07144	-1.78613	-0.145005	0.705553	-0.0095152	0.0553071	-0.0634378	-0.140911	-2.05693	-0.224922	0.641667	-0.0132995	0.0437693	-0.0786299
0.308368	20.8516	21.6256	-7.0431	33.6571	-27.4115	-6.46964	-5.51504	-48.5755	6.49805	-26.6561	-18.7526	6.18548	-0.0354721	11.0132	14.2554	-3.40365	-2.05584	0.884439	0.129142	-0.0460742	13.353	-2.54392	-1.44771	-1.05057	-1.70993	-0.121554	0.72924	-0.00845761	0.0601929	-0.0614724	-0.00925465	-2.06259	-0.234337	0.6548	-0.0117757	0.0437661	-0.0810382
0.318316	18.232	19.2055	-6.36554	29.9714	-18.7002	-6.26399	-4.30154	-47.6594	5.93915	-25.1395	-19.9074	5.87448	-0.0359883	9.72215	12.8557	-3.13549	-1.17673	0.837126	0.127176	-0.0442326	12.4165	-1.76588	-1.60389	-1.05695	-1.71005	-0.105111	0.734883	-0.0074586	0.063723	-0.0594511	0.0897537	-2.01298	-0.230874	0.678692	-0.0103007	0.0462052	-0.082497
0.328263	10.9631	16.7763	-4.28128	18.0714	-9.21973	-5.16264	-3.08295	-47.0356	5.40157	-23.707	-21.0448	5.56885	-0.0364599	8.52995	7.58845	-2.55548	-0.474172	0.844117	0.0628324	-0.0428936	11.5213	-0.635196	-1.70141	-1.09101	-1.78388	-0.0941535	0.720495	-0.00652459	0.0656586	-0.0568304	0.149043	-1.90614	-0.214201	0.71236	-0.00871259	0.0510345	-0.0829107
0.338211	7.81926	14.9182	-3.54791	14.1106	-1.38769	-5.96534	-1.79904	-46.2611	4.87487	-22.3799	-22.1832	5.27958	-0.0367723	7.70163	5.94123	-2.24639	0.265132	0.860497	0.0378331	-0.0433346	10.4933	0.171441	-1.97073	-1.08789	-1.80666	-0.0839067	0.721026	-0.00547964	0.0680232	-0.0551671	0.239816	-1.83973	-0.202813	0.731673	-0.0079057	0.0537732	-0.0822875
0.348158	8.871	13.7245	-4.39798	16.1152	4.82538	-8.53276	-0.48593	-45.3057	4.36079	-21.1557	-23.3339	5.0081	-0.0369345	7.33219	7.79527	-2.26883	1.01079	0.882902	0.0613067	-0.0455239	9.39788	0.438122	-2.3416	-1.04422	-1.75719	-0.0718996	0.742916	-0.00435097	0.071536	-0.0546638	0.362016	-1.8443	-0.201936	0.73094	-0.007854	0.0533921	-0.0810564
0.358105	6.11661	12.6009	-3.80852	11.277	11.0095	-9.50619	0.737382	-44.7352	3.87867	-20.0157	-24.5021	4.74527	-0.0370081	6.94364	6.3533	-2.10932	1.63861	0.945268	0.0335203	-0.0479116	8.48587	0.961222	-2.53374	-1.03838	-1.77358	-0.0646264	0.743114	-0.00332536	0.0731782	-0.0532196	0.430193	-1.80156	-0.192405	0.736269	-0.00747372	0.0545096	-0.0793869
0.368053	-1.05179	11.3364	-1.47869	-1.17096	17.0102	-8.47716	1.84427	-44.5803	3.42513	-18.9525	-25.7006	4.48924	-0.0369836	6.29508	0.934812	-1.55715	2.14359	1.04492	-0.0702038	-0.0498419	7.78498	1.72469	-2.56887	-1.07231	-1.85466	-0.0610938	0.721669	-0.00244936	0.0730255	-0.0506814	0.442511	-1.71428	-0.176994	0.747926	-0.00654522	0.0569544	-0.0777418
0.378	-6.43303	10.0953	0.118358	-10.2326	21.1746	-7.58664	2.90254	-44.442	2.98429	-17.9713	-26.949	4.24417	-0.0368139	5.48292	-3.18827	-0.870059	2.65924	1.14541	-0.171985	-0.0522348	7.07817	2.12604	-2.7456	-1.0924	-1.89687	-0.0550089	0.708094	-0.00161161	0.0730964	-0.0481713	0.464225	-1.6776	-0.177546	0.746109	-0.00541542	0.0565743	-0.0772708
0.387947	-10.2226	8.80769	1.09284	-16.3433	24.0901	-6.68401	3.89602	-44.3605	2.5549	-17.0607	-28.2626	4.00618	-0.0365046	4.50896	-6.21497	-0.121315	3.19923	1.24159	-0.265867	-0.0549334	6.37639	2.20577	-3.05472	-1.10637	-1.91296	-0.0452841	0.69873	-0.000768545	0.0733181	-0.0452394	0.487598	-1.6957	-0.197444	0.732671	-0.00351364	0.0534132	-0.0788654
0.397895	-12.7644	7.48157	1.77059	-19.7928	25.7275	-5.41031	4.77769	-44.3831	2.14171	-16.2081	-29.6572	3.77228	-0.0361238	3.34873	-8.29379	0.596161	3.77608	1.32892	-0.345556	-0.0578322	5.76396	2.13375	-3.29708	-1.11532	-1.90876	-0.0349146	0.692991	6.67653e-05	0.073594	-0.0423999	0.522349	-1.71884	-0.214	0.716757	-0.00269755	0.0502292	-0.0798248
0.407842	-14.118	6.00911	2.21392	-21.0189	26.3544	-3.64543	5.53616	-44.5184	1.74354	-15.4023	-31.1504	3.54151	-0.0357133	1.9545	-9.47413	1.20057	4.43151	1.40135	-0.404598	-0.0607844	5.23762	1.94827	-3.46531	-1.12151	-1.8919	-0.02428	0.689785	0.000847065	0.0739142	-0.0396727	0.568226	-1.74718	-0.228683	0.700255	-0.00278384	0.0470514	-0.080627
0.417789	-14.3384	4.30972	2.45531	-20.5077	26.1012	-1.30209	6.16815	-44.7701	1.35997	-14.6344	-32.7607	3.3139	-0.0353163	0.278315	-9.80502	1.63974	5.20536	1.45307	-0.438699	-0.0636034	4.79908	1.67396	-3.55415	-1.12614	-1.86799	-0.0137808	0.688587	0.00153453	0.0742898	-0.0371171	0.624692	-1.78191	-0.242713	0.684168	-0.00361909	0.0438643	-0.0816171
0.427737	-13.5397	2.33985	2.51525	-18.6853	25.0695	1.5676	6.67958	-45.1336	0.990614	-13.8978	-34.5065	3.09053	-0.0349667	-1.69553	-9.36141	1.89567	6.12152	1.47914	-0.44633	-0.0660662	4.44122	1.34705	-3.56401	-1.12955	-1.84338	-0.00407062	0.688945	0.00208863	0.0747152	-0.034819	0.690276	-1.82418	-0.257245	0.66922	-0.00502459	0.0406556	-0.0830808
0.437684	-11.8546	0.104837	2.4062	-15.9271	23.3737	4.75312	7.08699	-45.5966	0.635498	-13.1884	-36.4053	2.87354	-0.0346751	-3.93953	-8.22974	1.97644	7.1908	1.47537	-0.427865	-0.0679302	4.14904	0.996656	-3.48666	-1.13077	-1.82501	0.00416671	0.690196	0.00249044	0.0751495	-0.032804	0.762922	-1.87567	-0.273475	0.656331	-0.00684982	0.0374791	-0.0853421
0.447632	-9.44685	-2.31438	2.11243	-12.5549	21.036	7.92579	7.41375	-46.1472	0.295168	-12.5063	-38.4714	2.6658	-0.0344536	-6.3644	-6.51323	1.90304	8.39165	1.43863	-0.385205	-0.068936	3.90119	0.656083	-3.33722	-1.12949	-1.8174	0.01028	0.692399	0.00270159	0.075607	-0.0311811	0.839359	-1.93748	-0.292242	0.645408	-0.00892599	0.0343226	-0.0885108
0.457579	-6.56412	-4.84078	1.61133	-9.32166	18.0525	10.7433	7.69527	-46.7635	-0.0298747	-11.8549	-40.7144	2.47091	-0.0343182	-8.88392	-4.47925	1.73053	9.68571	1.3679	-0.32564	-0.0687949	3.65859	0.277017	-3.17609	-1.12528	-1.82178	0.0140431	0.696178	0.00269851	0.0760911	-0.0300078	0.911439	-2.0271	-0.321081	0.632869	-0.0105171	0.0303887	-0.0934763
0.467526	-3.58457	-7.32844	1.00199	-6.66096	14.3813	12.8802	7.97283	-47.4293	-0.33824	-11.24	-43.1381	2.29296	-0.034271	-11.3952	-2.4299	1.50945	11.0202	1.26342	-0.258013	-0.0672324	3.41348	-0.117817	-3.0093	-1.11694	-1.84018	0.0150296	0.701376	0.00249207	0.0765461	-0.0292942	0.973212	-2.13861	-0.357582	0.618792	-0.0115832	0.0260193	-0.0997829
0.477474	-0.841707	-9.64118	0.368664	-5.05244	10.0406	14.0648	8.29114	-48.1264	-0.628487	-10.6681	-45.7384	2.13626	-0.0343082	-13.8002	-0.684514	1.2782	12.3384	1.12749	-0.192157	-0.0640506	3.15196	-0.548693	-2.87816	-1.10373	-1.87309	0.0135594	0.70779	0.00208324	0.0769286	-0.0289148	1.01621	-2.27308	-0.402852	0.602234	-0.0118169	0.0212309	-0.10743
0.487421	1.13093	-11.6111	0.0472123	-4.13333	5.1857	14.2475	8.68587	-48.8569	-0.898024	-10.1463	-48.5018	2.0046	-0.0344059	-16.0278	0.477167	1.05815	13.5887	0.964812	-0.137504	-0.0591832	2.92552	-0.841578	-2.67692	-1.08532	-1.92643	0.00834465	0.713486	0.00154491	0.0770441	-0.0288794	1.04172	-2.38083	-0.436783	0.59054	-0.0123933	0.0181492	-0.113573
0.497368	2.02325	-13.1541	0.195304	-4.06487	0.0502293	13.4757	9.18545	-49.6076	-1.1444	-9.67811	-51.4041	1.90144	-0.0345376	-18.0141	0.7793	0.85788	14.715	0.783909	-0.103626	-0.0527398	2.7322	-0.983997	-2.42607	-1.06366	-1.99993	-0.000164102	0.717789	0.000926765	0.0768473	-0.0290607	1.04724	-2.46	-0.459245	0.583256	-0.0132864	0.0166137	-0.118026
0.507316	1.78757	-14.1772	0.859612	-4.67265	-5.12821	11.9426	9.81797	-50.3669	-1.36486	-9.27052	-54.4101	1.82918	-0.0346652	-19.6872	0.187131	0.665669	15.6653	0.595197	-0.0936182	-0.0450666	2.57291	-0.974308	-2.14929	-1.04134	-2.09219	-0.0112674	0.719731	0.000292068	0.0762791	-0.0292899	1.03092	-2.50942	-0.470373	0.579625	-0.0144335	0.0164243	-0.120641
0.517263	0.602053	-14.6289	1.97273	-5.65197	-10.0076	10.0472	10.588	-51.1156	-1.55611	-8.92619	-57.4732	1.78904	-0.0347455	-20.9793	-1.13206	0.470586	16.3926	0.410954	-0.104897	-0.0367353	2.45139	-0.834556	-1.86848	-1.02252	-2.19914	-0.0236215	0.718745	-0.000283049	0.0753778	-0.0293724	0.990885	-2.53231	-0.471297	0.578209	-0.0157329	0.0172885	-0.121429
0.527211	-1.1304	-14.4693	3.33649	-6.49727	-14.3484	8.42833	11.4961	-51.8255	-1.7143	-8.65071	-60.5365	1.78123	-0.0347396	-21.8544	-2.79217	0.279589	16.8594	0.243335	-0.128385	-0.0284819	2.38906	-0.601712	-1.60609	-1.01228	-2.31404	-0.0353687	0.714384	-0.000703806	0.0742285	-0.0290867	0.925	-2.53475	-0.463831	0.576759	-0.0170141	0.0188197	-0.120497
0.537158	-2.90969	-13.6664	4.65732	-6.91607	-17.7152	7.57324	12.5391	-52.444	-1.83654	-8.4518	-63.5346	1.8053	-0.0346039	-22.245	-4.33561	0.110772	17.0277	0.104372	-0.152823	-0.0211061	2.39892	-0.348578	-1.38723	-1.01395	-2.42729	-0.0446045	0.70785	-0.000893858	0.073063	-0.028347	0.833801	-2.52987	-0.451303	0.572668	-0.0181215	0.0205505	-0.118215
0.547105	-4.29797	-12.2207	5.61765	-6.93623	-19.6132	7.79436	13.7207	-52.8917	-1.92148	-8.34209	-66.3954	1.86065	-0.0343045	-22.0893	-5.37296	-0.00994086	16.8665	0.00421	-0.168306	-0.0153223	2.47195	-0.165109	-1.25627	-1.02865	-2.52688	-0.0498085	0.701923	-0.000810112	0.0722128	-0.0272716	0.720321	-2.53599	-0.437865	0.562672	-0.0188764	0.0219274	-0.115024
0.557053	-5.27006	-10.0831	6.17532	-6.3128	-19.3197	8.98463	15.0897	-53.177	-1.96629	-8.35407	-69.0424	1.94517	-0.0337678	-21.295	-5.81258	-0.0795845	16.3422	-0.0481831	-0.173454	-0.0115987	2.57959	0.00838112	-1.21575	-1.05748	-2.62785	-0.0535494	0.693652	-0.00056824	0.0712766	-0.0259792	0.585317	-2.54652	-0.426263	0.550736	-0.0189751	0.0231906	-0.111693
0.567	-6.00879	-7.2329	6.4609	-4.56608	-16.4121	11.1404	16.6791	-53.2893	-1.96836	-8.51841	-71.3968	2.0566	-0.0329461	-19.8678	-5.64843	-0.0961246	15.4609	-0.0493919	-0.168384	-0.0101738	2.73807	0.32504	-1.19195	-1.10011	-2.74201	-0.0583841	0.680458	-0.000252242	0.0699421	-0.0246666	0.437413	-2.52553	-0.405516	0.544359	-0.0189775	0.0256386	-0.107008
0.576947	-6.62061	-3.74721	6.50523	-1.97239	-10.5889	13.9501	18.5154	-53.178	-1.9266	-8.86396	-73.3807	2.19254	-0.0317875	-17.8338	-5.00955	-0.0712501	14.2502	-0.000107787	-0.156486	-0.0110457	2.89621	0.77244	-1.20735	-1.15295	-2.87434	-0.0661734	0.662097	4.34895e-05	0.0680184	-0.0235638	0.283571	-2.48446	-0.383042	0.544039	-0.0185155	0.0287765	-0.102299
0.586895	-7.27882	0.286148	6.41361	1.22958	-1.72404	17.1834	20.5972	-52.7707	-1.84089	-9.41334	-74.9183	2.34939	-0.0302838	-15.2695	-4.06418	-0.0227926	12.7652	0.0947927	-0.141966	-0.0140182	3.04311	1.35777	-1.2458	-1.21155	-3.02422	-0.0780482	0.639279	0.000239915	0.0654626	-0.0229037	0.133682	-2.42229	-0.358954	0.551095	-0.0176681	0.0326097	-0.0977761
0.596842	-8.12771	4.70504	6.27113	4.63838	10.2923	20.5188	22.8907	-51.971	-1.71285	-10.1786	-75.9387	2.52222	-0.0284722	-12.2796	-2.99146	0.02903	11.0786	0.227532	-0.129211	-0.0187516	3.15809	2.05094	-1.30016	-1.26939	-3.18546	-0.0944833	0.614347	0.000265491	0.0623997	-0.0229537	-0.000907665	-2.34521	-0.334171	0.565133	-0.0165519	0.0369254	-0.0936525
0.606789	-8.41585	8.63858	5.83459	8.10205	17.3949	22.7075	25.327	-50.6769	-1.54615	-11.1595	-76.3781	2.70461	-0.0264361	-10.3196	-1.74322	0.0950196	9.59445	0.544437	-0.203385	-0.0248194	3.23473	2.79743	-1.36678	-1.32017	-3.34756	-0.115187	0.590452	6.79301e-05	0.059071	-0.0239522	-0.111181	-2.26361	-0.3098	0.584301	-0.0152973	0.0413943	-0.0900668
0.616737	-8.22534	12.0953	5.11572	11.0625	20.0988	23.6866	27.806	-48.7804	-1.34762	-12.3413	-76.1821	2.88913	-0.0243149	-9.23906	-0.466936	0.17657	8.10072	1.11907	-0.3612	-0.031774	3.27543	3.50326	-1.45129	-1.35711	-3.49407	-0.138971	0.572065	-0.000379056	0.0558727	-0.0261207	-0.188759	-2.19414	-0.287479	0.604977	-0.0140674	0.04551	-0.0871021
0.626684	-7.79873	15.0529	4.26874	13.3268	19.1441	23.4961	30.2187	-46.2709	-1.12463	-13.7005	-75.3072	3.06609	-0.0222941	-8.90527	0.601567	0.276633	6.41062	1.95942	-0.592969	-0.039103	3.28756	4.1764	-1.53862	-1.37829	-3.6259	-0.166142	0.558857	-0.00114435	0.0527441	-0.0294583	-0.23417	-2.13434	-0.266375	0.627522	-0.0129077	0.0494074	-0.0846886
0.636632	-7.38127	17.5126	3.45036	14.7203	15.4441	22.1505	32.4519	-43.1883	-0.887755	-15.198	-73.7224	3.22465	-0.0206142	-9.15352	1.22655	0.402536	4.37229	3.01431	-0.877787	-0.046259	3.28405	4.83113	-1.6152	-1.38273	-3.74641	-0.196926	0.549518	-0.00228033	0.0495488	-0.0338566	-0.250425	-2.07893	-0.245574	0.652938	-0.0118701	0.0533485	-0.0827766
0.646579	-7.02116	19.4231	2.62337	14.7848	10.2662	19.7668	34.3839	-39.5907	-0.651011	-16.7734	-71.413	3.35387	-0.0195631	-9.79257	1.25265	0.572798	1.89307	4.17814	-1.18063	-0.0527758	3.24829	5.36561	-1.77137	-1.37143	-3.85461	-0.229836	0.543319	-0.00387785	0.0462537	-0.0389903	-0.247827	-2.05532	-0.2371	0.676574	-0.0101916	0.0563482	-0.0829744
0.656526	-6.8559	20.7535	1.87612	13.702	4.94201	16.483	35.9089	-35.576	-0.429918	-18.3524	-68.3818	3.44311	-0.0194463	-10.6705	0.63072	0.807782	-1.03663	5.31526	-1.46039	-0.0582652	3.20736	5.83018	-1.98565	-1.34415	-3.95242	-0.265037	0.538985	-0.00585121	0.0427218	-0.0447583	-0.226973	-2.0489	-0.235116	0.69988	-0.00838323	0.0588989	-0.0844014
0.666474	-6.91307	21.475	1.26165	11.6452	0.625051	12.3065	36.9285	-31.2615	-0.24071	-19.8396	-64.6526	3.4835	-0.0205684	-11.6349	-0.620699	1.12402	-4.36764	6.28363	-1.67799	-0.0624529	3.17341	6.24229	-2.20873	-1.29941	-4.04017	-0.302724	0.535984	-0.00821143	0.0388758	-0.0510947	-0.189979	-2.0522	-0.236922	0.722982	-0.0064582	0.0611181	-0.0866243
0.676421	-7.1586	21.572	0.763994	8.71465	-1.83304	7.06874	37.4107	-26.7627	-0.101417	-21.1381	-60.2708	3.46934	-0.0231974	-12.5863	-2.44895	1.53138	-7.99478	6.95652	-1.80358	-0.0651748	3.13925	6.59812	-2.42656	-1.23584	-4.11617	-0.34239	0.534219	-0.0108787	0.0347186	-0.0578527	-0.137658	-2.06033	-0.24055	0.745975	-0.00460603	0.0631164	-0.0892688
0.686368	-7.48364	21.0772	0.331963	4.9877	-2.0924	0.454738	37.3814	-22.2057	-0.028004	-22.1532	-55.304	3.39892	-0.0275111	-13.4609	-4.77298	2.03083	-11.7871	7.23984	-1.82091	-0.0663836	3.08696	6.8728	-2.6314	-1.15083	-4.17661	-0.38341	0.534295	-0.0137619	0.0303159	-0.0649168	-0.0685766	-2.07038	-0.245006	0.768962	-0.00299804	0.0649299	-0.0921089
0.696316	-7.76686	20.0576	-0.0934074	0.507194	-0.168258	-7.94698	36.9285	-17.706	-0.033728	-22.8015	-49.8415	3.27452	-0.0335606	-14.2308	-7.50256	2.61528	-15.6056	7.08181	-1.72898	-0.0661432	2.98381	7.03613	-2.81777	-1.04077	-4.21746	-0.425308	0.537395	-0.0167722	0.0257803	-0.0722305	0.0205613	-2.08097	-0.249954	0.792246	-0.0017989	0.0665607	-0.0950257
0.706263	-7.88523	18.6661	-0.566085	-4.70755	3.47554	-18.6531	36.2106	-13.3743	-0.127476	-23.0273	-43.9932	3.1013	-0.0412223	-14.8717	-10.5509	3.27079	-19.3285	6.4747	-1.54082	-0.0646046	2.7821	7.05313	-2.97855	-0.899956	-4.23379	-0.467908	0.545287	-0.0198347	0.0212556	-0.0798276	0.135084	-2.09103	-0.255544	0.816382	-0.00117918	0.067996	-0.0979894
0.716211	-7.75796	17.1151	-1.11391	-10.6555	8.12363	-32.1834	35.4214	-9.30504	-0.313265	-22.8015	-37.8883	2.88509	-0.0501994	-15.3431	-13.8463	3.97918	-22.8636	5.45017	-1.28027	-0.0619823	2.42239	6.89591	-3.09768	-0.721494	-4.22116	-0.511475	0.560128	-0.022921	0.0169081	-0.0878505	0.282581	-2.09873	-0.262009	0.842464	-0.00129592	0.0692508	-0.101028
0.726158	-7.16923	15.646	-1.92738	-17.9522	12.8858	-49.0165	34.7825	-5.56391	-0.592422	-22.1338	-31.6747	2.63032	-0.0599962	-15.5839	-17.3507	4.72062	-26.1505	4.07072	-0.977936	-0.0585395	1.82188	6.38238	-3.27189	-0.499778	-4.17075	-0.554637	0.584789	-0.0259613	0.0129838	-0.0962327	0.46129	-2.14452	-0.287406	0.865113	-0.00128283	0.068628	-0.106623
0.736105	-6.20706	14.5743	-2.90731	-26.3532	16.6813	-69.3989	34.4895	-2.19962	-0.96204	-21.0687	-25.5157	2.33862	-0.0700555	-15.5146	-21.0005	5.47266	-29.1601	2.41778	-0.665678	-0.0545171	0.942615	5.56739	-3.41904	-0.227731	-4.08229	-0.59868	0.620459	-0.0290326	0.0095636	-0.105227	0.682715	-2.21609	-0.327995	0.886726	-0.00161745	0.0662754	-0.114308
0.746053	-4.9452	14.1676	-3.95827	-35.7068	18.3479	-93.335	34.6793	0.738782	-1.4087	-19.6766	-19.5884	2.00936	-0.0796826	-15.0542	-24.7467	6.2139	-31.8843	0.583075	-0.37386	-0.0501546	-0.248868	4.47531	-3.46997	0.101194	-3.95564	-0.644759	0.668117	-0.0321735	0.00670324	-0.115054	0.955004	-2.3045	-0.381637	0.909571	-0.00267818	0.0623307	-0.1239
0.756	-3.5387	14.5895	-4.9927	-45.6959	17.189	-120.147	35.358	3.21729	-1.90975	-18.037	-14.079	1.64343	-0.0881879	-14.1425	-28.5404	6.92502	-34.3304	-1.33912	-0.128735	-0.0456968	-1.70644	3.1948	-3.40038	0.477301	-3.79533	-0.692113	0.725831	-0.0353264	0.00442893	-0.12551	1.27061	-2.39853	-0.444046	0.934416	-0.00461679	0.0570848	-0.134675
0.765947	0.189752	8.6075	-0.467382	0.243	0.127979	0.621318	25.1089	0.109635	-1.28196	-13.9706	-9.32168	1.19978	-0.0903516	-24.6187	-27.1884	7.39649	-32.9371	-3.34287	0.0998735	-0.0433695	8.75426	7.57634	-2.95356	-1.48111	-3.89572	-0.382515	0.311735	-0.0210306	0.00425703	-0.0624752	-0.80525	-1.82338	-0.13108	0.693276	0.0127212	0.0721964	-0.073987
0.775895	1.28471	8.69522	-0.281784	0.24951	0.103575	0.464511	24.1502	0.883886	-1.53796	-11.5993	-5.22991	0.783149	-0.094449	-24.837	-29.9903	7.95572	-34.1095	-5.32254	0.251518	-0.0402491	9.463	7.47167	-2.618	-1.52864	-3.7934	-0.363979	0.299809	-0.0206941	0.00442571	-0.0602132	-0.936206	-1.7982	-0.119385	0.67293	0.012849	0.0708122	-0.0709726
0.785842	1.99489	9.01985	-0.00348325	0.254203	0.0480861	0.346325	23.2419	1.3035	-1.75038	-9.27988	-2.04421	0.387376	-0.0964055	-24.6459	-32.635	8.42401	-34.8969	-7.32851	0.373855	-0.0376819	10.0612	7.42492	-2.18847	-1.57017	-3.69688	-0.345927	0.294253	-0.0202441	0.00538204	-0.0582739	-1.05974	-1.7563	-0.100205	0.658435	0.0119794	0.0702491	-0.0668808
0.795789	2.16611	9.5243	0.394019	0.27736	0.0247944	0.199802	22.3832	1.45623	-1.90642	-7.25418	0.174968	0.0544291	-0.0961769	-24.0382	-35.0846	8.78951	-35.3128	-9.3382	0.471888	-0.0357495	10.5067	7.46312	-1.65526	-1.59928	-3.61391	-0.330431	0.295912	-0.01975	0.00704916	-0.0569641	-1.17016	-1.68899	-0.0700601	0.653773	0.00998544	0.0713439	-0.0614628
0.805737	1.67933	10.167	0.937578	0.329405	-0.0182365	0.117834	21.5752	1.45745	-2.00938	-5.76228	1.47202	-0.181189	-0.0938908	-23.0497	-37.2959	9.04293	-35.3725	-11.3343	0.551429	-0.0344685	10.7881	7.60309	-1.0033	-1.61251	-3.54846	-0.318522	0.304844	-0.0192278	0.00936727	-0.0564193	-1.26524	-1.58546	-0.024333	0.662222	0.00680366	0.0750724	-0.054315
0.815684	0.692298	10.9671	1.38847	0.375976	-0.00188527	0.0374679	20.8913	1.39735	-2.06959	-5.05821	1.97551	-0.29576	-0.0897843	-21.6893	-39.2076	9.17315	-35.1078	-13.2987	0.617321	-0.0339237	10.8802	7.68397	-0.435276	-1.60749	-3.51007	-0.309622	0.319815	-0.018901	0.0121011	-0.0563487	-1.35812	-1.49149	0.0139064	0.678756	0.00422304	0.0794678	-0.0489193
0.825632	-0.908335	11.9017	1.82958	0.442183	0.0593221	-0.0635356	20.3607	1.37648	-2.11664	-5.40522	1.88381	-0.277179	-0.0843211	-20.018	-40.7987	9.1797	-34.5473	-15.2162	0.673605	-0.0339779	10.7813	7.76874	0.120255	-1.57836	-3.50001	-0.305259	0.340924	-0.0187697	0.0151421	-0.0569677	-1.4311	-1.39801	0.0502531	0.705606	0.00166219	0.0848663	-0.0445145
0.835579	-2.43881	12.5513	2.19735	0.498256	0.0529121	-0.20644	19.5982	1.41254	-2.1398	-5.59955	1.7601	-0.250159	-0.0776535	-18.3372	-42.0624	9.06815	-33.6975	-17.0768	0.72323	-0.0342455	10.6279	7.75357	0.593527	-1.54045	-3.47798	-0.297402	0.35959	-0.0185544	0.018298	-0.0568659	-1.5013	-1.31311	0.0786485	0.728059	-9.44406e-05	0.0894671	-0.0413119
0.845526	-3.80178	12.8802	2.49899	0.54587	0.0689377	-0.383492	18.629	1.47503	-2.13423	-5.61524	1.61692	-0.217944	-0.0704489	-16.6922	-42.9893	8.84387	-32.6	-18.8617	0.767285	-0.0346903	10.4283	7.62202	1.00102	-1.49105	-3.44573	-0.287398	0.376694	-0.0182285	0.0214754	-0.0562711	-1.56027	-1.24507	0.0975916	0.746131	-0.0011715	0.092979	-0.039557
0.855474	-4.8824	12.8635	2.71427	0.547404	0.0641163	-0.551597	17.4834	1.52517	-2.09678	-5.44457	1.46527	-0.18365	-0.0632166	-15.1312	-43.5828	8.51729	-31.296	-20.5555	0.806348	-0.0352232	10.1843	7.36333	1.34387	-1.4303	-3.4023	-0.275837	0.392897	-0.0177118	0.0246403	-0.0553251	-1.60193	-1.19624	0.108273	0.759214	-0.00172953	0.095307	-0.0388929
0.865421	-5.62519	12.5203	2.83281	0.542917	0.0326093	-0.734685	16.2143	1.53687	-2.03009	-5.09662	1.31579	-0.150072	-0.0564037	-13.6802	-43.8627	8.10345	-29.8318	-22.1466	0.840683	-0.0357728	9.89511	6.99093	1.62323	-1.35939	-3.34796	-0.263222	0.408622	-0.0169163	0.0277676	-0.0541387	-1.62138	-1.16538	0.112181	0.767794	-0.00189995	0.0965252	-0.0390021
0.875368	-5.99209	11.9162	2.84455	0.515526	-0.0565616	-0.893612	14.8767	1.48588	-1.93656	-4.59199	1.17782	-0.119827	-0.0503645	-12.3522	-43.8699	7.62112	-28.2556	-23.6297	0.870361	-0.0362826	9.58033	6.5147	1.84123	-1.28027	-3.28214	-0.249985	0.424586	-0.0157458	0.0308606	-0.0528526	-1.61653	-1.15048	0.1109	0.77237	-0.00178735	0.096768	-0.0395748
0.885316	-5.96239	11.0981	2.74446	0.464749	-0.0866561	-1.03429	13.5309	1.35397	-1.81954	-3.95982	1.05908	-0.0950876	-0.0453612	-11.1495	-43.6472	7.08999	-26.6125	-25.0057	0.895448	-0.0367235	9.23907	5.94786	2.00655	-1.19654	-3.20547	-0.236265	0.441136	-0.0140786	0.0339418	-0.0515196	-1.5888	-1.14928	0.106248	0.773328	-0.00146075	0.0962325	-0.0402624
0.895263	-5.5855	10.1562	2.54271	0.394332	-0.112849	-1.16376	12.2327	1.13237	-1.68371	-3.23738	0.964407	-0.0772849	-0.0415189	-10.062	-43.2681	6.53158	-24.9481	-26.2823	0.91557	-0.0370638	8.88127	5.32173	2.1262	-1.11146	-3.11914	-0.222335	0.458123	-0.0117443	0.0369741	-0.0501851	-1.54006	-1.15823	0.0998853	0.771028	-0.000959061	0.0950884	-0.0407544
0.905211	-4.91401	9.20159	2.23671	0.302875	-0.207224	-1.28242	11.0285	0.815247	-1.53043	-2.46596	0.893587	-0.0667927	-0.0387053	-9.06572	-42.7985	5.964	-23.3032	-27.473	0.930508	-0.0372536	8.52728	4.66753	2.19551	-1.02824	-3.02537	-0.208137	0.47476	-0.00840756	0.0398793	-0.0487929	-1.47276	-1.17283	0.0939135	0.765001	-0.000218442	0.0934519	-0.0405702
0.915158	-3.99954	8.27887	1.84263	0.211846	-0.193899	-1.35386	9.94977	0.403688	-1.36418	-1.67621	0.850586	-0.0646346	-0.0370717	-8.15593	-42.3	5.40467	-21.7084	-28.5927	0.939534	-0.0373459	8.18769	4.0081	2.22392	-0.949355	-2.92324	-0.191463	0.492249	-0.00508936	0.0430467	-0.047105	-1.39383	-1.19225	0.0883834	0.756573	0.000559344	0.09154	-0.0398621
0.925105	-2.93378	7.4608	1.38847	0.116817	-0.241561	-1.37192	9.01474	-0.0823113	-1.19022	-0.900963	0.833501	-0.0703379	-0.0364839	-7.31515	-41.8248	4.86519	-20.1898	-29.6587	0.942187	-0.0373395	7.86921	3.37903	2.22648	-0.876714	-2.81473	-0.172631	0.510059	-0.0018705	0.0464116	-0.0451467	-1.30801	-1.21369	0.083963	0.74592	0.00134332	0.0894349	-0.0385459
0.935053	-1.82218	6.78925	0.916063	0.0409796	-0.255806	-1.30741	8.22877	-0.615217	-1.01358	-0.162882	0.839157	-0.0829802	-0.0367736	-6.52461	-41.4115	4.35234	-18.7659	-30.6875	0.937922	-0.0372526	7.58187	2.82192	2.22299	-0.811623	-2.70408	-0.152342	0.527646	0.00115932	0.0498834	-0.0429865	-1.2206	-1.23566	0.0808241	0.733568	0.00210133	0.0872009	-0.0366617
0.945	-0.739834	6.31343	0.462182	-0.0257378	-0.282021	-1.18507	7.58882	-1.16221	-0.838637	0.520825	0.863421	-0.101347	-0.0377451	-5.75834	-41.0805	3.86777	-17.4507	-31.6939	0.926291	-0.0370967	7.33505	2.35912	2.23166	-0.752753	-2.59582	-0.131945	0.544457	0.00390941	0.0532852	-0.0407804	-1.13596	-1.25697	0.0786153	0.720047	0.0027884	0.0848559	-0.0343586
0.954947	0.266751	6.0309	0.0264673	-0.0699489	-0.317155	-1.07496	7.09249	-1.69856	-0.665622	1.1372	0.902233	-0.124351	-0.0392132	-4.99555	-40.8351	3.40884	-16.2511	-32.6902	0.90695	-0.036888	7.10491	2.01044	2.23343	-0.700698	-2.49592	-0.113221	0.559502	0.00630158	0.0563731	-0.0387491	-1.05729	-1.27687	0.0772278	0.705608	0.00339284	0.0824493	-0.0316982
0.964895	1.22182	5.88741	-0.403788	-0.1012	-0.355375	-0.988468	6.70528	-2.21415	-0.488846	1.68901	0.951485	-0.151154	-0.041011	-4.22397	-40.655	2.96894	-15.1655	-33.6867	0.879979	-0.0366421	6.86664	1.76552	2.21274	-0.655537	-2.41057	-0.0982315	0.571656	0.00831212	0.0588422	-0.0371258	-0.986549	-1.29462	0.0763893	0.690689	0.00392316	0.0800364	-0.0288103
0.974842	2.12434	5.80131	-0.822348	-0.103146	-0.392559	-0.918808	6.38479	-2.7011	-0.302268	2.18651	1.00747	-0.180907	-0.0430048	-3.44488	-40.5281	2.54102	-14.186	-34.6922	0.845676	-0.0363615	6.59319	1.61943	2.16263	-0.615934	-2.34662	-0.0893034	0.579755	0.0100225	0.0603626	-0.0361719	-0.925445	-1.30897	0.0757732	0.675694	0.00441071	0.0776409	-0.025839
0.984789	2.90668	5.64884	-1.21828	-0.0803763	-0.427751	-0.791025	6.05733	-3.135	-0.102834	2.65578	1.06625	-0.212253	-0.0450849	-2.66335	-40.456	2.11962	-13.3022	-35.7155	0.8049	-0.0360187	6.25255	1.58247	2.06923	-0.580953	-2.31139	-0.0889204	0.58284	0.0116933	0.0606425	-0.0362253	-0.874701	-1.31877	0.0744395	0.660604	0.00495148	0.0751312	-0.0229509
0.994737	3.51036	5.38924	-1.53732	-0.0415046	-0.486767	-0.574321	5.6623	-3.48827	0.10156	3.11889	1.1254	-0.243555	-0.0472289	-1.88624	-40.4546	1.7017	-12.5079	-36.7643	0.758214	-0.0356576	5.86678	1.65734	1.96299	-0.542765	-2.30229	-0.0942394	0.581557	0.0122918	0.0600016	-0.0367918	-0.832017	-1.31796	0.0747221	0.647911	0.00522284	0.0730126	-0.020125
1.00468	3.87096	4.97081	-1.74406	0.0469915	-0.536788	-0.259735	5.13919	-3.7352	0.3091	3.60412	1.18259	-0.27333	-0.0494262	-1.10023	-40.5215	1.28601	-11.7996	-37.8485	0.707502	-0.03527	5.43772	1.8537	1.85741	-0.49674	-2.32225	-0.106511	0.576545	0.0117997	0.0584056	-0.0381144	-0.795798	-1.3048	0.0761389	0.638362	0.0052408	0.0712588	-0.01753
1.01463	3.90502	4.36903	-1.80243	0.139813	-0.61731	0.113197	4.43547	-3.83598	0.510118	4.136	1.23594	-0.299612	-0.0517036	-0.282824	-40.6601	0.873018	-11.1801	-38.9787	0.654928	-0.0348421	4.97359	2.17554	1.77339	-0.440076	-2.37131	-0.127467	0.568674	0.0105737	0.0557675	-0.0405412	-0.762539	-1.27887	0.0784418	0.633288	0.00475237	0.0699612	-0.0153494
1.02458	3.59202	3.57602	-1.67632	0.243207	-0.70067	0.46321	3.50857	-3.7507	0.691484	4.7367	1.28316	-0.320016	-0.054069	0.588022	-40.8504	0.465229	-10.652	-40.1658	0.602987	-0.0343976	4.49083	2.60065	1.74159	-0.368159	-2.4482	-0.156904	0.558913	0.00855575	0.0521694	-0.0440578	-0.729267	-1.24071	0.0806954	0.633697	0.00378892	0.0690939	-0.0138341
1.03453	2.82654	2.59813	-1.36041	0.288231	-0.982062	0.501625	2.3394	-3.38735	0.826263	5.42142	1.321	-0.330565	-0.0565052	1.54452	-41.0828	0.0670194	-10.2243	-41.4206	0.554233	-0.0339422	3.9684	3.13234	1.74167	-0.277611	-2.54892	-0.194365	0.548429	0.0057469	0.0477406	-0.0486854	-0.690055	-1.19231	0.081862	0.639661	0.00238484	0.0685501	-0.0130706
1.04447	1.6097	1.41001	-0.871303	0.297137	-0.645079	0.433001	0.920731	-2.72883	0.910264	6.20404	1.34721	-0.329583	-0.0589737	2.58025	-41.3337	-0.316542	-9.89411	-42.751	0.511101	-0.0335488	3.45769	3.76532	1.74935	-0.175188	-2.67292	-0.238084	0.538023	0.00224927	0.0427198	-0.0542272	-0.645145	-1.13952	0.0813956	0.651895	0.00061188	0.0683735	-0.0131374
1.05442	0.065881	0.340866	-0.256731	0.177888	-0.861049	0.482006	-0.711708	-1.7698	0.939545	7.06316	1.35731	-0.31528	-0.0612815	3.74195	-41.5693	-0.681702	-9.68145	-44.1651	0.477113	-0.0331751	3.06825	4.43677	1.73837	-0.0677766	-2.80879	-0.285355	0.527109	-0.0017823	0.0372083	-0.0603387	-0.599446	-1.08232	0.0802341	0.66779	-0.0013793	0.0684932	-0.0137866
1.06437	0.0453996	0.16825	-0.127106	0.427419	-0.47376	-1.62183	-2.10575	-1.00628	0.977916	7.83986	1.356	-0.296184	-0.0632403	5.43249	-41.3044	-1.05114	-9.66092	-45.6668	0.465329	-0.0329243	2.88048	4.55731	1.56633	0.0557078	-2.97448	-0.343227	0.516718	-0.00667303	0.0300944	-0.0677956	-0.512003	-1.00873	0.0759212	0.69913	-0.00363385	0.0699465	-0.016476
1.07432	-0.631888	-1.18499	0.221876	0.275664	-0.945393	-2.31833	-4.10203	0.104398	0.9534	8.83154	1.32441	-0.261275	-0.064511	6.73113	-41.1277	-1.37753	-9.61103	-47.2516	0.470851	-0.0327879	2.50133	4.77177	1.42242	0.158325	-3.1363	-0.396088	0.501588	-0.0106806	0.0230927	-0.0741201	-0.440406	-0.943396	0.0737931	0.725105	-0.00530584	0.0712695	-0.0182788
1.08426	-2.39336	-3.48397	1.0085	0.206203	-0.626779	-1.50746	-6.52321	1.56396	0.868706	9.99874	1.26312	-0.212256	-0.0649667	7.65235	-41.1553	-1.65028	-9.55485	-48.9135	0.498986	-0.0328381	2.05895	5.30785	1.39232	0.241994	-3.29705	-0.442116	0.485473	-0.01401	0.0169383	-0.0793182	-0.392111	-0.895042	0.0728443	0.74814	-0.00659321	0.0724444	-0.019458
1.09421	-4.28647	-5.68189	1.85412	0.158371	-0.384481	-0.883067	-8.9236	3.01881	0.76261	11.1755	1.17647	-0.158145	-0.0643587	8.56533	-41.2554	-1.87566	-9.59983	-50.6522	0.558994	-0.0329684	1.68582	5.88093	1.39409	0.317033	-3.44944	-0.484353	0.472075	-0.0170244	0.0114	-0.0841385	-0.342617	-0.862936	0.0692131	0.771749	-0.00773319	0.0734732	-0.0209455
1.10416	-5.90655	-7.7165	2.56358	0.127409	-0.185408	-0.448512	-11.2011	4.22498	0.653595	12.3133	1.0664	-0.106416	-0.0624756	9.45102	-41.4119	-2.05005	-9.74231	-52.462	0.654016	-0.033179	1.38144	6.39247	1.40118	0.377504	-3.5865	-0.520434	0.461885	-0.0197269	0.00670185	-0.088236	-0.293471	-0.851937	0.0634461	0.794411	-0.00871989	0.0744103	-0.022541
1.11411	-9.41407	-18.9509	4.05669	-5.10605	89.2166	85.7733	-17.2758	5.67541	0.555164	14.8635	1.05724	-0.0814237	-0.0660061	2.71343	-41.7204	-2.05883	-7.877	-54.2232	0.73457	-0.0394605	9.22307	7.70561	1.5078	-0.998967	-3.84423	-0.340282	0.377369	-0.0116385	0.0219153	-0.0599444	-1.35049	-1.36254	0.176895	0.75857	-0.00366871	0.0882536	-0.00599256
1.12405	-9.57131	-18.5205	3.78565	-6.83235	63.7046	68.62	-18.5102	5.87986	0.441908	15.4994	0.879668	-0.0489378	-0.0596423	4.87951	-42.3831	-2.12998	-8.5838	-56.249	0.889033	-0.0380952	7.238	7.56938	1.49993	-0.674835	-3.82765	-0.393162	0.395191	-0.0154935	0.0166723	-0.0677279	-1.0973	-1.32295	0.143557	0.762764	-0.00540473	0.0844242	-0.00903237
1.134	-8.87478	-17.9841	3.09909	-7.41552	41.2881	53.0742	-19.4132	5.25594	0.333183	15.9969	0.700934	-0.038276	-0.0522943	6.84595	-43.0713	-2.15094	-9.29137	-58.3629	1.05463	-0.0369335	5.48232	7.39749	1.50297	-0.398635	-3.81055	-0.435148	0.411712	-0.0190157	0.0124473	-0.0737119	-0.874171	-1.30454	0.11295	0.767608	-0.00685218	0.0813134	-0.0118858
1.14395	-7.42616	-17.2258	2.0489	-7.06907	22.7214	39.8452	-19.8931	3.90498	0.216777	16.2967	0.531995	-0.0483002	-0.0444135	8.59993	-43.7938	-2.12208	-10.0032	-60.5276	1.22259	-0.0359674	4.02948	7.19007	1.53635	-0.178648	-3.79337	-0.464816	0.426085	-0.0221979	0.00935732	-0.0776551	-0.689743	-1.30873	0.0859774	0.773042	-0.00800071	0.0790333	-0.0145278
1.15389	-5.67539	-16.2008	0.775708	-6.59401	7.95793	29.3214	-19.9948	2.1337	0.112044	16.3711	0.380342	-0.0702392	-0.0365175	10.2207	-44.688	-2.05845	-10.741	-62.7	1.37859	-0.0351791	2.85785	6.97102	1.60028	-0.0196214	-3.77779	-0.484955	0.436483	-0.0241307	0.00701228	-0.079968	-0.545834	-1.33342	0.0646913	0.777838	-0.0088125	0.0776902	-0.0165557
1.16384	-3.80679	-14.7593	-0.572194	-6.05355	-2.42449	21.5149	-19.5335	0.259054	0.0123593	16.1496	0.257876	-0.0975192	-0.02928	11.7159	-45.619	-1.95871	-11.5079	-64.8378	1.51363	-0.0344941	1.96577	6.76224	1.67272	0.0795442	-3.76519	-0.495838	0.443559	-0.0252474	0.0055078	-0.0807801	-0.443438	-1.3773	0.0484139	0.782557	-0.00939065	0.0772693	-0.0181642
1.17379	-2.05781	-12.793	-1.84824	-5.57959	-8.33888	16.3366	-18.4315	-1.41813	-0.0682626	15.5925	0.172374	-0.122815	-0.0232604	13.1288	-46.5031	-1.82898	-12.3142	-66.8944	1.61713	-0.0338268	1.33841	6.59036	1.71676	0.123624	-3.7584	-0.498606	0.447028	-0.0258169	0.00471324	-0.0802783	-0.380344	-1.43542	0.0365321	0.787681	-0.00974286	0.0777223	-0.0195062
1.18374	-0.599292	-10.286	-2.9212	-5.41424	-9.97528	13.5758	-16.6946	-2.6569	-0.11171	14.6942	0.128094	-0.140024	-0.0188846	14.5168	-47.2748	-1.67828	-13.1718	-68.8199	1.67996	-0.0330879	0.924429	6.44416	1.72804	0.12159	-3.75777	-0.494293	0.44712	-0.0260057	0.00453726	-0.0786269	-0.354893	-1.5039	0.0284326	0.792936	-0.00985337	0.0789522	-0.0206745
1.19368	0.488417	-7.25204	-3.714	-5.73506	-7.65755	12.8461	-14.3719	-3.32387	-0.107779	13.4755	0.126043	-0.145921	-0.0164019	15.9483	-47.8749	-1.51657	-14.095	-70.5618	1.69588	-0.0321886	0.666981	6.30329	1.71184	0.0854912	-3.76223	-0.484415	0.444923	-0.0259505	0.00490449	-0.0761251	-0.362662	-1.58045	0.0229598	0.797796	-0.00969785	0.0807647	-0.0217774
1.20363	1.23857	-3.74684	-4.22104	-6.61963	-1.83216	13.7559	-11.5643	-3.41337	-0.0588304	11.9863	0.164184	-0.140867	-0.0158702	17.4822	-48.2464	-1.35326	-15.096	-72.0655	1.66205	-0.0310522	0.518837	6.13731	1.67932	0.0275486	-3.76933	-0.470507	0.441903	-0.0257483	0.00576373	-0.073115	-0.399289	-1.66356	0.0190732	0.801417	-0.00922274	0.0829453	-0.0228728
1.21358	1.76778	0.140338	-4.50193	-8.04406	7.07169	15.8378	-8.40144	-3.03813	0.0216589	10.2952	0.238016	-0.128434	-0.0171674	19.168	-48.3504	-1.19509	-16.1886	-73.2735	1.5785	-0.0296258	0.439762	5.91162	1.64746	-0.0393508	-3.77636	-0.454233	0.439942	-0.0254717	0.0070857	-0.0699872	-0.458755	-1.75329	0.0153679	0.802976	-0.00837489	0.0852268	-0.0240547
1.22353	2.23844	4.27379	-4.64699	-9.89331	18.6463	18.7355	-5.04905	-2.3771	0.11428	8.48796	0.341126	-0.113991	-0.0200371	21.0272	-48.1513	-1.04624	-17.3824	-74.1257	1.44766	-0.027898	0.407509	5.59307	1.63991	-0.104392	-3.78043	-0.436909	0.440771	-0.0251576	0.00887338	-0.0670797	-0.535868	-1.8505	0.0105744	0.801531	-0.00708681	0.0873341	-0.0254033
1.23347	2.81563	8.48264	-4.75292	-11.981	32.536	22.1102	-1.68842	-1.62604	0.200509	6.65566	0.465857	-0.103097	-0.0241327	23.061	-47.6135	-0.908413	-18.6854	-74.5592	1.27348	-0.0259103	0.405896	5.15678	1.67975	-0.157941	-3.77938	-0.419785	0.445912	-0.0248314	0.0111279	-0.0647082	-0.623942	-1.95635	0.00324452	0.796399	-0.00530589	0.0889738	-0.02705
1.24342	3.4893	12.6504	-4.81416	-13.7094	48.5596	25.5376	1.56543	-0.988042	0.252641	4.87371	0.605416	-0.101927	-0.0290687	25.2581	-46.7477	-0.788754	-20.0993	-74.5076	1.05895	-0.0237829	0.418947	4.69681	1.83678	-0.196551	-3.78004	-0.406841	0.45461	-0.0239432	0.0135323	-0.0634976	-0.714095	-2.05344	-0.00122878	0.789645	-0.00331757	0.090624	-0.0282369
1.25337	4.34744	16.4346	-4.89594	-14.9732	66.6269	29.0046	4.48831	-0.4965	0.272309	3.23596	0.750401	-0.110259	-0.0344749	27.5369	-45.4435	-0.682514	-21.6113	-73.9054	0.810762	-0.0217065	0.421147	4.19746	2.07	-0.217626	-3.77976	-0.398208	0.467867	-0.0226642	0.016152	-0.0635849	-0.796508	-2.14844	-0.00615926	0.781008	-0.00115785	0.0918867	-0.0294451
1.26332	5.42189	19.5739	-5.01905	-15.5916	86.7103	32.5146	6.9303	-0.153404	0.259478	1.80934	0.892411	-0.126865	-0.0399855	29.7941	-43.6085	-0.588876	-23.1941	-72.6887	0.536364	-0.0199375	0.408249	3.66605	2.34023	-0.220992	-3.77791	-0.393712	0.485434	-0.0210723	0.0189732	-0.0649639	-0.863191	-2.24271	-0.0136259	0.770455	0.00112812	0.0924546	-0.0309877
1.27326	6.66594	21.8936	-5.15732	-15.3953	108.83	36.0295	8.80161	0.0807344	0.213921	0.638906	1.02327	-0.148964	-0.0452231	31.9281	-41.184	-0.511751	-24.8069	-70.8003	0.245763	-0.0187574	0.393104	3.13675	2.61502	-0.207946	-3.77411	-0.392631	0.50632	-0.0192348	0.02197	-0.0674757	-0.906702	-2.33244	-0.0240803	0.758346	0.00335685	0.0921545	-0.0329212
1.28321	8.06742	23.2339	-5.25689	-14.2867	133.159	39.5858	10.0491	0.26908	0.141239	-0.249575	1.13638	-0.172784	-0.0498923	33.8222	-38.0996	-0.458133	-26.385	-68.1942	-0.0459157	-0.0185181	0.398142	2.61733	2.87716	-0.18081	-3.76814	-0.394269	0.529371	-0.0172286	0.0250615	-0.0708999	-0.920874	-2.41489	-0.038039	0.745961	0.00533998	0.0909549	-0.0354517
1.29316	9.57011	23.5087	-5.24553	-12.2943	159.832	43.1455	10.6792	0.482082	0.0479726	-0.853899	1.22667	-0.194496	-0.0537569	35.3627	-34.3377	-0.436919	-27.8446	-64.8436	-0.318249	-0.0195709	0.448612	2.11748	3.12372	-0.141072	-3.75817	-0.397863	0.55364	-0.0151366	0.0281654	-0.0749922	-0.900785	-2.48754	-0.0559716	0.73461	0.00687469	0.0888367	-0.0387815
1.30311	11.1119	22.7451	-5.06305	-9.51398	189.028	46.5581	10.7637	0.757901	-0.0576824	-1.1978	1.29137	-0.211361	-0.0566565	36.4742	-29.9502	-0.458252	-29.0919	-60.7471	-0.546183	-0.0222278	0.577356	1.63818	3.36547	-0.0905683	-3.74326	-0.402681	0.577931	-0.0130554	0.0311472	-0.0794498	-0.843738	-2.54622	-0.077822	0.726227	0.00776867	0.0859153	-0.0430923
1.31305	12.5636	20.9902	-4.70067	-6.16239	220.827	49.5429	10.4102	1.11426	-0.167263	-1.31873	1.3296	-0.221712	-0.0585063	37.0943	-25.0834	-0.528452	-30.0202	-55.9363	-0.703415	-0.0267045	0.784598	1.19244	3.58206	-0.0318394	-3.72283	-0.408277	0.600964	-0.0111055	0.0338265	-0.0840141	-0.748664	-2.58671	-0.102841	0.722304	0.00784446	0.0823965	-0.0483616
1.323	13.7413	18.365	-4.25753	-2.77755	255.24	51.6821	9.75216	1.54278	-0.272885	-1.26533	1.3423	-0.224999	-0.059286	37.2272	-20.0344	-0.647975	-30.5336	-50.4818	-0.769217	-0.0330038	1.04419	0.769588	3.70375	0.0298401	-3.69629	-0.41396	0.621415	-0.00931301	0.0360163	-0.0884202	-0.621869	-2.61818	-0.135143	0.720801	0.00736724	0.0777578	-0.0549763
1.33295	14.4499	15.1	-3.75219	0.241713	292.154	52.5885	8.95909	2.0077	-0.366411	-1.09931	1.33285	-0.222114	-0.0590821	36.9008	-15.0963	-0.804828	-30.5457	-44.494	-0.733598	-0.0411045	1.36665	0.369228	3.7507	0.0936025	-3.66314	-0.419249	0.638522	-0.00783055	0.0375789	-0.0923809	-0.469956	-2.6368	-0.171872	0.722819	0.00612788	0.0724838	-0.0625741
1.34289	14.3558	11.5091	-3.22767	2.30067	331.277	51.9056	8.17775	2.47543	-0.443258	-0.876362	1.30552	-0.21422	-0.0580255	36.2217	-10.705	-0.976931	-30.0098	-38.1276	-0.607212	-0.0506118	1.7719	0.013823	3.74561	0.156322	-3.62422	-0.423516	0.651458	-0.00681434	0.0384503	-0.0956218	-0.303723	-2.63794	-0.209648	0.728869	0.0039674	0.0670277	-0.070615
1.35284	13.1679	7.93458	-2.73185	2.78819	372.092	49.3066	7.54686	2.89915	-0.500556	-0.651207	1.26544	-0.203089	-0.0562897	35.3365	-7.27749	-1.13686	-28.9156	-31.5743	-0.422807	-0.0610401	2.26836	-0.28816	3.72371	0.215654	-3.58078	-0.42637	0.659768	-0.00636072	0.0386117	-0.0979325	-0.135382	-2.61873	-0.245823	0.739236	0.000861849	0.0617889	-0.0786978
1.36279	10.6073	4.6822	-2.30571	1.10898	413.932	44.5587	7.16316	3.23217	-0.538163	-0.465215	1.21793	-0.190637	-0.0540689	34.4206	-5.20492	-1.259	-27.2945	-25.0558	-0.231796	-0.0717496	2.84433	-0.516639	3.71733	0.268336	-3.53648	-0.427921	0.663081	-0.00652659	0.0380825	-0.0992266	0.0223057	-2.57675	-0.277986	0.754116	-0.0030875	0.0571564	-0.0864493
1.37274	6.43689	1.94358	-1.94602	-3.21131	455.951	37.6305	7.07498	3.42331	-0.559614	-0.343841	1.16828	-0.17896	-0.0515722	33.6247	-4.81135	-1.33022	-25.2063	-18.8139	-0.0912925	-0.0818851	3.4521	-0.629749	3.75677	0.307744	-3.50003	-0.430249	0.6604	-0.00699076	0.0367383	-0.099757	0.154167	-2.51587	-0.307297	0.772146	-0.00720138	0.0530104	-0.0939346
1.38268	0.744258	-0.137607	-1.57284	-9.4507	496.746	28.828	7.30299	3.34353	-0.564271	-0.308633	1.12057	-0.171545	-0.0489355	33.0209	-6.0558	-1.37837	-22.716	-13.0877	-0.0417102	-0.0909558	4.05633	-0.533092	3.81503	0.330743	-3.48806	-0.433962	0.646581	-0.00766689	0.0340971	-0.0991479	0.249749	-2.4196	-0.329921	0.79564	-0.0112199	0.0501007	-0.100808
1.39263	-0.442672	-1.82871	-1.46432	-10.8695	530.888	22.575	7.38839	3.41285	-0.568455	-0.249814	1.06522	-0.161515	-0.0460104	32.1622	-4.17	-1.53922	-19.6541	-8.13432	-0.0159091	-0.0994454	5.0068	-1.00596	3.6808	0.318258	-3.34092	-0.417014	0.647046	-0.00797709	0.0334537	-0.096237	0.274614	-2.39174	-0.346415	0.780841	-0.0154809	0.0448668	-0.103347
1.40258	-4.63912	-3.00427	-1.45356	-17.5364	562.058	15.5938	7.77518	3.21408	-0.564401	-0.284912	1.01951	-0.157376	-0.0433136	31.3301	-5.50249	-1.44044	-16.6039	-4.07719	-0.119758	-0.105286	5.92109	-1.27458	3.6069	0.285864	-3.22569	-0.400458	0.640308	-0.00884996	0.0324405	-0.092554	0.258822	-2.33801	-0.354423	0.774311	-0.0198817	0.0417278	-0.105294
1.41253	-12.0817	-4.26138	-0.781769	-29.7116	589.446	9.14831	8.10205	3.26378	-0.499926	-0.298593	0.978116	-0.145022	-0.041146	30.4661	-9.55042	-1.22576	-13.6653	-1.0234	-0.298621	-0.108435	6.68131	-1.15209	3.72168	0.231511	-3.18501	-0.393441	0.618893	-0.00979785	0.0299135	-0.0889713	0.198234	-2.23633	-0.357948	0.783086	-0.0229197	0.040698	-0.107925
1.42247	-13.9676	-5.245	-0.311396	-35.0088	607.366	6.19156	8.1999	3.46778	-0.445993	-0.276804	0.935535	-0.131201	-0.0390426	29.4381	-9.64863	-1.36701	-10.8203	0.968994	-0.397097	-0.110002	7.57158	-1.52103	3.60643	0.155075	-3.03519	-0.373247	0.615262	-0.0100695	0.0293886	-0.0848327	0.0916114	-2.21371	-0.36336	0.75869	-0.0251241	0.0371496	-0.10779
1.43242	-19.5544	-6.27708	0.619552	-46.5394	620.595	4.89141	8.41734	3.3506	-0.393121	-0.299842	0.908056	-0.125675	-0.0374692	28.1293	-13.4127	-1.26419	-8.67143	2.05673	-0.506134	-0.108495	8.35377	-1.44639	3.57635	0.049563	-2.96254	-0.359767	0.600789	-0.0105538	0.0283828	-0.0811865	-0.0448124	-2.14475	-0.35745	0.752945	-0.0267934	0.0370276	-0.107662
1.44237	-19.4294	-7.08145	1.27597	-49.9378	623.856	7.14688	8.3758	3.37979	-0.354044	-0.278663	0.881046	-0.119112	-0.0360472	26.7548	-13.0452	-1.63689	-7.26941	2.39135	-0.491009	-0.105388	9.12773	-1.73904	3.2848	-0.0625877	-2.80594	-0.336348	0.604265	-0.0107015	0.029369	-0.0776671	-0.191525	-2.14096	-0.353733	0.723627	-0.0278518	0.0350771	-0.10551
1.45232	-14.5022	-7.42549	1.42194	-45.3174	617.25	12.445	8.1134	3.58047	-0.332013	-0.217123	0.855989	-0.110939	-0.0348529	25.5045	-9.24448	-2.28832	-7.14493	2.26882	-0.39535	-0.100653	9.8566	-2.24097	2.82951	-0.176813	-2.58637	-0.306825	0.624726	-0.0104859	0.0322067	-0.0748566	-0.328801	-2.18263	-0.347667	0.677875	-0.0283412	0.0320888	-0.101164
1.46226	-15.4701	-8.78832	2.17959	-49.2946	613.532	17.6312	7.86082	3.47526	-0.308309	-0.162252	0.845219	-0.110924	-0.0342031	23.6629	-10.3723	-2.3287	-6.983	2.13581	-0.370747	-0.0935248	10.4076	-2.19395	2.48365	-0.321824	-2.47123	-0.285486	0.629991	-0.0105044	0.0345349	-0.0727855	-0.472273	-2.16491	-0.330302	0.656666	-0.0280579	0.032843	-0.0973974
1.47221	-11.6649	-10.5313	2.31354	-43.8332	608.524	22.4782	7.4445	3.59918	-0.299571	-0.0756562	0.834978	-0.107492	-0.0337338	21.7173	-7.43878	-2.69402	-6.52919	1.94746	-0.289733	-0.0857629	10.8028	-2.34879	1.95426	-0.444322	-2.30115	-0.260839	0.654474	-0.0104265	0.0386208	-0.071964	-0.568335	-2.19196	-0.315557	0.623203	-0.0272602	0.0320589	-0.0923832
1.48216	-13.4376	-13.0213	3.19116	-47.0091	605.825	27.1284	7.02962	3.47713	-0.286767	0.0133946	0.835983	-0.110487	-0.0337037	19.4176	-9.13409	-2.45454	-6.06345	1.76882	-0.276371	-0.0767483	11.0264	-2.01439	1.53738	-0.589537	-2.23197	-0.242732	0.663524	-0.0107057	0.0422954	-0.0715811	-0.657634	-2.16347	-0.293138	0.612935	-0.0256394	0.0342996	-0.0883722
1.49211	-9.63496	-15.697	3.03478	-38.2615	602.026	30.2509	6.60823	3.60666	-0.294928	0.100237	0.836671	-0.108875	-0.0337935	17.1893	-5.97609	-2.61525	-5.30135	1.55429	-0.203922	-0.0682322	10.9617	-1.85545	0.79621	-0.690234	-2.11796	-0.220652	0.688838	-0.0109761	0.04721	-0.0717214	-0.671179	-2.18036	-0.280192	0.592847	-0.0236125	0.0342691	-0.0840953
1.50205	-0.131031	-18.4424	1.29118	-17.55	596.18	31.2463	6.2333	4.04014	-0.322547	0.171482	0.833583	-0.100746	-0.0338515	15.0282	2.10577	-3.06372	-4.25936	1.30585	-0.0772284	-0.0602189	10.5608	-1.97421	-0.30956	-0.737919	-1.94462	-0.192656	0.730946	-0.0111707	0.0533255	-0.071968	-0.599718	-2.25684	-0.281331	0.558513	-0.0211328	0.0309991	-0.0797947
1.512	5.13699	-21.4299	0.0616973	-3.75343	591.796	31.3861	5.92494	4.34089	-0.341601	0.235374	0.837171	-0.0957737	-0.034184	12.8163	6.77468	-2.9972	-3.23073	1.0986	-0.00469599	-0.0529234	10.0329	-1.75097	-1.18636	-0.798236	-1.84497	-0.170054	0.759324	-0.0111567	0.058895	-0.0722547	-0.516291	-2.2848	-0.274556	0.541787	-0.0184186	0.0299206	-0.0759187
1.52195	7.52888	-24.408	-0.635058	4.83308	588.586	30.7135	5.70231	4.54312	-0.353027	0.285175	0.845193	-0.0929761	-0.03469	10.7296	9.15511	-2.70884	-2.20917	0.934843	0.0363719	-0.046917	9.41465	-1.29593	-1.85825	-0.858653	-1.80194	-0.152481	0.776884	-0.0109438	0.0638391	-0.0725681	-0.42029	-2.27207	-0.262312	0.539693	-0.0156425	0.0305005	-0.0725667
1.53189	8.04264	-27.139	-0.872684	9.46902	586.308	29.2823	5.5744	4.67909	-0.357868	0.317189	0.855539	-0.091445	-0.0352771	8.9216	10.0405	-2.38122	-1.22087	0.817191	0.0588455	-0.0425509	8.75222	-0.719496	-2.35073	-0.910181	-1.79911	-0.139253	0.786222	-0.0105302	0.0680865	-0.0728287	-0.314068	-2.2272	-0.246884	0.549109	-0.0129641	0.0322584	-0.0698189
1.54184	7.35931	-29.5008	-0.777887	11.0646	584.756	27.1482	5.53848	4.77402	-0.356959	0.330675	0.866318	-0.0904696	-0.0358628	7.47434	9.95868	-2.10343	-0.292397	0.746169	0.0688448	-0.0399566	8.06285	-0.107736	-2.71447	-0.947983	-1.82147	-0.129639	0.789594	-0.00993476	0.0715894	-0.0729777	-0.20099	-2.15951	-0.230171	0.566566	-0.0104924	0.0347637	-0.0676308
1.55179	5.95256	-31.4525	-0.468977	10.2942	583.757	24.4481	5.5816	4.84093	-0.350691	0.327495	0.875995	-0.089633	-0.0363786	6.39732	9.2552	-1.90157	0.561046	0.71943	0.0686992	-0.0390789	7.36706	0.46406	-2.98831	-0.970023	-1.85653	-0.122807	0.788706	-0.00918826	0.0743129	-0.0729184	-0.0861243	-2.07816	-0.21397	0.588714	-0.00827366	0.0376146	-0.0659816
1.56174	4.13437	-33.0205	-0.0408157	7.64851	583.185	21.3688	5.68247	4.88832	-0.339617	0.312459	0.883339	-0.0886638	-0.03677	5.64727	8.14459	-1.76212	1.33489	0.731896	0.0587948	-0.039709	6.68395	0.936148	-3.2023	-0.976272	-1.89464	-0.117873	0.784758	-0.00832749	0.076244	-0.0725343	0.025139	-1.99265	-0.200208	0.612325	-0.00626958	0.0403984	-0.0648997
1.57168	2.11374	-34.2887	0.435378	3.52193	582.987	18.1386	5.80998	4.91551	-0.324196	0.292227	0.887702	-0.0876046	-0.0370077	5.14774	6.75844	-1.65319	2.03325	0.777299	0.0386946	-0.0415814	6.02761	1.26416	-3.38284	-0.969213	-1.92867	-0.113815	0.778519	-0.00738748	0.0774108	-0.0716842	0.126598	-1.91353	-0.191259	0.634039	-0.00434921	0.0426345	-0.0644817
1.58163	0.00714007	-35.3579	0.908682	-1.76449	583.307	14.8845	5.94666	4.92548	-0.305924	0.272328	0.888684	-0.0863253	-0.0370667	4.82109	5.16242	-1.53512	2.66293	0.846838	0.00804506	-0.0442844	5.40396	1.42709	-3.55757	-0.951298	-1.95635	-0.109594	0.770174	-0.00633559	0.0778663	-0.070194	0.214076	-1.85248	-0.189978	0.651038	-0.00218465	0.0438233	-0.0649409
1.59158	-2.18777	-36.2965	1.49331	-7.53768	583.974	11.8293	6.05667	4.89522	-0.284127	0.259297	0.886576	-0.0854597	-0.0369553	4.57786	3.4244	-1.38148	3.23338	0.933392	-0.0329223	-0.0475302	4.84542	1.4981	-3.63548	-0.925972	-1.97613	-0.106083	0.759987	-0.00522995	0.0776361	-0.0682461	0.289168	-1.78769	-0.186328	0.66729	-0.000750266	0.0452581	-0.0651359
1.60153	-4.41202	-37.2214	2.19751	-13.4763	584.937	9.11854	6.11324	4.81596	-0.259773	0.258569	0.881928	-0.0853656	-0.036697	4.33142	1.57937	-1.1695	3.75675	1.02931	-0.0836029	-0.051002	4.34654	1.47731	-3.6126	-0.896801	-1.98761	-0.10296	0.748082	-0.00413597	0.0767968	-0.0658343	0.350146	-1.72169	-0.180969	0.682346	4.20663e-05	0.0468543	-0.065177
1.61147	-6.63069	-38.2507	3.03946	-19.2812	586.233	6.83227	6.09906	4.68647	-0.234346	0.273526	0.87555	-0.0862482	-0.0363264	3.99956	-0.34565	-0.88503	4.24838	1.12704	-0.142819	-0.0543986	3.89858	1.3761	-3.48434	-0.866414	-1.99229	-0.100059	0.734722	-0.00310189	0.0754566	-0.0629998	0.397464	-1.65752	-0.174869	0.696191	0.000289993	0.0485212	-0.0652461
1.62142	-8.78375	-39.5294	4.0039	-24.6797	587.854	4.98191	5.99996	4.51077	-0.209256	0.306969	0.868379	-0.088229	-0.0358888	3.50148	-2.30178	-0.529622	4.72845	1.21941	-0.208164	-0.0574711	3.46516	1.20529	-3.27614	-0.837894	-1.99195	-0.0974296	0.720383	-0.00218621	0.0737394	-0.0598717	0.433826	-1.59932	-0.169115	0.708491	7.75047e-05	0.0501368	-0.0654629
1.63137	-10.7696	-41.1787	5.03757	-29.4608	589.791	3.58047	5.80991	4.30361	-0.186117	0.360147	0.861316	-0.0911712	-0.0354323	2.76194	-4.21193	-0.118935	5.22184	1.29968	-0.275952	-0.0600252	3.02036	0.962308	-3.03559	-0.81347	-1.98812	-0.0943945	0.705756	-0.00153881	0.0718465	-0.0564843	0.461787	-1.55604	-0.166548	0.71798	-0.000416208	0.0513344	-0.0661301
1.64132	-12.424	-43.2981	6.08611	-33.3173	591.995	2.61863	5.52523	4.08372	-0.166053	0.43424	0.855146	-0.0948117	-0.0350033	1.71831	-5.91902	0.307539	5.76198	1.36124	-0.339948	-0.0619396	2.54256	0.656293	-2.78581	-0.795113	-1.98232	-0.091048	0.691734	-0.00117016	0.0699376	-0.0530114	0.485039	-1.53272	-0.168296	0.724129	-0.00114551	0.0519537	-0.067352
1.65126	-13.6261	-45.9624	7.0868	-36.1015	594.397	2.12564	5.14544	3.87949	-0.150069	0.530406	0.850399	-0.098633	-0.0346417	0.308141	-7.29909	0.720796	6.3824	1.39841	-0.394716	-0.0631192	2.02782	0.291133	-2.55476	-0.784389	-1.97499	-0.087206	0.67946	-0.0010747	0.0682013	-0.0496029	0.506414	-1.53523	-0.175489	0.726042	-0.00206603	0.0518063	-0.0692017
1.66121	-14.2125	-49.1847	7.95122	-37.6267	596.804	2.03295	4.68176	3.70853	-0.138341	0.646243	0.847351	-0.102197	-0.0343678	-1.49158	-8.18558	1.08206	7.11416	1.4063	-0.433766	-0.0635163	1.46845	-0.119434	-2.36399	-0.780842	-1.969	-0.0831649	0.669207	-0.00126252	0.0667005	-0.046387	0.529569	-1.56469	-0.18887	0.723925	-0.00313158	0.0508262	-0.0717862
1.67116	-13.9983	-52.924	8.51393	-38.0956	599.016	2.27376	4.15077	3.59607	-0.131032	0.778683	0.845998	-0.104883	-0.0341944	-3.66506	-8.45335	1.36167	7.9788	1.38171	-0.451829	-0.063112	0.86204	-0.621865	-2.27911	-0.784682	-1.96487	-0.0787204	0.661419	-0.00169294	0.0654758	-0.0434173	0.552064	-1.63793	-0.215564	0.714575	-0.00368534	0.0481135	-0.0759522
1.68111	-13.0231	-56.9928	8.80496	-37.163	600.942	2.8501	3.56284	3.54455	-0.127027	0.925028	0.846256	-0.106486	-0.034116	-6.14349	-7.98657	1.53524	8.98345	1.32293	-0.444519	-0.0619057	0.294133	-1.09567	-2.23223	-0.796893	-1.96643	-0.0744326	0.655438	-0.00227822	0.0645402	-0.0407871	0.577736	-1.72019	-0.241374	0.704227	-0.00465207	0.0454837	-0.0799543
1.69105	-11.4022	-61.188	8.77955	-35.1645	602.54	3.79843	2.92965	3.56085	-0.125681	1.08338	0.847774	-0.106727	-0.0341186	-8.84005	-6.86469	1.61442	10.1131	1.23166	-0.413506	-0.0598877	-0.155041	-1.51904	-2.2513	-0.819048	-1.97525	-0.0701739	0.650731	-0.00293321	0.0638414	-0.0384788	0.604544	-1.80801	-0.265193	0.693106	-0.0060056	0.0430238	-0.0836103
1.701	-9.31719	-65.2494	8.45998	-32.4501	603.726	5.10226	2.27003	3.63529	-0.125838	1.24992	0.850361	-0.105738	-0.0341928	-11.6294	-5.22725	1.61469	11.3291	1.11142	-0.362733	-0.0570493	-0.404566	-1.86608	-2.3247	-0.85168	-1.99318	-0.066173	0.646211	-0.00355998	0.063232	-0.0364353	0.62951	-1.89407	-0.285269	0.68163	-0.007595	0.0408377	-0.086671
1.71095	-7.03435	-69.0623	7.96065	-29.5257	604.589	6.48853	1.59327	3.76266	-0.127141	1.42421	0.853559	-0.103577	-0.0343165	-14.3707	-3.32095	1.55953	12.5717	0.968512	-0.299665	-0.0534095	-0.486496	-2.14487	-2.40368	-0.893135	-2.02051	-0.0620624	0.641489	-0.00410403	0.0627475	-0.034508	0.648835	-1.97711	-0.301872	0.669666	-0.00929188	0.0388644	-0.0891704
1.72089	-4.84497	-72.4854	7.40348	-26.8446	605.304	7.77753	0.909233	3.93553	-0.129568	1.60562	0.856863	-0.10036	-0.0344634	-16.915	-1.4199	1.46806	13.7662	0.811129	-0.232902	-0.0490416	-0.41692	-2.36021	-2.46396	-0.942794	-2.05716	-0.0573043	0.636024	-0.00452847	0.0624	-0.0325281	0.657936	-2.05749	-0.315927	0.656769	-0.0109408	0.0369811	-0.0912162
1.73084	-3.05477	-75.4024	6.94021	-24.7754	606.031	8.85622	0.233567	4.12751	-0.132685	1.79105	0.859917	-0.0965983	-0.0346039	-19.1468	0.164412	1.36105	14.8308	0.648887	-0.172488	-0.0440585	-0.212961	-2.51435	-2.49092	-0.998558	-2.1049	-0.0519305	0.628737	-0.00483613	0.0620766	-0.0303469	0.652095	-2.13399	-0.328645	0.642923	-0.0123314	0.0350978	-0.0929868
1.74079	-1.77969	-77.7247	6.62958	-23.4532	606.849	9.80521	-0.418914	4.31925	-0.135755	1.9782	0.862726	-0.0927985	-0.0347413	-20.9845	1.29424	1.24947	15.6945	0.491386	-0.123716	-0.0387048	0.114259	-2.62945	-2.49526	-1.05802	-2.16195	-0.0456363	0.619464	-0.00504366	0.0617404	-0.027862	0.626361	-2.20918	-0.342202	0.626838	-0.0132176	0.0329323	-0.0946837
1.75074	-1.18874	-79.3476	6.46192	-23.5534	608.466	10.4056	-1.05423	4.53278	-0.139739	2.16961	0.864372	-0.0883728	-0.0348279	-22.2265	1.73846	1.12239	16.2636	0.351095	-0.0940137	-0.0332835	0.529897	-2.76568	-2.5569	-1.11841	-2.22339	-0.0379465	0.610402	-0.00517716	0.0615707	-0.0251942	0.577019	-2.29808	-0.360271	0.606702	-0.0135104	0.0302187	-0.0966639
1.76068	-1.09779	-80.2986	6.55499	-23.0828	610.135	11.2428	-1.64766	4.6737	-0.142744	2.35599	0.865414	-0.0854422	-0.034868	-22.9785	1.91246	1.01758	16.5315	0.231574	-0.072996	-0.0282177	1.0186	-2.71295	-2.52149	-1.18011	-2.29652	-0.0321343	0.597226	-0.00506576	0.060995	-0.022504	0.503797	-2.34171	-0.36482	0.590364	-0.0136112	0.028982	-0.0966512
1.77063	-1.30999	-80.5208	6.77525	-21.7991	612.042	12.3652	-2.20222	4.73448	-0.144303	2.53695	0.86594	-0.0841852	-0.0348661	-23.1226	2.00283	0.94026	16.451	0.140866	-0.0561464	-0.0239499	1.54587	-2.4813	-2.41554	-1.23921	-2.37843	-0.0290963	0.581093	-0.00479197	0.0599924	-0.0200456	0.407608	-2.34622	-0.35748	0.576598	-0.0134651	0.028941	-0.0947573
1.78058	-1.69335	-79.9507	7.00625	-19.6122	614.355	13.6532	-2.72119	4.71348	-0.144	2.71119	0.866341	-0.0846643	-0.0348431	-22.5265	2.13323	0.891912	15.9783	0.0852415	-0.0403816	-0.0208208	2.06721	-2.0805	-2.2673	-1.29044	-2.46715	-0.0302654	0.563577	-0.00447393	0.0585401	-0.0181908	0.290519	-2.31723	-0.339669	0.564519	-0.0130215	0.0298991	-0.0910958
1.79053	-2.19465	-78.5379	7.16401	-16.6705	617.187	14.8894	-3.21343	4.62795	-0.14201	2.87808	0.867136	-0.0865759	-0.0348345	-21.0733	2.34074	0.868382	15.0804	0.0684718	-0.0248575	-0.0190254	2.54065	-1.53375	-2.1031	-1.3265	-2.55885	-0.0371299	0.547415	-0.00423394	0.0567054	-0.0174163	0.155514	-2.26244	-0.312926	0.552937	-0.0122668	0.0316477	-0.085789
1.80047	-2.87838	-76.2486	7.22977	-13.3357	620.775	15.7476	-3.68885	4.49349	-0.138732	3.03598	0.868391	-0.0895395	-0.034843	-18.6632	2.53621	0.855434	13.7367	0.0921565	-0.0121628	-0.0185918	2.93609	-0.864177	-1.94905	-1.33902	-2.65266	-0.0515456	0.535546	-0.00417105	0.0545464	-0.0182348	0.00583214	-2.18859	-0.278639	0.541515	-0.011236	0.0341039	-0.0790156
1.81042	-3.87889	-73.0895	7.23404	-9.97876	625.181	15.8907	-4.16282	4.32053	-0.134086	3.18446	0.871077	-0.0934439	-0.0349239	-15.2584	2.56178	0.834405	11.9528	0.155103	-0.00683583	-0.0193966	3.23139	-0.0843061	-1.83749	-1.31968	-2.7502	-0.075011	0.530006	-0.00444055	0.0520904	-0.0210101	-0.155216	-2.09904	-0.238008	0.530687	-0.0100411	0.0372887	-0.0709936
1.82037	-5.35789	-69.1215	7.29199	-6.92136	630.409	15.0314	-4.65323	4.10236	-0.127945	3.32299	0.875989	-0.0985518	-0.0351109	-10.8884	2.23468	0.784181	9.76507	0.253995	-0.0143494	-0.0212176	3.41571	0.805959	-1.74821	-1.26151	-2.85569	-0.109479	0.532221	-0.00511432	0.0493084	-0.0261116	-0.32499	-1.99146	-0.19113	0.522183	-0.00872751	0.0413957	-0.0619287
1.83032	-7.49921	-64.4483	7.58976	-4.47805	636.308	12.9577	-5.19291	3.81529	-0.119409	3.45567	0.884618	-0.105658	-0.0354747	-5.64121	1.33957	0.679947	7.24325	0.38369	-0.0413131	-0.0237349	3.49015	1.80846	-1.62421	-1.16167	-2.97498	-0.156156	0.541964	-0.00624914	0.0461349	-0.0336638	-0.502571	-1.85995	-0.137779	0.518447	-0.00731375	0.0467	-0.0521003
1.84026	-10.4275	-59.2008	8.33479	-3.57406	642.309	9.32247	-5.82318	3.43586	-0.108129	3.59053	0.898935	-0.115789	-0.0361211	0.377944	-0.436419	0.485989	4.48586	0.537232	-0.0970345	-0.0264786	3.41211	2.80087	-1.3755	-1.02203	-3.10861	-0.214777	0.55837	-0.00804733	0.0425733	-0.043537	-0.689913	-1.72807	-0.0902691	0.517303	-0.00484403	0.0520159	-0.0435979
1.85021	-13.2624	-53.9696	9.18403	-3.57363	647.31	5.16339	-6.58716	3.03573	-0.096061	3.7379	0.917379	-0.127575	-0.0370194	6.54249	-2.37738	0.259581	1.74627	0.696171	-0.161498	-0.0293236	3.23428	3.61144	-0.981527	-0.84778	-3.23057	-0.27927	0.583463	-0.0102784	0.0391821	-0.054987	-0.874442	-1.60346	-0.0463519	0.5163	-0.00199779	0.0572235	-0.0359542
1.86016	-14.2298	-49.6949	9.25011	-3.90189	649.58	2.15136	-7.51648	2.84421	-0.0903253	3.91153	0.935352	-0.135918	-0.0380633	11.8702	-3.12637	0.118244	-0.609253	0.831799	-0.195033	-0.0323176	3.01494	3.76835	-0.513164	-0.642741	-3.27542	-0.336677	0.625733	-0.0125013	0.0373726	-0.0667557	-1.02872	-1.54177	-0.0136812	0.503126	0.000476464	0.0604092	-0.0294803
1.87011	-14.1045	-46.66	8.87188	-4.47775	649.556	0.583644	-8.55347	2.79498	-0.0898088	4.11288	0.950368	-0.141649	-0.039083	15.9186	-3.13403	0.037718	-2.37534	0.933325	-0.20823	-0.0349082	2.84954	3.58405	-0.0928294	-0.457807	-3.26226	-0.379979	0.671533	-0.0143097	0.0369089	-0.0769394	-1.15043	-1.52569	0.00939944	0.48215	0.00247094	0.0618859	-0.024126
1.88005	0	0	0	0	0	0	0	0	0	0	0	0	0	0	0	0	0	0	0	0	0	0	0	0	0	0	0	0	0	0	0	0	0	0	0	0	0
