Coordinates
version=1
nRows=227
nColumns=38
inDegrees=no

Units are S.I. units (second, meters, Newtons, ...)
If the header above contains a line with 'inDegrees', this indicates whether rotational values are in degrees (yes) or radians (no).

endheader
time	pelvis_tilt	pelvis_list	pelvis_rotation	pelvis_tx	pelvis_ty	pelvis_tz	hip_flexion_r	hip_adduction_r	hip_rotation_r	knee_angle_r	ankle_angle_r	subtalar_angle_r	mtp_angle_r	hip_flexion_l	hip_adduction_l	hip_rotation_l	knee_angle_l	ankle_angle_l	subtalar_angle_l	mtp_angle_l	lumbar_extension	lumbar_bending	lumbar_rotation	arm_flex_r	arm_add_r	arm_rot_r	elbow_flex_r	pro_sup_r	wrist_flex_r	wrist_dev_r	arm_flex_l	arm_add_l	arm_rot_l	elbow_flex_l	pro_sup_l	wrist_flex_l	wrist_dev_l
0	0.00601839	0.0460027	3.05148	1.64255	0.968678	0.281913	-0.333974	-0.103296	-0.180981	0.242712	-0.0963718	0	0	0.47858	-0.179657	-0.18889	0.206206	-0.390532	0	0	-0.220655	-0.209316	-0.0271755	0.613425	-0.617943	-0.162901	1.00691	0.807379	0	0	0.500406	0.586604	0.204776	1.08016	0.820422	0	0
0.00497797	0.00517413	0.0420022	3.04999	1.6345	0.968575	0.283279	-0.326966	-0.112152	-0.176648	0.265409	-0.117309	0	0	0.478235	-0.175016	-0.189867	0.223289	-0.386194	0	0	-0.220282	-0.215171	-0.0282134	0.615369	-0.617185	-0.162729	1.0071	0.807385	0	0	0.502452	0.586072	0.204397	1.08027	0.820408	0	0
0.00995595	0.00432368	0.0379998	3.04849	1.62644	0.968473	0.284646	-0.319946	-0.121008	-0.172303	0.288128	-0.138262	0	0	0.477878	-0.170369	-0.190841	0.240369	-0.381818	0	0	-0.219921	-0.221029	-0.0292556	0.617313	-0.616426	-0.162556	1.00728	0.807391	0	0	0.504498	0.58554	0.204018	1.08038	0.820393	0	0
0.0149339	0.00345969	0.0339947	3.047	1.61839	0.968371	0.286011	-0.312893	-0.129858	-0.167928	0.310907	-0.159254	0	0	0.477488	-0.165713	-0.191807	0.257438	-0.377336	0	0	-0.219587	-0.22689	-0.0303059	0.619257	-0.615668	-0.162384	1.00747	0.807396	0	0	0.506544	0.585008	0.203639	1.08048	0.820379	0	0
0.0199119	0.00257464	0.0299884	3.04551	1.61034	0.968273	0.287374	-0.305772	-0.138691	-0.163495	0.333791	-0.18031	0	0	0.477044	-0.161043	-0.192764	0.274483	-0.372666	0	0	-0.219301	-0.232753	-0.0313717	0.621201	-0.61491	-0.162211	1.00766	0.807402	0	0	0.50859	0.584476	0.20326	1.08059	0.820364	0	0
0.0248899	0.00166131	0.025985	3.04404	1.6023	0.968178	0.288734	-0.298542	-0.147489	-0.158971	0.356831	-0.201449	0	0	0.476516	-0.156358	-0.193711	0.291481	-0.367715	0	0	-0.219085	-0.238614	-0.032462	0.623145	-0.614151	-0.162038	1.00785	0.807407	0	0	0.510636	0.583943	0.202881	1.0807	0.820349	0	0
0.0298678	0.000713059	0.0219918	3.04259	1.59427	0.96809	0.290089	-0.29116	-0.15623	-0.15432	0.380078	-0.222675	0	0	0.475873	-0.151658	-0.194647	0.308397	-0.362394	0	0	-0.218962	-0.244463	-0.0335833	0.625089	-0.613393	-0.161866	1.00804	0.807413	0	0	0.512682	0.583411	0.202502	1.08081	0.820335	0	0
0.0348458	-0.00027575	0.0180188	3.04117	1.58625	0.968009	0.291438	-0.283577	-0.164882	-0.149507	0.403578	-0.243979	0	0	0.475079	-0.146947	-0.195575	0.325186	-0.356621	0	0	-0.218955	-0.250286	-0.0347439	0.627033	-0.612635	-0.161693	1.00823	0.807418	0	0	0.514728	0.582879	0.202123	1.08091	0.82032	0	0
0.0398238	-0.00130941	0.0140787	3.03976	1.57824	0.967938	0.292779	-0.275745	-0.173411	-0.144495	0.427366	-0.265333	0	0	0.474098	-0.142231	-0.196497	0.341793	-0.350333	0	0	-0.219086	-0.256068	-0.0359515	0.628977	-0.611876	-0.161521	1.00842	0.807424	0	0	0.516775	0.582347	0.201744	1.08102	0.820305	0	0
0.0448018	-0.00239069	0.0101872	3.03839	1.57026	0.967879	0.294108	-0.26762	-0.181776	-0.139251	0.451473	-0.286684	0	0	0.472889	-0.13752	-0.19742	0.358152	-0.343482	0	0	-0.219375	-0.261789	-0.0372104	0.630922	-0.611118	-0.161348	1.0086	0.80743	0	0	0.518821	0.581814	0.201365	1.08113	0.820291	0	0
0.0497797	-0.00352028	0.00636188	3.03705	1.5623	0.967834	0.295425	-0.259156	-0.189936	-0.133744	0.475913	-0.307959	0	0	0.471413	-0.132825	-0.19835	0.374189	-0.336045	0	0	-0.219836	-0.267427	-0.0385253	0.632866	-0.61036	-0.161175	1.00879	0.807435	0	0	0.520867	0.581282	0.200986	1.08124	0.820276	0	0
0.0547577	-0.00469649	0.00262226	3.03575	1.55437	0.967805	0.296726	-0.250315	-0.197843	-0.127951	0.50069	-0.329062	0	0	0.469633	-0.128161	-0.199296	0.389824	-0.328021	0	0	-0.220481	-0.272954	-0.0398998	0.63481	-0.609601	-0.161003	1.00898	0.807441	0	0	0.522914	0.58075	0.200607	1.08134	0.820261	0	0
0.0597357	-0.00591566	-0.00101057	3.03448	1.54648	0.967794	0.29801	-0.24106	-0.20545	-0.12185	0.525792	-0.349871	0	0	0.46751	-0.123547	-0.200268	0.404974	-0.319433	0	0	-0.221317	-0.278345	-0.0413335	0.636755	-0.608843	-0.16083	1.00917	0.807446	0	0	0.52496	0.580218	0.200228	1.08145	0.820247	0	0
0.0647137	-0.00717227	-0.00451483	3.03324	1.53863	0.967803	0.299272	-0.231362	-0.212709	-0.115431	0.551195	-0.370248	0	0	0.465012	-0.119	-0.201276	0.419553	-0.310324	0	0	-0.222345	-0.283571	-0.0428265	0.638699	-0.608084	-0.160658	1.00936	0.807452	0	0	0.527007	0.579685	0.199849	1.08156	0.820232	0	0
0.0696916	-0.00845912	-0.0078686	3.03203	1.53082	0.967834	0.300512	-0.221198	-0.219574	-0.108687	0.576859	-0.390035	0	0	0.462108	-0.114543	-0.202329	0.433478	-0.300754	0	0	-0.223563	-0.288604	-0.0443778	0.640644	-0.607326	-0.160485	1.00955	0.807457	0	0	0.529053	0.579153	0.199469	1.08167	0.820217	0	0
0.0746696	-0.00976769	-0.01105	3.03084	1.52306	0.967888	0.301726	-0.21055	-0.226	-0.101621	0.602731	-0.409063	0	0	0.45877	-0.110196	-0.203437	0.446668	-0.290801	0	0	-0.224964	-0.293414	-0.0459831	0.642588	-0.606567	-0.160312	1.00974	0.807463	0	0	0.5311	0.57862	0.19909	1.08177	0.820203	0	0
0.0796476	-0.0110882	-0.0140381	3.02968	1.51536	0.967966	0.302912	-0.199408	-0.231944	-0.0942442	0.628748	-0.427149	0	0	0.454977	-0.105982	-0.204607	0.459047	-0.28055	0	0	-0.226538	-0.297976	-0.0476389	0.644533	-0.605809	-0.16014	1.00993	0.807469	0	0	0.533146	0.578088	0.198711	1.08188	0.820188	0	0
0.0846256	-0.0124098	-0.0168133	3.02854	1.50771	0.968072	0.304067	-0.187771	-0.237368	-0.0865757	0.654833	-0.444111	0	0	0.450713	-0.101922	-0.205847	0.470549	-0.270095	0	0	-0.22827	-0.302263	-0.0493419	0.646477	-0.60505	-0.159967	1.01011	0.807474	0	0	0.535193	0.577556	0.198332	1.08199	0.820173	0	0
0.0896035	-0.0137212	-0.0193574	3.02742	1.50013	0.968205	0.30519	-0.17564	-0.242238	-0.0786429	0.6809	-0.459764	0	0	0.445967	-0.0980356	-0.20716	0.481113	-0.259534	0	0	-0.230144	-0.306252	-0.0510862	0.648422	-0.604291	-0.159794	1.0103	0.80748	0	0	0.53724	0.577023	0.197953	1.0821	0.820159	0	0
0.0945815	-0.0150103	-0.0216547	3.02631	1.49262	0.968369	0.306279	-0.163027	-0.246525	-0.0704814	0.706858	-0.473929	0	0	0.440733	-0.0943431	-0.208547	0.490691	-0.248962	0	0	-0.23214	-0.309923	-0.052868	0.650367	-0.603533	-0.159622	1.01049	0.807485	0	0	0.539286	0.576491	0.197574	1.0822	0.820144	0	0
0.0995595	-0.0162652	-0.0236918	3.02523	1.48517	0.968563	0.307332	-0.149948	-0.250207	-0.0621346	0.732605	-0.486439	0	0	0.435012	-0.0908602	-0.210006	0.499244	-0.238472	0	0	-0.234237	-0.313257	-0.054685	0.652312	-0.602774	-0.159449	1.01068	0.807491	0	0	0.541333	0.575958	0.197195	1.08231	0.820129	0	0
0.104537	-0.017474	-0.0254585	3.02416	1.4778	0.968791	0.308348	-0.136424	-0.253268	-0.0536535	0.758038	-0.497143	0	0	0.428809	-0.0876007	-0.211533	0.506743	-0.228149	0	0	-0.236413	-0.316239	-0.0565332	0.654256	-0.602015	-0.159276	1.01087	0.807496	0	0	0.54338	0.575426	0.196815	1.08242	0.820115	0	0
0.109515	-0.018625	-0.0269475	3.02312	1.4705	0.969055	0.309328	-0.122483	-0.255698	-0.0450958	0.783053	-0.505912	0	0	0.422137	-0.0845747	-0.213118	0.513172	-0.218071	0	0	-0.238648	-0.318861	-0.058412	0.656201	-0.601257	-0.159104	1.01106	0.807502	0	0	0.545427	0.574893	0.196436	1.08253	0.8201	0	0
0.114493	-0.0197076	-0.0281551	3.02212	1.46327	0.969357	0.31027	-0.108157	-0.257495	-0.0365252	0.807542	-0.512639	0	0	0.41501	-0.0817883	-0.214749	0.518524	-0.208304	0	0	-0.240919	-0.321113	-0.0603235	0.658146	-0.600498	-0.158931	1.01125	0.807508	0	0	0.547474	0.574361	0.196057	1.08263	0.820085	0	0
0.119471	-0.0207117	-0.029081	3.02116	1.45611	0.9697	0.311176	-0.093481	-0.258665	-0.0280108	0.831402	-0.517249	0	0	0.407447	-0.0792439	-0.216411	0.522801	-0.198903	0	0	-0.243206	-0.322994	-0.0622689	0.660091	-0.599739	-0.158758	1.01144	0.807513	0	0	0.549521	0.573828	0.195678	1.08274	0.820071	0	0
0.124449	-0.0216286	-0.0297286	3.02025	1.44902	0.970088	0.312046	-0.0784949	-0.259222	-0.0196259	0.854531	-0.519692	0	0	0.399473	-0.0769395	-0.218085	0.526017	-0.189914	0	0	-0.245491	-0.324503	-0.0642533	0.662037	-0.59898	-0.158585	1.01162	0.807519	0	0	0.551569	0.573295	0.195298	1.08285	0.820056	0	0
0.129427	-0.0224509	-0.0301047	3.01942	1.44199	0.970526	0.312883	-0.0632402	-0.259186	-0.0114467	0.876833	-0.519951	0	0	0.391112	-0.0748688	-0.21975	0.528192	-0.181367	0	0	-0.247758	-0.325647	-0.0662842	0.663982	-0.598221	-0.158413	1.01181	0.807524	0	0	0.553616	0.572762	0.194919	1.08296	0.820041	0	0
0.134405	-0.0231728	-0.0302192	3.01867	1.43502	0.971018	0.313689	-0.0477604	-0.258585	-0.00355132	0.898217	-0.518041	0	0	0.382391	-0.0730219	-0.221382	0.529354	-0.173286	0	0	-0.249992	-0.326431	-0.0683687	0.665927	-0.597462	-0.15824	1.012	0.80753	0	0	0.555664	0.57223	0.19454	1.08307	0.820027	0	0
0.139383	-0.0237899	-0.0300852	3.01802	1.42811	0.971573	0.314469	-0.0321003	-0.257453	0.0039819	0.918601	-0.514004	0	0	0.373339	-0.071385	-0.222957	0.529537	-0.165683	0	0	-0.252183	-0.326868	-0.0705169	0.667873	-0.596703	-0.158067	1.01219	0.807536	0	0	0.557711	0.571697	0.19416	1.08317	0.820012	0	0
0.144361	-0.0242998	-0.029718	3.0175	1.42124	0.972196	0.315226	-0.0163052	-0.25583	0.0110756	0.937909	-0.50791	0	0	0.363985	-0.0699415	-0.224449	0.528779	-0.158561	0	0	-0.254322	-0.32697	-0.0727412	0.669818	-0.595944	-0.157894	1.01238	0.807541	0	0	0.559759	0.571164	0.193781	1.08328	0.819997	0	0
0.149339	-0.0247016	-0.0291354	3.01712	1.4144	0.972897	0.315966	-0.000420208	-0.253763	0.017655	0.956075	-0.499853	0	0	0.354357	-0.0686722	-0.225832	0.527125	-0.151919	0	0	-0.256404	-0.326754	-0.0750521	0.671764	-0.595185	-0.157721	1.01257	0.807547	0	0	0.561806	0.570631	0.193401	1.08339	0.819983	0	0
0.154317	-0.0249963	-0.0283566	3.0169	1.40758	0.973687	0.316695	0.0155099	-0.251299	0.0236494	0.973038	-0.489953	0	0	0.344483	-0.067556	-0.22708	0.524621	-0.145749	0	0	-0.258425	-0.326238	-0.0774605	0.673709	-0.594426	-0.157549	1.01276	0.807552	0	0	0.563854	0.570098	0.193022	1.0835	0.819968	0	0
0.159295	-0.0251864	-0.0274021	3.01685	1.40077	0.974577	0.317421	0.0314418	-0.248492	0.0289939	0.988752	-0.478344	0	0	0.334389	-0.066571	-0.228169	0.521314	-0.140038	0	0	-0.260384	-0.325439	-0.0799775	0.675655	-0.593667	-0.157376	1.01295	0.807558	0	0	0.565902	0.569565	0.192643	1.0836	0.819953	0	0
0.164273	-0.025276	-0.0262928	3.017	1.39394	0.97558	0.318152	0.0473341	-0.245395	0.0336302	1.00317	-0.465175	0	0	0.3241	-0.0656947	-0.229077	0.517255	-0.134772	0	0	-0.262284	-0.324377	-0.0826112	0.677601	-0.592907	-0.157203	1.01314	0.807563	0	0	0.56795	0.569032	0.192263	1.08371	0.819939	0	0
0.169251	-0.0252703	-0.0250498	3.01736	1.38707	0.976712	0.318898	0.0631474	-0.242064	0.0375086	1.01627	-0.450605	0	0	0.313639	-0.0649048	-0.229784	0.512493	-0.129933	0	0	-0.264127	-0.323073	-0.0853679	0.679547	-0.592148	-0.15703	1.01332	0.807569	0	0	0.569998	0.568499	0.191884	1.08382	0.819924	0	0
0.174229	-0.0251759	-0.0236942	3.01794	1.38015	0.977987	0.31967	0.0788446	-0.238552	0.0405885	1.02802	-0.434804	0	0	0.303027	-0.0641801	-0.230273	0.507079	-0.125505	0	0	-0.265917	-0.321547	-0.0882526	0.681493	-0.591389	-0.156857	1.01351	0.807575	0	0	0.572046	0.567966	0.191504	1.08393	0.819909	0	0
0.179207	-0.0250002	-0.0222461	3.01874	1.37315	0.979424	0.320478	0.0943916	-0.234913	0.0428395	1.03841	-0.417942	0	0	0.292282	-0.0635006	-0.230531	0.501061	-0.121469	0	0	-0.26766	-0.319819	-0.0912652	0.683439	-0.590629	-0.156684	1.0137	0.80758	0	0	0.574094	0.567432	0.191124	1.08403	0.819895	0	0
0.184185	-0.0247511	-0.0207247	3.01978	1.36603	0.981042	0.321335	0.109758	-0.231197	0.0442425	1.04743	-0.400185	0	0	0.28142	-0.0628482	-0.230549	0.494488	-0.117808	0	0	-0.269363	-0.317907	-0.0944052	0.685385	-0.58987	-0.156511	1.01389	0.807586	0	0	0.576143	0.566899	0.190745	1.08414	0.81988	0	0
0.189163	-0.0244253	-0.0191453	3.02104	1.35895	0.982645	0.322175	0.124912	-0.227453	0.0447899	1.05507	-0.381699	0	0	0.270453	-0.0622055	-0.230323	0.487406	-0.114507	0	0	-0.271033	-0.315831	-0.0976687	0.687331	-0.58911	-0.156339	1.01408	0.807591	0	0	0.578191	0.566366	0.190365	1.08425	0.819865	0	0
0.194141	-0.0240314	-0.0175243	3.02252	1.35189	0.984231	0.322998	0.139829	-0.223725	0.0444857	1.06135	-0.362644	0	0	0.259393	-0.061559	-0.229852	0.479861	-0.111549	0	0	-0.272676	-0.313609	-0.101046	0.689277	-0.588351	-0.156166	1.01427	0.807597	0	0	0.580239	0.565833	0.189986	1.08436	0.819851	0	0
0.199119	-0.0235779	-0.0158767	3.02423	1.34486	0.985794	0.323806	0.154489	-0.22005	0.0433451	1.06626	-0.343169	0	0	0.248249	-0.0608972	-0.229139	0.471893	-0.10892	0	0	-0.274299	-0.311258	-0.104528	0.691224	-0.587592	-0.155993	1.01446	0.807602	0	0	0.582288	0.565299	0.189606	1.08446	0.819836	0	0
0.204097	-0.0230737	-0.014216	3.02613	1.33786	0.987328	0.3246	0.168874	-0.216462	0.0413946	1.06983	-0.323418	0	0	0.237029	-0.0602112	-0.228195	0.463543	-0.106608	0	0	-0.275906	-0.308795	-0.1081	0.69317	-0.586832	-0.15582	1.01465	0.807608	0	0	0.584336	0.564766	0.189226	1.08457	0.819821	0	0
0.209075	-0.022527	-0.0125543	3.02823	1.33087	0.988827	0.325379	0.182969	-0.21299	0.0386716	1.07206	-0.303525	0	0	0.225739	-0.0594944	-0.227032	0.454847	-0.104602	0	0	-0.277503	-0.306234	-0.111743	0.695117	-0.586073	-0.155647	1.01484	0.807614	0	0	0.586385	0.564233	0.188847	1.08468	0.819807	0	0
0.214053	-0.021946	-0.0109021	3.03049	1.32391	0.990288	0.326144	0.196762	-0.209656	0.0352229	1.07299	-0.283613	0	0	0.214383	-0.0587423	-0.225666	0.445839	-0.10289	0	0	-0.279094	-0.303593	-0.115437	0.697064	-0.585315	-0.155474	1.01503	0.807619	0	0	0.588434	0.5637	0.188467	1.08479	0.819792	0	0
0.219031	-0.0213384	-0.00926923	3.03289	1.31696	0.991704	0.326894	0.210244	-0.206478	0.0311043	1.07263	-0.263794	0	0	0.202964	-0.0579519	-0.224118	0.436552	-0.101463	0	0	-0.280681	-0.300884	-0.119163	0.699012	-0.584556	-0.155302	1.01522	0.807625	0	0	0.590483	0.563167	0.188088	1.0849	0.819777	0	0
0.224009	-0.0207111	-0.00766402	3.03541	1.31004	0.993069	0.32763	0.223409	-0.203468	0.0263792	1.071	-0.244171	0	0	0.191484	-0.057122	-0.222411	0.427014	-0.100311	0	0	-0.282267	-0.298122	-0.122895	0.700959	-0.583797	-0.155129	1.0154	0.80763	0	0	0.592532	0.562634	0.187708	1.085	0.819763	0	0
0.228987	-0.0200709	-0.0060941	3.03802	1.30312	0.994378	0.32835	0.236251	-0.200635	0.0211167	1.06814	-0.224838	0	0	0.179943	-0.0562526	-0.220571	0.417252	-0.0994259	0	0	-0.283854	-0.295322	-0.126612	0.702907	-0.583039	-0.154956	1.01559	0.807636	0	0	0.594581	0.562101	0.187328	1.08511	0.819748	0	0
0.233965	-0.0194241	-0.00456633	3.0407	1.29623	0.995622	0.329053	0.248769	-0.197981	0.0153908	1.06406	-0.205878	0	0	0.168341	-0.0553443	-0.218626	0.40729	-0.0987989	0	0	-0.285445	-0.292496	-0.13029	0.704855	-0.582281	-0.154783	1.01578	0.807642	0	0	0.59663	0.561569	0.186949	1.08522	0.819733	0	0
0.238943	-0.0187759	-0.00308706	3.04341	1.28934	0.996797	0.329738	0.26096	-0.195506	0.00927843	1.0588	-0.187367	0	0	0.156678	-0.0543983	-0.216603	0.397152	-0.0984214	0	0	-0.287039	-0.289658	-0.133904	0.706803	-0.581523	-0.154611	1.01597	0.807647	0	0	0.598679	0.561036	0.186569	1.08533	0.819719	0	0
0.243921	-0.0181312	-0.00166226	3.04612	1.28247	0.9979	0.330404	0.272824	-0.193205	0.00285782	1.05239	-0.169373	0	0	0.144951	-0.0534163	-0.214533	0.386859	-0.0982847	0	0	-0.288637	-0.286822	-0.137434	0.708751	-0.580765	-0.154438	1.01616	0.807653	0	0	0.600728	0.560504	0.18619	1.08544	0.819704	0	0
0.248899	-0.0174941	-0.000297588	3.0488	1.27561	0.998926	0.331048	0.284363	-0.191073	-0.00379313	1.04485	-0.151957	0	0	0.133161	-0.0523996	-0.212442	0.376429	-0.09838	0	0	-0.29024	-0.284	-0.140859	0.710699	-0.580008	-0.154266	1.01635	0.807658	0	0	0.602778	0.559971	0.18581	1.08554	0.819689	0	0
0.253877	-0.0168684	0.00100147	3.05143	1.26876	0.999871	0.331669	0.295577	-0.189101	-0.0105984	1.0362	-0.135173	0	0	0.121305	-0.0513494	-0.21036	0.365883	-0.0986982	0	0	-0.291848	-0.281206	-0.14416	0.712648	-0.579251	-0.154093	1.01654	0.807664	0	0	0.604827	0.559439	0.185431	1.08565	0.819674	0	0
0.258855	-0.0162571	0.00222949	3.05398	1.26192	1.00073	0.332265	0.306467	-0.187279	-0.0174852	1.02648	-0.119069	0	0	0.109383	-0.0502665	-0.20831	0.355237	-0.0992301	0	0	-0.293461	-0.278451	-0.147321	0.714597	-0.578494	-0.153921	1.01673	0.807669	0	0	0.606877	0.558907	0.185051	1.08576	0.81966	0	0
0.263833	-0.0156629	0.00338112	3.05643	1.25509	1.0015	0.332837	0.317036	-0.185596	-0.0243859	1.0157	-0.103685	0	0	0.0973956	-0.0491511	-0.206316	0.344509	-0.0999661	0	0	-0.295079	-0.27575	-0.150331	0.716546	-0.577737	-0.153748	1.01692	0.807675	0	0	0.608927	0.558375	0.184672	1.08587	0.819645	0	0
0.268811	-0.0150877	0.00445111	3.05875	1.24827	1.00219	0.333381	0.327284	-0.184042	-0.0312384	1.0039	-0.0890565	0	0	0.0853426	-0.0480028	-0.204398	0.333716	-0.100897	0	0	-0.296701	-0.273113	-0.153176	0.718495	-0.57698	-0.153576	1.01711	0.807681	0	0	0.610977	0.557844	0.184292	1.08598	0.81963	0	0
0.273789	-0.0145329	0.00543426	3.06094	1.24146	1.00277	0.333898	0.337212	-0.182604	-0.0379878	0.991106	-0.0752141	0	0	0.0732262	-0.0468204	-0.202572	0.322874	-0.102012	0	0	-0.298328	-0.270553	-0.155851	0.720444	-0.576224	-0.153404	1.0173	0.807686	0	0	0.613026	0.557312	0.183913	1.08608	0.819616	0	0
0.278767	-0.0139993	0.00632545	3.06297	1.23466	1.00326	0.334386	0.346821	-0.181274	-0.044587	0.977328	-0.0621856	0	0	0.0610498	-0.0456023	-0.200851	0.312003	-0.103302	0	0	-0.29996	-0.26808	-0.158351	0.722394	-0.575467	-0.153231	1.01749	0.807692	0	0	0.615076	0.556781	0.183534	1.08619	0.819601	0	0
0.283744	-0.0134869	0.00711977	3.06485	1.22786	1.00365	0.334845	0.356112	-0.180041	-0.0509972	0.962596	-0.0499945	0	0	0.0488178	-0.0443461	-0.199244	0.301119	-0.104756	0	0	-0.301594	-0.265704	-0.160671	0.724343	-0.574711	-0.153059	1.01768	0.807697	0	0	0.617126	0.55625	0.183154	1.0863	0.819586	0	0
0.288722	-0.0129952	0.00781249	3.06655	1.22107	1.00393	0.335273	0.365084	-0.178898	-0.057188	0.94693	-0.0386623	0	0	0.0365366	-0.0430492	-0.197755	0.290242	-0.106363	0	0	-0.30323	-0.263436	-0.162809	0.726293	-0.573956	-0.152887	1.01787	0.807703	0	0	0.619176	0.555719	0.182775	1.08641	0.819572	0	0
0.2937	-0.0125227	0.00839911	3.06809	1.21429	1.00411	0.33567	0.373736	-0.177839	-0.0631381	0.93035	-0.0282091	0	0	0.0242143	-0.0417085	-0.196385	0.279392	-0.108113	0	0	-0.304864	-0.261284	-0.164763	0.728243	-0.5732	-0.152714	1.01806	0.807708	0	0	0.621226	0.555188	0.182396	1.08652	0.819557	0	0
0.298678	-0.0120671	0.00887543	3.06946	1.20752	1.00418	0.336036	0.382068	-0.176859	-0.068835	0.912879	-0.0186513	0	0	0.0118607	-0.0403212	-0.195132	0.268588	-0.109991	0	0	-0.306495	-0.259255	-0.166539	0.730194	-0.572445	-0.152542	1.01825	0.807714	0	0	0.623276	0.554658	0.182017	1.08663	0.819542	0	0
0.303656	-0.0116253	0.00923759	3.07068	1.20074	1.00414	0.33637	0.390078	-0.175954	-0.0742746	0.894537	-0.0100035	0	0	-0.000512261	-0.0388842	-0.193987	0.257854	-0.111986	0	0	-0.30812	-0.257357	-0.168145	0.732144	-0.571689	-0.15237	1.01844	0.80772	0	0	0.625326	0.554127	0.181637	1.08673	0.819528	0	0
0.308634	-0.0111936	0.00948396	3.07174	1.19397	1.00399	0.336674	0.397765	-0.175123	-0.0794604	0.875345	-0.00227838	0	0	-0.0128911	-0.0373948	-0.192941	0.247213	-0.114082	0	0	-0.309733	-0.255593	-0.169594	0.734095	-0.570934	-0.152198	1.01863	0.807725	0	0	0.627377	0.553597	0.181258	1.08684	0.819513	0	0
0.313612	-0.0107676	0.00961214	3.07267	1.1872	1.00373	0.336946	0.405129	-0.174366	-0.0844034	0.855324	0.00451459	0	0	-0.0252606	-0.0358508	-0.191981	0.236688	-0.116265	0	0	-0.311333	-0.253967	-0.1709	0.736046	-0.57018	-0.152026	1.01882	0.807731	0	0	0.629427	0.553067	0.180879	1.08695	0.819498	0	0
0.31859	-0.0103423	0.00962039	3.07347	1.18043	1.00336	0.337188	0.412167	-0.173683	-0.0891209	0.834498	0.0103686	0	0	-0.0376039	-0.0342513	-0.191094	0.226306	-0.118518	0	0	-0.312913	-0.252482	-0.172081	0.737997	-0.569425	-0.151853	1.01901	0.807736	0	0	0.631477	0.552537	0.1805	1.08706	0.819483	0	0
0.323568	-0.00991233	0.00950762	3.07417	1.17366	1.00286	0.337399	0.418879	-0.173077	-0.0936355	0.812891	0.0152806	0	0	-0.0499031	-0.0325963	-0.190261	0.216092	-0.120822	0	0	-0.314467	-0.251138	-0.173158	0.739948	-0.568671	-0.151681	1.0192	0.807742	0	0	0.633528	0.552008	0.180121	1.08717	0.819469	0	0
0.328546	-0.00947201	0.0092735	3.07477	1.16688	1.00226	0.337582	0.425266	-0.172549	-0.0979738	0.790532	0.019251	0	0	-0.062139	-0.0308871	-0.189468	0.206075	-0.123159	0	0	-0.315991	-0.249935	-0.174152	0.7419	-0.567917	-0.151509	1.01939	0.807747	0	0	0.635578	0.551478	0.179741	1.08728	0.819454	0	0
0.333524	-0.00901593	0.0089185	3.07531	1.1601	1.00153	0.337736	0.431326	-0.172102	-0.102166	0.767449	0.0222864	0	0	-0.0742926	-0.0291262	-0.188698	0.19628	-0.12551	0	0	-0.317479	-0.248869	-0.175084	0.743852	-0.567163	-0.151337	1.01958	0.807753	0	0	0.637629	0.550949	0.179362	1.08739	0.819439	0	0
0.338502	-0.00853884	0.00844389	3.0758	1.15332	1.00069	0.337862	0.437062	-0.171738	-0.106242	0.743678	0.0243988	0	0	-0.0863447	-0.0273178	-0.187934	0.186737	-0.127855	0	0	-0.318922	-0.247937	-0.175976	0.745805	-0.56641	-0.151165	1.01977	0.807759	0	0	0.639679	0.55042	0.178983	1.08749	0.819425	0	0
0.34348	-0.00803579	0.0078517	3.07626	1.14652	0.999735	0.337961	0.442476	-0.171459	-0.110236	0.719257	0.0256068	0	0	-0.0982762	-0.0254671	-0.187163	0.177472	-0.130173	0	0	-0.320316	-0.247136	-0.176848	0.747757	-0.565657	-0.150994	1.01996	0.807764	0	0	0.64173	0.549891	0.178604	1.0876	0.81941	0	0
0.348458	-0.00750261	0.00714469	3.07671	1.13971	0.998662	0.338033	0.447569	-0.171265	-0.114177	0.694231	0.0259361	0	0	-0.110069	-0.0235812	-0.186371	0.168513	-0.132444	0	0	-0.321655	-0.246459	-0.177719	0.74971	-0.564904	-0.150822	1.02015	0.80777	0	0	0.643781	0.549362	0.178225	1.08771	0.819395	0	0
0.353436	-0.00693589	0.00632633	3.07716	1.13289	0.997474	0.338078	0.452347	-0.171157	-0.118095	0.668651	0.0254205	0	0	-0.121707	-0.0216678	-0.18555	0.159886	-0.134648	0	0	-0.322931	-0.245901	-0.178605	0.751664	-0.564151	-0.15065	1.02035	0.807775	0	0	0.645832	0.548834	0.177846	1.08782	0.819381	0	0
0.358414	-0.00633343	0.00540068	3.07762	1.12606	0.996171	0.338098	0.456813	-0.171134	-0.122015	0.642576	0.0241016	0	0	-0.133175	-0.0197363	-0.18469	0.151617	-0.136765	0	0	-0.32414	-0.245455	-0.179521	0.753618	-0.563399	-0.150478	1.02054	0.807781	0	0	0.647883	0.548306	0.177467	1.08793	0.819366	0	0
0.363392	-0.00569435	0.00437237	3.07813	1.1192	0.994756	0.338092	0.460976	-0.171195	-0.12596	0.61607	0.0220294	0	0	-0.14446	-0.0177964	-0.183788	0.143729	-0.138778	0	0	-0.325279	-0.245113	-0.180478	0.755572	-0.562647	-0.150307	1.02073	0.807786	0	0	0.649934	0.547778	0.177088	1.08804	0.819351	0	0
0.36837	-0.00501899	0.00324647	3.07867	1.11233	0.993229	0.338059	0.464842	-0.171336	-0.129944	0.589208	0.019263	0	0	-0.155551	-0.0158589	-0.182841	0.136245	-0.14067	0	0	-0.326343	-0.244869	-0.181488	0.757526	-0.561896	-0.150135	1.02092	0.807792	0	0	0.651985	0.54725	0.176709	1.08815	0.819337	0	0
0.373348	-0.00430931	0.00202841	3.07927	1.10543	0.991594	0.338	0.468422	-0.171554	-0.133978	0.562075	0.0158688	0	0	-0.166442	-0.0139351	-0.181851	0.129184	-0.142423	0	0	-0.327331	-0.244716	-0.182556	0.759481	-0.561145	-0.149964	1.02111	0.807797	0	0	0.654036	0.546722	0.176331	1.08826	0.819322	0	0
0.378326	-0.00356862	0.00072398	3.07994	1.0985	0.989853	0.337914	0.471728	-0.171843	-0.138065	0.534763	0.0119226	0	0	-0.177127	-0.0120366	-0.180821	0.122564	-0.144024	0	0	-0.328241	-0.244645	-0.183685	0.761436	-0.560394	-0.149793	1.0213	0.807803	0	0	0.656087	0.546194	0.175952	1.08837	0.819307	0	0
0.383304	-0.00280166	-0.000660739	3.08066	1.09155	0.98801	0.337801	0.474772	-0.172196	-0.142202	0.507375	0.00750815	0	0	-0.187604	-0.0101754	-0.179759	0.116403	-0.145461	0	0	-0.329073	-0.244651	-0.184875	0.763392	-0.559644	-0.149622	1.02149	0.807809	0	0	0.658138	0.545667	0.175573	1.08848	0.819292	0	0
0.388282	-0.00201477	-0.00211943	3.08145	1.08457	0.986067	0.337658	0.47757	-0.172609	-0.146378	0.480024	0.00271369	0	0	-0.197873	-0.00836355	-0.178675	0.110712	-0.14672	0	0	-0.329829	-0.244726	-0.186123	0.765348	-0.558894	-0.149451	1.02169	0.807814	0	0	0.660189	0.54514	0.175194	1.08859	0.819278	0	0
0.39326	-0.00121584	-0.00364552	3.08231	1.07755	0.98403	0.337485	0.480138	-0.173072	-0.150575	0.452832	-0.00236952	0	0	-0.207937	-0.0066131	-0.177579	0.105504	-0.147795	0	0	-0.330511	-0.244864	-0.187424	0.767304	-0.558145	-0.14928	1.02188	0.80782	0	0	0.662241	0.544613	0.174816	1.0887	0.819263	0	0
0.398238	-0.000413992	-0.00523213	3.08323	1.07049	0.981903	0.33728	0.482496	-0.173578	-0.15477	0.425927	-0.00764744	0	0	-0.217803	-0.00493625	-0.176485	0.100787	-0.148677	0	0	-0.331124	-0.245058	-0.18877	0.769261	-0.557396	-0.149109	1.02207	0.807825	0	0	0.664292	0.544087	0.174437	1.08881	0.819248	0	0
0.403216	0.000380379	-0.00687207	3.0842	1.0634	0.979692	0.337041	0.484661	-0.174119	-0.158934	0.399448	-0.0130274	0	0	-0.227479	-0.00334516	-0.175407	0.0965685	-0.149361	0	0	-0.331673	-0.2453	-0.190153	0.771218	-0.556647	-0.148938	1.02227	0.807831	0	0	0.666344	0.54356	0.174059	1.08892	0.819234	0	0
0.408194	0.00115574	-0.0085578	3.08523	1.05626	0.977403	0.336767	0.486653	-0.174688	-0.163032	0.373538	-0.0184208	0	0	-0.236975	-0.00185212	-0.174358	0.0928532	-0.149846	0	0	-0.332164	-0.245585	-0.191561	0.773175	-0.555899	-0.148768	1.02246	0.807836	0	0	0.668395	0.543034	0.17368	1.08903	0.819219	0	0
0.413172	0.00189989	-0.0102813	3.0863	1.04908	0.975044	0.336456	0.488494	-0.175277	-0.16703	0.348343	-0.0237435	0	0	-0.246302	-0.000469806	-0.173355	0.0896445	-0.15013	0	0	-0.332606	-0.245902	-0.192983	0.775133	-0.555151	-0.148597	1.02265	0.807842	0	0	0.670447	0.542508	0.173302	1.08914	0.819204	0	0
0.41815	0.00259981	-0.0120344	3.08741	1.04185	0.972622	0.336105	0.490204	-0.175878	-0.170888	0.324014	-0.028921	0	0	-0.255473	0.000788777	-0.172411	0.0869445	-0.150216	0	0	-0.333005	-0.246245	-0.194406	0.777092	-0.554404	-0.148427	1.02284	0.807847	0	0	0.672499	0.541982	0.172923	1.08925	0.81919	0	0
0.423128	0.00324177	-0.0138088	3.08854	1.03457	0.970145	0.335713	0.491804	-0.176483	-0.17457	0.3007	-0.0338903	0	0	-0.264501	0.00191001	-0.171541	0.0847538	-0.150109	0	0	-0.333372	-0.246603	-0.195817	0.779051	-0.553656	-0.148256	1.02304	0.807853	0	0	0.674551	0.541456	0.172545	1.08936	0.819175	0	0
0.428106	0.00381157	-0.0155962	3.0897	1.02724	0.967621	0.335278	0.493312	-0.177085	-0.17804	0.27855	-0.0385997	0	0	-0.273399	0.00287924	-0.17076	0.0830729	-0.149814	0	0	-0.333713	-0.246966	-0.197204	0.78101	-0.552909	-0.148086	1.02323	0.807858	0	0	0.676603	0.54093	0.172166	1.08947	0.81916	0	0
0.433084	0.00429474	-0.0173879	3.09087	1.01986	0.965059	0.334798	0.49475	-0.177678	-0.181266	0.257705	-0.0430133	0	0	-0.282179	0.00368096	-0.17008	0.0819016	-0.149343	0	0	-0.334037	-0.247321	-0.198552	0.78297	-0.552162	-0.147916	1.02343	0.807864	0	0	0.678655	0.540405	0.171787	1.08958	0.819146	0	0
0.438062	0.00467748	-0.0191741	3.09204	1.01243	0.962469	0.334272	0.496133	-0.178255	-0.18422	0.238302	-0.0471116	0	0	-0.29085	0.00429885	-0.169513	0.0812396	-0.148707	0	0	-0.334351	-0.247654	-0.199851	0.784931	-0.551416	-0.147745	1.02362	0.807869	0	0	0.680707	0.539879	0.171409	1.08969	0.819131	0	0
0.44304	0.00494759	-0.0209429	3.0932	1.00494	0.95986	0.333699	0.497477	-0.178809	-0.18688	0.220466	-0.0508908	0	0	-0.299423	0.00471588	-0.169074	0.0810877	-0.147923	0	0	-0.334661	-0.247953	-0.201088	0.786891	-0.550669	-0.147575	1.02382	0.807875	0	0	0.682759	0.539354	0.17103	1.08981	0.819116	0	0
0.448018	0.00509436	-0.0226808	3.09436	0.997394	0.957245	0.333077	0.498795	-0.179335	-0.18923	0.204309	-0.0543657	0	0	-0.307902	0.00491435	-0.168773	0.0814469	-0.14701	0	0	-0.334974	-0.248201	-0.202255	0.788852	-0.549923	-0.147405	1.02401	0.80788	0	0	0.684811	0.538829	0.170652	1.08992	0.819101	0	0
0.452996	0.00510878	-0.0243727	3.09549	0.989794	0.954635	0.332405	0.500098	-0.179826	-0.191261	0.189931	-0.0575682	0	0	-0.316292	0.00487589	-0.16862	0.0823198	-0.14599	0	0	-0.335292	-0.248382	-0.203343	0.790813	-0.549176	-0.147235	1.02421	0.807886	0	0	0.686864	0.538304	0.170273	1.09003	0.819087	0	0
0.457974	0.00498397	-0.026002	3.0966	0.982138	0.952042	0.331684	0.501394	-0.180275	-0.192969	0.177411	-0.0605459	0	0	-0.324592	0.00458137	-0.168627	0.0837103	-0.144891	0	0	-0.335619	-0.24848	-0.204347	0.792775	-0.54843	-0.147064	1.0244	0.807892	0	0	0.688916	0.53778	0.169895	1.09014	0.819072	0	0
0.462952	0.00471494	-0.027551	3.09768	0.974428	0.94948	0.330911	0.502686	-0.180673	-0.194353	0.166812	-0.0633609	0	0	-0.332799	0.00401108	-0.168803	0.085624	-0.143743	0	0	-0.335954	-0.248476	-0.205262	0.794736	-0.547685	-0.146894	1.0246	0.807897	0	0	0.690968	0.537255	0.169516	1.09025	0.819057	0	0
0.46793	0.00429889	-0.0290011	3.09874	0.966663	0.946963	0.330088	0.503976	-0.181011	-0.195419	0.158175	-0.0660879	0	0	-0.340906	0.0031448	-0.169157	0.0880685	-0.142582	0	0	-0.336298	-0.248353	-0.206086	0.796698	-0.546939	-0.146724	1.02479	0.807903	0	0	0.693021	0.536732	0.169138	1.09037	0.819043	0	0
0.472907	0.00373578	-0.0303325	3.09976	0.958845	0.944504	0.329214	0.505263	-0.181279	-0.196173	0.151521	-0.0688107	0	0	-0.3489	0.00196189	-0.169698	0.0910536	-0.141448	0	0	-0.336646	-0.248091	-0.206818	0.798661	-0.546194	-0.146554	1.02499	0.807908	0	0	0.695073	0.536208	0.168759	1.09048	0.819028	0	0
0.477885	0.0030282	-0.0315256	3.10076	0.950976	0.942118	0.328289	0.506543	-0.181464	-0.196623	0.146849	-0.0716199	0	0	-0.356763	0.00044155	-0.170434	0.0945914	-0.140387	0	0	-0.336994	-0.247672	-0.207461	0.800623	-0.54545	-0.146384	1.02518	0.807914	0	0	0.697126	0.535685	0.168381	1.09059	0.819013	0	0
0.482863	0.00218157	-0.032561	3.10174	0.943058	0.939818	0.327313	0.50781	-0.181553	-0.19678	0.14414	-0.0746093	0	0	-0.364475	-0.00143694	-0.171369	0.0986963	-0.139451	0	0	-0.337335	-0.247076	-0.208013	0.802586	-0.544706	-0.146215	1.02538	0.807919	0	0	0.699179	0.535162	0.168003	1.09071	0.818999	0	0
0.487841	0.00120393	-0.0334203	3.10269	0.935093	0.937618	0.326288	0.509055	-0.18153	-0.196652	0.143354	-0.0778714	0	0	-0.372009	-0.00369403	-0.17251	0.103385	-0.138696	0	0	-0.337661	-0.246285	-0.20848	0.80455	-0.543963	-0.146045	1.02558	0.807925	0	0	0.701232	0.534639	0.167624	1.09082	0.818984	0	0
0.492819	0.000105589	-0.0340859	3.10362	0.927084	0.935532	0.325216	0.510268	-0.181381	-0.19625	0.144432	-0.0814947	0	0	-0.379334	-0.00634938	-0.173857	0.108678	-0.138187	0	0	-0.337962	-0.24528	-0.208863	0.806514	-0.54322	-0.145876	1.02577	0.80793	0	0	0.703285	0.534117	0.167246	1.09093	0.818969	0	0
0.497797	-0.00110129	-0.0345414	3.10455	0.919033	0.933571	0.324098	0.51144	-0.181089	-0.195583	0.147301	-0.0855593	0	0	-0.386413	-0.00942121	-0.175412	0.114595	-0.137992	0	0	-0.338227	-0.244044	-0.209165	0.808478	-0.542478	-0.145707	1.02597	0.807936	0	0	0.705338	0.533595	0.166868	1.09105	0.818955	0	0
0.502775	-0.00240298	-0.0347715	3.10547	0.910944	0.931748	0.322936	0.512562	-0.180637	-0.194659	0.151875	-0.0901315	0	0	-0.393207	-0.0129261	-0.177172	0.12116	-0.138186	0	0	-0.338446	-0.24256	-0.209391	0.810442	-0.541737	-0.145538	1.02617	0.807941	0	0	0.707391	0.533074	0.166491	1.09116	0.81894	0	0
0.507753	-0.00378455	-0.0347623	3.1064	0.902821	0.930073	0.321732	0.513624	-0.180009	-0.193487	0.158057	-0.0952608	0	0	-0.399673	-0.0168781	-0.179131	0.1284	-0.13885	0	0	-0.338605	-0.240814	-0.209545	0.812407	-0.540996	-0.14537	1.02637	0.807947	0	0	0.709444	0.532552	0.166113	1.09128	0.818925	0	0
0.512731	-0.00523029	-0.0345015	3.10734	0.894667	0.928556	0.320491	0.514619	-0.179191	-0.192076	0.165742	-0.100976	0	0	-0.405763	-0.0212883	-0.181278	0.136341	-0.140067	0	0	-0.338695	-0.238793	-0.209628	0.814372	-0.540256	-0.145201	1.02656	0.807952	0	0	0.711497	0.532032	0.165735	1.09139	0.818911	0	0
0.517709	-0.00672419	-0.0339786	3.1083	0.886486	0.927204	0.319215	0.51554	-0.178167	-0.190436	0.174821	-0.107283	0	0	-0.411429	-0.0261645	-0.183601	0.14501	-0.141926	0	0	-0.338705	-0.236485	-0.209645	0.816338	-0.539516	-0.145033	1.02676	0.807958	0	0	0.713551	0.531511	0.165358	1.09151	0.818896	0	0
0.522687	-0.00825036	-0.0331851	3.10928	0.878283	0.926025	0.317907	0.516383	-0.176925	-0.188579	0.18518	-0.114158	0	0	-0.416623	-0.0315102	-0.186081	0.154436	-0.144515	0	0	-0.338627	-0.233882	-0.209597	0.818304	-0.538777	-0.144865	1.02696	0.807963	0	0	0.715604	0.530991	0.16498	1.09162	0.818881	0	0
0.527665	-0.00979354	-0.032115	3.11029	0.870063	0.925024	0.316571	0.517145	-0.175454	-0.186516	0.196708	-0.121552	0	0	-0.421294	-0.0373243	-0.188694	0.164647	-0.147926	0	0	-0.338454	-0.23098	-0.209484	0.82027	-0.538039	-0.144697	1.02716	0.807969	0	0	0.717658	0.530471	0.164603	1.09174	0.818867	0	0
0.532643	-0.0113397	-0.0307646	3.11134	0.861829	0.924206	0.315212	0.517824	-0.173746	-0.184262	0.209291	-0.129386	0	0	-0.425394	-0.0436003	-0.191414	0.175669	-0.152249	0	0	-0.338182	-0.227775	-0.209306	0.822237	-0.537301	-0.14453	1.02736	0.807974	0	0	0.719712	0.529951	0.164225	1.09185	0.818852	0	0
0.537621	-0.0128767	-0.0291333	3.11241	0.853587	0.923573	0.313834	0.518417	-0.171795	-0.181832	0.222818	-0.137556	0	0	-0.428878	-0.0503263	-0.194206	0.187524	-0.15757	0	0	-0.337812	-0.224268	-0.20906	0.824204	-0.536564	-0.144362	1.02756	0.807979	0	0	0.721766	0.529432	0.163848	1.09197	0.818837	0	0
0.542599	-0.0143946	-0.0272232	3.11352	0.845343	0.923128	0.31244	0.518924	-0.169597	-0.179244	0.237183	-0.145933	0	0	-0.431705	-0.057484	-0.197033	0.200235	-0.163973	0	0	-0.337348	-0.220465	-0.208741	0.826172	-0.535828	-0.144195	1.02776	0.807985	0	0	0.723819	0.528913	0.163471	1.09208	0.818823	0	0
0.547577	-0.0158861	-0.0250403	3.11466	0.837102	0.922872	0.311036	0.51934	-0.167152	-0.176515	0.25228	-0.154367	0	0	-0.433838	-0.0650482	-0.199851	0.213814	-0.171533	0	0	-0.336796	-0.216374	-0.208343	0.828139	-0.535092	-0.144028	1.02796	0.80799	0	0	0.725873	0.528394	0.163094	1.0922	0.818808	0	0
0.552555	-0.0173468	-0.0225944	3.11582	0.828869	0.922805	0.309625	0.519661	-0.164462	-0.173665	0.268005	-0.162691	0	0	-0.435247	-0.0729863	-0.202611	0.228272	-0.180316	0	0	-0.336169	-0.212009	-0.207859	0.830107	-0.534357	-0.143862	1.02816	0.807996	0	0	0.727927	0.527876	0.162717	1.09232	0.818794	0	0
0.557533	-0.0187755	-0.0198994	3.11699	0.820649	0.922924	0.308213	0.51988	-0.161534	-0.170713	0.284258	-0.170732	0	0	-0.435911	-0.0812577	-0.205256	0.243609	-0.190377	0	0	-0.335482	-0.207391	-0.20728	0.832076	-0.533622	-0.143695	1.02836	0.808001	0	0	0.729981	0.527358	0.16234	1.09243	0.818779	0	0
0.562511	-0.0201746	-0.0169744	3.11816	0.812448	0.923227	0.306802	0.519983	-0.158376	-0.16768	0.300939	-0.178308	0	0	-0.435817	-0.0898134	-0.207723	0.259816	-0.201756	0	0	-0.334754	-0.202542	-0.206595	0.834044	-0.532889	-0.143529	1.02856	0.808007	0	0	0.732035	0.52684	0.161963	1.09255	0.818764	0	0
0.567489	-0.02155	-0.0138438	3.11933	0.804269	0.923711	0.305398	0.519956	-0.155003	-0.164584	0.317949	-0.185246	0	0	-0.43496	-0.0985954	-0.209941	0.276873	-0.21448	0	0	-0.33401	-0.197494	-0.205797	0.836013	-0.532155	-0.143362	1.02876	0.808012	0	0	0.734089	0.526322	0.161587	1.09267	0.81875	0	0
0.572467	-0.0229089	-0.0105335	3.12048	0.796118	0.924372	0.304004	0.51978	-0.151428	-0.161445	0.335187	-0.191379	0	0	-0.433334	-0.107548	-0.21185	0.294767	-0.228544	0	0	-0.333272	-0.192277	-0.204873	0.837983	-0.531423	-0.143197	1.02896	0.808018	0	0	0.736143	0.525805	0.16121	1.09278	0.818735	0	0
0.577445	-0.0242591	-0.00707251	3.12161	0.788	0.925202	0.302625	0.519433	-0.147664	-0.158285	0.352554	-0.196561	0	0	-0.430934	-0.116615	-0.2134	0.313487	-0.243914	0	0	-0.332565	-0.186922	-0.203817	0.839952	-0.530691	-0.143031	1.02916	0.808023	0	0	0.738197	0.525288	0.160834	1.0929	0.81872	0	0
0.582423	-0.0256069	-0.00349136	3.12269	0.779919	0.926197	0.301266	0.518892	-0.143728	-0.155123	0.36995	-0.200663	0	0	-0.427755	-0.125743	-0.214544	0.333025	-0.26053	0	0	-0.331912	-0.181464	-0.202619	0.841921	-0.529959	-0.142865	1.02937	0.808028	0	0	0.740251	0.524772	0.160457	1.09302	0.818706	0	0
0.587401	-0.0269577	0.000179525	3.12373	0.771879	0.927348	0.299929	0.518128	-0.139637	-0.151979	0.387274	-0.203586	0	0	-0.423793	-0.134875	-0.215244	0.353369	-0.278302	0	0	-0.331335	-0.175935	-0.201273	0.84389	-0.529228	-0.1427	1.02957	0.808034	0	0	0.742305	0.524256	0.160081	1.09314	0.818691	0	0
0.592379	-0.0283169	0.00390921	3.12473	0.763887	0.928649	0.298617	0.517112	-0.135411	-0.148874	0.404426	-0.205256	0	0	-0.419047	-0.143956	-0.215463	0.374505	-0.297109	0	0	-0.330856	-0.170372	-0.199775	0.845859	-0.528498	-0.142534	1.02977	0.808039	0	0	0.744359	0.523741	0.159705	1.09326	0.818677	0	0
0.597357	-0.0296888	0.00766611	3.12567	0.755945	0.930093	0.297334	0.515816	-0.131072	-0.145824	0.421309	-0.205628	0	0	-0.413517	-0.152927	-0.215169	0.396413	-0.316807	0	0	-0.330491	-0.164814	-0.198124	0.847828	-0.527768	-0.142369	1.02997	0.808045	0	0	0.746412	0.523226	0.159329	1.09337	0.818662	0	0
0.602335	-0.031077	0.0114179	3.12656	0.748057	0.931669	0.296082	0.51421	-0.126647	-0.142847	0.437824	-0.20469	0	0	-0.407206	-0.161729	-0.214331	0.419066	-0.337225	0	0	-0.330255	-0.1593	-0.196317	0.849796	-0.527039	-0.142204	1.03017	0.80805	0	0	0.748466	0.522711	0.158953	1.09349	0.818648	0	0
0.607313	-0.0324835	0.0151315	3.1274	0.740227	0.933368	0.294863	0.512265	-0.122162	-0.139957	0.453881	-0.202453	0	0	-0.400119	-0.170304	-0.212924	0.442428	-0.358171	0	0	-0.330158	-0.153869	-0.19436	0.851764	-0.52631	-0.14204	1.03038	0.808055	0	0	0.75052	0.522197	0.158578	1.09361	0.818633	0	0
0.612291	-0.0339084	0.0187737	3.1282	0.732458	0.935181	0.293679	0.509956	-0.117648	-0.137167	0.469391	-0.198956	0	0	-0.392261	-0.178594	-0.210923	0.466456	-0.379433	0	0	-0.330207	-0.148564	-0.192255	0.853732	-0.525582	-0.141875	1.03058	0.808061	0	0	0.752573	0.521684	0.158202	1.09373	0.818618	0	0
0.617269	-0.0353498	0.0223116	3.12897	0.724751	0.937097	0.292533	0.50726	-0.113137	-0.134488	0.484274	-0.19426	0	0	-0.383643	-0.186539	-0.208309	0.491097	-0.400787	0	0	-0.330404	-0.143423	-0.190009	0.8557	-0.524855	-0.14171	1.03078	0.808066	0	0	0.754627	0.52117	0.157827	1.09385	0.818604	0	0
0.622247	-0.0368037	0.0257132	3.12971	0.717108	0.939104	0.291424	0.504157	-0.108662	-0.13193	0.498455	-0.188445	0	0	-0.374276	-0.194085	-0.20507	0.516288	-0.421995	0	0	-0.330744	-0.138485	-0.187631	0.857667	-0.524128	-0.141546	1.03098	0.808071	0	0	0.75668	0.520658	0.157452	1.09397	0.818589	0	0
0.627225	-0.0382638	0.0289481	3.13043	0.70953	0.941191	0.290356	0.500634	-0.104256	-0.129501	0.511868	-0.181606	0	0	-0.364172	-0.201176	-0.201197	0.541956	-0.442816	0	0	-0.33122	-0.133787	-0.185128	0.859634	-0.523401	-0.141382	1.03118	0.808077	0	0	0.758734	0.520146	0.157077	1.09409	0.818575	0	0
0.632203	-0.0397219	0.031988	3.13115	0.702018	0.943347	0.289328	0.496679	-0.0999536	-0.127206	0.524455	-0.173849	0	0	-0.353349	-0.207763	-0.196692	0.568023	-0.463009	0	0	-0.331821	-0.129363	-0.182511	0.861601	-0.522676	-0.141218	1.03139	0.808082	0	0	0.760787	0.519634	0.156702	1.09421	0.81856	0	0
0.637181	-0.0411678	0.0348074	3.13187	0.694572	0.945561	0.288342	0.492288	-0.0957864	-0.125052	0.536166	-0.165288	0	0	-0.341824	-0.213799	-0.191565	0.594398	-0.482337	0	0	-0.332529	-0.125245	-0.179788	0.863568	-0.521951	-0.141054	1.03159	0.808087	0	0	0.762841	0.519123	0.156327	1.09433	0.818546	0	0
0.642159	-0.0425897	0.0373842	3.13261	0.687191	0.94782	0.287398	0.487462	-0.0917856	-0.123044	0.546962	-0.156042	0	0	-0.32962	-0.219244	-0.185834	0.620988	-0.500574	0	0	-0.333326	-0.121459	-0.176967	0.865534	-0.521227	-0.140891	1.03179	0.808093	0	0	0.764894	0.518612	0.155953	1.09445	0.818531	0	0
0.647137	-0.0439743	0.0396999	3.13336	0.679874	0.950114	0.286495	0.482203	-0.0879799	-0.121183	0.556809	-0.146229	0	0	-0.316762	-0.224061	-0.17953	0.647689	-0.517509	0	0	-0.334189	-0.118028	-0.174055	0.867501	-0.520503	-0.140728	1.03199	0.808098	0	0	0.766948	0.518102	0.155579	1.09457	0.818517	0	0
0.652115	-0.0453079	0.0417405	3.13413	0.672621	0.952431	0.285633	0.476521	-0.0843944	-0.119475	0.565685	-0.13597	0	0	-0.303277	-0.228223	-0.172694	0.674396	-0.53295	0	0	-0.335094	-0.114969	-0.171057	0.869467	-0.51978	-0.140565	1.03219	0.808103	0	0	0.769001	0.517593	0.155205	1.09469	0.818502	0	0
0.657093	-0.0465761	0.0434961	3.13493	0.665428	0.954761	0.284812	0.470428	-0.0810506	-0.11792	0.573574	-0.125378	0	0	-0.289198	-0.231708	-0.16538	0.700998	-0.546733	0	0	-0.336014	-0.112297	-0.167973	0.871433	-0.519058	-0.140402	1.0324	0.808109	0	0	0.771055	0.517084	0.154831	1.09481	0.818488	0	0
0.66207	-0.0477645	0.0449612	3.13573	0.658296	0.957094	0.284029	0.463941	-0.0779656	-0.11652	0.580467	-0.114565	0	0	-0.274561	-0.234503	-0.157653	0.727384	-0.558722	0	0	-0.336923	-0.11002	-0.164803	0.873399	-0.518337	-0.14024	1.0326	0.808114	0	0	0.773108	0.516576	0.154457	1.09493	0.818473	0	0
0.667048	-0.0488592	0.0461347	3.13655	0.65122	0.95942	0.283283	0.457076	-0.0751522	-0.115276	0.586361	-0.103636	0	0	-0.259407	-0.236604	-0.149587	0.753441	-0.568808	0	0	-0.337795	-0.108141	-0.161543	0.875365	-0.517617	-0.140078	1.0328	0.808119	0	0	0.775162	0.516068	0.154084	1.09505	0.818459	0	0
0.672026	-0.0498475	0.0470196	3.13735	0.644198	0.961729	0.282572	0.449854	-0.0726182	-0.114187	0.59126	-0.0926903	0	0	-0.243778	-0.238014	-0.141267	0.779056	-0.576919	0	0	-0.338605	-0.106659	-0.158184	0.877331	-0.516898	-0.139916	1.033	0.808125	0	0	0.777216	0.515561	0.15371	1.09517	0.818444	0	0
0.677004	-0.0507177	0.0476228	3.13813	0.637228	0.964013	0.281895	0.442297	-0.0703668	-0.113249	0.595175	-0.0818173	0	0	-0.227722	-0.238745	-0.132789	0.80412	-0.583015	0	0	-0.339329	-0.105571	-0.154717	0.879298	-0.516179	-0.139754	1.03321	0.80813	0	0	0.779269	0.515054	0.153337	1.09529	0.81843	0	0
0.681982	-0.0514602	0.0479545	3.13886	0.630306	0.966265	0.281249	0.434427	-0.0683964	-0.112458	0.598119	-0.0711007	0	0	-0.21129	-0.238818	-0.124252	0.828525	-0.58709	0	0	-0.339946	-0.104867	-0.151127	0.881264	-0.515461	-0.139593	1.03341	0.808135	0	0	0.781323	0.514548	0.152964	1.09541	0.818415	0	0
0.68696	-0.0520672	0.0480281	3.13952	0.62343	0.968477	0.280633	0.426267	-0.0667013	-0.111808	0.600112	-0.0606144	0	0	-0.194534	-0.23826	-0.115763	0.85217	-0.589171	0	0	-0.340438	-0.104536	-0.147401	0.883231	-0.514744	-0.139432	1.03361	0.80814	0	0	0.783377	0.514043	0.152591	1.09553	0.818401	0	0
0.691938	-0.0525331	0.0478593	3.14007	0.616595	0.970642	0.280043	0.417839	-0.0652717	-0.111289	0.601178	-0.0504227	0	0	-0.177511	-0.237106	-0.107431	0.874958	-0.589316	0	0	-0.340789	-0.104563	-0.14352	0.885197	-0.514027	-0.139271	1.03382	0.808146	0	0	0.785431	0.513538	0.152219	1.09565	0.818386	0	0
0.696916	-0.0528545	0.0474655	3.14049	0.609796	0.972753	0.279478	0.409167	-0.0640949	-0.11089	0.601345	-0.0405819	0	0	-0.160276	-0.235399	-0.0993658	0.896797	-0.58761	0	0	-0.340987	-0.104932	-0.139466	0.887164	-0.513311	-0.13911	1.03402	0.808151	0	0	0.787485	0.513033	0.151846	1.09578	0.818372	0	0
0.701894	-0.0530306	0.0468657	3.14074	0.603031	0.974806	0.278935	0.400273	-0.0631551	-0.110598	0.600644	-0.0311387	0	0	-0.142887	-0.233185	-0.0916756	0.917605	-0.584162	0	0	-0.341024	-0.105626	-0.135222	0.889131	-0.512596	-0.138949	1.03422	0.808156	0	0	0.789538	0.512529	0.151474	1.0959	0.818358	0	0
0.706872	-0.0530626	0.0460792	3.1408	0.596296	0.976794	0.278413	0.391177	-0.0624347	-0.110395	0.599112	-0.0221302	0	0	-0.125401	-0.230516	-0.0844644	0.937305	-0.579103	0	0	-0.340896	-0.106625	-0.130769	0.891098	-0.511881	-0.138789	1.03443	0.808161	0	0	0.791593	0.512025	0.151102	1.09602	0.818343	0	0
0.71185	-0.0529539	0.0451257	3.14064	0.589585	0.978714	0.277908	0.381901	-0.0619148	-0.110264	0.596787	-0.0135844	0	0	-0.107873	-0.227448	-0.0778301	0.955829	-0.572573	0	0	-0.340601	-0.10791	-0.126092	0.893066	-0.511167	-0.138629	1.03463	0.808167	0	0	0.793647	0.511522	0.15073	1.09614	0.818329	0	0
0.716828	-0.0527097	0.0440249	3.14022	0.582896	0.980561	0.277418	0.372465	-0.0615756	-0.110185	0.593711	-0.0055203	0	0	-0.0903583	-0.224037	-0.0718623	0.973118	-0.564726	0	0	-0.340142	-0.10946	-0.121176	0.895033	-0.510453	-0.138469	1.03484	0.808172	0	0	0.795701	0.511019	0.150358	1.09627	0.818314	0	0
0.721806	-0.0523373	0.0427954	3.13951	0.576224	0.982331	0.276941	0.362887	-0.0613976	-0.110137	0.58993	0.002051	0	0	-0.0729079	-0.220342	-0.0666405	0.989121	-0.555719	0	0	-0.339523	-0.111257	-0.116009	0.897001	-0.50974	-0.138309	1.03504	0.808177	0	0	0.797755	0.510516	0.149986	1.09639	0.8183	0	0
0.726784	-0.0518451	0.0414554	3.13851	0.569568	0.98402	0.276474	0.353186	-0.0613614	-0.110098	0.585488	0.00912509	0	0	-0.0555707	-0.216422	-0.0622328	1.00379	-0.545711	0	0	-0.338752	-0.11328	-0.110585	0.898969	-0.509028	-0.138149	1.03525	0.808182	0	0	0.79981	0.510014	0.149614	1.09651	0.818285	0	0
0.731762	-0.0512431	0.0400214	3.13719	0.562923	0.985627	0.276016	0.343379	-0.061449	-0.110047	0.580436	0.0157042	0	0	-0.0383918	-0.212332	-0.0586945	1.01711	-0.53486	0	0	-0.337841	-0.115512	-0.1049	0.900937	-0.508315	-0.13799	1.03545	0.808187	0	0	0.801864	0.509512	0.149242	1.09663	0.818271	0	0
0.73674	-0.0505423	0.0385092	3.13553	0.556288	0.987148	0.275564	0.33348	-0.0616433	-0.109963	0.574823	0.0217964	0	0	-0.0214123	-0.208129	-0.0560676	1.02903	-0.523315	0	0	-0.336802	-0.117935	-0.0989555	0.902906	-0.507604	-0.13783	1.03566	0.808193	0	0	0.803919	0.509011	0.14887	1.09676	0.818257	0	0
0.741718	-0.049754	0.0369328	3.13354	0.549661	0.988582	0.275117	0.323507	-0.0619292	-0.109827	0.5687	0.0274146	0	0	-0.00466882	-0.203865	-0.05438	1.03954	-0.511217	0	0	-0.335649	-0.12053	-0.0927546	0.904874	-0.506892	-0.137671	1.03586	0.808198	0	0	0.805973	0.50851	0.148499	1.09688	0.818242	0	0
0.746696	-0.0488903	0.035305	3.13121	0.543039	0.989926	0.274674	0.313471	-0.0622931	-0.109622	0.562117	0.0325749	0	0	0.0118059	-0.199587	-0.0536454	1.04863	-0.498696	0	0	-0.334397	-0.123282	-0.0863089	0.906843	-0.506181	-0.137512	1.03607	0.808203	0	0	0.808028	0.508009	0.148127	1.09701	0.818228	0	0
0.751674	-0.0479635	0.0336372	3.12854	0.536423	0.99118	0.274235	0.303386	-0.0627234	-0.109335	0.555124	0.0372965	0	0	0.027984	-0.195341	-0.0538637	1.0563	-0.485874	0	0	-0.333063	-0.126175	-0.0796328	0.908812	-0.505471	-0.137352	1.03627	0.808208	0	0	0.810083	0.507509	0.147756	1.09713	0.818213	0	0
0.756652	-0.0469858	0.0319399	3.12555	0.52981	0.992343	0.273797	0.293263	-0.0632103	-0.108955	0.54777	0.0416005	0	0	0.0438414	-0.191166	-0.0550215	1.06254	-0.472858	0	0	-0.331664	-0.129194	-0.0727472	0.910781	-0.504761	-0.137193	1.03648	0.808213	0	0	0.812138	0.507009	0.147384	1.09726	0.818199	0	0
0.76163	-0.0459692	0.0302221	3.12224	0.523201	0.993413	0.273363	0.283113	-0.063746	-0.108476	0.540104	0.0455091	0	0	0.0593587	-0.187097	-0.0570927	1.06736	-0.459743	0	0	-0.330218	-0.132323	-0.0656749	0.91275	-0.504051	-0.137035	1.03668	0.808219	0	0	0.814192	0.50651	0.147013	1.09738	0.818185	0	0
0.766608	-0.0449252	0.0284923	3.11865	0.516594	0.994392	0.272932	0.272944	-0.064324	-0.107896	0.532171	0.0490448	0	0	0.0745206	-0.183163	-0.0600398	1.07078	-0.446613	0	0	-0.328741	-0.135547	-0.0584415	0.914719	-0.503342	-0.136876	1.03689	0.808224	0	0	0.816247	0.506011	0.146642	1.0975	0.81817	0	0
0.771586	-0.0438648	0.0267582	3.11479	0.50999	0.995278	0.272504	0.262765	-0.0649396	-0.107217	0.524014	0.0522302	0	0	0.0893153	-0.179388	-0.0638144	1.0728	-0.43354	0	0	-0.32725	-0.138853	-0.0510772	0.916688	-0.502633	-0.136717	1.0371	0.808229	0	0	0.818302	0.505512	0.146271	1.09763	0.818156	0	0
0.776564	-0.0427987	0.0250269	3.1107	0.503388	0.996072	0.27208	0.252581	-0.0655893	-0.106448	0.515673	0.0550871	0	0	0.103734	-0.175794	-0.0683595	1.07345	-0.420588	0	0	-0.325763	-0.142226	-0.0436177	0.918658	-0.501925	-0.136559	1.0373	0.808234	0	0	0.820357	0.505014	0.1459	1.09775	0.818142	0	0
0.781542	-0.0417364	0.0233053	3.10639	0.496789	0.996775	0.271663	0.242397	-0.0662704	-0.105598	0.507187	0.0576367	0	0	0.117772	-0.172393	-0.0736099	1.07275	-0.407811	0	0	-0.324293	-0.145652	-0.0360983	0.920627	-0.501217	-0.1364	1.03751	0.808239	0	0	0.822412	0.504516	0.145529	1.09788	0.818127	0	0
0.78652	-0.0406868	0.0215999	3.10192	0.490193	0.997387	0.271254	0.232219	-0.0669812	-0.104685	0.498591	0.0598993	0	0	0.131425	-0.169197	-0.0794946	1.07072	-0.395258	0	0	-0.322857	-0.149115	-0.028557	0.922597	-0.500509	-0.136242	1.03771	0.808244	0	0	0.824467	0.504018	0.145158	1.09801	0.818113	0	0
0.791498	-0.0396581	0.0199172	3.09731	0.483599	0.99791	0.270854	0.222049	-0.0677203	-0.103729	0.489916	0.0618939	0	0	0.144694	-0.166211	-0.0859376	1.06739	-0.38297	0	0	-0.321468	-0.152601	-0.0210348	0.924567	-0.499802	-0.136084	1.03792	0.80825	0	0	0.826522	0.50352	0.144787	1.09813	0.818098	0	0
0.796476	-0.0386574	0.0182636	3.0926	0.477009	0.998344	0.270466	0.211889	-0.0684866	-0.10275	0.481192	0.0636387	0	0	0.157579	-0.163437	-0.0928599	1.06278	-0.370985	0	0	-0.320139	-0.156095	-0.0135707	0.926537	-0.499096	-0.135926	1.03813	0.808255	0	0	0.828577	0.503023	0.144416	1.09826	0.818084	0	0
0.801454	-0.0376911	0.0166457	3.08783	0.47042	0.998692	0.270093	0.20174	-0.0692792	-0.101776	0.472444	0.065151	0	0	0.170082	-0.160875	-0.100181	1.05693	-0.359334	0	0	-0.318881	-0.159582	-0.00620393	0.928508	-0.498389	-0.135768	1.03834	0.80826	0	0	0.830633	0.502526	0.144046	1.09838	0.81807	0	0
0.806432	-0.0367645	0.0150701	3.08304	0.463834	0.998953	0.269737	0.191603	-0.0700966	-0.100831	0.463696	0.0664468	0	0	0.182208	-0.15852	-0.107819	1.04985	-0.348044	0	0	-0.317704	-0.163048	0.00103016	0.930479	-0.497683	-0.13561	1.03854	0.808265	0	0	0.832688	0.50203	0.143675	1.09851	0.818055	0	0
0.81141	-0.0358824	0.0135435	3.07825	0.45725	0.999131	0.269401	0.181478	-0.0709373	-0.0999432	0.454968	0.0675415	0	0	0.19396	-0.156366	-0.115695	1.04159	-0.337141	0	0	-0.316614	-0.166478	0.00809967	0.93245	-0.496978	-0.135453	1.03875	0.80827	0	0	0.834743	0.501533	0.143304	1.09864	0.818041	0	0
0.816388	-0.0350483	0.0120728	3.07351	0.450668	0.999225	0.269087	0.171364	-0.0717989	-0.0991383	0.446279	0.0684501	0	0	0.205344	-0.154405	-0.12373	1.03217	-0.326646	0	0	-0.315619	-0.169858	0.0149741	0.934422	-0.496273	-0.135295	1.03896	0.808275	0	0	0.836799	0.501037	0.142934	1.09877	0.818027	0	0
0.821366	-0.0342652	0.0106648	3.06885	0.444086	0.999238	0.268799	0.161262	-0.0726786	-0.0984418	0.437645	0.0691864	0	0	0.216364	-0.152627	-0.13185	1.02161	-0.31658	0	0	-0.314723	-0.173174	0.0216283	0.936394	-0.495568	-0.135138	1.03917	0.80828	0	0	0.838855	0.500541	0.142563	1.09889	0.818012	0	0
0.826344	-0.033535	0.00932629	3.06429	0.437505	0.999171	0.268538	0.151171	-0.0735728	-0.0978766	0.42908	0.0697642	0	0	0.227025	-0.151022	-0.139985	1.00995	-0.30696	0	0	-0.313929	-0.176414	0.028041	0.938366	-0.494863	-0.134981	1.03938	0.808286	0	0	0.84091	0.500045	0.142193	1.09902	0.817998	0	0
0.831322	-0.0328588	0.00806403	3.05986	0.430922	0.999025	0.268306	0.141091	-0.0744771	-0.0974631	0.420597	0.0701965	0	0	0.237331	-0.149579	-0.148067	0.997206	-0.297805	0	0	-0.313237	-0.179565	0.0341934	0.940339	-0.494159	-0.134823	1.03959	0.808291	0	0	0.842966	0.49955	0.141823	1.09915	0.817984	0	0
0.8363	-0.0322371	0.00688461	3.05558	0.424337	0.998803	0.268107	0.131021	-0.0753866	-0.0972179	0.412208	0.0704959	0	0	0.247287	-0.148287	-0.156036	0.983415	-0.289132	0	0	-0.312646	-0.182616	0.0400725	0.942313	-0.493456	-0.134666	1.03979	0.808296	0	0	0.845022	0.499054	0.141452	1.09928	0.817969	0	0
0.841278	-0.0316692	0.00579438	3.05147	0.417749	0.998507	0.26794	0.120961	-0.0762956	-0.0971535	0.403921	0.0706742	0	0	0.256895	-0.147134	-0.163838	0.968599	-0.280956	0	0	-0.312154	-0.185556	0.0456688	0.944286	-0.492752	-0.13451	1.04	0.808301	0	0	0.847078	0.498559	0.141082	1.0994	0.817955	0	0
0.846256	-0.0311539	0.00479931	3.04755	0.411155	0.998137	0.267809	0.110913	-0.0771979	-0.097278	0.395744	0.0707421	0	0	0.266159	-0.146111	-0.171424	0.952782	-0.273293	0	0	-0.311756	-0.188377	0.0509785	0.94626	-0.492049	-0.134353	1.04021	0.808306	0	0	0.849135	0.498064	0.140711	1.09953	0.817941	0	0
0.851233	-0.0306891	0.00390494	3.04382	0.404553	0.997696	0.267714	0.100877	-0.0780868	-0.0975944	0.387684	0.0707094	0	0	0.27508	-0.145206	-0.178752	0.935988	-0.266156	0	0	-0.311447	-0.191071	0.0560027	0.948235	-0.491346	-0.134196	1.04042	0.808311	0	0	0.851191	0.497569	0.140341	1.09966	0.817926	0	0
0.856211	-0.0302719	0.00311628	3.04028	0.397942	0.997185	0.267656	0.0908537	-0.0789556	-0.0981012	0.379746	0.0705851	0	0	0.283659	-0.144413	-0.185785	0.918242	-0.259561	0	0	-0.311217	-0.193631	0.0607453	0.950209	-0.490644	-0.13404	1.04063	0.808316	0	0	0.853247	0.497074	0.139971	1.09979	0.817912	0	0
0.861189	-0.0298987	0.0024377	3.03695	0.39132	0.996606	0.267636	0.0808455	-0.0797975	-0.0987923	0.371934	0.0703774	0	0	0.291898	-0.143721	-0.192494	0.899566	-0.253519	0	0	-0.311057	-0.196054	0.0652148	0.952185	-0.489942	-0.133883	1.04084	0.808322	0	0	0.855304	0.496579	0.139601	1.09992	0.817898	0	0
0.866167	-0.0295655	0.00187284	3.03382	0.384683	0.995961	0.267652	0.0708542	-0.0806059	-0.0996569	0.364251	0.0700933	0	0	0.299795	-0.143125	-0.198855	0.879982	-0.248046	0	0	-0.310955	-0.198337	0.0694232	0.95416	-0.489241	-0.133727	1.04106	0.808327	0	0	0.85736	0.496085	0.13923	1.10005	0.817883	0	0
0.871145	-0.0292674	0.00142457	3.03089	0.378028	0.995252	0.267707	0.060882	-0.0813745	-0.10068	0.356699	0.0697395	0	0	0.307351	-0.142619	-0.204851	0.859514	-0.243151	0	0	-0.310899	-0.200477	0.0733839	0.956136	-0.488539	-0.133571	1.04127	0.808332	0	0	0.859417	0.495591	0.13886	1.10018	0.817869	0	0
0.876123	-0.0289994	0.0010948	3.02814	0.371354	0.99448	0.267798	0.0509314	-0.0820981	-0.101844	0.34928	0.0693214	0	0	0.314563	-0.142197	-0.210469	0.838185	-0.238848	0	0	-0.310875	-0.202476	0.0771137	0.958112	-0.487839	-0.133415	1.04148	0.808337	0	0	0.861474	0.495097	0.13849	1.10031	0.817855	0	0
0.881101	-0.0287561	0.000884523	3.02558	0.364656	0.993646	0.267925	0.041005	-0.0827719	-0.103128	0.341992	0.0688435	0	0	0.321429	-0.141856	-0.215704	0.816019	-0.235144	0	0	-0.310869	-0.204335	0.0806313	0.960089	-0.487138	-0.133259	1.04169	0.808342	0	0	0.863531	0.494603	0.13812	1.10044	0.81784	0	0
0.886079	-0.0285321	0.000793744	3.02318	0.357931	0.992753	0.268088	0.0311054	-0.0833928	-0.104507	0.334837	0.0683098	0	0	0.327948	-0.141592	-0.220554	0.793042	-0.232045	0	0	-0.310864	-0.206058	0.0839558	0.962066	-0.486438	-0.133103	1.0419	0.808347	0	0	0.865588	0.494109	0.13775	1.10057	0.817826	0	0
0.891057	-0.0283218	0.000821441	3.02093	0.351177	0.991802	0.268286	0.0212353	-0.0839587	-0.105958	0.327814	0.0677234	0	0	0.334116	-0.141403	-0.225022	0.769281	-0.229557	0	0	-0.310845	-0.207649	0.0871077	0.964043	-0.485739	-0.132948	1.04211	0.808352	0	0	0.867644	0.493616	0.13738	1.1007	0.817812	0	0
0.896035	-0.0281203	0.000965558	3.01881	0.344388	0.990794	0.268517	0.011397	-0.0844692	-0.107453	0.320922	0.0670859	0	0	0.33993	-0.141288	-0.229116	0.744768	-0.227677	0	0	-0.310796	-0.209115	0.0901084	0.96602	-0.48504	-0.132792	1.04233	0.808357	0	0	0.869701	0.493122	0.137011	1.10083	0.817798	0	0
0.901013	-0.0279226	0.00122309	3.01682	0.337562	0.989731	0.268781	0.0015932	-0.0849254	-0.108965	0.314163	0.0663991	0	0	0.345388	-0.141244	-0.232845	0.719536	-0.226402	0	0	-0.310701	-0.210463	0.0929786	0.967998	-0.484341	-0.132637	1.04254	0.808362	0	0	0.871759	0.492629	0.136641	1.10096	0.817783	0	0
0.905991	-0.0277246	0.00159008	3.01493	0.330694	0.988616	0.269076	-0.00817404	-0.0853303	-0.110469	0.307536	0.0656634	0	0	0.350487	-0.141271	-0.236226	0.693623	-0.225721	0	0	-0.310545	-0.211703	0.0957393	0.969976	-0.483643	-0.132482	1.04275	0.808367	0	0	0.873816	0.492137	0.136271	1.10109	0.817769	0	0
0.910969	-0.027523	0.00206166	3.01312	0.323781	0.987448	0.269402	-0.0179028	-0.0856884	-0.111938	0.301043	0.0648784	0	0	0.355223	-0.141368	-0.239275	0.667073	-0.22562	0	0	-0.310314	-0.212842	0.0984115	0.971954	-0.482946	-0.132327	1.04297	0.808373	0	0	0.875873	0.491644	0.135902	1.10123	0.817755	0	0
0.915947	-0.0273153	0.0026322	3.01139	0.316817	0.986231	0.269757	-0.0275912	-0.0860062	-0.113347	0.294688	0.0640434	0	0	0.359594	-0.141534	-0.242013	0.639934	-0.226077	0	0	-0.309994	-0.213893	0.101014	0.973933	-0.482249	-0.132172	1.04318	0.808378	0	0	0.87793	0.491152	0.135532	1.10136	0.81774	0	0
0.920925	-0.0271001	0.00329534	3.0097	0.309799	0.984965	0.270141	-0.0372375	-0.086292	-0.114671	0.288474	0.0631572	0	0	0.363599	-0.141768	-0.244461	0.612261	-0.227065	0	0	-0.309574	-0.214865	0.103567	0.975912	-0.481552	-0.132018	1.04339	0.808383	0	0	0.879988	0.490661	0.135163	1.10149	0.817726	0	0
0.925903	-0.0268775	0.00404408	3.00804	0.302723	0.983652	0.270552	-0.0468403	-0.0865554	-0.115889	0.282409	0.0622175	0	0	0.367236	-0.142071	-0.246643	0.584117	-0.228554	0	0	-0.309044	-0.21577	0.106088	0.977891	-0.480856	-0.131864	1.04361	0.808388	0	0	0.882045	0.490169	0.134794	1.10162	0.817712	0	0
0.930881	-0.0266486	0.00487088	3.0064	0.295585	0.982295	0.270991	-0.056398	-0.0868082	-0.11698	0.276502	0.0612229	0	0	0.370504	-0.14244	-0.248584	0.555571	-0.230505	0	0	-0.308395	-0.21662	0.108594	0.97987	-0.480161	-0.13171	1.04382	0.808393	0	0	0.884103	0.489678	0.134425	1.10175	0.817697	0	0
0.935859	-0.0264066	0.00576261	3.00476	0.288613	0.981401	0.271405	-0.0659117	-0.0870619	-0.117925	0.270764	0.0601721	0	0	0.373401	-0.142877	-0.25031	0.526703	-0.232877	0	0	-0.307625	-0.217425	0.111099	0.981849	-0.479465	-0.131555	1.04404	0.808398	0	0	0.88616	0.489187	0.134055	1.10189	0.817683	0	0
0.940837	-0.0261548	0.00671137	3.00311	0.281771	0.980885	0.271804	-0.0753791	-0.0873311	-0.118708	0.26521	0.0590645	0	0	0.37593	-0.14338	-0.251849	0.497597	-0.235624	0	0	-0.30673	-0.218196	0.113618	0.983828	-0.47877	-0.131401	1.04425	0.808403	0	0	0.888218	0.488696	0.133686	1.10202	0.817669	0	0
0.945815	-0.0258982	0.007709	3.00142	0.275022	0.980667	0.272195	-0.0847973	-0.0876316	-0.119314	0.259856	0.0579003	0	0	0.378093	-0.143948	-0.253227	0.468351	-0.238695	0	0	-0.305708	-0.218945	0.116162	0.985806	-0.478074	-0.131247	1.04446	0.808408	0	0	0.890275	0.488205	0.133317	1.10215	0.817655	0	0
0.950793	-0.0256427	0.00874705	2.9997	0.268338	0.980677	0.272587	-0.0941631	-0.08798	-0.119731	0.25472	0.0566803	0	0	0.379898	-0.14458	-0.254474	0.439067	-0.242041	0	0	-0.30456	-0.219684	0.118742	0.987785	-0.477379	-0.131093	1.04468	0.808413	0	0	0.892332	0.487714	0.132948	1.10228	0.81764	0	0
0.955771	-0.0253956	0.0098169	2.99792	0.261692	0.980856	0.272985	-0.103472	-0.0883943	-0.119947	0.249826	0.055406	0	0	0.381351	-0.145274	-0.255619	0.409856	-0.245613	0	0	-0.303289	-0.220423	0.121367	0.989763	-0.476684	-0.130939	1.04489	0.808418	0	0	0.894389	0.487223	0.132579	1.10242	0.817626	0	0
0.960749	-0.0251651	0.0109098	2.99607	0.255062	0.981149	0.273395	-0.11272	-0.0888926	-0.119954	0.245195	0.0540797	0	0	0.382461	-0.146029	-0.25669	0.380839	-0.249363	0	0	-0.3019	-0.221173	0.124042	0.991742	-0.475988	-0.130785	1.04511	0.808423	0	0	0.896446	0.486732	0.13221	1.10255	0.817612	0	0
0.965727	-0.0249603	0.0120168	2.99415	0.248432	0.981514	0.273822	-0.1219	-0.0894938	-0.119745	0.240853	0.0527046	0	0	0.383241	-0.146843	-0.257719	0.35214	-0.253248	0	0	-0.3004	-0.221944	0.126774	0.99372	-0.475293	-0.130631	1.04532	0.808428	0	0	0.898502	0.486241	0.131841	1.10268	0.817598	0	0
0.970705	-0.0247905	0.0131288	2.99214	0.241787	0.981911	0.27427	-0.131006	-0.0902167	-0.119314	0.236827	0.051285	0	0	0.383704	-0.147715	-0.258737	0.323892	-0.257228	0	0	-0.298799	-0.222747	0.129564	0.995698	-0.474598	-0.130477	1.04554	0.808433	0	0	0.900559	0.48575	0.131472	1.10281	0.817583	0	0
0.975683	-0.0246656	0.0142369	2.99004	0.235118	0.982311	0.274741	-0.140028	-0.0910802	-0.11866	0.233143	0.049826	0	0	0.383867	-0.148641	-0.259774	0.296229	-0.26127	0	0	-0.297107	-0.223591	0.132414	0.997676	-0.473902	-0.130322	1.04575	0.808438	0	0	0.902615	0.485259	0.131103	1.10294	0.817569	0	0
0.980661	-0.0245953	0.0153318	2.98784	0.228417	0.982691	0.275238	-0.148956	-0.0921028	-0.117779	0.22983	0.0483336	0	0	0.383749	-0.149621	-0.260864	0.269289	-0.265347	0	0	-0.295336	-0.224484	0.135322	0.999654	-0.473207	-0.130168	1.04596	0.808443	0	0	0.904672	0.484768	0.130734	1.10308	0.817555	0	0
0.985639	-0.024589	0.0164044	2.98553	0.221683	0.983031	0.275762	-0.157781	-0.0933023	-0.116675	0.226913	0.0468149	0	0	0.38337	-0.150652	-0.262039	0.243211	-0.269437	0	0	-0.293502	-0.225435	0.13828	1.00163	-0.472512	-0.130014	1.04618	0.808448	0	0	0.906728	0.484277	0.130365	1.10321	0.81754	0	0
0.990617	-0.0246555	0.0174454	2.98311	0.214913	0.983317	0.276315	-0.166488	-0.0946954	-0.115349	0.22442	0.0452775	0	0	0.382755	-0.15173	-0.263333	0.218131	-0.273529	0	0	-0.291616	-0.226453	0.141283	1.00361	-0.471817	-0.12986	1.04639	0.808454	0	0	0.908784	0.483786	0.129996	1.10334	0.817526	0	0
0.995595	-0.0248028	0.0184458	2.98059	0.20811	0.983541	0.276896	-0.175064	-0.0962976	-0.113808	0.222372	0.0437296	0	0	0.381928	-0.152855	-0.26478	0.19418	-0.277617	0	0	-0.289695	-0.227544	0.144322	1.00559	-0.471122	-0.129706	1.04661	0.808459	0	0	0.91084	0.483295	0.129627	1.10347	0.817512	0	0
1.00057	-0.0250379	0.0193968	2.97795	0.201277	0.983697	0.277507	-0.183495	-0.0981226	-0.112058	0.22079	0.04218	0	0	0.380915	-0.154021	-0.266411	0.171483	-0.281706	0	0	-0.287751	-0.228714	0.147394	1.00756	-0.470426	-0.129552	1.04682	0.808464	0	0	0.912896	0.482804	0.129259	1.10361	0.817498	0	0
1.00555	-0.0253666	0.0202896	2.9752	0.19442	0.983782	0.278145	-0.191764	-0.100182	-0.110111	0.219692	0.0406374	0	0	0.379743	-0.155225	-0.26826	0.150156	-0.285807	0	0	-0.285798	-0.229971	0.150492	1.00954	-0.469731	-0.129398	1.04704	0.808469	0	0	0.914951	0.482313	0.12889	1.10374	0.817483	0	0
1.01053	-0.0257935	0.021116	2.97234	0.187547	0.983797	0.278811	-0.199856	-0.102485	-0.107976	0.219089	0.0391106	0	0	0.378439	-0.156463	-0.270353	0.130299	-0.289939	0	0	-0.283848	-0.231319	0.15361	1.01152	-0.469036	-0.129244	1.04725	0.808474	0	0	0.917007	0.481822	0.128521	1.10387	0.817469	0	0
1.01551	-0.0263217	0.0218684	2.96939	0.180665	0.983743	0.279503	-0.207755	-0.105037	-0.105669	0.218989	0.0376082	0	0	0.37703	-0.157729	-0.272718	0.111998	-0.294128	0	0	-0.281914	-0.232762	0.156745	1.0135	-0.468341	-0.12909	1.04746	0.808479	0	0	0.919063	0.481331	0.128152	1.104	0.817455	0	0
1.02048	-0.0269528	0.0225398	2.96633	0.173784	0.983624	0.280219	-0.215446	-0.107843	-0.103205	0.219393	0.036139	0	0	0.375541	-0.159018	-0.275373	0.0953206	-0.298404	0	0	-0.280005	-0.234302	0.159889	1.01547	-0.467646	-0.128936	1.04768	0.808484	0	0	0.921118	0.48084	0.127783	1.10414	0.817441	0	0
1.02546	-0.0276866	0.0231243	2.96319	0.166912	0.983445	0.280958	-0.222912	-0.110902	-0.100603	0.220298	0.0347114	0	0	0.373997	-0.160323	-0.278333	0.0803149	-0.3028	0	0	-0.278133	-0.235942	0.163033	1.01745	-0.466951	-0.128782	1.04789	0.808489	0	0	0.923174	0.480349	0.127414	1.10427	0.817426	0	0
1.03044	-0.0285216	0.0236168	2.95998	0.160059	0.983212	0.281718	-0.230142	-0.114211	-0.0978837	0.221693	0.0333337	0	0	0.372418	-0.161636	-0.281606	0.0670055	-0.307349	0	0	-0.276305	-0.237681	0.16617	1.01943	-0.466256	-0.128628	1.04811	0.808494	0	0	0.925229	0.479859	0.127045	1.1044	0.817412	0	0
1.03542	-0.0294552	0.0240136	2.9567	0.153234	0.982931	0.282496	-0.237122	-0.117762	-0.0950671	0.223561	0.0320124	0	0	0.370824	-0.162951	-0.285188	0.0553936	-0.312088	0	0	-0.274529	-0.239516	0.169291	1.0214	-0.465561	-0.128474	1.04832	0.808499	0	0	0.927285	0.479368	0.126676	1.10453	0.817398	0	0
1.0404	-0.0304836	0.0243124	2.95336	0.146446	0.982608	0.283292	-0.243844	-0.121546	-0.0921747	0.225877	0.030753	0	0	0.369229	-0.16426	-0.289069	0.0454562	-0.317047	0	0	-0.272812	-0.241445	0.172387	1.02338	-0.464866	-0.128319	1.04853	0.808504	0	0	0.92934	0.478877	0.126308	1.10466	0.817383	0	0
1.04537	-0.0316017	0.0245122	2.94999	0.139702	0.98225	0.284102	-0.2503	-0.125547	-0.0892279	0.228614	0.0295601	0	0	0.367645	-0.165553	-0.29323	0.0371468	-0.322254	0	0	-0.271158	-0.243462	0.175452	1.02536	-0.464171	-0.128165	1.04875	0.808509	0	0	0.931395	0.478386	0.125939	1.1048	0.817369	0	0
1.05035	-0.0328033	0.0246138	2.9466	0.133009	0.981862	0.284925	-0.256488	-0.129749	-0.0862476	0.231736	0.0284367	0	0	0.366081	-0.166826	-0.297645	0.0303962	-0.327732	0	0	-0.269572	-0.245562	0.178478	1.02733	-0.463476	-0.128011	1.04896	0.808514	0	0	0.933451	0.477895	0.12557	1.10493	0.817355	0	0
1.05533	-0.0340818	0.0246195	2.9432	0.126373	0.981452	0.285758	-0.262407	-0.134131	-0.0832537	0.235204	0.0273843	0	0	0.364542	-0.168069	-0.302279	0.0251149	-0.333493	0	0	-0.268057	-0.247736	0.181458	1.02931	-0.462781	-0.127857	1.04918	0.808519	0	0	0.935506	0.477404	0.125201	1.10506	0.817341	0	0
1.06031	-0.0354294	0.0245331	2.93981	0.119797	0.981023	0.286599	-0.268059	-0.138672	-0.0802644	0.238977	0.0264033	0	0	0.363033	-0.169278	-0.307096	0.0211956	-0.339542	0	0	-0.266613	-0.249975	0.184388	1.03129	-0.462086	-0.127703	1.04939	0.808524	0	0	0.937561	0.476913	0.124832	1.10519	0.817326	0	0
1.06529	-0.0368379	0.02436	2.93643	0.113284	0.980581	0.287448	-0.273452	-0.143347	-0.0772961	0.243009	0.0254926	0	0	0.361552	-0.170447	-0.312056	0.0185164	-0.345872	0	0	-0.26524	-0.25227	0.187264	1.03326	-0.461391	-0.127549	1.04961	0.808529	0	0	0.939616	0.476422	0.124463	1.10533	0.817312	0	0
1.07026	-0.0382991	0.0241069	2.93309	0.106833	0.980129	0.288302	-0.278594	-0.148132	-0.0743624	0.247256	0.0246497	0	0	0.360101	-0.171574	-0.31712	0.016945	-0.352471	0	0	-0.263937	-0.254611	0.190081	1.03524	-0.460696	-0.127395	1.04982	0.808535	0	0	0.941671	0.475931	0.124095	1.10546	0.817298	0	0
1.07524	-0.0398043	0.0237814	2.92978	0.100446	0.979672	0.289159	-0.2835	-0.153003	-0.071474	0.251673	0.0238713	0	0	0.358677	-0.172657	-0.32225	0.0163429	-0.359312	0	0	-0.262701	-0.256986	0.19284	1.03722	-0.460001	-0.127241	1.05003	0.80854	0	0	0.943726	0.47544	0.123726	1.10559	0.817284	0	0
1.08022	-0.0413454	0.0233919	2.92652	0.0941174	0.979211	0.290019	-0.288187	-0.157937	-0.0686386	0.25622	0.0231524	0	0	0.357278	-0.173696	-0.327414	0.016569	-0.366367	0	0	-0.261528	-0.259388	0.195542	1.03919	-0.459306	-0.127087	1.05025	0.808545	0	0	0.945781	0.47495	0.123357	1.10572	0.817269	0	0
1.0852	-0.0429146	0.0229477	2.92332	0.0878447	0.97875	0.290881	-0.292674	-0.162913	-0.0658602	0.260858	0.0224877	0	0	0.355901	-0.174692	-0.332584	0.0174844	-0.373598	0	0	-0.260413	-0.261805	0.198189	1.04117	-0.458611	-0.126933	1.05046	0.80855	0	0	0.947836	0.474459	0.122988	1.10586	0.817255	0	0
1.09018	-0.0445047	0.0224578	2.92017	0.081622	0.978289	0.291744	-0.296984	-0.167914	-0.0631394	0.265556	0.0218707	0	0	0.354543	-0.17565	-0.337739	0.0189564	-0.380968	0	0	-0.25935	-0.264231	0.200785	1.04315	-0.457916	-0.126779	1.05068	0.808555	0	0	0.94989	0.473968	0.12262	1.10599	0.817241	0	0
1.09515	-0.0461095	0.0219312	2.91707	0.0754428	0.977829	0.292607	-0.301142	-0.172923	-0.0604737	0.270285	0.0212948	0	0	0.353201	-0.176572	-0.342865	0.0208616	-0.388439	0	0	-0.258331	-0.266659	0.203336	1.04512	-0.457221	-0.126625	1.05089	0.80856	0	0	0.951945	0.473477	0.122251	1.10612	0.817227	0	0
1.10013	-0.0477241	0.0213766	2.91401	0.0692998	0.977372	0.293469	-0.305176	-0.177932	-0.0578575	0.275025	0.0207526	0	0	0.351872	-0.177466	-0.347955	0.0230891	-0.395977	0	0	-0.257349	-0.269085	0.205849	1.0471	-0.456526	-0.126471	1.0511	0.808565	0	0	0.954	0.472986	0.121882	1.10625	0.817212	0	0
1.10511	-0.0493443	0.0208016	2.911	0.0631852	0.976916	0.294332	-0.309111	-0.182933	-0.055283	0.279764	0.020237	0	0	0.350553	-0.178336	-0.353008	0.0255432	-0.403554	0	0	-0.256397	-0.271506	0.208332	1.04908	-0.455832	-0.126317	1.05132	0.80857	0	0	0.956055	0.472495	0.121513	1.10638	0.817198	0	0
1.11009	-0.0509673	0.020213	2.90802	0.0570913	0.976461	0.295194	-0.312975	-0.187923	-0.0527406	0.284495	0.019741	0	0	0.349241	-0.17919	-0.35803	0.0281448	-0.411147	0	0	-0.255465	-0.273922	0.210793	1.05105	-0.455137	-0.126163	1.05153	0.808575	0	0	0.958109	0.472005	0.121145	1.10652	0.817184	0	0
1.11507	-0.0525914	0.0196163	2.90506	0.051011	0.976009	0.296056	-0.316793	-0.192904	-0.0502202	0.289215	0.0192577	0	0	0.347934	-0.180032	-0.363027	0.0308319	-0.418744	0	0	-0.254547	-0.276332	0.21324	1.05303	-0.454442	-0.126009	1.05175	0.80858	0	0	0.960164	0.471514	0.120776	1.10665	0.817169	0	0
1.12004	-0.0542157	0.0190155	2.90211	0.0449379	0.975556	0.296918	-0.320585	-0.197879	-0.0477122	0.293927	0.0187815	0	0	0.346629	-0.180869	-0.36801	0.0335602	-0.426341	0	0	-0.253637	-0.278739	0.215681	1.055	-0.453747	-0.125855	1.05196	0.808585	0	0	0.962219	0.471023	0.120407	1.10678	0.817155	0	0
1.12502	-0.0558399	0.0184135	2.89917	0.0388675	0.975104	0.29778	-0.324368	-0.20285	-0.0452087	0.298636	0.0183079	0	0	0.345325	-0.181704	-0.372987	0.0363014	-0.433935	0	0	-0.252729	-0.281144	0.218121	1.05698	-0.453052	-0.125701	1.05217	0.80859	0	0	0.964274	0.470532	0.120038	1.10691	0.817141	0	0
