Coordinates
version=1
nRows=215
nColumns=38
inDegrees=no

Units are S.I. units (second, meters, Newtons, ...)
If the header above contains a line with 'inDegrees', this indicates whether rotational values are in degrees (yes) or radians (no).

endheader
time	pelvis_tilt	pelvis_list	pelvis_rotation	pelvis_tx	pelvis_ty	pelvis_tz	hip_flexion_r	hip_adduction_r	hip_rotation_r	knee_angle_r	ankle_angle_r	subtalar_angle_r	mtp_angle_r	hip_flexion_l	hip_adduction_l	hip_rotation_l	knee_angle_l	ankle_angle_l	subtalar_angle_l	mtp_angle_l	lumbar_extension	lumbar_bending	lumbar_rotation	arm_flex_r	arm_add_r	arm_rot_r	elbow_flex_r	pro_sup_r	wrist_flex_r	wrist_dev_r	arm_flex_l	arm_add_l	arm_rot_l	elbow_flex_l	pro_sup_l	wrist_flex_l	wrist_dev_l
3.73	-2.48845	-0.136403	0.151695	1.72385	-0.940341	0.0901659	-0.483743	0.155935	-0.238016	0.480493	0.269343	0	0	-0.0168161	-0.197914	-0.090126	0.268267	0.074095	0	0	-1.32792	0.259115	0.224889	1.23647	-0.621783	-0.0443396	0.396635	0.176751	0	0	1.12077	0.908717	0.0781837	0.449452	0.180488	0	0
3.73999	-2.49426	-0.142989	0.148805	1.71189	-0.938611	0.0895694	-0.483738	0.159094	-0.22923	0.495928	0.284064	0	0	-0.0103937	-0.201183	-0.0849113	0.258827	0.0723572	0	0	-1.32472	0.264251	0.217062	1.23557	-0.622003	-0.0443593	0.396329	0.176731	0	0	1.11983	0.90877	0.0781946	0.449139	0.180469	0	0
3.74998	-2.50006	-0.149496	0.145869	1.69992	-0.93689	0.088976	-0.483732	0.16213	-0.220464	0.511455	0.298692	0	0	-0.00407763	-0.2044	-0.0799931	0.249829	0.0704815	0	0	-1.32146	0.269187	0.209657	1.23467	-0.622223	-0.044379	0.396023	0.17671	0	0	1.11889	0.908823	0.0782056	0.448826	0.18045	0	0
3.75997	-2.50582	-0.155788	0.142801	1.68793	-0.935198	0.0883912	-0.483725	0.164826	-0.21177	0.527216	0.313039	0	0	0.00194403	-0.207462	-0.0758202	0.241884	0.06819	0	0	-1.3181	0.273643	0.203082	1.23377	-0.622443	-0.0443987	0.395718	0.17669	0	0	1.11795	0.908875	0.0782166	0.448513	0.180431	0	0
3.76996	-2.51152	-0.161682	0.139498	1.67592	-0.93356	0.0878223	-0.483716	0.1669	-0.203248	0.543379	0.326833	0	0	0.00741948	-0.210221	-0.072828	0.235556	0.0650773	0	0	-1.31455	0.277316	0.197579	1.23287	-0.622662	-0.0444184	0.395412	0.176669	0	0	1.11702	0.908928	0.0782276	0.448199	0.180412	0	0
3.77995	-2.51706	-0.166969	0.135917	1.66385	-0.932005	0.087278	-0.483705	0.168066	-0.195046	0.560207	0.339694	0	0	0.0120075	-0.212516	-0.0713011	0.231215	0.0606606	0	0	-1.31096	0.279958	0.193237	1.23196	-0.622882	-0.0444381	0.395106	0.176648	0	0	1.11608	0.908981	0.0782385	0.447886	0.180392	0	0
3.78994	-2.52238	-0.171405	0.13201	1.65173	-0.930565	0.0867673	-0.483692	0.167999	-0.187376	0.577869	0.351192	0	0	0.0154706	-0.214138	-0.0713831	0.22912	0.0544546	0	0	-1.30731	0.281324	0.18994	1.23106	-0.623102	-0.0444578	0.3948	0.176628	0	0	1.11514	0.909034	0.0782495	0.447572	0.180373	0	0
3.79993	-2.5275	-0.174683	0.127695	1.63954	-0.929276	0.0862995	-0.483678	0.166288	-0.180557	0.596397	0.360842	0	0	0.0177283	-0.214796	-0.0731366	0.229437	0.0460529	0	0	-1.30341	0.281124	0.187399	1.23016	-0.623321	-0.0444775	0.394494	0.176607	0	0	1.1142	0.909087	0.0782605	0.447259	0.180354	0	0
3.80992	-2.53241	-0.176483	0.122929	1.62728	-0.928169	0.0858832	-0.483666	0.162515	-0.174972	0.61586	0.368072	0	0	0.0187484	-0.214182	-0.0765039	0.232176	0.0352004	0	0	-1.29915	0.27909	0.18526	1.22926	-0.623541	-0.0444972	0.394188	0.176586	0	0	1.11326	0.909139	0.0782714	0.446945	0.180335	0	0
3.81991	-2.53712	-0.176478	0.117651	1.61494	-0.927277	0.0855259	-0.483658	0.156248	-0.17104	0.636216	0.372264	0	0	0.0186387	-0.211969	-0.0813719	0.237289	0.0218949	0	0	-1.29429	0.27495	0.183099	1.22836	-0.623761	-0.0445169	0.393882	0.176566	0	0	1.11232	0.909192	0.0782824	0.446632	0.180316	0	0
3.8299	-2.54155	-0.174399	0.111894	1.60254	-0.926627	0.0852327	-0.483662	0.147172	-0.169135	0.657566	0.372738	0	0	0.0174291	-0.207894	-0.087534	0.244579	0.00646992	0	0	-1.28888	0.268523	0.180562	1.22746	-0.62398	-0.0445366	0.393575	0.176545	0	0	1.11138	0.909245	0.0782934	0.446318	0.180297	0	0
3.83989	-2.54546	-0.170108	0.105827	1.59007	-0.92624	0.0850062	-0.483685	0.135199	-0.169482	0.680168	0.368812	0	0	0.0150022	-0.201849	-0.09466	0.253721	-0.0103663	0	0	-1.28334	0.25981	0.177404	1.22655	-0.6242	-0.0445563	0.393269	0.176525	0	0	1.11044	0.909297	0.0783043	0.446004	0.180278	0	0
3.84988	-2.5486	-0.163614	0.0996305	1.57757	-0.926131	0.0848461	-0.483736	0.120426	-0.172106	0.704209	0.359852	0	0	0.0112276	-0.193868	-0.102394	0.264421	-0.0276084	0	0	-1.27807	0.248941	0.173438	1.22565	-0.62442	-0.044576	0.392963	0.176504	0	0	1.1095	0.909349	0.0783152	0.445691	0.180259	0	0
3.85987	-2.55078	-0.155041	0.0934668	1.56504	-0.926313	0.0847485	-0.483828	0.103081	-0.176855	0.729765	0.345309	0	0	0.00598246	-0.184089	-0.110459	0.27642	-0.0441544	0	0	-1.27339	0.236129	0.16854	1.22475	-0.624639	-0.0445956	0.392656	0.176483	0	0	1.10856	0.909402	0.0783262	0.445377	0.180239	0	0
3.86986	-2.55175	-0.14464	0.0875047	1.55251	-0.926787	0.0847068	-0.483974	0.0835381	-0.183423	0.756892	0.324775	0	0	-0.000948585	-0.172756	-0.118578	0.28935	-0.0589766	0	0	-1.26968	0.221711	0.162695	1.22385	-0.624858	-0.0446153	0.39235	0.176463	0	0	1.10762	0.909454	0.0783371	0.445063	0.18022	0	0
3.87985	-2.55133	-0.132716	0.0818653	1.54001	-0.927552	0.0847106	-0.484189	0.0622191	-0.19138	0.785466	0.298054	0	0	-0.00975788	-0.160135	-0.126491	0.302802	-0.0712464	0	0	-1.2672	0.206061	0.15593	1.22294	-0.625078	-0.044635	0.392043	0.176442	0	0	1.10668	0.909506	0.078348	0.444749	0.180201	0	0
3.88984	-2.5493	-0.119657	0.0766586	1.52757	-0.928597	0.0847476	-0.484488	0.0396099	-0.200234	0.815389	0.265251	0	0	-0.020802	-0.146537	-0.133912	0.316176	-0.0804392	0	0	-1.26637	0.189643	0.14836	1.22204	-0.625297	-0.0446547	0.391737	0.176422	0	0	1.10574	0.909557	0.0783589	0.444435	0.180182	0	0
3.89983	-2.54546	-0.105842	0.0719253	1.51521	-0.929908	0.0848033	-0.484883	0.016187	-0.209434	0.846407	0.226849	0	0	-0.0344133	-0.132262	-0.140662	0.328869	-0.086331	0	0	-1.26753	0.172906	0.14011	1.22113	-0.625516	-0.0446743	0.39143	0.176401	0	0	1.1048	0.909609	0.0783698	0.44412	0.180163	0	0
3.90982	-2.53972	-0.0916084	0.0676191	1.50296	-0.931467	0.0848632	-0.485381	-0.00763365	-0.218403	0.878082	0.183748	0	0	-0.050802	-0.117574	-0.146763	0.340413	-0.0889475	0	0	-1.27086	0.156208	0.131299	1.22023	-0.625735	-0.044694	0.391123	0.17638	0	0	1.10385	0.909661	0.0783806	0.443806	0.180144	0	0
3.91981	-2.532	-0.0773041	0.0636496	1.49085	-0.933251	0.0849133	-0.485978	-0.0314302	-0.226584	0.909968	0.137313	0	0	-0.0701541	-0.102763	-0.152328	0.350392	-0.0885178	0	0	-1.27658	0.139885	0.122062	1.21933	-0.625954	-0.0447137	0.390816	0.17636	0	0	1.10291	0.909712	0.0783915	0.443491	0.180125	0	0
3.9298	-2.52233	-0.0632329	0.0598832	1.4789	-0.935234	0.0849411	-0.48666	-0.0547973	-0.233443	0.941483	0.0893025	0	0	-0.0924456	-0.0880964	-0.157532	0.358636	-0.0853889	0	0	-1.28472	0.124178	0.112533	1.21842	-0.626173	-0.0447333	0.390509	0.176339	0	0	1.10197	0.909763	0.0784023	0.443177	0.180105	0	0
3.93979	-2.51083	-0.0496389	0.0561796	1.46712	-0.93739	0.0849367	-0.487389	-0.0773644	-0.238562	0.971977	0.0417497	0	0	-0.117455	-0.0738045	-0.162557	0.365205	-0.0799677	0	0	-1.29516	0.109243	0.102832	1.21752	-0.626392	-0.0447529	0.390202	0.176319	0	0	1.10103	0.909814	0.0784132	0.442862	0.180086	0	0
3.94978	-2.49766	-0.0367559	0.052457	1.45553	-0.939688	0.0848929	-0.488104	-0.0987677	-0.241731	1.00088	-0.00318201	0	0	-0.144896	-0.0601255	-0.16748	0.370221	-0.0726959	0	0	-1.30777	0.0952416	0.0930853	1.21661	-0.626611	-0.0447726	0.389895	0.176298	0	0	1.10008	0.909865	0.078424	0.442547	0.180067	0	0
3.95977	-2.48302	-0.0247774	0.0487266	1.44412	-0.942096	0.0848057	-0.488706	-0.118653	-0.242977	1.02768	-0.0434229	0	0	-0.174369	-0.047288	-0.172264	0.373895	-0.0640103	0	0	-1.32239	0.082352	0.0833991	1.2157	-0.626829	-0.0447922	0.389587	0.176277	0	0	1.09914	0.909915	0.0784348	0.442232	0.180048	0	0
3.96976	-2.46725	-0.0138362	0.0450985	1.4329	-0.94458	0.084674	-0.48906	-0.136692	-0.24253	1.05184	-0.0772568	0	0	-0.205339	-0.0354972	-0.176759	0.37653	-0.0543074	0	0	-1.33877	0.0707646	0.0738402	1.2148	-0.627047	-0.0448118	0.38928	0.176257	0	0	1.0982	0.909966	0.0784456	0.441917	0.180029	0	0
3.97975	-2.45074	-0.00398689	0.0417625	1.42185	-0.947105	0.0844996	-0.488978	-0.152621	-0.240776	1.07285	-0.10358	0	0	-0.237139	-0.0249069	-0.180731	0.3785	-0.0439185	0	0	-1.35654	0.0606532	0.0644282	1.21389	-0.627266	-0.0448314	0.388972	0.176236	0	0	1.09725	0.910016	0.0784563	0.441602	0.18001	0	0
3.98974	-2.43404	0.00480383	0.0389438	1.41097	-0.949636	0.084287	-0.488226	-0.166278	-0.238181	1.09015	-0.122029	0	0	-0.268975	-0.0155976	-0.183908	0.380237	-0.0330975	0	0	-1.37517	0.0521433	0.0551368	1.21298	-0.627484	-0.044851	0.388664	0.176216	0	0	1.09631	0.910065	0.078467	0.441286	0.179991	0	0
3.99973	-2.41773	0.012671	0.0368683	1.40023	-0.952135	0.0840436	-0.486518	-0.177622	-0.235179	1.10322	-0.132899	0	0	-0.299965	-0.00755346	-0.186041	0.382228	-0.0220175	0	0	-1.39393	0.0452681	0.0458994	1.21207	-0.627702	-0.0448706	0.388356	0.176195	0	0	1.09536	0.910115	0.0784777	0.44097	0.179971	0	0
4.00972	-2.40247	0.0198241	0.0357225	1.38961	-0.954567	0.0837792	-0.483528	-0.186724	-0.232151	1.11161	-0.136921	0	0	-0.329165	-0.000672029	-0.186943	0.384973	-0.0107816	0	0	-1.41196	0.0399662	0.0366276	1.21116	-0.62792	-0.0448902	0.388048	0.176174	0	0	1.09441	0.910164	0.0784884	0.440654	0.179952	0	0
4.01971	-2.38891	0.0264802	0.0356401	1.37909	-0.956894	0.0835057	-0.478902	-0.193748	-0.229447	1.11501	-0.135103	0	0	-0.355724	0.00518351	-0.186482	0.38886	0.000559763	0	0	-1.42839	0.036128	0.0272315	1.21025	-0.628137	-0.0449098	0.387739	0.176154	0	0	1.09346	0.910212	0.0784991	0.440338	0.179933	0	0
4.0297	-2.37762	0.032837	0.036699	1.36863	-0.959083	0.0832372	-0.472291	-0.198939	-0.227401	1.11328	-0.128602	0	0	-0.37895	0.0101654	-0.184595	0.394144	0.0119904	0	0	-1.44237	0.033609	0.0176354	1.20934	-0.628354	-0.0449293	0.387431	0.176133	0	0	1.09252	0.910261	0.0785097	0.440022	0.179914	0	0
4.03969	-2.36904	0.0390308	0.0389287	1.35822	-0.961103	0.0829891	-0.463397	-0.202594	-0.226359	1.10647	-0.118622	0	0	-0.398415	0.0143968	-0.181277	0.400832	0.0235108	0	0	-1.45338	0.032263	0.00778173	1.20843	-0.628572	-0.0449488	0.387122	0.176113	0	0	1.09157	0.910309	0.0785203	0.439705	0.179895	0	0
4.04968	-2.36341	0.0451464	0.0422935	1.34783	-0.962927	0.0827782	-0.452039	-0.205054	-0.226657	1.09479	-0.106322	0	0	-0.414021	0.0179942	-0.176589	0.408693	0.03513	0	0	-1.46118	0.0319251	-0.00236796	1.20751	-0.628788	-0.0449683	0.386813	0.176092	0	0	1.09062	0.910356	0.0785308	0.439388	0.179876	0	0
4.05967	-2.3607	0.0512499	0.0466817	1.33745	-0.96453	0.0826216	-0.438239	-0.206696	-0.228569	1.07849	-0.0927524	0	0	-0.426015	0.0210963	-0.170645	0.417319	0.0468586	0	0	-1.46579	0.0323889	-0.0128424	1.2066	-0.629005	-0.0449878	0.386503	0.176071	0	0	1.08967	0.910403	0.0785413	0.439071	0.179856	0	0
4.06966	-2.36074	0.0574382	0.0519251	1.32705	-0.965895	0.0825362	-0.422279	-0.2079	-0.232238	1.05778	-0.0788227	0	0	-0.434828	0.0238913	-0.163577	0.426308	0.058703	0	0	-1.46746	0.0333926	-0.0236708	1.20569	-0.629221	-0.0450073	0.386194	0.176051	0	0	1.08872	0.91045	0.0785518	0.438754	0.179837	0	0
4.07965	-2.36321	0.0638427	0.0578052	1.31663	-0.967008	0.0825382	-0.4046	-0.209033	-0.237647	1.03277	-0.0653045	0	0	-0.440999	0.0266189	-0.155501	0.435307	0.0706625	0	0	-1.46658	0.0346259	-0.0348878	1.20477	-0.629437	-0.0450268	0.385884	0.17603	0	0	1.08777	0.910496	0.0785623	0.438436	0.179818	0	0
4.08964	-2.36775	0.0706176	0.064057	1.30616	-0.967858	0.0826423	-0.385722	-0.210427	-0.2446	1.00351	-0.0528462	0	0	-0.445079	0.0295618	-0.146507	0.444024	0.0827217	0	0	-1.46373	0.0357368	-0.0465307	1.20386	-0.629653	-0.0450462	0.385574	0.17601	0	0	1.08681	0.910542	0.0785727	0.438118	0.179799	0	0
4.09963	-2.37399	0.0779158	0.0704256	1.29564	-0.968441	0.0828608	-0.366136	-0.212373	-0.252797	0.970142	-0.0419534	0	0	-0.447585	0.032992	-0.136672	0.452261	0.0948838	0	0	-1.45936	0.0363866	-0.0586234	1.20294	-0.629869	-0.0450656	0.385264	0.175989	0	0	1.08586	0.910587	0.078583	0.4378	0.17978	0	0
4.10962	-2.3816	0.0858689	0.0766942	1.28506	-0.968756	0.0832034	-0.346272	-0.215098	-0.261863	0.932845	-0.0330025	0	0	-0.448971	0.0371425	-0.126052	0.459908	0.107167	0	0	-1.45385	0.036286	-0.0711677	1.20202	-0.630084	-0.045085	0.384953	0.175968	0	0	1.0849	0.910631	0.0785933	0.437481	0.179761	0	0
4.11961	-2.39029	0.0945739	0.082701	1.27442	-0.968804	0.0836768	-0.326474	-0.218759	-0.271379	0.8919	-0.0262596	0	0	-0.449616	0.0421909	-0.114684	0.466919	0.119603	0	0	-1.44745	0.035215	-0.0841406	1.2011	-0.630298	-0.0451044	0.384642	0.175948	0	0	1.08395	0.910675	0.0786036	0.437162	0.179741	0	0
4.1296	-2.39983	0.104087	0.0883448	1.26369	-0.96859	0.0842839	-0.306988	-0.223444	-0.280897	0.847674	-0.0218887	0	0	-0.449819	0.0482505	-0.102579	0.4733	0.132231	0	0	-1.44029	0.0330284	-0.0974952	1.20018	-0.630513	-0.0451238	0.384331	0.175927	0	0	1.08299	0.910719	0.0786138	0.436843	0.179722	0	0
4.13959	-2.41006	0.114435	0.0935812	1.25288	-0.968117	0.0850246	-0.287963	-0.229186	-0.289962	0.800634	-0.0199371	0	0	-0.449803	0.0553772	-0.0897357	0.479092	0.145097	0	0	-1.43245	0.0296524	-0.111166	1.19926	-0.630727	-0.0451431	0.38402	0.175907	0	0	1.08203	0.910762	0.078624	0.436524	0.179703	0	0
4.14958	-2.42085	0.125617	0.0984213	1.24199	-0.967396	0.0858955	-0.269461	-0.235989	-0.298116	0.751334	-0.0203221	0	0	-0.44973	0.0635777	-0.0761334	0.48437	0.158249	0	0	-1.42392	0.0250732	-0.125074	1.19834	-0.63094	-0.0451624	0.383708	0.175886	0	0	1.08108	0.910804	0.0786341	0.436204	0.179684	0	0
4.15957	-2.43212	0.137613	0.102911	1.231	-0.966435	0.0868904	-0.251492	-0.243841	-0.304915	0.700386	-0.0228402	0	0	-0.449703	0.0728249	-0.0617314	0.489243	0.171727	0	0	-1.41471	0.0193189	-0.13914	1.19741	-0.631154	-0.0451816	0.383396	0.175866	0	0	1.08012	0.910845	0.0786442	0.435884	0.179664	0	0
4.16956	-2.44375	0.150414	0.107047	1.21993	-0.965246	0.0880019	-0.234148	-0.252701	-0.309841	0.648201	-0.0272066	0	0	-0.449785	0.0831268	-0.0464481	0.493865	0.1855	0	0	-1.40519	0.0123959	-0.153318	1.19649	-0.631367	-0.0452009	0.383084	0.175845	0	0	1.07916	0.910886	0.0786542	0.435563	0.179645	0	0
4.17955	-2.45561	0.16401	0.110823	1.20875	-0.963843	0.0892189	-0.21752	-0.262539	-0.312408	0.5952	-0.0330652	0	0	-0.450003	0.094496	-0.0301761	0.498436	0.199528	0	0	-1.39577	0.00429859	-0.167564	1.19556	-0.631579	-0.0452201	0.382771	0.175824	0	0	1.07819	0.910926	0.0786642	0.435242	0.179626	0	0
4.18954	-2.46763	0.178362	0.114278	1.19749	-0.962241	0.0905304	-0.201623	-0.273335	-0.3123	0.541946	-0.0399866	0	0	-0.450364	0.106887	-0.0128488	0.503137	0.213803	0	0	-1.38675	-0.00491906	-0.181824	1.19463	-0.631791	-0.0452393	0.382458	0.175804	0	0	1.07723	0.910965	0.0786741	0.43492	0.179607	0	0
4.19953	-2.47973	0.193381	0.117504	1.18613	-0.960455	0.0919234	-0.18643	-0.285052	-0.30941	0.489116	-0.0474984	0	0	-0.450857	0.120171	0.00553386	0.508127	0.228343	0	0	-1.3783	-0.0151316	-0.196033	1.1937	-0.632002	-0.0452584	0.382144	0.175783	0	0	1.07626	0.911004	0.0786839	0.434598	0.179587	0	0
4.20952	-2.49188	0.208931	0.120648	1.17469	-0.958504	0.0933837	-0.171895	-0.297616	-0.30385	0.437466	-0.0551225	0	0	-0.451466	0.134137	0.0248882	0.513553	0.243186	0	0	-1.37048	-0.0261224	-0.210123	1.19277	-0.632213	-0.0452776	0.38183	0.175763	0	0	1.0753	0.911042	0.0786937	0.434276	0.179568	0	0
4.21951	-2.50403	0.224836	0.123894	1.16315	-0.956407	0.094896	-0.157972	-0.310914	-0.295926	0.387797	-0.0624175	0	0	-0.452166	0.1485	0.0450419	0.519544	0.258384	0	0	-1.36327	-0.0376138	-0.224016	1.19184	-0.632424	-0.0452966	0.381516	0.175742	0	0	1.07433	0.911079	0.0787033	0.433953	0.179549	0	0
4.2295	-2.51616	0.240888	0.127454	1.15151	-0.954186	0.096445	-0.144617	-0.324795	-0.286129	0.340924	-0.0690296	0	0	-0.452933	0.16292	0.0657357	0.526208	0.273994	0	0	-1.35653	-0.0492759	-0.237627	1.1909	-0.632634	-0.0453157	0.381201	0.175721	0	0	1.07336	0.911115	0.078713	0.43363	0.17953	0	0
4.23949	-2.52828	0.256861	0.131567	1.13979	-0.951866	0.0980149	-0.131791	-0.339074	-0.275123	0.297659	-0.0747334	0	0	-0.453744	0.177016	0.0866235	0.533609	0.290079	0	0	-1.35	-0.0607431	-0.250862	1.18997	-0.632843	-0.0453347	0.380886	0.175701	0	0	1.07239	0.91115	0.0787225	0.433306	0.17951	0	0
4.24948	-2.54041	0.272522	0.136488	1.12797	-0.949473	0.0995908	-0.119442	-0.353545	-0.263721	0.258795	-0.07945	0	0	-0.454578	0.190378	0.107288	0.541759	0.306697	0	0	-1.3433	-0.0716234	-0.263617	1.18903	-0.633052	-0.0453537	0.38057	0.17568	0	0	1.07142	0.911184	0.078732	0.432982	0.179491	0	0
4.25947	-2.55252	0.287653	0.142399	1.11607	-0.947037	0.101159	-0.107602	-0.367982	-0.252784	0.224956	-0.0832492	0	0	-0.455419	0.20264	0.127317	0.550705	0.32382	0	0	-1.33619	-0.0815784	-0.275824	1.18809	-0.63326	-0.0453726	0.380254	0.17566	0	0	1.07045	0.911217	0.0787414	0.432657	0.179472	0	0
4.26946	-2.56455	0.302082	0.149377	1.10407	-0.944588	0.102706	-0.0963794	-0.38216	-0.243107	0.196567	-0.0863336	0	0	-0.456252	0.213534	0.146373	0.560536	0.341333	0	0	-1.32859	-0.0903635	-0.287447	1.18715	-0.633468	-0.0453915	0.379938	0.175639	0	0	1.06947	0.911249	0.0787507	0.432332	0.179452	0	0
4.27945	-2.57636	0.315681	0.157365	1.09199	-0.94216	0.104221	-0.0859613	-0.395856	-0.23533	0.173827	-0.0890131	0	0	-0.457065	0.222904	0.164257	0.571396	0.359018	0	0	-1.32068	-0.0978495	-0.298481	1.18621	-0.633674	-0.0454103	0.379621	0.175619	0	0	1.06849	0.91128	0.0787599	0.432006	0.179433	0	0
4.28944	-2.58772	0.328362	0.166132	1.07983	-0.939788	0.105694	-0.0766291	-0.408849	-0.229847	0.156659	-0.0916798	0	0	-0.457851	0.230735	0.180933	0.583525	0.376544	0	0	-1.31291	-0.104039	-0.308961	1.18526	-0.633881	-0.0454291	0.379303	0.175598	0	0	1.06752	0.91131	0.078769	0.431679	0.179413	0	0
4.29943	-2.59848	0.340037	0.175502	1.06759	-0.937507	0.107116	-0.0685522	-0.420939	-0.226927	0.144939	-0.094778	0	0	-0.458604	0.236991	0.196364	0.597	0.393611	0	0	-1.3055	-0.108933	-0.31883	1.18432	-0.634086	-0.0454478	0.378985	0.175577	0	0	1.06654	0.911339	0.0787781	0.431352	0.179394	0	0
4.30942	-2.60858	0.350564	0.185368	1.05528	-0.935354	0.108478	-0.0618	-0.431876	-0.226787	0.138517	-0.0987655	0	0	-0.45932	0.241529	0.210383	0.611772	0.409935	0	0	-1.29838	-0.112448	-0.32796	1.18337	-0.634291	-0.0454665	0.378667	0.175557	0	0	1.06555	0.911367	0.078787	0.431025	0.179375	0	0
4.31941	-2.61798	0.359736	0.195697	1.0429	-0.933365	0.109774	-0.0563514	-0.441349	-0.229594	0.137214	-0.104072	0	0	-0.459996	0.244072	0.222633	0.627676	0.42525	0	0	-1.29126	-0.1144	-0.33617	1.18242	-0.634495	-0.0454852	0.378347	0.175536	0	0	1.06457	0.911394	0.0787959	0.430696	0.179355	0	0
4.3294	-2.62649	0.367309	0.206316	1.03046	-0.931575	0.110995	-0.0522901	-0.448998	-0.235281	0.14063	-0.111047	0	0	-0.460634	0.244366	0.232752	0.644728	0.439164	0	0	-1.28417	-0.114627	-0.343325	1.18147	-0.634698	-0.0455038	0.378028	0.175516	0	0	1.06358	0.911419	0.0788046	0.430367	0.179336	0	0
4.33939	-2.63381	0.373068	0.216912	1.01797	-0.930016	0.112134	-0.0497646	-0.454485	-0.243446	0.148166	-0.119913	0	0	-0.461234	0.242288	0.240505	0.663102	0.451196	0	0	-1.27748	-0.113074	-0.34932	1.18051	-0.634901	-0.0455223	0.377708	0.175495	0	0	1.0626	0.911443	0.0788133	0.430038	0.179316	0	0
4.34938	-2.63968	0.376835	0.22719	1.00544	-0.928717	0.113187	-0.0488595	-0.457533	-0.253521	0.159159	-0.130691	0	0	-0.461798	0.237757	0.245721	0.682921	0.46084	0	0	-1.27145	-0.109716	-0.353993	1.17955	-0.635103	-0.0455408	0.377387	0.175475	0	0	1.06161	0.911466	0.0788219	0.429708	0.179297	0	0
4.35937	-2.64391	0.378426	0.236917	0.992884	-0.927703	0.114147	-0.0495799	-0.457891	-0.264939	0.172975	-0.143078	0	0	-0.462332	0.230663	0.248186	0.704207	0.467591	0	0	-1.26621	-0.104498	-0.357151	1.1786	-0.635304	-0.0455592	0.377066	0.175454	0	0	1.06061	0.911488	0.0788303	0.429377	0.179277	0	0
4.36936	-2.64625	0.377712	0.245834	0.980302	-0.926992	0.115011	-0.0519904	-0.455357	-0.277055	0.188937	-0.156381	0	0	-0.46284	0.220974	0.247741	0.727072	0.470883	0	0	-1.26199	-0.0974116	-0.35865	1.17763	-0.635504	-0.0455776	0.376744	0.175433	0	0	1.05962	0.911508	0.0788386	0.429045	0.179258	0	0
4.37935	-2.64655	0.374635	0.253732	0.967708	-0.926597	0.115775	-0.0561263	-0.449827	-0.289249	0.206434	-0.169572	0	0	-0.463332	0.208738	0.244302	0.751576	0.470172	0	0	-1.25895	-0.0884997	-0.358373	1.17667	-0.635703	-0.0455959	0.376421	0.175413	0	0	1.05863	0.911527	0.0788469	0.428713	0.179238	0	0
4.38934	-2.64471	0.369231	0.260448	0.955114	-0.926524	0.116439	-0.0620209	-0.441312	-0.301048	0.2249	-0.181544	0	0	-0.463818	0.194096	0.237879	0.777716	0.464939	0	0	-1.25717	-0.0778836	-0.356268	1.1757	-0.635901	-0.0456141	0.376098	0.175392	0	0	1.05763	0.911544	0.078855	0.42838	0.179219	0	0
4.39933	-2.64073	0.361633	0.265877	0.942531	-0.926773	0.117004	-0.0697053	-0.429944	-0.312192	0.243766	-0.191335	0	0	-0.464311	0.177285	0.228596	0.805395	0.454719	0	0	-1.25666	-0.0657734	-0.352353	1.17473	-0.636099	-0.0456323	0.375774	0.175372	0	0	1.05663	0.91156	0.0788629	0.428046	0.179199	0	0
4.40932	-2.6347	0.352039	0.269974	0.92997	-0.927338	0.117474	-0.0792071	-0.415936	-0.322643	0.262462	-0.198215	0	0	-0.464827	0.15859	0.216677	0.834415	0.439136	0	0	-1.25734	-0.0524329	-0.34671	1.17376	-0.636295	-0.0456504	0.375449	0.175351	0	0	1.05562	0.911575	0.0788708	0.427712	0.179179	0	0
4.41931	-2.62667	0.340746	0.272699	0.917446	-0.928205	0.117853	-0.0906846	-0.399574	-0.332396	0.280329	-0.201737	0	0	-0.46538	0.138407	0.20249	0.864634	0.417925	0	0	-1.25926	-0.0382185	-0.339501	1.17279	-0.63649	-0.0456685	0.375124	0.17533	0	0	1.05462	0.911587	0.0788785	0.427376	0.17916	0	0
4.4293	-2.6168	0.328021	0.274117	0.904973	-0.929358	0.11815	-0.104175	-0.38115	-0.341655	0.296895	-0.201696	0	0	-0.465988	0.117052	0.18644	0.89571	0.391026	0	0	-1.26233	-0.0234124	-0.330888	1.17181	-0.636685	-0.0456865	0.374798	0.17531	0	0	1.05361	0.911599	0.0788861	0.42704	0.17914	0	0
4.43928	-2.60526	0.31411	0.274382	0.892567	-0.930777	0.118374	-0.119685	-0.360952	-0.350725	0.311858	-0.198139	0	0	-0.466667	0.0947784	0.168967	0.927225	0.358625	0	0	-1.2664	-0.00822492	-0.321041	1.17083	-0.636878	-0.0457044	0.374471	0.175289	0	0	1.0526	0.911608	0.0788936	0.426703	0.17912	0	0
4.44927	-2.59217	0.299332	0.273676	0.880248	-0.93244	0.118534	-0.137287	-0.339303	-0.359811	0.324933	-0.19136	0	0	-0.467428	0.0719007	0.1506	0.958843	0.321232	0	0	-1.27156	0.00711872	-0.310171	1.16985	-0.63707	-0.0457222	0.374143	0.175269	0	0	1.05159	0.911616	0.0789009	0.426365	0.179101	0	0
4.45926	-2.57763	0.284082	0.272199	0.868035	-0.934322	0.118639	-0.157077	-0.3166	-0.368992	0.335894	-0.181842	0	0	-0.468276	0.0488434	0.131977	0.990258	0.279752	0	0	-1.27805	0.0223562	-0.298511	1.16886	-0.637262	-0.04574	0.373815	0.175248	0	0	1.05057	0.911622	0.0789081	0.426026	0.179081	0	0
4.46925	-2.56174	0.268827	0.270135	0.855948	-0.936397	0.118695	-0.17912	-0.293313	-0.378234	0.344597	-0.170182	0	0	-0.469203	0.0261438	0.11381	1.02118	0.235484	0	0	-1.28615	0.0371819	-0.286318	1.16787	-0.637452	-0.0457576	0.373486	0.175227	0	0	1.04955	0.911627	0.0789151	0.425687	0.179061	0	0
4.47924	-2.54469	0.253981	0.267666	0.844006	-0.93864	0.118709	-0.203285	-0.269938	-0.387524	0.35113	-0.15699	0	0	-0.470181	0.00435421	0.0967756	1.05124	0.190056	0	0	-1.29598	0.0513277	-0.273838	1.16688	-0.637641	-0.0457752	0.373156	0.175207	0	0	1.04853	0.911629	0.078922	0.425346	0.179042	0	0
4.48923	-2.52673	0.239871	0.264927	0.832232	-0.941025	0.118682	-0.229261	-0.246947	-0.396885	0.355779	-0.142828	0	0	-0.471161	-0.0160094	0.0814243	1.07998	0.145274	0	0	-1.30745	0.0645779	-0.261296	1.16589	-0.637828	-0.0457928	0.372825	0.175186	0	0	1.04751	0.91163	0.0789287	0.425005	0.179022	0	0
4.49922	-2.50811	0.226772	0.261978	0.820643	-0.943529	0.118614	-0.256688	-0.224785	-0.40628	0.358861	-0.128197	0	0	-0.472058	-0.0344496	0.068118	1.10704	0.102964	0	0	-1.3205	0.0767131	-0.248893	1.16489	-0.638015	-0.0458102	0.372494	0.175166	0	0	1.04648	0.911629	0.0789353	0.424662	0.179002	0	0
4.50921	-2.48909	0.214893	0.2588	0.809261	-0.946128	0.118503	-0.285146	-0.203851	-0.415607	0.360729	-0.11351	0	0	-0.472747	-0.0505096	0.0570149	1.13208	0.0647844	0	0	-1.33503	0.0875099	-0.236791	1.16389	-0.6382	-0.0458275	0.372162	0.175145	0	0	1.04545	0.911625	0.0789417	0.424319	0.178982	0	0
4.5192	-2.46996	0.20436	0.255321	0.798106	-0.948801	0.118342	-0.314126	-0.184483	-0.424723	0.361772	-0.0990789	0	0	-0.473054	-0.0638249	0.0480608	1.15474	0.0320096	0	0	-1.35084	0.0967592	-0.225097	1.16288	-0.638384	-0.0458448	0.371828	0.175124	0	0	1.04442	0.91162	0.078948	0.423974	0.178962	0	0
4.52919	-2.45108	0.195182	0.251441	0.787205	-0.951527	0.118124	-0.343026	-0.166939	-0.433464	0.362405	-0.0851083	0	0	-0.472754	-0.0741857	0.0409998	1.17461	0.00534895	0	0	-1.36761	0.104303	-0.213864	1.16187	-0.638567	-0.045862	0.371494	0.175104	0	0	1.04338	0.911613	0.0789541	0.423629	0.178942	0	0
4.53918	-2.43287	0.187261	0.247076	0.776586	-0.95429	0.117839	-0.371153	-0.15137	-0.441671	0.363067	-0.0717075	0	0	-0.47156	-0.0815768	0.0354177	1.19125	-0.0150569	0	0	-1.38482	0.11005	-0.203089	1.16086	-0.638748	-0.045879	0.371159	0.175083	0	0	1.04235	0.911604	0.07896	0.423282	0.178922	0	0
4.54917	-2.41582	0.180386	0.242194	0.766281	-0.957073	0.117475	-0.397738	-0.137819	-0.449206	0.364211	-0.0589016	0	0	-0.469135	-0.0861808	0.030798	1.20422	-0.0294566	0	0	-1.40178	0.114011	-0.19272	1.15985	-0.638928	-0.045896	0.370823	0.175062	0	0	1.0413	0.911592	0.0789657	0.422935	0.178902	0	0
4.55916	-2.40046	0.174264	0.236849	0.756331	-0.959861	0.117019	-0.421994	-0.126217	-0.455959	0.366279	-0.0466487	0	0	-0.465101	-0.0883586	0.026576	1.21314	-0.0382925	0	0	-1.41756	0.116309	-0.182673	1.15883	-0.639106	-0.0459129	0.370487	0.175042	0	0	1.04026	0.911579	0.0789713	0.422586	0.178882	0	0
4.56915	-2.38731	0.168616	0.231166	0.746779	-0.962638	0.116459	-0.443244	-0.116427	-0.461821	0.369592	-0.0348657	0	0	-0.459074	-0.0885693	0.0221919	1.21774	-0.0421427	0	0	-1.43125	0.117116	-0.172849	1.15781	-0.639284	-0.0459297	0.370149	0.175021	0	0	1.03921	0.911563	0.0789767	0.422236	0.178862	0	0
4.57914	-2.37688	0.163205	0.225262	0.737126	-0.96502	0.116021	-0.461111	-0.108288	-0.466697	0.374253	-0.0234384	0	0	-0.450711	-0.0872538	0.0171508	1.21794	-0.041717	0	0	-1.44229	0.116684	-0.163152	1.15678	-0.639464	-0.0459467	0.369809	0.175	0	0	1.03816	0.91155	0.0789822	0.421885	0.178842	0	0
4.58913	-2.3694	0.157907	0.219301	0.727366	-0.967003	0.1157	-0.475412	-0.101594	-0.470505	0.380133	-0.0122368	0	0	-0.439725	-0.0848378	0.0110525	1.2138	-0.0377938	0	0	-1.45043	0.115212	-0.153492	1.15575	-0.639648	-0.0459641	0.369466	0.17498	0	0	1.0371	0.911539	0.0789879	0.421533	0.178822	0	0
4.59912	-2.3649	0.152676	0.213478	0.717497	-0.968597	0.115486	-0.486335	-0.0960891	-0.47317	0.386897	-0.0011301	0	0	-0.425995	-0.0817438	0.0035934	1.20552	-0.0311377	0	0	-1.45553	0.112934	-0.143789	1.15471	-0.639835	-0.0459817	0.369121	0.174959	0	0	1.03605	0.911531	0.0789937	0.421179	0.178802	0	0
4.60911	-2.36321	0.147462	0.207955	0.707513	-0.969821	0.115368	-0.494284	-0.0914692	-0.474659	0.394186	0.0100005	0	0	-0.409692	-0.0783656	-0.00539608	1.19321	-0.0224651	0	0	-1.45768	0.110104	-0.133965	1.15367	-0.640025	-0.0459995	0.368774	0.174938	0	0	1.03498	0.911525	0.0789997	0.420823	0.178782	0	0
4.6191	-2.36401	0.142176	0.202849	0.697413	-0.970707	0.115329	-0.499749	-0.0873896	-0.47497	0.401669	0.0212581	0	0	-0.391195	-0.0750641	-0.0159538	1.1769	-0.012444	0	0	-1.45713	0.10701	-0.123932	1.15262	-0.640219	-0.0460176	0.368425	0.174917	0	0	1.03392	0.911521	0.0790058	0.420466	0.178762	0	0
4.62909	-2.36695	0.136684	0.19824	0.687207	-0.971298	0.11535	-0.503244	-0.0834803	-0.474114	0.409059	0.0327264	0	0	-0.371022	-0.0721583	-0.0279773	1.15655	-0.00167105	0	0	-1.45429	0.103957	-0.113593	1.15156	-0.640415	-0.0460359	0.368073	0.174896	0	0	1.03285	0.911519	0.079012	0.420108	0.178742	0	0
4.63908	-2.37159	0.130813	0.194182	0.67692	-0.971649	0.115412	-0.505251	-0.0793513	-0.472094	0.416124	0.0444684	0	0	-0.349767	-0.0699141	-0.0412101	1.13201	0.00929356	0	0	-1.44972	0.10126	-0.102847	1.15051	-0.640615	-0.0460544	0.367719	0.174875	0	0	1.03177	0.91152	0.0790184	0.419748	0.178721	0	0
4.64907	-2.37757	0.124394	0.190709	0.66656	-0.971801	0.115499	-0.506201	-0.0746605	-0.468908	0.422743	0.056538	0	0	-0.327997	-0.068557	-0.055381	1.10322	0.019999	0	0	-1.44384	0.0992072	-0.0916041	1.14944	-0.640816	-0.0460731	0.367363	0.174853	0	0	1.0307	0.911522	0.0790247	0.419386	0.178701	0	0
4.65906	-2.38453	0.117269	0.187828	0.65613	-0.971784	0.115593	-0.506454	-0.0691382	-0.464543	0.428896	0.0689774	0	0	-0.30621	-0.068252	-0.0702074	1.07022	0.0300948	0	0	-1.43696	0.0980285	-0.0798013	1.14837	-0.641021	-0.0460919	0.367005	0.174832	0	0	1.02962	0.911527	0.0790311	0.419024	0.178681	0	0
4.66905	-2.39216	0.109305	0.185517	0.645626	-0.971617	0.11568	-0.506297	-0.0625933	-0.458983	0.434653	0.0818178	0	0	-0.284828	-0.0691021	-0.0853979	1.03312	0.0393007	0	0	-1.42928	0.0979023	-0.0674001	1.1473	-0.641227	-0.0461108	0.366645	0.174811	0	0	1.02853	0.911533	0.0790376	0.418659	0.178661	0	0
4.67904	-2.40016	0.100363	0.183718	0.635074	-0.97134	0.115752	-0.505947	-0.0548355	-0.452204	0.440114	0.0950625	0	0	-0.26433	-0.0711385	-0.100467	0.991868	0.0473266	0	0	-1.42132	0.0989975	-0.054371	1.14622	-0.641435	-0.0461298	0.366283	0.174789	0	0	1.02744	0.911541	0.079044	0.418294	0.17864	0	0
4.68903	-2.40831	0.090342	0.18237	0.624487	-0.970976	0.115804	-0.505555	-0.0457604	-0.444179	0.445396	0.108731	0	0	-0.245008	-0.0743681	-0.115012	0.946625	0.0540009	0	0	-1.41339	0.101414	-0.0407175	1.14514	-0.641645	-0.0461488	0.36592	0.174768	0	0	1.02635	0.91155	0.0790503	0.417927	0.17862	0	0
4.69902	-2.41646	0.0792012	0.181401	0.613863	-0.970524	0.115839	-0.505226	-0.0353544	-0.434877	0.450606	0.122853	0	0	-0.226971	-0.0787596	-0.128718	0.897809	0.0592833	0	0	-1.40561	0.105162	-0.0264729	1.14406	-0.641857	-0.0461678	0.365556	0.174747	0	0	1.02526	0.91156	0.0790567	0.417559	0.1786	0	0
4.70901	-2.4245	0.0669212	0.180725	0.603202	-0.969981	0.115858	-0.505015	-0.0236431	-0.424276	0.455877	0.137426	0	0	-0.210275	-0.0842524	-0.141222	0.845897	0.063191	0	0	-1.39813	0.110223	-0.0116871	1.14298	-0.642071	-0.0461869	0.365191	0.174725	0	0	1.02416	0.911573	0.079063	0.41719	0.178579	0	0
4.719	-2.43237	0.0535288	0.180254	0.592498	-0.969328	0.115866	-0.504953	-0.0107172	-0.412379	0.461312	0.152458	0	0	-0.194829	-0.0907683	-0.152224	0.791568	0.0658498	0	0	-1.39095	0.11652	0.00355928	1.14189	-0.642287	-0.046206	0.364825	0.174704	0	0	1.02306	0.911587	0.0790693	0.41682	0.178559	0	0
4.72899	-2.44002	0.0390855	0.179899	0.581753	-0.968549	0.115868	-0.505043	0.00328947	-0.39923	0.467034	0.167924	0	0	-0.180545	-0.0982075	-0.16137	0.735499	0.0674211	0	0	-1.38414	0.123956	0.0191679	1.1408	-0.642505	-0.0462252	0.364458	0.174682	0	0	1.02196	0.911602	0.0790755	0.416448	0.178538	0	0
4.73898	-2.44746	0.0237095	0.179569	0.570958	-0.96762	0.115876	-0.505273	0.0181862	-0.384928	0.473137	0.183802	0	0	-0.167229	-0.10645	-0.168386	0.678517	0.068146	0	0	-1.37768	0.132382	0.0350158	1.13972	-0.642725	-0.0462444	0.364091	0.174661	0	0	1.02085	0.911619	0.0790818	0.416076	0.178518	0	0
4.74897	-2.45473	0.00758168	0.17916	0.560101	-0.966512	0.115898	-0.505625	0.0337138	-0.369635	0.479695	0.200071	0	0	-0.154651	-0.115344	-0.173092	0.621538	0.0683341	0	0	-1.37146	0.141609	0.0509529	1.13863	-0.642947	-0.0462637	0.363724	0.174639	0	0	1.01973	0.911638	0.079088	0.415703	0.178497	0	0
4.75896	-2.46188	-0.00905165	0.178551	0.54917	-0.965193	0.115948	-0.506076	0.0495506	-0.353571	0.486763	0.216698	0	0	-0.14255	-0.124711	-0.175424	0.565542	0.0683367	0	0	-1.36531	0.151395	0.0668061	1.13753	-0.643172	-0.0462831	0.363356	0.174618	0	0	1.01862	0.911658	0.0790943	0.415329	0.178477	0	0
4.76895	-2.46887	-0.0259484	0.177648	0.538182	-0.963637	0.116035	-0.506588	0.065376	-0.337002	0.494442	0.233613	0	0	-0.130787	-0.134361	-0.175316	0.511326	0.068478	0	0	-1.35924	0.161512	0.0824042	1.13644	-0.643397	-0.0463024	0.362987	0.174597	0	0	1.0175	0.911679	0.0791005	0.414954	0.178456	0	0
4.77894	-2.47573	-0.0428282	0.176358	0.527137	-0.961833	0.116174	-0.507138	0.0808735	-0.32022	0.502826	0.250732	0	0	-0.119276	-0.14411	-0.172795	0.459682	0.0690285	0	0	-1.35323	0.171735	0.0975698	1.13534	-0.643624	-0.0463218	0.362617	0.174575	0	0	1.01638	0.911701	0.0791067	0.414579	0.178436	0	0
4.78893	-2.48244	-0.0594067	0.174609	0.51604	-0.959763	0.116377	-0.507698	0.0957185	-0.30352	0.511999	0.267955	0	0	-0.107958	-0.153762	-0.168012	0.411378	0.0701433	0	0	-1.34725	0.181831	0.112119	1.13424	-0.643853	-0.0463412	0.362247	0.174554	0	0	1.01526	0.911725	0.0791129	0.414203	0.178416	0	0
4.79892	-2.48902	-0.0754142	0.172346	0.504895	-0.957409	0.116654	-0.508248	0.109598	-0.287178	0.522032	0.285164	0	0	-0.096818	-0.163123	-0.161273	0.367126	0.0718286	0	0	-1.34122	0.19156	0.125868	1.13314	-0.644083	-0.0463607	0.361875	0.174532	0	0	1.01413	0.91175	0.0791192	0.413827	0.178395	0	0
4.80891	-2.49541	-0.0906359	0.169602	0.493729	-0.954774	0.117012	-0.508771	0.122276	-0.271426	0.533046	0.302185	0	0	-0.0859989	-0.17204	-0.152968	0.327396	0.0739119	0	0	-1.33528	0.200736	0.13869	1.13203	-0.644316	-0.0463803	0.361503	0.17451	0	0	1.013	0.911777	0.0791257	0.41345	0.178375	0	0
4.8189	-2.50155	-0.1049	0.166418	0.482557	-0.951857	0.117457	-0.509252	0.13358	-0.25641	0.545138	0.318826	0	0	-0.0756541	-0.180391	-0.143628	0.292587	0.0760731	0	0	-1.32956	0.209212	0.150465	1.13092	-0.64455	-0.0464	0.361129	0.174489	0	0	1.01187	0.911806	0.0791323	0.413073	0.178354	0	0
4.82889	-2.50741	-0.118059	0.162833	0.471396	-0.948652	0.117995	-0.509684	0.143374	-0.24222	0.558372	0.334861	0	0	-0.0659439	-0.188067	-0.13391	0.263009	0.0778714	0	0	-1.3241	0.216853	0.161089	1.1298	-0.644785	-0.0464199	0.360755	0.174467	0	0	1.01073	0.911837	0.079139	0.412695	0.178334	0	0
4.83888	-2.51309	-0.130013	0.158921	0.459986	-0.945816	0.118448	-0.51009	0.15154	-0.228906	0.572793	0.350026	0	0	-0.0570683	-0.194981	-0.124527	0.23885	0.0787631	0	0	-1.31894	0.223461	0.170473	1.12868	-0.645019	-0.0464396	0.36038	0.174446	0	0	1.00959	0.911864	0.0791456	0.412316	0.178313	0	0
4.84887	-2.51862	-0.140604	0.154637	0.448358	-0.943324	0.118824	-0.510465	0.157903	-0.216533	0.588306	0.364033	0	0	-0.0490895	-0.200981	-0.116226	0.22024	0.0781493	0	0	-1.3139	0.228827	0.178522	1.12756	-0.645251	-0.0464591	0.360004	0.174424	0	0	1.00845	0.911889	0.0791519	0.411937	0.178293	0	0
4.85886	-2.52405	-0.149659	0.149897	0.436541	-0.941155	0.119134	-0.510808	0.162243	-0.205209	0.604802	0.376535	0	0	-0.0420856	-0.205884	-0.10965	0.20711	0.0753864	0	0	-1.30871	0.232701	0.185154	1.12644	-0.645481	-0.0464786	0.359628	0.174402	0	0	1.00731	0.911912	0.0791579	0.411557	0.178272	0	0
4.86885	-2.52932	-0.157019	0.144676	0.424561	-0.939295	0.119386	-0.511119	0.164358	-0.195085	0.622303	0.387104	0	0	-0.0362264	-0.209507	-0.105221	0.199135	0.0698396	0	0	-1.30338	0.23488	0.190341	1.12531	-0.645709	-0.0464979	0.359251	0.174381	0	0	1.00617	0.911932	0.0791638	0.411176	0.178252	0	0
4.87884	-2.53442	-0.162494	0.138939	0.412442	-0.937739	0.119592	-0.511401	0.164017	-0.186368	0.640759	0.395266	0	0	-0.0315904	-0.211639	-0.10318	0.195907	0.0609916	0	0	-1.2978	0.235133	0.194026	1.12418	-0.645935	-0.046517	0.358873	0.174359	0	0	1.00502	0.911949	0.0791695	0.410794	0.178231	0	0
4.88883	-2.53927	-0.165895	0.132701	0.400207	-0.936483	0.11976	-0.511654	0.161002	-0.179321	0.660204	0.400468	0	0	-0.0282663	-0.212073	-0.103572	0.1969	0.0485462	0	0	-1.29201	0.233263	0.196177	1.12305	-0.646159	-0.046536	0.358495	0.174338	0	0	1.00387	0.911964	0.0791749	0.410411	0.17821	0	0
4.89882	-2.54372	-0.167065	0.126026	0.38788	-0.935532	0.119897	-0.511884	0.155151	-0.174202	0.680731	0.402114	0	0	-0.0263356	-0.210629	-0.106264	0.20152	0.0325532	0	0	-1.28617	0.229135	0.196778	1.12191	-0.646382	-0.0465549	0.358117	0.174316	0	0	1.00272	0.911977	0.0791802	0.410028	0.17819	0	0
4.90881	-2.54767	-0.165879	0.118982	0.375484	-0.93489	0.120009	-0.512097	0.146336	-0.171243	0.702362	0.399586	0	0	-0.0257994	-0.20716	-0.111011	0.209191	0.0135359	0	0	-1.28038	0.222649	0.195803	1.12078	-0.646603	-0.0465737	0.357738	0.174294	0	0	1.00157	0.911988	0.0791852	0.409644	0.178169	0	0
4.9188	-2.55089	-0.162305	0.111715	0.36304	-0.934564	0.120096	-0.5123	0.134564	-0.170605	0.725251	0.392268	0	0	-0.0267683	-0.201616	-0.11742	0.219287	-0.00749258	0	0	-1.27495	0.213828	0.193303	1.11964	-0.646822	-0.0465923	0.357358	0.174273	0	0	1.00041	0.911996	0.0791901	0.40926	0.178148	0	0
4.92879	-2.55316	-0.156436	0.104395	0.350574	-0.934557	0.120154	-0.512503	0.119995	-0.172314	0.749519	0.379615	0	0	-0.0293701	-0.194067	-0.125001	0.231221	-0.0291923	0	0	-1.27026	0.202827	0.189365	1.1185	-0.647039	-0.0466109	0.356978	0.174251	0	0	0.999256	0.912002	0.0791948	0.408874	0.178128	0	0
4.93878	-2.55435	-0.148434	0.0971633	0.33811	-0.934871	0.120177	-0.512719	0.102861	-0.176266	0.775091	0.361185	0	0	-0.0336575	-0.184638	-0.133364	0.244541	-0.0501347	0	0	-1.26642	0.18986	0.184082	1.11736	-0.647255	-0.0466293	0.356597	0.17423	0	0	0.998099	0.912005	0.0791992	0.408489	0.178107	0	0
4.94877	-2.55426	-0.138587	0.0902032	0.325672	-0.935499	0.120152	-0.51296	0.0835442	-0.182228	0.801931	0.336702	0	0	-0.0398191	-0.173562	-0.142105	0.258657	-0.0690133	0	0	-1.26374	0.175298	0.177629	1.11621	-0.647469	-0.0466476	0.356216	0.174208	0	0	0.996939	0.912007	0.0792036	0.408102	0.178086	0	0
4.95876	-2.55276	-0.127252	0.0836692	0.313287	-0.936436	0.120066	-0.513243	0.0624971	-0.189823	0.829859	0.306123	0	0	-0.0480406	-0.16111	-0.150833	0.272981	-0.0847597	0	0	-1.26239	0.159606	0.170188	1.11506	-0.647681	-0.0466657	0.355834	0.174186	0	0	0.995777	0.912007	0.0792077	0.407715	0.178065	0	0
4.96875	-2.54975	-0.114788	0.0776455	0.300979	-0.937668	0.119899	-0.513581	0.0401482	-0.198567	0.858554	0.269696	0	0	-0.0584834	-0.147549	-0.159266	0.286987	-0.0966194	0	0	-1.26246	0.143246	0.161938	1.11392	-0.647892	-0.0466838	0.355452	0.174165	0	0	0.994614	0.912004	0.0792117	0.407327	0.178044	0	0
4.97874	-2.54513	-0.101583	0.0721622	0.288774	-0.939177	0.119635	-0.51399	0.016936	-0.207923	0.887714	0.228048	0	0	-0.0713803	-0.133175	-0.167216	0.300142	-0.104211	0	0	-1.26418	0.126692	0.153077	1.11277	-0.648102	-0.0467018	0.355069	0.174143	0	0	0.993449	0.912	0.0792155	0.406939	0.178024	0	0
4.98873	-2.53875	-0.0880429	0.067186	0.276695	-0.940941	0.119256	-0.514482	-0.00668767	-0.217294	0.917055	0.182252	0	0	-0.0869781	-0.11831	-0.174588	0.311961	-0.107526	0	0	-1.26781	0.110397	0.143798	1.11161	-0.64831	-0.0467196	0.354686	0.174122	0	0	0.992283	0.911994	0.0792191	0.40655	0.178003	0	0
4.99872	-2.5306	-0.0745084	0.0626073	0.264765	-0.942936	0.118749	-0.515059	-0.0303086	-0.22605	0.946158	0.133785	0	0	-0.105347	-0.103245	-0.181416	0.322187	-0.106854	0	0	-1.27344	0.0946825	0.134262	1.11046	-0.648516	-0.0467374	0.354303	0.1741	0	0	0.991115	0.911986	0.0792226	0.40616	0.177982	0	0
5.00871	-2.52065	-0.0613103	0.0583035	0.253001	-0.945133	0.118102	-0.515717	-0.0535031	-0.233618	0.974668	0.0845219	0	0	-0.126528	-0.0882764	-0.18775	0.330635	-0.102712	0	0	-1.28117	0.0798237	0.124625	1.1093	-0.648722	-0.046755	0.353919	0.174079	0	0	0.989945	0.911976	0.0792259	0.40577	0.177961	0	0
5.0187	-2.50889	-0.0487741	0.0541833	0.241416	-0.947502	0.117312	-0.516432	-0.0758222	-0.239576	1.0023	0.0366058	0	0	-0.150534	-0.0737261	-0.193595	0.337152	-0.0957431	0	0	-1.29119	0.0660807	0.115041	1.10814	-0.648925	-0.0467726	0.353534	0.174057	0	0	0.988774	0.911964	0.079229	0.40538	0.17794	0	0
5.02869	-2.49542	-0.0371234	0.0502036	0.23002	-0.950009	0.116379	-0.517162	-0.0968607	-0.243687	1.02866	-0.00778986	0	0	-0.177148	-0.059858	-0.198972	0.341822	-0.0866114	0	0	-1.30343	0.053625	0.105622	1.10698	-0.649128	-0.04679	0.35315	0.174036	0	0	0.987602	0.91195	0.079232	0.404989	0.177919	0	0
5.03868	-2.48044	-0.0265037	0.0463979	0.218814	-0.952617	0.115309	-0.517831	-0.116257	-0.245963	1.05338	-0.0467068	0	0	-0.206026	-0.0468896	-0.203836	0.344838	-0.0759489	0	0	-1.31772	0.0425987	0.0964324	1.10582	-0.649329	-0.0468074	0.352765	0.174014	0	0	0.986428	0.911935	0.0792349	0.404597	0.177898	0	0
5.04867	-2.46423	-0.0169757	0.0428831	0.207799	-0.955289	0.114112	-0.518329	-0.133712	-0.246615	1.07601	-0.0786824	0	0	-0.236675	-0.0349909	-0.208064	0.346507	-0.0643091	0	0	-1.33382	0.0331226	0.0874861	1.10466	-0.649529	-0.0468247	0.352379	0.173992	0	0	0.985253	0.911918	0.0792376	0.404205	0.177877	0	0
5.05866	-2.44716	-0.00851026	0.0398371	0.196965	-0.957986	0.112803	-0.518503	-0.149002	-0.245975	1.09609	-0.10297	0	0	-0.268448	-0.0242699	-0.211463	0.347259	-0.052137	0	0	-1.35138	0.0252811	0.0787428	1.10349	-0.649727	-0.0468418	0.351993	0.173971	0	0	0.984077	0.911899	0.0792402	0.403813	0.177856	0	0
5.06865	-2.42972	-0.000990718	0.0374603	0.186299	-0.960668	0.1114	-0.518152	-0.162003	-0.24444	1.11309	-0.119544	0	0	-0.300552	-0.0147626	-0.213812	0.347626	-0.0397517	0	0	-1.36986	0.0190968	0.0701203	1.10233	-0.649925	-0.0468589	0.351607	0.173949	0	0	0.982899	0.911879	0.0792427	0.40342	0.177835	0	0
5.07864	-2.41246	0.00577535	0.0359354	0.175786	-0.963294	0.109925	-0.517021	-0.172695	-0.242392	1.12649	-0.128916	0	0	-0.332086	-0.00642866	-0.214907	0.348208	-0.027351	0	0	-1.38859	0.0145101	0.061511	1.10116	-0.650121	-0.0468759	0.35122	0.173928	0	0	0.981721	0.911857	0.079245	0.403026	0.177814	0	0
5.08863	-2.39596	0.011986	0.0354096	0.165406	-0.965824	0.108402	-0.514805	-0.181135	-0.240203	1.13591	-0.131943	0	0	-0.362209	0.000797885	-0.21456	0.349504	-0.0150363	0	0	-1.40696	0.0114277	0.0528056	1.09999	-0.650316	-0.0468929	0.350833	0.173906	0	0	0.980541	0.911834	0.0792472	0.402632	0.177793	0	0
5.09862	-2.3808	0.0178743	0.035977	0.155138	-0.96822	0.106854	-0.51117	-0.187484	-0.238201	1.14101	-0.129657	0	0	-0.39006	0.00704319	-0.212663	0.351994	-0.00282748	0	0	-1.42422	0.00968667	0.0439049	1.09882	-0.65051	-0.0469097	0.350446	0.173885	0	0	0.97936	0.91181	0.0792492	0.402238	0.177771	0	0
5.10861	-2.36755	0.0236523	0.0376859	0.144959	-0.970448	0.105309	-0.505755	-0.191996	-0.23672	1.14164	-0.123168	0	0	-0.414904	0.0124543	-0.209167	0.356007	0.0093044	0	0	-1.43966	0.00910413	0.0347266	1.09765	-0.650703	-0.0469265	0.350059	0.173863	0	0	0.978178	0.911783	0.0792512	0.401844	0.17775	0	0
5.1186	-2.35671	0.0295025	0.0405256	0.134849	-0.972474	0.103791	-0.498219	-0.195021	-0.236105	1.13776	-0.113556	0	0	-0.436169	0.0171883	-0.204086	0.361721	0.0214161	0	0	-1.45259	0.00948394	0.0252078	1.09648	-0.650894	-0.0469431	0.349671	0.173842	0	0	0.976995	0.911756	0.079253	0.401449	0.177729	0	0
5.12859	-2.3486	0.0355507	0.0444384	0.124789	-0.974273	0.102323	-0.488294	-0.196947	-0.236706	1.12951	-0.101823	0	0	-0.453572	0.0213953	-0.197483	0.36906	0.0335731	0	0	-1.4626	0.010627	0.0152962	1.0953	-0.651085	-0.0469597	0.349283	0.17382	0	0	0.975811	0.911727	0.0792547	0.401053	0.177708	0	0
5.13858	-2.34336	0.0418767	0.0493072	0.11476	-0.975822	0.100929	-0.475852	-0.19818	-0.238838	1.1171	-0.0888536	0	0	-0.467177	0.0252279	-0.189461	0.377712	0.0458401	0	0	-1.46958	0.0123179	0.00494658	1.09413	-0.651275	-0.0469763	0.348895	0.173799	0	0	0.974626	0.911697	0.0792563	0.400658	0.177687	0	0
5.14857	-2.34091	0.0485553	0.0549758	0.104747	-0.977105	0.0996288	-0.46101	-0.199116	-0.242729	1.10073	-0.0753869	0	0	-0.477325	0.0288648	-0.180151	0.38727	0.0582709	0	0	-1.47366	0.0143221	-0.00588238	1.09295	-0.651463	-0.0469928	0.348506	0.173777	0	0	0.97344	0.911666	0.0792578	0.400262	0.177666	0	0
5.15856	-2.34101	0.0556789	0.0612574	0.0947349	-0.978112	0.0984387	-0.444108	-0.200114	-0.248464	1.08048	-0.0620307	0	0	-0.484511	0.032519	-0.16968	0.397341	0.0708991	0	0	-1.47512	0.0163776	-0.0172291	1.09177	-0.651651	-0.0470091	0.348117	0.173756	0	0	0.972253	0.911633	0.0792592	0.399865	0.177644	0	0
5.16855	-2.34332	0.0633534	0.0679331	0.0847119	-0.978836	0.097373	-0.425617	-0.201482	-0.255975	1.05635	-0.0492759	0	0	-0.48929	0.0364322	-0.158155	0.407577	0.0837302	0	0	-1.4744	0.0182017	-0.0291264	1.09059	-0.651838	-0.0470255	0.347728	0.173734	0	0	0.971065	0.911599	0.0792605	0.399469	0.177623	0	0
5.17854	-2.3475	0.0716848	0.0747594	0.074665	-0.979276	0.0964411	-0.406079	-0.203457	-0.265027	1.02823	-0.0375386	0	0	-0.492198	0.0408621	-0.145651	0.417686	0.0967382	0	0	-1.47208	0.0195013	-0.0415956	1.08941	-0.652024	-0.0470417	0.347339	0.173713	0	0	0.969876	0.911564	0.0792617	0.399071	0.177602	0	0
5.18853	-2.35322	0.0807613	0.0815206	0.0645817	-0.979439	0.095649	-0.386002	-0.206209	-0.275299	0.996057	-0.027142	0	0	-0.49374	0.0460348	-0.132237	0.427463	0.109908	0	0	-1.46864	0.0200195	-0.0546285	1.08823	-0.652209	-0.047058	0.346949	0.173691	0	0	0.968686	0.911528	0.0792628	0.398674	0.177581	0	0
5.19852	-2.36017	0.0906445	0.0880527	0.0544491	-0.979329	0.094998	-0.365826	-0.209837	-0.286423	0.959832	-0.0183364	0	0	-0.494343	0.0521285	-0.117966	0.43679	0.123238	0	0	-1.46443	0.0195596	-0.0681882	1.08705	-0.652393	-0.0470741	0.346559	0.17367	0	0	0.967496	0.911491	0.0792638	0.398276	0.177559	0	0
5.20851	-2.3681	0.10137	0.0942443	0.0442538	-0.978954	0.0944849	-0.345908	-0.214381	-0.298006	0.919652	-0.0113168	0	0	-0.494354	0.0592647	-0.102866	0.445611	0.136737	0	0	-1.4597	0.0179857	-0.0822134	1.08587	-0.652577	-0.0470902	0.346169	0.173648	0	0	0.966305	0.911453	0.0792647	0.397878	0.177538	0	0
5.2185	-2.37683	0.112951	0.10004	0.0339825	-0.978324	0.0941033	-0.326501	-0.219852	-0.309646	0.875724	-0.00622922	0	0	-0.494042	0.0675195	-0.0869441	0.453917	0.150424	0	0	-1.45461	0.0152183	-0.0966285	1.08469	-0.652759	-0.0471062	0.345779	0.173627	0	0	0.965113	0.911414	0.0792655	0.39748	0.177517	0	0
5.22849	-2.38625	0.125386	0.105438	0.0236218	-0.977447	0.0938435	-0.307744	-0.226251	-0.32096	0.828394	-0.00315208	0	0	-0.493607	0.0769283	-0.0701916	0.461722	0.164324	0	0	-1.44919	0.0112297	-0.11135	1.0835	-0.652941	-0.0471222	0.345388	0.173605	0	0	0.96392	0.911374	0.0792662	0.397082	0.177496	0	0
5.23848	-2.39628	0.13866	0.110486	0.0131594	-0.976333	0.0936928	-0.289666	-0.23359	-0.331602	0.778164	-0.00207675	0	0	-0.493185	0.0874893	-0.052584	0.46905	0.178468	0	0	-1.44337	0.0060386	-0.126296	1.08232	-0.653122	-0.0471381	0.344998	0.173584	0	0	0.962727	0.911332	0.0792669	0.396683	0.177474	0	0
5.24847	-2.40693	0.152745	0.115289	0.00258391	-0.974994	0.093637	-0.272204	-0.24189	-0.341279	0.725679	-0.00289161	0	0	-0.492863	0.0991607	-0.0340889	0.475942	0.192886	0	0	-1.43697	-0.000297727	-0.141389	1.08113	-0.653303	-0.047154	0.344607	0.173562	0	0	0.961533	0.91129	0.0792675	0.396284	0.177453	0	0
5.25846	-2.41815	0.167618	0.119913	-0.00811433	-0.97344	0.0936615	-0.255353	-0.251157	-0.349647	0.671452	-0.00539977	0	0	-0.492688	0.111921	-0.014649	0.482469	0.20755	0	0	-1.43019	-0.00772739	-0.15659	1.07994	-0.653482	-0.0471698	0.344216	0.173541	0	0	0.960338	0.911247	0.079268	0.395885	0.177432	0	0
5.26845	-2.42994	0.183256	0.124449	-0.0189426	-0.971687	0.0937512	-0.239076	-0.261411	-0.356399	0.616101	-0.00931097	0	0	-0.492678	0.125723	0.00578581	0.488737	0.222437	0	0	-1.42315	-0.0161895	-0.171852	1.07876	-0.653661	-0.0471855	0.343825	0.173519	0	0	0.959143	0.911203	0.0792684	0.395485	0.17741	0	0
5.27844	-2.44226	0.199601	0.129018	-0.0299062	-0.969747	0.0938911	-0.223317	-0.272653	-0.361296	0.560327	-0.0142665	0	0	-0.492833	0.140469	0.0272303	0.494877	0.237524	0	0	-1.41594	-0.0255886	-0.187125	1.07757	-0.653839	-0.0472012	0.343434	0.173498	0	0	0.957947	0.911159	0.0792687	0.395086	0.177389	0	0
5.28843	-2.45514	0.216538	0.133826	-0.0410073	-0.967639	0.0940671	-0.207927	-0.284864	-0.364276	0.505068	-0.0198552	0	0	-0.493138	0.155943	0.049599	0.500973	0.252844	0	0	-1.4084	-0.0357256	-0.202319	1.07638	-0.654017	-0.0472169	0.343042	0.173476	0	0	0.956751	0.911113	0.079269	0.394686	0.177367	0	0
5.29842	-2.46867	0.233875	0.139174	-0.0522463	-0.965383	0.0942662	-0.192685	-0.297973	-0.365477	0.451449	-0.0256524	0	0	-0.493571	0.171792	0.072675	0.507061	0.268486	0	0	-1.40006	-0.0462816	-0.217315	1.07519	-0.654194	-0.0472325	0.342651	0.173455	0	0	0.955554	0.911067	0.0792692	0.394286	0.177346	0	0
5.30841	-2.48286	0.251374	0.145363	-0.0636208	-0.963001	0.0944771	-0.17744	-0.311829	-0.365138	0.400577	-0.0312867	0	0	-0.494109	0.18759	0.0961567	0.513224	0.284516	0	0	-1.3905	-0.0568856	-0.231987	1.074	-0.654371	-0.0472481	0.342259	0.173433	0	0	0.954357	0.91102	0.0792694	0.393886	0.177325	0	0
5.3184	-2.49759	0.268782	0.152495	-0.0751255	-0.96052	0.0946899	-0.162273	-0.326203	-0.363485	0.353192	-0.0364697	0	0	-0.494727	0.202984	0.119722	0.519638	0.30089	0	0	-1.37998	-0.0672138	-0.246313	1.07281	-0.654546	-0.0472637	0.341867	0.173412	0	0	0.953159	0.910972	0.0792695	0.393486	0.177303	0	0
5.32839	-2.51268	0.285877	0.160555	-0.0867525	-0.95797	0.0948963	-0.14736	-0.340857	-0.360712	0.309885	-0.0410404	0	0	-0.495404	0.217706	0.143109	0.526547	0.317525	0	0	-1.36891	-0.0770368	-0.260261	1.07162	-0.654722	-0.0472792	0.341475	0.17339	0	0	0.951962	0.910924	0.0792695	0.393085	0.177282	0	0
5.33838	-2.52795	0.302446	0.169521	-0.0984921	-0.955383	0.095089	-0.132863	-0.355545	-0.357103	0.271235	-0.0449703	0	0	-0.496118	0.231498	0.166056	0.534155	0.334336	0	0	-1.3575	-0.0861352	-0.273753	1.07043	-0.654897	-0.0472946	0.341083	0.173369	0	0	0.950763	0.910875	0.0792695	0.392685	0.17726	0	0
5.34837	-2.54314	0.318283	0.179249	-0.110335	-0.952793	0.0952611	-0.119055	-0.36998	-0.352968	0.237619	-0.04837	0	0	-0.496855	0.244161	0.188346	0.542753	0.351141	0	0	-1.34623	-0.0943437	-0.286743	1.06923	-0.655071	-0.04731	0.340691	0.173347	0	0	0.949564	0.910825	0.0792694	0.392284	0.177239	0	0
5.35836	-2.55798	0.333209	0.189565	-0.122268	-0.950237	0.0954057	-0.106208	-0.383889	-0.348626	0.209321	-0.0514701	0	0	-0.497601	0.255539	0.209791	0.552609	0.367732	0	0	-1.33545	-0.101531	-0.299164	1.06804	-0.655245	-0.0473254	0.340299	0.173326	0	0	0.948365	0.910775	0.0792693	0.391883	0.177218	0	0
5.36835	-2.57219	0.347061	0.200265	-0.134282	-0.947753	0.0955153	-0.0945938	-0.396996	-0.344388	0.186507	-0.054604	0	0	-0.498345	0.265505	0.23021	0.563986	0.383858	0	0	-1.32549	-0.107579	-0.310932	1.06685	-0.655418	-0.0473408	0.339906	0.173304	0	0	0.947166	0.910724	0.0792691	0.391482	0.177196	0	0
5.37834	-2.58557	0.359658	0.211195	-0.146367	-0.945377	0.0955822	-0.0843966	-0.409026	-0.340631	0.169307	-0.0581716	0	0	-0.499082	0.273866	0.249326	0.577022	0.399283	0	0	-1.31643	-0.112323	-0.32192	1.06565	-0.655591	-0.0473561	0.339514	0.173283	0	0	0.945966	0.910672	0.0792689	0.391081	0.177175	0	0
5.38833	-2.59795	0.370776	0.222265	-0.158514	-0.943147	0.0955979	-0.0757079	-0.419685	-0.337827	0.157802	-0.0625994	0	0	-0.499806	0.280343	0.266701	0.591695	0.413772	0	0	-1.30814	-0.115517	-0.331967	1.06446	-0.655763	-0.0473714	0.339121	0.173261	0	0	0.944765	0.910621	0.0792686	0.390679	0.177153	0	0
5.39832	-2.60914	0.380162	0.233357	-0.170714	-0.9411	0.0955544	-0.0686178	-0.428654	-0.336394	0.151926	-0.0683027	0	0	-0.500515	0.284628	0.281814	0.608005	0.427027	0	0	-1.30046	-0.116886	-0.340907	1.06327	-0.655936	-0.0473867	0.338729	0.17324	0	0	0.943565	0.910568	0.0792683	0.390278	0.177132	0	0
5.40831	-2.6189	0.387572	0.244309	-0.18296	-0.939269	0.0954446	-0.06321	-0.435618	-0.336616	0.151438	-0.0756377	0	0	-0.50121	0.286435	0.294147	0.625963	0.438674	0	0	-1.2933	-0.116198	-0.348566	1.06207	-0.656107	-0.0474019	0.338336	0.173218	0	0	0.942364	0.910515	0.0792679	0.389876	0.17711	0	0
5.4183	-2.62699	0.392787	0.254911	-0.195242	-0.937685	0.0952638	-0.0595679	-0.440282	-0.338602	0.155916	-0.0848338	0	0	-0.501892	0.285528	0.303236	0.645602	0.448255	0	0	-1.28664	-0.113264	-0.354754	1.06088	-0.656279	-0.0474171	0.337943	0.173197	0	0	0.941163	0.910462	0.0792676	0.389474	0.177089	0	0
5.42829	-2.63312	0.395621	0.264903	-0.207553	-0.936376	0.0950095	-0.0577807	-0.442384	-0.342266	0.16477	-0.0959	0	0	-0.502566	0.281751	0.308713	0.666993	0.455227	0	0	-1.28056	-0.107971	-0.359278	1.05968	-0.656449	-0.0474323	0.33755	0.173175	0	0	0.939961	0.910408	0.0792671	0.389073	0.177067	0	0
5.43828	-2.637	0.395963	0.27397	-0.219884	-0.935366	0.0946831	-0.0579788	-0.44172	-0.347307	0.177243	-0.108513	0	0	-0.503238	0.27508	0.310379	0.690286	0.458958	0	0	-1.27532	-0.100313	-0.36197	1.05849	-0.65662	-0.0474475	0.337157	0.173154	0	0	0.93876	0.910353	0.0792666	0.388671	0.177046	0	0
5.44827	-2.6383	0.393815	0.281728	-0.232226	-0.934672	0.0942897	-0.0603677	-0.438166	-0.353168	0.19242	-0.121955	0	0	-0.503915	0.265685	0.308281	0.715743	0.458744	0	0	-1.27146	-0.0904386	-0.362708	1.05729	-0.65679	-0.0474626	0.336765	0.173132	0	0	0.937558	0.910299	0.0792661	0.388269	0.177024	0	0
5.45826	-2.63688	0.389192	0.287937	-0.244569	-0.934306	0.093838	-0.0649874	-0.431667	-0.35949	0.209553	-0.13517	0	0	-0.504611	0.253681	0.302438	0.743354	0.453955	0	0	-1.26918	-0.078504	-0.361375	1.05609	-0.65696	-0.0474777	0.336371	0.173111	0	0	0.936356	0.910244	0.0792656	0.387867	0.177003	0	0
5.46825	-2.63272	0.382131	0.292482	-0.256903	-0.934272	0.0933413	-0.0718087	-0.422211	-0.366109	0.228017	-0.147044	0	0	-0.505336	0.239126	0.292812	0.772929	0.444046	0	0	-1.26849	-0.0646598	-0.35792	1.0549	-0.65713	-0.0474928	0.335978	0.173089	0	0	0.935154	0.910188	0.079265	0.387465	0.176981	0	0
5.47824	-2.62587	0.372747	0.295335	-0.269218	-0.934571	0.0928166	-0.0808192	-0.409853	-0.372924	0.247147	-0.156649	0	0	-0.506107	0.22212	0.279443	0.80419	0.428581	0	0	-1.26933	-0.049123	-0.352383	1.0537	-0.657299	-0.0475079	0.335585	0.173068	0	0	0.933951	0.910132	0.0792644	0.387063	0.17696	0	0
5.48823	-2.61651	0.361235	0.296543	-0.281502	-0.935197	0.0922838	-0.0920268	-0.394718	-0.379862	0.266234	-0.163341	0	0	-0.506939	0.202823	0.262502	0.836774	0.40729	0	0	-1.27156	-0.0321932	-0.344869	1.0525	-0.657468	-0.0475229	0.335192	0.173046	0	0	0.932749	0.910076	0.0792638	0.386661	0.176938	0	0
5.49822	-2.60475	0.347934	0.296144	-0.293742	-0.936138	0.0917658	-0.105597	-0.377027	-0.386758	0.284438	-0.166792	0	0	-0.50785	0.181573	0.242397	0.870404	0.380102	0	0	-1.27532	-0.0142996	-0.335586	1.05131	-0.657637	-0.0475379	0.334799	0.173025	0	0	0.931546	0.91002	0.0792631	0.386258	0.176917	0	0
5.50821	-2.59085	0.333188	0.294287	-0.305922	-0.937378	0.0912864	-0.121556	-0.357074	-0.393624	0.30114	-0.166921	0	0	-0.508852	0.15869	0.219673	0.904611	0.347267	0	0	-1.28057	0.00414892	-0.324739	1.05011	-0.657806	-0.0475529	0.334406	0.173003	0	0	0.930344	0.909963	0.0792625	0.385856	0.176895	0	0
5.5182	-2.5751	0.317335	0.291215	-0.318027	-0.938896	0.0908696	-0.139866	-0.335206	-0.400591	0.315921	-0.163863	0	0	-0.509956	0.134482	0.194983	0.938826	0.309398	0	0	-1.2872	0.0228072	-0.312545	1.04891	-0.657974	-0.0475679	0.334013	0.172982	0	0	0.929141	0.909906	0.0792618	0.385454	0.176874	0	0
5.52819	-2.55776	0.300786	0.2872	-0.330038	-0.94067	0.0905371	-0.160529	-0.31182	-0.407726	0.328452	-0.157942	0	0	-0.511162	0.109344	0.16912	0.972561	0.267522	0	0	-1.29528	0.0413294	-0.299265	1.04772	-0.658142	-0.0475829	0.33362	0.17296	0	0	0.927939	0.909849	0.079261	0.385052	0.176852	0	0
5.53818	-2.53906	0.284015	0.282514	-0.34194	-0.942671	0.0903081	-0.183537	-0.287399	-0.414985	0.338512	-0.149607	0	0	-0.512457	0.0837946	0.143001	1.0054	0.223089	0	0	-1.30502	0.0593517	-0.285181	1.04652	-0.65831	-0.0475979	0.333226	0.172939	0	0	0.926736	0.909792	0.0792603	0.384649	0.176831	0	0
5.54817	-2.51931	0.26748	0.277428	-0.353716	-0.944874	0.090196	-0.208723	-0.262493	-0.422338	0.346124	-0.13936	0	0	-0.51381	0.0584168	0.117563	1.03689	0.17789	0	0	-1.31645	0.076556	-0.270572	1.04532	-0.658478	-0.0476128	0.332833	0.172917	0	0	0.925533	0.909734	0.0792595	0.384247	0.176809	0	0
5.55816	-2.49877	0.251641	0.272143	-0.365356	-0.947246	0.0902104	-0.235888	-0.237683	-0.429706	0.351406	-0.127715	0	0	-0.515161	0.0338793	0.0936692	1.0667	0.133882	0	0	-1.32971	0.0926202	-0.255727	1.04412	-0.658645	-0.0476278	0.33244	0.172896	0	0	0.92433	0.909676	0.0792587	0.383845	0.176788	0	0
5.56815	-2.47777	0.236855	0.266788	-0.376849	-0.949757	0.0903543	-0.264653	-0.213529	-0.437031	0.354682	-0.115154	0	0	-0.516416	0.0108255	0.072008	1.09446	0.0929815	0	0	-1.34467	0.107288	-0.240903	1.04293	-0.658813	-0.0476427	0.332047	0.172874	0	0	0.923127	0.909618	0.079258	0.383442	0.176766	0	0
5.57814	-2.45667	0.22332	0.261417	-0.388194	-0.952373	0.0906242	-0.294461	-0.190505	-0.444277	0.356456	-0.102095	0	0	-0.517442	-0.0102103	0.0530112	1.11974	0.0568297	0	0	-1.36102	0.120398	-0.226304	1.04173	-0.65898	-0.0476576	0.331653	0.172853	0	0	0.921924	0.90956	0.0792571	0.38304	0.176745	0	0
5.58813	-2.43585	0.211116	0.256007	-0.399392	-0.955059	0.0910106	-0.324679	-0.168993	-0.451358	0.357253	-0.0888835	0	0	-0.518051	-0.0287992	0.0368397	1.14213	0.0265693	0	0	-1.37836	0.131833	-0.212075	1.04053	-0.659147	-0.0476725	0.33126	0.172831	0	0	0.920721	0.909502	0.0792563	0.382637	0.176723	0	0
5.59812	-2.41573	0.200203	0.250481	-0.410451	-0.957778	0.0914998	-0.354593	-0.149279	-0.458131	0.357611	-0.0757793	0	0	-0.518006	-0.0446646	0.0234069	1.16119	0.00271555	0	0	-1.3962	0.141513	-0.198298	1.03933	-0.659314	-0.0476874	0.330867	0.17281	0	0	0.919518	0.909443	0.0792555	0.382235	0.176701	0	0
5.60811	-2.39678	0.190414	0.244754	-0.421382	-0.960493	0.0920737	-0.383417	-0.131524	-0.464428	0.35808	-0.0629476	0	0	-0.517014	-0.0577144	0.0124287	1.17646	-0.0147775	0	0	-1.4139	0.149425	-0.184983	1.03813	-0.659481	-0.0477023	0.330474	0.172788	0	0	0.918314	0.909384	0.0792546	0.381832	0.17668	0	0
5.6181	-2.37942	0.181556	0.238732	-0.432199	-0.963166	0.0927108	-0.410424	-0.115809	-0.470047	0.359086	-0.05047	0	0	-0.514733	-0.0679772	0.00347546	1.1876	-0.0263751	0	0	-1.43097	0.155565	-0.172098	1.03694	-0.659648	-0.0477172	0.33008	0.172767	0	0	0.917111	0.909326	0.0792538	0.38143	0.176658	0	0
5.62809	-2.36412	0.173382	0.232377	-0.44292	-0.965761	0.0933868	-0.434887	-0.102125	-0.47479	0.361014	-0.0383503	0	0	-0.510798	-0.0756327	-0.00396576	1.19433	-0.0327187	0	0	-1.44676	0.160001	-0.159581	1.03574	-0.659815	-0.0477321	0.329687	0.172745	0	0	0.915908	0.909267	0.0792529	0.381027	0.176637	0	0
5.63808	-2.35128	0.16566	0.225711	-0.453563	-0.968239	0.0940752	-0.456199	-0.0903952	-0.478483	0.364121	-0.0265411	0	0	-0.504825	-0.0809591	-0.0104364	1.19649	-0.0345686	0	0	-1.46068	0.162835	-0.147365	1.03454	-0.659981	-0.0477469	0.329294	0.172724	0	0	0.914705	0.909208	0.079252	0.380624	0.176615	0	0
5.64807	-2.34127	0.158215	0.218829	-0.464146	-0.970568	0.0947494	-0.473943	-0.0804887	-0.480983	0.36849	-0.0149636	0	0	-0.496471	-0.0843064	-0.0164553	1.19405	-0.0327225	0	0	-1.47216	0.164211	-0.13539	1.03334	-0.660148	-0.0477618	0.3289	0.172702	0	0	0.913501	0.909149	0.0792511	0.380222	0.176594	0	0
5.65806	-2.33427	0.150944	0.211898	-0.474685	-0.972716	0.0953822	-0.488006	-0.0722035	-0.482186	0.373997	-0.0035215	0	0	-0.485497	-0.0860766	-0.0224862	1.18714	-0.0279471	0	0	-1.48074	0.164324	-0.123612	1.03214	-0.660314	-0.0477766	0.328507	0.172681	0	0	0.912298	0.90909	0.0792503	0.379819	0.176572	0	0
5.66805	-2.33027	0.143801	0.205098	-0.485196	-0.974655	0.0959478	-0.498608	-0.0652698	-0.482043	0.380309	0.00788571	0	0	-0.47185	-0.0866789	-0.0288762	1.17592	-0.0209763	0	0	-1.48627	0.163418	-0.111988	1.03095	-0.66048	-0.0477915	0.328114	0.172659	0	0	0.911095	0.90903	0.0792494	0.379417	0.176551	0	0
5.67804	-2.32906	0.13672	0.198562	-0.495692	-0.976364	0.0964214	-0.506167	-0.0593712	-0.480567	0.387094	0.0193492	0	0	-0.455787	-0.0865114	-0.0358654	1.1605	-0.0124565	0	0	-1.48883	0.161778	-0.100471	1.02975	-0.660647	-0.0478063	0.32772	0.172638	0	0	0.909892	0.908971	0.0792484	0.379014	0.176529	0	0
5.68803	-2.33027	0.12959	0.192382	-0.506183	-0.977821	0.0967808	-0.51119	-0.0541406	-0.477803	0.394044	0.0309453	0	0	-0.437772	-0.085956	-0.0435579	1.14087	-0.00297967	0	0	-1.48875	0.159725	-0.0889929	1.02855	-0.660813	-0.0478212	0.327327	0.172616	0	0	0.908689	0.908912	0.0792475	0.378612	0.176507	0	0
5.69802	-2.33348	0.122249	0.18663	-0.51668	-0.979016	0.0970059	-0.514207	-0.0491779	-0.473806	0.400881	0.0427322	0	0	-0.418395	-0.0853598	-0.0519017	1.11691	0.00689611	0	0	-1.4866	0.157609	-0.0774629	1.02735	-0.660979	-0.047836	0.326934	0.172595	0	0	0.907486	0.908852	0.0792466	0.378209	0.176486	0	0
5.70801	-2.33825	0.114524	0.181362	-0.527192	-0.979939	0.0970802	-0.515719	-0.0441004	-0.468624	0.407426	0.0547618	0	0	-0.398259	-0.0850506	-0.0608054	1.08856	0.0167179	0	0	-1.48285	0.15577	-0.0657824	1.02615	-0.661145	-0.0478508	0.326541	0.172573	0	0	0.906283	0.908793	0.0792457	0.377807	0.176464	0	0
5.718	-2.34418	0.10624	0.176619	-0.537727	-0.980587	0.0969916	-0.516164	-0.0385698	-0.462293	0.413584	0.0670782	0	0	-0.377918	-0.0853081	-0.0701365	1.05585	0.0261273	0	0	-1.4779	0.154522	-0.0538582	1.02496	-0.661311	-0.0478657	0.326148	0.172552	0	0	0.90508	0.908733	0.0792448	0.377404	0.176443	0	0
5.72799	-2.35092	0.0972425	0.172427	-0.548294	-0.980961	0.0967311	-0.515906	-0.0323029	-0.454837	0.419337	0.0797162	0	0	-0.357856	-0.0863494	-0.0797211	1.01887	0.0348321	0	0	-1.47208	0.154133	-0.0416109	1.02376	-0.661477	-0.0478805	0.325754	0.17253	0	0	0.903877	0.908674	0.0792439	0.377002	0.176421	0	0
5.73798	-2.35815	0.0874035	0.168784	-0.558901	-0.981064	0.0962928	-0.515234	-0.0250852	-0.446269	0.424738	0.092699	0	0	-0.33848	-0.0883197	-0.0893467	0.977751	0.0425879	0	0	-1.46569	0.154814	-0.028985	1.02256	-0.661643	-0.0478953	0.325361	0.172509	0	0	0.902674	0.908614	0.0792429	0.3766	0.1764	0	0
5.74797	-2.36565	0.0766541	0.165664	-0.569556	-0.980904	0.0956761	-0.514366	-0.0168	-0.4366	0.429852	0.106068	0	0	-0.320021	-0.0912994	-0.0988805	0.932852	0.0492574	0	0	-1.45882	0.156681	-0.0159609	1.02136	-0.661809	-0.0479101	0.324968	0.172487	0	0	0.901472	0.908555	0.079242	0.376197	0.176378	0	0
5.75796	-2.37326	0.0649628	0.16302	-0.580266	-0.980493	0.0948837	-0.513455	-0.00739963	-0.42584	0.43477	0.119848	0	0	-0.302623	-0.0953007	-0.108169	0.884589	0.054744	0	0	-1.45156	0.159785	-0.0025469	1.02017	-0.661975	-0.047925	0.324575	0.172466	0	0	0.900269	0.908495	0.0792411	0.375795	0.176356	0	0
5.76795	-2.38086	0.0523253	0.160793	-0.591037	-0.979846	0.093923	-0.512603	0.00311569	-0.414003	0.439604	0.134046	0	0	-0.28635	-0.100289	-0.117031	0.833424	0.0589832	0	0	-1.44398	0.164132	0.0112273	1.01897	-0.662141	-0.0479398	0.324182	0.172444	0	0	0.899066	0.908436	0.0792402	0.375392	0.176335	0	0
5.77794	-2.38836	0.0387566	0.158925	-0.60187	-0.978981	0.0928045	-0.511868	0.0147139	-0.401113	0.44447	0.148649	0	0	-0.27121	-0.106201	-0.125256	0.779834	0.0619457	0	0	-1.4362	0.169697	0.025318	1.01777	-0.662307	-0.0479546	0.323789	0.172423	0	0	0.897863	0.908376	0.0792392	0.37499	0.176313	0	0
5.78793	-2.39569	0.0242839	0.157361	-0.612767	-0.977919	0.0915426	-0.511279	0.0273458	-0.387213	0.449491	0.163615	0	0	-0.257183	-0.112953	-0.132602	0.724269	0.0636389	0	0	-1.42842	0.176439	0.0396764	1.01657	-0.662473	-0.0479694	0.323395	0.172401	0	0	0.896661	0.908317	0.0792383	0.374587	0.176292	0	0
5.79792	-2.40282	0.00897734	0.156046	-0.623726	-0.976684	0.0901537	-0.51084	0.0409132	-0.372375	0.454733	0.178911	0	0	-0.244126	-0.120449	-0.138933	0.667288	0.0641697	0	0	-1.42069	0.184268	0.0542381	1.01538	-0.662639	-0.0479842	0.323002	0.17238	0	0	0.895458	0.908257	0.0792374	0.374185	0.17627	0	0
5.80791	-2.40978	-0.00704527	0.154915	-0.634741	-0.9753	0.0886566	-0.510539	0.0552621	-0.356714	0.460211	0.19451	0	0	-0.231804	-0.128568	-0.144239	0.609505	0.0637414	0	0	-1.41298	0.193035	0.068928	1.01418	-0.662805	-0.0479991	0.322609	0.172358	0	0	0.894255	0.908198	0.0792365	0.373783	0.176248	0	0
5.8179	-2.41657	-0.0236625	0.153922	-0.645806	-0.973793	0.0870708	-0.510355	0.0702444	-0.340367	0.465961	0.210347	0	0	-0.220072	-0.137185	-0.148481	0.551321	0.0625708	0	0	-1.40541	0.202591	0.0836924	1.01298	-0.662971	-0.0480139	0.322216	0.172337	0	0	0.893052	0.908138	0.0792355	0.37338	0.176227	0	0
5.82789	-2.4232	-0.0407399	0.153033	-0.656912	-0.972192	0.0854161	-0.510265	0.0857068	-0.32349	0.47198	0.226365	0	0	-0.208763	-0.146177	-0.151703	0.493073	0.0608986	0	0	-1.39804	0.212778	0.0984815	1.01178	-0.663137	-0.0480287	0.321823	0.172315	0	0	0.891849	0.908079	0.0792346	0.372978	0.176205	0	0
5.83788	-2.42972	-0.0581347	0.152216	-0.668048	-0.970522	0.0837119	-0.510241	0.101493	-0.306243	0.478228	0.242509	0	0	-0.197715	-0.15542	-0.154037	0.435004	0.0589489	0	0	-1.39085	0.223425	0.113254	1.01058	-0.663303	-0.0480435	0.32143	0.172294	0	0	0.890647	0.908019	0.0792337	0.372575	0.176184	0	0
5.84787	-2.43616	-0.0757174	0.151444	-0.679205	-0.968807	0.0819754	-0.510261	0.117466	-0.288775	0.48465	0.258727	0	0	-0.186807	-0.164805	-0.155668	0.377208	0.0568826	0	0	-1.38382	0.234369	0.12799	1.00939	-0.663469	-0.0480584	0.321036	0.172272	0	0	0.889444	0.90796	0.0792328	0.372173	0.176162	0	0
5.85785	-2.44256	-0.0933872	0.1507	-0.690374	-0.967068	0.0802218	-0.510303	0.133524	-0.271204	0.491178	0.274978	0	0	-0.175955	-0.174251	-0.156835	0.319657	0.0547892	0	0	-1.37691	0.245471	0.142688	1.00819	-0.663635	-0.0480732	0.320643	0.172251	0	0	0.888241	0.9079	0.0792318	0.37177	0.176141	0	0
5.86784	-2.44894	-0.11108	0.149965	-0.701546	-0.96532	0.0784621	-0.510353	0.149603	-0.253606	0.497744	0.291238	0	0	-0.165112	-0.183712	-0.157802	0.262236	0.0526988	0	0	-1.37003	0.256628	0.157364	1.00699	-0.663801	-0.048088	0.32025	0.172229	0	0	0.887038	0.907841	0.0792309	0.371368	0.176119	0	0
