Coordinates
version=1
nRows=212
nColumns=38
inDegrees=no

Units are S.I. units (second, meters, Newtons, ...)
If the header above contains a line with 'inDegrees', this indicates whether rotational values are in degrees (yes) or radians (no).

endheader
time	pelvis_tilt_moment	pelvis_list_moment	pelvis_rotation_moment	pelvis_tx_force	pelvis_ty_force	pelvis_tz_force	hip_flexion_r_moment	hip_adduction_r_moment	hip_rotation_r_moment	knee_angle_r_moment	ankle_angle_r_moment	subtalar_angle_r_moment	mtp_angle_r_moment	hip_flexion_l_moment	hip_adduction_l_moment	hip_rotation_l_moment	knee_angle_l_moment	ankle_angle_l_moment	subtalar_angle_l_moment	mtp_angle_l_moment	lumbar_extension_moment	lumbar_bending_moment	lumbar_rotation_moment	arm_flex_r_moment	arm_add_r_moment	arm_rot_r_moment	elbow_flex_r_moment	pro_sup_r_moment	wrist_flex_r_moment	wrist_dev_r_moment	arm_flex_l_moment	arm_add_l_moment	arm_rot_l_moment	elbow_flex_l_moment	pro_sup_l_moment	wrist_flex_l_moment	wrist_dev_l_moment
2.8	0	0	0	0	0	0	0	0	0	0	0	0	0	0	0	0	0	0	0	0	0	0	0	0	0	0	0	0	0	0	0	0	0	0	0	0	0
2.80999	99.8925	30.1902	-29.812	-32.464	497.685	64.3532	34.572	-8.3031	-0.426148	-14.0831	-0.643672	0.040969	0.025745	14.8407	-2.7847	0.268595	-6.28105	-0.68628	0.0705835	0.0204364	9.14012	37.8268	-0.884194	-3.62384	0.695196	0.0133776	-1.36115	-0.0200245	-0.10175	0.0246117	-2.25559	-0.504838	0.273362	-1.07163	0.0217863	-0.0487879	0.0751359
2.81997	105.223	27.3551	-23.7895	-36.5741	474.307	49.901	35.5094	-7.29588	-0.30134	-14.6127	-0.699653	0.00603064	0.0291734	13.8253	-3.23555	0.219442	-5.74187	-0.797725	0.210817	0.0242424	15.7342	29.0517	3.33095	-1.78895	1.13813	0.0982985	-0.460086	-0.00580653	-0.00429206	-0.00508825	-1.35106	-0.612747	0.113343	-0.478957	0.0213386	0.00751225	0.0221703
2.82996	108.755	30.3945	-11.5595	-38.2743	431.656	13.8008	33.8826	-2.78496	-0.771807	-14.2748	-0.812561	0.0207091	0.0323057	13.6181	-5.86712	0.155332	-5.56452	-0.928609	0.396257	0.0261415	26.4344	12.679	12.2993	1.36239	2.32978	0.388582	1.11046	0.0262125	0.172523	-0.035917	-0.05856	-1.20166	-0.28594	0.441849	0.0130547	0.0877891	-0.0822058
2.83994	98.1146	41.8053	10.5604	-31.4523	371.432	-57.4199	25.5799	7.46812	-2.41185	-11.9104	-1.0312	0.141477	0.0341821	10.5063	-11.8708	0.0872661	-4.50175	-1.18734	0.572114	0.0246413	39.277	-15.5044	27.4575	6.08072	4.66015	1.00846	3.47162	0.0841446	0.445712	-0.0550202	1.51364	-2.70328	-1.06529	1.65139	-0.0113423	0.180663	-0.255545
2.84993	70.8042	48.1256	26.0319	-54.3565	337.155	-99.9086	18.9705	14.7854	-4.13492	-9.73679	-1.2628	0.27917	0.038378	7.12961	-15.0058	-0.000589858	-3.0484	-1.81101	0.840385	0.0221594	30.4548	-35.0588	34.87	8.17051	6.16318	1.46003	4.35947	0.118872	0.552172	-0.029558	1.7927	-4.24895	-1.65252	1.81026	-0.0423134	0.166815	-0.346056
2.85991	40.6772	50.8337	32.3808	-69.1255	309.656	-114.362	12.6236	19.5201	-5.51548	-7.47529	-1.49999	0.426679	0.0435173	3.24235	-15.8662	-0.0710026	-0.936815	-2.80714	1.13899	0.0180077	15.4757	-44.0256	34.6226	8.32355	6.30517	1.55268	4.22178	0.125245	0.534318	-0.00688027	1.40928	-4.98082	-1.85368	1.43542	-0.0618186	0.113451	-0.353886
2.8699	15.3596	55.2906	31.1464	-86.6334	291.503	-110.409	9.86118	22.6589	-6.66614	-5.96838	-1.69124	0.580914	0.0487188	1.96956	-16.1943	0.0193145	0.70928	-4.07927	1.38873	0.012748	-6.00914	-44.3209	31.0406	6.81721	6.11427	1.57818	3.2963	0.118451	0.432843	0.0418631	0.355075	-5.47136	-1.88474	0.601149	-0.077764	0.0183547	-0.315019
2.87988	-2.7175	58.4515	23.2397	-89.8413	272.302	-88.8726	9.43407	23.6856	-7.1726	-5.20517	-1.78587	0.691852	0.0518902	1.5766	-15.0647	0.0469658	2.58681	-5.51968	1.53816	0.00657374	-26.9281	-36.4689	24.3266	4.28753	5.33	1.43771	1.90878	0.0973343	0.277829	0.0879299	-0.9212	-5.36474	-1.68205	-0.383166	-0.0828763	-0.0815673	-0.236089
2.88987	-4.53272	59.7504	11.2835	-76.4721	240.489	-67.6858	11.0773	23.1534	-7.16194	-5.4942	-1.79959	0.746691	0.05342	5.086	-14.1849	0.0827803	3.54752	-6.94185	1.53167	0.00171065	-38.9284	-25.7824	16.8315	1.86684	4.19754	1.17152	0.660158	0.0709197	0.1342	0.109273	-1.93575	-4.76089	-1.34129	-1.12674	-0.0767205	-0.147286	-0.14988
2.89985	5.2591	57.8452	-1.2095	-57.1831	205.544	-45.5488	15.8122	21.7695	-6.9797	-6.52307	-1.71951	0.759709	0.0534573	10.2876	-11.9126	-0.139041	4.39168	-8.18407	1.37417	-0.00199227	-45.0552	-14.5492	10.32	-0.367897	3.22312	0.930285	-0.406635	0.0469609	0.0132531	0.124398	-2.82875	-4.12084	-1.004	-1.70433	-0.0671129	-0.193303	-0.0729329
2.90984	21.473	52.938	-13.328	-40.1223	171.761	-20.9221	22.9452	19.4385	-6.47539	-8.30937	-1.50284	0.715447	0.0500186	17.5638	-8.13622	-0.557356	4.75808	-9.05852	1.08723	-0.00483681	-49.5837	-3.34826	4.62463	-2.55437	2.45261	0.738546	-1.40464	0.0256326	-0.0971611	0.142356	-3.70218	-3.57604	-0.699913	-2.23221	-0.0576991	-0.234766	-0.00329723
2.91982	36.6007	47.1537	-23.6585	-28.3556	143.069	4.15385	30.6279	16.8082	-5.80328	-10.2805	-1.16743	0.634817	0.0425509	25.0657	-3.53175	-1.09459	5.0835	-9.48199	0.68313	-0.00600191	-55.5647	6.96038	-0.0110844	-4.72602	1.98835	0.633934	-2.38218	0.00831762	-0.201408	0.170961	-4.60811	-3.26217	-0.469062	-2.77977	-0.0517912	-0.282051	0.0569763
2.92981	52.2938	39.4372	-31.0782	-15.2299	113.191	24.2132	37.5784	14.1203	-5.0562	-12.3153	-0.734351	0.526558	0.031099	32.5383	1.71716	-1.76436	5.41839	-9.40607	0.193972	-0.00528966	-58.4763	14.5786	-3.46698	-6.39511	1.68667	0.562582	-3.09888	-0.00435493	-0.277017	0.192056	-5.30633	-3.05412	-0.298002	-3.16869	-0.0467493	-0.314559	0.101152
2.93979	66.1769	30.5157	-34.958	-1.82118	83.3391	38.1475	43.0603	11.5752	-4.32916	-14.2349	-0.222873	0.398355	0.0160563	39.3273	7.38014	-2.56708	5.90678	-8.83668	-0.348943	-0.00296125	-59.1372	19.037	-5.54836	-7.53623	1.60284	0.542638	-3.55085	-0.0114182	-0.323035	0.208151	-5.80417	-3.00818	-0.205791	-3.41234	-0.0438079	-0.334892	0.127226
2.94978	77.7212	22.0741	-35.605	13.1503	51.8474	43.7714	46.5186	9.64489	-3.75741	-15.9493	0.334426	0.265599	-0.00166961	44.9637	12.6338	-3.43406	6.61452	-7.81077	-0.933716	0.000557723	-57.1087	20.3669	-6.20752	-8.07777	1.70784	0.56586	-3.70824	-0.0128958	-0.336748	0.216987	-6.05647	-3.08405	-0.186961	-3.48467	-0.0424445	-0.340164	0.134561
2.95976	89.3655	14.0795	-33.9629	30.2863	18.0944	42.6164	48.3648	8.38232	-3.39339	-17.6674	0.910632	0.131189	-0.0205878	49.8802	17.3746	-4.30323	7.34358	-6.38012	-1.53459	0.00460472	-51.2212	19.0658	-5.91214	-7.96363	1.82962	0.580422	-3.5525	-0.0108336	-0.318435	0.210614	-6.01098	-3.14132	-0.20076	-3.35299	-0.0403637	-0.32453	0.127099
2.96975	98.0407	7.03145	-30.387	52.2532	-17.3263	36.707	47.724	7.64609	-3.18794	-19.1639	1.43008	0.00333557	-0.0381144	52.9465	21.5321	-5.09785	8.41822	-4.63148	-2.13423	0.00880981	-42.4115	15.7746	-5.11855	-7.28817	1.86768	0.561455	-3.14642	-0.00704722	-0.276066	0.188748	-5.68921	-3.1099	-0.221555	-3.05032	-0.0369585	-0.290761	0.110057
2.97973	97.4737	3.54361	-26.6816	56.0933	-36.7233	36.6013	47.3435	7.42571	-3.23073	-20.675	1.9307	-0.115906	-0.0541893	54.5926	25.2374	-5.79176	9.49226	-2.59611	-2.72837	0.0124616	-43.0133	13.2939	-3.85917	-7.13137	2.2338	0.663584	-3.04311	-0.00116852	-0.260876	0.197721	-5.70665	-3.41629	-0.321407	-3.03681	-0.0414588	-0.293826	0.0957611
2.98972	96.7884	1.38419	-23.5859	55.9377	-52.5174	37.352	46.6386	7.87785	-3.483	-22.3177	2.34909	-0.212245	-0.0668675	56.0326	28.4434	-6.38693	10.2608	-0.305968	-3.31022	0.0155055	-43.4395	10.9418	-2.84947	-6.82143	2.44635	0.720736	-2.8984	0.0033437	-0.243839	0.198875	-5.62762	-3.60587	-0.395246	-2.98732	-0.0446415	-0.291924	0.083074
2.9997	94.2693	-0.195259	-20.576	57.3945	-65.9081	37.8133	44.6606	8.70133	-3.778	-23.8146	2.61946	-0.282568	-0.0743012	56.3073	31.4957	-6.89345	11.1006	2.17259	-3.86852	0.0181325	-42.8116	8.5125	-2.12953	-6.32491	2.4925	0.726926	-2.68712	0.00645601	-0.222597	0.190327	-5.4208	-3.65775	-0.438714	-2.87451	-0.0459101	-0.281951	0.0714635
3.00969	93.64	-1.32013	-17.8474	62.4012	-80.021	34.5722	40.9595	9.53083	-3.97983	-25.0872	2.69828	-0.328674	-0.0751538	57.3806	33.5124	-7.08918	11.2193	4.82277	-4.41134	0.0212015	-38.7247	5.27109	-1.50766	-5.45828	2.35963	0.671633	-2.30376	0.00889459	-0.186318	0.165826	-4.98786	-3.53244	-0.450279	-2.61355	-0.0439934	-0.25431	0.0570293
3.01967	90.094	-2.13917	-15.2011	65.2518	-88.0749	35.0936	36.6088	9.78096	-3.94525	-26.0423	2.61505	-0.359119	-0.0702909	57.5903	35.4487	-7.19289	11.3314	7.57894	-4.92377	0.0239324	-36.0953	2.88781	-0.963546	-4.70083	2.2229	0.620614	-1.98774	0.0106512	-0.157036	0.145204	-4.58768	-3.39508	-0.456381	-2.39489	-0.0424258	-0.231647	0.0452705
3.02966	84.4879	-3.2215	-12.7956	67.4398	-90.9358	39.3114	31.8625	9.38751	-3.66864	-26.5645	2.40438	-0.373736	-0.0614056	56.8897	37.4255	-7.22752	11.5131	10.3842	-5.39702	0.0263158	-34.3308	1.54613	-0.683587	-4.08596	2.0498	0.562496	-1.74652	0.0110681	-0.135885	0.127077	-4.22462	-3.21991	-0.445443	-2.21388	-0.040475	-0.21267	0.0377217
3.03964	79.5588	-4.09287	-11.1932	72	-91.611	45.2111	27.1642	8.77061	-3.33416	-26.6535	2.1188	-0.363465	-0.0508128	55.4628	39.1315	-7.17499	11.7417	13.2001	-5.8413	0.0282774	-31.3953	1.3181	-0.613528	-3.53248	1.80488	0.482256	-1.52434	0.00999658	-0.117196	0.106699	-3.84023	-2.94496	-0.404278	-2.01331	-0.0365405	-0.190171	0.0333061
3.04963	74.7417	-4.23647	-10.6084	82.0826	-91.3813	51.1925	22.1122	8.17925	-3.05267	-26.1261	1.77456	-0.321375	-0.0396915	52.6689	40.307	-7.0002	12.2543	15.9795	-6.26775	0.0298835	-26.6021	2.13598	-0.638774	-3.00685	1.50111	0.381478	-1.29782	0.00768938	-0.0982479	0.0831339	-3.40665	-2.56415	-0.333951	-1.76992	-0.0302451	-0.161618	0.0307186
3.05961	67.6737	-2.50778	-10.9479	84.2421	-82.8729	57.4912	18.0915	7.81053	-2.97148	-25.2538	1.43728	-0.250237	-0.029749	49.4716	40.6946	-6.73761	12.6835	18.7309	-6.69459	0.0308571	-25.8203	3.85953	-0.10407	-2.86881	1.50802	0.381618	-1.24422	0.00766179	-0.0924974	0.0809345	-3.21331	-2.44454	-0.323767	-1.68302	-0.0284146	-0.153263	0.0273619
3.0696	59.0471	0.801804	-12.274	81.6382	-67.0801	63.1512	14.9106	7.69374	-3.09234	-24.0721	1.11658	-0.155669	-0.021175	45.7271	40.2575	-6.38088	13.0955	21.4329	-7.12273	0.0312783	-27.9049	6.34905	0.81417	-3.05746	1.75663	0.459133	-1.33026	0.00931543	-0.0973808	0.0951682	-3.23302	-2.53867	-0.359343	-1.72433	-0.0299749	-0.160809	0.0238813
3.07958	50.4805	5.31129	-14.1626	76.437	-44.9301	66.597	12.4134	7.86039	-3.35977	-22.7729	0.819159	-0.0490692	-0.0137948	41.797	39.1082	-5.95258	13.4414	24.0725	-7.54264	0.031296	-31.2713	9.01839	2.17814	-3.43254	2.21602	0.599401	-1.48119	0.0129223	-0.105513	0.120215	-3.40362	-2.81786	-0.43728	-1.83929	-0.0339937	-0.177577	0.0180436
3.08957	41.4585	10.7734	-15.9768	67.6128	-18.1474	67.4169	9.57706	8.24049	-3.59672	-21.3304	0.5167	0.0575329	-0.00659224	38.852	37.4529	-5.5132	13.4381	26.6588	-7.94209	0.0309541	-36.2538	11.2462	4.28128	-3.91152	2.9441	0.820538	-1.66207	0.0198071	-0.112704	0.157201	-3.71065	-3.33257	-0.578752	-2.01955	-0.0415432	-0.203901	0.00646378
3.09955	28.988	16.4917	-16.9562	53.1124	14.6163	65.9957	6.30429	8.64091	-3.68911	-19.836	0.210279	0.151841	0.000781663	36.2358	35.7223	-5.09665	13.3106	29.1666	-8.30301	0.0305182	-44.7938	12.7299	7.03427	-4.55084	3.97649	1.13724	-1.915	0.0303056	-0.123467	0.210296	-4.20703	-4.15512	-0.800148	-2.31619	-0.0543882	-0.246539	-0.0103062
3.10954	21.4143	21.0388	-17.0976	41.9585	40.9628	62.8191	3.58263	8.78535	-3.72225	-18.3667	-0.0458991	0.227104	0.0069525	34.5835	33.9985	-4.70785	12.8885	31.6121	-8.62468	0.0298712	-49.6146	13.275	9.6824	-4.92105	4.87352	1.40422	-2.02499	0.0402903	-0.121122	0.249908	-4.55567	-4.84785	-0.994327	-2.49021	-0.0642708	-0.273721	-0.029299
3.11952	14.6823	24.6818	-16.3542	34.5572	63.8938	58.5078	0.514845	8.6854	-3.61677	-16.6906	-0.277533	0.28184	0.012485	32.8464	32.3068	-4.31827	12.5035	33.9758	-8.90883	0.0294704	-52.6594	13.0329	12.2632	-5.12518	5.69575	1.64445	-2.05188	0.0501507	-0.111256	0.282074	-4.82371	-5.48033	-1.17724	-2.59959	-0.0728461	-0.29293	-0.049836
3.12951	9.64796	27.3453	-14.944	28.1785	81.2551	54.0818	-2.2559	8.28825	-3.40015	-14.9729	-0.450928	0.310359	0.0166115	31.5415	30.7166	-3.9359	12	36.2925	-9.16291	0.0291867	-54.4003	12.2446	14.6231	-5.19453	6.40721	1.84985	-2.01909	0.0592794	-0.0969048	0.306977	-5.0163	-6.02682	-1.34047	-2.6576	-0.0800271	-0.305539	-0.0700806
3.13949	6.26237	29.58	-13.5084	22.2046	94.485	48.9803	-4.70652	7.85859	-3.14773	-13.2086	-0.561596	0.31848	0.0190422	30.8254	29.093	-3.55871	11.3156	38.5917	-9.39937	0.0291191	-55.2803	11.293	16.6477	-5.20227	7.00315	2.01999	-1.96215	0.067189	-0.0817874	0.326105	-5.15955	-6.48558	-1.47927	-2.68563	-0.0858147	-0.313697	-0.0882805
3.14948	3.55769	30.84	-11.9555	16.4563	101.533	44.6705	-6.82917	7.25397	-2.81205	-11.3877	-0.600317	0.301386	0.0194927	30.3322	27.7906	-3.21158	10.608	40.8975	-9.61594	0.0291095	-55.7944	10.3783	18.1617	-5.18267	7.4499	2.14713	-1.90513	0.0732841	-0.0690592	0.339703	-5.26104	-6.83673	-1.58607	-2.6985	-0.0901927	-0.318974	-0.102567
3.15946	1.19734	30.9846	-10.4571	11.3304	104.859	41.7441	-8.8437	6.38573	-2.36035	-9.50009	-0.578337	0.25875	0.0182566	30.0301	26.8721	-2.89382	9.87993	43.2356	-9.81721	0.0292458	-56.1512	9.68745	19.1023	-5.17708	7.749	2.23137	-1.86666	0.0773354	-0.0605798	0.348482	-5.34015	-7.08586	-1.65906	-2.70927	-0.09318	-0.322558	-0.112037
3.16945	-1.23373	30.6833	-9.64424	6.39697	103.33	39.596	-10.8945	5.43333	-1.83816	-7.52729	-0.514523	0.199515	0.0157894	29.9769	26.0303	-2.58106	9.13774	45.6483	-10.0205	0.0293925	-56.6557	9.54126	19.4045	-5.22586	7.89198	2.27186	-1.86879	0.0790113	-0.0587976	0.353431	-5.407	-7.22366	-1.69434	-2.73018	-0.0947841	-0.325838	-0.115528
3.17943	-4.13778	29.455	-9.23287	0.298684	98.5248	38.6749	-13.1557	4.3393	-1.2181	-5.48971	-0.427509	0.125543	0.0126441	30.3744	25.6763	-2.32202	8.36413	48.1648	-10.2191	0.0295351	-57.8634	9.8141	19.1331	-5.34954	7.91919	2.28074	-1.92113	0.0787951	-0.0642287	0.356561	-5.49044	-7.29596	-1.70301	-2.77926	-0.0957743	-0.331185	-0.113659
3.18942	-8.40491	28.036	-9.4974	-9.72473	93.2991	37.7023	-15.6796	3.3011	-0.552689	-3.45356	-0.33527	0.0467834	0.00924202	31.4646	25.5071	-2.08904	7.50921	50.8165	-10.4273	0.0297985	-61.0437	10.5183	18.5097	-5.61031	7.9319	2.29003	-2.05259	0.077817	-0.0785401	0.363462	-5.6555	-7.40106	-1.71044	-2.89789	-0.0978706	-0.344276	-0.107911
3.1994	-14.1761	26.3415	-9.9312	-24.3283	86.2117	35.2625	-18.4989	2.37428	0.127576	-1.3955	-0.243396	-0.0306998	0.00560418	33.2919	25.5945	-1.87675	6.58834	53.6272	-10.6467	0.0300328	-66.2318	11.1114	17.8835	-5.95045	8.02002	2.32505	-2.22929	0.0775681	-0.0971022	0.376083	-5.88838	-7.60371	-1.74055	-3.07189	-0.101985	-0.364825	-0.102223
3.20939	-17.1067	23.782	-9.82907	-32.2431	69.6644	32.347	-21.4773	1.43347	0.740588	0.827926	-0.145437	-0.102242	0.0013898	34.8316	26.0239	-1.69546	5.85308	56.5985	-10.8791	0.0300537	-67.547	10.916	17.1069	-6.0178	7.93925	2.29951	-2.26769	0.0760383	-0.103613	0.374256	-5.89942	-7.60525	-1.72803	-3.09804	-0.10208	-0.367306	-0.0978348
3.21937	-18.0509	21.2499	-9.78767	-34.3412	45.236	30.4379	-24.8271	0.714674	1.24197	3.24975	-0.0617436	-0.15724	-0.003029	36.0811	26.7517	-1.56109	5.31502	59.7359	-11.1266	0.029966	-65.6663	10.6565	16.2639	-5.89843	7.71933	2.22562	-2.21192	0.0731459	-0.102033	0.361683	-5.72198	-7.41936	-1.67553	-3.00521	-0.0985719	-0.355287	-0.093865
3.22936	-17.1384	18.8353	-9.60438	-30.5047	13.0805	28.5876	-28.6769	0.314695	1.61888	5.88561	-0.0113254	-0.188701	-0.00718428	36.9691	27.5923	-1.47337	5.01494	63.0433	-11.3924	0.0298526	-60.4888	9.88894	15.305	-5.56266	7.35013	2.09925	-2.04798	0.0689451	-0.0911723	0.337194	-5.34536	-7.04831	-1.58371	-2.78587	-0.0914566	-0.327893	-0.090668
3.23934	-16.3677	17.4021	-9.68163	-20.8492	-21.3842	27.4576	-35.1424	0.859003	2.04509	9.89652	-1.46995	-0.0983658	-0.0103857	37.4675	28.6358	-1.44558	4.97624	66.5189	-11.6661	0.029733	-51.8467	8.90145	14.0396	-5.0364	6.7735	1.90418	-1.79219	0.0625435	-0.0734085	0.299357	-4.77138	-6.44678	-1.43741	-2.44437	-0.0801021	-0.284857	-0.0860301
3.24933	-17.5786	16.3564	-10.7781	-19.2119	-53.6729	25.7982	-41.0995	1.69484	2.2423	13.1968	-1.98555	-0.0769696	-0.0118181	38.8465	29.7889	-1.44787	4.92045	70.1662	-11.938	0.0299173	-46.8854	8.46869	12.6081	-4.73666	6.28689	1.74422	-1.66078	0.0564819	-0.0679244	0.272072	-4.36258	-5.99318	-1.31845	-2.2297	-0.0719944	-0.257233	-0.078609
3.25931	-16.5281	16.1975	-11.9668	-11.5121	-91.8431	25.1361	-47.4297	3.06195	2.29677	16.6614	-2.52367	-0.0391334	-0.0111194	39.6622	30.93	-1.49043	5.19774	73.9618	-12.2003	0.0299711	-38.1271	7.7685	10.8938	-4.22473	5.57812	1.5112	-1.42794	0.0481605	-0.0546084	0.230443	-3.74747	-5.2924	-1.14181	-1.88471	-0.059388	-0.212868	-0.0698533
3.2693	-18.1116	16.5781	-14.3499	-11.7729	-124.234	23.8117	-53.9553	4.85887	2.24559	20.0345	-3.03667	0.00400633	-0.0077314	41.1817	32.0426	-1.54343	5.52933	77.8824	-12.4348	0.0303436	-32.839	7.70678	8.77099	-3.95969	4.90016	1.29643	-1.33	0.0394249	-0.0554309	0.197558	-3.31864	-4.70734	-0.979138	-1.67488	-0.0495837	-0.183924	-0.0560781
3.27928	-21.6873	17.4114	-17.4602	-22.1484	-150.414	20.7405	-60.0426	6.91479	2.09302	23.1036	-3.46324	0.0439392	-0.00159157	43.5627	33.1527	-1.59751	5.89826	81.8877	-12.6221	0.030949	-31.3396	8.07681	6.65692	-3.914	4.36339	1.13182	-1.348	0.0318442	-0.0668715	0.176767	-3.08252	-4.31734	-0.857345	-1.5987	-0.0437041	-0.171508	-0.0411366
3.28927	-27.999	17.8892	-21.0566	-43.8611	-168.513	14.5174	-65.3682	8.89773	1.85921	25.7001	-3.74264	0.0684688	0.00688401	46.7572	34.2468	-1.63633	6.35284	85.9066	-12.7412	0.0317922	-34.8593	8.6109	4.68128	-4.13944	4.0609	1.04677	-1.5024	0.0266095	-0.0899753	0.172931	-3.11549	-4.22763	-0.802168	-1.6971	-0.0435519	-0.181106	-0.0264055
3.29925	-28.6689	18.9957	-23.0937	-51.4578	-197.955	11.286	-69.7072	10.6148	1.53441	27.9905	-3.84837	0.0840227	0.0171862	48.0671	35.1921	-1.74825	7.44495	89.8306	-12.7783	0.0322739	-30.8361	8.17453	3.14649	-3.8787	3.55136	0.884601	-1.40657	0.0202233	-0.0887647	0.147421	-2.73445	-3.78514	-0.684469	-1.51594	-0.036251	-0.157725	-0.0175921
3.30924	-32.8843	19.2257	-26.3593	-73.5897	-216.612	6.61548	-72.4909	11.7091	1.15287	29.4226	-3.75265	0.0796121	0.0283057	50.3276	36.047	-1.86412	8.62746	93.5669	-12.7118	0.0333885	-33.8044	9.00415	1.57018	-4.07887	3.3032	0.816556	-1.54511	0.0157544	-0.109084	0.145252	-2.74502	-3.69972	-0.638164	-1.59603	-0.036111	-0.166069	-0.0053622
3.31922	-34.1689	19.3887	-28.3215	-91.2866	-237.634	3.14826	-73.8094	11.9483	0.800101	30.1029	-3.50225	0.0759774	0.0396245	51.7689	36.6024	-2.02636	10.2915	96.9842	-12.5319	0.0346114	-34.4369	9.24751	0.827735	-4.07434	3.14338	0.769198	-1.57	0.0132099	-0.115583	0.140598	-2.62836	-3.59815	-0.607876	-1.57672	-0.0349888	-0.16436	-0.000862999
3.32921	-31.8153	19.2604	-29.1267	-102.33	-262.288	2.86352	-73.3688	11.3077	0.506329	29.9263	-3.16409	0.09893	0.0501889	52.2385	36.9451	-2.27034	12.4302	99.9364	-12.2234	0.0361784	-32.0877	9.24144	0.50489	-3.88873	2.95045	0.706805	-1.49686	0.0108507	-0.11148	0.129407	-2.36864	-3.38246	-0.561985	-1.45211	-0.0313912	-0.150434	-1.88419e-05
3.33919	-28.5467	18.9956	-30.1869	-118.175	-281.28	4.21858	-70.623	10.066	0.286345	28.6855	-2.83189	0.176983	0.0590613	53.1363	36.9765	-2.54242	14.7258	102.289	-11.7862	0.038463	-32.1969	10.3349	0.272513	-3.92322	2.86248	0.683663	-1.53087	0.00913296	-0.116747	0.128164	-2.29422	-3.29254	-0.539501	-1.44043	-0.0303373	-0.149497	0.00284475
3.34918	-24.5682	16.5994	-30.9346	-139.864	-293.732	7.06218	-65.3901	7.65758	0.179339	26.4004	-2.60729	0.305976	0.0655744	54.4888	37.1816	-2.89144	17.1324	103.882	-11.2028	0.0412419	-35.6458	11.9955	-0.0667203	-4.21121	2.89225	0.703553	-1.68668	0.00826769	-0.133141	0.137989	-2.46125	-3.38396	-0.548993	-1.57252	-0.0328003	-0.164973	0.00840738
3.35916	-14.3967	13.927	-29.9346	-148.859	-313.345	16.9719	-57.838	4.48477	0.16712	23.3819	-2.59205	0.487342	0.0690488	54.3928	37.3632	-3.37236	19.8708	104.523	-10.4835	0.0442889	-33.4847	13.4662	-0.289997	-4.20788	2.70854	0.65041	-1.69338	0.00548932	-0.135671	0.131112	-2.35821	-3.16897	-0.494154	-1.51999	-0.0293707	-0.157236	0.0128448
3.36915	-0.543595	10.6725	-28.3539	-153.404	-332.201	32.2889	-48.0582	0.69734	0.229163	19.7748	-2.83695	0.678166	0.0689815	53.8681	37.5507	-3.9467	22.6836	104.06	-9.6477	0.0479016	-29.8261	15.5888	-0.778777	-4.22579	2.39759	0.559327	-1.70802	0.000931534	-0.139981	0.119261	-2.24607	-2.82722	-0.40102	-1.45185	-0.0237786	-0.14545	0.0212496
3.37913	9.60889	4.6884	-28.4527	-181.253	-331.582	44.5517	-35.4445	-3.78839	0.336923	15.4099	-3.3066	0.798629	0.0647448	56.0134	37.9876	-4.50389	24.8837	102.404	-8.73168	0.0517425	-37.7592	19.7506	-2.08936	-5.07057	2.37245	0.580805	-2.13862	-0.00228442	-0.184883	0.141101	-2.87743	-3.01862	-0.393778	-1.85471	-0.0292361	-0.187524	0.0417257
3.38912	24.8136	-1.39974	-26.6752	-190.563	-336.59	61.6428	-22.3378	-8.69958	0.521375	11.2596	-3.95322	0.769531	0.0562841	56.6763	38.2469	-5.10516	27.1058	99.3707	-7.76588	0.0553581	-39.3151	22.7551	-3.05625	-5.54548	2.17569	0.539694	-2.36855	-0.00628529	-0.209774	0.14536	-3.22409	-2.92714	-0.333889	-2.04232	-0.0288917	-0.203319	0.0578819
3.3991	42.9128	-7.02101	-24.0315	-184.794	-343.392	81.3634	-9.74044	-13.44	0.754876	7.78639	-4.66825	0.516914	0.0440387	56.485	38.1221	-5.69471	29.1454	94.893	-6.80453	0.058775	-36.3054	24.9798	-3.86993	-5.77505	1.8378	0.448816	-2.46268	-0.0110893	-0.221313	0.136719	-3.38568	-2.6243	-0.231433	-2.0835	-0.0242826	-0.200727	0.071959
3.40909	58.5951	-12.6176	-21.744	-179.319	-339.729	94.2072	1.82337	-17.3211	0.97482	5.16222	-5.32353	-0.010223	0.029389	57.655	37.473	-6.16056	30.5494	89.0398	-5.91357	0.0608252	-36.9004	26.4578	-4.51178	-6.22302	1.71686	0.432153	-2.64221	-0.0129624	-0.238718	0.141894	-3.86293	-2.5998	-0.189712	-2.2772	-0.0247404	-0.216333	0.0851993
3.41907	76.5092	-16.505	-17.6244	-147.869	-344.91	102.022	11.1349	-19.5178	1.05943	4.01102	-5.85575	-0.800662	0.0155841	57.0803	35.9268	-6.43621	31.7256	81.8541	-5.12802	0.0608868	-29.9882	24.6848	-4.34124	-6.10105	1.5348	0.380644	-2.5046	-0.0130039	-0.222887	0.128427	-3.97137	-2.36285	-0.128687	-2.1793	-0.0200192	-0.199233	0.086307
3.42906	97.366	-17.7296	-12.1657	-81.7496	-367.409	104.948	18.0797	-19.5659	0.849523	4.47553	-6.17299	-1.80186	0.00472558	53.5751	33.1148	-6.39636	32.7307	73.5127	-4.48677	0.0588505	-12.3907	19.7302	-3.50828	-5.29514	1.15407	0.249166	-1.9862	-0.0128159	-0.168949	0.0878262	-3.53929	-1.72625	-0.00616503	-1.68333	-0.00664516	-0.136769	0.0760504
3.43904	91.9949	-20.6206	-12.8293	-74.9534	-349.901	71.8256	25.2805	-17.265	0.176212	5.05781	-6.04806	-2.95674	-0.00508125	55.9648	28.9016	-5.88125	32.0043	64.5752	-4.06571	0.0507035	-29.856	17.0391	-3.16587	-6.62019	2.09897	0.596837	-2.51611	-0.000787654	-0.211282	0.160144	-5.15773	-2.9511	-0.262181	-2.46968	-0.0305147	-0.23095	0.0802623
3.44903	91.0844	-20.5075	-11.5887	-22.6007	-371.932	25.2506	30.8301	-11.845	-0.830649	6.95845	-5.53903	-4.09167	-0.0130431	53.9975	22.8811	-4.80323	31.247	55.1531	-3.78777	0.0384777	-32.7135	9.2517	-2.82229	-7.05133	2.6238	0.79114	-2.55007	0.00927999	-0.207674	0.19132	-5.98072	-3.55593	-0.405466	-2.70497	-0.0416445	-0.262365	0.07392
3.45901	92.6281	-16.8123	-9.20409	71.5574	-436.891	-43.791	35.1536	-2.61369	-2.195	10.01	-4.63884	-5.08517	-0.0202871	48.1326	14.3881	-3.04882	30.432	45.6737	-3.62974	0.0228649	-23.651	-3.78097	-2.51519	-6.803	2.8977	0.887716	-2.1744	0.0189444	-0.165725	0.193057	-6.17674	-3.74381	-0.479142	-2.48784	-0.0435372	-0.244231	0.057022
3.469	96.2956	-9.26786	-6.22855	213.696	-557.539	-142.885	38.1396	10.9787	-3.91834	14.2184	-3.35636	-5.8678	-0.0281923	37.9041	2.78255	-0.417933	29.7334	36.5876	-3.54132	0.00465258	-1.45242	-22.7992	-2.54667	-5.85846	2.88476	0.873205	-1.36204	0.027845	-0.0839138	0.162964	-5.68959	-3.48134	-0.473048	-1.77601	-0.0353429	-0.172353	0.0299709
3.47898	92.7441	2.12425	-3.82808	369.966	-720.85	-292.985	40.3704	29.0947	-5.92678	18.9849	-1.64663	-6.47033	-0.0386183	27.3273	-12.8947	3.19015	28.8229	28.4562	-3.494	-0.0177917	18.2257	-48.0047	-1.95539	-5.05524	3.46994	1.04465	-0.508539	0.0454377	0.0065085	0.158893	-5.40831	-3.79755	-0.627315	-1.11066	-0.0361076	-0.116561	-0.0121696
3.48897	88.3887	16.5876	-1.27877	562.708	-949.919	-491.477	41.5905	51.3332	-8.08289	24.2637	0.523555	-7.00722	-0.0525176	14.4695	-32.3622	7.7675	28.1791	21.5092	-3.40278	-0.0419602	45.531	-80.5537	-1.60254	-3.86962	4.13262	1.2237	0.652581	0.0663305	0.126243	0.145391	-4.75839	-4.10513	-0.804245	-0.137507	-0.0345588	-0.0329193	-0.0673905
3.49895	86.447	34.0137	0.903898	805.406	-1256.29	-739.573	41.5343	77.7345	-10.3134	30.0014	3.23462	-7.6772	-0.0704182	-1.91344	-55.7216	13.4332	28.1853	15.8375	-3.25142	-0.0643729	86.2324	-120.624	-2.37175	-2.07577	4.52824	1.2909	2.24191	0.0862251	0.282757	0.101067	-3.40562	-4.04566	-0.909817	1.33827	-0.0236073	0.103537	-0.131501
3.50894	65.7986	-7.48467	-4.62443	0.720698	-1.35887	0.426602	46.4781	15.1592	-7.10692	20.3412	3.86436	-9.88897	0.0209503	47.6791	16.5667	-2.19875	-1.16463	10.8408	-1.43611	-0.0534885	-75.174	11.1793	9.34072	-9.07224	6.62562	2.08328	-3.42597	0.0583878	-0.230965	0.392763	-9.16246	-7.33451	-1.41398	-4.33866	-0.105216	-0.468515	0.00283443
3.51892	66.6145	-6.86006	-2.97618	1.86188	-2.5594	1.16461	49.8523	17.4888	-7.50396	20.5215	6.71884	-11.1073	0.0246962	46.4252	16.9625	-2.52551	-7.64074	7.69023	-1.04279	-0.0693182	-74.9337	11.7875	10.0119	-8.85497	6.60753	2.08464	-3.36969	0.0582938	-0.226084	0.391685	-8.88322	-7.208	-1.41373	-4.24025	-0.104161	-0.461339	-0.0021273
3.52891	66.6625	-6.09482	-1.4217	2.00797	-4.24711	1.95208	52.4517	19.7252	-7.7648	20.4587	9.4606	-12.0628	0.0280702	44.667	17.5091	-3.05456	-13.6338	5.54073	-0.791525	-0.0805067	-74.0129	12.536	10.4898	-8.60005	6.53315	2.06282	-3.29861	0.057089	-0.220866	0.386633	-8.49822	-7.01779	-1.39622	-4.09873	-0.101627	-0.449068	-0.00637166
3.53889	66.4488	-4.78625	-0.0878708	0.022942	-2.42698	0.336194	54.4214	22.0594	-7.91765	20.1545	12.0398	-12.762	0.0313003	42.4239	17.7841	-3.63037	-18.9359	4.20113	-0.6481	-0.0856395	-72.2129	13.0196	10.7797	-8.25249	6.41203	2.01532	-3.18648	0.0549957	-0.212548	0.375685	-7.97576	-6.78081	-1.36597	-3.897	-0.0975045	-0.429569	-0.0112651
3.54888	66.1377	-3.24769	1.34297	0.517874	3.37561	-2.16739	55.7334	24.3364	-7.95786	19.6457	14.4496	-13.2417	0.0343462	38.9563	17.8285	-4.19264	-23.0954	3.41047	-0.561418	-0.0840694	-68.539	13.0872	10.9086	-7.77158	6.21761	1.93433	-3.00606	0.0520947	-0.19822	0.356626	-7.31486	-6.46464	-1.31608	-3.61555	-0.0911928	-0.400036	-0.0171053
3.55886	66.8064	-1.73285	2.44528	-0.486532	1.20078	-1.63986	56.6858	25.9349	-7.8681	18.9658	16.7224	-13.5601	0.036946	34.4794	17.228	-4.48484	-25.7662	2.95295	-0.514398	-0.0772129	-61.9653	13.0597	10.6156	-6.93265	5.76751	1.76283	-2.6904	0.0467125	-0.173975	0.319404	-6.32401	-5.89453	-1.21036	-3.17763	-0.080458	-0.351378	-0.0228736
3.56885	67.7342	-0.536435	4.49167	1.14835	1.16103	-4.22961	57.282	27.4964	-7.6913	18.0758	18.8914	-13.7484	0.0387266	29.6516	16.6551	-4.87876	-26.9395	2.63595	-0.445413	-0.06732	-54.7187	11.6938	10.4762	-6.0354	5.38655	1.61016	-2.32473	0.0430934	-0.143305	0.282382	-5.39409	-5.40419	-1.12635	-2.73509	-0.0706843	-0.302199	-0.0318696
3.57883	67.9375	-0.229414	7.11588	-1.56114	-0.0031947	-3.7235	56.9726	28.012	-7.35085	17.2338	20.97	-13.8715	0.0402177	24.7981	15.87	-5.1919	-26.5682	2.27602	-0.350729	-0.0558478	-47.4808	9.82841	10.3643	-4.96141	4.96742	1.44388	-1.90035	0.039948	-0.107189	0.240942	-4.41837	-4.90259	-1.04546	-2.2726	-0.0611146	-0.250517	-0.042709
3.58882	63.0433	-0.705444	9.30135	-0.766821	0.0452135	-1.88732	55.3278	27.8269	-6.89762	16.5374	23.0293	-13.9616	0.0401893	20.1015	14.9513	-5.51518	-25.5896	1.87889	-0.227619	-0.0446115	-44.2461	8.56591	10.0756	-4.34996	4.65144	1.33666	-1.67768	0.0377135	-0.0899729	0.217599	-3.90936	-4.56941	-0.988013	-2.03962	-0.0561777	-0.224676	-0.0459962
3.5988	55.5113	-1.34515	11.5047	-2.86905	0.625973	-2.82388	52.7757	27.2998	-6.36533	16.0256	25.0757	-14.018	0.0393623	16.0356	13.7167	-5.72288	-24.193	1.47914	-0.101974	-0.0340955	-43.5971	6.89118	9.95845	-3.90432	4.47908	1.28224	-1.52969	0.0372413	-0.0785946	0.204913	-3.61105	-4.40885	-0.969941	-1.917	-0.0547214	-0.212399	-0.0493242
3.60879	47.7429	-2.02924	13.4287	-0.00915116	2.25533	-6.20927	49.3559	26.4302	-5.76305	15.6786	27.1461	-14.0482	0.0378334	12.6192	12.1291	-5.74596	-22.5791	1.10444	0.0074002	-0.024624	-43.2953	4.92486	9.90908	-3.64389	4.39167	1.26068	-1.43513	0.0378382	-0.0707719	0.199028	-3.52299	-4.34414	-0.967599	-1.86746	-0.0548228	-0.207828	-0.0514547
3.61877	40.6177	-3.03927	14.8239	3.45072	2.29886	-8.58183	45.9003	25.2332	-5.13531	15.377	29.2798	-14.046	0.0357582	9.71604	10.5666	-5.58422	-20.8528	0.765006	0.0930681	-0.0162276	-43.2955	3.33298	9.63239	-3.52723	4.27979	1.23603	-1.39581	0.0378042	-0.0684968	0.195091	-3.55451	-4.27956	-0.954573	-1.86839	-0.0550252	-0.207579	-0.0498626
3.62876	32.4139	-3.97942	15.4049	5.77612	1.63955	-10.5838	42.8064	24.0856	-4.54021	15.1279	31.4974	-13.9957	0.0335223	6.29073	8.92618	-5.11607	-18.9689	0.4346	0.147969	-0.00802982	-44.4439	2.40846	9.06699	-3.58506	4.14976	1.20882	-1.43672	0.0366886	-0.0747574	0.194183	-3.67519	-4.22245	-0.931573	-1.92797	-0.0554587	-0.213062	-0.0439405
3.63874	23.6959	-4.52491	15.0086	5.95053	0.600873	-11.3875	40.6732	23.0621	-4.01093	14.7231	33.8448	-13.8952	0.0310019	2.89701	7.26093	-4.40542	-17.1741	0.149365	0.168112	-0.000790984	-47.4649	2.3964	8.39568	-3.91029	4.06004	1.20263	-1.59536	0.0350528	-0.0923814	0.201356	-3.96178	-4.21606	-0.909788	-2.08309	-0.0571011	-0.229031	-0.033576
3.64873	12.2997	-4.00571	13.4428	4.44622	-0.632993	-10.6901	39.1773	22.4785	-3.57353	14.2671	36.3409	-13.7449	0.0282233	-0.67067	5.53184	-3.52448	-15.4266	-0.0892475	0.159546	0.00536935	-53.805	3.63393	7.84155	-4.63081	4.08844	1.24949	-1.93083	0.0335521	-0.126297	0.223891	-4.51347	-4.32297	-0.905456	-2.39081	-0.0614919	-0.262954	-0.0183514
3.65871	5.80023	-2.91209	11.078	2.75412	-1.40735	-9.82549	38.5329	22.0157	-3.2146	13.6525	38.9833	-13.566	0.0260601	-3.28011	3.66745	-2.59723	-13.8739	-0.252069	0.12506	0.0098208	-57.4904	5.22502	7.11709	-5.22328	4.00378	1.24974	-2.19652	0.0305705	-0.15411	0.2363	-4.89809	-4.29641	-0.867239	-2.60022	-0.0625915	-0.283994	-0.00333012
3.6687	2.30897	-1.94139	8.51216	1.43291	-1.42154	-8.81366	38.1944	21.5958	-2.90836	13.026	41.7778	-13.3775	0.0246429	-5.38002	1.89976	-1.69779	-12.3874	-0.357928	0.0770049	0.0128433	-59.2547	6.81585	6.18242	-5.68828	3.82308	1.20983	-2.39898	0.0264569	-0.176598	0.239889	-5.14394	-4.17233	-0.803762	-2.73182	-0.0612583	-0.294836	0.0114293
3.67868	-0.402685	-1.26046	6.12567	0.933126	-1.45866	-8.11426	37.6399	21.3626	-2.65037	12.5408	44.7313	-13.1896	0.0238864	-7.3879	0.392794	-0.878905	-10.8202	-0.415543	0.0245442	0.0143593	-60.1302	8.16853	5.15135	-6.0587	3.6021	1.15053	-2.55815	0.02196	-0.195301	0.238601	-5.30189	-4.01059	-0.731644	-2.81812	-0.0588447	-0.300081	0.0252991
3.68867	-1.23788	-1.05571	4.13349	0.0847482	-1.01746	-6.3699	37.3494	21.0406	-2.42639	12.0022	47.8668	-13.0167	0.0237353	-9.01875	-0.808794	-0.177278	-9.25547	-0.413013	-0.0318931	0.0140324	-59.9634	9.26138	4.10532	-6.30021	3.34286	1.07283	-2.66025	0.0173683	-0.208578	0.231962	-5.37354	-3.81159	-0.653214	-2.85543	-0.0554307	-0.299252	0.0375462
3.69865	-1.36399	-1.21988	2.70672	-0.180434	-0.522201	-4.77434	36.7502	20.686	-2.21853	11.5809	51.18	-12.8629	0.0242292	-10.6472	-1.83284	0.428987	-7.54857	-0.366476	-0.0895937	0.0121545	-58.7211	9.8702	3.14305	-6.3687	3.06972	0.98271	-2.68756	0.013136	-0.214428	0.219996	-5.33345	-3.59437	-0.576743	-2.8329	-0.0512783	-0.291671	0.0465908
3.70864	-0.312617	-1.9212	1.95257	0.131412	-0.403814	-3.45403	35.9449	20.4179	-2.0367	11.2501	54.6761	-12.7214	0.0252336	-12.1315	-2.51989	0.885269	-5.76137	-0.285046	-0.140585	0.00895947	-56.1863	9.84802	2.24432	-6.23831	2.77519	0.877588	-2.62828	0.00936456	-0.211743	0.201881	-5.1794	-3.3564	-0.502103	-2.74562	-0.0463733	-0.276703	0.0521916
3.71862	2.53049	-2.86208	1.63032	0.350332	-0.55808	-2.86468	35.2629	20.3132	-1.89082	10.9147	58.3589	-12.5834	0.0266734	-13.4793	-2.95463	1.19534	-3.91278	-0.187699	-0.18071	0.00502192	-52.1287	9.36981	1.4369	-5.90084	2.45845	0.756372	-2.47795	0.00601114	-0.200008	0.177214	-4.89598	-3.08981	-0.42802	-2.58517	-0.0404896	-0.253378	0.0540901
3.72861	7.53804	-3.90615	1.7993	-0.408214	-0.0599577	-4.29324	34.7638	20.5328	-1.79536	10.5715	62.2174	-12.4363	0.0285736	-14.8272	-3.18838	1.37439	-1.97379	-0.104095	-0.205216	0.00119271	-46.0914	8.209	0.828845	-5.28197	2.14046	0.621329	-2.20323	0.00353778	-0.175581	0.144618	-4.43418	-2.80783	-0.361777	-2.32571	-0.0335664	-0.219111	0.0500967
3.73859	3.89856	-3.23825	1.50756	-0.605373	-0.181926	-4.52075	34.3369	21.437	-1.77233	10.3049	66.2852	-12.265	0.0295431	-17.3413	-3.60784	1.58475	0.094309	-0.0253987	-0.229729	-0.00283237	-47.4878	8.24557	0.565929	-5.45557	2.0866	0.610563	-2.285	0.00238746	-0.183802	0.146094	-4.60022	-2.79374	-0.344324	-2.40763	-0.0336966	-0.225694	0.0555574
3.74858	1.68175	-3.01823	1.63351	-1.10213	-0.207243	-6.90282	34.2944	22.6668	-1.78875	10.0129	70.5149	-12.0811	0.0305439	-20.259	-3.64669	1.66596	2.3301	0.00373686	-0.224548	-0.00591178	-47.4612	7.82598	0.240443	-5.48643	2.00039	0.581078	-2.29839	0.00122731	-0.185566	0.141688	-4.65969	-2.74826	-0.321977	-2.42795	-0.0327248	-0.224987	0.0588878
3.75856	-1.5385	0.565782	-0.23169	-6.48336	-8.34256	-12.8516	37.2632	25.438	-2.03928	8.95009	74.9681	-11.8581	0.0296453	-21.7454	-4.34666	1.76113	3.85436	0.0927806	-0.231913	-0.00999879	-53.567	8.6647	0.0926871	-6.36309	2.13186	0.661278	-2.6671	0.000580156	-0.2203	0.169464	-5.33411	-2.90908	-0.32857	-2.76212	-0.0373655	-0.261387	0.0733864
3.76855	-2.87131	0.423815	0.160924	-11.6723	-15.9976	-19.4622	39.4797	27.1597	-2.1422	8.11199	79.4664	-11.6916	0.0294321	-23.8687	-3.84835	1.6063	5.77976	0.0874071	-0.182187	-0.0122513	-55.9221	7.77043	-0.281359	-6.72771	2.1485	0.680451	-2.81219	6.26509e-05	-0.234456	0.178403	-5.66025	-2.97955	-0.32511	-2.91199	-0.0392197	-0.276473	0.0808679
3.77853	-4.30919	0.289084	1.08346	-15.2445	-19.3847	-25.9031	40.4325	28.9695	-2.25015	7.72744	83.9087	-11.5512	0.0300697	-27.3151	-3.26713	1.43716	8.23338	-0.0331288	-0.107896	-0.0116954	-55.304	6.66705	-0.41399	-6.6764	2.10412	0.663717	-2.78324	-3.85371e-05	-0.231526	0.174243	-5.68589	-2.95823	-0.31665	-2.90617	-0.0386809	-0.274046	0.081234
3.78852	-6.65303	-0.536332	2.68276	-18.582	-21.0117	-32.1402	41.5044	30.5704	-2.35024	7.4594	88.2853	-11.4489	0.0310614	-31.7079	-2.42823	1.26696	10.9664	-0.246131	-0.0119412	-0.00879892	-54.6025	5.36473	-0.44179	-6.61583	2.08988	0.65691	-2.74722	0.000401417	-0.227438	0.171185	-5.72387	-2.96106	-0.316471	-2.9016	-0.0385605	-0.272166	0.0805322
3.7985	-10.646	-2.23675	4.94827	-21.5863	-22.3694	-36.8962	42.5074	31.8031	-2.41007	7.42518	92.5466	-11.3898	0.032141	-37.1387	-1.39721	1.11573	14.0202	-0.546867	0.0982018	-0.00357475	-54.1769	4.07213	-0.57895	-6.58159	2.05413	0.646485	-2.72626	0.000571097	-0.225335	0.168606	-5.78569	-2.95231	-0.311579	-2.91139	-0.0385635	-0.271862	0.0812093
3.80849	-16.3128	-4.59882	7.86187	-24.1111	-21.4849	-39.3374	43.3681	32.6165	-2.42713	7.65808	96.6303	-11.3681	0.0333325	-43.3485	-0.201516	0.96496	17.2631	-0.921406	0.214535	0.00383527	-54.3442	2.93896	-0.709648	-6.62114	2.02735	0.643809	-2.73883	0.000712574	-0.226467	0.16879	-5.90883	-2.95321	-0.307146	-2.95241	-0.0390614	-0.275146	0.0832389
3.81847	-23.1777	-7.1039	11.1994	-26.3536	-20.1373	-40.7441	44.1184	33.203	-2.43401	8.20036	100.472	-11.3655	0.0345486	-49.9695	0.838476	0.811322	20.5474	-1.34217	0.319502	0.0130767	-54.9903	1.90331	-0.871824	-6.72855	2.00416	0.646525	-2.78105	0.000742577	-0.230628	0.171284	-6.0802	-2.95925	-0.301903	-3.01856	-0.0399267	-0.281396	0.0866243
3.82846	-26.1431	-9.19505	13.7253	-28.1649	-18.081	-42.8349	44.4244	33.9	-2.52511	9.05813	103.975	-11.3549	0.036181	-56.2308	1.25157	0.653716	23.6594	-1.81133	0.400981	0.0246227	-51.4702	1.0665	-1.2398	-6.35129	1.80526	0.571794	-2.61633	-0.00020599	-0.216219	0.15365	-5.85692	-2.78106	-0.263602	-2.88091	-0.0365488	-0.263579	0.0847907
3.83844	-29.1159	-11.5319	16.6115	-29.5906	-16.3347	-44.2266	44.6523	34.403	-2.64938	10.2603	107.08	-11.3206	0.0380052	-61.9696	1.72619	0.446694	26.3581	-2.25879	0.46264	0.0363792	-48.269	0.0979061	-1.39729	-6.0281	1.67885	0.522861	-2.46806	-0.000252641	-0.202432	0.140384	-5.69177	-2.66056	-0.241777	-2.76569	-0.0342058	-0.249161	0.0818422
3.84843	-28.5166	-14.4151	18.7329	-30.3895	-12.9468	-45.6625	44.6381	34.8954	-2.88264	11.7512	109.683	-11.2329	0.0401808	-67.8865	2.02861	0.230996	29.349	-3.40653	0.581532	0.0481234	-40.9875	-0.661216	-1.92094	-5.25068	1.35868	0.391583	-2.12376	-0.00153054	-0.171556	0.106927	-5.15687	-2.35224	-0.182244	-2.4572	-0.027628	-0.211555	0.0749605
3.85841	-29.8536	-16.3021	21.0512	-31.6183	-10.7733	-45.8963	44.3048	35.579	-3.18628	13.7579	111.691	-11.0495	0.0424266	-71.3907	2.79768	0.0677712	30.7699	-3.85725	0.646172	0.0575528	-37.9125	-1.55099	-1.60325	-4.9778	1.35405	0.385018	-1.9853	7.15434e-05	-0.156706	0.0999901	-5.05941	-2.3142	-0.187768	-2.36092	-0.0266824	-0.200723	0.0690742
3.8684	-33.8673	-17.0177	23.4592	-31.9439	-9.26107	-44.2595	43.4986	36.3716	-3.53167	16.3524	113.002	-10.749	0.0444158	-73.2512	3.82083	-0.0177095	31.2666	-4.15652	0.708138	0.0638289	-38.9444	-2.23124	-0.779368	-5.26006	1.57085	0.477164	-2.07387	0.00324517	-0.161265	0.117256	-5.42098	-2.47305	-0.232935	-2.48439	-0.0303976	-0.216297	0.0679678
3.87838	-33.3428	-17.5405	24.2221	-31.789	-6.9815	-42.9876	41.9292	37.1145	-3.96598	19.3368	113.477	-10.3246	0.0468177	-72.9482	4.69273	-0.00641997	30.7703	-4.3327	0.768966	0.06793	-37.1247	-2.68339	-0.26474	-5.21658	1.63066	0.50529	-2.02344	0.00537421	-0.153835	0.119421	-5.52892	-2.4876	-0.247536	-2.47399	-0.0309875	-0.215372	0.0645939
3.88837	-28.0437	-17.4888	23.5696	-30.7539	-3.68612	-41.8197	39.7955	37.6922	-4.49365	22.5677	113.008	-9.76893	0.0498791	-70.4622	5.24726	0.0649571	29.3184	-4.36667	0.818134	0.0696845	-32.3967	-3.0073	0.322253	-4.83398	1.61504	0.497247	-1.82352	0.00779782	-0.131878	0.109876	-5.41494	-2.41343	-0.252552	-2.33486	-0.0294352	-0.199525	0.0560871
3.89835	-19.0731	-16.9018	21.806	-28.7369	0.19307	-40.7739	36.8972	38.0672	-5.08634	26.0186	111.495	-9.08031	0.0535856	-66.018	5.52838	0.142987	27.0046	-4.23945	0.843753	0.0689513	-25.2442	-3.26273	1.04073	-4.14247	1.54977	0.463067	-1.49035	0.0107363	-0.096827	0.0908232	-5.09978	-2.27395	-0.254427	-2.0826	-0.0262846	-0.171021	0.0423926
3.90834	-13.3788	-15.9245	20.6449	-25.6574	2.37526	-36.9336	33.9232	37.6194	-5.5568	29.6694	108.914	-8.28737	0.0570346	-60.2383	5.77218	0.191519	23.9877	-3.88653	0.827847	0.0643488	-22.7416	-3.47815	1.83026	-4.07223	1.62185	0.504938	-1.4179	0.0139992	-0.0861931	0.0947582	-5.28315	-2.28583	-0.27562	-2.07578	-0.0274488	-0.170922	0.0377308
3.91832	-13.3295	-11.9654	19.4264	-22.4453	3.61504	-29.5554	31.252	37.0239	-5.94	33.3911	105.235	-7.39077	0.0593992	-53.7521	5.42773	0.208893	20.4952	-3.28169	0.740229	0.0556329	-27.4735	-2.44174	2.70339	-4.97302	1.84958	0.643557	-1.76088	0.0163118	-0.115227	0.131591	-6.13827	-2.44985	-0.305525	-2.41802	-0.0336105	-0.210817	0.0483378
3.92831	-9.39777	-7.90764	16.8544	-16.8148	5.26732	-22.1435	28.5296	35.6761	-6.17445	36.6614	100.384	-6.44182	0.0619398	-46.9601	3.90506	0.235492	16.6238	-2.26667	0.434204	0.0451091	-28.3855	-0.843168	2.60838	-5.37396	1.73762	0.64981	-1.90733	0.0153081	-0.129795	0.14148	-6.53715	-2.32654	-0.26472	-2.55003	-0.0340109	-0.224204	0.058917
3.93829	-8.50992	-4.95012	14.8532	-10.0459	4.8188	-13.5682	26.7442	33.9511	-6.28729	39.4187	94.4464	-5.47622	0.0632492	-42.7556	3.38312	0.338166	14.1084	-1.54642	0.335441	0.0316333	-30.203	1.21563	2.13955	-5.92465	1.57043	0.643019	-2.11979	0.012702	-0.152643	0.15304	-6.94738	-2.15737	-0.203405	-2.70655	-0.0339052	-0.240458	0.0741668
3.94828	-5.16499	-3.07941	12.1738	-2.27571	2.80746	-4.08433	25.4829	31.53	-6.20255	41.4207	87.4618	-4.54118	0.0636876	-38.372	2.91278	0.44619	11.4288	-0.458211	0.0114796	0.0181268	-29.9582	3.56116	1.06087	-6.21277	1.22496	0.562448	-2.22867	0.00801621	-0.168329	0.149716	-7.06666	-1.83624	-0.103183	-2.7383	-0.0304544	-0.24144	0.0893981
3.95826	-1.05813	-1.40374	9.78504	0.43556	-1.18069	2.91561	24.6787	28.952	-5.98441	42.5763	79.5558	-3.66169	0.0628073	-34.09	2.32757	0.508771	8.97848	0.719709	-0.432727	0.00647439	-28.593	5.26447	0.101221	-6.18309	0.899062	0.469092	-2.22053	0.00384757	-0.173109	0.13901	-6.88297	-1.5189	-0.0182906	-2.65559	-0.026213	-0.231421	0.0978355
3.96825	-0.246311	1.41777	8.0788	-0.502078	-0.00430881	0.674519	24.9976	26.9684	-5.75396	42.7898	70.9596	-2.86462	0.0593166	-29.7191	1.38545	0.527802	6.46932	2.01326	-1.01811	-0.00374556	-31.9706	5.63844	-0.558854	-6.77262	0.893114	0.490258	-2.45604	0.00133588	-0.199092	0.154078	-7.11115	-1.52095	0.00474295	-2.79544	-0.0273266	-0.248901	0.109689
3.97823	0.156051	2.57633	7.3814	-1.2311	0.169864	1.67992	25.1687	23.838	-5.16419	42.0804	61.892	-2.22303	0.0536223	-25.5713	0.884757	0.550094	4.18762	3.34905	-1.724	-0.0109802	-34.4099	5.67047	-1.0936	-7.09377	0.879585	0.497533	-2.59602	-0.000757537	-0.216146	0.162848	-7.12763	-1.50568	0.019682	-2.85203	-0.0278241	-0.258135	0.116652
3.98822	-0.976735	3.78338	6.25972	-1.55568	1.73906	0.698125	26.4094	20.9126	-4.56687	40.2809	52.7101	-1.72376	0.0440348	-20.6093	0.734296	0.595708	1.64601	4.77397	-2.5423	-0.0164317	-40.7911	5.64411	-1.76929	-8.01926	0.990339	0.564375	-2.97764	-0.00331103	-0.256286	0.190511	-7.55367	-1.63447	0.0229048	-3.11567	-0.0314197	-0.290748	0.132448
3.9982	-1.74845	4.10315	5.62231	-0.207161	-1.05561	1.36377	27.4478	17.4944	-3.76231	37.5713	43.7005	-1.37859	0.0311094	-15.6112	0.807346	0.682578	-0.725099	6.23022	-3.4569	-0.0188911	-45.8552	5.42811	-2.19003	-8.68358	1.11147	0.62521	-3.25845	-0.00503493	-0.286371	0.212827	-7.79547	-1.75203	0.0146003	-3.29562	-0.0345073	-0.315183	0.142708
4.00819	4.9415	6.01237	3.29299	-0.324096	-1.06279	1.23467	28.461	14.9257	-3.08222	33.4542	35.1305	-1.1309	0.0165313	-9.01026	0.124308	0.775028	-3.36317	7.71578	-4.46398	-0.0177993	-45.3267	5.58264	-1.87867	-8.53291	1.19638	0.641651	-3.20262	-0.00481776	-0.282035	0.213231	-7.46268	-1.75934	-0.00595459	-3.18181	-0.0340037	-0.307593	0.136489
4.01817	17.9431	8.46793	-0.490755	-0.179712	1.30483	0.585336	29.9533	12.9916	-2.56295	28.0386	27.3322	-0.973913	0.000328452	-1.33123	-1.09734	0.864572	-6.10776	9.24694	-5.52927	-0.0143593	-40.5496	6.08343	-1.51081	-7.85733	1.15545	0.596281	-2.92485	-0.00447835	-0.256218	0.194829	-6.76734	-1.62501	-0.0085064	-2.87199	-0.0299952	-0.276782	0.122784
4.02816	35.6184	10.5251	-4.63278	-1.50148	3.47687	-0.0425295	31.4695	11.5147	-2.1938	21.6083	20.5325	-0.888195	-0.016399	7.08688	-2.44454	0.931309	-8.80408	10.816	-6.60814	-0.00926277	-31.7781	6.1985	-0.963635	-6.5777	1.02847	0.500024	-2.40161	-0.00319711	-0.206342	0.158158	-5.67911	-1.39115	-0.009386	-2.36121	-0.0233195	-0.223188	0.0992296
4.03814	56.6207	11.4613	-8.2507	-0.00526249	2.18887	-0.147279	32.4352	10.0311	-1.8658	14.4885	14.8714	-0.860101	-0.032027	15.6132	-3.74761	0.975643	-11.2628	12.4156	-7.66518	-0.0033311	-18.5382	5.65034	-0.241345	-4.6836	0.81661	0.355029	-1.6212	-0.000655118	-0.131157	0.103329	-4.2124	-1.05815	-0.00988717	-1.64509	-0.0140864	-0.146524	0.0654988
4.04813	75.6676	13.034	-11.6998	-0.376688	2.91436	-1.30619	33.3709	9.02258	-1.75896	7.05299	10.4318	-0.853563	-0.0461173	23.5036	-5.28456	1.01391	-13.4206	14.0472	-8.68437	0.00252457	-6.8514	4.88937	0.487533	-2.92865	0.641926	0.226878	-0.906837	0.00189951	-0.062056	0.0535676	-2.85328	-0.773805	-0.0172889	-0.992551	-0.00597346	-0.0768721	0.0337244
4.05811	75.4689	17.8505	-13.1549	0.0430906	10.1655	-6.9765	33.7359	8.9016	-1.99248	0.235493	7.21164	-0.834065	-0.0595244	28.829	-6.96846	0.993494	-15.0215	15.7741	-9.66762	0.00546189	-12.1036	3.10373	1.75905	-3.20608	1.0675	0.381345	-1.04646	0.00653562	-0.0714922	0.0812617	-3.13048	-1.14211	-0.126208	-1.16506	-0.0134046	-0.102897	0.0276648
4.0681	74.2479	20.8934	-14.5824	1.95346	5.53151	-2.03358	34.0478	8.29987	-2.15886	-6.1544	5.06847	-0.822017	-0.0699346	33.7926	-7.41204	0.908602	-16.3734	17.5091	-10.5483	0.00745478	-17.5335	2.6413	2.47168	-3.47355	1.2589	0.473662	-1.20869	0.00850696	-0.0863913	0.102835	-3.40593	-1.30844	-0.178254	-1.34414	-0.0189031	-0.127709	0.0289897
4.07808	72.4242	23.0396	-15.6025	-1.77364	0.999209	1.29283	34.1438	8.13211	-2.42669	-12.0089	3.76678	-0.782366	-0.075358	38.5397	-7.46217	0.793324	-17.5748	19.2127	-11.329	0.00951657	-23.1515	1.43324	3.02819	-3.61317	1.4367	0.554127	-1.33341	0.0105676	-0.098265	0.120777	-3.61628	-1.49288	-0.235645	-1.50878	-0.0246034	-0.150775	0.0290362
4.08807	69.3826	24.0219	-16.0902	0.336613	0.534481	-0.0229302	32.8818	7.95115	-2.58634	-16.937	3.05431	-0.715834	-0.0747356	42.2547	-7.21205	0.665801	-18.4446	20.8676	-12.0116	0.0116487	-27.4014	-0.363383	3.32713	-3.71529	1.60118	0.621982	-1.41891	0.0127047	-0.106281	0.134724	-3.82273	-1.68911	-0.290187	-1.64879	-0.0297073	-0.169908	0.0286184
4.09805	65.8881	23.8463	-16.2333	-0.868477	-0.71182	-0.203487	30.9488	7.75785	-2.69246	-20.7915	2.74911	-0.617231	-0.0696313	45.5872	-6.26111	0.510254	-19.1006	22.4781	-12.5961	0.0136973	-30.9776	-2.14349	3.4214	-3.65733	1.69699	0.658646	-1.44944	0.0141638	-0.109997	0.141698	-3.8867	-1.83045	-0.332615	-1.73422	-0.033575	-0.182336	0.0273038
4.10804	63.0798	22.644	-16.0293	-0.822795	-1.24189	0.134832	28.5752	7.24067	-2.67131	-23.5932	2.69423	-0.505112	-0.0617613	48.1211	-4.89101	0.356394	-19.4438	24.0407	-13.0998	0.0157548	-32.627	-3.65287	3.36127	-3.4447	1.72476	0.662422	-1.4054	0.0150563	-0.106854	0.140449	-3.80199	-1.90101	-0.358733	-1.73857	-0.0354417	-0.184622	0.0243695
4.11802	61.8674	21.1846	-16.0431	-0.768038	-1.19222	0.224939	25.9352	6.72166	-2.65876	-25.3357	2.75079	-0.379805	-0.0526715	50.2988	-3.38458	0.218111	-19.6185	25.5684	-13.54	0.0177887	-32.3495	-4.71435	3.25243	-3.09783	1.70427	0.639593	-1.29279	0.0154776	-0.0970525	0.132003	-3.56358	-1.90723	-0.371244	-1.65952	-0.0352852	-0.17673	0.0193261
4.12801	62.3076	20.1181	-16.5973	-1.10693	-0.718197	-0.0660458	23.2114	6.44406	-2.76522	-26.083	2.80994	-0.243667	-0.0433283	51.7558	-1.9078	0.119565	-19.4947	27.0567	-13.9295	0.0198883	-29.9838	-5.13764	3.17252	-2.59536	1.63759	0.589377	-1.10425	0.0153878	-0.0797291	0.115838	-3.13227	-1.83993	-0.370104	-1.48182	-0.0328212	-0.157114	0.01141
4.13799	60.7873	19.5876	-17.1758	-1.60984	-0.08721	-1.06221	20.616	6.29569	-2.95088	-25.8693	2.80849	-0.108266	-0.0344652	52.4675	-0.487109	0.0363129	-19.1479	28.5425	-14.2815	0.0211186	-29.5461	-5.24298	3.13986	-2.41783	1.64733	0.575002	-1.04015	0.0153041	-0.073652	0.109914	-2.93899	-1.85084	-0.376828	-1.41384	-0.0319592	-0.149584	0.00764912
4.14798	57.1553	20.0425	-18.1653	-1.65073	0.548094	-2.24381	18.5059	6.33577	-3.23416	-24.9573	2.71456	0.0190463	-0.0264108	51.4013	0.666172	0.00439439	-18.2182	30.0036	-14.5997	0.021774	-30.5214	-4.57793	3.0081	-2.50894	1.66701	0.572448	-1.08188	0.0143907	-0.077804	0.110093	-2.91214	-1.87641	-0.374913	-1.42598	-0.0315473	-0.150123	0.00876882
4.15796	53.0593	20.6223	-19.1195	0.359664	0.99229	-2.8564	15.9473	6.48107	-3.46024	-23.4541	2.48752	0.128418	-0.018475	50.4308	2.03849	-0.052016	-17.2375	31.4643	-14.859	0.021667	-32.0974	-3.63332	3.03326	-2.78778	1.74433	0.596605	-1.18542	0.0139569	-0.086654	0.116497	-3.06384	-1.95348	-0.380526	-1.50222	-0.0321252	-0.157393	0.0115697
4.16795	48.2094	21.236	-19.3825	0.92386	0.925047	-1.139	13.1523	6.43852	-3.49176	-21.7156	2.15216	0.20378	-0.0108103	49.7453	3.7474	-0.160462	-16.1904	32.9136	-15.0443	0.0211182	-34.7892	-2.62326	3.51807	-3.17425	1.93383	0.664992	-1.33213	0.0149538	-0.0977021	0.130737	-3.36456	-2.12364	-0.412987	-1.63969	-0.0346209	-0.172318	0.0131247
4.17793	39.4591	21.8541	-18.4819	0.226681	1.2844	-0.169011	9.56738	6.31065	-3.29846	-19.7431	1.72123	0.247027	-0.00332181	48.9151	5.73152	-0.31418	-14.9944	34.3421	-15.1454	0.020181	-40.3822	-2.24012	4.46894	-3.78351	2.31174	0.807101	-1.5767	0.0180533	-0.116149	0.159387	-3.93608	-2.48274	-0.492795	-1.90851	-0.0410803	-0.203762	0.0143952
4.18792	33.4431	21.7825	-16.9135	-0.0842796	2.8028	0.698836	6.23134	5.9904	-3.04624	-17.7893	1.2674	0.262683	0.00282521	48.3783	7.8423	-0.492131	-13.8066	35.7263	-15.1557	0.0195806	-43.8295	-2.30595	5.57349	-4.17463	2.6898	0.938906	-1.71688	0.0220358	-0.123527	0.181631	-4.38106	-2.82897	-0.578481	-2.09409	-0.0465718	-0.225708	0.0107376
4.1979	29.0718	21.4202	-14.7928	0.0921278	2.41662	0.872123	3.15003	5.58438	-2.75798	-15.8238	0.828133	0.256583	0.0073342	47.5956	9.90397	-0.669461	-12.4862	37.0636	-15.0806	0.0193076	-45.4329	-2.76997	6.79829	-4.34739	3.05727	1.05817	-1.75979	0.0266473	-0.121039	0.197749	-4.67556	-3.15037	-0.667808	-2.19567	-0.0510873	-0.238525	0.00258337
4.20789	26.0677	20.3707	-11.9097	-0.216837	4.54285	2.06942	0.0526201	4.95012	-2.27525	-12.8819	-0.232327	0.175979	0.010565	46.8517	12.0211	-0.849353	-11.2121	38.3554	-14.9214	0.0196175	-45.9672	-3.51061	7.98296	-4.4085	3.39462	1.16271	-1.7508	0.0314215	-0.113284	0.209303	-4.92182	-3.44697	-0.753011	-2.26038	-0.0548911	-0.246379	-0.00704366
4.21787	24.8201	19.318	-9.38987	-0.927871	5.27462	3.39082	-2.11404	4.31026	-1.94729	-11.5591	-0.302759	0.165371	0.0122425	46.1182	14.0226	-1.01947	-9.96349	39.6372	-14.6938	0.0199562	-45.3204	-4.19624	9.01546	-4.30243	3.65318	1.23562	-1.67953	0.0355089	-0.100643	0.214047	-4.99781	-3.66091	-0.822347	-2.25236	-0.0571408	-0.2461	-0.0177976
4.22786	25.888	18.6441	-7.3237	0.891998	0.245596	1.25011	-3.94602	3.99746	-1.70126	-10.0741	-0.32057	0.149385	0.0122603	45.3676	15.5443	-1.14491	-8.80159	40.9364	-14.4156	0.0202381	-42.3874	-4.99439	9.83446	-4.03789	3.82864	1.27257	-1.52889	0.0388693	-0.0812643	0.210539	-4.88731	-3.7817	-0.87133	-2.14643	-0.057152	-0.234562	-0.03001
4.23784	28.2749	17.6565	-5.7033	0.359648	-1.53777	1.59358	-5.55335	3.51092	-1.3917	-8.53516	-0.297601	0.116835	0.0111649	44.7489	17.1179	-1.25242	-7.77791	42.2555	-14.0804	0.0209855	-38.7536	-5.12846	10.2825	-3.70706	3.87798	1.26288	-1.36027	0.0403728	-0.06182	0.199686	-4.64159	-3.78545	-0.886915	-1.99245	-0.0549535	-0.216163	-0.0400453
4.24783	32.3704	16.09	-4.16233	0.667114	-1.77458	2.74246	-6.89301	2.88614	-1.04282	-6.97781	-0.234164	0.0707545	0.00888473	44.0609	18.7437	-1.33903	-6.84284	43.6269	-13.6975	0.0221565	-33.6979	-5.14995	10.3603	-3.28421	3.8151	1.20978	-1.14926	0.0405293	-0.0395895	0.180941	-4.26733	-3.68697	-0.873689	-1.77748	-0.0506063	-0.189551	-0.0489915
4.25781	28.6375	15.0187	-3.54924	-0.796176	-0.599777	1.18122	-9.2033	2.41881	-0.535017	-5.2923	-0.147717	0.00904492	0.00558777	43.6034	20.3508	-1.40059	-6.10946	45.1333	-13.2782	0.0227181	-35.8387	-4.39247	10.1454	-3.64176	3.88142	1.23421	-1.27983	0.0400178	-0.0513613	0.188584	-4.51485	-3.77862	-0.876552	-1.89329	-0.0517284	-0.200515	-0.0438944
4.2678	26.4322	13.915	-3.25384	-0.95784	-1.79136	0.302286	-11.4751	2.03869	-0.0716171	-3.5055	-0.0428037	-0.0501024	0.00145332	43.2777	21.9292	-1.42744	-5.48946	46.7809	-12.8358	0.0234609	-36.5173	-3.47441	9.79377	-3.89038	3.87469	1.23023	-1.36016	0.0388555	-0.058942	0.190252	-4.64637	-3.7912	-0.861465	-1.94804	-0.0512206	-0.204077	-0.0392481
4.27778	15.1809	11.6513	-3.5264	-0.781647	1.06855	0.58239	-14.9716	1.34011	0.556355	-1.63829	0.0773434	-0.124389	-0.00342364	43.1624	24.1559	-1.466	-5.05721	48.6351	-12.3612	0.0235786	-45.4242	-1.78442	8.97237	-5.02381	3.98308	1.30851	-1.82596	0.0371163	-0.10501	0.22119	-5.58922	-4.01374	-0.859519	-2.40869	-0.0573111	-0.252583	-0.0169565
4.28777	5.69391	7.80421	-3.11854	1.60638	-0.933746	5.2501	-18.4987	0.201988	1.17566	0.271445	0.215157	-0.200682	-0.00896132	43.3988	27.2254	-1.54166	-4.75347	50.7091	-11.8658	0.0236044	-52.7427	-0.315494	8.2704	-5.99225	4.06643	1.37635	-2.21684	0.0359448	-0.143492	0.247721	-6.45798	-4.19625	-0.85578	-2.81257	-0.0626814	-0.294808	0.00262263
4.29775	1.98371	4.92177	-2.36771	0.205636	-2.23333	4.36931	-21.0266	-0.145584	1.43976	2.07994	0.336896	-0.240205	-0.0144268	44.2095	29.8808	-1.59311	-4.7191	53.0196	-11.3951	0.0244015	-56.0624	-0.0557829	8.05248	-6.49253	4.21776	1.43423	-2.39253	0.0364762	-0.159101	0.262074	-6.89322	-4.3866	-0.87737	-3.00114	-0.0657717	-0.314421	0.00907321
4.30774	1.46662	2.90757	-1.70048	-0.590952	-2.74503	2.51628	-23.8526	0.191354	1.48264	4.14685	0.394787	-0.243712	-0.018717	44.9558	32.3743	-1.64056	-4.71614	55.5819	-10.9521	0.0259395	-55.7279	-0.182219	8.00439	-6.61259	4.3243	1.45472	-2.3996	0.0371056	-0.157917	0.263177	-6.94629	-4.48871	-0.8928	-3.00325	-0.0657337	-0.313341	0.00764435
4.31772	2.04833	2.17516	-1.43835	-0.561739	-2.30814	0.369431	-27.5558	1.29801	1.38115	6.62063	0.353029	-0.211398	-0.020843	45.1656	34.6709	-1.68516	-4.57293	58.4163	-10.5374	0.0280342	-52.5397	-0.295816	8.04901	-6.42604	4.36707	1.43625	-2.27854	0.0372434	-0.14448	0.252828	-6.64909	-4.49038	-0.895935	-2.84751	-0.0627406	-0.294773	0.000512543
4.32771	2.27322	1.38444	-1.59955	-0.245397	-2.69762	0.357611	-31.985	2.60233	1.28381	9.25718	0.228793	-0.161704	-0.0208038	45.9181	37.4223	-1.77086	-4.56612	61.573	-10.1303	0.0301241	-49.5089	-0.00323248	7.80713	-6.30849	4.33162	1.39788	-2.18909	0.0362365	-0.135354	0.241591	-6.38793	-4.43144	-0.877315	-2.71123	-0.0591711	-0.277498	-0.00282179
4.33769	-158.23	-62.4543	-57.6383	124.306	2331.13	1057.16	-128.004	-64.1748	9.77043	16.1277	-4.64788	-0.874994	0.114353	21.1118	111.861	-6.90763	-8.55322	59.3787	-7.6163	0.154555	-200.478	169.684	6.48816	-32.1042	1.63887	1.67633	-13.394	-0.0583059	-1.1391	0.692985	-30.7878	-3.1601	0.75972	-13.4817	-0.0918552	-1.18825	0.581742
4.34768	-102.664	-37.5899	-43.2107	66.5186	1479.38	690.639	-102.173	-37.9202	5.86011	19.0875	-3.26209	-0.505732	0.0700485	33.6712	87.9595	-5.09183	-8.06667	65.3083	-8.98953	0.112124	-142.873	113.156	6.34219	-22.7942	2.35875	1.48126	-9.35546	-0.0290233	-0.780367	0.516082	-21.6582	-3.34445	0.247144	-9.47963	-0.0742847	-0.843375	0.375754
4.35766	-59.9832	-16.7875	-31.5147	16.6373	796.658	402.864	-81.8654	-17.0713	3.26827	20.9586	-2.28325	-0.201249	0.0394258	43.749	68.9154	-3.4626	-7.25015	71.0612	-10.8902	0.0782976	-98.378	68.5567	6.00006	-15.3909	2.81591	1.2963	-6.17368	-0.00732323	-0.499929	0.37354	-14.3684	-3.39075	-0.13285	-6.30904	-0.0595319	-0.570007	0.215955
4.36765	-31.034	-0.168861	-22.9472	-26.458	290.329	186.357	-67.7811	-1.15617	1.68076	22.3477	-1.71671	0.0459009	0.0218877	51.5753	54.5104	-2.07795	-6.21797	76.5056	-13.0492	0.0535344	-67.632	35.2129	5.65901	-9.9809	3.18197	1.1696	-3.86423	0.00857681	-0.297382	0.271453	-9.00628	-3.47428	-0.422294	-4.00631	-0.0496692	-0.373221	0.0990789
4.37763	-13.7453	12.559	-17.4427	-64.2495	-71.9798	29.6145	-58.921	10.4802	0.773186	23.5098	-1.46477	0.236962	0.0143341	57.5903	43.9358	-0.93142	-4.96701	81.603	-15.2718	0.0361703	-48.3383	11.4517	5.26634	-6.2288	3.46302	1.09036	-2.28403	0.0196197	-0.160318	0.203251	-5.265	-3.58457	-0.635155	-2.43457	-0.04408	-0.241241	0.018524
4.38762	-1.67363	22.0025	-13.4761	-83.4342	-322.106	-73.7538	-54.763	18.243	0.324419	24.7596	-1.45661	0.373222	0.0143779	60.6819	36.6802	-0.101072	-3.21621	86.2804	-17.3905	0.0246961	-31.3888	-5.07451	5.32512	-3.34162	3.58686	1.00136	-1.05603	0.0271483	-0.0516026	0.145374	-2.3798	-3.53519	-0.767282	-1.18534	-0.0370028	-0.131729	-0.043306
4.3976	2.15777	27.9042	-12.2484	-102.32	-471.533	-136.421	-53.8978	22.82	0.136161	25.846	-1.59915	0.457066	0.0192981	62.9514	32.1232	0.469831	-1.38169	90.4889	-19.278	0.0185558	-23.3577	-14.6973	5.08213	-1.69987	3.64442	0.945888	-0.379121	0.0309299	0.00650703	0.113072	-0.711138	-3.52643	-0.843859	-0.496182	-0.0336548	-0.0726635	-0.0769167
4.40759	1.51545	31.1118	-12.5295	-116.667	-549.019	-167.142	-55.025	25.0253	0.104303	26.7105	-1.81785	0.505884	0.0266873	64.1015	29.8403	0.765212	0.692242	94.1721	-20.8358	0.0161177	-20.0493	-19.3183	4.88075	-0.870815	3.65441	0.913438	-0.050531	0.0324934	0.0338754	0.096928	0.138911	-3.51612	-0.880375	-0.15978	-0.0321602	-0.0443406	-0.0929563
4.41757	3.87578	33.5689	-12.7741	-112.778	-585.56	-173.928	-56.9876	25.5506	0.147345	27.2765	-2.0607	0.53323	0.034917	62.9996	28.4986	0.803794	3.19338	97.255	-22.0243	0.0162427	-11.9014	-21.4402	4.93768	-0.0428632	3.45892	0.815583	0.31299	0.0318538	0.0669711	0.0689351	1.02346	-3.2402	-0.84888	0.264536	-0.0252281	1.83792e-05	-0.10716
4.42756	1.33012	33.4095	-15.6528	-123.422	-577.71	-165.651	-57.6681	24.8501	0.182923	27.0395	-2.26935	0.545282	0.0426068	62.6996	28.4838	0.655638	5.55973	99.6824	-22.7797	0.0187337	-13.4988	-18.947	3.62486	-0.315336	3.1342	0.723603	0.168112	0.0265274	0.0474758	0.0633745	0.906613	-3.00603	-0.757423	0.171739	-0.0227204	-0.00558204	-0.0907893
4.43754	1.54885	31.9372	-17.9755	-127.829	-552.643	-145.641	-57.243	22.9052	0.213297	26.1519	-2.41459	0.532065	0.0487676	61.2948	29.1256	0.28576	8.1737	101.362	-23.0887	0.0222758	-13.1668	-15.2716	2.34659	-0.630446	2.70742	0.601898	0.0208372	0.0200362	0.0284579	0.0534254	0.762998	-2.65008	-0.632126	0.0990752	-0.0179783	-0.00602807	-0.0722071
4.44753	5.56425	29.8329	-19.9013	-124.141	-519.922	-118.03	-55.4911	20.1415	0.216881	24.662	-2.46963	0.496128	0.0524133	59.0256	29.8862	-0.260132	10.9338	102.207	-22.9597	0.0266436	-9.80427	-10.883	0.820496	-0.931858	2.11043	0.42554	-0.0972731	0.0116235	0.0115845	0.0348779	0.686763	-2.10843	-0.455614	0.0929921	-0.00978156	0.0037912	-0.0506501
4.45751	11.8408	27.3468	-21.784	-117.231	-480.22	-87.6104	-52.3773	16.9788	0.199259	22.6238	-2.42743	0.443707	0.0531007	56.411	30.5232	-0.924556	13.6863	102.139	-22.4087	0.0317009	-5.58755	-5.88657	-1.06439	-1.34896	1.40509	0.218106	-0.249069	0.00158795	-0.00957415	0.0136896	0.555666	-1.46887	-0.243225	0.0775611	-7.57372e-06	0.0147384	-0.0240934
4.4675	13.6158	22.9297	-25.2172	-126.805	-423.38	-61.2253	-47.7768	13.4289	0.172633	20.0246	-2.27854	0.371253	0.0505872	55.4757	31.051	-1.57114	15.9902	101.118	-21.4683	0.03711	-10.7186	0.615504	-3.87999	-2.57739	0.782622	0.0711483	-0.774033	-0.00951484	-0.069144	0.0170894	-0.389641	-1.0555	-0.0389012	-0.365513	0.00301985	-0.0198293	0.021774
4.47749	16.8387	18.1706	-27.3874	-133.078	-366.768	-37.8779	-42.7864	9.59463	0.185089	17.2523	-2.02601	0.276741	0.0446009	54.616	31.3016	-2.22342	18.0594	99.0586	-20.1743	0.0420443	-15.0546	5.96911	-6.04708	-3.7082	0.311202	-0.0297228	-1.23781	-0.0180563	-0.120112	0.0239643	-1.31392	-0.748358	0.12353	-0.771381	0.00480879	-0.0524918	0.0603514
4.48747	22.0769	14.0614	-28.437	-120.824	-316.898	-12.5618	-39.0804	5.8274	0.238521	14.9306	-1.68979	0.161455	0.0351654	52.021	31.1105	-2.87581	20.0916	95.8635	-18.569	0.046621	-13.0384	10.0697	-7.49447	-4.36945	-0.186622	-0.155612	-1.46706	-0.0253672	-0.146376	0.0175859	-1.78095	-0.306196	0.287592	-0.911292	0.0105942	-0.0573313	0.0865041
4.49746	23.9652	10.3119	-29.852	-114.328	-257.051	5.14551	-36.1131	2.83448	0.336714	12.8999	-1.29196	0.0453911	0.0229354	50.8842	30.4004	-3.38081	21.4439	91.5723	-16.7385	0.0504991	-15.7021	13.8236	-8.67111	-5.32077	-0.461064	-0.195317	-1.82524	-0.0302437	-0.183275	0.0283067	-2.64554	-0.115818	0.395569	-1.24341	0.0110806	-0.0850615	0.114284
4.50744	21.1844	7.35159	-31.5994	-117.343	-184.618	13.0621	-34.0442	0.958024	0.448254	11.21	-0.895968	-0.0577565	0.0102308	51.6062	29.1218	-3.67198	22.0099	86.2269	-14.7592	0.0526742	-24.7399	17.0261	-9.30032	-6.60065	-0.405567	-0.110823	-2.33878	-0.0312992	-0.232138	0.0622041	-4.01743	-0.286571	0.416857	-1.82543	0.00407993	-0.143116	0.142122
4.51743	20.0966	5.50988	-31.4155	-109.534	-114.386	17.0279	-32.8606	-0.0587682	0.513888	9.90761	-0.56189	-0.143601	-0.000432506	51.7226	27.4803	-3.82901	22.0575	79.8274	-12.6811	0.053143	-29.8704	17.8902	-8.79985	-7.40557	-0.178997	0.011815	-2.62656	-0.0283591	-0.254898	0.0911715	-5.06353	-0.532814	0.380498	-2.21218	-0.00258611	-0.183091	0.152948
4.52741	19.5989	5.34461	-30.4475	-99.538	-42.6049	16.1907	-31.7323	-0.00143189	0.499714	8.66915	-0.299067	-0.198834	-0.0084836	52.1218	25.3027	-3.80101	21.4217	72.5162	-10.598	0.05157	-34.1968	17.5381	-7.62594	-7.99823	0.183004	0.172816	-2.82181	-0.0227599	-0.266141	0.121166	-6.01809	-0.873161	0.300104	-2.54141	-0.0103962	-0.219011	0.155011
4.5374	18.0146	6.32449	-29.0791	-90.4246	32.6095	9.97533	-30.8331	0.794728	0.445547	7.50445	-0.118857	-0.225964	-0.0135958	52.7485	22.3949	-3.54131	20.122	64.4946	-8.59726	0.0474814	-39.2499	16.0856	-5.92192	-8.4643	0.697838	0.380348	-2.97145	-0.0146183	-0.270846	0.155227	-6.97077	-1.35158	0.170756	-2.87028	-0.0204361	-0.257124	0.150463
4.54738	19.1975	7.11438	-26.6643	-71.7804	101.407	5.71121	-29.8561	1.74573	0.35009	6.40856	-0.0155642	-0.231708	-0.0158356	52.16	19.7304	-3.23378	18.2447	55.9794	-6.71682	0.0410301	-39.4406	13.6241	-4.24563	-8.49041	1.07641	0.52474	-2.92637	-0.00708211	-0.25749	0.172562	-7.4753	-1.65696	0.0671215	-2.97631	-0.0262993	-0.270641	0.139099
4.55737	18.6186	7.84723	-23.8736	-56.4481	171.936	-0.785456	-28.9395	2.68434	0.238604	5.38784	0.0177219	-0.224528	-0.0155748	51.4204	16.9243	-2.81738	15.7383	47.3266	-5.04854	0.0316844	-40.9943	10.7061	-2.16999	-8.48386	1.59094	0.711626	-2.8808	0.00217126	-0.242661	0.195275	-8.0001	-2.09546	-0.0781746	-3.10746	-0.0343391	-0.288944	0.12351
4.56735	19.9828	7.94971	-20.6739	-30.9649	231.379	-2.21397	-28.146	3.36888	0.0921186	4.6123	-0.00595876	-0.209187	-0.0134077	48.7114	14.627	-2.3753	12.8381	38.8149	-3.61708	0.0206031	-37.1985	7.76069	-0.33415	-8.07619	1.89303	0.808836	-2.66018	0.00919675	-0.213042	0.19857	-7.9874	-2.28452	-0.173684	-2.99099	-0.0366797	-0.279433	0.103478
4.57734	14.1424	8.05999	-18.0599	-29.75	303.045	-11.8315	-26.8626	4.08082	-0.0548572	3.65972	-0.0546612	-0.188087	-0.0102981	48.0197	12.2594	-1.92433	9.13586	30.9149	-2.4989	0.00603904	-44.3369	5.46994	1.87894	-8.35646	2.59786	1.06476	-2.77802	0.0191865	-0.213978	0.237092	-8.74371	-2.95838	-0.369423	-3.29952	-0.0493945	-0.319816	0.0902537
4.58732	6.62172	8.6645	-15.4805	-32.9028	371.786	-22.0687	-25.7156	4.76732	-0.154145	2.8549	-0.142116	-0.158232	-0.00619979	47.3093	10.2445	-1.55381	5.02131	23.8387	-1.66729	-0.0102821	-52.711	3.67082	4.44015	-8.7205	3.40575	1.3545	-2.94134	0.029652	-0.218473	0.281687	-9.50723	-3.72442	-0.591382	-3.63694	-0.063389	-0.365082	0.0751938
4.59731	1.41821	8.19528	-12.5841	-30.089	428.25	-27.4105	-24.6844	4.85953	-0.201752	2.24737	-0.254819	-0.134868	-0.0012895	45.5721	9.32574	-1.41868	0.652364	17.7381	-1.07434	-0.0262374	-56.8805	2.35308	6.6286	-8.84813	4.0133	1.56144	-2.99645	0.0372928	-0.214988	0.310435	-9.82548	-4.26545	-0.760405	-3.77952	-0.0721244	-0.387984	0.0588087
4.60729	-1.13974	6.57752	-9.83104	-19.4123	471.673	-25.9302	-23.91	4.27397	-0.197891	1.87464	-0.388279	-0.122399	0.00433	42.7512	9.59269	-1.53005	-3.84914	12.7298	-0.686642	-0.0405951	-56.2345	2.11355	8.25115	-8.76142	4.34555	1.66172	-2.94913	0.0409978	-0.204995	0.320559	-9.66383	-4.5028	-0.85253	-3.70966	-0.0742862	-0.385665	0.0434661
4.61728	0.58164	4.37339	-7.25572	0.484492	501.388	-18.8217	-23.0815	3.46067	-0.176793	1.68083	-0.532275	-0.10864	0.0101552	39.2406	10.9799	-1.86886	-8.46529	8.85551	-0.467232	-0.0525194	-49.8502	2.77797	9.32975	-8.4121	4.39259	1.65003	-2.76812	0.040963	-0.185159	0.310021	-8.987	-4.41715	-0.864988	-3.3967	-0.0693139	-0.354527	0.0280546
4.62726	-2.65381	2.97298	-5.3388	2.70224	536.204	-17.7953	-21.9708	2.81484	-0.126478	1.38133	-0.67223	-0.0920188	0.0156977	37.2902	12.2369	-2.29485	-13.1427	6.1383	-0.401162	-0.0629398	-51.0577	4.04451	10.7529	-8.57959	4.728	1.75202	-2.83617	0.0427817	-0.187794	0.324928	-8.83145	-4.65891	-0.944724	-3.37573	-0.0712763	-0.357851	0.0176059
4.63725	-4.1491	1.86747	-3.05583	6.08294	563.347	-17.8955	-20.579	2.52322	-0.0865962	1.1286	-0.807994	-0.0623649	0.0207049	35.2537	13.873	-2.83137	-17.5401	4.36126	-0.411757	-0.0698127	-50.451	4.89133	12.2261	-8.59951	5.04813	1.8391	-2.83202	0.0446278	-0.183368	0.334538	-8.49085	-4.86573	-1.02225	-3.26509	-0.0718046	-0.351651	0.00362311
4.64723	-4.21364	1.26755	-0.823102	14.3862	581.757	-19.3012	-19.1281	2.62719	-0.0726006	0.997953	-0.936068	-0.0200421	0.0249703	32.4415	15.2413	-3.29118	-21.3368	3.30304	-0.465872	-0.0721144	-47.0843	5.2104	13.4716	-8.39829	5.26583	1.88111	-2.72326	0.0457752	-0.169763	0.333688	-7.90829	-4.96043	-1.07645	-3.03182	-0.0696846	-0.331317	-0.0126844
4.65722	-2.49774	0.840238	1.46377	30.4881	590.211	-21.8177	-17.8712	2.99584	-0.0727037	1.04344	-1.05487	0.0310687	0.0284443	28.4852	16.0205	-3.59039	-24.2857	2.74043	-0.532502	-0.0697707	-39.8397	4.63441	14.2316	-7.85919	5.30365	1.84898	-2.45927	0.0458168	-0.142902	0.316518	-7.01081	-4.8756	-1.09054	-2.63345	-0.0637942	-0.291278	-0.031146
4.6672	1.33436	-0.0651436	4.0646	57.6132	587.999	-24.6649	-17.2596	3.45524	-0.0615969	1.35637	-1.16587	0.0842687	0.031179	23.1557	16.2087	-3.74969	-26.2074	2.46514	-0.582429	-0.0632842	-27.5989	2.92729	14.2046	-6.88565	5.07611	1.71149	-1.99662	0.0441746	-0.0995325	0.277198	-5.73707	-4.53721	-1.04439	-2.03214	-0.0529199	-0.226281	-0.0509263
4.67719	-2.21208	-0.255756	4.80808	60.5639	597.485	-31.7166	-16.0383	3.97765	-0.0809129	1.28327	-1.23408	0.132528	0.0327005	19.7356	15.6417	-3.94182	-27.4802	2.41498	-0.606681	-0.0559202	-27.0068	2.39889	13.5693	-6.73911	4.97594	1.65796	-1.94706	0.0419696	-0.0979443	0.267324	-5.38088	-4.44793	-1.01756	-1.92324	-0.0502864	-0.21446	-0.0507934
4.68717	-5.49689	-0.850644	6.48018	66.3657	602.631	-40.1629	-15.442	4.38609	-0.0465993	1.31991	-1.29382	0.174863	0.0337197	15.9215	14.715	-4.15765	-27.7267	2.38103	-0.581344	-0.046789	-25.1525	0.495643	12.7227	-6.37556	4.82791	1.58318	-1.80524	0.0404854	-0.0876007	0.250871	-4.97523	-4.32557	-0.986804	-1.76972	-0.0472657	-0.19691	-0.0525344
4.69716	-12.6149	-1.46267	7.53482	60.8064	612.372	-48.6811	-15.0096	4.55127	0.0169567	1.22685	-1.32974	0.204182	0.0341006	13.0444	13.5048	-4.39636	-27.2656	2.32313	-0.515867	-0.0374011	-28.987	-1.02219	11.5351	-6.39322	4.7124	1.54253	-1.86092	0.0386564	-0.0974248	0.247907	-5.04849	-4.29834	-0.958938	-1.86506	-0.0482171	-0.205748	-0.0436626
4.70714	-17.3401	-2.37544	9.87062	62.9732	615.392	-56.7877	-15.3596	4.46226	0.151097	1.26438	-1.35873	0.220793	0.0341695	9.69632	12.1873	-4.6061	-25.9701	2.15545	-0.411866	-0.0274819	-28.9074	-3.93802	10.5388	-6.02457	4.56553	1.47883	-1.73705	0.0382795	-0.0886221	0.234197	-4.8946	-4.21528	-0.935195	-1.81278	-0.047456	-0.198248	-0.0426789
4.71713	-23.2466	-3.28813	11.922	58.2796	621.807	-63.3179	-15.9277	4.05649	0.324001	1.19218	-1.3708	0.221631	0.0339101	7.39161	10.8144	-4.75581	-24.3792	1.92388	-0.294292	-0.018528	-31.7289	-6.62228	9.5279	-5.85404	4.45141	1.44026	-1.71672	0.0380801	-0.0896679	0.228446	-5.02181	-4.19233	-0.918232	-1.89744	-0.0490217	-0.205229	-0.0369278
4.72711	-26.7353	-3.92228	14.1553	59.9628	624.487	-68.8631	-17.8674	3.53836	0.573279	1.43715	-1.38977	0.207629	0.0336228	5.52767	9.25959	-4.77871	-22.451	1.62581	-0.175803	-0.0106672	-31.1667	-9.81269	8.82427	-5.42615	4.32248	1.38834	-1.56854	0.0389687	-0.0766738	0.215229	-4.98365	-4.12578	-0.905217	-1.86582	-0.0490299	-0.199154	-0.037726
4.7371	-29.1458	-4.70933	15.2056	59.4625	629.311	-70.9086	-19.0666	2.91278	0.783904	1.47034	-1.39259	0.190451	0.0331841	3.86474	7.75748	-4.58719	-20.4959	1.27655	-0.0720319	-0.00365517	-31.2109	-11.8502	7.5055	-5.17038	4.02962	1.29089	-1.49623	0.0372719	-0.0732123	0.199371	-5.05624	-3.92921	-0.841509	-1.88705	-0.0475607	-0.195869	-0.0297742
4.74708	-33.068	-5.5355	14.9438	56.228	636.363	-69.8104	-19.8219	2.34219	0.945916	1.45999	-1.38966	0.175448	0.0327302	1.77282	6.26432	-4.14973	-18.4818	0.882881	0.0118478	0.00285292	-33.2529	-12.5584	5.5933	-5.18316	3.60241	1.16166	-1.54976	0.032829	-0.0844659	0.185001	-5.29495	-3.63513	-0.732423	-2.00435	-0.0454702	-0.200835	-0.0115046
4.75707	-38.3916	-5.53685	13.1326	47.3023	645.112	-66.7506	-19.5236	2.06925	1.01913	1.24009	-1.37429	0.172575	0.032103	-0.373682	4.57917	-3.4661	-16.5713	0.492016	0.0642556	0.00840139	-38.2061	-11.8913	3.39005	-5.52676	3.11769	1.02926	-1.75877	0.0262892	-0.112492	0.177227	-5.74146	-3.30621	-0.597067	-2.24467	-0.0438719	-0.218305	0.0158851
4.76705	-47.4248	-4.7845	10.0074	30.8057	655.694	-60.8372	-18.8671	1.99232	1.03929	1.00773	-1.36016	0.178258	0.0315633	-2.76206	2.91607	-2.64537	-13.9459	-0.350452	0.200646	0.012866	-47.6312	-9.84745	1.07021	-6.30969	2.63436	0.919047	-2.17679	0.0179879	-0.162044	0.181766	-6.49376	-2.99888	-0.448825	-2.664	-0.0440849	-0.255193	0.0531832
4.77704	-51.9249	-3.30055	6.48507	21.4508	662.511	-54.0578	-17.9159	2.0173	1.01728	0.771181	-1.34529	0.18784	0.0310656	-4.62134	1.1597	-1.81279	-12.5617	-0.445403	0.154352	0.0155098	-52.8444	-7.38618	-0.955368	-6.84739	2.10792	0.781793	-2.46264	0.00973801	-0.197925	0.176909	-6.92379	-2.59727	-0.292224	-2.90859	-0.0411972	-0.273306	0.0835671
4.78702	-53.022	-1.45773	3.08676	17.8131	661.013	-46.9693	-16.9713	2.09414	0.967533	0.604757	-1.33091	0.19901	0.0305917	-6.34868	-0.481814	-1.05401	-11.003	-0.483204	0.101077	0.0163045	-54.3199	-4.99801	-2.58378	-7.10228	1.59264	0.634662	-2.60646	0.00246851	-0.218738	0.164569	-7.05761	-2.15871	-0.144878	-2.99236	-0.0363146	-0.27498	0.105442
4.79701	-50.6723	0.49551	0.110366	20.2225	652.008	-40.9171	-16.1048	2.17376	0.900846	0.493926	-1.31686	0.208856	0.0301533	-7.91613	-1.94813	-0.423387	-9.30002	-0.471837	0.0468604	0.0155004	-51.9447	-2.96175	-3.74954	-7.04684	1.1269	0.487543	-2.59326	-0.00319525	-0.222523	0.145253	-6.89426	-1.72142	-0.0182153	-2.91149	-0.02988	-0.260145	0.117236
4.80699	-45.6158	2.27145	-2.14589	28.4016	636.597	-36.0954	-15.5522	2.19807	0.83241	0.485744	-1.30631	0.215253	0.029801	-9.35671	-3.12922	0.0438712	-7.47913	-0.423699	-0.00295816	0.0134766	-46.1517	-1.46378	-4.39393	-6.68427	0.743488	0.35199	-2.42788	-0.00674845	-0.209428	0.120691	-6.4748	-1.32172	0.0779498	-2.68521	-0.0226478	-0.231215	0.118526
4.81698	-38.0099	3.69076	-3.37468	41.7139	614.444	-33.5265	-15.2552	2.17487	0.763024	0.549164	-1.29612	0.217859	0.0294635	-10.639	-3.99211	0.335226	-5.58057	-0.346914	-0.0460104	0.0105147	-37.1156	-0.831874	-4.42561	-5.99531	0.485408	0.241587	-2.10379	-0.0074899	-0.178338	0.0923818	-5.82029	-1.00459	0.129989	-2.32244	-0.0153925	-0.189718	0.107981
4.82696	-36.7483	4.68973	-3.57462	40.5101	601.05	-30.0069	-14.0261	2.08244	0.671773	0.332154	-1.2748	0.221938	0.0291844	-11.7294	-4.1526	0.452148	-3.98021	-0.256769	-0.0770462	0.00712979	-36.3905	-0.492707	-4.23455	-5.92257	0.426389	0.227913	-2.08292	-0.00784177	-0.176388	0.0902043	-5.76573	-0.922527	0.142835	-2.28977	-0.0144619	-0.186146	0.107537
4.83695	-32.4329	5.32863	-3.12745	43.6454	582.039	-28.2418	-12.9241	1.99602	0.577498	0.143294	-1.25265	0.223473	0.028884	-12.3393	-4.03682	0.423313	-2.476	-0.143767	-0.10209	0.00312409	-32.4563	-0.791166	-3.60365	-5.55785	0.44507	0.225521	-1.91793	-0.00609037	-0.158475	0.0831177	-5.49009	-0.88436	0.125506	-2.12805	-0.0130056	-0.170053	0.0973617
4.84693	-35.4423	5.98311	-1.89007	28.7724	575.239	-24.2595	-10.6291	1.90205	0.457881	-0.406501	-1.21822	0.227549	0.028661	-12.5292	-3.30694	0.28077	-1.42657	-0.0228418	-0.11766	-0.00105552	-38.5878	-1.23237	-2.83689	-5.99407	0.64	0.322168	-2.14308	-0.00494807	-0.178743	0.106286	-5.94581	-1.06771	0.0809117	-2.36941	-0.0182812	-0.199292	0.102024
4.85692	-36.7834	6.11874	-0.494715	15.6117	565.874	-19.3002	-8.31189	1.73227	0.345609	-0.968919	-1.17981	0.226572	0.0283947	-12.2999	-2.1609	0.0600825	-0.577683	0.108418	-0.124105	-0.00557926	-43.2368	-1.68637	-2.00156	-6.31869	0.822285	0.409571	-2.31296	-0.00360698	-0.193426	0.125868	-6.28827	-1.22616	0.0366807	-2.5498	-0.0226704	-0.222074	0.10398
4.8669	-37.3275	5.90843	1.04004	3.86493	556.164	-14.0805	-6.06041	1.53749	0.239804	-1.52723	-1.14274	0.221901	0.0281933	-11.9279	-0.75362	-0.162268	0.0973893	0.241308	-0.124474	-0.0102507	-46.946	-2.25878	-1.09568	-6.56813	1.00784	0.494303	-2.44568	-0.00197617	-0.204191	0.143437	-6.56161	-1.38041	-0.0107802	-2.69245	-0.0266467	-0.240943	0.103799
4.87689	-34.2182	5.30782	2.83529	1.4966	539.884	-12.2279	-4.63358	1.34884	0.148205	-1.92354	-1.10952	0.210401	0.0278505	-11.4954	0.485849	-0.337216	0.716415	0.378116	-0.127912	-0.0150401	-45.2145	-3.55271	0.109758	-6.31928	1.22274	0.563824	-2.34055	0.00188446	-0.190137	0.148466	-6.44713	-1.53212	-0.082238	-2.61896	-0.0287257	-0.237353	0.0907548
4.88687	-31.0225	4.81622	4.49028	-1.35096	526.254	-11.1072	-3.09162	1.21976	0.058364	-2.36455	-1.08198	0.200273	0.0277009	-11.0189	1.56485	-0.425494	1.10266	0.507552	-0.133919	-0.0195613	-43.5761	-4.92638	1.32895	-6.08353	1.45069	0.637435	-2.24017	0.00587261	-0.176353	0.154112	-6.34983	-1.70023	-0.157308	-2.55305	-0.0310281	-0.234577	0.0775842
4.89686	-25.693	4.17701	5.93773	4.99906	509.949	-13.5955	-2.51577	1.14917	-0.0105419	-2.59652	-1.0655	0.188761	0.027488	-11.0215	2.14004	-0.435076	1.53354	0.61534	-0.147724	-0.0233816	-37.5441	-6.55892	2.5102	-5.46689	1.64871	0.680276	-1.95576	0.0108999	-0.144159	0.14749	-5.94426	-1.82746	-0.235871	-2.31621	-0.0312001	-0.213066	0.0563517
4.90684	0	0	0	0	0	0	0	0	0	0	0	0	0	0	0	0	0	0	0	0	0	0	0	0	0	0	0	0	0	0	0	0	0	0	0	0	0
