Coordinates
version=1
nRows=223
nColumns=38
inDegrees=no

Units are S.I. units (second, meters, Newtons, ...)
If the header above contains a line with 'inDegrees', this indicates whether rotational values are in degrees (yes) or radians (no).

endheader
time	pelvis_tilt_moment	pelvis_list_moment	pelvis_rotation_moment	pelvis_tx_force	pelvis_ty_force	pelvis_tz_force	hip_flexion_r_moment	hip_adduction_r_moment	hip_rotation_r_moment	knee_angle_r_moment	ankle_angle_r_moment	subtalar_angle_r_moment	mtp_angle_r_moment	hip_flexion_l_moment	hip_adduction_l_moment	hip_rotation_l_moment	knee_angle_l_moment	ankle_angle_l_moment	subtalar_angle_l_moment	mtp_angle_l_moment	lumbar_extension_moment	lumbar_bending_moment	lumbar_rotation_moment	arm_flex_r_moment	arm_add_r_moment	arm_rot_r_moment	elbow_flex_r_moment	pro_sup_r_moment	wrist_flex_r_moment	wrist_dev_r_moment	arm_flex_l_moment	arm_add_l_moment	arm_rot_l_moment	elbow_flex_l_moment	pro_sup_l_moment	wrist_flex_l_moment	wrist_dev_l_moment
2.98	0	0	0	0	0	0	0	0	0	0	0	0	0	0	0	0	0	0	0	0	0	0	0	0	0	0	0	0	0	0	0	0	0	0	0	0	0
2.98999	16.01	2.88984	2.5189	7.70042	526.278	-4.7882	-5.71131	-0.175746	0.0950723	0.444335	-1.07477	0.161981	0.0266862	1.08148	10.1029	-3.28124	-5.29992	0.256735	0.200952	-0.0143698	-37.787	1.0134	2.70435	-3.92939	3.25551	1.24631	-1.51251	0.0403091	-0.0562807	0.180447	-4.099	-3.29556	-0.71706	-2.02977	-0.0296726	-0.191232	0.0475298
2.99998	17.8189	3.2221	1.49807	-0.692583	536.376	-3.8796	-6.46386	-0.0549918	0.1628	0.64103	-1.10315	0.171725	0.0268705	-0.801817	8.94224	-2.89294	-5.69504	0.106844	0.187427	-0.00901916	-36.7544	1.46508	1.19407	-3.88161	2.87575	1.078	-1.52965	0.034645	-0.0677076	0.164877	-4.00682	-3.03818	-0.594138	-2.02124	-0.0253327	-0.181855	0.0591391
3.00997	20.8258	3.38395	0.549487	-7.41743	550.474	-2.86167	-7.21814	-0.00714005	0.236938	0.85352	-1.1359	0.181438	0.0271848	-2.966	7.57108	-2.3716	-6.0957	-0.0614307	0.165207	-0.00292169	-36.7904	1.93208	-0.247855	-3.89748	2.55231	0.935838	-1.58195	0.0297324	-0.0810265	0.153925	-3.97126	-2.84035	-0.488572	-2.05319	-0.0218787	-0.177306	0.0716373
3.01995	25.1453	3.40489	-0.233809	-11.2	567.65	-2.11819	-7.78199	-0.0651616	0.307769	1.03013	-1.16854	0.190066	0.0275893	-5.38508	6.11414	-1.74095	-6.35118	-0.234527	0.136768	0.00328116	-38.3277	2.40163	-1.55786	-4.00823	2.31257	0.834258	-1.68476	0.0259937	-0.0968693	0.150049	-4.01778	-2.72395	-0.408099	-2.14204	-0.0197209	-0.179781	0.0853041
3.02994	31.1949	3.10208	-0.786469	-10.7764	587.302	-1.47167	-8.06323	-0.144645	0.368884	1.14248	-1.19866	0.199379	0.0280197	-7.97841	4.57936	-1.02174	-6.37229	-0.395886	0.102297	0.00897024	-41.9716	2.78286	-2.69601	-4.24678	2.18255	0.788165	-1.85666	0.0238863	-0.116184	0.15605	-4.17713	-2.71439	-0.36158	-2.30993	-0.0193995	-0.192133	0.10065
3.03993	32.9508	1.93104	-0.998575	-20.0688	595.958	1.72841	-9.04941	-0.151543	0.413251	1.43067	-1.22636	0.200582	0.0282288	-10.5964	2.62164	-0.274143	-5.84519	-0.517322	0.059109	0.0131508	-39.6294	2.43267	-3.04401	-4.0706	2.01601	0.69864	-1.78784	0.0211399	-0.11444	0.14194	-4.03615	-2.58932	-0.31327	-2.23048	-0.0168385	-0.180205	0.100075
3.04992	37.1187	0.440924	-0.702454	-23.2008	606.615	5.5529	-9.63167	-0.151507	0.443756	1.59864	-1.25092	0.203461	0.0285204	-13.1906	0.626955	0.491715	-5.09523	-0.599307	0.00919704	0.015959	-40.398	1.72981	-3.21078	-4.066	1.99736	0.686572	-1.81363	0.0207781	-0.117493	0.141816	-4.06379	-2.61969	-0.314927	-2.26815	-0.0171375	-0.183025	0.102
3.05991	37.3347	-1.44698	-0.1485	-35.4464	606.089	11.6382	-10.833	-0.152336	0.463956	1.91398	-1.27372	0.19858	0.028678	-15.7583	-1.66746	1.20382	-3.86592	-0.629873	-0.0472769	0.0169333	-35.7519	0.512206	-2.8903	-3.68949	1.90129	0.618079	-1.62427	0.0193275	-0.102857	0.122248	-3.82656	-2.52427	-0.303199	-2.08769	-0.0151578	-0.163714	0.0911061
3.0699	42.3051	-3.41978	1.09925	-36.8279	611.608	17.5612	-11.257	-0.104062	0.471531	2.02458	-1.29047	0.200074	0.0288789	-18.3655	-3.8257	1.8445	-2.54526	-0.625947	-0.104029	0.0166325	-37.2106	-0.975239	-2.71968	-3.6939	1.98551	0.656396	-1.64896	0.0208635	-0.102996	0.127543	-3.91504	-2.65187	-0.347704	-2.14888	-0.0173895	-0.171839	0.0901726
3.07988	44.8142	-5.43296	1.71299	-37.0859	613.276	22.4566	-10.9921	-0.167368	0.45194	1.92936	-1.29567	0.198419	0.0290489	-20.2473	-5.80204	2.33066	-1.1765	-0.578137	-0.156011	0.015005	-37.9694	-1.95953	-2.71089	-3.69903	2.00497	0.667845	-1.66972	0.0214354	-0.104157	0.129997	-3.98269	-2.71283	-0.365746	-2.19249	-0.0184858	-0.176696	0.0907571
3.08987	54.5513	-7.90723	2.6071	-20.2808	626.916	23.9557	-9.35744	-0.0889508	0.421787	1.51916	-1.295	0.210954	0.0293462	-22.2405	-7.4384	2.69634	0.151536	-0.517474	-0.199219	0.0126806	-48.4719	-2.40811	-3.20472	-4.3898	2.23342	0.817302	-2.07738	0.0251613	-0.134861	0.171404	-4.54781	-3.02998	-0.428371	-2.62787	-0.0244423	-0.223259	0.112222
3.09986	63.8398	-10.2085	3.12838	-4.51194	637.926	21.7115	-7.51838	-0.190403	0.399956	1.09069	-1.28941	0.219721	0.0296678	-24.4962	-8.67622	2.90033	1.7193	-0.448773	-0.226292	0.00957323	-58.6222	-1.82543	-3.94068	-5.13482	2.37849	0.93381	-2.51272	0.0273712	-0.169946	0.211235	-5.08195	-3.24286	-0.44777	-3.05548	-0.0286037	-0.266756	0.137637
3.10985	68.8576	-12.1817	4.01639	1.2307	638.044	20.6589	-6.23418	-0.445152	0.366897	0.740963	-1.27627	0.214271	0.029809	-26.9047	-9.68893	2.93272	3.59926	-0.368718	-0.237936	0.00558688	-62.7998	-1.47359	-4.09392	-5.47302	2.44884	0.990976	-2.71144	0.0283649	-0.185496	0.229826	-5.3027	-3.31362	-0.452624	-3.23596	-0.0301431	-0.285341	0.148606
3.11984	69.2112	-13.3821	5.39753	-3.20094	627.271	22.1111	-5.47873	-0.871454	0.313894	0.434611	-1.25209	0.19235	0.0296691	-29.436	-10.4493	2.80988	5.72145	-0.293972	-0.232826	0.00126623	-60.5623	-1.69197	-3.66378	-5.33731	2.43781	0.98255	-2.63909	0.0282184	-0.178704	0.224502	-5.18995	-3.25409	-0.450406	-3.14995	-0.0293076	-0.277415	0.143114
3.12983	70.4595	-13.5225	7.68344	-6.56957	619.601	22.4697	-4.26766	-1.415	0.253707	0.00241331	-1.22686	0.167661	0.0297467	-33.8851	-10.4937	2.65614	9.00112	-1.55083	0.0023541	-0.00267703	-57.6521	-1.89243	-2.93876	-5.14315	2.46261	0.985675	-2.53172	0.0285554	-0.167832	0.217995	-5.03954	-3.20204	-0.46031	-3.03069	-0.028595	-0.26712	0.134216
3.13982	70.5663	-12.8723	10.0587	-7.84133	610.297	20.5106	-2.53969	-2.2375	0.20694	-0.561116	-1.19746	0.137132	0.0300068	-37.5624	-9.79674	2.33997	11.6942	-1.91494	0.105335	-0.00568952	-55.0263	-1.94753	-2.10515	-4.95844	2.51006	1.00003	-2.43152	0.0292138	-0.156986	0.213074	-4.8967	-3.16002	-0.476006	-2.91859	-0.02814	-0.258043	0.125136
3.1498	67.6694	-11.0016	12.6715	-15.4566	594.635	19.9726	-1.14866	-3.20061	0.150268	-1.11931	-1.15734	0.0943929	0.0299672	-41.5326	-8.74526	1.99185	14.5799	-2.29292	0.217132	-0.00706392	-47.9917	-2.35914	-1.00024	-4.41957	2.46789	0.95535	-2.13611	0.0287598	-0.130858	0.189996	-4.51822	-3.01829	-0.482664	-2.62207	-0.0260344	-0.230339	0.105044
3.15979	66.7378	-8.57042	16.0875	-15.2618	584.331	17.1081	1.00763	-4.27945	0.114329	-1.84207	-1.12074	0.0546822	0.0303205	-45.6433	-7.03099	1.61354	17.4515	-2.6613	0.334481	-0.00606735	-43.8545	-3.05645	0.325694	-4.04831	2.55943	0.981899	-1.93796	0.0304037	-0.109965	0.180337	-4.29197	-3.00381	-0.530419	-2.4371	-0.0263574	-0.21636	0.0878083
3.16978	68.9068	-6.2669	20.0166	-5.85574	581.095	10.3269	3.87981	-5.3114	0.113756	-2.66031	-1.09318	0.0260217	0.0311213	-49.8601	-4.89661	1.23951	20.2329	-2.98362	0.440318	-0.00226831	-43.95	-3.62768	1.61186	-3.96079	2.75872	1.07708	-1.907	0.0337093	-0.10112	0.188372	-4.27936	-3.10016	-0.60242	-2.42134	-0.0289354	-0.220845	0.0788059
3.17977	74.5471	-4.7628	24.1695	12.999	585.067	-1.23944	7.34437	-6.1984	0.160561	-3.50955	-1.07828	0.0126056	0.0324043	-53.9669	-2.65807	0.893927	22.7779	-3.21577	0.516944	0.00426769	-48.8472	-3.78891	2.65131	-4.21142	3.02955	1.2296	-2.07839	0.038096	-0.108332	0.21528	-4.49956	-3.27803	-0.681753	-2.59965	-0.0333435	-0.245283	0.0813375
3.18976	78.8179	-3.65788	27.6324	28.9576	585.503	-12.9151	10.3719	-6.86083	0.215571	-4.23798	-1.06774	0.00449353	0.0336334	-57.5287	-1.01211	0.600934	24.9378	-3.32046	0.546143	0.0132334	-52.221	-3.769	3.23096	-4.32378	3.12679	1.30475	-2.19078	0.0402288	-0.114473	0.231282	-4.61438	-3.32783	-0.716695	-2.71697	-0.0359245	-0.261084	0.0843182
3.19975	81.3092	-2.91117	30.1173	42.0695	581.61	-24.7118	12.9513	-7.35848	0.279239	-4.84357	-1.06318	0.000564685	0.0349087	-60.0772	0.110511	0.338343	26.4607	-3.27523	0.532722	0.0236427	-54.261	-3.46575	3.31997	-4.31864	3.05361	1.30361	-2.25385	0.0400557	-0.120455	0.237009	-4.62908	-3.25137	-0.705626	-2.77905	-0.036624	-0.268683	0.0883877
3.20974	79.661	-1.88653	31.5353	45.2597	566.598	-32.1068	14.3754	-7.75012	0.3211	-5.28146	-1.05653	-0.0095109	0.0358145	-61.215	0.43641	0.117865	27.1374	-3.08098	0.484756	0.034371	-51.4952	-3.55753	3.09703	-3.90905	2.75846	1.18458	-2.10354	0.0369693	-0.113204	0.217967	-4.35995	-3.0059	-0.652681	-2.63902	-0.0345835	-0.253734	0.0838938
3.21972	73.8464	-0.456009	31.8125	40.323	541.41	-34.7346	14.883	-8.0175	0.324438	-5.59334	-1.05488	-0.022435	0.0366436	-60.5288	0.236932	-0.0498854	26.7489	-2.77306	0.430999	0.0442998	-44.7994	-4.21595	2.72797	-3.17187	2.32245	0.984683	-1.77292	0.0320852	-0.0937081	0.179719	-3.87397	-2.66161	-0.580141	-2.33507	-0.03082	-0.221207	0.0710843
3.22971	63.5204	1.57209	31.0348	26.3297	504.289	-31.0971	14.2574	-8.12777	0.267745	-5.7467	-1.06217	-0.0374659	0.0374083	-57.7145	-0.366901	-0.180413	25.2253	-2.40977	0.396968	0.0524772	-33.7403	-5.76527	2.46136	-2.07275	1.79853	0.723296	-1.23504	0.0262082	-0.0582671	0.122387	-3.16534	-2.25973	-0.50877	-1.85	-0.0259361	-0.17063	0.046782
3.2397	54.8201	1.66631	29.8314	25.3039	471.825	-30.3249	14.3264	-7.74326	0.207631	-5.86561	-1.09568	-0.0239492	0.0389855	-52.2561	-0.485256	-0.295408	22.5056	-2.07867	0.424046	0.0584184	-28.9658	-7.47366	2.76786	-1.47516	1.61569	0.636968	-0.957064	0.0250608	-0.0372272	0.0984643	-2.8366	-2.13486	-0.51707	-1.6267	-0.0256381	-0.150848	0.031047
3.24969	43.9262	1.31257	26.9459	19.4566	432.051	-27.9579	13.631	-7.0297	0.0973549	-5.77263	-1.13965	-0.00039198	0.0405172	-44.9499	-0.837974	-0.361445	18.9918	-1.85599	0.518992	0.0615976	-23.3863	-8.77028	2.75313	-0.867908	1.35176	0.512926	-0.663995	0.0226749	-0.0169441	0.0698185	-2.48382	-1.9492	-0.496642	-1.37948	-0.0240854	-0.12669	0.0168647
3.25968	35.9556	-1.73468	23.4132	26.5959	398.85	-30.6443	13.7974	-5.78049	-0.023285	-5.64826	-1.20149	0.05156	0.0426782	-35.7321	-0.921573	-0.386883	14.8376	-1.81104	0.702251	0.0619037	-25.3432	-9.40118	3.0238	-0.913903	1.40011	0.560117	-0.711836	0.0243954	-0.0188324	0.079256	-2.58187	-2.00402	-0.528688	-1.45205	-0.0264232	-0.137402	0.017703
3.26967	29.851	-6.85273	18.6527	38.1817	368.404	-37.462	14.4248	-4.10973	-0.165892	-5.46101	-1.26502	0.122159	0.0448912	-25.742	-1.15778	-0.32654	10.5444	-1.97379	0.963001	0.0589095	-31.9495	-8.65666	2.95073	-1.42429	1.52956	0.666265	-1.00177	0.0267903	-0.0400954	0.109472	-2.95474	-2.112	-0.544723	-1.72855	-0.029347	-0.167131	0.0332886
3.27965	22.3614	-11.9698	12.9794	37.9415	330.27	-40.5585	14.295	-2.36004	-0.359359	-5.2106	-1.32957	0.191354	0.0468372	-16.1639	-2.15225	-0.16377	6.56965	-2.32203	1.26506	0.0519485	-35.6603	-7.43217	2.43158	-1.78284	1.50003	0.689809	-1.19439	0.0267663	-0.0569462	0.125224	-3.19386	-2.09128	-0.512628	-1.89776	-0.0296723	-0.182879	0.0472101
3.28964	13.8004	-16.6141	6.95171	27.7529	287.137	-39.6625	13.8969	-0.597409	-0.60813	-5.03571	-1.3962	0.258505	0.0486949	-7.60717	-3.59699	0.0939901	3.25033	-2.82316	1.57877	0.0411534	-36.6603	-6.09207	1.67948	-2.00389	1.38008	0.658643	-1.2914	0.0252909	-0.0678972	0.129175	-3.3265	-1.99972	-0.454845	-1.97009	-0.0282335	-0.186871	0.0578606
3.29963	3.44869	-19.6652	1.3742	3.13197	236.831	-32.169	12.7608	1.04388	-0.900362	-4.94797	-1.46854	0.318868	0.050314	-0.653264	-5.18169	0.369236	0.872395	-3.43883	1.8653	0.0278913	-32.2771	-5.35608	1.0642	-1.85654	1.17215	0.559255	-1.16087	0.0225761	-0.0611773	0.111598	-3.22145	-1.83407	-0.39013	-1.83417	-0.0249357	-0.169207	0.0561779
3.30962	-4.08744	-22.3192	-4.01753	-13.737	197.29	-31.1571	13.2687	2.57713	-1.18552	-5.14386	-1.51697	0.379867	0.0516431	5.20172	-5.38897	0.591255	-0.756588	-4.12925	2.11947	0.0144586	-32.8076	-3.55657	0.274463	-2.20996	1.12934	0.549937	-1.28239	0.0215174	-0.0729943	0.118018	-3.42079	-1.79226	-0.3327	-1.91695	-0.0230198	-0.173031	0.0679855
3.31961	-12.1786	-23.4157	-9.42955	-32.4004	160.351	-30.9099	14.2703	3.94777	-1.45453	-5.53022	-1.53807	0.43499	0.0520114	10.2821	-4.61029	0.673387	-1.82634	-4.80799	2.2995	0.00276071	-32.7791	-1.37591	-0.761601	-2.6026	1.06083	0.522903	-1.40865	0.0197234	-0.0862728	0.122437	-3.62183	-1.72983	-0.256694	-1.99237	-0.0201421	-0.174361	0.0815153
3.3296	-18.1183	-24.3565	-14.9518	-36.4768	137.594	-38.5976	17.3497	5.18608	-1.70858	-6.27043	-1.50108	0.484479	0.0510766	15.5422	-2.26254	0.575345	-2.79479	-5.3661	2.40022	-0.00657281	-39.0984	1.98726	-1.89215	-3.57614	1.21563	0.616505	-1.83896	0.0203655	-0.121334	0.157199	-4.17919	-1.83815	-0.202833	-2.33651	-0.0195683	-0.203254	0.110228
3.33959	-26.9145	-23.3281	-19.5179	-46.9417	111.743	-40.8165	19.9052	6.17451	-1.92786	-7.14786	-1.43236	0.519982	0.0485686	20.6677	0.601438	0.269819	-3.62711	-5.71993	2.39648	-0.0128823	-40.6351	4.22038	-2.44889	-4.15958	1.37444	0.682881	-2.0412	0.0211878	-0.136317	0.174513	-4.50582	-1.94071	-0.177641	-2.48375	-0.0185681	-0.214143	0.123537
3.34957	-37.2655	-21.1056	-23.7116	-56.4867	88.839	-41.914	22.7384	6.91608	-2.1392	-8.23831	-1.30897	0.538485	0.0441873	25.8245	4.10639	-0.199847	-4.44244	-5.82748	2.30478	-0.015642	-40.7813	6.24126	-2.81125	-4.6459	1.55379	0.746068	-2.183	0.0221011	-0.14576	0.187255	-4.76143	-2.0512	-0.162202	-2.57382	-0.0173609	-0.219712	0.132356
3.35956	-47.5697	-17.8573	-27.5436	-60.9415	71.899	-45.3051	26.1554	7.25534	-2.3098	-9.52146	-1.10118	0.532279	0.0372104	30.9215	8.38532	-0.771626	-5.27372	-5.66761	2.14416	-0.0149001	-41.8359	8.56935	-3.26972	-5.21547	1.75698	0.819428	-2.37218	0.0230147	-0.159231	0.203662	-5.04555	-2.17961	-0.145247	-2.69908	-0.0162227	-0.228523	0.1438
3.36955	-57.3831	-13.9288	-30.9176	-60.3828	60.1095	-51.4121	29.9138	7.11738	-2.41142	-10.9403	-0.797124	0.495701	0.0272634	35.9569	13.1765	-1.38823	-6.18225	-5.22193	1.91715	-0.0114287	-43.8755	11.2836	-3.7962	-5.85211	1.97564	0.90099	-2.60706	0.0238713	-0.176693	0.223572	-5.34668	-2.31598	-0.126103	-2.85756	-0.015169	-0.240548	0.157727
3.37954	-67.0652	-9.95902	-33.6911	-58.5093	49.8842	-57.6724	33.3721	6.66465	-2.4594	-12.4235	-0.410942	0.430625	0.0146429	40.7771	17.8828	-1.99147	-7.14939	-4.48776	1.61352	-0.00619922	-45.1821	14.0063	-4.14488	-6.38573	2.18358	0.97314	-2.7991	0.0245344	-0.190673	0.239832	-5.56768	-2.4298	-0.109851	-2.97281	-0.0139201	-0.248767	0.16853
3.38953	-78.8178	-5.76914	-34.3078	-68.7733	30.9648	-54.6016	34.7065	6.126	-2.41412	-13.8545	-0.0120733	0.342317	0.00110115	44.8525	21.715	-2.54092	-7.9748	-3.47994	1.2187	-0.000103378	-39.08	14.3846	-3.31457	-6.19775	2.34799	0.991196	-2.60225	0.025371	-0.170587	0.226431	-5.3818	-2.4796	-0.137204	-2.75914	-0.0121067	-0.227553	0.153231
3.39952	-85.6668	-2.89801	-34.6952	-61.0403	25.504	-59.914	37.6317	5.08604	-2.36799	-15.6101	0.485442	0.217673	-0.014219	48.888	25.613	-2.97496	-8.94575	-2.19497	0.753409	0.00543997	-40.9667	15.9138	-2.68201	-6.5558	2.70656	1.12968	-2.73069	0.0288059	-0.174641	0.245793	-5.54952	-2.70774	-0.197022	-2.85197	-0.0137949	-0.239156	0.154175
3.40951	-90.9028	-0.63696	-34.4718	-51.8746	21.3548	-64.7466	40.3364	3.99105	-2.34114	-17.5245	1.01597	0.0745989	-0.0299866	52.1125	28.8845	-3.25424	-9.73935	-0.670195	0.205606	0.0102797	-43.0596	17.0168	-2.02486	-6.82334	3.0354	1.25831	-2.83505	0.0322029	-0.177116	0.263211	-5.67988	-2.93068	-0.264038	-2.93682	-0.0160034	-0.250789	0.15361
3.41949	-94.5853	0.235658	-33.7678	-41.8584	17.6105	-66.6738	42.6515	3.27817	-2.42262	-19.5695	1.5374	-0.0668236	-0.0449614	54.5436	31.023	-3.421	-10.308	1.07746	-0.442747	0.0144318	-45.0346	17.2468	-1.23024	-6.94647	3.34441	1.37999	-2.88575	0.0359036	-0.17504	0.277249	-5.75932	-3.16408	-0.349257	-2.99709	-0.0191063	-0.261493	0.149261
3.42948	-96.6563	-0.101942	-32.4668	-32.4711	13.3943	-65.1211	44.2745	3.02032	-2.60074	-21.6362	1.99981	-0.194203	-0.0576118	56.1473	32.0668	-3.53281	-10.5941	3.03068	-1.1886	0.0180756	-46.4361	16.3505	-0.291904	-6.88192	3.61864	1.48643	-2.858	0.0397907	-0.166542	0.285596	-5.76725	-3.40012	-0.452378	-3.01354	-0.0230008	-0.269313	0.1399
3.43947	-94.4338	-1.93962	-31.0464	-13.3882	15.8895	-65.4334	46.1835	3.13789	-2.89862	-23.6687	2.38662	-0.295337	-0.0671971	57.2824	32.5101	-3.63894	-10.7005	5.18369	-2.01209	0.0212521	-52.4716	15.411	0.546748	-7.0317	3.99907	1.66019	-2.97553	0.0456231	-0.168322	0.310574	-5.96024	-3.77283	-0.593828	-3.19509	-0.0299351	-0.296238	0.137048
3.44946	-93.8137	-4.2796	-28.4608	-12.1776	7.45708	-57.0328	45.3297	3.88941	-3.13078	-25.3107	2.57467	-0.359612	-0.070872	57.034	32.0006	-3.74121	-10.2762	7.50675	-2.89686	0.0243259	-50.3385	12.3801	2.13706	-6.44672	4.18065	1.71535	-2.69888	0.04938	-0.139137	0.299294	-5.71152	-3.9448	-0.722534	-3.02309	-0.0340516	-0.287818	0.112134
3.45945	-90.0682	-6.73291	-25.6661	-5.95207	3.72601	-52.7952	44.345	4.26828	-3.22619	-26.688	2.62632	-0.402239	-0.0697696	56.3728	31.5372	-3.86809	-9.65883	10.013	-3.80203	0.0269087	-51.0743	9.85169	3.52211	-6.02404	4.38862	1.7967	-2.5299	0.0536137	-0.118874	0.297834	-5.5694	-4.15751	-0.855512	-2.95534	-0.0392867	-0.290345	0.0933999
3.46944	-87.3528	-8.10296	-22.4416	-11.6882	-5.95675	-48.5867	41.6796	4.20203	-3.05186	-27.5481	2.51523	-0.426507	-0.0639436	54.7303	31.1669	-4.00351	-8.64751	12.6806	-4.69872	0.0290214	-46.9207	7.233	4.75352	-5.27141	4.35014	1.75616	-2.1865	0.0543074	-0.0888673	0.273287	-5.16531	-4.13074	-0.920383	-2.69571	-0.0405778	-0.269915	0.0691216
3.47942	-77.5424	-9.89879	-19.1171	6.63204	0.120148	-51.1123	40.8367	3.9961	-2.93877	-28.0979	2.34655	-0.412423	-0.0564929	53.4437	31.1806	-4.19795	-7.71744	15.5255	-5.57577	0.0303095	-54.1303	5.4612	5.57994	-5.25646	4.66783	1.91293	-2.26294	0.0602264	-0.0882517	0.295533	-5.30132	-4.50353	-1.0794	-2.87431	-0.0489769	-0.298726	0.0638388
3.48941	-70.4891	-10.3439	-16.4412	12.2024	0.017261	-54.8628	39.0576	3.56253	-2.77608	-28.0326	2.08948	-0.371109	-0.0474253	51.05	31.5578	-4.38385	-6.39775	18.4836	-6.40403	0.030802	-55.9339	4.56227	5.83124	-4.99409	4.66492	1.91337	-2.20043	0.0610301	-0.0831928	0.292984	-5.18212	-4.56308	-1.12771	-2.86669	-0.0516156	-0.302062	0.058017
3.4994	-66.6753	-9.20174	-14.5008	5.74852	-5.03182	-60.67	36.8943	2.73068	-2.62954	-27.4546	1.78723	-0.30982	-0.0378785	47.4558	32.3264	-4.55217	-4.70942	21.5188	-7.17501	0.0304605	-52.6137	4.70897	5.38849	-4.56318	4.34901	1.76151	-2.03422	0.0566174	-0.0767222	0.267956	-4.84717	-4.31349	-1.05839	-2.69822	-0.0482747	-0.281706	0.054073
3.50939	-65.9741	-7.35941	-13.5392	-11.1	-13.365	-67.637	34.6724	1.77981	-2.60973	-26.4253	1.46823	-0.227791	-0.0286507	42.5953	33.0709	-4.68507	-2.67218	24.5973	-7.9004	0.0295737	-44.8488	5.85183	4.42697	-4.03148	3.7942	1.49066	-1.79377	0.0479896	-0.069537	0.225333	-4.35419	-3.81139	-0.88985	-2.40147	-0.0397471	-0.241783	0.0521167
3.51938	-61.86	-6.7667	-12.9098	-19.3821	-13.9658	-74.1433	32.2644	1.25781	-2.69355	-25.0811	1.13138	-0.127034	-0.0195235	38.1032	33.4635	-4.79748	-0.705611	27.7007	-8.59483	0.0289713	-41.6098	7.09844	3.84079	-3.80452	3.52519	1.35427	-1.70656	0.043396	-0.0692231	0.205427	-4.10827	-3.56907	-0.801561	-2.27827	-0.0353747	-0.223637	0.0532018
3.52937	-58.3507	-7.18309	-12.198	-31.2926	-15.0382	-77.8918	28.569	1.11484	-2.76387	-23.279	0.767124	-0.0219895	-0.0102773	33.8496	33.2984	-4.88326	1.26291	30.804	-9.26715	0.0288726	-36.6021	7.78051	4.03284	-3.46939	3.36386	1.25149	-1.53622	0.0402763	-0.0583846	0.182749	-3.82653	-3.37315	-0.746487	-2.08675	-0.0313389	-0.200219	0.0460453
3.53936	-51.3416	-9.10667	-11.731	-34.6563	-9.70574	-80.6359	24.2996	1.32971	-2.8037	-21.3437	0.405484	0.0773573	-0.00126928	30.5111	32.7148	-4.92255	2.93995	33.9102	-9.91776	0.0291694	-36.0124	8.46424	4.85176	-3.3739	3.5143	1.29393	-1.48955	0.0417306	-0.0510244	0.182246	-3.7584	-3.45123	-0.787496	-2.04773	-0.0319946	-0.197883	0.0388572
3.54934	-46.9592	-11.3089	-10.7032	-45.6213	-10.5868	-81.0957	19.4289	1.54378	-2.75919	-19.1266	0.0716105	0.158623	0.00678155	26.9256	31.7056	-4.91779	4.63639	37.004	-10.5503	0.0295452	-31.1917	8.42537	6.30464	-3.01055	3.62642	1.30139	-1.27817	0.0425335	-0.0293423	0.167206	-3.51138	-3.43166	-0.819168	-1.84215	-0.0307164	-0.178346	0.0214831
3.55933	-38.0083	-14.7962	-10.0773	-42.5836	-2.78893	-81.2253	14.747	2.01875	-2.66974	-17.1159	-0.217078	0.221926	0.0137941	24.6515	30.5331	-4.84119	5.82763	40.1052	-11.1582	0.029971	-33.2511	8.66212	8.08589	-3.01197	4.08086	1.47882	-1.27108	0.0485737	-0.0178633	0.182571	-3.5689	-3.75548	-0.96171	-1.87726	-0.0356645	-0.189885	0.00850095
3.56932	-33.8302	-17.6328	-8.17977	-52.0655	-6.55202	-78.8028	10.0339	2.23477	-2.50153	-14.8623	-0.437546	0.258129	0.0188406	21.4957	29.1286	-4.72322	7.12288	43.1954	-11.7488	0.0298892	-28.328	7.628	10.3296	-2.5702	4.33885	1.54624	-1.00502	0.0517558	0.0126733	0.170124	-3.31243	-3.83725	-1.05079	-1.64191	-0.0363001	-0.171319	-0.0169045
3.57931	-25.405	-21.8295	-7.76774	-46.6096	-0.632879	-77.1066	5.84245	2.88753	-2.37962	-12.9543	-0.597623	0.282762	0.0223118	19.909	27.6327	-4.52112	7.8304	46.2912	-12.3189	0.029919	-30.8528	7.77918	12.3924	-2.58853	4.86767	1.75868	-1.00055	0.0590093	0.0259279	0.189398	-3.39205	-4.21707	-1.22005	-1.68606	-0.0423629	-0.185818	-0.0320366
3.5893	-19.1626	-25.8269	-7.56407	-44.5173	1.60957	-74.6011	2.05982	3.60205	-2.24796	-11.0344	-0.69106	0.291979	0.0238711	18.3034	26.0204	-4.26568	8.40987	49.3678	-12.872	0.0299196	-31.3274	7.91698	14.2007	-2.52593	5.26958	1.91224	-0.947663	0.0643575	0.0405059	0.199751	-3.3919	-4.47988	-1.34705	-1.66574	-0.0463161	-0.191286	-0.0469541
3.59929	-8.30868	-30.1843	-8.9484	-25.6094	14.3659	-73.4788	-0.907466	4.4696	-2.11378	-9.51967	-0.722656	0.288374	0.0238997	18.385	24.5823	-3.93572	8.38011	52.4289	-13.3999	0.0301467	-40.1814	9.54489	15.2555	-2.98391	5.88193	2.18988	-1.19643	0.0730613	0.032335	0.242755	-3.77108	-5.04176	-1.53996	-1.96934	-0.0557667	-0.233204	-0.0469204
3.60928	0.520246	-33.4237	-9.90853	-8.37733	22.9504	-70.12	-3.31931	5.14049	-1.91702	-8.05068	-0.693268	0.267978	0.0222999	18.6354	23.1763	-3.55671	8.21283	55.4397	-13.9077	0.0302732	-47.4784	10.4825	15.9119	-3.33632	6.36764	2.40851	-1.38435	0.08014	0.026312	0.276416	-4.08351	-5.52715	-1.70301	-2.21662	-0.0638819	-0.267548	-0.0472032
3.61926	7.55838	-35.6986	-10.5234	6.72225	27.4813	-64.7699	-5.37077	5.675	-1.67321	-6.58092	-0.614913	0.235634	0.0193006	19.0251	21.8175	-3.15269	7.95943	58.373	-14.3977	0.0303728	-53.2456	10.8327	16.2709	-3.595	6.74962	2.57716	-1.51514	0.0858035	0.0226537	0.301707	-4.32802	-5.94067	-1.83923	-2.40673	-0.0706787	-0.294469	-0.0481657
3.62925	11.2667	-36.5382	-10.2698	10.8461	21.7335	-59.5579	-7.50343	5.74671	-1.34497	-4.89206	-0.493532	0.185418	0.0150046	18.4919	20.6539	-2.78235	7.911	61.2037	-14.8693	0.030161	-53.793	10.5416	16.5549	-3.58174	6.90307	2.63129	-1.48748	0.0878718	0.0278211	0.305266	-4.32987	-6.09608	-1.89769	-2.40438	-0.0728823	-0.297702	-0.0536071
3.63924	14.7257	-36.9267	-10.2249	14.5636	14.1571	-54.3336	-9.82167	5.78845	-0.974729	-3.12674	-0.357358	0.130866	0.0100713	18.2535	19.6696	-2.42379	7.84637	63.9266	-15.3241	0.0301876	-54.2238	10.3937	16.6618	-3.59649	7.03308	2.67556	-1.46952	0.0894798	0.031368	0.308509	-4.32978	-6.2294	-1.94368	-2.40203	-0.0746041	-0.300245	-0.0575209
3.64923	19.1606	-37.0637	-10.4961	22.2935	7.95649	-47.987	-12.3955	5.97268	-0.582756	-1.32885	-0.221008	0.0798272	0.00479402	18.8316	18.8688	-2.06652	7.69298	66.5458	-15.7645	0.0305589	-56.5219	10.3131	16.6245	-3.721	7.2357	2.75594	-1.50551	0.0922328	0.0314883	0.319052	-4.4185	-6.45887	-2.01474	-2.46611	-0.0779137	-0.310877	-0.0593529
3.65922	21.9795	-36.2123	-9.99967	20.6706	-6.61163	-42.3781	-15.6943	5.97006	-0.155782	0.785301	-0.0836532	0.0252352	-0.000993396	18.5206	18.3919	-1.78165	7.86315	69.0577	-16.1888	0.0306464	-54.8491	9.6312	16.7309	-3.64054	7.29852	2.76344	-1.4194	0.0926433	0.0393801	0.314265	-4.31608	-6.4982	-2.0335	-2.37789	-0.0778433	-0.303514	-0.0657106
3.66921	26.1822	-36.1559	-10.5147	22.9524	-19.4398	-35.1392	-19.5558	6.65222	0.19762	3.05438	0.026787	-0.00677498	-0.00682008	19.066	17.8151	-1.48548	8.02931	71.4826	-16.6086	0.0310807	-55.0861	9.33175	16.6837	-3.69006	7.43067	2.80698	-1.40026	0.0940751	0.0426609	0.317544	-4.30527	-6.62192	-2.07241	-2.3621	-0.0791741	-0.30461	-0.0691324
3.67919	29.7047	-35.9853	-10.8428	19.5498	-37.5193	-27.8568	-24.2243	7.66731	0.509847	5.64379	0.102374	-0.0220277	-0.0123938	19.1832	17.4446	-1.24931	8.50024	73.8267	-17.0071	0.0312894	-52.8978	8.61857	16.7304	-3.62465	7.48005	2.80752	-1.31035	0.0940651	0.0504156	0.311844	-4.17798	-6.62553	-2.07793	-2.25334	-0.0783572	-0.294706	-0.075126
3.68918	34.3833	-36.2165	-11.3072	10.8396	-56.9283	-21.1633	-31.2524	9.5915	0.896893	9.5364	-0.885749	0.0225155	-0.0170942	18.8211	17.3623	-1.08807	9.31189	76.1005	-17.3692	0.0313551	-48.4339	7.7293	16.7021	-3.47719	7.41683	2.75519	-1.17228	0.0921365	0.0598944	0.297669	-3.94305	-6.48624	-2.03765	-2.06595	-0.0750464	-0.27451	-0.0814714
3.69917	36.78	-35.7345	-11.6172	-10.6809	-87.7339	-19.0506	-38.4221	11.2875	1.11301	13.2538	-1.26288	0.0185833	-0.0202727	16.6739	17.6762	-1.06249	10.7101	78.32	-17.6768	0.0308155	-38.7136	6.7677	16.4965	-3.13722	7.0716	2.57369	-0.934114	0.0854831	0.0720101	0.26388	-3.4575	-5.99553	-1.88462	-1.70499	-0.0657798	-0.230939	-0.0876515
3.70916	39.4537	-35.5375	-12.8717	-33.639	-119.532	-19.4118	-46.262	13.4254	1.238	17.2072	-1.67735	0.0204826	-0.0210041	14.3225	18.2426	-1.1029	12.3792	80.5221	-17.9252	0.0303394	-28.1631	6.34196	15.7501	-2.84306	6.57877	2.33519	-0.732105	0.0764854	0.0774273	0.226824	-2.94616	-5.36939	-1.67339	-1.34429	-0.0542919	-0.184062	-0.0877808
3.71915	45.7559	-34.9126	-16.4081	-37.7515	-139.04	-18.7844	-53.6793	15.7419	1.24795	20.8736	-2.07259	0.017663	-0.0188563	14.1918	19.186	-1.08332	13.767	82.7518	-18.1097	0.030478	-25.2316	7.49669	13.7863	-3.00329	6.20799	2.1801	-0.796904	0.069957	0.0609138	0.216439	-2.80613	-5.03901	-1.51892	-1.29331	-0.0481167	-0.170981	-0.0728123
3.72914	54.1999	-33.5375	-20.8527	-26.1119	-149.095	-14.5614	-60.3973	17.7928	1.16488	24.1399	-2.40125	-0.00323664	-0.0135137	15.8981	20.288	-0.959087	14.9905	85.0105	-18.2288	0.0309651	-28.1356	8.93902	11.41	-3.4156	6.02852	2.12421	-1.00325	0.0670079	0.0356848	0.225993	-2.94001	-5.02288	-1.4524	-1.44805	-0.0474899	-0.183262	-0.0530126
3.73913	62.1858	-31.8482	-24.5574	-12.4269	-159.092	-7.94909	-66.6417	19.2987	0.995397	27.1194	-2.63448	-0.0467124	-0.00485884	17.5564	21.2113	-0.784227	16.4922	87.2501	-18.2767	0.0313735	-31.0912	9.41164	9.68059	-3.72714	5.95911	2.11043	-1.14637	0.0659496	0.0190578	0.235745	-3.06096	-5.09316	-1.43385	-1.56937	-0.048443	-0.195247	-0.040544
3.74911	69.3401	-29.4497	-27.6285	3.93124	-168.871	0.837064	-72.0198	20.0125	0.727057	29.607	-2.74536	-0.112496	0.00666254	19.2573	21.9066	-0.56444	18.288	89.4095	-18.2432	0.0318984	-34.4372	9.02178	8.36788	-3.9622	5.96932	2.12764	-1.24359	0.0663828	0.00862811	0.245791	-3.18328	-5.24286	-1.45488	-1.67442	-0.0508754	-0.208005	-0.0333741
3.7591	74.3135	-26.696	-29.4917	13.0838	-185.153	8.67904	-76.5378	19.8319	0.382506	31.5727	-2.73577	-0.189034	0.020048	19.4984	22.2076	-0.386477	20.6712	91.4052	-18.1149	0.0322019	-34.498	7.56401	7.72225	-3.95721	5.92	2.10773	-1.20962	0.065807	0.00919529	0.243374	-3.12498	-5.25227	-1.45408	-1.63285	-0.0510912	-0.20534	-0.0340439
3.76909	77.4215	-23.4016	-31.1736	25.2192	-201.39	17.2732	-79.2882	18.7897	0.015114	32.5975	-2.62763	-0.251481	0.0337558	20.0078	22.1912	-0.192722	23.327	93.1649	-17.8851	0.0329002	-35.2545	5.9651	7.06712	-3.95692	5.88796	2.09704	-1.18144	0.0657075	0.00972487	0.242371	-3.09947	-5.30125	-1.466	-1.6122	-0.0520658	-0.205338	-0.0347839
3.77908	77.7049	-20.9714	-32.065	28.904	-224.7	23.5376	-80.4158	17.305	-0.297692	32.7456	-2.50042	-0.261719	0.0462812	19.1233	21.5571	-0.0644991	26.5225	94.5861	-17.5421	0.0336223	-32.7122	4.11671	6.94592	-3.79124	5.77808	2.04505	-1.06583	0.0641001	0.0169742	0.231082	-2.9157	-5.17541	-1.4376	-1.46966	-0.0501743	-0.191266	-0.0399185
3.78907	74.635	-19.3982	-32.5407	25.9725	-254.106	26.3561	-79.2889	15.4691	-0.526051	31.8383	-2.4596	-0.191988	0.0565087	17.2097	20.4881	-0.041127	30.109	95.5737	-17.0689	0.0346914	-27.5781	2.66647	6.8947	-3.56834	5.55346	1.94223	-0.925271	0.0604122	0.0242709	0.212653	-2.63514	-4.87177	-1.35262	-1.25953	-0.0452783	-0.167326	-0.0440581
3.79906	68.3086	-17.6808	-33.2905	30.3067	-281.958	29.5701	-74.5941	13.1602	-0.6743	29.5235	-2.62614	-0.0245099	0.0638664	16.41	19.3223	-0.0436763	33.6064	96.0586	-16.4574	0.0365533	-24.8938	2.22242	6.07517	-3.5558	5.32151	1.84973	-0.90509	0.0568938	0.0203213	0.203354	-2.52403	-4.64983	-1.26819	-1.18106	-0.0416962	-0.155913	-0.0394477
3.80904	58.2754	-16.2122	-33.2934	30.5884	-314.514	31.0441	-66.9729	10.5419	-0.77722	26.1256	-3.11744	0.238804	0.0677929	15.0745	17.9356	-0.158984	37.1761	95.9283	-15.6896	0.0388917	-20.9626	1.98698	5.01896	-3.55705	4.99794	1.72063	-0.893754	0.0519274	0.0136886	0.190869	-2.39862	-4.33068	-1.14441	-1.0887	-0.0364107	-0.140696	-0.0318385
3.81903	44.6562	-14.605	-32.4772	27.568	-350.755	31.7542	-56.6004	7.6212	-0.841873	21.8211	-4.00609	0.583788	0.0678808	13.5479	16.4891	-0.366709	40.6073	95.1025	-14.7577	0.0413974	-16.3469	1.78194	3.59997	-3.59192	4.58818	1.55903	-0.900324	0.0457724	0.00362559	0.176365	-2.29336	-3.94856	-0.988958	-1.00305	-0.0299898	-0.124003	-0.0206052
3.82902	28.4066	-12.7856	-30.9252	19.7908	-389.075	30.9585	-44.4406	4.48759	-0.858727	17.0661	-5.3092	0.977001	0.0639949	11.8658	15.1105	-0.674181	43.7287	93.4957	-13.663	0.0441456	-11.0408	1.71432	1.97262	-3.67272	4.12965	1.38039	-0.926079	0.0389222	-0.00897637	0.161337	-2.2206	-3.52258	-0.810436	-0.925951	-0.0226816	-0.106529	-0.00657158
3.83901	11.4022	-9.94664	-29.2689	16.0676	-421.749	31.6634	-31.2116	1.19121	-0.78876	12.2172	-6.96345	1.36643	0.0560542	11.6619	14.1324	-1.01182	46.1236	91.0654	-12.4279	0.0470304	-8.80076	2.14774	-0.0730527	-3.95986	3.77391	1.25753	-1.05295	0.034115	-0.0282631	0.158789	-2.36907	-3.28617	-0.675236	-0.989548	-0.0183964	-0.10486	0.0123331
3.849	-4.34181	-5.62716	-28.1039	24.1035	-441.628	38.6217	-17.8104	-1.86627	-0.600412	7.66162	-8.83211	1.68783	0.0437934	14.5483	13.7343	-1.26841	47.4035	87.7837	-11.0887	0.0494985	-13.0912	3.0583	-2.67351	-4.56339	3.66213	1.25655	-1.33669	0.0339915	-0.0562744	0.179421	-2.89487	-3.46238	-0.650634	-1.30273	-0.0209377	-0.133383	0.0365446
3.85899	-18.8575	-1.97539	-26.2934	10.7234	-465.496	40.3029	-7.38523	-3.6483	-0.372066	4.63645	-10.7874	1.86898	0.0279212	15.6859	13.4859	-1.62218	48.2133	83.4995	-9.64125	0.0515352	-12.3985	3.4237	-4.66055	-4.97727	3.42819	1.19437	-1.51003	0.0315801	-0.076102	0.186081	-3.22816	-3.38416	-0.561057	-1.45235	-0.0191496	-0.142247	0.0559826
3.86898	-30.611	1.7595	-24.8479	-0.753737	-478.215	45.9057	0.932266	-4.04783	-0.19859	2.83564	-12.6758	1.85617	0.0107104	18.7073	13.6722	-1.90587	47.9533	78.2781	-8.16156	0.0524004	-14.9248	3.61735	-6.4759	-5.48045	3.37091	1.21419	-1.72319	0.0325889	-0.0949676	0.203818	-3.75346	-3.55252	-0.551468	-1.71183	-0.0215685	-0.165948	0.0739762
3.87896	-42.2272	4.45176	-22.9608	-31.0911	-493.232	46.9116	6.91743	-3.14785	-0.255333	2.29453	-14.3687	1.61444	-0.00490293	20.2165	13.9068	-2.14131	47.005	72.0959	-6.68351	0.0517884	-12.2828	2.99658	-7.63873	-5.73751	3.16478	1.1598	-1.80111	0.0310375	-0.103998	0.204731	-4.05924	-3.44888	-0.474132	-1.79065	-0.0194726	-0.16801	0.0862076
3.88895	-54.091	6.40665	-20.7086	-66.7026	-502.954	48.5121	12.0269	-1.37851	-0.525784	2.26861	-15.7	1.15429	-0.0179496	22.0816	14.1751	-2.22143	45.0681	65.1192	-5.2969	0.0488938	-8.70516	1.52887	-8.15222	-5.86655	3.0022	1.11965	-1.80182	0.0304943	-0.104155	0.201941	-4.34281	-3.35785	-0.41814	-1.81976	-0.0177101	-0.166107	0.0921857
3.89894	-65.1757	7.2287	-18.3767	-108.896	-506.964	48.6036	16.1021	1.31411	-0.94115	2.69478	-16.5768	0.51816	-0.0276913	23.5211	14.1254	-2.15523	42.3039	57.509	-4.06689	0.0442447	-3.80514	-0.403602	-8.0797	-5.86373	2.84148	1.07769	-1.73165	0.0302935	-0.0968893	0.194246	-4.58543	-3.23085	-0.366456	-1.79465	-0.0155823	-0.158896	0.0932482
3.90893	-74.2885	7.23267	-16.3906	-148.229	-500.411	51.6411	19.6704	4.83499	-1.41527	3.2974	-16.9627	-0.237041	-0.0331903	25.5466	13.6076	-1.88936	38.6508	49.571	-3.05622	0.0368076	-1.00615	-2.7218	-7.73899	-5.84909	2.7813	1.08438	-1.65746	0.0324825	-0.0862906	0.191651	-4.94081	-3.26268	-0.372967	-1.82974	-0.0164985	-0.16059	0.0916223
3.91892	-82.7708	6.85224	-14.4003	-203.079	-495.287	48.5474	21.9129	8.84525	-1.96342	4.31083	-16.8805	-1.07594	-0.0338966	25.0421	12.714	-1.49057	34.5833	41.5331	-2.25398	0.0273505	6.4836	-5.46305	-7.39686	-5.63786	2.46351	0.978493	-1.48626	0.0307394	-0.0721468	0.171445	-5.10175	-2.98122	-0.283315	-1.71772	-0.0123825	-0.142299	0.0896834
3.92891	-89.0296	6.591	-12.7012	-259	-484.99	46.8111	23.6917	13.1169	-2.55501	5.36923	-16.3205	-1.96292	-0.0314636	23.8184	11.2896	-0.891074	29.9752	33.7901	-1.68692	0.0153578	13.1845	-8.64932	-7.1896	-5.41891	2.13159	0.873812	-1.31037	0.0294705	-0.0575701	0.151792	-5.31784	-2.74447	-0.206944	-1.6308	-0.00933119	-0.127205	0.0879009
3.9389	-91.9418	6.33825	-11.4863	-314.013	-469.206	47.47	24.8994	17.7568	-3.08208	6.44435	-15.3127	-2.86453	-0.0276522	21.9929	9.41056	-0.141395	24.9409	26.6623	-1.32944	0.00118572	18.0027	-11.8875	-7.17245	-5.28126	1.85234	0.8017	-1.17195	0.0295799	-0.0450057	0.138623	-5.64336	-2.62106	-0.162799	-1.61168	-0.0084151	-0.120847	0.0874282
3.94888	-91.0308	6.24056	-10.7784	-368.11	-448.713	49.4531	25.238	22.543	-3.46463	7.52374	-13.9025	-3.77393	-0.0234165	19.5581	7.36023	0.610088	19.6363	20.3902	-1.12681	-0.0140885	20.7908	-14.6307	-7.35011	-5.29667	1.66437	0.779185	-1.10365	0.0313126	-0.036637	0.135552	-6.09344	-2.62139	-0.151717	-1.67627	-0.00963593	-0.125094	0.0894654
3.95887	-68.7309	-0.920209	-10.0213	0.53841	0.711985	0.67684	34.2538	17.0659	-3.74553	6.02608	-13.1257	-4.65016	0.0135687	40.4386	20.7331	-1.38973	5.3181	15.0928	-0.872986	-0.0200013	-56.1193	14.8642	3.09104	-6.53826	6.77536	2.61333	-2.50811	0.0895451	-0.0717778	0.373358	-7.04062	-7.52109	-1.83025	-3.70074	-0.0824307	-0.40242	0.0451571
3.96886	-67.0326	-0.707163	-8.52723	0.363248	0.798739	0.2095	37.355	19.1752	-3.94663	5.81243	-11.1305	-5.57807	0.0173244	39.9508	20.1387	-1.34229	-0.483841	10.9913	-0.844826	-0.0380287	-58.9925	14.3942	3.45382	-6.36904	6.71739	2.62933	-2.48432	0.0911245	-0.0688207	0.377169	-7.02842	-7.526	-1.87092	-3.73507	-0.0858261	-0.411518	0.0419328
3.97885	-63.9023	-0.561638	-7.12065	-0.194887	-0.0534537	0.727321	39.5568	20.8932	-4.12073	5.71643	-9.06124	-6.49946	0.021136	38.8564	19.7249	-1.50609	-6.11041	7.89557	-0.841834	-0.0536309	-61.3931	14.4734	4.13885	-6.27073	6.78457	2.68743	-2.47297	0.0933647	-0.0650227	0.385271	-6.95241	-7.54499	-1.92201	-3.73632	-0.0888299	-0.418819	0.0365121
3.98884	-61.886	-0.817057	-5.6912	-0.274437	0.00609829	0.347277	41.2336	22.3839	-4.2656	5.78237	-6.98169	-7.4062	0.0255343	36.7418	19.8876	-1.86209	-11.5931	5.705	-0.835975	-0.0648123	-60.5999	15.2711	5.07756	-6.08083	6.8308	2.70166	-2.41109	0.0927764	-0.0595251	0.383528	-6.56934	-7.37332	-1.91753	-3.58274	-0.0874309	-0.408009	0.0281101
3.99883	-59.6932	-1.0955	-4.01782	0.426258	0.291505	0.00762772	42.4033	23.4797	-4.36265	5.9131	-4.8674	-8.31238	0.0295632	34.2975	20.27	-2.37783	-16.6897	4.31825	-0.825905	-0.0718025	-59.0375	16.2622	6.33413	-5.87315	6.94387	2.73047	-2.32823	0.0922516	-0.0513868	0.38108	-6.10069	-7.18721	-1.91517	-3.37961	-0.0852863	-0.392688	0.0167984
4.00881	-54.6434	-1.08397	-2.7923	0.144269	0.188106	0.0582578	42.8394	24.1049	-4.41832	6.07075	-2.67587	-9.23319	0.0322126	32.0345	20.312	-2.9523	-21.0244	3.5793	-0.810849	-0.0752104	-59.994	17.5776	7.52408	-5.8695	7.19601	2.83824	-2.3307	0.0946504	-0.0466639	0.393031	-5.86756	-7.17699	-1.96255	-3.30109	-0.0863349	-0.3928	0.00830819
4.0188	-49.9748	-1.3529	-1.07722	-0.286828	0.378837	0.364764	42.8861	24.47	-4.41014	6.36132	-0.438935	-10.1527	0.0345034	29.1515	20.0918	-3.51729	-24.5278	3.24733	-0.779222	-0.0740161	-59.4463	18.356	8.9658	-5.72419	7.41362	2.91483	-2.26135	0.0960062	-0.0368604	0.396428	-5.50295	-7.09902	-1.9959	-3.13955	-0.0859163	-0.383477	-0.00413568
4.02879	-45.867	-1.86126	1.33658	-0.978205	0.548898	0.977103	42.4801	24.5965	-4.33394	6.81843	1.86079	-11.0707	0.0363638	25.6705	19.5351	-4.04842	-27.0314	3.14135	-0.725019	-0.0689262	-57.245	18.2944	10.6696	-5.3919	7.56719	2.94811	-2.10043	0.09616	-0.0206551	0.388874	-5.00581	-6.94744	-2.01448	-2.88862	-0.0840543	-0.363763	-0.0211617
4.03878	-40.9819	-2.1173	4.19334	0.0531617	0.731079	0.151654	41.499	24.1781	-4.20034	7.35767	4.26504	-11.9968	0.037316	22.4011	18.7864	-4.60492	-28.4167	3.14373	-0.641459	-0.0618283	-55.9776	17.8432	12.491	-5.03761	7.73828	2.99499	-1.9336	0.0974001	-0.00265329	0.382598	-4.59684	-6.86844	-2.05797	-2.67853	-0.0837303	-0.348858	-0.0389596
4.04877	-34.8	-2.356	7.16277	-0.282521	0.30635	0.575844	39.5527	23.5652	-4.0116	8.10229	6.78048	-12.9181	0.0373017	19.3957	17.5641	-5.08372	-28.6695	3.14842	-0.534918	-0.05363	-55.6936	16.7212	14.3305	-4.70358	7.93946	3.0635	-1.76949	0.100074	0.0168091	0.379153	-4.32244	-6.88945	-2.13086	-2.52402	-0.0852758	-0.340379	-0.0569164
4.05876	-27.3722	-2.3627	9.73681	-0.429442	0.371372	-0.1279	36.659	22.6248	-3.77058	8.99994	9.4132	-13.8182	0.0364509	17.0312	16.0998	-5.47101	-28.0077	3.09902	-0.412746	-0.045225	-57.0069	15.6364	15.9142	-4.47059	8.15178	3.15077	-1.66113	0.103843	0.0325076	0.381626	-4.22532	-7.0038	-2.22129	-2.46833	-0.0885841	-0.341825	-0.0710076
4.06875	-23.0086	-2.9632	12.1797	2.89289	-0.504824	3.52383	33.7415	21.8166	-3.49315	9.95543	12.1328	-14.6476	0.0355927	15.3311	14.1723	-5.61887	-26.7896	2.96091	-0.296829	-0.0367799	-56.3402	13.4539	17.3614	-4.04645	8.22886	3.15861	-1.46333	0.10513	0.0520683	0.369293	-3.97354	-7.01603	-2.27568	-2.31911	-0.0895822	-0.330523	-0.0874329
4.07873	-16.9351	-2.83059	12.9977	2.48969	-0.127283	3.32208	31.0005	21.1714	-3.2263	10.9224	14.9406	-15.3654	0.0346204	12.7044	12.1553	-5.42814	-25.0017	2.68256	-0.192083	-0.0276057	-57.0631	12.492	17.3774	-3.89147	8.13915	3.119	-1.42336	0.104439	0.0538569	0.362949	-3.91886	-6.98398	-2.27079	-2.31281	-0.0897625	-0.329042	-0.0883755
4.08872	-13.234	-2.52126	12.6592	2.43643	0.205971	2.49407	29.0702	20.6511	-2.98526	11.7481	17.818	-15.9485	0.0339958	9.81539	10.1212	-5.00079	-22.9598	2.29316	-0.103099	-0.0183491	-56.3492	12.0612	16.4111	-3.7672	7.83139	2.98129	-1.4167	0.0998663	0.0465777	0.348204	-3.80247	-6.78087	-2.18195	-2.2914	-0.0864257	-0.32015	-0.0811284
4.09871	-11.45	-2.12326	11.6779	2.31386	0.392961	1.62158	27.5298	20.2339	-2.75622	12.4752	20.7533	-16.3928	0.033734	6.73087	8.12871	-4.42895	-20.7456	1.81875	-0.0294111	-0.00934956	-54.0183	11.8936	14.9371	-3.61287	7.37726	2.77173	-1.40369	0.0924376	0.0355596	0.325105	-3.59075	-6.44034	-2.03448	-2.22418	-0.080233	-0.302666	-0.0703754
4.1087	-7.17516	-2.12173	9.1062	2.20012	0.564838	0.585804	26.8456	20.4683	-2.57009	12.9587	23.7644	-16.6772	0.032986	3.34233	5.93669	-3.58589	-18.5303	1.30711	0.0102737	-0.000997575	-54.7396	12.8338	12.8218	-3.76214	6.99171	2.61713	-1.54832	0.0865174	0.0124332	0.318736	-3.6072	-6.21381	-1.90299	-2.31603	-0.0762361	-0.30249	-0.0505658
4.11869	-4.85423	-2.03021	6.6438	-0.916643	0.305714	0.540976	26.0258	20.686	-2.38011	13.3548	26.8177	-16.8518	0.0325666	-0.0748326	3.83838	-2.7396	-16.1887	0.783345	0.0368287	0.00641618	-53.2324	13.4845	10.711	-3.82473	6.53646	2.41989	-1.63619	0.0790017	-0.0076968	0.303742	-3.51985	-5.89237	-1.74029	-2.32691	-0.0700686	-0.292045	-0.0325195
4.12868	-3.83128	-1.7022	4.7734	-0.570214	-0.0388318	0.966659	24.8886	20.5236	-2.16141	13.6356	29.9022	-16.9496	0.032848	-3.55341	1.96018	-1.87374	-12.7248	-0.376122	0.0866929	0.0128521	-50.2108	13.6701	9.03265	-3.71834	6.08347	2.20219	-1.63724	0.0707844	-0.0208862	0.280059	-3.27505	-5.53159	-1.57804	-2.24218	-0.0628051	-0.271812	-0.020579
4.13867	-1.89567	-1.39888	2.4089	-0.519816	0.5187	0.114112	25.019	20.6214	-1.9861	13.4306	33.0752	-16.9543	0.0323845	-6.42818	0.373759	-1.05777	-11.0502	-0.550132	0.0601731	0.0175785	-49.926	14.6638	7.13179	-3.86047	5.74589	2.05908	-1.7602	0.0649308	-0.0414443	0.272935	-3.24056	-5.30092	-1.45006	-2.29069	-0.0582294	-0.267795	-0.00342533
4.14865	-0.636657	-0.758178	0.815215	-0.531962	-0.123662	0.0990551	24.692	20.4857	-1.78636	13.1498	36.292	-16.9282	0.0321753	-9.31628	-0.915357	-0.358898	-9.14551	-0.688275	0.037546	0.0210211	-48.3158	15.1764	5.60155	-3.8724	5.41173	1.90415	-1.80944	0.0587329	-0.0557468	0.259401	-3.09229	-5.03813	-1.32424	-2.26039	-0.0529077	-0.25613	0.00851766
4.15864	-0.483193	-0.184055	-0.107604	0.401193	0.128887	0.382041	23.984	20.1987	-1.57375	12.7609	39.5523	-16.8887	0.032334	-12.0062	-1.99465	0.229705	-7.11814	-0.784166	0.014817	0.0231143	-45.2876	15.2195	4.54827	-3.71353	5.07203	1.73184	-1.77082	0.0521404	-0.0626173	0.23781	-2.82111	-4.74047	-1.20208	-2.14646	-0.0468599	-0.23613	0.014446
4.16863	-0.503833	0.222482	-0.439084	-0.2445	0.037892	-0.224682	22.3093	19.8119	-1.33856	12.4443	42.8655	-16.8535	0.0329147	-14.8953	-2.9837	0.732721	-4.85266	-0.852395	-0.00787458	0.0241457	-40.4712	14.9862	3.94064	-3.3579	4.67977	1.52501	-1.63733	0.0446028	-0.0622637	0.206132	-2.41232	-4.36381	-1.07002	-1.93952	-0.0395562	-0.20614	0.014918
4.17862	-0.374525	0.661576	-1.05719	-0.38614	0.315323	0.471915	22.2288	19.7531	-1.16849	11.5099	46.3175	-16.7949	0.0328236	-17.0537	-3.86577	1.20057	-3.00487	-0.852099	-0.0414485	0.0234602	-38.6518	14.6827	3.03476	-3.26756	4.4265	1.40315	-1.62189	0.0401793	-0.0681971	0.191901	-2.28748	-4.18914	-0.989865	-1.89167	-0.0359409	-0.195249	0.0203297
4.18861	0.240945	1.27301	-2.06221	-0.0236887	0.0998949	0.491432	24.5899	20.0209	-1.07179	9.73981	49.9398	-16.7176	0.0315984	-18.2549	-4.41782	1.56208	-1.7292	-0.773222	-0.0792617	0.0207412	-41.5764	14.6687	1.72492	-3.62309	4.4028	1.42126	-1.80878	0.0406984	-0.08499	0.206728	-2.61335	-4.3142	-0.9858	-2.09968	-0.037855	-0.214808	0.0343313
4.1986	-0.10423	2.21731	-3.44974	-0.400348	0.945914	0.534283	27.2292	20.3181	-0.957617	7.79276	53.6498	-16.672	0.0303251	-19.2296	-4.65399	1.79252	-0.527564	-0.681339	-0.103279	0.0174125	-44.3664	15.0961	0.158506	-4.08473	4.39507	1.44492	-2.03802	0.0410081	-0.105494	0.224468	-2.97752	-4.44107	-0.970219	-2.32811	-0.0392277	-0.235499	0.0513068
4.20858	-0.776078	2.78184	-4.80068	-0.131323	0.446968	0.237332	30.0442	20.7983	-0.853702	5.78188	57.3998	-16.6692	0.0293546	-19.9295	-4.65113	1.89475	0.61758	-0.572006	-0.114644	0.013351	-47.3024	15.6589	-1.11142	-4.56025	4.45105	1.49704	-2.26771	0.0423022	-0.124151	0.245117	-3.36126	-4.59807	-0.970829	-2.56021	-0.0411707	-0.257735	0.0666491
4.21857	-1.69556	2.81015	-5.78757	0.157356	0.565715	0.965315	33.0835	21.5314	-0.773256	3.73797	61.1455	-16.7172	0.0289253	-20.5415	-4.42535	1.88123	1.71587	-0.45693	-0.11022	0.00880757	-50.3199	15.9905	-1.79776	-5.03209	4.63749	1.60244	-2.47553	0.0456144	-0.137262	0.269617	-3.77503	-4.83653	-1.01016	-2.78862	-0.0444274	-0.281961	0.0774343
4.22856	-0.923054	2.87301	-5.7476	-0.867826	0.138055	0.743472	34.7062	22.2439	-0.680157	2.13594	64.8334	-16.844	0.0291447	-22.1374	-3.97814	1.78316	3.213	-0.377677	-0.0857693	0.00458143	-51.916	15.9675	-1.88265	-5.28044	4.78981	1.681	-2.57935	0.0483061	-0.141903	0.28439	-4.02621	-5.00069	-1.04747	-2.91726	-0.0467588	-0.296325	0.0814983
4.23855	-0.171583	2.8116	-5.10587	-0.13501	0.482094	0.0288836	35.7776	22.9915	-0.611264	0.770791	68.4547	-17.0359	0.0298909	-24.2512	-3.3612	1.63618	4.91172	-0.339497	-0.0445901	0.00105167	-52.0633	15.6531	-1.52147	-5.30269	4.8763	1.71749	-2.58363	0.0498207	-0.139458	0.288005	-4.1088	-5.07743	-1.07382	-2.94909	-0.0478342	-0.300303	0.0800024
4.24854	1.37268	2.74325	-4.42756	-0.373023	0.204683	0.0804686	37.3657	24.2124	-0.590549	-0.500818	72.0216	-17.2537	0.0306345	-26.7922	-2.41682	1.4659	6.63812	-0.323244	0.0146362	-0.00229796	-53.1857	15.3476	-1.1396	-5.43492	5.04457	1.79827	-2.63091	0.0528866	-0.13839	0.299314	-4.30053	-5.23364	-1.12348	-3.0366	-0.0503378	-0.311432	0.0796605
4.25853	2.24634	2.39614	-3.77376	-1.01152	-0.182886	0.8655	38.4748	25.776	-0.606152	-1.47569	75.5048	-17.4983	0.0314605	-29.7816	-1.54076	1.30555	8.53782	-0.359486	0.0834849	-0.00438632	-52.3886	14.9025	-0.717072	-5.38038	5.07548	1.80958	-2.59595	0.0537233	-0.133524	0.297939	-4.33893	-5.25787	-1.13635	-3.03211	-0.0506528	-0.310922	0.0769884
4.26852	2.11754	2.01938	-3.09189	0.58944	0.318439	0.117893	39.4621	27.4252	-0.652052	-2.24033	78.8924	-17.7537	0.0325371	-32.999	-0.58279	1.13664	10.5441	-0.462402	0.162139	-0.00460506	-50.1593	14.512	-0.223153	-5.14275	4.97311	1.75522	-2.49052	0.0524657	-0.125736	0.285015	-4.2344	-5.15811	-1.11579	-2.95119	-0.0490793	-0.300518	0.0724506
4.2785	1.69009	1.6088	-2.35707	-0.87083	0.0419269	0.143828	39.9429	29.3272	-0.729563	-2.63768	82.1649	-17.996	0.0338009	-36.8172	0.174931	0.97547	12.7662	-0.638277	0.241836	-0.00258869	-46.199	13.9856	0.215369	-4.78376	4.75508	1.64651	-2.32458	0.0495274	-0.115275	0.262612	-4.04466	-4.95956	-1.06454	-2.80554	-0.0458293	-0.281554	0.0667654
4.28849	1.2105	1.01169	-1.47276	-0.198646	-0.390721	0.65157	40.2173	31.4309	-0.841632	-2.70235	85.3032	-18.2011	0.0353372	-40.8977	0.667	0.803297	15.1106	-0.891331	0.314954	0.00213742	-41.5532	13.2966	0.702864	-4.3116	4.46968	1.50357	-2.11318	0.0455353	-0.102658	0.23372	-3.76617	-4.70383	-1.00033	-2.61338	-0.0417851	-0.257182	0.0593579
4.29848	1.10177	0.465823	-0.392364	-0.111244	0.15449	0.11217	39.9714	33.4953	-0.969894	-2.34994	88.2806	-18.3548	0.037155	-45.3792	0.84434	0.609722	17.596	-1.21526	0.373265	0.00952381	-36.2119	12.6828	1.11032	-3.77079	4.10709	1.32533	-1.87678	0.0403985	-0.0897462	0.199532	-3.43735	-4.38866	-0.916459	-2.39278	-0.0368034	-0.228595	0.0520248
4.30847	0.189188	-0.366217	0.365064	-0.033418	-0.0644379	-0.296823	41.1446	35.8412	-1.1193	-1.99238	91.0957	-18.4144	0.0388442	-48.7344	1.17419	0.348667	19.518	-1.52399	0.412671	0.0176272	-33.4345	12.2744	1.61235	-3.57242	4.00999	1.28142	-1.77373	0.0397816	-0.081237	0.18818	-3.42743	-4.31688	-0.900971	-2.33271	-0.0357439	-0.220312	0.0479546
4.31846	8.82668	-1.33527	3.78317	-0.780587	0.506184	-0.266613	41.1617	38.0598	-1.15888	-0.68722	93.6602	-18.3908	0.0402952	-53.6179	1.22105	0.0659907	21.6988	-1.81121	0.420337	0.0255673	-36.9021	11.2552	2.53888	-3.80324	4.37893	1.46666	-1.86287	0.0469434	-0.0778916	0.213975	-3.79834	-4.67105	-1.02863	-2.51713	-0.0425554	-0.246697	0.0451692
4.32845	16.9749	-1.4996	6.94441	0.186201	-1.22247	-0.544877	40.1423	39.8424	-1.21838	1.17677	95.9197	-18.3081	0.0414884	-58.6201	0.751933	-0.168953	23.9878	-2.37407	0.385319	0.0341442	-38.2978	10.3971	2.54541	-3.84434	4.39671	1.49516	-1.89642	0.048476	-0.0791547	0.220391	-3.92918	-4.74487	-1.05434	-2.59334	-0.0447737	-0.256266	0.0466623
4.33843	22.9033	-2.05544	9.15506	-0.0211315	0.142537	-0.0546573	38.4147	41.4253	-1.35398	3.49057	97.7821	-18.1424	0.0431708	-62.5054	-0.11069	-0.364266	25.5653	-2.71203	0.345064	0.0429578	-38.0193	9.86793	2.25374	-3.77836	4.26921	1.44777	-1.8875	0.0472322	-0.0809372	0.215522	-3.93289	-4.69259	-1.03157	-2.601	-0.0443377	-0.255306	0.0489837
4.34842	23.1139	-4.05411	26.205	247.97	-385.248	134.717	44.3567	52.2609	-2.39689	7.42922	100.028	-17.8662	0.0233846	-43.8348	-9.06756	-0.591033	21.6628	-2.31367	0.0784157	0.0443947	-39.8261	-24.2852	4.75301	0.699261	2.83236	0.814585	0.0376256	0.031262	0.0372432	0.0587017	0.393689	-3.4457	-1.17837	-0.637547	-0.0485523	-0.114321	-0.0740835
4.35841	27.8989	-2.66056	26.7602	178.835	-383.018	128.414	35.9805	52.3838	-2.58885	11.9319	100.829	-17.6041	0.025057	-48.8511	-9.79023	-0.67712	22.5194	-2.31673	0.0554849	0.0496054	-29.2054	-21.9156	3.35548	0.587897	2.29443	0.612065	0.093692	0.0250616	0.0347365	0.0346096	0.0939234	-3.04429	-0.977658	-0.566961	-0.0396583	-0.0908255	-0.0599783
4.3684	30.7321	-0.418994	27.484	120.548	-385.047	121.721	28.3031	51.9182	-2.8185	16.5832	101.067	-17.2875	0.0270631	-51.6572	-9.34088	-0.683566	22.6275	-2.28061	0.133169	0.0530545	-19.9741	-20.0846	2.54031	0.536556	1.88877	0.459427	0.171161	0.0207083	0.036785	0.0140988	-0.165651	-2.74213	-0.828098	-0.495595	-0.032807	-0.0708782	-0.0512343
4.37839	28.2771	1.21803	26.9234	78.0975	-389.611	115.742	21.4321	50.9047	-3.05718	21.2311	100.743	-16.8944	0.0292337	-49.378	-8.97475	-0.603864	20.4213	-2.01368	0.149671	0.0547851	-12.2348	-18.7405	2.16192	0.537521	1.58223	0.345279	0.259793	0.0177599	0.041692	-0.0031694	-0.381665	-2.51576	-0.719632	-0.428149	-0.0277184	-0.0544607	-0.0464677
4.38838	24.2721	3.02784	26.147	46.0055	-399.107	109.48	15.4745	49.4476	-3.28472	25.7238	99.8437	-16.4045	0.0315381	-45.1144	-8.06616	-0.447139	17.7193	-1.85641	0.271874	0.0547608	-6.21489	-17.8582	2.0401	0.556879	1.35737	0.26531	0.34	0.0160165	0.0473236	-0.0162542	-0.57574	-2.36174	-0.646105	-0.381284	-0.02433	-0.0428285	-0.0438975
4.39837	16.7451	4.62896	24.3051	14.7379	-416.725	106.693	9.55796	47.6575	-3.51857	29.9905	98.3476	-15.8108	0.0338282	-38.7862	-7.78146	-0.233574	14.3192	-1.78139	0.419482	0.0526861	1.47535	-17.4735	1.59105	0.737725	0.945676	0.101567	0.492581	0.0115925	0.0545389	-0.0421459	-0.631238	-2.07116	-0.528713	-0.251268	-0.0188248	-0.0203582	-0.0418231
4.40835	13.2829	3.52041	23.3196	16.7519	-419.17	97.9722	7.08736	45.713	-3.65203	33.4951	96.2588	-15.0787	0.03661	-30.0956	-6.88695	0.0120586	10.3083	-1.85143	0.598845	0.0484028	-2.94325	-17.2901	2.68299	0.366051	1.41314	0.329943	0.336087	0.0199909	0.054733	-0.00850019	-1.11291	-2.49234	-0.669754	-0.50199	-0.0263287	-0.0533949	-0.0422634
4.41834	9.08696	1.75587	20.8934	17.0276	-423.524	88.8435	5.09397	43.4778	-3.71222	36.516	93.5422	-14.2444	0.0389425	-21.3633	-6.67513	0.328085	6.51456	-2.09053	0.756765	0.0412014	-7.40631	-16.1757	2.87965	-0.0808924	1.72576	0.495701	0.119465	0.0256174	0.0451567	0.0226097	-1.56239	-2.78903	-0.749005	-0.764229	-0.0314891	-0.0838729	-0.0348679
4.42833	5.07452	0.375656	18.0232	16.1574	-426.228	78.628	4.08362	40.6932	-3.67181	38.8647	90.1738	-13.3295	0.0411196	-13.4945	-6.46985	0.709933	3.3575	-2.51674	0.873328	0.0308476	-12.3899	-14.565	2.48931	-0.625208	1.99871	0.644027	-0.154516	0.0301584	0.0287185	0.0554138	-2.02038	-3.05995	-0.803483	-1.05452	-0.035795	-0.115535	-0.022406
4.43832	0.907343	-0.961871	14.7438	10.2049	-427.418	69.4019	3.73763	37.6862	-3.58632	40.4919	86.1305	-12.343	0.0430268	-7.01343	-6.3792	1.10469	1.06868	-3.13938	0.909746	0.0185784	-16.3573	-12.5827	1.7343	-1.18084	2.21092	0.759318	-0.426801	0.0332527	0.0102994	0.0843421	-2.43561	-3.26905	-0.827437	-1.31634	-0.0384636	-0.142222	-0.00803738
4.44831	-3.92426	-1.8154	11.4859	0.603599	-425.34	61.3729	4.13378	34.398	-3.45077	41.3083	81.4108	-11.3053	0.0447142	-1.50765	-6.03632	1.42873	-0.501191	-3.95182	0.846846	0.00656914	-19.2682	-10.6372	0.932645	-1.71747	2.42425	0.864635	-0.672575	0.0359053	-0.00632583	0.110084	-2.81245	-3.46695	-0.844798	-1.54205	-0.0403522	-0.164566	0.00511615
4.4583	-8.90403	-2.34004	8.19982	-3.36139	-413.723	51.5507	6.2111	30.8662	-3.27657	41.1876	76.0497	-10.2324	0.0459896	3.89802	-4.91473	1.6513	-1.74031	-4.89679	0.684558	-0.00379757	-24.356	-8.42621	0.308837	-2.41909	2.85563	1.05748	-0.994663	0.0411602	-0.0253371	0.14898	-3.28116	-3.83087	-0.913659	-1.84509	-0.0445408	-0.19771	0.0183339
4.46829	-15.9533	-2.38532	5.11345	-10.891	-398.931	44.282	8.57136	27.1913	-3.06871	40.2606	70.0687	-9.14628	0.0467433	9.35159	-3.51687	1.74831	-2.82629	-5.87811	0.409844	-0.0119065	-27.3126	-6.68498	0.0232283	-2.98312	3.27899	1.2322	-1.22147	0.0460654	-0.0363188	0.179514	-3.65897	-4.16755	-0.982858	-2.05956	-0.0478537	-0.221717	0.0258924
4.47827	-24.5081	-2.40265	2.24383	-21.7887	-380.15	39.6837	10.9576	23.5931	-2.86966	38.5911	63.5391	-8.0607	0.0468586	14.6615	-1.92399	1.745	-3.77039	-6.8149	0.0335317	-0.0171766	-28.2532	-5.33519	0.188696	-3.40205	3.7042	1.39357	-1.35188	0.0507839	-0.0388047	0.202083	-3.9423	-4.47598	-1.05518	-2.18506	-0.0503889	-0.236817	0.0273202
4.48826	-32.3599	-2.27156	-0.687931	-27.7732	-351.469	31.7366	14.2066	19.8865	-2.66314	36.1762	56.6094	-6.99983	0.0456496	19.6872	0.538508	1.69595	-4.55087	-7.64841	-0.409293	-0.0191459	-31.08	-3.1965	0.566222	-3.9514	4.29755	1.6234	-1.5528	0.05737	-0.0440914	0.23554	-4.28094	-4.8871	-1.1616	-2.37108	-0.0544251	-0.260244	0.0292653
4.49825	-40.7735	-2.91735	-3.96151	-37.9773	-319.862	22.9736	16.9461	16.3486	-2.43252	33.2217	49.4164	-5.97794	0.0427841	24.1151	3.15015	1.59083	-5.13219	-8.30864	-0.929483	-0.0178503	-31.9665	-0.15454	1.3047	-4.40144	4.85311	1.82793	-1.69818	0.0628943	-0.0451997	0.262229	-4.5153	-5.18992	-1.24261	-2.47789	-0.0564829	-0.274331	0.0284151
4.50824	-49.583	-4.67003	-7.56317	-49.927	-285.685	13.4876	19.292	13.0788	-2.18094	29.7491	42.1606	-5.01311	0.0379101	28.2065	5.58526	1.41095	-5.66578	-8.72715	-1.53781	-0.0140629	-31.5859	3.65937	2.32925	-4.77377	5.37381	2.01237	-1.80762	0.067567	-0.0437457	0.284131	-4.6681	-5.40484	-1.30364	-2.53004	-0.0570893	-0.281915	0.0257494
4.51823	-55.7022	-6.66912	-10.9868	-50.5437	-242.603	0.514637	22.5392	9.95919	-1.92478	25.6952	35.102	-4.12817	0.0301171	32.1532	8.22099	1.18524	-6.26246	-8.86733	-2.22698	-0.00881834	-35.3932	7.91764	3.18008	-5.3343	6.04728	2.27133	-2.04923	0.0744163	-0.0510378	0.322304	-4.9303	-5.77693	-1.41132	-2.71744	-0.0607696	-0.306402	0.0272342
4.52822	-61.9257	-8.57874	-13.554	-56.2978	-204.185	-6.82515	24.5789	7.4558	-1.64796	21.28	28.407	-3.33203	0.0201396	35.4241	10.1085	0.941251	-6.76121	-8.7203	-3.01982	-0.00291608	-35.9941	10.5341	3.88601	-5.56332	6.42529	2.40122	-2.13151	0.0777219	-0.050881	0.33792	-5.00361	-5.96151	-1.46681	-2.76424	-0.0618493	-0.313463	0.0248441
4.5382	-66.2198	-10.4172	-16.2317	-52.6385	-161.914	-16.4774	27.5103	5.26204	-1.4503	16.3163	22.3391	-2.64702	0.00748131	38.4485	12.0496	0.752647	-7.3024	-8.29316	-3.89397	0.00260869	-39.6788	13.3291	4.15985	-5.89672	6.81954	2.54961	-2.30938	0.0814928	-0.0592963	0.362098	-5.1365	-6.21354	-1.53685	-2.909	-0.0646624	-0.331623	0.0274905
4.54819	-70.9242	-11.9797	-18.1078	-53.6174	-127.444	-19.5297	29.4652	3.88427	-1.35359	11.0474	17.0082	-2.06938	-0.00632986	40.8007	13.1776	0.610269	-7.71737	-7.61382	-4.87067	0.0076232	-40.0767	14.0311	4.1787	-5.87019	6.87203	2.55111	-2.3155	0.0812674	-0.0602067	0.361342	-5.07353	-6.26192	-1.54802	-2.90745	-0.0647186	-0.331296	0.0266033
4.55818	-76.5192	-13.8099	-19.3349	-60.6584	-102.645	-15.241	30.3252	3.47122	-1.40199	5.55897	12.5126	-1.59685	-0.0198987	42.543	13.2391	0.47361	-7.99513	-6.71033	-5.95456	0.0122001	-36.5818	12.602	4.03946	-5.45907	6.56565	2.3978	-2.13129	0.076793	-0.0521344	0.333566	-4.79946	-6.07687	-1.4928	-2.73893	-0.0614968	-0.309931	0.0214738
4.56817	-81.1986	-16.3545	-20.9208	-64.2343	-80.8268	-11.6003	31.4295	3.60027	-1.61974	-0.134831	8.94264	-1.23312	-0.0329002	43.9282	12.9471	0.328866	-8.19491	-5.61124	-7.11515	0.0163466	-33.8921	11.3397	3.75316	-5.04119	6.20604	2.22936	-1.96724	0.0717574	-0.0470076	0.305944	-4.51051	-5.85488	-1.42658	-2.58633	-0.0582102	-0.289925	0.018379
4.57816	-84.4275	-19.9859	-23.0379	-64.4018	-62.0475	-10.093	32.6613	4.241	-1.99258	-5.81339	6.27798	-0.964574	-0.0444517	44.8597	12.4906	0.174911	-8.2593	-4.34464	-8.32672	0.0202017	-32.3683	10.8396	3.62857	-4.65964	5.88538	2.08404	-1.83845	0.067291	-0.0438416	0.283103	-4.22636	-5.62998	-1.36632	-2.46012	-0.0554087	-0.273659	0.0160878
4.58815	-86.5023	-23.7709	-24.7541	-65.3786	-48.9756	-7.39608	33.326	5.37547	-2.45562	-11.2358	4.41432	-0.772452	-0.0531697	45.2316	11.9268	0.016659	-8.11786	-2.93172	-9.56187	0.0237919	-30.2805	9.77078	3.67149	-4.17028	5.50205	1.91477	-1.65667	0.0623329	-0.0370293	0.254928	-3.88651	-5.35519	-1.29998	-2.29176	-0.0522866	-0.253193	0.0114427
4.59814	-84.3867	-27.4036	-26.0473	-52.0477	-32.4168	-8.74665	34.9343	6.48518	-3.02097	-16.3187	3.26422	-0.639256	-0.0592507	45.6779	11.9031	-0.159835	-7.96259	-1.37352	-10.7832	0.0267681	-34.2267	9.1705	3.95485	-3.92406	5.43909	1.89535	-1.6207	0.0623662	-0.0359911	0.252103	-3.72376	-5.37473	-1.33642	-2.29987	-0.0549419	-0.257873	0.00775763
4.60812	-81.7238	-30.5297	-27.1821	-43.879	-23.046	-12.0704	35.3413	7.33342	-3.45145	-20.6914	2.61054	-0.551337	-0.0609478	45.6165	12.1983	-0.333746	-7.56415	0.300051	-11.9684	0.0292712	-36.3266	9.09701	4.34505	-3.60563	5.28361	1.83734	-1.54387	0.0609583	-0.0329859	0.242742	-3.48977	-5.2613	-1.335	-2.2449	-0.0555039	-0.254318	0.00365358
4.61811	-78.6777	-33.5783	-28.7926	-44.3254	-24.4989	-13.5376	33.4731	8.88907	-4.13619	-23.2109	2.17488	-0.270156	-0.0583802	44.9717	12.4503	-0.4985	-6.90104	2.07969	-13.1077	0.0312351	-35.1063	8.91155	4.67587	-3.15638	4.94741	1.70045	-1.38676	0.0568657	-0.0265736	0.220184	-3.15102	-4.95736	-1.27288	-2.08568	-0.0527495	-0.236611	-0.00104974
4.6281	-75.2787	-34.0418	-28.3589	-43.8757	-23.2695	-18.3384	32.5651	8.01482	-3.84451	-26.7591	2.19725	-0.441544	-0.0534393	44.0197	12.9913	-0.658201	-6.06152	3.96027	-14.1758	0.0324997	-34.6815	8.7795	4.59671	-2.80231	4.61345	1.56954	-1.28054	0.0527689	-0.0249671	0.201759	-2.8596	-4.67823	-1.2085	-1.96756	-0.0503178	-0.223014	-0.00235764
4.63809	-70.5349	-34.0365	-28.9544	-43.8553	-25.9504	-23.112	30.7207	7.93355	-3.99248	-28.3805	2.2274	-0.388081	-0.0473915	42.5875	13.7681	-0.802878	-5.02097	5.93322	-15.1571	0.0330391	-34.5245	9.19645	3.93714	-2.58132	4.26167	1.43434	-1.2442	0.0480474	-0.0304644	0.187267	-2.61996	-4.3921	-1.12432	-1.89221	-0.0473292	-0.212362	0.00175555
4.64808	-64.3985	-33.5584	-30.2434	-41.0354	-26.5989	-29.9711	29.165	7.75195	-4.23221	-29.1086	2.29528	-0.319125	-0.0411489	40.6096	14.7528	-0.930638	-3.80471	7.99305	-16.0388	0.032884	-36.2381	10.7908	2.87963	-2.59675	4.04084	1.35676	-1.32985	0.0446273	-0.0444433	0.186061	-2.49765	-4.21049	-1.05746	-1.91617	-0.0455292	-0.212647	0.0111421
4.65807	-57.6215	-32.1702	-31.5953	-37.3206	-25.0927	-37.0772	27.8566	7.48134	-4.54472	-29.0232	2.32848	-0.234025	-0.0348665	37.9453	15.9382	-1.03735	-2.40352	10.1311	-16.8076	0.0322026	-38.8088	12.7413	1.41487	-2.76825	3.8995	1.30906	-1.48757	0.0418771	-0.0637701	0.191989	-2.46443	-4.12137	-1.00263	-2.00381	-0.0444546	-0.219358	0.024063
4.66806	-50.3436	-30.9685	-32.6434	-30.7588	-19.9296	-43.8873	26.2323	7.20442	-4.78682	-28.2529	2.26578	-0.141584	-0.0280182	35.5679	17.2513	-1.14629	-1.06421	12.3462	-17.4551	0.0315499	-42.5469	14.7874	0.522502	-3.00751	3.99043	1.34891	-1.65455	0.0422494	-0.0787128	0.206692	-2.51101	-4.21956	-1.01414	-2.13057	-0.0459593	-0.233452	0.0325428
4.67804	-45.3603	-30.6476	-33.3134	-28.9849	-15.5689	-49.6484	23.4141	7.04834	-4.86479	-26.8334	2.06507	-0.0475863	-0.0200991	33.8093	18.4607	-1.26211	0.131369	14.64	-17.9834	0.0312347	-43.4396	16.5956	0.66568	-3.10959	4.17095	1.40554	-1.70709	0.0435318	-0.0807761	0.214338	-2.51064	-4.32311	-1.04307	-2.1642	-0.0467286	-0.238119	0.0322692
4.68803	-39.6613	-31.0989	-33.3455	-21.9145	-6.92348	-54.9849	20.0565	6.85657	-4.757	-25.1333	1.75352	0.0370464	-0.0115477	33.1805	19.8505	-1.37903	0.951266	17.0254	-18.387	0.0312008	-46.0797	18.2248	1.96291	-3.20068	4.65138	1.5786	-1.7264	0.0492873	-0.0726612	0.231337	-2.56128	-4.65454	-1.1706	-2.218	-0.0513718	-0.25086	0.0225228
4.69802	-37.5182	-32.0713	-32.6256	-21.4915	-3.14824	-59.6626	16.3475	6.63035	-4.56314	-23.113	1.36437	0.114408	-0.00322665	32.7031	21.1606	-1.49787	1.61644	19.5016	-18.6868	0.0312429	-44.4334	19.2944	4.0482	-3.07723	5.06161	1.70527	-1.60094	0.0537476	-0.0524519	0.233275	-2.49038	-4.84926	-1.26899	-2.12787	-0.0531956	-0.246596	0.00553938
4.70801	-37.4744	-33.0725	-30.9429	-24.7254	-2.82409	-63.6966	12.57	6.30617	-4.29708	-20.8997	0.941718	0.178344	0.00421401	32.233	22.4857	-1.62241	2.12312	22.0708	-18.8965	0.0313637	-40.1968	19.6093	6.60386	-2.80002	5.40979	1.79683	-1.37688	0.0572928	-0.0243357	0.224862	-2.33452	-4.95663	-1.35014	-1.94352	-0.0533846	-0.231444	-0.0163474
4.718	-39.2737	-33.0756	-27.6795	-31.8495	-6.99075	-65.3253	8.92094	5.87784	-3.99644	-18.5426	0.528852	0.226151	0.010148	31.472	23.7587	-1.75613	2.51107	24.7438	-19.0412	0.0314291	-33.4609	18.1813	8.95273	-2.35027	5.54691	1.7966	-1.05926	0.0581243	0.00742647	0.201269	-2.0843	-4.92721	-1.38509	-1.66911	-0.0512322	-0.203876	-0.0393772
4.72799	-35.4012	-32.5484	-23.7948	-22.3302	-2.53725	-63.6412	5.23171	5.54992	-3.52356	-15.6272	-0.329295	0.274717	0.0148411	31.8997	25.005	-1.86282	2.34093	27.5411	-19.1402	0.0317078	-34.5695	16.0421	11.0036	-2.08519	5.95014	1.92621	-0.865079	0.0640458	0.0333216	0.20085	-2.01383	-5.29433	-1.55072	-1.59167	-0.056964	-0.205221	-0.0621868
4.73797	-34.1275	-31.5388	-19.555	-18.0455	0.329336	-59.6842	2.49078	5.34088	-3.24	-13.9454	-0.456296	0.281148	0.0176869	31.9872	26.0322	-1.95348	2.0464	30.4512	-19.2272	0.0318479	-33.2073	12.8596	12.4956	-1.71128	6.09872	1.94931	-0.619025	0.0664045	0.0579804	0.186396	-1.86594	-5.47898	-1.64519	-1.44404	-0.0594653	-0.19466	-0.0820371
4.74796	-37.3388	-30.6025	-15.6813	-29.6949	-9.24542	-58.2191	0.00724191	5.13512	-3.02725	-11.9449	-0.51574	0.276919	0.018338	30.4739	26.7031	-2.04033	1.91484	33.4704	-19.3334	0.0314262	-24.8105	10.0575	13.523	-1.20932	5.84541	1.80041	-0.305774	0.0620247	0.0802678	0.148972	-1.54798	-5.19721	-1.57444	-1.13401	-0.0534337	-0.157136	-0.0958826
4.75795	-34.9519	-31.5655	-13.558	-25.8432	-7.79865	-56.6663	-2.11109	5.31382	-2.80384	-10.2376	-0.533019	0.260781	0.0179721	30.177	27.1569	-2.06161	1.21419	36.6163	-19.4636	0.031067	-24.4574	9.1361	14.9931	-1.01179	6.07277	1.87025	-0.165176	0.0651891	0.0979416	0.14619	-1.45502	-5.35717	-1.66233	-1.04867	-0.055989	-0.153699	-0.111264
4.76794	-32.5307	-33.1941	-12.3638	-21.2899	-6.54162	-55.1099	-3.9748	5.67813	-2.56558	-8.51996	-0.510326	0.236106	0.0164367	30.1183	27.4084	-2.01697	0.306332	39.8592	-19.6281	0.0307803	-24.6767	9.0652	16.3361	-0.910106	6.34218	1.96265	-0.0763008	0.0688389	0.112053	0.149101	-1.40916	-5.5354	-1.75185	-1.00221	-0.0588475	-0.154547	-0.124203
4.77793	-23.7721	-35.2267	-12.7545	2.40011	7.85609	-51.7513	-5.5425	6.15799	-2.26837	-7.11572	-0.456407	0.200062	0.0141957	31.8365	27.6375	-1.88019	-1.20979	43.1846	-19.8269	0.030835	-34.5589	10.6122	17.4268	-1.16067	7.05547	2.26239	-0.193363	0.0798991	0.116873	0.188411	-1.63941	-6.23301	-2.00928	-1.2318	-0.0715391	-0.194971	-0.135384
4.78792	-15.8489	-36.6251	-13.0164	23.7524	19.5406	-46.6497	-7.14902	6.6067	-1.90238	-5.61246	-0.378472	0.156765	0.0111541	33.6206	27.806	-1.69597	-2.78467	46.5323	-20.0639	0.0309919	-43.5307	11.8261	18.0949	-1.39304	7.65576	2.51566	-0.29948	0.0894098	0.119912	0.222484	-1.86097	-6.86653	-2.23482	-1.44429	-0.0829262	-0.231391	-0.144051
4.79791	-8.16781	-37.4383	-13.223	43.0285	28.5238	-39.8722	-9.05896	7.05929	-1.47725	-3.97155	-0.286783	0.109635	0.00746805	35.464	27.8769	-1.48013	-4.34781	49.856	-20.3404	0.0313483	-51.8913	12.7134	18.4219	-1.60969	8.16971	2.73361	-0.39477	0.0977678	0.121767	0.252508	-2.07434	-7.45364	-2.43709	-1.64227	-0.0933854	-0.264744	-0.150932
4.80789	-2.68214	-37.4175	-13.2471	51.6492	28.4027	-34.7469	-11.4793	7.26854	-1.01382	-2.03824	-0.183009	0.0566648	0.00312026	36.3677	27.9624	-1.28415	-5.62099	53.1187	-20.6532	0.0315083	-55.8685	13.3735	18.4465	-1.73913	8.44039	2.84607	-0.438771	0.102059	0.123007	0.267865	-2.18342	-7.76362	-2.54043	-1.73515	-0.0986762	-0.281111	-0.154568
4.81788	1.13382	-36.7707	-13.4274	51.2956	20.4656	-32.5198	-14.5885	7.25936	-0.524254	0.173937	-0.0831092	0.00035772	-0.00147165	36.5395	28.1842	-1.12708	-6.60854	56.3017	-20.9942	0.0315656	-56.1337	14.1885	18.2427	-1.82652	8.52635	2.87902	-0.458451	0.103051	0.122582	0.272893	-2.21057	-7.83356	-2.5587	-1.74826	-0.0995045	-0.284083	-0.154789
4.82787	3.95242	-35.896	-14.0326	44.1843	6.46258	-33.4477	-18.5448	7.16759	-0.0238903	2.66534	-0.00719781	-0.0540516	-0.00580776	36.2272	28.5662	-1.01202	-7.34372	59.4087	-21.3577	0.0315376	-53.5249	15.361	17.9182	-1.9004	8.48906	2.85931	-0.471055	0.10167	0.120356	0.271489	-2.17765	-7.71584	-2.51186	-1.70535	-0.0968759	-0.277431	-0.152155
4.83786	7.98928	-34.2867	-14.9971	40.9407	-6.14311	-34.6979	-23.2868	7.01925	0.506772	5.25635	0.0262217	-0.104537	-0.00922518	36.6516	29.3733	-0.913663	-8.0787	62.4539	-21.7275	0.0318036	-52.4266	16.7135	17.3706	-2.04003	8.49875	2.8632	-0.52281	0.10111	0.115378	0.275407	-2.18885	-7.67317	-2.48535	-1.70866	-0.095615	-0.276877	-0.148221
4.84785	11.4512	-32.4155	-16.2753	32.6998	-23.8364	-38.2686	-28.8538	6.9987	0.988149	8.11099	0.00118648	-0.139983	-0.0113754	36.6438	30.4751	-0.85248	-8.55702	65.4576	-22.101	0.0318188	-48.9825	18.0701	16.6351	-2.15778	8.37956	2.8138	-0.566844	0.0982847	0.108432	0.273051	-2.14339	-7.46374	-2.40058	-1.66337	-0.0913882	-0.267933	-0.141537
4.85784	16.9903	-29.6089	-18.1626	32.735	-37.2359	-40.4689	-34.9293	7.19496	1.41307	10.9924	-0.0986023	-0.154612	-0.0115295	37.6723	32.1543	-0.783587	-9.07943	68.4357	-22.4593	0.0322343	-48.7432	19.5985	15.3847	-2.38166	8.32751	2.80084	-0.679261	0.0968797	0.0961545	0.279769	-2.17934	-7.40746	-2.35674	-1.70763	-0.090025	-0.270854	-0.132396
4.86783	21.746	-27.4846	-20.4279	29.1748	-54.9531	-43.2654	-41.3475	7.93385	1.70182	14.0561	-0.287338	-0.136156	-0.00927461	38.2926	33.9212	-0.733891	-9.31974	71.4095	-22.8112	0.0324104	-46.3366	20.9657	14.1399	-2.56227	8.17764	2.74631	-0.769172	0.0937338	0.0840141	0.280478	-2.15473	-7.20808	-2.26748	-1.69748	-0.0861748	-0.265658	-0.122316
4.87781	28.5995	-24.8007	-23.3292	38.9773	-65.7388	-41.0541	-47.4394	9.08113	1.85124	16.9469	-0.555222	-0.0913038	-0.00437507	40.4367	35.9968	-0.635487	-9.6498	74.3847	-23.14	0.0331901	-48.8122	22.3106	12.3718	-2.85013	8.15177	2.75255	-0.926523	0.0932189	0.0676049	0.293146	-2.24244	-7.26911	-2.25503	-1.80496	-0.0871444	-0.277364	-0.111385
4.8878	34.6808	-22.3601	-25.6213	50.0383	-78.279	-35.6296	-53.132	10.5564	1.88645	19.7525	-0.890727	-0.0243532	0.00288978	42.577	38.0854	-0.530805	-9.70046	77.3556	-23.4436	0.033867	-50.9204	22.5662	10.8544	-3.03541	8.10032	2.74462	-1.01986	0.0925931	0.0564476	0.30043	-2.28597	-7.31886	-2.24714	-1.86508	-0.088037	-0.284587	-0.104091
4.89779	38.7958	-21.0745	-27.6384	53.1798	-98.704	-31.8321	-58.4047	12.2764	1.80922	22.5279	-1.27141	0.0555721	0.0118775	43.3033	39.8745	-0.479896	-9.16339	80.2978	-23.7183	0.0340177	-49.0323	22.3208	9.70794	-3.09386	7.90013	2.67026	-1.0425	0.0892865	0.0491042	0.295631	-2.20384	-7.11806	-2.16784	-1.80888	-0.0846621	-0.275913	-0.0977626
4.90778	41.0961	-21.1067	-29.9069	48.4992	-126.158	-31.3784	-63.2375	14.0721	1.66961	25.1937	-1.67297	0.13792	0.0219077	42.6362	41.2754	-0.501017	-8.01523	83.1829	-23.9512	0.0338015	-43.2655	22.2488	8.75299	-3.0958	7.5609	2.53665	-1.04047	0.0832406	0.0416621	0.282301	-2.02305	-6.6629	-2.01058	-1.66715	-0.0769046	-0.254084	-0.0896846
4.91777	42.5494	-21.8429	-32.4204	44.3685	-154.373	-30.7847	-67.3039	15.7718	1.52078	27.5032	-2.06479	0.21577	0.0321615	41.8168	42.2944	-0.548743	-6.48427	85.9843	-24.1267	0.0337624	-37.102	22.3236	7.78964	-3.10856	7.20594	2.3981	-1.04968	0.0768598	0.0330439	0.269052	-1.83915	-6.17551	-1.84269	-1.52527	-0.0686282	-0.231641	-0.0806676
4.92776	43.2202	-22.674	-34.4881	42.7007	-181.708	-28.9216	-70.3551	17.0624	1.39007	29.2621	-2.41861	0.28084	0.0419621	41.0758	42.9916	-0.617291	-4.64511	88.6657	-24.2261	0.0339212	-31.5504	22.063	7.01309	-3.09409	6.88087	2.27195	-1.0429	0.0711811	0.0266887	0.256152	-1.66604	-5.73508	-1.69453	-1.38757	-0.061272	-0.210713	-0.0736054
4.93774	45.7039	-21.3392	-36.3301	60.8978	-196.603	-18.8368	-71.5595	17.5978	1.24272	30.0319	-2.6938	0.320197	0.0505638	42.5457	43.7956	-0.596712	-2.95503	91.1719	-24.2231	0.0348983	-34.159	21.7464	5.73144	-3.19208	6.79091	2.25394	-1.1014	0.0706091	0.0183782	0.260684	-1.68745	-5.77599	-1.69447	-1.43154	-0.0626534	-0.217103	-0.0686148
4.94773	45.5821	-21.0481	-36.7007	66.1831	-219.339	-16.3072	-71.8999	17.1436	1.08956	30.1873	-2.89517	0.327846	0.0579071	41.7695	44.0703	-0.705255	-0.644669	93.3906	-24.1078	0.0353716	-31.6493	20.9848	5.85619	-3.07214	6.63693	2.19903	-1.0292	0.0685611	0.0222985	0.25158	-1.55573	-5.55061	-1.63941	-1.31635	-0.0597122	-0.204158	-0.0704503
4.95772	43.8636	-19.7165	-36.627	80.2307	-235.587	-13.0711	-70.0747	15.6543	0.868604	29.301	-2.99884	0.302974	0.0635977	41.9921	44.2327	-0.831158	1.67222	95.2177	-23.8644	0.0366555	-32.068	20.6379	5.71468	-3.02462	6.56622	2.18381	-1.00383	0.0683237	0.0234944	0.250141	-1.52308	-5.503	-1.63412	-1.29017	-0.0599182	-0.202872	-0.0713206
4.96771	38.7354	-18.7628	-36.1171	88.2036	-253.08	-14.8832	-66.5866	13.2572	0.576172	27.5911	-2.99907	0.244657	0.0671174	41.4004	43.8239	-1.05719	4.25016	96.526	-23.487	0.0381276	-29.6964	20.6311	5.60429	-2.98656	6.41071	2.13318	-0.988479	0.0663296	0.0225824	0.244848	-1.46896	-5.29633	-1.57332	-1.23426	-0.0571652	-0.194839	-0.0690916
4.9777	31.1898	-16.6937	-35.4904	100.151	-263.724	-16.3307	-61.1722	10.0711	0.228545	25.0102	-2.88086	0.156872	0.0677302	41.5579	43.1371	-1.32706	6.74499	97.1905	-22.9588	0.0403548	-28.7191	20.9879	4.57069	-3.09117	6.2233	2.07687	-1.0633	0.0640514	0.0122454	0.245108	-1.51986	-5.16113	-1.5098	-1.26935	-0.055286	-0.195165	-0.0599143
4.98769	22.0265	-13.672	-34.7885	115.458	-265.412	-15.8306	-54.409	6.51295	-0.105138	21.8046	-2.64108	0.0520989	0.0646023	42.5891	42.1621	-1.61515	9.05945	97.0845	-22.2662	0.0431512	-29.4696	21.4842	2.64902	-3.33043	6.02265	2.02139	-1.21924	0.0618474	-0.00636574	0.251078	-1.68092	-5.12884	-1.45445	-1.39565	-0.0547664	-0.204471	-0.0448117
4.99768	11.66	-10.759	-34.0377	121.793	-262.804	-18.7704	-47.7494	2.94406	-0.346508	18.5038	-2.28828	-0.0614317	0.0571039	42.9002	40.8083	-1.98164	11.3581	96.0602	-21.3877	0.0462019	-27.874	22.0464	0.507094	-3.616	5.74399	1.93368	-1.40031	0.0580093	-0.0285844	0.25464	-1.84697	-4.97537	-1.34927	-1.50904	-0.0517087	-0.208944	-0.0256755
5.00766	1.348	-9.4385	-33.8448	112.153	-257.223	-26.5509	-42.4605	0.251996	-0.438851	15.6664	-1.85662	-0.161482	0.0453356	41.7893	38.8413	-2.38353	13.6284	94.0091	-20.3176	0.0491205	-22.0337	22.804	-1.44201	-3.9088	5.37961	1.80701	-1.58034	0.0520121	-0.0516602	0.25282	-1.96892	-4.60241	-1.17162	-1.56129	-0.0444174	-0.202497	-0.00392066
5.01765	-7.27084	-8.81872	-33.7172	99.1551	-239.339	-32.1627	-38.7625	-1.34804	-0.378201	13.3971	-1.39145	-0.241899	0.0308115	41.2879	36.7744	-2.72929	15.3837	90.8959	-19.0621	0.0516799	-16.9614	23.241	-2.97442	-4.17741	5.1188	1.71715	-1.73184	0.0477391	-0.0697163	0.252671	-2.12948	-4.34411	-1.03599	-1.62472	-0.0388523	-0.199075	0.0138513
5.02764	-14.2716	-9.93523	-33.3161	82.7314	-209.525	-35.6932	-36.5447	-1.58038	-0.263832	11.78	-0.968562	-0.29439	0.0165195	41.2735	34.5684	-2.95603	16.5015	86.6956	-17.6394	0.053365	-12.2413	23.1952	-3.37699	-4.32363	5.01189	1.67898	-1.79375	0.0459655	-0.0757021	0.251496	-2.2827	-4.19964	-0.959205	-1.65632	-0.0352247	-0.19544	0.0223906
5.03763	-18.795	-9.99979	-32.6873	83.3345	-157.275	-26.5035	-34.2745	-1.07274	-0.204738	10.1895	-0.600018	-0.332398	0.0042969	44.4764	32.6184	-2.93893	16.4318	81.4709	-16.0907	0.053441	-15.5241	22.4035	-3.93101	-4.47693	5.14681	1.74057	-1.85236	0.0494857	-0.0775717	0.262126	-2.59382	-4.56675	-1.04464	-1.83067	-0.0405847	-0.21535	0.0246422
5.04762	-23.1869	-10.6551	-31.3618	88.144	-92.693	-11.4178	-31.8629	-0.0460875	-0.166784	8.5956	-0.304248	-0.348173	-0.00516355	48.9175	30.5305	-2.723	15.4875	75.2414	-14.4432	0.0513797	-20.9386	20.7009	-3.833	-4.52469	5.41158	1.84659	-1.83679	0.0554975	-0.070102	0.2727	-2.91185	-5.11737	-1.20316	-2.00229	-0.049138	-0.238947	0.0189574
5.05761	-28.0652	-13.0897	-29.9339	83.8624	-25.4568	-2.29367	-29.6831	1.38008	-0.145911	7.19167	-0.100148	-0.337531	-0.0114508	51.9134	28.2523	-2.43759	14.0742	68.0442	-12.7125	0.0479094	-22.759	19.3804	-2.77921	-4.45847	5.65929	1.93573	-1.75785	0.0604434	-0.0563255	0.27609	-3.1112	-5.47889	-1.32143	-2.07439	-0.0545129	-0.250203	0.00957216
5.06759	-32.6204	-16.6665	-28.3681	72.6012	43.3485	-0.700426	-27.7083	2.8489	-0.125209	5.98637	0.00474009	-0.305959	-0.0142671	53.0451	25.9857	-2.13706	12.3067	60.0703	-10.9421	0.0430251	-21.5557	18.7919	-0.824	-4.28015	5.8901	2.00974	-1.62592	0.0643854	-0.0373358	0.273304	-3.18859	-5.66164	-1.40352	-2.05873	-0.0570879	-0.250745	-0.00309828
5.07758	-35.5887	-20.2757	-26.4283	64.7477	116.834	1.30301	-25.401	4.31994	-0.120535	4.83693	0.0279393	-0.256377	-0.0141633	53.4601	23.6477	-1.77777	10.1275	51.6479	-9.20713	0.0360543	-21.5375	18.1756	1.50281	-4.01251	6.15372	2.09323	-1.45532	0.0690197	-0.0144623	0.269123	-3.21972	-5.89395	-1.51373	-2.03053	-0.0609214	-0.251931	-0.0196332
5.08757	-36.9324	-23.6287	-24.4836	58.3685	190.526	3.53703	-22.7647	5.80807	-0.145278	3.80435	-0.0131273	-0.191083	-0.0119582	52.6964	21.2718	-1.37937	7.70278	43.117	-7.56045	0.0269462	-22.0444	17.6302	3.75488	-3.71437	6.38825	2.16431	-1.28191	0.0731846	0.00753656	0.263659	-3.20702	-6.11122	-1.62151	-1.99402	-0.0647526	-0.252518	-0.0361759
5.09756	-36.4061	-26.892	-22.82	52.746	261.397	5.64184	-19.9315	7.40771	-0.168665	2.96447	-0.102741	-0.10774	-0.0085308	50.6036	18.9616	-0.984877	5.15159	34.8318	-6.04576	0.0161937	-22.8267	17.4834	5.85697	-3.43171	6.61154	2.23177	-1.12694	0.076945	0.0272084	0.259153	-3.16137	-6.30305	-1.72204	-1.95555	-0.0683268	-0.253096	-0.0517037
5.10755	-33.868	-30.0079	-21.2249	50.5558	328.141	9.33405	-16.8881	9.10372	-0.153229	2.29676	-0.222056	-0.00737766	-0.00465048	47.6431	16.8309	-0.648203	2.51166	27.1359	-4.69776	0.0044554	-24.7682	17.5768	7.85959	-3.16688	6.86755	2.31397	-0.985283	0.0811503	0.0459091	0.257449	-3.09964	-6.53113	-1.83734	-1.92604	-0.0727594	-0.256221	-0.0676317
5.11754	-29.4274	-33.1558	-19.7995	52.7449	389.172	15.8034	-13.6511	10.9108	-0.102487	1.77712	-0.357494	0.106944	-0.000750599	44.1756	14.7856	-0.386426	-0.136423	20.3041	-3.53934	-0.00720808	-28.154	17.8157	9.72913	-2.93005	7.16886	2.41681	-0.858879	0.086062	0.0637267	0.259416	-3.03318	-6.81624	-1.97355	-1.9116	-0.0783955	-0.262915	-0.0840956
5.12753	-23.6354	-35.6532	-18.2875	59.0948	442.429	25.0263	-10.2965	12.5806	-0.0249072	1.34969	-0.496098	0.224676	0.00299282	40.3867	13.0016	-0.268334	-2.6684	14.518	-2.57028	-0.0176999	-32.8246	17.8794	11.2548	-2.72755	7.47446	2.52474	-0.750957	0.0911217	0.0793782	0.263794	-2.96383	-7.1377	-2.11913	-1.91038	-0.0848035	-0.272222	-0.099816
5.13751	-18.2021	-37.8389	-17.554	52.5265	478.283	26.0493	-7.6028	14.3039	0.0434967	1.32429	-0.64771	0.346921	0.00661273	34.0705	11.6972	-0.308379	-4.66124	9.78031	-1.76424	-0.024273	-32.4055	18.8756	12.2199	-2.60083	7.5625	2.54756	-0.696356	0.0915985	0.0859166	0.261951	-2.80194	-7.08188	-2.13208	-1.83581	-0.0844457	-0.266783	-0.106597
5.1475	-12.4786	-39.8122	-16.5053	43.0647	502.026	23.8741	-5.25069	15.8163	0.109495	1.44757	-0.786728	0.460104	0.00971753	26.6656	10.7006	-0.48694	-6.12712	6.12749	-1.12633	-0.0268797	-30.4061	19.8739	13.3375	-2.42708	7.58456	2.54366	-0.61688	0.0908942	0.0936109	0.255631	-2.57995	-6.90073	-2.11115	-1.71117	-0.0821536	-0.254659	-0.113437
5.15749	-4.57761	-41.3014	-15.2767	45.1841	521.995	26.877	-2.89366	16.8326	0.146101	1.40346	-0.881763	0.54552	0.0118837	20.3108	9.49275	-0.684463	-7.12068	3.5292	-0.662009	-0.0262518	-32.6276	20.3557	14.471	-2.22784	7.70935	2.5866	-0.524365	0.0928004	0.104169	0.254673	-2.40785	-6.9472	-2.16951	-1.64478	-0.0843924	-0.253602	-0.12413
5.16748	3.67339	-41.1667	-14.3905	40.1809	530.51	26.492	-1.81882	16.8872	0.154956	1.49691	-0.946988	0.582604	0.0137214	13.0217	7.77917	-0.762727	-7.23744	1.73739	-0.336276	-0.0202594	-32.7704	20.3703	15.0539	-2.03456	7.65429	2.55985	-0.442327	0.0918638	0.109904	0.247158	-2.20731	-6.82012	-2.15882	-1.54646	-0.0834694	-0.244951	-0.129552
5.17747	12.4923	-37.4495	-13.455	23.7517	534.129	23.2906	-2.68409	15.4025	0.119691	1.72839	-0.981611	0.546932	0.0157401	4.82447	5.24238	-0.63101	-7.23667	0.249073	-0.0574888	-0.0092483	-30.6871	19.1699	14.4578	-1.88619	7.33317	2.42993	-0.391894	0.0868646	0.106559	0.231174	-2.00524	-6.50254	-2.05681	-1.42861	-0.0786785	-0.228108	-0.125926
5.18746	20.0644	-31.6543	-12.933	14.236	525.521	22.9064	-4.34657	12.1551	0.023378	1.759	-0.966463	0.437379	0.0176697	-1.07082	1.9381	-0.100308	-5.28411	-0.112845	-0.0549171	0.00291862	-30.3931	16.7425	13.2027	-1.77973	6.983	2.29177	-0.357978	0.082064	0.100422	0.216179	-1.87887	-6.29891	-1.97382	-1.35872	-0.0755144	-0.216625	-0.120211
5.19745	0	0	0	0	0	0	0	0	0	0	0	0	0	0	0	0	0	0	0	0	0	0	0	0	0	0	0	0	0	0	0	0	0	0	0	0	0
