Coordinates
version=1
nRows=231
nColumns=38
inDegrees=no

Units are S.I. units (second, meters, Newtons, ...)
If the header above contains a line with 'inDegrees', this indicates whether rotational values are in degrees (yes) or radians (no).

endheader
time	pelvis_tilt	pelvis_list	pelvis_rotation	pelvis_tx	pelvis_ty	pelvis_tz	hip_flexion_r	hip_adduction_r	hip_rotation_r	knee_angle_r	ankle_angle_r	subtalar_angle_r	mtp_angle_r	hip_flexion_l	hip_adduction_l	hip_rotation_l	knee_angle_l	ankle_angle_l	subtalar_angle_l	mtp_angle_l	lumbar_extension	lumbar_bending	lumbar_rotation	arm_flex_r	arm_add_r	arm_rot_r	elbow_flex_r	pro_sup_r	wrist_flex_r	wrist_dev_r	arm_flex_l	arm_add_l	arm_rot_l	elbow_flex_l	pro_sup_l	wrist_flex_l	wrist_dev_l
0	0.0529722	0.0185533	2.91327	1.69926	0.978039	0.338205	-0.280116	0.010034	0.216213	0.351888	0.116716	0	0	0.604152	-0.201758	-0.243248	0.202245	-0.0913324	0	0	-0.172903	-0.21876	0.0860473	0.0940679	-0.196612	-0.0234451	0.259837	0.369082	0	0	0.119512	0.522645	0.0438983	0.29171	0.372633	0	0
0.00497835	0.0502122	0.0115042	2.91327	1.69068	0.978421	0.338474	-0.275141	0.000545694	0.208344	0.371962	0.0951574	0	0	0.600138	-0.192377	-0.243474	0.21252	-0.099363	0	0	-0.171673	-0.228397	0.0856159	0.10047	-0.195924	-0.0234705	0.261066	0.369088	0	0	0.125703	0.520521	0.0436364	0.292847	0.372615	0	0
0.00995671	0.0474478	0.00444942	2.91328	1.6821	0.978803	0.338742	-0.270153	-0.00894761	0.200477	0.39206	0.0735679	0	0	0.596121	-0.182987	-0.2437	0.222801	-0.107353	0	0	-0.17045	-0.23804	0.0851783	0.106872	-0.195236	-0.0234958	0.262295	0.369094	0	0	0.131895	0.518397	0.0433744	0.293985	0.372598	0	0
0.0149351	0.0446724	-0.00261979	2.9133	1.67352	0.979187	0.339011	-0.265127	-0.0184525	0.192614	0.412222	0.0518954	0	0	0.592091	-0.173573	-0.243923	0.2331	-0.115229	0	0	-0.169246	-0.2477	0.084723	0.113275	-0.194548	-0.0235212	0.263524	0.3691	0	0	0.138086	0.516273	0.0431125	0.295123	0.37258	0	0
0.0199134	0.0418787	-0.00971305	2.91335	1.66494	0.979572	0.339279	-0.260029	-0.0279744	0.184768	0.432501	0.0300756	0	0	0.58804	-0.164119	-0.244145	0.243428	-0.12289	0	0	-0.168077	-0.257388	0.0842347	0.119677	-0.19386	-0.0235465	0.264753	0.369106	0	0	0.144278	0.514149	0.0428506	0.29626	0.372562	0	0
0.0248918	0.0390597	-0.0168389	2.91343	1.65637	0.979961	0.339547	-0.254817	-0.0375162	0.176953	0.452955	0.00803962	0	0	0.583959	-0.154609	-0.244365	0.253794	-0.130219	0	0	-0.166962	-0.267113	0.0836959	0.12608	-0.193172	-0.0235719	0.265982	0.369112	0	0	0.15047	0.512025	0.0425886	0.297398	0.372545	0	0
0.0298701	0.0362091	-0.0240035	2.91356	1.64781	0.980353	0.339814	-0.249441	-0.047076	0.169194	0.473646	-0.0142786	0	0	0.579834	-0.145029	-0.244581	0.264201	-0.137088	0	0	-0.16592	-0.27688	0.0830884	0.132483	-0.192484	-0.0235972	0.267212	0.369118	0	0	0.156662	0.5099	0.0423267	0.298536	0.372527	0	0
0.0348485	0.0333215	-0.0312092	2.91374	1.63925	0.980752	0.34008	-0.243852	-0.0566467	0.161523	0.494635	-0.0369361	0	0	0.575653	-0.13537	-0.244794	0.274646	-0.143371	0	0	-0.164971	-0.286691	0.0823945	0.138886	-0.191796	-0.0236226	0.268441	0.369124	0	0	0.162854	0.507776	0.0420647	0.299674	0.37251	0	0
0.0398268	0.0303927	-0.038454	2.91398	1.63071	0.981156	0.340344	-0.237996	-0.0662153	0.153977	0.515976	-0.0599756	0	0	0.5714	-0.125625	-0.245002	0.285119	-0.148944	0	0	-0.164138	-0.29654	0.0815982	0.14529	-0.191108	-0.0236479	0.26967	0.36913	0	0	0.169046	0.505652	0.0418028	0.300811	0.372492	0	0
0.0448052	0.0274203	-0.045731	2.91429	1.62219	0.981569	0.340607	-0.231822	-0.0757625	0.1466	0.537717	-0.0834213	0	0	0.567057	-0.115795	-0.245204	0.2956	-0.153699	0	0	-0.163439	-0.306417	0.0806859	0.151693	-0.19042	-0.0236733	0.270899	0.369136	0	0	0.175239	0.503528	0.0415408	0.301949	0.372474	0	0
0.0497835	0.0244032	-0.053028	2.91465	1.61369	0.981989	0.340865	-0.225279	-0.0852626	0.13944	0.559899	-0.107276	0	0	0.562607	-0.105885	-0.245396	0.306063	-0.157543	0	0	-0.162894	-0.316304	0.0796471	0.158097	-0.189732	-0.0236986	0.272129	0.369142	0	0	0.181431	0.501403	0.0412788	0.303087	0.372457	0	0
0.0547619	0.0213428	-0.0603279	2.91508	1.60522	0.982418	0.34112	-0.218319	-0.0946834	0.132549	0.582551	-0.131516	0	0	0.55803	-0.0959082	-0.245576	0.316471	-0.160402	0	0	-0.16252	-0.326177	0.0784747	0.1645	-0.189044	-0.023724	0.273358	0.369148	0	0	0.187624	0.499279	0.0410168	0.304225	0.372439	0	0
0.0597403	0.0182398	-0.0676092	2.91556	1.59678	0.982857	0.341369	-0.210898	-0.103988	0.125983	0.60569	-0.156096	0	0	0.553304	-0.0858807	-0.245738	0.326783	-0.162227	0	0	-0.162334	-0.336007	0.0771653	0.170904	-0.188356	-0.0237494	0.274587	0.369154	0	0	0.193817	0.497154	0.0407548	0.305363	0.372421	0	0
0.0647186	0.0150953	-0.0748473	2.91608	1.58838	0.983305	0.341612	-0.202982	-0.113137	0.119797	0.629321	-0.180938	0	0	0.548404	-0.0758246	-0.24588	0.33695	-0.162991	0	0	-0.16235	-0.345764	0.0757201	0.177308	-0.187667	-0.0237747	0.275817	0.36916	0	0	0.20001	0.49503	0.0404928	0.306501	0.372404	0	0
0.069697	0.011911	-0.0820141	2.91662	1.58002	0.983762	0.341847	-0.19454	-0.122086	0.114047	0.653435	-0.205942	0	0	0.543304	-0.0657666	-0.246	0.346918	-0.16269	0	0	-0.162581	-0.355413	0.074144	0.183713	-0.186979	-0.0238001	0.277046	0.369166	0	0	0.206203	0.492905	0.0402308	0.307639	0.372386	0	0
0.0746753	0.00869031	-0.0890798	2.91719	1.57172	0.984228	0.342072	-0.185547	-0.130788	0.108789	0.67801	-0.230977	0	0	0.537979	-0.0557368	-0.246094	0.35663	-0.161344	0	0	-0.163035	-0.364916	0.0724459	0.190117	-0.186291	-0.0238254	0.278275	0.369172	0	0	0.212397	0.490781	0.0399688	0.308777	0.372368	0	0
0.0796537	0.0054384	-0.0960126	2.91774	1.56346	0.984702	0.342286	-0.175985	-0.139196	0.104073	0.703013	-0.25589	0	0	0.532406	-0.0457689	-0.246161	0.366029	-0.15899	0	0	-0.163717	-0.374236	0.0706374	0.196521	-0.185603	-0.0238508	0.279505	0.369178	0	0	0.21859	0.488656	0.0397068	0.309915	0.372351	0	0
0.084632	0.0021626	-0.10278	2.91828	1.55526	0.985184	0.342487	-0.165839	-0.147261	0.0999425	0.728399	-0.280507	0	0	0.526562	-0.0358985	-0.246197	0.375057	-0.155687	0	0	-0.164625	-0.383335	0.0687324	0.202926	-0.184914	-0.0238761	0.280734	0.369184	0	0	0.224784	0.486531	0.0394448	0.311053	0.372333	0	0
0.0896104	-0.00112773	-0.10935	2.91878	1.54713	0.985672	0.342673	-0.155101	-0.154934	0.0964371	0.754109	-0.304631	0	0	0.520432	-0.0261631	-0.246199	0.383658	-0.151503	0	0	-0.165753	-0.392175	0.0667459	0.209331	-0.184226	-0.0239015	0.281964	0.36919	0	0	0.230978	0.484406	0.0391827	0.312191	0.372316	0	0
0.0945887	-0.00442138	-0.115691	2.91921	1.53907	0.986165	0.342842	-0.143767	-0.162169	0.0935862	0.780079	-0.328052	0	0	0.514001	-0.0166004	-0.246165	0.39178	-0.146522	0	0	-0.167092	-0.40072	0.0646931	0.215736	-0.183538	-0.0239268	0.283194	0.369196	0	0	0.237172	0.482281	0.0389207	0.31333	0.372298	0	0
0.0995671	-0.00770559	-0.121772	2.91958	1.53107	0.986663	0.342993	-0.131839	-0.168919	0.09141	0.806232	-0.350549	0	0	0.50726	-0.00724744	-0.246091	0.399376	-0.140834	0	0	-0.168628	-0.408937	0.0625882	0.222141	-0.18285	-0.0239522	0.284423	0.369202	0	0	0.243366	0.480156	0.0386586	0.314468	0.37228	0	0
0.104545	-0.0109664	-0.127565	2.91986	1.52315	0.987165	0.343124	-0.119322	-0.175144	0.0899184	0.832486	-0.371893	0	0	0.500203	0.00185992	-0.245973	0.406404	-0.134535	0	0	-0.170343	-0.416793	0.060444	0.228547	-0.182161	-0.0239775	0.285653	0.369208	0	0	0.24956	0.478031	0.0383966	0.315606	0.372263	0	0
0.109524	-0.014189	-0.133045	2.92006	1.51531	0.98767	0.343233	-0.106229	-0.180807	0.0891104	0.858754	-0.391852	0	0	0.492831	0.0106881	-0.245806	0.412827	-0.127722	0	0	-0.172217	-0.424262	0.0582708	0.234952	-0.181473	-0.0240029	0.286883	0.369214	0	0	0.255755	0.475906	0.0381345	0.316744	0.372245	0	0
0.114502	-0.0173585	-0.138191	2.92015	1.50755	0.988179	0.343319	-0.0925753	-0.185875	0.0889737	0.884942	-0.410198	0	0	0.485145	0.0192064	-0.245586	0.418616	-0.120494	0	0	-0.17423	-0.431319	0.0560764	0.241358	-0.180784	-0.0240283	0.288112	0.36922	0	0	0.26195	0.473781	0.0378724	0.317883	0.372227	0	0
0.119481	-0.0204599	-0.142982	2.92015	1.49987	0.988691	0.343381	-0.078383	-0.190324	0.0894851	0.910955	-0.426715	0	0	0.477152	0.0273879	-0.245307	0.423748	-0.112945	0	0	-0.176359	-0.437946	0.053865	0.247765	-0.180096	-0.0240536	0.289342	0.369226	0	0	0.268145	0.471655	0.0376103	0.319021	0.37221	0	0
0.124459	-0.023479	-0.147405	2.92005	1.49228	0.989209	0.343417	-0.0636778	-0.194133	0.0906102	0.936697	-0.441198	0	0	0.468859	0.0352095	-0.244965	0.428206	-0.105167	0	0	-0.178584	-0.444128	0.0516375	0.254172	-0.179407	-0.024079	0.290572	0.369232	0	0	0.274341	0.46953	0.0373482	0.32016	0.372192	0	0
0.129437	-0.0264029	-0.151448	2.91987	1.48476	0.989735	0.343426	-0.0484901	-0.197292	0.0923049	0.962071	-0.453466	0	0	0.460279	0.042653	-0.244551	0.43198	-0.097246	0	0	-0.180884	-0.449852	0.0493906	0.260579	-0.178719	-0.0241043	0.291802	0.369238	0	0	0.280537	0.467404	0.037086	0.321298	0.372175	0	0
0.134416	-0.0292202	-0.155105	2.91962	1.47731	0.990272	0.343409	-0.0328548	-0.199795	0.0945157	0.98698	-0.463367	0	0	0.451423	0.0497044	-0.24406	0.435066	-0.0892601	0	0	-0.18324	-0.455115	0.0471173	0.266986	-0.17803	-0.0241297	0.293032	0.369244	0	0	0.286733	0.465278	0.0368239	0.322437	0.372157	0	0
0.139394	-0.0319215	-0.158373	2.9193	1.46995	0.990826	0.343363	-0.0168105	-0.201646	0.0971814	1.01133	-0.470779	0	0	0.442304	0.0563548	-0.243485	0.437464	-0.0812806	0	0	-0.185637	-0.459912	0.0448069	0.273394	-0.177342	-0.0241551	0.294262	0.36925	0	0	0.292929	0.463152	0.0365617	0.323576	0.372139	0	0
0.144372	-0.0344999	-0.161253	2.91894	1.46265	0.991404	0.343291	-0.000399285	-0.202857	0.100234	1.03503	-0.475619	0	0	0.432936	0.0625996	-0.242817	0.439182	-0.0733708	0	0	-0.188062	-0.464246	0.0424451	0.279801	-0.176653	-0.0241804	0.295493	0.369256	0	0	0.299126	0.461026	0.0362995	0.324714	0.372122	0	0
0.149351	-0.0369507	-0.163749	2.91856	1.45541	0.992013	0.34319	0.0163338	-0.203443	0.103601	1.05799	-0.477845	0	0	0.423332	0.0684385	-0.24205	0.440231	-0.0655863	0	0	-0.190505	-0.468123	0.040015	0.28621	-0.175964	-0.0242058	0.296723	0.369262	0	0	0.305323	0.4589	0.0360374	0.325853	0.372104	0	0
0.154329	-0.0392721	-0.165868	2.91818	1.44823	0.992666	0.343063	0.0333415	-0.20343	0.107205	1.08014	-0.477453	0	0	0.413503	0.0738749	-0.241174	0.440624	-0.0579749	0	0	-0.19296	-0.471548	0.0374973	0.292618	-0.175276	-0.0242312	0.297953	0.369268	0	0	0.311521	0.456774	0.0357751	0.326992	0.372086	0	0
0.159307	-0.0414645	-0.16762	2.91782	1.4411	0.993374	0.34291	0.0505747	-0.202846	0.11097	1.10139	-0.474486	0	0	0.403463	0.0789157	-0.240182	0.44038	-0.0505773	0	0	-0.195424	-0.474534	0.0348714	0.299027	-0.174587	-0.0242565	0.299184	0.369274	0	0	0.317718	0.454647	0.0355129	0.328131	0.372069	0	0
0.164286	-0.0435312	-0.169015	2.91751	1.434	0.994154	0.342732	0.0679836	-0.201727	0.114816	1.12167	-0.469028	0	0	0.39322	0.0835707	-0.239066	0.439522	-0.0434269	0	0	-0.197899	-0.47709	0.0321156	0.305436	-0.173898	-0.0242819	0.300414	0.36928	0	0	0.323916	0.452521	0.0352507	0.32927	0.372051	0	0
0.169264	-0.0454775	-0.170068	2.91726	1.42692	0.995024	0.34253	0.0855176	-0.200113	0.118667	1.14092	-0.4612	0	0	0.382784	0.087852	-0.237819	0.438071	-0.0365507	0	0	-0.200387	-0.479232	0.0292081	0.311846	-0.173209	-0.0243072	0.301645	0.369286	0	0	0.330115	0.450394	0.0349884	0.330409	0.372033	0	0
0.174242	-0.047311	-0.170794	2.9171	1.41986	0.996006	0.342306	0.103126	-0.198044	0.12245	1.15909	-0.451158	0	0	0.372164	0.0917741	-0.236434	0.436054	-0.029969	0	0	-0.202895	-0.480972	0.0261272	0.318256	-0.17252	-0.0243326	0.302875	0.369292	0	0	0.336313	0.448267	0.0347262	0.331548	0.372016	0	0
0.179221	-0.0490409	-0.171209	2.91704	1.41278	0.997122	0.342062	0.120761	-0.195568	0.126094	1.17611	-0.43909	0	0	0.361365	0.0953526	-0.234905	0.433499	-0.0236964	0	0	-0.205431	-0.482328	0.0228525	0.324666	-0.171831	-0.024358	0.304106	0.369298	0	0	0.342512	0.44614	0.0344639	0.332687	0.371998	0	0
0.184199	-0.0506781	-0.171329	2.91711	1.40569	0.998399	0.341799	0.138373	-0.192731	0.129535	1.19194	-0.425203	0	0	0.350393	0.0986045	-0.233228	0.430433	-0.0177426	0	0	-0.208005	-0.483314	0.0193649	0.331076	-0.171142	-0.0243833	0.305337	0.369304	0	0	0.348711	0.444013	0.0342016	0.333826	0.371981	0	0
0.189177	-0.0522344	-0.171172	2.91731	1.39854	0.999867	0.34152	0.155917	-0.189583	0.132713	1.20655	-0.409724	0	0	0.339254	0.101548	-0.231397	0.426886	-0.0121123	0	0	-0.210628	-0.483948	0.015647	0.337487	-0.170453	-0.0244087	0.306568	0.36931	0	0	0.354911	0.441886	0.0339393	0.334966	0.371963	0	0
0.194156	-0.0537225	-0.170756	2.91767	1.39134	1.00156	0.341226	0.173349	-0.186171	0.135578	1.2199	-0.392887	0	0	0.327952	0.1042	-0.229411	0.422887	-0.00680633	0	0	-0.213311	-0.484246	0.0116837	0.343898	-0.169764	-0.0244341	0.307798	0.369316	0	0	0.361111	0.439759	0.033677	0.336105	0.371945	0	0
0.199134	-0.0551277	-0.170103	2.91819	1.38417	1.00324	0.340921	0.19062	-0.182545	0.138084	1.23197	-0.374931	0	0	0.316483	0.10658	-0.227268	0.41847	-0.00182214	0	0	-0.216072	-0.484224	0.00746356	0.350309	-0.169075	-0.0244594	0.309029	0.369322	0	0	0.367311	0.437631	0.0334146	0.337244	0.371928	0	0
0.204113	-0.0564632	-0.169231	2.91886	1.37703	1.0049	0.340606	0.207693	-0.178753	0.140196	1.24274	-0.356089	0	0	0.304853	0.108707	-0.224968	0.413665	0.00284606	0	0	-0.218922	-0.483899	0.00297643	0.356721	-0.168385	-0.0244847	0.31026	0.369328	0	0	0.373511	0.435503	0.0331521	0.338383	0.37191	0	0
0.209091	-0.0577417	-0.168157	2.91971	1.36991	1.00654	0.340281	0.224533	-0.17484	0.141883	1.25219	-0.336589	0	0	0.293064	0.110598	-0.222513	0.4085	0.00720666	0	0	-0.221872	-0.483288	-0.00178488	0.363133	-0.167696	-0.02451	0.311491	0.369334	0	0	0.379712	0.433375	0.0328896	0.339523	0.371892	0	0
0.214069	-0.0589753	-0.166899	2.92072	1.36283	1.00816	0.339949	0.241108	-0.170851	0.143128	1.26033	-0.316643	0	0	0.281122	0.112271	-0.219905	0.403007	0.0112703	0	0	-0.224931	-0.482406	-0.00682485	0.369546	-0.167006	-0.0245352	0.312722	0.36934	0	0	0.385913	0.431246	0.0326271	0.340662	0.371875	0	0
0.219048	-0.0601756	-0.165472	2.9219	1.35576	1.00975	0.339609	0.257391	-0.166827	0.143917	1.26713	-0.296448	0	0	0.269031	0.113742	-0.217149	0.397212	0.0150495	0	0	-0.228107	-0.481272	-0.0121452	0.37596	-0.166316	-0.0245604	0.313953	0.369346	0	0	0.392115	0.429118	0.0323645	0.341801	0.371857	0	0
0.224026	-0.0613527	-0.163894	2.92325	1.34871	1.01131	0.339262	0.273358	-0.162806	0.144245	1.27261	-0.276182	0	0	0.256798	0.115028	-0.214252	0.391145	0.0185582	0	0	-0.231407	-0.4799	-0.0177448	0.382374	-0.165625	-0.0245855	0.315184	0.369353	0	0	0.398317	0.426989	0.0321018	0.34294	0.37184	0	0
0.229004	-0.0625156	-0.16218	2.92476	1.34168	1.01283	0.33891	0.288986	-0.158824	0.144117	1.27677	-0.256003	0	0	0.244428	0.116142	-0.211219	0.384833	0.0218119	0	0	-0.234835	-0.478308	-0.0236199	0.388789	-0.164935	-0.0246107	0.316415	0.369359	0	0	0.404519	0.424859	0.0318391	0.34408	0.371822	0	0
0.233983	-0.0636718	-0.160346	2.92643	1.33466	1.01432	0.338553	0.304259	-0.154912	0.143543	1.27961	-0.236048	0	0	0.231929	0.117099	-0.20806	0.378303	0.0248272	0	0	-0.238392	-0.476511	-0.0297641	0.395204	-0.164244	-0.0246357	0.317646	0.369365	0	0	0.410723	0.422729	0.0315763	0.345219	0.371804	0	0
0.238961	-0.0648273	-0.158406	2.92824	1.32765	1.01575	0.338191	0.319161	-0.151098	0.142539	1.28114	-0.216436	0	0	0.219311	0.117911	-0.204784	0.37158	0.0276213	0	0	-0.242078	-0.474524	-0.0361686	0.401621	-0.163553	-0.0246608	0.318878	0.369371	0	0	0.416926	0.420599	0.0313134	0.346358	0.371787	0	0
0.243939	-0.0659865	-0.156375	2.93019	1.32065	1.01714	0.337825	0.333681	-0.147406	0.141128	1.28138	-0.197265	0	0	0.206582	0.11859	-0.201403	0.364689	0.0302126	0	0	-0.245892	-0.472365	-0.042822	0.408038	-0.162862	-0.0246858	0.320109	0.369377	0	0	0.42313	0.418469	0.0310505	0.347497	0.371769	0	0
0.248918	-0.0671519	-0.154266	2.93226	1.31366	1.01848	0.337454	0.347808	-0.143857	0.139338	1.28033	-0.178616	0	0	0.193753	0.119144	-0.19793	0.357655	0.03262	0	0	-0.249828	-0.470047	-0.049711	0.414456	-0.162171	-0.0247108	0.321341	0.369383	0	0	0.429335	0.416338	0.0307875	0.348637	0.371751	0	0
0.253896	-0.0683247	-0.152092	2.93445	1.30667	1.01977	0.337077	0.361536	-0.140465	0.137201	1.27802	-0.160553	0	0	0.180836	0.119584	-0.194376	0.3505	0.034863	0	0	-0.253879	-0.467586	-0.0568201	0.420875	-0.161479	-0.0247358	0.322573	0.369389	0	0	0.43554	0.414207	0.0305244	0.349776	0.371733	0	0
0.258874	-0.0695044	-0.149865	2.93673	1.29969	1.02099	0.336694	0.374858	-0.137244	0.134753	1.27446	-0.14313	0	0	0.167845	0.119915	-0.190758	0.343248	0.0369617	0	0	-0.258037	-0.464996	-0.0641322	0.427295	-0.160787	-0.0247607	0.323805	0.369395	0	0	0.441745	0.412076	0.0302613	0.350916	0.371716	0	0
0.263853	-0.0706889	-0.147596	2.93909	1.29271	1.02215	0.336306	0.387771	-0.134203	0.132032	1.26966	-0.126385	0	0	0.154791	0.120145	-0.187089	0.335921	0.0389367	0	0	-0.262292	-0.462292	-0.0716283	0.433715	-0.160095	-0.0247856	0.325037	0.369401	0	0	0.447952	0.409944	0.0299982	0.352055	0.371698	0	0
0.268831	-0.0718748	-0.145294	2.94152	1.28573	1.02324	0.335911	0.400272	-0.131347	0.12908	1.26363	-0.110347	0	0	0.141691	0.120276	-0.183385	0.32854	0.040809	0	0	-0.266631	-0.459488	-0.0792886	0.440137	-0.159403	-0.0248104	0.326269	0.369407	0	0	0.454158	0.407813	0.029735	0.353195	0.37168	0	0
0.27381	-0.0730574	-0.14297	2.944	1.27875	1.02426	0.33551	0.41236	-0.128678	0.125937	1.25639	-0.0950395	0	0	0.128558	0.120313	-0.179662	0.321125	0.0425999	0	0	-0.27104	-0.456597	-0.0870922	0.44656	-0.15871	-0.0248353	0.327501	0.369413	0	0	0.460366	0.405681	0.0294717	0.354335	0.371663	0	0
0.278788	-0.0742312	-0.140633	2.94652	1.27178	1.02521	0.335101	0.424031	-0.126195	0.122647	1.24796	-0.080476	0	0	0.115409	0.120257	-0.175937	0.313696	0.0443311	0	0	-0.275506	-0.453631	-0.0950173	0.452983	-0.158018	-0.0248601	0.328734	0.369419	0	0	0.466573	0.403548	0.0292084	0.355474	0.371645	0	0
0.283766	-0.0753893	-0.138289	2.94907	1.2648	1.02608	0.334685	0.435286	-0.123896	0.119253	1.23834	-0.0666662	0	0	0.10226	0.12011	-0.172226	0.306274	0.0460245	0	0	-0.280012	-0.450603	-0.103042	0.459407	-0.157325	-0.0248848	0.329966	0.369426	0	0	0.472781	0.401416	0.028945	0.356614	0.371627	0	0
0.288745	-0.0765245	-0.135947	2.95162	1.25783	1.02686	0.334259	0.446124	-0.121776	0.115798	1.22754	-0.0536154	0	0	0.089125	0.119873	-0.168545	0.298876	0.047702	0	0	-0.284542	-0.447524	-0.111144	0.465832	-0.156632	-0.0249096	0.331199	0.369432	0	0	0.47899	0.399283	0.0286816	0.357754	0.37161	0	0
0.293723	-0.0776289	-0.133612	2.95417	1.25085	1.02757	0.333823	0.456543	-0.119827	0.112324	1.21559	-0.0413254	0	0	0.0760213	0.119545	-0.16491	0.29152	0.0493854	0	0	-0.289081	-0.444404	-0.119303	0.472258	-0.155938	-0.0249343	0.332432	0.369438	0	0	0.485199	0.39715	0.0284181	0.358894	0.371592	0	0
0.298701	-0.0786943	-0.131292	2.95671	1.24387	1.02819	0.333375	0.466542	-0.118041	0.10887	1.20248	-0.0297955	0	0	0.0629642	0.119125	-0.161335	0.284223	0.0510962	0	0	-0.293612	-0.441253	-0.127496	0.478685	-0.155245	-0.024959	0.333665	0.369444	0	0	0.491409	0.395016	0.0281546	0.360034	0.371574	0	0
0.30368	-0.0797123	-0.12899	2.95922	1.23688	1.02872	0.332914	0.476118	-0.116409	0.105477	1.18822	-0.0190227	0	0	0.0499687	0.118613	-0.157835	0.277002	0.0528555	0	0	-0.298119	-0.438081	-0.135705	0.485113	-0.154551	-0.0249837	0.334899	0.36945	0	0	0.497619	0.392883	0.027891	0.361174	0.371556	0	0
0.308658	-0.0806748	-0.126713	2.9617	1.22989	1.02917	0.332441	0.485268	-0.114922	0.102182	1.17283	-0.00900209	0	0	0.0370492	0.118008	-0.154422	0.269872	0.0546834	0	0	-0.302587	-0.434895	-0.14391	0.491542	-0.153858	-0.0250083	0.336132	0.369456	0	0	0.50383	0.390749	0.0276274	0.362314	0.371539	0	0
0.313636	-0.0815736	-0.124465	2.96415	1.2229	1.02952	0.331953	0.49399	-0.113568	0.0990209	1.15632	0.000272674	0	0	0.0242194	0.117309	-0.151108	0.262846	0.0565993	0	0	-0.307001	-0.431704	-0.152094	0.497971	-0.153164	-0.025033	0.337366	0.369462	0	0	0.510041	0.388615	0.0273637	0.363454	0.371521	0	0
0.318615	-0.082401	-0.122249	2.96654	1.2159	1.02979	0.331451	0.502279	-0.112339	0.0960266	1.13868	0.00880894	0	0	0.0114921	0.116516	-0.147903	0.255937	0.058621	0	0	-0.311348	-0.428513	-0.160241	0.504402	-0.15247	-0.0250576	0.338599	0.369469	0	0	0.516253	0.386481	0.0271	0.364594	0.371503	0	0
0.323593	-0.0831497	-0.120071	2.96889	1.20889	1.02997	0.330934	0.51013	-0.111225	0.0932304	1.11994	0.0166154	0	0	-0.00112113	0.115628	-0.144813	0.249158	0.0607649	0	0	-0.315613	-0.425328	-0.168337	0.510833	-0.151776	-0.0250822	0.339833	0.369475	0	0	0.522466	0.384347	0.0268362	0.365734	0.371485	0	0
0.328571	-0.0838131	-0.117934	2.9712	1.20188	1.03006	0.330401	0.517538	-0.110216	0.0906614	1.1001	0.0237016	0	0	-0.0136096	0.114644	-0.141844	0.242518	0.0630454	0	0	-0.319786	-0.422154	-0.176369	0.517265	-0.151083	-0.0251068	0.341067	0.369481	0	0	0.528679	0.382212	0.0265724	0.366874	0.371468	0	0
0.33355	-0.0843852	-0.115841	2.97345	1.19485	1.03005	0.329852	0.524495	-0.109303	0.088346	1.07917	0.0300786	0	0	-0.0259642	0.113567	-0.138999	0.236028	0.0654747	0	0	-0.323855	-0.418995	-0.184324	0.523697	-0.150389	-0.0251314	0.342301	0.369487	0	0	0.534893	0.380078	0.0263085	0.368014	0.37145	0	0
0.338528	-0.0848611	-0.113794	2.97566	1.18782	1.02995	0.329287	0.530995	-0.10848	0.0863085	1.05716	0.035759	0	0	-0.0381773	0.112395	-0.136279	0.229694	0.0680627	0	0	-0.327811	-0.415853	-0.192193	0.530131	-0.149695	-0.025156	0.343535	0.369493	0	0	0.541107	0.377944	0.0260447	0.369155	0.371432	0	0
0.343506	-0.0852363	-0.111796	2.97783	1.18077	1.02975	0.328704	0.537031	-0.10774	0.0845706	1.0341	0.0407566	0	0	-0.0502424	0.111131	-0.133684	0.223523	0.0708165	0	0	-0.331646	-0.412732	-0.199966	0.536565	-0.149002	-0.0251806	0.344769	0.369499	0	0	0.547321	0.37581	0.0257808	0.370295	0.371414	0	0
0.348485	-0.0855077	-0.109847	2.97997	1.1737	1.02946	0.328104	0.542594	-0.107077	0.0831515	1.01	0.0450869	0	0	-0.0621549	0.109776	-0.131209	0.217521	0.0737406	0	0	-0.335353	-0.409631	-0.207635	0.542999	-0.148309	-0.0252053	0.346003	0.369506	0	0	0.553536	0.373676	0.0255169	0.371435	0.371397	0	0
0.353463	-0.085673	-0.10795	2.98208	1.16662	1.02908	0.327486	0.547678	-0.106488	0.0820683	0.984891	0.0487675	0	0	-0.0739116	0.108331	-0.128849	0.211693	0.0768364	0	0	-0.338925	-0.406552	-0.215192	0.549434	-0.147616	-0.0252299	0.347237	0.369512	0	0	0.559752	0.371542	0.025253	0.372576	0.371379	0	0
0.358442	-0.0857311	-0.106106	2.98418	1.15952	1.0286	0.32685	0.552275	-0.105967	0.0813351	0.958792	0.0518182	0	0	-0.0855109	0.106799	-0.126597	0.206042	0.0801026	0	0	-0.342358	-0.403494	-0.22263	0.555869	-0.146923	-0.0252546	0.348471	0.369518	0	0	0.565968	0.369408	0.0249891	0.373716	0.371361	0	0
0.36342	-0.0856821	-0.104315	2.98626	1.1524	1.02803	0.326194	0.556376	-0.105515	0.0809636	0.931739	0.0542613	0	0	-0.0969526	0.10518	-0.124445	0.200571	0.0835346	0	0	-0.345648	-0.400457	-0.229942	0.562305	-0.146231	-0.0252793	0.349705	0.369524	0	0	0.572184	0.367275	0.0247251	0.374856	0.371343	0	0
0.368398	-0.0855273	-0.102576	2.98835	1.14526	1.02736	0.325519	0.559976	-0.105129	0.0809625	0.903772	0.056122	0	0	-0.108238	0.103477	-0.122384	0.195282	0.0871251	0	0	-0.348793	-0.39744	-0.237121	0.568741	-0.145539	-0.025304	0.350939	0.36953	0	0	0.578401	0.365142	0.0244612	0.375997	0.371326	0	0
0.373377	-0.0852692	-0.100891	2.99045	1.13809	1.02659	0.324822	0.563069	-0.104809	0.0813374	0.874938	0.0574281	0	0	-0.119371	0.10169	-0.120402	0.190178	0.090864	0	0	-0.351792	-0.39444	-0.24416	0.575178	-0.144848	-0.0253288	0.352173	0.369536	0	0	0.584618	0.363009	0.0241973	0.377137	0.371308	0	0
0.378355	-0.0849119	-0.0992575	2.99257	1.1309	1.02573	0.324103	0.565648	-0.104558	0.0820905	0.84529	0.0582108	0	0	-0.130354	0.099822	-0.118489	0.18526	0.0947389	0	0	-0.354646	-0.391457	-0.251056	0.581615	-0.144157	-0.0253536	0.353407	0.369543	0	0	0.590835	0.360876	0.0239334	0.378278	0.37129	0	0
0.383333	-0.0844605	-0.0976753	2.99472	1.12367	1.02477	0.32336	0.567711	-0.104377	0.0832204	0.81489	0.0585039	0	0	-0.141195	0.0978723	-0.116634	0.180529	0.0987348	0	0	-0.357357	-0.388487	-0.257802	0.588052	-0.143467	-0.0253785	0.354641	0.369549	0	0	0.597053	0.358744	0.0236695	0.379418	0.371272	0	0
0.388312	-0.0839215	-0.0961427	2.99692	1.11641	1.02371	0.322594	0.569255	-0.104269	0.0847212	0.783809	0.0583442	0	0	-0.1519	0.0958412	-0.114826	0.175989	0.102835	0	0	-0.359928	-0.385528	-0.264397	0.59449	-0.142777	-0.0254034	0.355875	0.369555	0	0	0.603271	0.356612	0.0234057	0.380558	0.371255	0	0
0.39329	-0.0833026	-0.0946579	2.99917	1.10912	1.02255	0.321801	0.570279	-0.104238	0.0865826	0.752126	0.0577709	0	0	-0.162476	0.0937283	-0.113053	0.171642	0.107021	0	0	-0.362364	-0.382577	-0.270838	0.600928	-0.142088	-0.0254284	0.357108	0.369561	0	0	0.609489	0.354481	0.0231418	0.381699	0.371237	0	0
0.398268	-0.0826125	-0.0932183	3.00148	1.10179	1.0213	0.320982	0.570785	-0.10429	0.0887895	0.71993	0.0568252	0	0	-0.172932	0.0915323	-0.111307	0.167491	0.111272	0	0	-0.364671	-0.379632	-0.277124	0.607366	-0.1414	-0.0254535	0.358342	0.369567	0	0	0.615708	0.35235	0.022878	0.382839	0.371219	0	0
0.403247	-0.0818609	-0.0918207	3.00387	1.09442	1.01995	0.320135	0.570778	-0.104428	0.0913208	0.687318	0.0555499	0	0	-0.183276	0.0892513	-0.109576	0.163542	0.115567	0	0	-0.366858	-0.376691	-0.283253	0.613804	-0.140712	-0.0254786	0.359575	0.369573	0	0	0.621927	0.350219	0.0226143	0.38398	0.371201	0	0
0.408225	-0.0810587	-0.0904612	3.00634	1.08701	1.0185	0.319259	0.570264	-0.10466	0.09415	0.654398	0.0539889	0	0	-0.193517	0.0868823	-0.107854	0.159798	0.119883	0	0	-0.36893	-0.37375	-0.289226	0.620243	-0.140026	-0.0255039	0.360809	0.369579	0	0	0.628147	0.34809	0.0223506	0.38512	0.371184	0	0
0.413203	-0.0802175	-0.0891349	3.00889	1.07956	1.01697	0.318352	0.569253	-0.104991	0.0972442	0.621287	0.0521859	0	0	-0.203661	0.0844215	-0.106132	0.156269	0.124199	0	0	-0.370897	-0.370807	-0.295042	0.626683	-0.13934	-0.0255292	0.362042	0.369586	0	0	0.634367	0.34596	0.022087	0.38626	0.371166	0	0
0.418182	-0.0793502	-0.0878362	3.01154	1.07206	1.01535	0.317413	0.567759	-0.105427	0.100564	0.588108	0.050184	0	0	-0.213716	0.081864	-0.104406	0.15296	0.12849	0	0	-0.372768	-0.367861	-0.300705	0.633123	-0.138655	-0.0255547	0.363276	0.369592	0	0	0.640587	0.343832	0.0218234	0.387401	0.371148	0	0
0.42316	-0.0784702	-0.0865587	3.0143	1.06451	1.01364	0.316442	0.565798	-0.105972	0.104063	0.554996	0.0480247	0	0	-0.223687	0.0792039	-0.10267	0.149883	0.132734	0	0	-0.374551	-0.364908	-0.306214	0.639563	-0.137971	-0.0255803	0.364509	0.369598	0	0	0.646808	0.341704	0.0215599	0.388542	0.37113	0	0
0.428139	-0.077592	-0.0852954	3.01717	1.05692	1.01185	0.315437	0.563391	-0.106631	0.107688	0.522088	0.0457465	0	0	-0.233578	0.076434	-0.100921	0.147048	0.136906	0	0	-0.376255	-0.361945	-0.311573	0.646004	-0.137288	-0.025606	0.365743	0.369604	0	0	0.65303	0.339577	0.0212965	0.389683	0.371113	0	0
0.433117	-0.0767303	-0.0840392	3.02015	1.04927	1.00999	0.314396	0.560562	-0.107405	0.11138	0.489531	0.043384	0	0	-0.243391	0.0735457	-0.0991588	0.144467	0.140986	0	0	-0.377889	-0.35897	-0.316783	0.652446	-0.136607	-0.0256319	0.366976	0.36961	0	0	0.659252	0.337451	0.0210333	0.390824	0.371095	0	0
0.438095	-0.0758993	-0.082783	3.02326	1.04157	1.00805	0.31332	0.557337	-0.108294	0.115074	0.457473	0.0409667	0	0	-0.253126	0.0705291	-0.097382	0.142154	0.14495	0	0	-0.379459	-0.355979	-0.321847	0.658889	-0.135927	-0.025658	0.36821	0.369616	0	0	0.665474	0.335326	0.0207701	0.391965	0.371077	0	0
0.443074	-0.0751123	-0.0815201	3.0265	1.03382	1.00605	0.312205	0.553746	-0.109296	0.118698	0.426067	0.038518	0	0	-0.262783	0.0673729	-0.0955929	0.140126	0.148779	0	0	-0.380972	-0.352966	-0.326767	0.665332	-0.135248	-0.0256842	0.369444	0.369622	0	0	0.671698	0.333202	0.0205071	0.393107	0.37106	0	0
0.448052	-0.0743811	-0.0802436	3.02986	1.02602	1.00399	0.311053	0.549822	-0.110404	0.122178	0.395466	0.0360537	0	0	-0.272358	0.0640643	-0.0937951	0.138398	0.152452	0	0	-0.382435	-0.349928	-0.331543	0.671777	-0.134571	-0.0257105	0.370678	0.369628	0	0	0.677922	0.331079	0.0202442	0.394249	0.371042	0	0
0.45303	-0.0737156	-0.0789464	3.03336	1.01816	1.00188	0.309861	0.545599	-0.111609	0.125434	0.365822	0.0335813	0	0	-0.281846	0.0605895	-0.0919942	0.136988	0.15595	0	0	-0.383852	-0.346857	-0.336178	0.678222	-0.133894	-0.0257371	0.371913	0.369634	0	0	0.684148	0.328958	0.0199815	0.395391	0.371024	0	0
0.458009	-0.0731237	-0.0776208	3.03699	1.01024	0.999722	0.308629	0.541113	-0.112899	0.128385	0.337284	0.0310993	0	0	-0.291239	0.0569337	-0.0901975	0.135917	0.159257	0	0	-0.385227	-0.343746	-0.340671	0.684669	-0.133219	-0.0257638	0.373148	0.36964	0	0	0.690374	0.326837	0.0197188	0.396534	0.371007	0	0
0.462987	-0.0726114	-0.0762583	3.04075	1.00227	0.997536	0.307358	0.536401	-0.114258	0.130951	0.309995	0.028596	0	0	-0.300529	0.0530814	-0.0884146	0.135204	0.162354	0	0	-0.386561	-0.340588	-0.345021	0.691117	-0.132546	-0.0257907	0.374383	0.369646	0	0	0.696601	0.324718	0.0194564	0.397677	0.370989	0	0
0.467965	-0.0721826	-0.0748492	3.04464	0.994243	0.99533	0.306047	0.531501	-0.115665	0.133052	0.284092	0.0260498	0	0	-0.309704	0.0490164	-0.0866567	0.134871	0.165228	0	0	-0.387854	-0.337373	-0.349225	0.697566	-0.131873	-0.0258177	0.375619	0.369652	0	0	0.702828	0.322599	0.019194	0.398821	0.370971	0	0
0.472944	-0.0718396	-0.0733829	3.04864	0.986162	0.993112	0.304696	0.526451	-0.117096	0.134611	0.2597	0.0234284	0	0	-0.318751	0.0447224	-0.0849373	0.134938	0.167862	0	0	-0.389103	-0.334093	-0.35328	0.704017	-0.131202	-0.0258449	0.376855	0.369659	0	0	0.709057	0.320482	0.0189318	0.399965	0.370954	0	0
0.477922	-0.0715827	-0.0718472	3.05275	0.978028	0.990897	0.303307	0.521289	-0.118526	0.135558	0.236932	0.0206894	0	0	-0.327656	0.0401829	-0.0832714	0.13543	0.170243	0	0	-0.390305	-0.330737	-0.357182	0.710468	-0.130532	-0.0258722	0.378091	0.369665	0	0	0.715287	0.318365	0.0186697	0.40111	0.370936	0	0
0.4829	-0.0714108	-0.0702291	3.05696	0.969841	0.988695	0.301878	0.516052	-0.119922	0.135829	0.215888	0.0177809	0	0	-0.336402	0.0353816	-0.0816756	0.136368	0.172354	0	0	-0.391452	-0.327293	-0.360922	0.716921	-0.129863	-0.0258996	0.379328	0.369671	0	0	0.721517	0.31625	0.0184077	0.402255	0.370919	0	0
0.487879	-0.0713211	-0.0685142	3.06126	0.961603	0.986521	0.300411	0.510774	-0.121253	0.13537	0.19665	0.0146421	0	0	-0.34497	0.0303026	-0.0801679	0.137776	0.17418	0	0	-0.392536	-0.323749	-0.364494	0.723374	-0.129195	-0.0259272	0.380565	0.369677	0	0	0.727749	0.314136	0.0181458	0.4034	0.370901	0	0
0.492857	-0.0713095	-0.0666871	3.06562	0.953316	0.984386	0.298906	0.505488	-0.122482	0.134137	0.179282	0.0112053	0	0	-0.353341	0.0249304	-0.0787675	0.139677	0.175704	0	0	-0.393546	-0.320093	-0.367888	0.729829	-0.128528	-0.025955	0.381803	0.369683	0	0	0.733981	0.312023	0.0178841	0.404546	0.370884	0	0
0.497835	-0.0713705	-0.0647312	3.07004	0.944984	0.982304	0.297363	0.500224	-0.123572	0.132098	0.16383	0.00739676	0	0	-0.361493	0.0192506	-0.0774942	0.142095	0.176907	0	0	-0.394471	-0.316309	-0.371092	0.736285	-0.127863	-0.0259828	0.383041	0.369689	0	0	0.740214	0.309911	0.0176224	0.405693	0.370866	0	0
0.502814	-0.0714976	-0.0626292	3.07449	0.936607	0.980288	0.295783	0.495008	-0.124485	0.129237	0.150317	0.00313939	0	0	-0.369403	0.0132497	-0.0763682	0.145054	0.17777	0	0	-0.395297	-0.312383	-0.374096	0.742742	-0.127198	-0.0260108	0.38428	0.369695	0	0	0.746449	0.307799	0.0173609	0.40684	0.370849	0	0
0.507792	-0.0716833	-0.0603634	3.07896	0.928189	0.97835	0.294165	0.489863	-0.125182	0.125547	0.138749	-0.00164515	0	0	-0.377048	0.00691566	-0.0754099	0.148579	0.178267	0	0	-0.396008	-0.308301	-0.376886	0.749201	-0.126534	-0.0260389	0.385519	0.369701	0	0	0.752684	0.305689	0.0170995	0.407987	0.370831	0	0
0.512771	-0.071919	-0.0579151	3.08343	0.919733	0.976502	0.292511	0.484811	-0.125625	0.12104	0.129108	-0.00703398	0	0	-0.384401	0.000237633	-0.0746395	0.152695	0.178373	0	0	-0.396589	-0.304046	-0.379448	0.755661	-0.125871	-0.0260672	0.386758	0.369707	0	0	0.75892	0.30358	0.0168381	0.409135	0.370814	0	0
0.517749	-0.0721958	-0.0552659	3.08786	0.911242	0.974756	0.29082	0.479866	-0.125775	0.115737	0.121357	-0.0131002	0	0	-0.391437	-0.00679347	-0.0740761	0.157427	0.178056	0	0	-0.397024	-0.299603	-0.381765	0.762122	-0.12521	-0.0260955	0.387998	0.369713	0	0	0.765157	0.301471	0.0165769	0.410284	0.370797	0	0
0.522727	-0.0725044	-0.0523974	3.09225	0.902717	0.973122	0.289092	0.475042	-0.125598	0.109676	0.115441	-0.0199101	0	0	-0.398125	-0.0141848	-0.0737381	0.162801	0.177284	0	0	-0.397298	-0.294956	-0.383824	0.768584	-0.124549	-0.026124	0.389238	0.369719	0	0	0.771395	0.299364	0.0163158	0.411433	0.370779	0	0
0.527706	-0.072835	-0.0492915	3.09657	0.894163	0.97161	0.287328	0.470348	-0.125059	0.102905	0.111285	-0.0275198	0	0	-0.404438	-0.0219416	-0.0736419	0.168844	0.176018	0	0	-0.397393	-0.290089	-0.385607	0.775048	-0.123889	-0.0261525	0.390479	0.369725	0	0	0.777635	0.297257	0.0160547	0.412582	0.370762	0	0
0.532684	-0.0731779	-0.0459308	3.10079	0.885583	0.97023	0.285528	0.465791	-0.124125	0.0954843	0.108801	-0.0359725	0	0	-0.410344	-0.0300666	-0.0738019	0.175583	0.174217	0	0	-0.397297	-0.284988	-0.387097	0.781513	-0.123229	-0.0261812	0.391721	0.369732	0	0	0.783875	0.295151	0.0157937	0.413732	0.370745	0	0
0.537662	-0.0735236	-0.0422991	3.10489	0.876979	0.968989	0.283691	0.461375	-0.122768	0.0874844	0.107889	-0.0452959	0	0	-0.415812	-0.0385603	-0.0742298	0.183047	0.171835	0	0	-0.396995	-0.27964	-0.388278	0.787979	-0.122571	-0.02621	0.392962	0.369738	0	0	0.790116	0.293046	0.0155329	0.414883	0.370727	0	0
0.542641	-0.073863	-0.0383812	3.10886	0.868355	0.967894	0.281819	0.457103	-0.120963	0.0789828	0.108437	-0.0554986	0	0	-0.42081	-0.0474208	-0.0749339	0.191264	0.168824	0	0	-0.396476	-0.27403	-0.389133	0.794446	-0.121913	-0.0262388	0.394204	0.369744	0	0	0.796357	0.290942	0.0152721	0.416034	0.37071	0	0
0.547619	-0.0741877	-0.034164	3.11267	0.859715	0.966951	0.279912	0.452974	-0.118685	0.0700636	0.110328	-0.0665688	0	0	-0.425305	-0.0566431	-0.0759188	0.200262	0.165133	0	0	-0.395734	-0.268149	-0.389646	0.800915	-0.121256	-0.0262678	0.395447	0.36975	0	0	0.8026	0.288838	0.0150113	0.417185	0.370693	0	0
0.552597	-0.0744901	-0.029636	3.11631	0.851062	0.966164	0.277971	0.448987	-0.115918	0.0608142	0.113439	-0.0784719	0	0	-0.429264	-0.0662195	-0.077185	0.21007	0.160707	0	0	-0.394762	-0.261987	-0.389802	0.807384	-0.1206	-0.0262968	0.39669	0.369756	0	0	0.808844	0.286735	0.0147507	0.418337	0.370675	0	0
0.557576	-0.0747638	-0.0247885	3.11975	0.842401	0.965538	0.275997	0.44514	-0.112644	0.0513235	0.117649	-0.09115	0	0	-0.432654	-0.0761396	-0.0787282	0.220717	0.155493	0	0	-0.393561	-0.255536	-0.389589	0.813856	-0.119944	-0.0263259	0.397934	0.369762	0	0	0.815088	0.284633	0.0144901	0.419489	0.370658	0	0
0.562554	-0.075003	-0.0196154	3.12297	0.833735	0.965074	0.273991	0.441431	-0.108854	0.0416801	0.122837	-0.104521	0	0	-0.435442	-0.0863893	-0.0805388	0.232229	0.149435	0	0	-0.392132	-0.248791	-0.388996	0.820328	-0.119289	-0.0263551	0.399178	0.369768	0	0	0.821334	0.282532	0.0142296	0.420642	0.370641	0	0
0.567532	-0.0752034	-0.0141143	3.12597	0.825069	0.964775	0.271956	0.437856	-0.104541	0.0319709	0.128888	-0.118479	0	0	-0.437597	-0.0969513	-0.0826015	0.244635	0.142478	0	0	-0.390482	-0.241748	-0.388014	0.826802	-0.118634	-0.0263843	0.400423	0.369775	0	0	0.82758	0.280431	0.0139691	0.421796	0.370624	0	0
0.572511	-0.0753607	-0.00828734	3.12873	0.816408	0.964641	0.269893	0.434413	-0.0997034	0.0222796	0.135692	-0.132895	0	0	-0.439087	-0.107804	-0.0848943	0.257957	0.134571	0	0	-0.388624	-0.234407	-0.386638	0.833276	-0.11798	-0.0264135	0.401668	0.369781	0	0	0.833827	0.27833	0.0137086	0.422949	0.370606	0	0
0.577489	-0.075471	-0.00214229	3.13125	0.807758	0.964672	0.267806	0.431098	-0.0943426	0.0126859	0.143148	-0.147619	0	0	-0.439881	-0.118924	-0.0873885	0.272218	0.125666	0	0	-0.386571	-0.226772	-0.384864	0.839753	-0.117326	-0.0264427	0.402914	0.369787	0	0	0.840074	0.27623	0.0134481	0.424103	0.370589	0	0
0.582468	-0.0755301	0.00430712	3.1335	0.799124	0.964869	0.265699	0.427905	-0.0884669	0.00326378	0.151165	-0.162486	0	0	-0.439952	-0.130281	-0.0900485	0.287436	0.11572	0	0	-0.384344	-0.218849	-0.382693	0.84623	-0.116671	-0.0264719	0.40416	0.369793	0	0	0.846323	0.27413	0.0131876	0.425258	0.370572	0	0
0.587446	-0.0755342	0.0110419	3.1355	0.790512	0.965229	0.263576	0.424831	-0.0820897	-0.00591897	0.159657	-0.177317	0	0	-0.439274	-0.141842	-0.0928314	0.303626	0.104697	0	0	-0.381965	-0.210647	-0.380127	0.852708	-0.116016	-0.0265011	0.405407	0.369799	0	0	0.852572	0.27203	0.0129271	0.426413	0.370555	0	0
0.592424	-0.075481	0.0180392	3.13722	0.781926	0.965751	0.261441	0.421868	-0.0752308	-0.0148013	0.16855	-0.191924	0	0	-0.437821	-0.15357	-0.0956875	0.320797	0.0925712	0	0	-0.379461	-0.202183	-0.377174	0.859187	-0.115362	-0.0265302	0.406653	0.369806	0	0	0.858821	0.26993	0.0126665	0.427568	0.370538	0	0
0.597403	-0.07537	0.0252718	3.13868	0.773373	0.966431	0.2593	0.419007	-0.0679163	-0.0233296	0.177774	-0.206119	0	0	-0.435571	-0.165422	-0.0985601	0.338951	0.0793273	0	0	-0.376859	-0.193477	-0.373844	0.865666	-0.114707	-0.0265592	0.4079	0.369812	0	0	0.865071	0.26783	0.0124059	0.428723	0.370521	0	0
0.602381	-0.0752027	0.0327091	3.13987	0.764858	0.967266	0.257159	0.416238	-0.0601788	-0.0314578	0.187268	-0.219714	0	0	-0.432505	-0.177351	-0.101386	0.358085	0.0649626	0	0	-0.374191	-0.184554	-0.370152	0.872146	-0.114052	-0.0265883	0.409148	0.369818	0	0	0.871321	0.265731	0.0121452	0.429878	0.370503	0	0
0.607359	-0.0749824	0.0403163	3.1408	0.756386	0.968249	0.255021	0.413547	-0.0520571	-0.0391481	0.196973	-0.232531	0	0	-0.428606	-0.189302	-0.104096	0.378187	0.0494891	0	0	-0.371487	-0.175446	-0.366116	0.878625	-0.113397	-0.0266173	0.410395	0.369824	0	0	0.877571	0.263631	0.0118845	0.431034	0.370486	0	0
0.612338	-0.0747142	0.0480545	3.14148	0.74796	0.969375	0.252893	0.410917	-0.043596	-0.0463705	0.206835	-0.244403	0	0	-0.423861	-0.201217	-0.106618	0.399237	0.0329354	0	0	-0.36878	-0.166189	-0.361757	0.885105	-0.112742	-0.0266463	0.411642	0.369831	0	0	0.883822	0.261532	0.0116239	0.432189	0.370469	0	0
0.617316	-0.0744043	0.0558811	3.14192	0.739586	0.970636	0.25078	0.408328	-0.0348457	-0.0531037	0.216801	-0.255185	0	0	-0.418259	-0.213035	-0.108873	0.421206	0.0153473	0	0	-0.366103	-0.156826	-0.3571	0.891585	-0.112088	-0.0266753	0.412889	0.369837	0	0	0.890073	0.259433	0.0113632	0.433345	0.370452	0	0
0.622294	-0.0740606	0.0637498	3.14215	0.731267	0.972025	0.248687	0.405755	-0.0258614	-0.0593341	0.226818	-0.264749	0	0	-0.411797	-0.224688	-0.110784	0.444058	-0.00321036	0	0	-0.36349	-0.147402	-0.352174	0.898065	-0.111434	-0.0267043	0.414136	0.369843	0	0	0.896324	0.257334	0.0111025	0.434501	0.370435	0	0
0.627273	-0.0736921	0.0716107	3.14217	0.723005	0.973532	0.246619	0.40317	-0.0167027	-0.0650563	0.236834	-0.272995	0	0	-0.404473	-0.236107	-0.11227	0.467744	-0.0226532	0	0	-0.360971	-0.137967	-0.347011	0.904544	-0.11078	-0.0267334	0.415384	0.369849	0	0	0.902575	0.255236	0.0108419	0.435656	0.370418	0	0
0.632251	-0.0733088	0.0794117	3.14202	0.714803	0.975149	0.244583	0.400539	-0.00743242	-0.0702719	0.246797	-0.279847	0	0	-0.39629	-0.24722	-0.113252	0.49221	-0.0428769	0	0	-0.358579	-0.128573	-0.341644	0.911023	-0.110127	-0.0267625	0.416631	0.369856	0	0	0.908827	0.253139	0.0105813	0.436812	0.3704	0	0
0.637229	-0.0729217	0.0870988	3.14173	0.706664	0.976864	0.242582	0.397828	0.00188399	-0.0749896	0.256653	-0.285259	0	0	-0.387258	-0.257954	-0.113656	0.517389	-0.0637575	0	0	-0.356341	-0.119278	-0.33611	0.917503	-0.109475	-0.0267917	0.417878	0.369862	0	0	0.915079	0.251042	0.0103208	0.437968	0.370383	0	0
0.642208	-0.072542	0.0946177	3.14132	0.698588	0.978668	0.240622	0.394999	0.0111798	-0.0792236	0.266348	-0.289209	0	0	-0.37739	-0.268237	-0.113413	0.543208	-0.0851519	0	0	-0.354285	-0.110135	-0.330447	0.923982	-0.108824	-0.0268209	0.419125	0.369868	0	0	0.921332	0.248946	0.0100604	0.439125	0.370366	0	0
0.647186	-0.0721815	0.101915	3.14083	0.690576	0.980549	0.238705	0.392012	0.0203884	-0.0829931	0.275828	-0.291703	0	0	-0.366703	-0.277995	-0.11246	0.569585	-0.106899	0	0	-0.352433	-0.101202	-0.324695	0.930461	-0.108173	-0.0268503	0.420372	0.369874	0	0	0.927585	0.246852	0.00980005	0.440281	0.370349	0	0
0.652165	-0.0718516	0.108938	3.14029	0.682629	0.982496	0.236837	0.388829	0.0294443	-0.0863211	0.285041	-0.292772	0	0	-0.35522	-0.287161	-0.110744	0.596433	-0.128822	0	0	-0.350805	-0.0925326	-0.318892	0.93694	-0.107523	-0.0268797	0.421619	0.369881	0	0	0.933838	0.244758	0.00953981	0.441438	0.370332	0	0
0.657143	-0.0715629	0.115639	3.13974	0.674747	0.984497	0.23502	0.385412	0.0382853	-0.0892333	0.293933	-0.292465	0	0	-0.342967	-0.295671	-0.108226	0.623655	-0.150728	0	0	-0.349416	-0.0841789	-0.313078	0.943419	-0.106875	-0.0269093	0.422866	0.369887	0	0	0.940092	0.242665	0.0092797	0.442595	0.370315	0	0
0.662121	-0.0713247	0.121976	3.1392	0.666927	0.98654	0.233255	0.381725	0.046854	-0.0917569	0.302458	-0.290854	0	0	-0.329975	-0.303467	-0.104877	0.651154	-0.172416	0	0	-0.348276	-0.0761879	-0.307289	0.949898	-0.106227	-0.0269391	0.424113	0.369893	0	0	0.946347	0.240574	0.00901972	0.443752	0.370298	0	0
0.6671	-0.0711436	0.127912	3.13871	0.65917	0.988614	0.231545	0.377738	0.0550988	-0.0939197	0.310568	-0.288022	0	0	-0.316278	-0.310501	-0.100687	0.678826	-0.193675	0	0	-0.34739	-0.0686009	-0.301558	0.956378	-0.105581	-0.0269689	0.425361	0.369899	0	0	0.952603	0.238483	0.00875987	0.44491	0.370281	0	0
0.672078	-0.0710235	0.133416	3.1383	0.651473	0.990708	0.229889	0.373424	0.0629757	-0.0957489	0.318221	-0.284067	0	0	-0.30191	-0.316732	-0.0956586	0.706568	-0.214288	0	0	-0.346755	-0.0614529	-0.295915	0.962858	-0.104936	-0.0269989	0.426608	0.369906	0	0	0.958859	0.236394	0.00850017	0.446068	0.370264	0	0
0.677056	-0.0709662	0.138463	3.13798	0.643835	0.99281	0.228287	0.368762	0.0704442	-0.0972699	0.325383	-0.279094	0	0	-0.286914	-0.322126	-0.0898112	0.734273	-0.234039	0	0	-0.346365	-0.0547757	-0.290385	0.969338	-0.104292	-0.0270291	0.427856	0.369912	0	0	0.965117	0.234307	0.00824061	0.447227	0.370247	0	0
0.682035	-0.0709714	0.143029	3.13779	0.636254	0.994911	0.226738	0.363734	0.0774689	-0.0985052	0.33202	-0.273212	0	0	-0.271335	-0.326655	-0.083179	0.761833	-0.252711	0	0	-0.346212	-0.0485973	-0.284991	0.97582	-0.103649	-0.0270593	0.429104	0.369918	0	0	0.971375	0.23222	0.00798119	0.448386	0.37023	0	0
0.687013	-0.0710362	0.147097	3.13773	0.628727	0.997	0.22524	0.35833	0.0840193	-0.0994745	0.33811	-0.266536	0	0	-0.255221	-0.330296	-0.0758117	0.789139	-0.270094	0	0	-0.346281	-0.0429419	-0.279746	0.982302	-0.103007	-0.0270898	0.430353	0.369924	0	0	0.977634	0.230135	0.00772191	0.449546	0.370213	0	0
0.691991	-0.0711558	0.150652	3.13781	0.621251	0.999069	0.223791	0.352543	0.0900711	-0.100194	0.343632	-0.259177	0	0	-0.238627	-0.333036	-0.067774	0.816084	-0.285991	0	0	-0.346556	-0.0378286	-0.274663	0.988785	-0.102366	-0.0271203	0.431602	0.36993	0	0	0.983894	0.228051	0.00746277	0.450706	0.370196	0	0
0.69697	-0.0713229	0.153686	3.13802	0.613825	1.00111	0.222389	0.346373	0.095606	-0.100675	0.348575	-0.251246	0	0	-0.221606	-0.334869	-0.0591452	0.842564	-0.30022	0	0	-0.347015	-0.0332718	-0.269744	0.995269	-0.101726	-0.027151	0.432851	0.369937	0	0	0.990155	0.225968	0.00720375	0.451867	0.370179	0	0
0.701948	-0.0715281	0.156196	3.13837	0.606445	1.00311	0.22103	0.339827	0.100613	-0.100928	0.352932	-0.242849	0	0	-0.204213	-0.335799	-0.0500177	0.868476	-0.31262	0	0	-0.347636	-0.0292806	-0.264989	1.00176	-0.101088	-0.0271818	0.434101	0.369943	0	0	0.996418	0.223886	0.00694484	0.453028	0.370162	0	0
0.706926	-0.07176	0.158184	3.13884	0.599109	1.00507	0.219711	0.332917	0.105086	-0.100957	0.356703	-0.234083	0	0	-0.186507	-0.335839	-0.0404954	0.893724	-0.323056	0	0	-0.348389	-0.025859	-0.260391	1.00824	-0.10045	-0.0272127	0.435352	0.369949	0	0	1.00268	0.221805	0.00668603	0.45419	0.370145	0	0
0.711905	-0.0720053	0.159658	3.13941	0.591813	1.00699	0.218429	0.325661	0.109028	-0.100766	0.359892	-0.225042	0	0	-0.16854	-0.335014	-0.0306924	0.918217	-0.33142	0	0	-0.349248	-0.0230052	-0.255935	1.01473	-0.0998124	-0.0272437	0.436602	0.369955	0	0	1.00895	0.219725	0.00642733	0.455352	0.370128	0	0
0.716883	-0.0722492	0.160632	3.14005	0.584554	1.00884	0.217179	0.318082	0.112448	-0.100354	0.36251	-0.215808	0	0	-0.150368	-0.333357	-0.0207302	0.941869	-0.337639	0	0	-0.350178	-0.0207121	-0.251605	1.02122	-0.0991758	-0.0272747	0.437854	0.369962	0	0	1.01521	0.217646	0.00616871	0.456515	0.370111	0	0
0.721861	-0.0724755	0.161124	3.14075	0.577329	1.01064	0.215959	0.310207	0.115359	-0.0997189	0.364571	-0.206457	0	0	-0.132041	-0.330911	-0.0107354	0.964604	-0.34167	0	0	-0.351148	-0.0189674	-0.247377	1.02771	-0.09854	-0.0273059	0.439106	0.369968	0	0	1.02148	0.215568	0.00591017	0.457678	0.370095	0	0
0.72684	-0.0726671	0.161159	3.14146	0.570135	1.01237	0.214766	0.302068	0.117781	-0.0988569	0.366093	-0.197055	0	0	-0.113606	-0.32773	-0.000837391	0.98635	-0.343507	0	0	-0.352122	-0.0177539	-0.243225	1.0342	-0.0979046	-0.0273371	0.440358	0.369974	0	0	1.02775	0.213491	0.00565171	0.458842	0.370078	0	0
0.731818	-0.0728067	0.160766	3.14215	0.562969	1.01403	0.213595	0.2937	0.11974	-0.0977636	0.367099	-0.18766	0	0	-0.0951057	-0.323875	0.00883488	1.00705	-0.343177	0	0	-0.353067	-0.0170501	-0.239119	1.0407	-0.0972698	-0.0273684	0.441611	0.36998	0	0	1.03401	0.211414	0.00539331	0.460007	0.370061	0	0
0.736797	-0.0728769	0.159975	3.1428	0.555826	1.01562	0.212443	0.285139	0.121265	-0.0964341	0.367611	-0.178321	0	0	-0.0765797	-0.319415	0.018155	1.02664	-0.340743	0	0	-0.353949	-0.0168301	-0.235029	1.04719	-0.0966355	-0.0273998	0.442865	0.369987	0	0	1.04028	0.209338	0.00513497	0.461172	0.370044	0	0
0.741775	-0.0728609	0.158823	3.14337	0.548704	1.01713	0.211309	0.276423	0.122389	-0.0948641	0.367658	-0.169079	0	0	-0.0580618	-0.314427	0.0270016	1.04507	-0.336294	0	0	-0.354735	-0.0170648	-0.230923	1.05369	-0.0960016	-0.0274312	0.444119	0.369993	0	0	1.04655	0.207262	0.00487668	0.462337	0.370028	0	0
0.746753	-0.0727432	0.157346	3.14382	0.5416	1.01856	0.210187	0.267589	0.123146	-0.0930502	0.367266	-0.159969	0	0	-0.0395816	-0.30899	0.0352611	1.06232	-0.329951	0	0	-0.355393	-0.0177217	-0.226768	1.06019	-0.095368	-0.0274627	0.445374	0.369999	0	0	1.05283	0.205187	0.00461845	0.463503	0.370011	0	0
0.751732	-0.07251	0.155584	3.14412	0.534509	1.0199	0.209077	0.258674	0.123575	-0.0909907	0.366466	-0.151017	0	0	-0.0211646	-0.30319	0.0428297	1.07835	-0.321855	0	0	-0.355896	-0.0187658	-0.222533	1.06669	-0.0947348	-0.0274942	0.446629	0.370005	0	0	1.0591	0.203113	0.00436025	0.46467	0.369994	0	0
0.75671	-0.0721498	0.153577	3.14425	0.52743	1.02115	0.207974	0.249712	0.123715	-0.0886859	0.365285	-0.142245	0	0	-0.00283255	-0.297112	0.0496149	1.09312	-0.312169	0	0	-0.356219	-0.0201599	-0.218189	1.07319	-0.094102	-0.0275257	0.447885	0.370012	0	0	1.06537	0.201039	0.00410211	0.465836	0.369977	0	0
0.761688	-0.0716537	0.151365	3.14419	0.520359	1.02231	0.206877	0.240737	0.123604	-0.0861388	0.363753	-0.133669	0	0	0.0153958	-0.290845	0.0555372	1.10663	-0.301067	0	0	-0.35634	-0.0218657	-0.213709	1.07969	-0.0934695	-0.0275573	0.449141	0.370018	0	0	1.07165	0.198966	0.00384401	0.467004	0.369961	0	0
0.766667	-0.0710159	0.148986	3.14391	0.513294	1.02337	0.205783	0.231774	0.123281	-0.0833553	0.361898	-0.1253	0	0	0.0335042	-0.284475	0.0605311	1.11887	-0.288734	0	0	-0.356245	-0.0238439	-0.20907	1.0862	-0.0928374	-0.0275889	0.450398	0.370024	0	0	1.07792	0.196894	0.00358596	0.468172	0.369944	0	0
0.771645	-0.0702337	0.146479	3.1434	0.506233	1.02434	0.204691	0.222849	0.122786	-0.080344	0.359747	-0.117147	0	0	0.0514779	-0.278086	0.0645461	1.12981	-0.275359	0	0	-0.35592	-0.0260549	-0.204252	1.0927	-0.0922058	-0.0276205	0.451655	0.370031	0	0	1.0842	0.194822	0.00332796	0.46934	0.369927	0	0
0.776623	-0.0693081	0.143881	3.14265	0.499174	1.02522	0.2036	0.213979	0.122154	-0.0771171	0.357327	-0.109212	0	0	0.0693031	-0.271759	0.0675468	1.13947	-0.26113	0	0	-0.355361	-0.0284597	-0.199239	1.09921	-0.0915746	-0.0276522	0.452913	0.370037	0	0	1.09048	0.192751	0.00307003	0.470509	0.369911	0	0
0.781602	-0.0682433	0.141228	3.14165	0.492114	1.02599	0.202508	0.205177	0.121421	-0.0736898	0.35466	-0.101497	0	0	0.0869661	-0.265569	0.0695125	1.14785	-0.246232	0	0	-0.354567	-0.0310196	-0.194021	1.10572	-0.0909439	-0.027684	0.454171	0.370044	0	0	1.09675	0.190681	0.00281216	0.471678	0.369894	0	0
0.78658	-0.0670472	0.138552	3.14041	0.485053	1.02667	0.201413	0.196451	0.120619	-0.07008	0.351768	-0.094002	0	0	0.104453	-0.259587	0.0704379	1.15494	-0.230844	0	0	-0.353541	-0.0336977	-0.188592	1.11222	-0.0903138	-0.0277158	0.455429	0.37005	0	0	1.10303	0.188612	0.00255436	0.472848	0.369878	0	0
0.791558	-0.0657311	0.135884	3.13894	0.477989	1.02725	0.200317	0.187804	0.119777	-0.0663086	0.348672	-0.0867232	0	0	0.121749	-0.253874	0.0703314	1.16076	-0.215133	0	0	-0.352293	-0.0364585	-0.182949	1.11873	-0.0896843	-0.0277477	0.456688	0.370056	0	0	1.10931	0.186543	0.00229663	0.474018	0.369861	0	0
0.796537	-0.0643091	0.133251	3.13723	0.470922	1.02773	0.199218	0.179232	0.118922	-0.0623989	0.345388	-0.0796562	0	0	0.138838	-0.248486	0.0692149	1.16531	-0.199255	0	0	-0.350838	-0.0392691	-0.177097	1.12524	-0.0890554	-0.0277796	0.457947	0.370063	0	0	1.11559	0.184475	0.00203899	0.475188	0.369844	0	0
0.801515	-0.0627985	0.130679	3.13531	0.463849	1.02812	0.198118	0.170727	0.118077	-0.0583762	0.341933	-0.0727952	0	0	0.155702	-0.243469	0.0671224	1.16861	-0.183352	0	0	-0.349192	-0.0420986	-0.171042	1.13175	-0.088427	-0.0278116	0.459206	0.370069	0	0	1.12187	0.182408	0.00178141	0.476359	0.369828	0	0
0.806494	-0.0612185	0.128189	3.13319	0.456771	1.02841	0.197016	0.162279	0.117262	-0.054267	0.338319	-0.066133	0	0	0.172324	-0.23886	0.0640985	1.17067	-0.167554	0	0	-0.347377	-0.0449193	-0.164795	1.13826	-0.0877993	-0.0278437	0.460466	0.370076	0	0	1.12815	0.180342	0.00152391	0.47753	0.369811	0	0
0.811472	-0.0595899	0.125799	3.1309	0.449685	1.02862	0.195915	0.153871	0.116493	-0.0500988	0.334559	-0.0596614	0	0	0.188682	-0.234689	0.0601973	1.1715	-0.151972	0	0	-0.345416	-0.0477058	-0.158371	1.14477	-0.0871722	-0.0278759	0.461727	0.370082	0	0	1.13444	0.178277	0.00126649	0.478702	0.369795	0	0
0.81645	-0.0579348	0.123525	3.12845	0.442592	1.02873	0.194814	0.145487	0.115783	-0.0458996	0.330664	-0.0533713	0	0	0.204755	-0.230976	0.0554802	1.1711	-0.136709	0	0	-0.343336	-0.050436	-0.151789	1.15129	-0.0865456	-0.0279081	0.462987	0.370088	0	0	1.14072	0.176213	0.00100914	0.479874	0.369778	0	0
0.821429	-0.0562751	0.121379	3.12587	0.435491	1.02876	0.193714	0.137108	0.115142	-0.0416969	0.326643	-0.0472525	0	0	0.220522	-0.227733	0.0500151	1.1695	-0.121848	0	0	-0.341162	-0.0530904	-0.145069	1.1578	-0.0859195	-0.0279404	0.464248	0.370095	0	0	1.147	0.174149	0.000751861	0.481047	0.369762	0	0
0.826407	-0.0546326	0.119373	3.1232	0.428382	1.02871	0.192618	0.128714	0.114575	-0.0375174	0.322504	-0.0412938	0	0	0.235961	-0.224963	0.0438743	1.16671	-0.107464	0	0	-0.338922	-0.0556527	-0.138235	1.16431	-0.085294	-0.0279727	0.46551	0.370101	0	0	1.15329	0.172086	0.00049465	0.48222	0.369745	0	0
0.831385	-0.0530277	0.117513	3.12044	0.421264	1.02857	0.191525	0.120284	0.114088	-0.0333864	0.318257	-0.0354832	0	0	0.251047	-0.222663	0.037133	1.16272	-0.0936181	0	0	-0.336642	-0.0581092	-0.131312	1.17083	-0.0846689	-0.0280051	0.466772	0.370108	0	0	1.15957	0.170024	0.000237502	0.483394	0.369729	0	0
0.836364	-0.0514793	0.115803	3.11764	0.414136	1.02836	0.190438	0.111801	0.11368	-0.0293272	0.313912	-0.0298077	0	0	0.265759	-0.220824	0.0298675	1.15756	-0.0803617	0	0	-0.334349	-0.0604487	-0.124328	1.17735	-0.0840442	-0.0280376	0.468034	0.370114	0	0	1.16586	0.167962	-1.95864e-05	0.484568	0.369712	0	0
0.841342	-0.0500042	0.114246	3.11481	0.406997	1.02808	0.189358	0.103248	0.113351	-0.0253607	0.309476	-0.0242533	0	0	0.280075	-0.219428	0.0221544	1.15122	-0.0677365	0	0	-0.332064	-0.0626631	-0.117311	1.18387	-0.0834199	-0.02807	0.469297	0.37012	0	0	1.17215	0.165901	-0.000276622	0.485743	0.369696	0	0
0.84632	-0.0486165	0.112843	3.11198	0.399848	1.02773	0.188286	0.0946107	0.113097	-0.0215048	0.304961	-0.0188053	0	0	0.293974	-0.218454	0.0140685	1.14371	-0.0557763	0	0	-0.32981	-0.0647464	-0.11029	1.19039	-0.0827959	-0.0281026	0.470561	0.370127	0	0	1.17844	0.163841	-0.000533611	0.486917	0.36968	0	0
0.851299	-0.0473273	0.11159	3.10917	0.392687	1.02731	0.187224	0.0858781	0.112913	-0.0177741	0.300378	-0.0134479	0	0	0.307436	-0.217877	0.00568231	1.13504	-0.0445077	0	0	-0.327605	-0.066695	-0.103291	1.19691	-0.0821722	-0.0281351	0.471825	0.370133	0	0	1.18472	0.161781	-0.000790556	0.488093	0.369663	0	0
0.856277	-0.0461451	0.110485	3.10639	0.385514	1.02683	0.186174	0.0770434	0.112791	-0.0141795	0.295741	-0.00816515	0	0	0.320444	-0.217666	-0.00293536	1.12521	-0.0339516	0	0	-0.325463	-0.0685074	-0.0963436	1.20343	-0.0815487	-0.0281677	0.473089	0.37014	0	0	1.19101	0.159722	-0.00104746	0.489269	0.369647	0	0
0.861255	-0.0450752	0.109521	3.10367	0.378327	1.02629	0.185137	0.0681032	0.112724	-0.0107284	0.291062	-0.00294061	0	0	0.33298	-0.217789	-0.0117199	1.11422	-0.024124	0	0	-0.323395	-0.0701839	-0.0894717	1.20995	-0.0809253	-0.0282003	0.474354	0.370146	0	0	1.1973	0.157663	-0.00130434	0.490445	0.369631	0	0
0.866234	-0.0441198	0.108693	3.10102	0.371124	1.02569	0.184114	0.0590586	0.112703	-0.00742386	0.286359	0.00224205	0	0	0.34503	-0.218212	-0.0206116	1.10207	-0.0150374	0	0	-0.321407	-0.0717268	-0.0826992	1.21647	-0.0803022	-0.028233	0.47562	0.370153	0	0	1.20359	0.155604	-0.00156118	0.491621	0.369614	0	0
0.871212	-0.0432779	0.107991	3.09843	0.363904	1.02503	0.183108	0.0499145	0.112717	-0.00426529	0.281647	0.0073988	0	0	0.356581	-0.2189	-0.029556	1.08876	-0.00670119	0	0	-0.319501	-0.07314	-0.0760468	1.223	-0.0796791	-0.0282656	0.476885	0.370159	0	0	1.20988	0.153546	-0.001818	0.492798	0.369598	0	0
0.87619	-0.042546	0.107409	3.09593	0.356666	1.02433	0.182119	0.0406796	0.112757	-0.00124829	0.276946	0.0125448	0	0	0.367622	-0.219816	-0.0385044	1.07429	0.000877191	0	0	-0.317677	-0.0744285	-0.0695327	1.22953	-0.0790562	-0.0282983	0.478152	0.370166	0	0	1.21618	0.151488	-0.00207478	0.493976	0.369582	0	0
0.881169	-0.0419176	0.106938	3.09352	0.349408	1.02357	0.181149	0.0313661	0.11281	0.00163507	0.272273	0.0176941	0	0	0.378144	-0.220925	-0.047413	1.05864	0.00769178	0	0	-0.315928	-0.075599	-0.0631717	1.23605	-0.0784333	-0.028331	0.479419	0.370172	0	0	1.22247	0.14943	-0.00233155	0.495153	0.369565	0	0
0.886147	-0.0413839	0.106568	3.09118	0.342127	1.02276	0.180198	0.0219893	0.112866	0.0043958	0.267649	0.0228592	0	0	0.388137	-0.222191	-0.0562439	1.04182	0.0137376	0	0	-0.314246	-0.0766586	-0.0569758	1.24258	-0.0778105	-0.0283637	0.480686	0.370179	0	0	1.22876	0.147373	-0.00258829	0.496331	0.369549	0	0
0.891126	-0.0409338	0.10629	3.08892	0.334821	1.0219	0.179267	0.0125669	0.112913	0.00704763	0.263094	0.0280507	0	0	0.397595	-0.22358	-0.0649636	1.02383	0.0190103	0	0	-0.312618	-0.0776154	-0.0509534	1.24911	-0.0771878	-0.0283964	0.481954	0.370186	0	0	1.23505	0.145316	-0.00284501	0.49751	0.369533	0	0
0.896104	-0.0405549	0.106097	3.08673	0.32749	1.021	0.178358	0.00311894	0.11294	0.00960649	0.258628	0.0332771	0	0	0.406513	-0.22506	-0.0735435	1.00466	0.0235061	0	0	-0.31103	-0.0784779	-0.0451101	1.25564	-0.0765652	-0.0284291	0.483222	0.370192	0	0	1.24135	0.14326	-0.0031017	0.498688	0.369516	0	0
0.901082	-0.0402332	0.105978	3.08459	0.320129	1.02006	0.17747	-0.00633352	0.112936	0.0120898	0.25427	0.0385442	0	0	0.414886	-0.226601	-0.0819589	0.98431	0.0272218	0	0	-0.309465	-0.079255	-0.0394483	1.26218	-0.0759426	-0.0284619	0.484491	0.370199	0	0	1.24764	0.141203	-0.00335838	0.499868	0.3695	0	0
0.906061	-0.039954	0.105927	3.08251	0.312736	1.01907	0.176604	-0.0157684	0.11289	0.014516	0.25004	0.0438552	0	0	0.42271	-0.228173	-0.0901884	0.962778	0.030155	0	0	-0.307902	-0.0799554	-0.0339677	1.26871	-0.07532	-0.0284946	0.48576	0.370205	0	0	1.25394	0.139147	-0.00361504	0.501047	0.369484	0	0
0.911039	-0.0397021	0.105936	3.08046	0.30531	1.01805	0.17576	-0.0251634	0.112791	0.016904	0.245956	0.0492103	0	0	0.429983	-0.229751	-0.0982134	0.940068	0.0323046	0	0	-0.306324	-0.0805879	-0.0286655	1.27524	-0.0746975	-0.0285274	0.48703	0.370212	0	0	1.26023	0.137091	-0.00387168	0.502227	0.369468	0	0
0.916017	-0.0394624	0.105998	3.07843	0.297846	1.01698	0.174939	-0.0344964	0.11263	0.0192724	0.242035	0.0546066	0	0	0.436703	-0.231312	-0.106018	0.916189	0.0336712	0	0	-0.304709	-0.0811606	-0.0235366	1.28178	-0.0740751	-0.0285602	0.4883	0.370219	0	0	1.26653	0.135036	-0.0041283	0.503407	0.369451	0	0
0.920996	-0.0392202	0.106106	3.0764	0.290342	1.01588	0.17414	-0.0437463	0.112396	0.0216391	0.238293	0.0600377	0	0	0.44287	-0.232834	-0.113586	0.891151	0.0342579	0	0	-0.303036	-0.0816815	-0.0185741	1.28832	-0.0734527	-0.0285929	0.489571	0.370225	0	0	1.27283	0.13298	-0.00438489	0.504588	0.369435	0	0
0.925974	-0.0389615	0.106255	3.07436	0.282794	1.01474	0.173364	-0.0528929	0.112081	0.024021	0.234745	0.0654943	0	0	0.448483	-0.234301	-0.120905	0.864972	0.034071	0	0	-0.301287	-0.0821578	-0.0137697	1.29485	-0.0728305	-0.0286257	0.490842	0.370232	0	0	1.27912	0.130925	-0.00464146	0.505769	0.369419	0	0
0.930952	-0.0386738	0.106439	3.07229	0.2752	1.01357	0.17261	-0.0619178	0.111676	0.0264333	0.231404	0.0709635	0	0	0.453546	-0.235696	-0.12796	0.837676	0.033121	0	0	-0.299442	-0.082596	-0.00911364	1.30139	-0.0722084	-0.0286586	0.492114	0.370239	0	0	1.28542	0.128871	-0.00489799	0.506951	0.369403	0	0
0.935931	-0.0383459	0.106655	3.07018	0.267554	1.01236	0.171878	-0.0708043	0.111173	0.0288893	0.228284	0.0764296	0	0	0.458058	-0.237007	-0.134739	0.809297	0.0314231	0	0	-0.297485	-0.0830019	-0.00459565	1.30793	-0.0715864	-0.0286914	0.493386	0.370245	0	0	1.29172	0.126817	-0.0051545	0.508132	0.369386	0	0
0.940909	-0.0379686	0.106898	3.06802	0.259855	1.01113	0.171169	-0.0795381	0.110564	0.0314001	0.225396	0.0818738	0	0	0.462026	-0.238223	-0.141228	0.779876	0.0289983	0	0	-0.2954	-0.0833806	-0.000204847	1.31447	-0.0709646	-0.0287243	0.494659	0.370252	0	0	1.29802	0.124763	-0.00541097	0.509315	0.36937	0	0
0.945887	-0.0375348	0.107165	3.06578	0.252097	1.00986	0.170482	-0.0881071	0.109843	0.0339747	0.222749	0.0872749	0	0	0.465453	-0.239338	-0.147413	0.749466	0.0258743	0	0	-0.293175	-0.0837363	0.00406977	1.32102	-0.0703429	-0.0287572	0.495932	0.370259	0	0	1.30432	0.122709	-0.00566739	0.510497	0.369354	0	0
0.950866	-0.0370155	0.107443	3.06346	0.244478	1.00893	0.169901	-0.0965089	0.109004	0.0366193	0.220357	0.0926094	0	0	0.468339	-0.240347	-0.153279	0.718132	0.0220854	0	0	-0.290809	-0.0840697	0.00823981	1.32756	-0.0697213	-0.0287901	0.497205	0.370265	0	0	1.31062	0.120656	-0.00592381	0.51168	0.369338	0	0
0.955844	-0.036408	0.107731	3.06104	0.236966	1.00828	0.169415	-0.104736	0.108042	0.0393381	0.218228	0.0978522	0	0	0.470693	-0.241249	-0.158811	0.685952	0.0176731	0	0	-0.288295	-0.0843839	0.0123161	1.3341	-0.0690997	-0.028823	0.498478	0.370272	0	0	1.31692	0.118603	-0.00618021	0.512863	0.369322	0	0
0.960823	-0.0357116	0.108026	3.05852	0.229531	1.00784	0.169013	-0.112784	0.106951	0.042133	0.216372	0.102978	0	0	0.472526	-0.242042	-0.163994	0.653014	0.0126863	0	0	-0.285629	-0.0846817	0.0163092	1.34064	-0.0684782	-0.0288558	0.49975	0.370279	0	0	1.32322	0.116549	-0.0064366	0.514045	0.369306	0	0
0.965801	-0.0349286	0.108329	3.05589	0.222147	1.00755	0.168687	-0.120649	0.105725	0.0450036	0.214798	0.10796	0	0	0.473851	-0.242729	-0.168814	0.619422	0.00718055	0	0	-0.28281	-0.084965	0.0202293	1.34718	-0.0678567	-0.0288887	0.501023	0.370285	0	0	1.32952	0.114496	-0.00669298	0.515227	0.369289	0	0
0.970779	-0.0340633	0.108637	3.05314	0.214793	1.00737	0.168427	-0.128331	0.104359	0.0479477	0.213514	0.112774	0	0	0.474686	-0.243314	-0.173257	0.585294	0.00121797	0	0	-0.279841	-0.0852358	0.0240862	1.35372	-0.0672352	-0.0289216	0.502296	0.370292	0	0	1.33582	0.112443	-0.00694934	0.51641	0.369273	0	0
0.975758	-0.0331224	0.108951	3.05027	0.20745	1.00726	0.168226	-0.135828	0.102849	0.050961	0.212529	0.117395	0	0	0.475049	-0.243803	-0.17731	0.550761	-0.00513405	0	0	-0.276727	-0.0854957	0.0278887	1.36026	-0.0666137	-0.0289545	0.503568	0.370299	0	0	1.34211	0.11039	-0.0072057	0.517592	0.369257	0	0
0.980736	-0.0321144	0.109269	3.04728	0.200105	1.00718	0.168077	-0.143144	0.101192	0.0540373	0.211853	0.121799	0	0	0.474964	-0.244204	-0.18096	0.515969	-0.0118038	0	0	-0.273474	-0.0857462	0.0316444	1.3668	-0.0659923	-0.0289874	0.504841	0.370305	0	0	1.34841	0.108338	-0.00746203	0.518774	0.369241	0	0
0.985714	-0.0310498	0.109591	3.04417	0.192746	1.0071	0.167974	-0.150279	0.0993825	0.0571691	0.211495	0.125967	0	0	0.474459	-0.244526	-0.1842	0.481077	-0.018717	0	0	-0.270094	-0.085989	0.0353598	1.37334	-0.0653709	-0.0290203	0.506113	0.370312	0	0	1.35471	0.106285	-0.00771836	0.519956	0.369225	0	0
0.990693	-0.0299403	0.109915	3.04093	0.185364	1.007	0.167912	-0.157237	0.0974195	0.0603474	0.211465	0.12988	0	0	0.473564	-0.244782	-0.187021	0.446257	-0.0257982	0	0	-0.266598	-0.086226	0.0390399	1.37988	-0.0647495	-0.0290531	0.507386	0.370319	0	0	1.36101	0.104232	-0.00797467	0.521138	0.369209	0	0
0.995671	-0.0287989	0.11024	3.03758	0.177955	1.00686	0.167886	-0.164019	0.0953004	0.0635617	0.211772	0.133524	0	0	0.472313	-0.244984	-0.189421	0.411691	-0.032973	0	0	-0.263002	-0.0864593	0.0426878	1.38641	-0.0641281	-0.029086	0.508658	0.370325	0	0	1.3673	0.10218	-0.00823097	0.52232	0.369193	0	0
1.00065	-0.0276394	0.110562	3.03412	0.170518	1.00667	0.167892	-0.17063	0.0930236	0.0668007	0.212426	0.136887	0	0	0.470747	-0.245144	-0.191401	0.377568	-0.04017	0	0	-0.259322	-0.0866917	0.046305	1.39295	-0.0635068	-0.0291189	0.509931	0.370332	0	0	1.3736	0.100127	-0.00848727	0.523502	0.369176	0	0
1.00563	-0.0264759	0.110881	3.03057	0.16305	1.00641	0.167927	-0.177069	0.0905883	0.070052	0.213436	0.139963	0	0	0.468907	-0.245278	-0.192967	0.344086	-0.0473228	0	0	-0.255574	-0.0869265	0.049891	1.39949	-0.0628855	-0.0291517	0.511203	0.370339	0	0	1.37989	0.0980748	-0.00874356	0.524684	0.36916	0	0
1.01061	-0.0253228	0.111191	3.02693	0.155556	1.00609	0.167987	-0.183339	0.0879944	0.0733024	0.21481	0.142746	0	0	0.46684	-0.245399	-0.194131	0.311443	-0.0543717	0	0	-0.251777	-0.0871678	0.0534434	1.40603	-0.0622642	-0.0291846	0.512475	0.370345	0	0	1.38619	0.0960225	-0.00899984	0.525866	0.369144	0	0
1.01558	-0.0241944	0.11149	3.02321	0.148039	1.0057	0.168072	-0.189441	0.0852423	0.0765383	0.216554	0.145239	0	0	0.464593	-0.24552	-0.19491	0.279837	-0.0612656	0	0	-0.247951	-0.0874202	0.0569576	1.41256	-0.0616429	-0.0292175	0.513747	0.370352	0	0	1.39249	0.0939701	-0.00925611	0.527048	0.369128	0	0
1.02056	-0.0231042	0.111771	3.01944	0.140506	1.00524	0.168177	-0.195373	0.0823336	0.0797457	0.218671	0.147443	0	0	0.462217	-0.245655	-0.195329	0.249464	-0.0679635	0	0	-0.244114	-0.0876891	0.0604274	1.4191	-0.0610216	-0.0292503	0.515019	0.370359	0	0	1.39878	0.0919179	-0.00951238	0.52823	0.369112	0	0
1.02554	-0.0220654	0.11203	3.01563	0.132963	1.0047	0.168303	-0.201136	0.0792705	0.0829104	0.221165	0.149367	0	0	0.459763	-0.245815	-0.195419	0.220509	-0.0744348	0	0	-0.240285	-0.0879803	0.0638449	1.42564	-0.0604003	-0.0292832	0.516291	0.370365	0	0	1.40508	0.0898656	-0.00976864	0.529411	0.369096	0	0
1.03052	-0.0210899	0.11226	3.0118	0.12542	1.0041	0.168447	-0.206726	0.0760565	0.0860184	0.224032	0.15102	0	0	0.457283	-0.246011	-0.195215	0.193145	-0.0806606	0	0	-0.236483	-0.0883002	0.0672007	1.43217	-0.0597791	-0.0293161	0.517563	0.370372	0	0	1.41137	0.0878134	-0.0100249	0.530593	0.369079	0	0
1.0355	-0.0201884	0.112456	3.00797	0.117884	1.00344	0.168607	-0.212143	0.0726962	0.0890562	0.227269	0.152416	0	0	0.454828	-0.246253	-0.194761	0.16753	-0.0866328	0	0	-0.232725	-0.0886552	0.0704841	1.43871	-0.0591578	-0.0293489	0.518836	0.370379	0	0	1.41767	0.0857613	-0.0102812	0.531775	0.369063	0	0
1.04048	-0.0193704	0.112611	3.00416	0.110365	1.00272	0.168784	-0.217384	0.0691953	0.0920109	0.230865	0.153571	0	0	0.452447	-0.246545	-0.194104	0.143798	-0.0923541	0	0	-0.229027	-0.0890519	0.0736839	1.44525	-0.0585366	-0.0293818	0.520108	0.370386	0	0	1.42396	0.0837092	-0.0105374	0.532956	0.369047	0	0
1.04545	-0.0186437	0.112718	3.00039	0.102874	1.00196	0.168975	-0.222445	0.065561	0.0948703	0.234807	0.1545	0	0	0.450185	-0.246895	-0.193292	0.122062	-0.0978366	0	0	-0.225405	-0.0894963	0.0767886	1.45178	-0.0579154	-0.0294146	0.521379	0.370392	0	0	1.43025	0.0816572	-0.0107936	0.534138	0.369031	0	0
1.05043	-0.0180147	0.112772	2.99669	0.0954183	1.00114	0.16918	-0.227326	0.0618019	0.0976236	0.239078	0.155222	0	0	0.448083	-0.247303	-0.192377	0.102405	-0.103101	0	0	-0.221872	-0.089994	0.079787	1.45832	-0.0572942	-0.0294475	0.522651	0.370399	0	0	1.43655	0.0796052	-0.0110499	0.53532	0.369015	0	0
1.05541	-0.0174879	0.112768	2.99308	0.0880081	1.00029	0.169398	-0.232024	0.057928	0.100261	0.243655	0.155756	0	0	0.446176	-0.247771	-0.19141	0.084879	-0.108173	0	0	-0.218439	-0.0905496	0.0826685	1.46485	-0.056673	-0.0294804	0.523923	0.370406	0	0	1.44284	0.0775533	-0.0113061	0.536501	0.368999	0	0
1.06039	-0.0170664	0.1127	2.98957	0.0806514	0.999412	0.169628	-0.236538	0.0539506	0.102775	0.248511	0.156121	0	0	0.444492	-0.248297	-0.190436	0.0695039	-0.113083	0	0	-0.215115	-0.0911663	0.0854242	1.47139	-0.0560518	-0.0295132	0.525195	0.370412	0	0	1.44914	0.0755014	-0.0115623	0.537683	0.368982	0	0
1.06537	-0.0167515	0.112567	2.98618	0.0733553	0.998505	0.16987	-0.240869	0.0498825	0.10516	0.253617	0.156337	0	0	0.443054	-0.248879	-0.189497	0.0562657	-0.117865	0	0	-0.211908	-0.091846	0.0880469	1.47792	-0.0554307	-0.0295461	0.526467	0.370419	0	0	1.45543	0.0734495	-0.0118185	0.538864	0.368966	0	0
1.07035	-0.0165428	0.112366	2.98293	0.0661257	0.99758	0.170122	-0.245017	0.0457373	0.10741	0.258939	0.156423	0	0	0.441874	-0.249511	-0.188628	0.0451164	-0.122551	0	0	-0.208822	-0.092589	0.0905312	1.48446	-0.0548096	-0.0295789	0.527739	0.370426	0	0	1.46172	0.0713977	-0.0120747	0.540046	0.36895	0	0
1.07532	-0.0164381	0.112098	2.97982	0.0589672	0.99664	0.170384	-0.248987	0.0415296	0.109524	0.264441	0.156395	0	0	0.440958	-0.25019	-0.187855	0.0359755	-0.127171	0	0	-0.205861	-0.0933937	0.0928744	1.49099	-0.0541884	-0.0296118	0.529011	0.370432	0	0	1.46802	0.069346	-0.0123309	0.541227	0.368934	0	0
1.0803	-0.016434	0.111764	2.97687	0.0518829	0.995691	0.170655	-0.252782	0.0372745	0.111501	0.270089	0.156271	0	0	0.440303	-0.25091	-0.187197	0.0287322	-0.131753	0	0	-0.203024	-0.0942569	0.0950757	1.49753	-0.0535673	-0.0296446	0.530282	0.370439	0	0	1.47431	0.0672943	-0.0125871	0.542409	0.368918	0	0
1.08528	-0.016525	0.111367	2.97409	0.0448739	0.994737	0.170933	-0.256408	0.032987	0.113345	0.275845	0.156068	0	0	0.4399	-0.251665	-0.186662	0.0232489	-0.136318	0	0	-0.200309	-0.0951738	0.0971376	1.50406	-0.0529462	-0.0296775	0.531554	0.370446	0	0	1.4806	0.0652427	-0.0128433	0.54359	0.368902	0	0
1.09026	-0.0167047	0.110913	2.97146	0.03794	0.99378	0.171219	-0.259872	0.0286814	0.115058	0.281674	0.155799	0	0	0.439732	-0.25245	-0.186254	0.0193659	-0.140884	0	0	-0.197713	-0.0961382	0.0990648	1.5106	-0.0523252	-0.0297103	0.532826	0.370452	0	0	1.4869	0.0631911	-0.0130995	0.544771	0.368886	0	0
1.09524	-0.0169655	0.110406	2.96899	0.0310789	0.992824	0.171511	-0.263185	0.0243713	0.116648	0.287544	0.155477	0	0	0.439778	-0.253259	-0.185966	0.0169066	-0.145463	0	0	-0.195229	-0.0971432	0.100865	1.51713	-0.0517041	-0.0297432	0.534097	0.370459	0	0	1.49319	0.0611396	-0.0133557	0.545953	0.368869	0	0
1.10022	-0.0172989	0.109853	2.96668	0.0242868	0.99187	0.171808	-0.266358	0.0200682	0.118123	0.293427	0.155114	0	0	0.440013	-0.254089	-0.185787	0.0156838	-0.150059	0	0	-0.192848	-0.0981809	0.102547	1.52366	-0.051083	-0.029776	0.535369	0.370466	0	0	1.49948	0.059088	-0.0136118	0.547134	0.368853	0	0
1.10519	-0.0176957	0.109262	2.9645	0.0175583	0.99092	0.17211	-0.269404	0.0157819	0.119494	0.299297	0.154721	0	0	0.440409	-0.254934	-0.185703	0.0155065	-0.154673	0	0	-0.190562	-0.0992436	0.104124	1.5302	-0.050462	-0.0298089	0.53664	0.370472	0	0	1.50577	0.0570365	-0.013868	0.548315	0.368837	0	0
1.11017	-0.0181464	0.108641	2.96245	0.0108868	0.989974	0.172416	-0.272337	0.0115194	0.120772	0.305138	0.154306	0	0	0.440939	-0.255792	-0.185698	0.0161861	-0.159303	0	0	-0.188359	-0.100324	0.105608	1.53673	-0.0498409	-0.0298417	0.537912	0.370479	0	0	1.51207	0.054985	-0.0141242	0.549497	0.368821	0	0
1.11515	-0.0186413	0.107996	2.96051	0.00426449	0.989032	0.172725	-0.275173	0.00728477	0.12197	0.310937	0.153875	0	0	0.441574	-0.256659	-0.185754	0.0175427	-0.163945	0	0	-0.186227	-0.101415	0.107013	1.54327	-0.0492198	-0.0298746	0.539184	0.370486	0	0	1.51836	0.0529334	-0.0143803	0.550678	0.368805	0	0
1.12013	-0.0191713	0.107334	2.95866	-0.00231717	0.988095	0.173036	-0.27793	0.0030791	0.123103	0.316689	0.153436	0	0	0.442288	-0.257533	-0.185856	0.019411	-0.168591	0	0	-0.184154	-0.102511	0.108354	1.5498	-0.0485988	-0.0299074	0.540455	0.370492	0	0	1.52465	0.0508819	-0.0146365	0.551859	0.368789	0	0
1.12511	-0.0197274	0.10666	2.95688	-0.008867	0.987162	0.173349	-0.280624	-0.00109938	0.124185	0.322394	0.152991	0	0	0.443059	-0.258412	-0.185991	0.0216448	-0.173237	0	0	-0.182127	-0.103609	0.109645	1.55633	-0.0479777	-0.0299403	0.541727	0.370499	0	0	1.53094	0.0488303	-0.0148927	0.55304	0.368772	0	0
1.13009	-0.0203018	0.105979	2.95516	-0.0153937	0.986231	0.173663	-0.283272	-0.00525494	0.12523	0.328058	0.152545	0	0	0.443866	-0.259295	-0.186146	0.0241203	-0.17788	0	0	-0.180133	-0.104706	0.110901	1.56287	-0.0473567	-0.0299731	0.542999	0.370506	0	0	1.53724	0.0467788	-0.0151489	0.554222	0.368756	0	0
1.13506	-0.0208876	0.105295	2.95347	-0.0219054	0.985302	0.173978	-0.28589	-0.00939362	0.126251	0.333692	0.152098	0	0	0.444695	-0.26018	-0.186313	0.0267389	-0.182517	0	0	-0.178161	-0.105802	0.112134	1.5694	-0.0467356	-0.030006	0.54427	0.370512	0	0	1.54353	0.0447273	-0.015405	0.555403	0.36874	0	0
1.14004	-0.0214793	0.104609	2.9518	-0.028409	0.984375	0.174294	-0.288492	-0.0135222	0.127259	0.339308	0.151651	0	0	0.445535	-0.261067	-0.186486	0.0294275	-0.187151	0	0	-0.176201	-0.106895	0.113355	1.57594	-0.0461145	-0.0300388	0.545542	0.370519	0	0	1.54982	0.0426757	-0.0156612	0.556584	0.368724	0	0
1.14502	-0.0220731	0.103922	2.95014	-0.0349098	0.983448	0.174609	-0.291088	-0.0176468	0.128262	0.344916	0.151205	0	0	0.446378	-0.261953	-0.18666	0.0321389	-0.191782	0	0	-0.174245	-0.107988	0.114572	1.58247	-0.0454935	-0.0300717	0.546813	0.370526	0	0	1.55611	0.0406242	-0.0159174	0.557766	0.368708	0	0
