nColumns=19
nRows=212
DataType=double
version=3
OpenSimVersion=4.1
endheader
time	ground_force_calcn_l_vx	ground_force_calcn_l_vy	ground_force_calcn_l_vz	ground_force_calcn_l_px	ground_force_calcn_l_py	ground_force_calcn_l_pz	ground_force_calcn_l_mx	ground_force_calcn_l_my	ground_force_calcn_l_mz	ground_force_calcn_r_vx	ground_force_calcn_r_vy	ground_force_calcn_r_vz	ground_force_calcn_r_px	ground_force_calcn_r_py	ground_force_calcn_r_pz	ground_force_calcn_r_mx	ground_force_calcn_r_my	ground_force_calcn_r_mz
3.73	0	0	0	0	-0.00125107	0	0	0	0	0	0	0	0	0.0119399	0	0	0	0
3.73999	0.876937	11.8568	4.64743	1.17638	-1.31626e-16	0.171484	0.0206036	0.278575	0.109191	0	0	0	0	-1.31626e-16	0	0	0	0
3.74997	-5.07553	41.9936	4.336	1.18066	-1.3117e-16	0.167827	-0.0398703	0.329876	0.034061	0	0	0	0	-1.3117e-16	0	0	0	0
3.75996	-11.2178	72.7055	3.90379	1.17697	-1.30698e-16	0.167046	-0.0527588	0.341945	0.0183601	0	0	0	0	-1.30698e-16	0	0	0	0
3.76995	-17.6529	104.283	3.25513	1.1727	-1.30207e-16	0.166153	-0.0590483	0.348823	0.0108883	0	0	0	0	-1.30207e-16	0	0	0	0
3.77994	-24.4462	136.933	2.29279	1.16817	-1.29698e-16	0.165164	-0.06222	0.34852	0.00583557	0	0	0	0	-1.29698e-16	0	0	0	0
3.78992	-31.6033	170.778	0.937074	1.16351	-1.29177e-16	0.164116	-0.0626123	0.338345	0.00185653	0	0	0	0	-1.29177e-16	0	0	0	0
3.79991	-39.0577	205.865	-0.856598	1.15881	-1.28653e-16	0.163045	-0.0599307	0.315881	-0.00131438	0	0	0	0	-1.28653e-16	0	0	0	0
3.8099	-46.6686	242.157	-3.08661	1.15416	-1.28136e-16	0.161994	-0.0538259	0.279295	-0.00355999	0	0	0	0	-1.28136e-16	0	0	0	0
3.81988	-54.23	279.509	-5.70304	1.14968	-1.27638e-16	0.161005	-0.0441423	0.227515	-0.00464217	0	0	0	0	-1.27638e-16	0	0	0	0
3.82987	-61.4895	317.63	-8.6141	1.14548	-1.27172e-16	0.160119	-0.0310406	0.160343	-0.00434849	0	0	0	0	-1.27172e-16	0	0	0	0
3.83986	-68.1747	356.064	-11.699	1.14165	-1.26748e-16	0.15937	-0.0150278	0.0784871	-0.00257882	0	0	0	0	-1.26748e-16	0	0	0	0
3.84984	-74.0224	394.192	-14.8246	1.13826	-1.26372e-16	0.158779	0.00310365	-0.0165279	0.000621573	0	0	0	0	-1.26372e-16	0	0	0	0
3.85983	-78.8081	431.265	-17.8622	1.13534	-1.26049e-16	0.158354	0.0223949	-0.122552	0.00507589	0	0	0	0	-1.26049e-16	0	0	0	0
3.86982	-82.3666	466.455	-20.7018	1.13289	-1.25779e-16	0.15809	0.0418459	-0.23698	0.0105175	0	0	0	0	-1.25779e-16	0	0	0	0
3.87981	-84.6043	498.935	-23.2606	1.1309	-1.25558e-16	0.15797	0.0605082	-0.356834	0.0166358	0	0	0	0	-1.25558e-16	0	0	0	0
3.88979	-85.5013	527.952	-25.4851	1.1293	-1.25383e-16	0.157971	0.0775441	-0.478819	0.0231134	0	0	0	0	-1.25383e-16	0	0	0	0
3.89978	-85.104	552.903	-27.3485	1.12805	-1.25245e-16	0.158067	0.0922666	-0.599437	0.0296502	0	0	0	0	-1.25245e-16	0	0	0	0
3.90977	-83.5134	573.384	-28.8446	1.12708	-1.25138e-16	0.15823	0.104166	-0.715181	0.0359778	0	0	0	0	-1.25138e-16	0	0	0	0
3.91975	-80.8686	589.22	-29.9806	1.12632	-1.25054e-16	0.158437	0.112928	-0.822807	0.0418659	0	0	0	0	-1.25054e-16	0	0	0	0
3.92974	-77.3307	600.463	-30.7709	1.12572	-1.24988e-16	0.158666	0.118438	-0.919656	0.047128	0	0	0	0	-1.24988e-16	0	0	0	0
3.93973	-73.0687	607.368	-31.2321	1.12522	-1.24934e-16	0.158903	0.120781	-1.00396	0.0516258	0	0	0	0	-1.24934e-16	0	0	0	0
3.94971	-68.2475	610.348	-31.3809	1.12481	-1.24889e-16	0.159139	0.120215	-1.0751	0.055276	0	0	0	0	-1.24889e-16	0	0	0	0
3.9597	-63.0188	609.926	-31.2337	1.12443	-1.24848e-16	0.159366	0.117136	-1.1337	0.0580558	0	0	0	0	-1.24848e-16	0	0	0	0
3.96969	-57.5162	606.682	-30.8079	1.12409	-1.2481e-16	0.159581	0.112025	-1.18165	0.060005	0	0	0	0	-1.2481e-16	0	0	0	0
3.97968	-51.8519	601.212	-30.1236	1.12376	-1.24774e-16	0.159782	0.10538	-1.22187	0.0612213	0	0	0	0	-1.24774e-16	0	0	0	0
3.98966	-46.1162	594.093	-29.2066	1.12343	-1.24737e-16	0.159968	0.0976546	-1.25804	0.0618471	0	0	0	0	-1.24737e-16	0	0	0	0
3.99965	-40.3793	585.856	-28.0895	1.12308	-1.24698e-16	0.160137	0.0891993	-1.29418	0.0620507	0	0	0	0	-1.24698e-16	0	0	0	0
4.00964	-34.6942	576.979	-26.8136	1.12269	-1.24655e-16	0.160282	0.0802295	-1.33425	0.0620057	0	0	0	0	-1.24655e-16	0	0	0	0
4.01962	-29.1021	567.874	-25.4288	1.12223	-1.24605e-16	0.160398	0.0708126	-1.38178	0.0618747	0	0	0	0	-1.24605e-16	0	0	0	0
4.02961	-23.6374	558.892	-23.9933	1.12167	-1.24543e-16	0.160473	0.0608833	-1.43955	0.0618001	0	0	0	0	-1.24543e-16	0	0	0	0
4.0396	-18.3331	550.326	-22.5712	1.12095	-1.24463e-16	0.160495	0.0502836	-1.50942	0.0619077	0	0	0	0	-1.24463e-16	0	0	0	0
4.04958	-13.2257	542.423	-21.2302	1.11999	-1.24357e-16	0.160449	0.0388224	-1.59221	0.0623184	0	0	0	0	-1.24357e-16	0	0	0	0
4.05957	-8.35735	535.392	-20.0377	1.11873	-1.24217e-16	0.160319	0.0263452	-1.68774	0.0631657	0	0	0	0	-1.24217e-16	0	0	0	0
4.06956	-3.77652	529.415	-19.0574	1.11708	-1.24035e-16	0.16009	0.0128037	-1.7949	0.0646112	0	0	0	0	-1.24035e-16	0	0	0	0
4.07955	0.463345	524.657	-18.3447	1.11495	-1.23799e-16	0.159748	-0.00168842	-1.91184	0.0668478	0	0	0	0	-1.23799e-16	0	0	0	0
4.08953	4.30767	521.263	-17.9432	1.11227	-1.23501e-16	0.159285	-0.0168262	-2.03611	0.0700879	0	0	0	0	-1.23501e-16	0	0	0	0
4.09952	7.70574	519.368	-17.8814	1.10895	-1.23135e-16	0.158698	-0.0321199	-2.16488	0.0745351	0	0	0	0	-1.23135e-16	0	0	0	0
4.10951	10.6169	519.091	-18.1718	1.10497	-1.22693e-16	0.15799	-0.0469408	-2.29506	0.0803432	0	0	0	0	-1.22693e-16	0	0	0	0
4.11949	13.0173	520.537	-18.8101	1.10028	-1.22175e-16	0.157172	-0.0606036	-2.42342	0.0875727	0	0	0	0	-1.22175e-16	0	0	0	0
4.12948	14.9061	523.796	-19.7765	1.09492	-1.21581e-16	0.156262	-0.0724736	-2.54669	0.0961534	0	0	0	0	-1.21581e-16	0	0	0	0
4.13947	16.312	528.935	-21.0375	1.08893	-1.20918e-16	0.155282	-0.0820836	-2.66166	0.105863	0	0	0	0	-1.20918e-16	0	0	0	0
4.14945	17.2972	536.001	-22.5479	1.0824	-1.20194e-16	0.15426	-0.0892387	-2.76531	0.116328	0	0	0	0	-1.20194e-16	0	0	0	0
4.15944	17.9608	545.005	-24.2532	1.07544	-1.19424e-16	0.153226	-0.0940869	-2.85499	0.127049	0.296488	-3.47498	0.323513	0.61323	-1.19424e-16	0.24064	5.42374e-05	-0.000635688	5.91812e-05
4.16943	18.4382	555.92	-26.0912	1.0682	-1.18621e-16	0.152212	-0.0971357	-2.92868	0.137453	0.5139	-4.9763	0.393985	0.613285	-1.18621e-16	0.240618	7.50591e-05	-0.000726827	5.75445e-05
4.17942	18.8976	568.66	-27.9935	1.06085	-1.17807e-16	0.151246	-0.0992038	-2.9852	0.146953	0.788267	-6.68503	0.453461	0.613358	-1.17807e-16	0.240591	9.16049e-05	-0.000776871	5.26969e-05
4.1894	19.532	583.067	-29.8864	1.05356	-1.16998e-16	0.150356	-0.101312	-3.02434	0.155019	1.11647	-8.50027	0.488115	0.613449	-6.8106e-17	0.240559	9.9227e-05	-0.00075547	4.33817e-05
4.19939	20.547	598.895	-31.6934	1.04651	-1.16216e-16	0.149565	-0.104532	-3.04686	0.161239	1.48678	-10.2541	0.479804	0.613555	-6.8118e-17	0.240525	9.15514e-05	-0.000631416	2.95449e-05
4.20938	22.1447	615.787	-33.3372	1.03985	-1.15476e-16	0.148891	-0.109834	-3.0542	0.165347	1.87577	-11.6981	0.40621	0.613671	-6.81311e-17	0.24049	5.81597e-05	-0.000362709	1.25949e-05
4.21936	24.505	633.265	-34.7433	1.03372	-1.14795e-16	0.148343	-0.117949	-3.04807	0.167228	2.24505	-12.494	0.241643	0.613787	-6.81441e-17	0.24046	-1.79235e-05	9.97468e-05	-1.92918e-06
4.22935	27.7654	650.724	-35.8434	1.02822	-1.14183e-16	0.147926	-0.12928	-3.02986	0.166892	2.53834	-12.2108	-0.0412304	0.61389	-6.81555e-17	0.240445	-0.000167097	0.000803826	2.71416e-06
4.23934	32.0033	667.428	-36.5794	1.0234	-1.13647e-16	0.147634	-0.143859	-3.00019	0.16443	2.6794	-10.3322	-0.468584	0.613964	-6.81628e-17	0.240466	-0.00045842	0.00176774	8.01703e-05
4.24932	37.2208	682.53	-36.9058	1.01928	-1.13189e-16	0.147457	-0.161334	-2.95844	0.159969	2.57142	-6.27716	-1.06142	0.614031	-6.81629e-17	0.240619	-0.00113017	0.0027589	0.00046651
4.25931	43.3365	695.095	-36.7916	1.01585	-1.12807e-16	0.147382	-0.180967	-2.90262	0.153637	0	0	0	0	-1.12807e-16	0	0	0	0
4.2693	50.1827	704.138	-36.2205	1.01305	-1.12494e-16	0.14739	-0.201656	-2.82953	0.145549	1.1316	10.7806	-2.77045	0.613766	-6.8124e-17	0.240681	0.000702116	0.00668899	-0.00171896
4.27929	57.5104	708.67	-35.1901	1.0108	-1.12243e-16	0.147463	-0.221969	-2.73521	0.135821	-0.465711	24.8761	-3.8541	0.613217	-6.80743e-17	0.240802	-0.000174697	0.00933152	-0.00144575
4.28927	65.0002	707.761	-33.7096	1.00901	-1.12042e-16	0.147585	-0.240242	-2.6159	0.124591	-2.82287	43.2048	-5.02777	0.612485	-6.7996e-17	0.241079	-0.000768805	0.0117668	-0.00136931
4.29926	72.2791	700.592	-31.7971	1.00758	-1.11882e-16	0.147745	-0.254728	-2.46904	0.11206	-6.04856	65.9122	-6.20941	0.611455	-6.78829e-17	0.241478	-0.00126779	0.0138153	-0.00130151
4.30925	78.9417	686.521	-29.4797	1.00641	-1.1175e-16	0.147937	-0.26382	-2.29433	0.0985202	-10.2138	92.9001	-7.29113	0.610064	-6.77293e-17	0.242006	-0.0016407	0.0149231	-0.00117121
4.31923	84.5763	665.143	-26.7949	1.00541	-1.11637e-16	0.148164	-0.266298	-2.09428	0.0843668	-15.3361	123.83	-8.1476	0.608278	-6.75316e-17	0.242668	-0.00177512	0.014333	-0.000943066
4.32922	88.7929	636.345	-23.7939	1.00449	-1.11533e-16	0.148435	-0.261545	-1.87439	0.0700863	-21.3673	158.171	-8.65079	0.606092	-6.72893e-17	0.243464	-0.00150464	0.0111381	-0.000609171
4.33921	91.2548	600.35	-20.5463	1.0036	-1.11432e-16	0.148767	-0.249689	-1.64266	0.0562182	-28.1883	195.284	-8.68954	0.603525	-6.70046e-17	0.24439	-0.000629652	0.00436214	-0.000194102
4.34919	91.7103	557.745	-17.1421	1.00267	-1.11328e-16	0.149183	-0.231622	-1.40863	0.0432939	-35.6141	234.503	-8.18919	0.600618	-6.66821e-17	0.245439	0.00105003	-0.00691399	0.000241446
4.35918	90.0216	509.482	-13.6907	1.00168	-1.11215e-16	0.149708	-0.208879	-1.18216	0.0317668	-43.407	275.184	-7.12454	0.597429	-6.63282e-17	0.24659	0.00368944	-0.0233896	0.000605561
4.36917	86.1889	456.855	-10.3152	1.00059	-1.11093e-16	0.150369	-0.183389	-0.972078	0.0219483	-51.2945	316.704	-5.52319	0.594037	-6.59517e-17	0.247818	0.00734638	-0.0453582	0.000791028
4.37916	80.3626	401.432	-7.1434	0.999403	-1.1096e-16	0.15119	-0.157154	-0.785028	0.0139694	-58.9864	358.441	-3.45992	0.590533	-6.55626e-17	0.249088	0.0119365	-0.0725339	0.000700148
4.38914	72.8408	344.964	-4.29519	0.998132	-1.10817e-16	0.152187	-0.131922	-0.624767	0.00777906	-66.1897	399.732	-1.04512	0.587018	-6.51722e-17	0.250361	0.0172122	-0.103948	0.000271776
4.39913	64.0486	289.259	-1.87029	0.996802	-1.10669e-16	0.153364	-0.108937	-0.491988	0.0031811	-72.6247	439.854	1.59026	0.583592	-6.47916e-17	0.251597	0.0227785	-0.137959	-0.000498781
4.40912	54.4987	236.045	0.062452	0.995454	-1.10518e-16	0.15471	-0.0888252	-0.384721	-0.000101788	-78.0433	478.024	4.31011	0.580347	-6.44311e-17	0.25276	0.0281448	-0.17239	-0.00155436
4.4191	44.7383	186.836	1.47156	0.994141	-1.10371e-16	0.156191	-0.0716368	-0.29917	-0.00235633	-82.2444	513.433	6.9866	0.577356	-6.40988e-17	0.25382	0.0327989	-0.204756	-0.00278625
4.42909	35.292	142.824	2.36426	0.99292	-1.10234e-16	0.157755	-0.0570197	-0.230754	-0.00381983	-85.0872	545.298	9.51015	0.574674	-6.38008e-17	0.254759	0.0362816	-0.232518	-0.00405518
4.43908	26.6094	104.812	2.78284	0.991841	-1.10112e-16	0.159328	-0.0444549	-0.175105	-0.00464915	-86.4977	572.927	11.7955	0.572333	-6.35407e-17	0.255567	0.0382428	-0.253306	-0.00521509
4.44906	19.0282	73.203	2.79772	0.990936	-1.10009e-16	0.160828	-0.0334901	-0.128839	-0.00492406	-86.4701	595.785	13.784	0.57034	-6.33194e-17	0.256244	0.0384737	-0.265086	-0.00613301
4.45905	12.7549	48.018	2.49916	0.990215	-1.09925e-16	0.162179	-0.0239029	-0.0899866	-0.00468348	-85.0625	613.545	15.4432	0.568689	-6.31359e-17	0.256796	0.0369122	-0.266243	-0.00670144
4.46904	7.86369	28.9532	1.98982	0.98967	-1.09858e-16	0.163355	-0.0157522	-0.0579978	-0.00398592	-82.3885	626.117	16.7634	0.567351	-6.29874e-17	0.257236	0.0336301	-0.255575	-0.00684265
4.47903	4.30856	15.444	1.37898	0.989311	-1.09805e-16	0.164357	-0.00927703	-0.0332534	-0.00296917	-78.6058	633.652	17.7542	0.566292	-6.28699e-17	0.257581	0.0288079	-0.232225	-0.00650667
4.48901	1.94269	6.73309	0.779185	0.989246	-1.09762e-16	0.165214	-0.00449245	-0.0155702	-0.00180186	-73.9032	636.522	18.4388	0.565463	-6.2778e-17	0.25785	0.0227091	-0.195592	-0.0056659
4.499	0	0	0	0	-6.27061e-17	0	0	0	0	-68.4859	635.279	18.8491	0.564813	-6.27061e-17	0.258062	0.0156564	-0.14523	-0.00430906
4.50899	0	0	0	0	-6.26478e-17	0	0	0	0	-62.5628	630.597	19.021	0.564285	-6.26478e-17	0.258236	0.00801284	-0.0807648	-0.00243614
4.51897	0	0	0	0	-6.25969e-17	0	0	0	0	-56.3337	623.225	18.9899	0.563823	-6.25969e-17	0.25839	0.00016601	-0.00183659	-5.59614e-05
4.52896	0	0	0	0	-6.25469e-17	0	0	0	0	-49.9794	613.925	18.7886	0.563368	-6.25469e-17	0.258542	-0.00748377	0.0919273	0.00281336
4.53895	0	0	0	0	-6.24916e-17	0	0	0	0	-43.6542	603.43	18.4462	0.562864	-6.24916e-17	0.258709	-0.0145336	0.200898	0.00614124
4.54894	0	0	0	0	-6.24251e-17	0	0	0	0	-37.4819	592.411	17.9883	0.562259	-6.24251e-17	0.258906	-0.0205877	0.325394	0.00988044
4.55892	0	0	0	0	-6.23419e-17	0	0	0	0	-31.5545	581.448	17.4389	0.561502	-6.23419e-17	0.259145	-0.0252677	0.465602	0.0139644
4.56891	0	0	0	0	-6.22369e-17	0	0	0	0	-25.9343	571.02	16.823	0.560548	-6.22369e-17	0.259441	-0.0282255	0.62147	0.0183092
4.5789	0	0	0	0	-6.21058e-17	0	0	0	0	-20.6574	561.499	16.1697	0.559358	-6.21058e-17	0.259805	-0.0291585	0.792572	0.022824
4.58888	0	0	0	0	-6.19447e-17	0	0	0	0	-15.7395	553.156	15.5144	0.557899	-6.19447e-17	0.260247	-0.0278277	0.977988	0.0274297
4.59887	0	0	0	0	-6.17505e-17	0	0	0	0	-11.1816	546.174	14.9002	0.55614	-6.17505e-17	0.260777	-0.0240796	1.17619	0.0320877
4.60886	0	0	0	0	-6.15206e-17	0	0	0	0	-6.97524	540.668	14.377	0.55406	-6.15206e-17	0.261404	-0.017868	1.38499	0.0368285
4.61884	0	0	0	0	-6.12529e-17	0	0	0	0	-3.10718	536.695	13.9991	0.55164	-6.12529e-17	0.262133	-0.00927217	1.60156	0.0417748
4.62883	0	0	0	0	-6.09458e-17	0	0	0	0	0.437353	534.278	13.8215	0.548863	-6.09458e-17	0.262971	0.00149186	1.82248	0.0471466
4.63882	0	0	0	0	-6.05981e-17	0	0	0	0	3.67282	533.417	13.8944	0.545719	-6.05981e-17	0.263921	0.0140735	2.04394	0.0532405
4.64881	0	0	0	0	-6.02089e-17	0	0	0	0	6.6132	534.098	14.2587	0.542201	-6.02089e-17	0.264984	0.0280065	2.26187	0.0603849
4.65879	0	0	0	0	-5.97782e-17	0	0	0	0	9.27348	536.301	14.9416	0.538306	-5.97782e-17	0.266158	0.0427472	2.47214	0.068875
4.66878	0	0	0	0	-5.93068e-17	0	0	0	0	11.6726	540.008	15.9539	0.534042	-5.93068e-17	0.26744	0.0577291	2.67072	0.0789034
4.67877	0	0	0	0	-5.87964e-17	0	0	0	0	13.8369	545.198	17.2896	0.529425	-5.87964e-17	0.26882	0.0724282	2.85381	0.0905012
4.68875	0	0	0	0	-5.82503e-17	0	0	0	0	15.8043	551.854	18.9259	0.524485	-5.82503e-17	0.270289	0.0864296	3.01794	0.1035
4.69874	0	0	0	0	-5.76734e-17	0	0	0	0	17.6282	559.952	20.8251	0.519266	-5.76734e-17	0.27183	0.0994847	3.16009	0.117527
4.70873	0	0	0	0	-5.70724e-17	0	0	0	0	19.3793	569.463	22.9369	0.513831	-5.70724e-17	0.273423	0.111548	3.27787	0.132026
4.71871	0	0	0	0	-5.64558e-17	0	0	0	0	21.1477	580.343	25.1998	0.508257	-5.64558e-17	0.275047	0.122789	3.36962	0.146316
4.7287	0	0	0	0	-5.58335e-17	0	0	0	0	23.041	592.521	27.5437	0.502634	-5.58335e-17	0.276676	0.133562	3.43468	0.159663
4.73869	0	0	0	0	-5.52164e-17	0	0	0	0	25.1808	605.886	29.892	0.497062	-5.52164e-17	0.278282	0.144356	3.47341	0.171364
4.74868	0	0	0	0	-5.46161e-17	0	0	0	0	27.6952	620.268	32.1634	0.491647	-5.46161e-17	0.279838	0.155709	3.48729	0.18083
4.75866	0	0	0	0	-5.40437e-17	0	0	0	0	30.7085	635.414	34.2748	0.486487	-5.40437e-17	0.281316	0.168124	3.47879	0.187649
4.76865	0	0	0	0	-5.35089e-17	0	0	0	0	34.328	650.974	36.1443	0.481671	-5.35089e-17	0.282693	0.181988	3.45109	0.191617
4.77864	0	0	0	0	-5.30195e-17	0	0	0	0	38.6299	666.477	37.6949	0.477268	-5.30195e-17	0.28395	0.197518	3.40775	0.192737
4.78862	0	0	0	0	-5.25804e-17	0	0	0	0	43.6452	681.326	38.8574	0.473322	-5.25804e-17	0.285073	0.214738	3.35218	0.191182
4.79861	0.47546	-3.05957	0.168894	-0.0612069	6.77631e-18	0.162914	-0.0014758	0.00949673	-0.000524237	49.348	694.795	39.5743	0.469846	-5.21933e-17	0.286054	0.233475	3.28721	0.187234
4.8086	0.557384	-3.825	0.222309	-0.0612007	6.77471e-18	0.162877	-0.0017222	0.0118185	-0.000686888	55.6475	706.05	39.8023	0.466825	-5.18564e-17	0.286889	0.253365	3.21467	0.181221
4.81858	0.614394	-4.53379	0.277291	-0.0611913	6.77272e-18	0.162837	-0.00188887	0.0139385	-0.000852493	62.3848	714.171	39.5142	0.464212	-5.15648e-17	0.287582	0.273857	3.13507	0.17346
4.82857	0.625876	-5.06745	0.327766	-0.0611796	6.77036e-18	0.16279	-0.00191227	0.0154828	-0.00100144	69.3354	718.201	38.6995	0.461936	-5.13106e-17	0.288136	0.294221	3.04764	0.164219
4.83856	0.566141	-5.26742	0.365004	-0.0611681	6.76773e-18	0.162729	-0.00171437	0.0159507	-0.0011053	76.2187	717.201	37.3633	0.459909	-5.10839e-17	0.288555	0.313564	2.95057	0.153713
4.84855	0.405152	-4.93482	0.377378	-0.0611616	6.76499e-18	0.162638	-0.00120773	0.0147104	-0.00112494	82.7119	710.318	35.5256	0.458028	-5.08736e-17	0.28884	0.330878	2.84153	0.142115
4.85853	0.110171	-3.83516	0.350378	-0.0611723	6.76242e-18	0.162466	-0.000315795	0.0109931	-0.00100433	88.4706	696.85	33.2202	0.456189	-5.06678e-17	0.28899	0.345109	2.71829	0.129586
4.86852	0	0	0	0	-5.0455e-17	0	0	0	0	93.1527	676.324	30.4957	0.454287	-5.0455e-17	0.288998	0.355252	2.57926	0.1163
4.87851	0	0	0	0	-5.02249e-17	0	0	0	0	96.4458	648.553	27.418	0.452228	-5.02249e-17	0.288854	0.360441	2.4238	0.102467
4.88849	-1.88088	6.6586	-0.143068	-0.0609652	6.76077e-18	0.163285	0.00608659	-0.0215475	0.000462976	98.0937	613.689	24.0719	0.449932	-4.99685e-17	0.288543	0.360024	2.25236	0.0883488
4.89848	-2.97386	13.3373	-0.505195	-0.0610528	6.7648e-18	0.163092	0.00949014	-0.0425618	0.00161217	97.9217	572.253	20.5625	0.447339	-4.9679e-17	0.28805	0.353623	2.06657	0.0742571
4.90847	-4.27314	21.8476	-0.989955	-0.0611478	6.77286e-18	0.16302	0.0135109	-0.0690781	0.00313005	95.8553	525.136	17.0114	0.444411	-4.93523e-17	0.287361	0.341171	1.86908	0.0605475
4.91845	-5.74043	32.1748	-1.60267	-0.0612812	6.78622e-18	0.163	0.0180195	-0.100998	0.00503085	91.9317	473.562	13.5489	0.441136	-4.89871e-17	0.286464	0.322941	1.66354	0.0475952
4.92844	-7.31201	44.1633	-2.33937	-0.0614701	6.80621e-18	0.163016	0.0228006	-0.137711	0.00729472	86.2997	419.022	10.3026	0.43753	-4.85851e-17	0.285352	0.299551	1.45445	0.035761
4.93843	-8.90097	57.5127	-3.18545	-0.0617276	6.8341e-18	0.163066	0.0275669	-0.178121	0.00986556	79.2098	363.171	7.38368	0.433641	-4.81516e-17	0.284028	0.271947	1.24686	0.02535
4.94842	-10.404	71.7973	-4.11593	-0.0620635	6.87087e-18	0.163148	0.0319837	-0.220718	0.0126531	70.993	307.706	4.8752	0.429543	-4.76948e-17	0.282504	0.241332	1.04601	0.0165726
4.9584	-11.7115	86.5053	-5.0978	-0.062482	6.91695e-18	0.163265	0.0357049	-0.263728	0.0155417	62.033	254.239	2.82441	0.42534	-4.72264e-17	0.280807	0.209043	0.856751	0.00951786
4.96839	-12.72	101.091	-6.09395	-0.0629831	6.97231e-18	0.163414	0.0384139	-0.305292	0.0184035	52.7344	204.185	1.2404	0.421158	-4.67602e-17	0.278976	0.17642	0.68309	0.0041497
4.97838	-13.3426	115.03	-7.06742	-0.0635626	7.03649e-18	0.163592	0.0398592	-0.343637	0.021113	43.4915	158.674	0.0978994	0.417141	-4.63122e-17	0.277071	0.144683	0.527861	0.000325683
4.98836	-13.5175	127.861	-7.98504	-0.0642131	7.10863e-18	0.163792	0.0398792	-0.377215	0.0235573	34.6598	118.507	-0.65476	0.413437	-4.58986e-17	0.275166	0.114847	0.39268	-0.00216958
4.99835	-13.2129	139.226	-8.81965	-0.0649246	7.18763e-18	0.164004	0.038415	-0.404782	0.0256421	26.5339	84.1399	-1.08553	0.410184	-4.55348e-17	0.273352	0.0876851	0.278052	-0.00358728
5.00834	-12.4268	148.881	-9.55119	-0.0656853	7.27218e-18	0.164219	0.0355111	-0.425446	0.0272938	19.3322	55.695	-1.26846	0.407486	-4.52317e-17	0.271732	0.0637121	0.183551	-0.00418041
5.01832	-11.1838	156.705	-10.1666	-0.0664823	7.36086e-18	0.164426	0.0313077	-0.438676	0.02846	13.1898	33.0031	-1.27508	0.405374	-4.49915e-17	0.270417	0.0431595	0.107993	-0.0041723
5.02831	-9.53006	162.694	-10.6591	-0.067303	7.45227e-18	0.164617	0.0260259	-0.444304	0.0291091	8.16013	15.6557	-1.16817	0.403854	-4.48107e-17	0.26955	0.0257861	0.0494721	-0.00369143
5.0383	-7.52561	166.938	-11.0272	-0.0681351	7.54507e-18	0.164787	0.0199487	-0.442515	0.0292305	4.22336	3.06871	-0.998594	0.40307	-4.46821e-17	0.269544	0.00790811	0.00574606	-0.00186984
5.04829	-5.23799	169.61	-11.2739	-0.0689679	7.6381e-18	0.164932	0.0133978	-0.433829	0.0288366	1.3005	-5.45175	-0.804483	0.401333	-4.45972e-17	0.265692	0.00319671	-0.0134007	-0.00197746
5.05827	-2.73617	170.939	-11.4066	-0.0697926	7.73037e-18	0.165052	0.00670816	-0.419086	0.0279652	-0.729327	-10.6466	-0.612174	0.40106	-4.4547e-17	0.266022	-0.0023339	-0.0340698	-0.001959
5.06826	-0.0861098	171.198	-11.4364	-0.0706021	7.8211e-18	0.165152	0.000200895	-0.399407	0.0266812	-2.01116	-13.2482	-0.438043	0.400917	-4.45229e-17	0.266003	-0.00665636	-0.0438478	-0.0014498
5.07825	2.65184	170.687	-11.3789	-0.0713917	7.90976e-18	0.165236	-0.00584405	-0.376155	0.0250764	-2.69802	-13.9369	-0.290675	0.400907	-4.45174e-17	0.265983	-0.00904396	-0.0467175	-0.000974362
5.08823	5.42398	169.726	-11.2541	-0.0721587	7.99601e-18	0.165312	-0.0112129	-0.35087	0.0232653	-2.93789	-13.3105	-0.172997	0.400994	-4.45242e-17	0.266013	-0.00992724	-0.0449767	-0.000584562
5.09822	8.18282	168.652	-11.0868	-0.0729024	8.07972e-18	0.165387	-0.0157782	-0.325195	0.0213777	-2.86428	-11.8672	-0.084162	0.401141	-4.45383e-17	0.26609	-0.00974459	-0.0403736	-0.000286328
5.10821	10.8857	167.815	-10.9063	-0.0736236	8.16093e-18	0.165469	-0.0195107	-0.30078	0.0195478	-2.59058	-10.0006	-0.0210693	0.401318	-4.4556e-17	0.266201	-0.00887366	-0.0342555	-7.21697e-05
5.11819	13.4926	167.581	-10.7455	-0.074325	8.23988e-18	0.165562	-0.0224798	-0.279203	0.0179028	-2.20772	-8.00371	0.0204857	0.401501	-4.45746e-17	0.266336	-0.00761797	-0.0276176	7.06879e-05
5.12818	15.9647	168.325	-10.6398	-0.0750112	8.31699e-18	0.16567	-0.024839	-0.261891	0.0165541	-1.78425	-6.07953	0.0450043	0.401676	-4.45922e-17	0.266485	-0.00620628	-0.0211468	0.000156541
5.13817	18.2622	170.427	-10.6258	-0.0756887	8.39297e-18	0.165796	-0.026797	-0.250076	0.0155918	-1.36837	-4.35521	0.0567657	0.401837	-4.46078e-17	0.266646	-0.00479876	-0.0152734	0.000199073
5.14816	20.3445	174.268	-10.7396	-0.0763668	8.46881e-18	0.165939	-0.028577	-0.244786	0.0150855	-0.990853	-2.89774	0.0595312	0.401982	-4.46209e-17	0.266828	-0.0035066	-0.010255	0.000210679
5.15814	22.1709	180.207	-11.0149	-0.0770577	8.54582e-18	0.166099	-0.0303723	-0.246869	0.0150895	0	0	0	0	8.54582e-18	0	0	0	0
5.16813	23.7027	188.572	-11.4811	-0.077776	8.62565e-18	0.166274	-0.03231	-0.257049	0.0156503	0	0	0	0	8.62565e-18	0	0	0	0
5.17812	24.9071	199.634	-12.1617	-0.0785387	8.7102e-18	0.166462	-0.034433	-0.275986	0.0168131	0	0	0	0	8.7102e-18	0	0	0	0
5.1881	25.7611	213.593	-13.0724	-0.0793641	8.8015e-18	0.166661	-0.0367052	-0.304332	0.0186259	0	0	0	0	8.8015e-18	0	0	0	0
5.19809	26.2558	230.557	-14.2192	-0.0802699	8.90157e-18	0.166868	-0.0390362	-0.342784	0.0211407	0	0	0	0	8.90157e-18	0	0	0	0
5.20808	26.3998	250.54	-15.5978	-0.0812721	9.0122e-18	0.167081	-0.0413165	-0.392103	0.024411	0	0	0	0	9.0122e-18	0	0	0	0
5.21806	26.2227	273.457	-17.1923	-0.0823832	9.1348e-18	0.167299	-0.0434506	-0.453115	0.0284874	0	0	0	0	9.1348e-18	0	0	0	0
5.22805	25.7761	299.126	-18.975	-0.0836104	9.27022e-18	0.167517	-0.0453845	-0.526676	0.0334096	0	0	0	0	9.27022e-18	0	0	0	0
5.23804	25.135	327.277	-20.9065	-0.0849551	9.41861e-18	0.167733	-0.0471249	-0.613603	0.0391969	0	0	0	0	9.41861e-18	0	0	0	0
5.24803	24.3967	357.569	-22.936	-0.086412	9.57943e-18	0.167946	-0.0487553	-0.714577	0.0458361	0	0	0	0	9.57943e-18	0	0	0	0
5.25801	23.6803	389.591	-25.0027	-0.0879692	9.75136e-18	0.168153	-0.050451	-0.830024	0.0532682	0	0	0	0	9.75136e-18	0	0	0	0
5.268	23.124	422.884	-27.0366	-0.0896085	9.93242e-18	0.168354	-0.0524933	-0.95998	0.0613753	0	0	0	0	9.93242e-18	0	0	0	0
5.27799	22.8808	456.943	-28.9616	-0.0913065	1.01201e-17	0.168548	-0.0552786	-1.10395	0.0699695	0	0	0	0	1.01201e-17	0	0	0	0
5.28797	23.1124	491.228	-30.6982	-0.0930365	1.03113e-17	0.168737	-0.0593172	-1.26072	0.0787858	0	0	0	0	1.03113e-17	0	0	0	0
5.29796	23.9791	525.169	-32.1677	-0.0947699	1.05031e-17	0.168921	-0.0652131	-1.42824	0.0874827	0	0	0	0	1.05031e-17	0	0	0	0
5.30795	25.6283	558.171	-33.2979	-0.0964791	1.06923e-17	0.169102	-0.0736195	-1.60339	0.0956512	0	0	0	0	1.06923e-17	0	0	0	0
5.31794	28.1807	589.614	-34.0276	-0.0981397	1.08763e-17	0.16928	-0.0851667	-1.78191	0.102837	0	0	0	0	1.08763e-17	0	0	0	0
5.32792	31.7163	618.857	-34.3119	-0.0997327	1.10531e-17	0.169456	-0.100362	-1.95829	0.108576	0	0	0	0	1.10531e-17	0	0	0	0
5.33791	36.2622	645.237	-34.1264	-0.101246	1.12212e-17	0.16963	-0.119473	-2.12586	0.112436	0	0	0	0	1.12212e-17	0	0	0	0
5.3479	41.7816	668.071	-33.4682	-0.102676	1.13803e-17	0.1698	-0.142407	-2.27703	0.114072	0	0	0	0	1.13803e-17	0	0	0	0
5.35788	48.1666	686.665	-32.3562	-0.104027	1.1531e-17	0.169967	-0.16861	-2.40371	0.113265	0	0	0	0	1.1531e-17	0	0	0	0
5.36787	55.236	700.317	-30.8272	-0.105314	1.16747e-17	0.17013	-0.197019	-2.49793	0.109956	0	0	0	0	1.16747e-17	0	0	0	0
5.37786	62.7369	708.341	-28.9309	-0.106559	1.18141e-17	0.170292	-0.22609	-2.55271	0.104261	0	0	0	0	1.18141e-17	0	0	0	0
5.38784	70.3522	710.084	-26.723	-0.107795	1.19525e-17	0.170459	-0.25392	-2.56289	0.0964505	0	0	0	0	1.19525e-17	0	0	0	0
5.39783	77.7146	704.966	-24.2602	-0.10906	1.20944e-17	0.170642	-0.278458	-2.52596	0.0869263	0	0	0	0	1.20944e-17	0	0	0	0
5.40782	84.4242	692.525	-21.5968	-0.110399	1.22446e-17	0.170857	-0.297765	-2.44254	0.0761721	0	0	0	0	1.22446e-17	0	0	0	0
5.41781	90.0722	672.471	-18.7848	-0.111863	1.24086e-17	0.171124	-0.310274	-2.31648	0.0647084	0	0	0	0	1.24086e-17	0	0	0	0
5.42779	94.2697	644.744	-15.8763	-0.113502	1.25921e-17	0.171468	-0.315007	-2.15445	0.0530515	0	0	0	0	1.25921e-17	0	0	0	0
5.43778	96.6784	609.577	-12.9279	-0.115368	1.28008e-17	0.171918	-0.311689	-1.96526	0.041679	0	0	0	0	1.28008e-17	0	0	0	0
5.44777	97.0444	567.536	-10.0041	-0.117506	1.30397e-17	0.172503	-0.300749	-1.75884	0.0310036	0	0	0	0	1.30397e-17	0	0	0	0
5.45775	95.2289	519.542	-7.17949	-0.119953	1.33129e-17	0.17325	-0.283223	-1.54519	0.0213528	0	0	0	0	1.33129e-17	0	0	0	0
5.46774	91.2329	466.861	-4.53612	-0.122731	1.36228e-17	0.174183	-0.260557	-1.33333	0.0129549	0	0	0	0	1.36228e-17	0	0	0	0
5.47773	85.2102	411.051	-2.15789	-0.12584	1.39695e-17	0.175319	-0.234381	-1.13065	0.00593555	0	0	0	0	1.39695e-17	0	0	0	0
5.48771	77.4633	353.866	-0.121246	-0.129255	1.43501e-17	0.176661	-0.206294	-0.94239	0.000322892	0	0	0	0	1.43501e-17	0	0	0	0
5.4977	68.4194	297.137	1.51545	-0.132914	1.47578e-17	0.178198	-0.177697	-0.771719	-0.00393589	0	0	0	0	1.47578e-17	0	0	0	0
5.50769	58.5876	242.627	2.72112	-0.136718	1.5182e-17	0.179902	-0.149703	-0.619958	-0.00695299	0	0	0	0	1.5182e-17	0	0	0	0
5.51768	48.5029	191.889	3.49705	-0.140533	1.56074e-17	0.181721	-0.123107	-0.487039	-0.00887597	0	0	0	0	1.56074e-17	0	0	0	0
5.52766	38.67	146.157	3.87623	-0.144191	1.60159e-17	0.183583	-0.0984193	-0.371985	-0.00986541	0	0	0	0	1.60159e-17	0	0	0	0
5.53765	29.5165	106.272	3.91735	-0.147514	1.63878e-17	0.185396	-0.0759234	-0.273355	-0.0100763	0	0	0	0	1.63878e-17	0	0	0	0
5.54764	21.3617	72.6599	3.69523	-0.15035	1.67069e-17	0.187061	-0.0557562	-0.189649	-0.00964491	0	0	0	0	1.67069e-17	0	0	0	0
5.55762	14.4049	45.3624	3.2903	-0.152631	1.69667e-17	0.188485	-0.0379845	-0.119616	-0.0086762	0	0	0	0	1.69667e-17	0	0	0	0
5.56761	8.72926	24.0905	2.77932	-0.154336	1.7168e-17	0.189614	-0.0226321	-0.0624586	-0.00720585	0	0	0	0	1.7168e-17	0	0	0	0
5.5776	4.31781	8.30398	2.2287	-0.155387	1.73158e-17	0.190395	-0.00933817	-0.0179591	-0.00482003	0	0	0	0	1.73158e-17	0	0	0	0
5.58758	1.07653	-2.70651	1.69058	-0.158198	1.74178e-17	0.193075	-0.00226262	0.00568847	-0.00355321	0	0	0	0	1.74178e-17	0	0	0	0
5.59757	-1.14069	-9.73949	1.20161	-0.157835	1.74823e-17	0.192394	0.00340199	0.029047	-0.00358368	0	0	0	0	1.74823e-17	0	0	0	0
5.60756	-2.50798	-13.6117	0.783795	-0.157956	1.75178e-17	0.192526	0.00740614	0.0401958	-0.00231457	0	0	0	0	1.75178e-17	0	0	0	0
5.61755	-3.20694	-15.101	0.446676	-0.158	1.75319e-17	0.192632	0.00944802	0.0444894	-0.00131596	0	0	0	0	1.75319e-17	0	0	0	0
5.62753	-3.41077	-14.905	0.190205	-0.157945	1.75312e-17	0.192664	0.0100898	0.0440921	-0.000562666	0	0	0	0	1.75312e-17	0	0	0	0
5.63752	-3.27358	-13.6163	0.00771302	-0.157818	1.75211e-17	0.192634	0.00976881	0.0406329	-2.30167e-05	0	0	0	0	1.75211e-17	0	0	0	0
5.64751	-2.92442	-11.7121	-0.111385	-0.15765	1.75058e-17	0.192561	0.00883537	0.0353849	0.000336519	0	0	0	0	1.75058e-17	0	0	0	0
5.65749	-2.46515	-9.55517	-0.179378	-0.157465	1.74885e-17	0.192459	0.00756289	0.0293146	0.000550318	0	0	0	0	1.74885e-17	0	0	0	0
5.66748	-1.9713	-7.40401	-0.208615	-0.157278	1.74712e-17	0.192343	0.00615594	0.0231211	0.000651458	0	0	0	0	1.74712e-17	0	0	0	0
5.67747	-1.49488	-5.42711	-0.210401	-0.157099	1.74552e-17	0.192218	0.00476014	0.0172815	0.000669976	0	0	0	0	1.74552e-17	0	0	0	0
5.68745	-1.0682	-3.72036	-0.194375	-0.156929	1.74415e-17	0.192086	0.00348387	0.0121338	0.000633944	0	0	0	0	1.74415e-17	0	0	0	0
5.69744	0	0	0	0	-0.153894	0	0	0	0	0	0	0	0	-0.0165436	0	0	0	0
5.70743	0	0	0	0	-0.141722	0	0	0	0	0	0	0	0	-0.0167571	0	0	0	0
5.71742	0	0	0	0	-0.129091	0	0	0	0	0	0	0	0	-0.016862	0	0	0	0
5.7274	0	0	0	0	-0.116238	0	0	0	0	0	0	0	0	-0.0168705	0	0	0	0
5.73739	0	0	0	0	-0.103397	0	0	0	0	0	0	0	0	-0.0167979	0	0	0	0
5.74738	0	0	0	0	-0.0907923	0	0	0	0	0	0	0	0	-0.0166671	0	0	0	0
5.75736	0	0	0	0	-0.0786288	0	0	0	0	0	0	0	0	-0.0165088	0	0	0	0
5.76735	0	0	0	0	-0.0671251	0	0	0	0	0	0	0	0	-0.0163376	0	0	0	0
5.77734	0	0	0	0	-0.0564985	0	0	0	0	0	0	0	0	-0.0161538	0	0	0	0
5.78732	0	0	0	0	-0.0469505	0	0	0	0	0	0	0	0	-0.0159465	0	0	0	0
5.79731	0	0	0	0	-0.0386243	0	0	0	0	0	0	0	0	-0.0157249	0	0	0	0
5.8073	0	0	0	0	-0.0316411	0	0	0	0	0	0	0	0	-0.0154892	0	0	0	0
5.81729	0	0	0	0	-0.0260665	0	0	0	0	0	0	0	0	-0.0152653	0	0	0	0
5.82727	0	0	0	0	-0.0219197	0	0	0	0	0	0	0	0	-0.0151108	0	0	0	0
5.83726	0	0	0	0	-0.0192213	0	0	0	0	0	0	0	0	-0.0150587	0	0	0	0
