Coordinates
version=1
nRows=101
nColumns=38
inDegrees=no

Units are S.I. units (second, meters, Newtons, ...)
If the header above contains a line with 'inDegrees', this indicates whether rotational values are in degrees (yes) or radians (no).

endheader
time	pelvis_tilt	pelvis_list	pelvis_rotation	pelvis_tx	pelvis_ty	pelvis_tz	hip_flexion_r	hip_adduction_r	hip_rotation_r	knee_angle_r	ankle_angle_r	subtalar_angle_r	mtp_angle_r	hip_flexion_l	hip_adduction_l	hip_rotation_l	knee_angle_l	ankle_angle_l	subtalar_angle_l	mtp_angle_l	lumbar_extension	lumbar_bending	lumbar_rotation	arm_flex_r	arm_add_r	arm_rot_r	elbow_flex_r	pro_sup_r	wrist_flex_r	wrist_dev_r	arm_flex_l	arm_add_l	arm_rot_l	elbow_flex_l	pro_sup_l	wrist_flex_l	wrist_dev_l
1.24	-0.143318	0.126226	1.71639	0.173777	0.957813	0.729039	0.332963	-0.202433	-0.352107	0.20252	0.0406899	0	0	-0.431946	0.14187	-0.113847	0.0931696	0.254263	0	0	-0.207098	-0.100978	-0.284761	-0.220054	-0.184118	1.46374	0.209629	0.134259	0	0	0.0886698	-0.482737	0.241303	1.04521	1.28908	0	0
1.24666	-0.137877	0.126803	1.71602	0.174819	0.957744	0.719264	0.330659	-0.195634	-0.348561	0.213409	0.0369326	0	0	-0.431225	0.13117	-0.116007	0.112755	0.237868	0	0	-0.204676	-0.0960988	-0.283905	-0.224509	-0.184862	1.46392	0.20962	0.133136	0	0	0.0829646	-0.481505	0.234452	1.05577	1.2955	0	0
1.25331	-0.132415	0.127371	1.71563	0.175862	0.957677	0.70949	0.328349	-0.188812	-0.345041	0.224306	0.0331663	0	0	-0.430446	0.120444	-0.118198	0.132418	0.221395	0	0	-0.202243	-0.0912019	-0.283022	-0.228945	-0.18561	1.4641	0.209614	0.13202	0	0	0.0772522	-0.480258	0.227626	1.0663	1.30191	0	0
1.25997	-0.1269	0.127913	1.71521	0.176908	0.957612	0.699718	0.326026	-0.181928	-0.341592	0.235212	0.0293818	0	0	-0.429502	0.109649	-0.120467	0.152291	0.204711	0	0	-0.199775	-0.0862589	-0.282072	-0.233327	-0.186364	1.46429	0.209618	0.130924	0	0	0.0715199	-0.47897	0.220869	1.07674	1.30829	0	0
1.26662	-0.12129	0.128406	1.71474	0.177956	0.957551	0.689948	0.323677	-0.174933	-0.338261	0.246115	0.0255769	0	0	-0.428258	0.0987306	-0.122871	0.172543	0.187649	0	0	-0.197246	-0.0812355	-0.281005	-0.237607	-0.187132	1.46447	0.20964	0.129865	0	0	0.065752	-0.477612	0.214233	1.08701	1.31461	0	0
1.27328	-0.115541	0.128823	1.7142	0.17901	0.957496	0.680185	0.32129	-0.167772	-0.3351	0.256986	0.0217625	0	0	-0.426557	0.0876304	-0.125464	0.193362	0.170024	0	0	-0.194625	-0.0760947	-0.279773	-0.241733	-0.187917	1.46466	0.209688	0.128859	0	0	0.0599339	-0.476156	0.20778	1.09702	1.32084	0	0
1.27993	-0.109608	0.129138	1.71356	0.180071	0.957451	0.670429	0.318851	-0.160387	-0.332152	0.267775	0.0179657	0	0	-0.424237	0.0762883	-0.128293	0.214939	0.151652	0	0	-0.191883	-0.0708002	-0.278326	-0.245643	-0.188724	1.46484	0.209773	0.127913	0	0	0.0540561	-0.474574	0.201578	1.1067	1.32692	0	0
1.28659	-0.10345	0.129324	1.71282	0.181141	0.957416	0.660686	0.316344	-0.152722	-0.329451	0.278418	0.0142318	0	0	-0.421133	0.0646487	-0.131388	0.237457	0.132368	0	0	-0.188991	-0.0653187	-0.276615	-0.249279	-0.189555	1.46502	0.209902	0.127027	0	0	0.0481168	-0.472839	0.195701	1.11593	1.33283	0	0
1.29324	-0.0970312	0.129353	1.71195	0.18222	0.957396	0.650959	0.313756	-0.144728	-0.327019	0.288838	0.0106233	0	0	-0.417091	0.0526636	-0.134759	0.26108	0.112031	0	0	-0.185928	-0.0596219	-0.274599	-0.252581	-0.190409	1.4652	0.210082	0.126196	0	0	0.0421233	-0.470933	0.190223	1.12462	1.3385	0	0
1.2999	-0.0903245	0.1292	1.71097	0.18331	0.957392	0.641253	0.311072	-0.136361	-0.324865	0.298947	0.00721751	0	0	-0.411967	0.0402963	-0.138393	0.285943	0.0905476	0	0	-0.182672	-0.0536879	-0.27224	-0.255495	-0.191285	1.46538	0.210318	0.125409	0	0	0.0360927	-0.468839	0.185225	1.13268	1.3439	0	0
1.30655	-0.0833106	0.128843	1.70985	0.184411	0.957406	0.631573	0.308284	-0.127588	-0.322987	0.308658	0.00410167	0	0	-0.405634	0.0275236	-0.142253	0.312153	0.067871	0	0	-0.179206	-0.0475012	-0.269506	-0.257969	-0.19218	1.46555	0.210611	0.124652	0	0	0.0300522	-0.466545	0.180789	1.14001	1.34899	0	0
1.31321	-0.0759804	0.128257	1.70862	0.185523	0.957442	0.621925	0.305387	-0.11839	-0.32137	0.317882	0.00136828	0	0	-0.397981	0.0143388	-0.146275	0.339775	0.0440164	0	0	-0.175511	-0.0410538	-0.266371	-0.25996	-0.19309	1.46573	0.210961	0.123908	0	0	0.0240381	-0.464043	0.176999	1.1465	1.35373	0	0
1.31986	-0.0683346	0.127419	1.70729	0.186644	0.9575	0.612315	0.302381	-0.108759	-0.31999	0.326536	-0.000891344	0	0	-0.388916	0.000752848	-0.150374	0.368837	0.0190638	0	0	-0.171568	-0.0343436	-0.262816	-0.261433	-0.194014	1.46592	0.211359	0.12316	0	0	0.0180949	-0.461327	0.173943	1.15207	1.35806	0	0
1.32652	-0.0603933	0.126318	1.70587	0.187775	0.957582	0.602749	0.299263	-0.0987092	-0.318816	0.334552	-0.00258722	0	0	-0.378377	-0.0131999	-0.154444	0.399329	-0.00683948	0	0	-0.167382	-0.027386	-0.258861	-0.262338	-0.194949	1.4661	0.211803	0.122388	0	0	0.0122347	-0.458407	0.171653	1.15666	1.36197	0	0
1.33317	-0.052191	0.124946	1.70438	0.188912	0.95769	0.593233	0.29603	-0.0882715	-0.317813	0.341872	-0.0036387	0	0	-0.366326	-0.0274646	-0.158366	0.431206	-0.0334788	0	0	-0.162972	-0.0202098	-0.254543	-0.262627	-0.195892	1.4663	0.212287	0.121575	0	0	0.00646187	-0.455296	0.170136	1.16021	1.36542	0	0
1.33983	-0.0437754	0.123305	1.70285	0.190053	0.957825	0.583774	0.292677	-0.0774947	-0.316941	0.348457	-0.00397869	0	0	-0.352749	-0.0419653	-0.162012	0.464382	-0.0605736	0	0	-0.158366	-0.0128572	-0.249909	-0.262252	-0.196841	1.4665	0.212803	0.120702	0	0	0.000777977	-0.452018	0.169388	1.16271	1.36839	0	0
1.34648	-0.0352065	0.121402	1.70132	0.191196	0.957987	0.574379	0.289199	-0.0664434	-0.316163	0.354283	-0.00355747	0	0	-0.337656	-0.0566067	-0.165249	0.49874	-0.0877836	0	0	-0.153598	-0.00538194	-0.245014	-0.261171	-0.197793	1.46672	0.213346	0.119754	0	0	-0.00481506	-0.448598	0.169397	1.16415	1.37088	0	0
1.35314	-0.026553	0.11925	1.6998	0.192337	0.958177	0.565052	0.285588	-0.0551948	-0.315444	0.35934	-0.00234533	0	0	-0.321076	-0.0712774	-0.167949	0.534132	-0.114718	0	0	-0.148709	0.00215266	-0.239912	-0.259346	-0.198744	1.46696	0.213908	0.11872	0	0	-0.0103122	-0.445065	0.170147	1.16451	1.37287	0	0
1.35979	-0.0178903	0.116867	1.69833	0.193472	0.958396	0.5558	0.281838	-0.0438363	-0.314753	0.36363	-0.000333997	0	0	-0.30306	-0.0858533	-0.169994	0.57038	-0.140948	0	0	-0.143742	0.00967673	-0.234656	-0.25675	-0.19969	1.46722	0.214478	0.117593	0	0	-0.0157034	-0.441448	0.171626	1.16378	1.37435	0	0
1.36645	-0.00929678	0.114273	1.69693	0.194597	0.958643	0.546627	0.27794	-0.032461	-0.314063	0.367169	0.00246319	0	0	-0.28367	-0.100202	-0.171284	0.607286	-0.166021	0	0	-0.13874	0.017117	-0.229295	-0.253361	-0.200628	1.46751	0.21505	0.116372	0	0	-0.0209717	-0.437775	0.173831	1.16197	1.37531	0	0
1.3731	-0.000850614	0.111492	1.69563	0.19571	0.958918	0.537537	0.273884	-0.0211645	-0.313356	0.369981	0.00601215	0	0	-0.262986	-0.114189	-0.17174	0.64463	-0.189478	0	0	-0.133742	0.0244003	-0.223865	-0.249171	-0.201556	1.46782	0.215614	0.115065	0	0	-0.0260928	-0.434075	0.176765	1.15905	1.37575	0	0
1.37976	0.00737315	0.108548	1.69445	0.196805	0.959222	0.528535	0.269662	-0.0100406	-0.312618	0.372094	0.0102599	0	0	-0.241094	-0.127681	-0.171309	0.682177	-0.210871	0	0	-0.128782	0.0314567	-0.218396	-0.244179	-0.202473	1.46813	0.216164	0.113688	0	0	-0.0310335	-0.43037	0.180445	1.15501	1.37565	0	0
1.38641	0.0153013	0.105468	1.69339	0.197881	0.959554	0.519624	0.265262	0.00081868	-0.31184	0.373546	0.0151399	0	0	-0.218096	-0.140546	-0.169967	0.719679	-0.22978	0	0	-0.123898	0.0382176	-0.212916	-0.238389	-0.203381	1.46843	0.216698	0.112271	0	0	-0.0357709	-0.426685	0.184878	1.14984	1.375	0	0
1.39307	0.0228644	0.102281	1.69248	0.198932	0.959913	0.510804	0.26067	0.0113258	-0.311019	0.374377	0.0205754	0	0	-0.194105	-0.152663	-0.167715	0.756883	-0.245827	0	0	-0.119133	0.0446184	-0.207459	-0.231803	-0.204285	1.46867	0.217218	0.110856	0	0	-0.0402908	-0.423042	0.190058	1.14355	1.37378	0	0
1.39972	0.0299988	0.0990217	1.69171	0.199958	0.9603	0.502077	0.255869	0.0214005	-0.310156	0.374629	0.0264826	0	0	-0.169243	-0.163918	-0.164583	0.793526	-0.258697	0	0	-0.114526	0.0505998	-0.202052	-0.224427	-0.205194	1.46884	0.217731	0.109504	0	0	-0.0445859	-0.419464	0.195974	1.13616	1.37199	0	0
1.40638	0.0366494	0.0957212	1.69108	0.200954	0.960713	0.493444	0.250838	0.0309727	-0.309253	0.374343	0.0327735	0	0	-0.14364	-0.174212	-0.160626	0.829346	-0.268145	0	0	-0.110119	0.0561104	-0.196721	-0.216272	-0.206117	1.46886	0.21825	0.10829	0	0	-0.0486533	-0.415969	0.20261	1.12767	1.36962	0	0
1.41303	0.0427678	0.0924142	1.69057	0.20192	0.961152	0.484903	0.245555	0.0399816	-0.308317	0.373558	0.0393582	0	0	-0.117436	-0.183462	-0.155924	0.864081	-0.274004	0	0	-0.10595	0.061106	-0.191484	-0.207354	-0.207068	1.46868	0.218794	0.107315	0	0	-0.0524941	-0.41257	0.209952	1.11812	1.36665	0	0
1.41969	0.0483137	0.0891366	1.69018	0.202855	0.961615	0.476454	0.239992	0.0483773	-0.307351	0.372309	0.0461474	0	0	-0.0907817	-0.191597	-0.150575	0.89747	-0.276193	0	0	-0.102058	0.0655493	-0.186353	-0.197692	-0.208066	1.46822	0.219392	0.106699	0	0	-0.0561132	-0.409281	0.217981	1.10751	1.36308	0	0
1.42634	0.0532574	0.0859227	1.68987	0.203759	0.962101	0.468093	0.234121	0.0561235	-0.306359	0.370627	0.0530562	0	0	-0.063828	-0.198567	-0.144694	0.929262	-0.274719	0	0	-0.0984781	0.0694138	-0.181332	-0.187313	-0.20913	1.46736	0.220081	0.106586	0	0	-0.0595185	-0.406109	0.22668	1.09589	1.3589	0	0
1.433	0.0575805	0.0828046	1.68963	0.204631	0.962609	0.459818	0.227915	0.0631988	-0.305342	0.368537	0.060006	0	0	-0.0367273	-0.204342	-0.138406	0.95922	-0.269679	0	0	-0.0952405	0.0726838	-0.176422	-0.176248	-0.210285	1.46598	0.220909	0.107145	0	0	-0.062722	-0.403059	0.236034	1.08328	1.35412	0	0
1.43965	0.0612751	0.0798124	1.68941	0.205473	0.963137	0.451626	0.221344	0.0695949	-0.304298	0.366059	0.0669266	0	0	-0.00963157	-0.208914	-0.131845	0.987121	-0.261251	0	0	-0.0923723	0.0753536	-0.171621	-0.164532	-0.21156	1.46393	0.221934	0.108571	0	0	-0.0657413	-0.400132	0.246023	1.06973	1.34872	0	0
1.44631	0.0643434	0.0769734	1.68918	0.206287	0.963683	0.443511	0.214383	0.0753167	-0.303222	0.363208	0.0737566	0	0	0.0173111	-0.212295	-0.125147	1.01276	-0.249687	0	0	-0.0898957	0.0774272	-0.166924	-0.152205	-0.212986	1.46104	0.223228	0.111079	0	0	-0.0685967	-0.397329	0.256629	1.05526	1.3427	0	0
1.45296	0.0667973	0.0743107	1.6889	0.207076	0.964245	0.435469	0.207007	0.0803808	-0.302104	0.359994	0.0804438	0	0	0.0439581	-0.214513	-0.118449	1.03596	-0.235303	0	0	-0.0878263	0.0789181	-0.162319	-0.139316	-0.214599	1.4571	0.224873	0.114903	0	0	-0.0713085	-0.394646	0.267843	1.03993	1.33605	0	0
1.45962	0.0686574	0.0718435	1.68853	0.207842	0.964822	0.427496	0.199196	0.0848141	-0.300931	0.356422	0.086945	0	0	0.0701743	-0.215617	-0.111884	1.05656	-0.218464	0	0	-0.0861733	0.0798484	-0.15779	-0.125917	-0.216434	1.45191	0.22696	0.120294	0	0	-0.0738963	-0.392075	0.27966	1.02377	1.32874	0	0
1.46628	0.069952	0.0695866	1.68804	0.208588	0.965411	0.419587	0.190933	0.0886515	-0.299687	0.352496	0.0932263	0	0	0.0958337	-0.21567	-0.10558	1.07442	-0.199571	0	0	-0.0849389	0.0802481	-0.153318	-0.112071	-0.218533	1.44523	0.229589	0.127506	0	0	-0.0763776	-0.389607	0.292087	1.00682	1.32076	0	0
1.47293	0.0707159	0.0675506	1.68738	0.20932	0.96601	0.411736	0.182206	0.0919349	-0.298352	0.348216	0.0992624	0	0	0.12082	-0.214746	-0.0996573	1.08943	-0.17905	0	0	-0.0841192	0.0801535	-0.148878	-0.0978438	-0.220933	1.43681	0.232863	0.136787	0	0	-0.0787677	-0.387228	0.305138	0.989134	1.31208	0	0
1.47959	0.0709889	0.065742	1.68651	0.210042	0.966616	0.403938	0.173007	0.0947108	-0.296904	0.343583	0.105037	0	0	0.14503	-0.212933	-0.0942286	1.1015	-0.157332	0	0	-0.0837041	0.0796063	-0.144446	-0.0833063	-0.223674	1.42645	0.236888	0.148369	0	0	-0.0810791	-0.384923	0.318837	0.970737	1.30267	0	0
1.48624	0.070815	0.0641634	1.6854	0.210757	0.967228	0.396189	0.163334	0.0970285	-0.295322	0.338598	0.11054	0	0	0.16837	-0.210326	-0.0893958	1.11058	-0.134842	0	0	-0.0836781	0.0786524	-0.139992	-0.0685337	-0.226789	1.41392	0.241763	0.162443	0	0	-0.0833213	-0.382673	0.333218	0.951668	1.29248	0	0
1.4929	0.070241	0.062814	1.68402	0.211472	0.967843	0.388484	0.15319	0.0989387	-0.293582	0.333264	0.115771	0	0	0.19076	-0.207026	-0.0852504	1.11662	-0.111989	0	0	-0.0840215	0.0773403	-0.13549	-0.0536027	-0.230306	1.39907	0.247578	0.179156	0	0	-0.0855007	-0.380457	0.348323	0.931964	1.28149	0	0
1.49955	0.069315	0.0616897	1.68234	0.212191	0.968459	0.380818	0.142583	0.100491	-0.291665	0.327587	0.120734	0	0	0.212134	-0.203136	-0.0818737	1.11961	-0.0891534	0	0	-0.0847101	0.0757204	-0.130909	-0.0385904	-0.234245	1.38175	0.254409	0.198598	0	0	-0.0876205	-0.378254	0.364204	0.911659	1.26962	0	0
1.50621	0.0680856	0.0607837	1.68034	0.212918	0.969075	0.373188	0.131528	0.101734	-0.289553	0.321578	0.12544	0	0	0.232436	-0.198762	-0.0793361	1.11956	-0.0666798	0	0	-0.0857169	0.073843	-0.126225	-0.0235724	-0.238618	1.36193	0.262312	0.220796	0	0	-0.0896806	-0.376038	0.380921	0.890787	1.25684	0	0
1.51286	0.0665988	0.0600869	1.67801	0.213633	0.969684	0.365573	0.120043	0.102712	-0.28723	0.315251	0.129905	0	0	0.251624	-0.194006	-0.077698	1.11649	-0.0448707	0	0	-0.0870119	0.0717593	-0.121409	-0.00862115	-0.243423	1.33958	0.271317	0.24571	0	0	-0.0916781	-0.373783	0.398541	0.86938	1.24309	0	0
1.51952	0.0648998	0.0595883	1.67534	0.214338	0.970274	0.357968	0.108152	0.103465	-0.284687	0.308628	0.13415	0	0	0.269665	-0.188965	-0.0770092	1.11044	-0.0239837	0	0	-0.0885637	0.0695172	-0.116438	0.00619641	-0.248649	1.3148	0.281431	0.273221	0	0	-0.0936073	-0.371465	0.417139	0.847471	1.2283	0	0
1.52617	0.0630314	0.0592756	1.67232	0.215033	0.970838	0.350367	0.0958836	0.104029	-0.281921	0.301735	0.138199	0	0	0.286539	-0.18373	-0.0773102	1.10148	-0.00423012	0	0	-0.0903401	0.0671611	-0.111294	0.0208216	-0.254271	1.28774	0.292628	0.303136	0	0	-0.0954612	-0.369054	0.43679	0.825093	1.21242	0	0
1.53283	0.0610325	0.0591352	1.66896	0.215716	0.971365	0.342767	0.0832705	0.10443	-0.278933	0.294605	0.142079	0	0	0.302234	-0.178383	-0.0786319	1.08967	0.0142247	0	0	-0.0923091	0.0647318	-0.10596	0.0352068	-0.26025	1.25864	0.304851	0.335176	0	0	-0.0972332	-0.366523	0.457574	0.80228	1.19538	0	0
1.53948	0.058938	0.0591527	1.66526	0.216388	0.971846	0.335164	0.070349	0.104693	-0.275733	0.287276	0.145821	0	0	0.316747	-0.172995	-0.0809957	1.0751	0.0312585	0	0	-0.0944392	0.0622649	-0.10043	0.049318	-0.266535	1.22783	0.318009	0.368985	0	0	-0.0989185	-0.363845	0.479561	0.779068	1.17714	0	0
1.54614	0.0567778	0.0593135	1.66124	0.217049	0.972272	0.327557	0.0571583	0.104832	-0.272335	0.279792	0.149455	0	0	0.330082	-0.167623	-0.0844141	1.05787	0.0467891	0	0	-0.0967002	0.0597911	-0.0947016	0.0631356	-0.273063	1.19572	0.331987	0.404136	0	0	-0.100516	-0.360993	0.502821	0.755497	1.15764	0	0
1.55279	0.0545778	0.0596034	1.65693	0.217696	0.972635	0.319943	0.0437396	0.104858	-0.268763	0.272203	0.153015	0	0	0.342251	-0.162315	-0.0888894	1.03808	0.0607699	0	0	-0.0990646	0.057337	-0.0887783	0.0766433	-0.279779	1.16268	0.346674	0.44024	0	0	-0.102023	-0.35794	0.527418	0.73161	1.13681	0	0
1.55945	0.0523595	0.0600087	1.65235	0.218328	0.972928	0.31232	0.0301346	0.104775	-0.265046	0.264559	0.156531	0	0	0.353269	-0.157102	-0.0944139	1.01583	0.0731851	0	0	-0.101508	0.0549249	-0.0826686	0.0898306	-0.286627	1.12905	0.361964	0.476935	0	0	-0.103443	-0.354662	0.553408	0.707453	1.11462	0	0
1.5661	0.0501398	0.0605169	1.64752	0.218944	0.973144	0.304688	0.0163858	0.104583	-0.261218	0.256917	0.160034	0	0	0.363157	-0.152006	-0.100968	0.99126	0.0840445	0	0	-0.10401	0.0525724	-0.0763869	0.102694	-0.293558	1.09519	0.377754	0.513875	0	0	-0.10478	-0.351137	0.580832	0.683078	1.09102	0	0
1.57276	0.0479314	0.0611165	1.64248	0.219541	0.973278	0.297045	0.00253479	0.104278	-0.25732	0.249333	0.163554	0	0	0.37194	-0.147033	-0.108522	0.964486	0.0933787	0	0	-0.106553	0.0502929	-0.0699531	0.115234	-0.300526	1.06139	0.393949	0.550747	0	0	-0.106045	-0.347343	0.609715	0.658541	1.066	0	0
1.57941	0.0457436	0.0617976	1.63727	0.220118	0.973324	0.28939	-0.011378	0.103853	-0.253396	0.241866	0.167116	0	0	0.379647	-0.142177	-0.117029	0.935648	0.101235	0	0	-0.109124	0.0480962	-0.0633911	0.127458	-0.307491	1.02794	0.410461	0.587272	0	0	-0.107254	-0.343264	0.640061	0.633905	1.03954	0	0
1.58607	0.0435822	0.0625515	1.63193	0.220673	0.97328	0.281723	-0.0253143	0.103298	-0.249492	0.234573	0.170744	0	0	0.386307	-0.137421	-0.126431	0.90489	0.107671	0	0	-0.111712	0.0459885	-0.0567286	0.13937	-0.31442	0.995071	0.427217	0.623215	0	0	-0.108427	-0.338886	0.671857	0.609239	1.01164	0	0
1.59272	0.0414507	0.0633715	1.62649	0.221203	0.973143	0.274041	-0.0392384	0.102601	-0.245656	0.227509	0.174455	0	0	0.391954	-0.13274	-0.13665	0.87237	0.112758	0	0	-0.114309	0.0439727	-0.0499962	0.150977	-0.321285	0.962982	0.444152	0.658378	0	0	-0.109587	-0.3342	0.705059	0.584616	0.982359	0	0
1.59938	0.0393524	0.0642536	1.62099	0.221706	0.972913	0.266344	-0.0531173	0.10175	-0.241936	0.220727	0.178261	0	0	0.396627	-0.128098	-0.147591	0.838252	0.116569	0	0	-0.11691	0.0420489	-0.0432262	0.162286	-0.328065	0.931832	0.461214	0.692605	0	0	-0.110766	-0.3292	0.739602	0.560115	0.951736	0	0
1.60603	0.0372877	0.0651952	1.61547	0.22218	0.972589	0.258629	-0.0669213	0.100735	-0.238377	0.214278	0.18217	0	0	0.400364	-0.123452	-0.159143	0.802718	0.119186	0	0	-0.119512	0.0402151	-0.0364519	0.1733	-0.334744	0.901744	0.478362	0.725774	0	0	-0.111997	-0.323887	0.77539	0.535822	0.91986	0	0
1.61269	0.0352548	0.0661931	1.60997	0.222622	0.972175	0.250893	-0.0806248	0.0995426	-0.235022	0.208207	0.186182	0	0	0.403208	-0.118758	-0.171169	0.765959	0.120692	0	0	-0.122112	0.0384684	-0.0297057	0.184019	-0.341312	0.872801	0.495563	0.757802	0	0	-0.113316	-0.31827	0.812299	0.511826	0.886844	0	0
1.61934	0.0332509	0.0672451	1.60452	0.22303	0.971673	0.243132	-0.0942051	0.0981652	-0.231908	0.202557	0.190292	0	0	0.405205	-0.113969	-0.183516	0.728184	0.121177	0	0	-0.124707	0.0368051	-0.0230183	0.194437	-0.347761	0.845056	0.512794	0.788633	0	0	-0.114761	-0.312362	0.850179	0.488219	0.85283	0	0
1.626	0.0312731	0.0683493	1.59915	0.223399	0.971089	0.235342	-0.107643	0.0965948	-0.229066	0.197367	0.194485	0	0	0.406403	-0.109036	-0.19601	0.68962	0.12073	0	0	-0.127294	0.035221	-0.0164162	0.204542	-0.354088	0.818529	0.53004	0.818241	0	0	-0.116372	-0.306183	0.888855	0.465094	0.817986	0	0
1.63265	0.0293185	0.069504	1.5939	0.223729	0.97043	0.227517	-0.120921	0.0948255	-0.226518	0.192669	0.198742	0	0	0.406856	-0.103917	-0.208459	0.650507	0.119447	0	0	-0.129866	0.0337115	-0.00992104	0.214316	-0.360294	0.793212	0.547291	0.846622	0	0	-0.118183	-0.299759	0.928131	0.442544	0.782508	0	0
1.63931	0.0273847	0.0707074	1.58879	0.224015	0.969704	0.219653	-0.134026	0.0928534	-0.22428	0.188497	0.203034	0	0	0.40662	-0.0985719	-0.220656	0.611107	0.117423	0	0	-0.132415	0.0322722	-0.00355089	0.223732	-0.366378	0.769082	0.564539	0.873784	0	0	-0.12023	-0.293125	0.967785	0.420662	0.74662	0	0
1.64596	0.0254696	0.0719577	1.58383	0.224256	0.968921	0.211741	-0.146944	0.090676	-0.222358	0.184877	0.207327	0	0	0.405757	-0.0929705	-0.232384	0.571694	0.114758	0	0	-0.13493	0.0308983	0.00267888	0.232763	-0.372343	0.746096	0.58178	0.899753	0	0	-0.122546	-0.286319	1.00758	0.39954	0.710568	0	0
1.65262	0.0235711	0.0732524	1.57906	0.22445	0.968091	0.203776	-0.159662	0.0882917	-0.22075	0.181837	0.21158	0	0	0.404328	-0.0870904	-0.243422	0.532561	0.111554	0	0	-0.137399	0.0295849	0.0087541	0.241377	-0.378189	0.724206	0.599009	0.924562	0	0	-0.125164	-0.279388	1.04723	0.379268	0.67462	0	0
1.65927	0.0216871	0.0745889	1.57447	0.224593	0.967226	0.195749	-0.172169	0.0856995	-0.219445	0.179403	0.215743	0	0	0.402401	-0.0809199	-0.253549	0.494012	0.107913	0	0	-0.139806	0.0283266	0.0146615	0.249539	-0.383915	0.703358	0.61622	0.948253	0	0	-0.128115	-0.272382	1.08648	0.359932	0.639059	0	0
1.66593	0.0198151	0.0759637	1.57009	0.224684	0.966338	0.187653	-0.184451	0.082898	-0.218427	0.177601	0.219762	0	0	0.400042	-0.0744588	-0.262557	0.45636	0.103935	0	0	-0.142134	0.0271172	0.0203882	0.257215	-0.389517	0.683492	0.633404	0.970871	0	0	-0.131423	-0.265353	1.12503	0.341613	0.604168	0	0
1.67258	0.0179515	0.0773724	1.56591	0.224722	0.965441	0.17948	-0.196493	0.0798849	-0.217672	0.176459	0.223575	0	0	0.397321	-0.0677181	-0.270259	0.419926	0.0997205	0	0	-0.144365	0.0259494	0.0259216	0.26437	-0.394989	0.664553	0.65055	0.992469	0	0	-0.135109	-0.258358	1.16258	0.324383	0.570228	0	0
1.67924	0.0160922	0.0788072	1.56195	0.224726	0.964546	0.171257	-0.208277	0.0766562	-0.217155	0.176009	0.227115	0	0	0.394305	-0.0607196	-0.276494	0.385026	0.0953633	0	0	-0.146479	0.0248137	0.031249	0.27097	-0.400319	0.646484	0.667641	1.0131	0	0	-0.139185	-0.251452	1.19888	0.3083	0.537501	0	0
1.6859	0.0142306	0.080262	1.5582	0.224694	0.963654	0.162978	-0.219781	0.0732046	-0.216846	0.176286	0.230308	0	0	0.391061	-0.0534942	-0.281141	0.351971	0.0909507	0	0	-0.148455	0.0236988	0.0363575	0.276982	-0.405496	0.629231	0.684655	1.03282	0	0	-0.143658	-0.244688	1.23367	0.293411	0.506222	0	0
1.69255	0.0123576	0.08173	1.55466	0.224628	0.962768	0.154636	-0.230977	0.0695199	-0.216716	0.17733	0.233074	0	0	0.387655	-0.0460802	-0.284121	0.321057	0.0865601	0	0	-0.15027	0.0225912	0.0412338	0.282375	-0.410502	0.612748	0.701568	1.05168	0	0	-0.148524	-0.238117	1.26672	0.279748	0.476597	0	0
1.69921	0.0104614	0.0832029	1.55133	0.224527	0.96189	0.146227	-0.241831	0.0655878	-0.21674	0.179187	0.235328	0	0	0.384147	-0.0385203	-0.285407	0.292555	0.0822568	0	0	-0.151899	0.0214745	0.0458648	0.287122	-0.41532	0.59699	0.718348	1.06974	0	0	-0.153771	-0.231782	1.29785	0.267323	0.448782	0	0
1.70586	0.00852727	0.0846712	1.54819	0.224393	0.961024	0.137746	-0.252305	0.0613898	-0.216895	0.18191	0.236978	0	0	0.380594	-0.0308591	-0.285021	0.266711	0.0780917	0	0	-0.153319	0.0203293	0.0502366	0.291197	-0.419927	0.581921	0.73496	1.08704	0	0	-0.159377	-0.225723	1.32693	0.256133	0.422893	0	0
1.71252	0.00653726	0.086124	1.54525	0.224227	0.960173	0.12919	-0.262351	0.0569032	-0.217163	0.185556	0.237928	0	0	0.37705	-0.0231393	-0.283033	0.243726	0.0740997	0	0	-0.154506	0.0191335	0.0543354	0.29458	-0.424302	0.567512	0.751361	1.10364	0	0	-0.165314	-0.21997	1.35386	0.246161	0.399003	0	0
1.71917	0.00447071	0.0875488	1.54249	0.22403	0.959342	0.120556	-0.271915	0.0521014	-0.217536	0.190191	0.238076	0	0	0.373559	-0.0153997	-0.279562	0.223762	0.0702985	0	0	-0.155435	0.0178624	0.0581468	0.297255	-0.428421	0.553741	0.767508	1.11957	0	0	-0.171549	-0.214547	1.37858	0.237374	0.377149	0	0
1.72583	0.00230429	0.0889322	1.5399	0.223803	0.958533	0.111843	-0.280936	0.046954	-0.218008	0.195882	0.237315	0	0	0.370161	-0.0076721	-0.274762	0.206925	0.066688	0	0	-0.156084	0.0164888	0.0616565	0.299214	-0.432261	0.540596	0.783351	1.13486	0	0	-0.178043	-0.209474	1.40105	0.229732	0.357335	0	0
1.73248	1.26985e-05	0.0902591	1.53749	0.22355	0.957749	0.103049	-0.289348	0.0414279	-0.218585	0.202701	0.235533	0	0	0.366887	1.99501e-05	-0.268817	0.193265	0.0632516	0	0	-0.156432	0.0149837	0.0648503	0.300452	-0.435798	0.528073	0.798835	1.14953	0	0	-0.184754	-0.204763	1.42127	0.223184	0.339541	0	0
1.73914	-0.00243087	0.0915133	1.53524	0.223271	0.956995	0.0941756	-0.297078	0.035488	-0.219274	0.210723	0.232615	0	0	0.363759	0.00766231	-0.261932	0.182775	0.0599567	0	0	-0.156459	0.0133171	0.0677144	0.300973	-0.439011	0.516176	0.813906	1.16359	0	0	-0.191637	-0.20042	1.43925	0.217677	0.323731	0	0
1.74579	-0.00505427	0.0926783	1.53314	0.222967	0.956273	0.0852242	-0.30405	0.0290982	-0.220088	0.22002	0.228443	0	0	0.360791	0.0152507	-0.254323	0.175387	0.0567583	0	0	-0.156149	0.0114581	0.0702362	0.300784	-0.441879	0.504915	0.828504	1.17705	0	0	-0.198646	-0.19645	1.45503	0.213153	0.309852	0	0
1.75245	-0.00788563	0.0937373	1.53118	0.222642	0.955586	0.0761974	-0.310188	0.022222	-0.221045	0.230663	0.222899	0	0	0.357986	0.0227904	-0.246204	0.170974	0.0536017	0	0	-0.155487	0.00937556	0.0724049	0.2999	-0.444385	0.494305	0.842571	1.18989	0	0	-0.205734	-0.192853	1.46865	0.209553	0.297841	0	0
1.7591	-0.0109528	0.0946735	1.52936	0.222295	0.954935	0.0670987	-0.315415	0.0148237	-0.22216	0.242716	0.215866	0	0	0.35534	0.0302954	-0.237783	0.169356	0.0504281	0	0	-0.154465	0.00703916	0.074212	0.298342	-0.446512	0.484361	0.856047	1.20211	0	0	-0.212851	-0.189625	1.48017	0.206819	0.287624	0	0
1.76576	-0.0142821	0.0954707	1.52767	0.22193	0.954323	0.0579326	-0.319652	0.0068701	-0.22345	0.256235	0.20723	0	0	0.352841	0.0377865	-0.229253	0.170307	0.0471798	0	0	-0.153077	0.00441991	0.0756511	0.296135	-0.448247	0.475102	0.868873	1.2137	0	0	-0.219948	-0.186761	1.48966	0.204893	0.279121	0	0
1.77241	-0.0178982	0.0961125	1.52611	0.221547	0.95375	0.0487046	-0.322829	-0.00166855	-0.224925	0.271269	0.196887	0	0	0.350473	0.0452898	-0.220788	0.173566	0.0438063	0	0	-0.151323	0.00149122	0.0767186	0.293308	-0.449582	0.466548	0.880992	1.22465	0	0	-0.226973	-0.184255	1.49721	0.203718	0.272247	0	0
1.77907	-0.0218229	0.0965842	1.52467	0.221148	0.953219	0.0394207	-0.324876	-0.0108176	-0.226593	0.28785	0.184745	0	0	0.348216	0.0528348	-0.212537	0.178845	0.0402702	0	0	-0.149206	-0.00177083	0.0774135	0.289898	-0.450509	0.458716	0.892347	1.23494	0	0	-0.233876	-0.1821	1.50289	0.203244	0.26692	0	0
1.78572	-0.026075	0.0968734	1.52334	0.220734	0.952728	0.0300873	-0.325735	-0.0205971	-0.228453	0.306	0.170725	0	0	0.346048	0.0604528	-0.204624	0.18584	0.0365521	0	0	-0.146735	-0.00538712	0.0777388	0.285945	-0.451025	0.451623	0.902889	1.24456	0	0	-0.240609	-0.180288	1.50679	0.203421	0.263059	0	0
1.79238	-0.0306694	0.0969706	1.52212	0.220307	0.952277	0.0207115	-0.325357	-0.0310206	-0.230493	0.325721	0.154772	0	0	0.343944	0.0681748	-0.197147	0.194247	0.0326548	0	0	-0.143925	-0.00937451	0.0777009	0.28149	-0.45113	0.445283	0.912568	1.25348	0	0	-0.247123	-0.178813	1.50901	0.204205	0.260586	0	0
1.79903	-0.0356164	0.0968702	1.52101	0.219867	0.951867	0.0113002	-0.323709	-0.0420941	-0.232694	0.346999	0.136856	0	0	0.34188	0.0760292	-0.190179	0.203768	0.0286051	0	0	-0.140797	-0.0137451	0.0773105	0.27658	-0.450828	0.439705	0.921345	1.26171	0	0	-0.253372	-0.177666	1.50964	0.205556	0.259425	0	0
1.80569	-0.0409206	0.0965705	1.51999	0.219416	0.951495	0.00186061	-0.32077	-0.0538144	-0.235025	0.369803	0.116976	0	0	0.339833	0.0840405	-0.183764	0.214123	0.024454	0	0	-0.137377	-0.0185054	0.0765817	0.271264	-0.450126	0.434895	0.929185	1.26922	0	0	-0.259315	-0.176842	1.50877	0.207437	0.259508	0	0
1.81234	-0.0465806	0.0960737	1.51906	0.218956	0.951161	-0.00760051	-0.316537	-0.0661689	-0.237449	0.39408	0.0951666	0	0	0.337785	0.0922276	-0.177927	0.22506	0.0202745	0	0	-0.133697	-0.0236556	0.0755318	0.265591	-0.449034	0.430856	0.936064	1.27601	0	0	-0.264915	-0.176333	1.5065	0.209815	0.260769	0	0
1.819	-0.0525883	0.0953862	1.51821	0.218487	0.950863	-0.0170767	-0.311023	-0.0791348	-0.239917	0.419763	0.0714957	0	0	0.335719	0.100603	-0.172669	0.236358	0.0161565	0	0	-0.129789	-0.0291885	0.0741815	0.259613	-0.447567	0.427582	0.941967	1.28207	0	0	-0.270141	-0.17613	1.5029	0.212658	0.263147	0	0
1.82565	-0.0589287	0.0945179	1.51743	0.21801	0.950598	-0.0265621	-0.304259	-0.0926786	-0.24238	0.446766	0.0460695	0	0	0.333621	0.109171	-0.167971	0.247833	0.0122003	0	0	-0.12569	-0.0350898	0.0725541	0.25338	-0.445742	0.425061	0.946892	1.28741	0	0	-0.27497	-0.176224	1.49808	0.215937	0.266581	0	0
1.83231	-0.0655803	0.0934816	1.51672	0.217528	0.950364	-0.0360515	-0.296292	-0.106757	-0.244785	0.474989	0.0190294	0	0	0.331483	0.11793	-0.163802	0.259338	0.00850867	0	0	-0.121438	-0.0413377	0.0706751	0.246939	-0.443581	0.423275	0.950852	1.29203	0	0	-0.279388	-0.176604	1.49213	0.219622	0.271009	0	0
1.83896	-0.0725152	0.0922931	1.51606	0.217039	0.950159	-0.0455406	-0.287188	-0.121318	-0.247082	0.504322	-0.00945161	0	0	0.329299	0.126869	-0.160117	0.270762	0.00517747	0	0	-0.117068	-0.0479034	0.0685717	0.240338	-0.441109	0.422195	0.953872	1.29595	0	0	-0.283387	-0.177255	1.48515	0.223684	0.276368	0	0
1.84562	-0.0797005	0.0909699	1.51545	0.216547	0.949978	-0.055026	-0.277027	-0.136303	-0.249224	0.534641	-0.0391749	0	0	0.327067	0.135973	-0.156863	0.28203	0.00228725	0	0	-0.112616	-0.0547521	0.0662719	0.233617	-0.438353	0.421783	0.955995	1.29921	0	0	-0.286974	-0.178159	1.47723	0.228088	0.282586	0	0
1.85227	-0.0870999	0.0895309	1.51487	0.216051	0.94982	-0.0645052	-0.265904	-0.151646	-0.251176	0.565819	-0.069925	0	0	0.324786	0.145218	-0.153983	0.293096	-0.000104447	0	0	-0.108112	-0.0618448	0.0638035	0.226816	-0.435344	0.421994	0.957279	1.30183	0	0	-0.290163	-0.179294	1.46849	0.232801	0.289583	0	0
1.85893	-0.094675	0.0879958	1.51431	0.215553	0.949681	-0.0739769	-0.253928	-0.167282	-0.252915	0.597725	-0.10148	0	0	0.322458	0.154581	-0.151418	0.303941	-0.00196912	0	0	-0.103582	-0.0691399	0.0611934	0.219966	-0.432114	0.422771	0.957797	1.30388	0	0	-0.292981	-0.180637	1.45903	0.237783	0.297269	0	0
1.86558	-0.102388	0.0863837	1.51378	0.215053	0.949558	-0.0834403	-0.241216	-0.183146	-0.254432	0.630226	-0.133627	0	0	0.320085	0.164036	-0.14911	0.314568	-0.00331065	0	0	-0.0990477	-0.0765957	0.0584669	0.213096	-0.428695	0.424052	0.957637	1.30541	0	0	-0.295464	-0.182157	1.44898	0.242993	0.305546	0	0
1.87224	-0.110205	0.0847126	1.51325	0.214551	0.949448	-0.0928958	-0.227896	-0.199179	-0.255734	0.663198	-0.166168	0	0	0.317672	0.173558	-0.147004	0.324995	-0.00416523	0	0	-0.0945229	-0.0841731	0.0556469	0.206227	-0.425123	0.425766	0.956897	1.30651	0	0	-0.297659	-0.183826	1.43844	0.248391	0.314312	0	0
1.87889	-0.118093	0.0829988	1.51273	0.214049	0.949347	-0.102344	-0.214094	-0.215329	-0.256843	0.696521	-0.198942	0	0	0.315225	0.183125	-0.14505	0.335253	-0.00459805	0	0	-0.0900156	-0.091837	0.052754	0.199374	-0.42143	0.427834	0.955686	1.30725	0	0	-0.29962	-0.18561	1.42753	0.253936	0.323464	0	0
1.88555	-0.126028	0.0812561	1.51221	0.213547	0.949253	-0.111787	-0.199938	-0.231553	-0.257796	0.730088	-0.231824	0	0	0.312752	0.192719	-0.143202	0.345379	-0.00469638	0	0	-0.0855272	-0.0995575	0.0498069	0.192545	-0.417647	0.430178	0.954118	1.30771	0	0	-0.301405	-0.187481	1.41634	0.259588	0.332904	0	0
1.8922	-0.13399	0.0794953	1.51169	0.213044	0.949163	-0.121226	-0.185547	-0.24782	-0.258636	0.763809	-0.264737	0	0	0.31026	0.202328	-0.141421	0.355415	-0.00455966	0	0	-0.081054	-0.107312	0.0468222	0.185742	-0.413805	0.432714	0.952305	1.308	0	0	-0.303074	-0.189407	1.40496	0.265312	0.342538	0	0
1.89886	-0.141965	0.0777257	1.51117	0.212541	0.949076	-0.130663	-0.171026	-0.264106	-0.259409	0.79761	-0.29764	0	0	0.307758	0.211944	-0.139676	0.365398	-0.00428752	0	0	-0.0765908	-0.115082	0.0438144	0.178959	-0.409929	0.435366	0.950352	1.30817	0	0	-0.304678	-0.191365	1.39348	0.271076	0.352283	0	0
1.90552	-0.149945	0.0759525	1.51065	0.212038	0.948989	-0.140099	-0.156456	-0.280398	-0.260156	0.831438	-0.330533	0	0	0.305251	0.221562	-0.137944	0.375362	-0.00396347	0	0	-0.0721307	-0.122858	0.0407962	0.172188	-0.406041	0.438065	0.948343	1.3083	0	0	-0.306261	-0.193334	1.38195	0.276857	0.36207	0	0
