Coordinates
version=1
nRows=147
nColumns=38
inDegrees=no

Units are S.I. units (second, meters, Newtons, ...)
If the header above contains a line with 'inDegrees', this indicates whether rotational values are in degrees (yes) or radians (no).

endheader
time	pelvis_tilt	pelvis_list	pelvis_rotation	pelvis_tx	pelvis_ty	pelvis_tz	hip_flexion_r	hip_adduction_r	hip_rotation_r	knee_angle_r	ankle_angle_r	subtalar_angle_r	mtp_angle_r	hip_flexion_l	hip_adduction_l	hip_rotation_l	knee_angle_l	ankle_angle_l	subtalar_angle_l	mtp_angle_l	lumbar_extension	lumbar_bending	lumbar_rotation	arm_flex_r	arm_add_r	arm_rot_r	elbow_flex_r	pro_sup_r	wrist_flex_r	wrist_dev_r	arm_flex_l	arm_add_l	arm_rot_l	elbow_flex_l	pro_sup_l	wrist_flex_l	wrist_dev_l
5.58	-2.39563	-0.0990489	-0.00336118	-0.542075	-1.00213	0.25288	-0.523598	0.102144	-0.0341467	0.457248	0.111037	0	0	-0.295378	-0.138664	-0.297955	0.179862	-0.166023	0	0	-1.34134	0.0652365	0.202297	0	0	0	0	0	0	0	0	0	0	0	0	0	0
5.58999	-2.40025	-0.112401	-0.00201493	-0.550673	-1.00005	0.251294	-0.523599	0.113802	-0.0244384	0.468144	0.124063	0	0	-0.286082	-0.147801	-0.277783	0.157604	-0.166481	0	0	-1.33917	0.0768507	0.198907	0	0	0	0	0	0	0	0	0	0	0	0	0	0
5.59997	-2.40487	-0.125723	-0.000706738	-0.559283	-0.997978	0.249704	-0.523599	0.125406	-0.0147253	0.479065	0.137066	0	0	-0.276821	-0.156943	-0.257579	0.135585	-0.166832	0	0	-1.33696	0.0883459	0.195942	0	0	0	0	0	0	0	0	0	0	0	0	0	0
5.60996	-2.40951	-0.138969	0.000475773	-0.567924	-0.995916	0.248105	-0.523599	0.136852	-0.00497907	0.490048	0.150006	0	0	-0.267649	-0.166091	-0.237448	0.114197	-0.166986	0	0	-1.33466	0.0995545	0.193845	0	0	0	0	0	0	0	0	0	0	0	0	0	0
5.61994	-2.41419	-0.152077	0.00141232	-0.576619	-0.993877	0.246494	-0.523599	0.148004	0.00483538	0.501124	0.162833	0	0	-0.258621	-0.175234	-0.217684	0.0939212	-0.166935	0	0	-1.3322	0.110305	0.19293	0	0	0	0	0	0	0	0	0	0	0	0	0	0
5.62993	-2.41893	-0.164975	0.00196715	-0.585399	-0.991875	0.244863	-0.523599	0.158706	0.014743	0.512316	0.175484	0	0	-0.249781	-0.184343	-0.198746	0.0752677	-0.166766	0	0	-1.32949	0.120445	0.193341	0	0	0	0	0	0	0	0	0	0	0	0	0	0
5.63991	-2.42376	-0.17758	0.0020034	-0.594299	-0.989927	0.243208	-0.523599	0.168788	0.0247481	0.523632	0.187889	0	0	-0.24117	-0.193368	-0.181202	0.0587174	-0.166658	0	0	-1.32643	0.129843	0.19507	0	0	0	0	0	0	0	0	0	0	0	0	0	0
5.6499	-2.42872	-0.189804	0.00138418	-0.603344	-0.988049	0.241528	-0.5236	0.178074	0.034834	0.535059	0.199972	0	0	-0.232825	-0.20223	-0.165637	0.0446808	-0.16688	0	0	-1.32287	0.138389	0.19799	0	0	0	0	0	0	0	0	0	0	0	0	0	0
5.65989	-2.43387	-0.201553	-2.12802e-05	-0.612553	-0.986255	0.239827	-0.5236	0.18638	0.0449633	0.546576	0.211643	0	0	-0.224798	-0.210831	-0.152589	0.0334566	-0.167788	0	0	-1.31867	0.145986	0.20189	0	0	0	0	0	0	0	0	0	0	0	0	0	0
5.66987	-2.43923	-0.212727	-0.00232149	-0.621938	-0.984559	0.238107	-0.5236	0.193532	0.0550789	0.558182	0.222804	0	0	-0.217174	-0.219051	-0.14249	0.0251901	-0.16982	0	0	-1.31366	0.152552	0.20652	0	0	0	0	0	0	0	0	0	0	0	0	0	0
5.67986	-2.44471	-0.223218	-0.00550198	-0.631489	-0.982977	0.236367	-0.5236	0.199416	0.065095	0.57003	0.233338	0	0	-0.210147	-0.226758	-0.135611	0.0198431	-0.173455	0	0	-1.30812	0.158062	0.211679	0	0	0	0	0	0	0	0	0	0	0	0	0	0
5.68984	-2.45021	-0.232924	-0.00953556	-0.641198	-0.981525	0.234609	-0.5236	0.203937	0.0749254	0.58222	0.243136	0	0	-0.203841	-0.233835	-0.132054	0.0173382	-0.179174	0	0	-1.3022	0.162498	0.217131	0	0	0	0	0	0	0	0	0	0	0	0	0	0
5.69983	-2.45571	-0.241718	-0.0144053	-0.651062	-0.980217	0.232847	-0.5236	0.206978	0.0844682	0.594789	0.252069	0	0	-0.198298	-0.240136	-0.131789	0.0175839	-0.187421	0	0	-1.29591	0.165804	0.222618	0	0	0	0	0	0	0	0	0	0	0	0	0	0
5.70982	-2.46117	-0.249436	-0.0201118	-0.661079	-0.97907	0.231102	-0.5236	0.208386	0.093595	0.607696	0.259988	0	0	-0.193477	-0.245488	-0.134679	0.0204882	-0.198555	0	0	-1.28913	0.167866	0.227862	0	0	0	0	0	0	0	0	0	0	0	0	0	0
5.7198	-2.46647	-0.255903	-0.0265594	-0.67122	-0.978096	0.229394	-0.523599	0.208048	0.102142	0.621075	0.266706	0	0	-0.189398	-0.249709	-0.140426	0.0259127	-0.212782	0	0	-1.282	0.168587	0.232653	0	0	0	0	0	0	0	0	0	0	0	0	0	0
5.72979	-2.4713	-0.260974	-0.0335146	-0.681427	-0.977305	0.227734	-0.523598	0.205952	0.109925	0.635279	0.272026	0	0	-0.186185	-0.252657	-0.148529	0.0336535	-0.230075	0	0	-1.27506	0.167944	0.236864	0	0	0	0	0	0	0	0	0	0	0	0	0	0
5.73977	-2.47545	-0.264519	-0.0407568	-0.691651	-0.976704	0.226142	-0.523597	0.202108	0.116769	0.650505	0.275722	0	0	-0.183859	-0.254215	-0.158394	0.0435232	-0.25005	0	0	-1.26862	0.16592	0.240335	0	0	0	0	0	0	0	0	0	0	0	0	0	0
5.74976	-2.47877	-0.266415	-0.0481009	-0.701859	-0.976301	0.224643	-0.523595	0.196509	0.122494	0.666833	0.277518	0	0	-0.182386	-0.254264	-0.169369	0.0553443	-0.271876	0	0	-1.26281	0.162475	0.242906	0	0	0	0	0	0	0	0	0	0	0	0	0	0
5.75974	-2.48119	-0.26656	-0.0554064	-0.712029	-0.976098	0.223262	-0.523592	0.189139	0.12692	0.684211	0.277094	0	0	-0.181698	-0.252689	-0.180758	0.068937	-0.294326	0	0	-1.2576	0.157564	0.244432	0	0	0	0	0	0	0	0	0	0	0	0	0	0
5.76973	-2.48266	-0.264922	-0.0625484	-0.722144	-0.976095	0.222017	-0.523589	0.180018	0.129876	0.702569	0.274104	0	0	-0.181776	-0.249409	-0.191869	0.0840533	-0.316061	0	0	-1.25292	0.151196	0.244824	0	0	0	0	0	0	0	0	0	0	0	0	0	0
5.77972	-2.48298	-0.2616	-0.06931	-0.732168	-0.97628	0.220896	-0.523584	0.169298	0.131205	0.722062	0.268219	0	0	-0.18284	-0.244431	-0.202039	0.100231	-0.335912	0	0	-1.24909	0.143534	0.24413	0	0	0	0	0	0	0	0	0	0	0	0	0	0
5.7897	-2.48208	-0.256749	-0.075539	-0.74208	-0.976642	0.219878	-0.52358	0.157149	0.130845	0.74265	0.259096	0	0	-0.185032	-0.237805	-0.21086	0.117001	-0.352945	0	0	-1.2462	0.134797	0.242407	0	0	0	0	0	0	0	0	0	0	0	0	0	0
5.79969	-2.47991	-0.250566	-0.0811545	-0.751867	-0.977169	0.218925	-0.523575	0.143715	0.128794	0.764248	0.2464	0	0	-0.188531	-0.229604	-0.218193	0.133852	-0.366492	0	0	-1.24434	0.125219	0.239746	0	0	0	0	0	0	0	0	0	0	0	0	0	0
5.80967	-2.47644	-0.243266	-0.0861496	-0.761515	-0.977856	0.217998	-0.52357	0.129107	0.125105	0.78672	0.229842	0	0	-0.193526	-0.219923	-0.224166	0.15029	-0.376173	0	0	-1.24357	0.115027	0.23626	0	0	0	0	0	0	0	0	0	0	0	0	0	0
5.81966	-2.47169	-0.235062	-0.0905811	-0.771013	-0.978698	0.217053	-0.523566	0.113402	0.119869	0.809869	0.209224	0	0	-0.200176	-0.208884	-0.22911	0.165888	-0.381912	0	0	-1.2439	0.104419	0.23207	0	0	0	0	0	0	0	0	0	0	0	0	0	0
5.82965	-2.46572	-0.226167	-0.0945468	-0.780353	-0.97969	0.216053	-0.523563	0.0966623	0.11321	0.833428	0.184486	0	0	-0.208572	-0.196647	-0.233461	0.180321	-0.383879	0	0	-1.24528	0.0935675	0.227286	0	0	0	0	0	0	0	0	0	0	0	0	0	0
5.83963	-2.45865	-0.216777	-0.0981621	-0.789529	-0.980827	0.214972	-0.523564	0.0789629	0.105286	0.857048	0.155763	0	0	-0.218713	-0.18341	-0.237664	0.193381	-0.382416	0	0	-1.24759	0.0826222	0.222001	0	0	0	0	0	0	0	0	0	0	0	0	0	0
5.84962	-2.45046	-0.207145	-0.101467	-0.798514	-0.982103	0.213784	-0.52357	0.0604674	0.0962242	0.880555	0.123497	0	0	-0.2307	-0.169432	-0.241978	0.204828	-0.377989	0	0	-1.25108	0.0717861	0.216337	0	0	0	0	0	0	0	0	0	0	0	0	0	0
5.8596	-2.44119	-0.197526	-0.104454	-0.807279	-0.983506	0.212478	-0.523582	0.0414177	0.0861675	0.903732	0.0884358	0	0	-0.244536	-0.155021	-0.246496	0.214533	-0.371139	0	0	-1.25592	0.0612834	0.210378	0	0	0	0	0	0	0	0	0	0	0	0	0	0
5.86959	-2.43091	-0.188147	-0.107065	-0.815802	-0.985023	0.211056	-0.523604	0.0221052	0.0752384	0.926315	0.0516317	0	0	-0.260121	-0.140503	-0.251173	0.222482	-0.362448	0	0	-1.26225	0.051337	0.204166	0	0	0	0	0	0	0	0	0	0	0	0	0	0
5.87957	-2.41973	-0.1792	-0.109189	-0.824064	-0.986638	0.209533	-0.523637	0.00285027	0.0635043	0.94801	0.0144195	0	0	-0.277261	-0.126206	-0.255844	0.228749	-0.352497	0	0	-1.27009	0.0421641	0.197707	0	0	0	0	0	0	0	0	0	0	0	0	0	0
5.88956	-2.4078	-0.170831	-0.110678	-0.832051	-0.988333	0.207934	-0.523684	-0.0160198	0.0509712	0.968503	-0.0216493	0	0	-0.295698	-0.112435	-0.260265	0.233475	-0.341822	0	0	-1.2794	0.0339694	0.190977	0	0	0	0	0	0	0	0	0	0	0	0	0	0
5.89955	-2.39529	-0.163136	-0.111371	-0.839758	-0.990091	0.206286	-0.523747	-0.0341924	0.0376081	0.987467	-0.054936	0	0	-0.31512	-0.0994625	-0.264164	0.236849	-0.330877	0	0	-1.29007	0.0269291	0.183931	0	0	0	0	0	0	0	0	0	0	0	0	0	0
5.90953	-2.38241	-0.156155	-0.111132	-0.847188	-0.991894	0.204621	-0.523828	-0.0513878	0.0234003	1.00456	-0.0838922	0	0	-0.335176	-0.0874991	-0.267295	0.239101	-0.320023	0	0	-1.30186	0.0211651	0.176525	0	0	0	0	0	0	0	0	0	0	0	0	0	0
5.91952	-2.3694	-0.149867	-0.109883	-0.854354	-0.993728	0.202972	-0.523925	-0.0673677	0.00841478	1.01943	-0.107264	0	0	-0.355482	-0.0766831	-0.269489	0.240493	-0.309525	0	0	-1.31443	0.0167192	0.168723	0	0	0	0	0	0	0	0	0	0	0	0	0	0
5.9295	-2.35654	-0.144192	-0.107631	-0.861278	-0.995577	0.201374	-0.524037	-0.0819366	-0.00714904	1.03167	-0.124275	0	0	-0.375619	-0.0670713	-0.270696	0.241327	-0.299548	0	0	-1.32731	0.0135338	0.160516	0	0	0	0	0	0	0	0	0	0	0	0	0	0
5.93949	-2.34414	-0.138992	-0.104477	-0.867996	-0.997429	0.199862	-0.524158	-0.0949483	-0.0229434	1.04086	-0.134731	0	0	-0.395127	-0.0586387	-0.27101	0.241954	-0.290174	0	0	-1.33984	0.0114478	0.151922	0	0	0	0	0	0	0	0	0	0	0	0	0	0
5.94948	-2.33236	-0.134204	-0.100545	-0.874507	-0.999271	0.198458	-0.524277	-0.106267	-0.0385923	1.04677	-0.138938	0	0	-0.413785	-0.051348	-0.270528	0.24253	-0.281438	0	0	-1.35193	0.0102935	0.143036	0	0	0	0	0	0	0	0	0	0	0	0	0	0
5.95946	-2.3213	-0.129782	-0.0959943	-0.880806	-1.00109	0.197179	-0.524378	-0.115796	-0.0536903	1.04925	-0.137599	0	0	-0.431419	-0.0451425	-0.269383	0.243183	-0.273335	0	0	-1.36345	0.00989393	0.133982	0	0	0	0	0	0	0	0	0	0	0	0	0	0
5.96945	-2.3111	-0.125671	-0.0910147	-0.886899	-1.00287	0.196036	-0.524441	-0.123516	-0.0678531	1.04819	-0.131651	0	0	-0.447873	-0.0399304	-0.267742	0.24404	-0.265828	0	0	-1.37428	0.0100538	0.124897	0	0	0	0	0	0	0	0	0	0	0	0	0	0
5.97943	-2.30185	-0.121786	-0.0858074	-0.8928	-1.00461	0.195042	-0.524433	-0.129495	-0.0807714	1.04351	-0.122108	0	0	-0.462981	-0.0355814	-0.26579	0.245237	-0.258851	0	0	-1.38419	0.0105661	0.115906	0	0	0	0	0	0	0	0	0	0	0	0	0	0
5.98942	-2.2937	-0.11801	-0.0805766	-0.898542	-1.00628	0.194202	-0.524317	-0.1339	-0.0922494	1.03517	-0.109941	0	0	-0.47656	-0.0319241	-0.263723	0.24692	-0.252326	0	0	-1.39285	0.0112197	0.107102	0	0	0	0	0	0	0	0	0	0	0	0	0	0
5.9994	-2.28674	-0.114213	-0.0754824	-0.904144	-1.00788	0.19352	-0.524046	-0.136947	-0.102201	1.02321	-0.0960539	0	0	-0.488484	-0.0287706	-0.261673	0.249161	-0.246183	0	0	-1.40007	0.0118262	0.0985431	0	0	0	0	0	0	0	0	0	0	0	0	0	0
6.00939	-2.28102	-0.110259	-0.0706304	-0.909617	-1.0094	0.192991	-0.523565	-0.13888	-0.110648	1.00774	-0.0812322	0	0	-0.498677	-0.0259279	-0.259698	0.251969	-0.240366	0	0	-1.40581	0.0122415	0.0902433	0	0	0	0	0	0	0	0	0	0	0	0	0	0
6.01938	-2.27658	-0.106012	-0.0660738	-0.914968	-1.01084	0.192605	-0.522817	-0.139963	-0.117697	0.988904	-0.0661361	0	0	-0.50711	-0.0232026	-0.257776	0.255281	-0.234842	0	0	-1.41015	0.0123726	0.0821726	0	0	0	0	0	0	0	0	0	0	0	0	0	0
6.02936	-2.27342	-0.101347	-0.0618241	-0.920202	-1.01218	0.192347	-0.521742	-0.14045	-0.123508	0.966931	-0.0513016	0	0	-0.513807	-0.0204112	-0.25582	0.258971	-0.229593	0	0	-1.41322	0.0121745	0.074262	0	0	0	0	0	0	0	0	0	0	0	0	0	0
6.03935	-2.27152	-0.0961714	-0.0578672	-0.925309	-1.01342	0.192199	-0.520292	-0.140559	-0.128232	0.942074	-0.0371571	0	0	-0.518864	-0.0173952	-0.253695	0.262851	-0.224613	0	0	-1.41525	0.0116354	0.0664212	0	0	0	0	0	0	0	0	0	0	0	0	0	0
6.04933	-2.2708	-0.0904526	-0.0542188	-0.930295	-1.01456	0.19215	-0.518433	-0.140502	-0.13204	0.914655	-0.0239776	0	0	-0.522471	-0.0140266	-0.251297	0.266678	-0.219883	0	0	-1.41638	0.0107545	0.0585563	0	0	0	0	0	0	0	0	0	0	0	0	0	0
6.05932	-2.27118	-0.0841995	-0.0508966	-0.93516	-1.01559	0.192189	-0.516168	-0.140441	-0.135054	0.885015	-0.0119366	0	0	-0.524864	-0.0102127	-0.248536	0.270206	-0.21539	0	0	-1.41676	0.00954384	0.0505938	0	0	0	0	0	0	0	0	0	0	0	0	0	0
6.0693	-2.27252	-0.0774508	-0.0479091	-0.939903	-1.01652	0.192308	-0.513547	-0.140482	-0.137348	0.853466	-0.00112248	0	0	-0.526292	-0.00590164	-0.245348	0.273242	-0.211117	0	0	-1.41655	0.00802612	0.0424924	0	0	0	0	0	0	0	0	0	0	0	0	0	0
6.07929	-2.27469	-0.0702676	-0.0452573	-0.944532	-1.01734	0.192502	-0.510692	-0.140707	-0.139035	0.820301	0.00850349	0	0	-0.526989	-0.00109478	-0.241748	0.275707	-0.207032	0	0	-1.41579	0.00622911	0.0342444	0	0	0	0	0	0	0	0	0	0	0	0	0	0
6.08928	-2.27752	-0.0627256	-0.0429338	-0.949058	-1.01805	0.192766	-0.507749	-0.14115	-0.140204	0.785777	0.0170157	0	0	-0.527164	0.00417174	-0.237782	0.277576	-0.203105	0	0	-1.41453	0.00418019	0.0258791	0	0	0	0	0	0	0	0	0	0	0	0	0	0
6.09926	-2.28087	-0.0549153	-0.0409302	-0.95349	-1.01867	0.1931	-0.504862	-0.141813	-0.140926	0.750144	0.0244902	0	0	-0.526992	0.00983104	-0.233531	0.278872	-0.199307	0	0	-1.41284	0.00190111	0.0174595	0	0	0	0	0	0	0	0	0	0	0	0	0	0
6.10925	-2.28459	-0.0469396	-0.039254	-0.957835	-1.01919	0.193509	-0.502154	-0.142667	-0.141245	0.71366	0.0309892	0	0	-0.526612	0.0157928	-0.229112	0.279653	-0.195611	0	0	-1.4108	-0.000610341	0.00907731	0	0	0	0	0	0	0	0	0	0	0	0	0	0
6.11923	-2.28858	-0.0389014	-0.0379223	-0.962098	-1.01962	0.194002	-0.49972	-0.143671	-0.141193	0.676598	0.0365443	0	0	-0.526128	0.0219582	-0.224664	0.280001	-0.191982	0	0	-1.40848	-0.00337346	0.000845469	0	0	0	0	0	0	0	0	0	0	0	0	0	0
6.12922	-2.29272	-0.0308871	-0.03695	-0.966282	-1.01996	0.194587	-0.497624	-0.144785	-0.140791	0.639254	0.041144	0	0	-0.525618	0.0282374	-0.220312	0.28001	-0.188392	0	0	-1.40597	-0.00641309	-0.00711753	0	0	0	0	0	0	0	0	0	0	0	0	0	0
6.13921	-2.29693	-0.0229606	-0.0363451	-0.970392	-1.02022	0.195273	-0.495904	-0.145978	-0.14006	0.601937	0.0447196	0	0	-0.525132	0.0345577	-0.216156	0.279768	-0.184816	0	0	-1.40332	-0.00975156	-0.0147027	0	0	0	0	0	0	0	0	0	0	0	0	0	0
6.14919	-2.30114	-0.0151672	-0.036108	-0.974427	-1.02041	0.196063	-0.494571	-0.14722	-0.139005	0.564966	0.0471405	0	0	-0.524699	0.040862	-0.212269	0.279354	-0.181239	0	0	-1.40059	-0.0134029	-0.0218189	0	0	0	0	0	0	0	0	0	0	0	0	0	0
6.15918	-2.30531	-0.00754293	-0.0362335	-0.978391	-1.02053	0.196959	-0.493615	-0.148482	-0.137611	0.528665	0.0482256	0	0	-0.524335	0.0471033	-0.208704	0.278836	-0.177652	0	0	-1.39784	-0.0173681	-0.0283933	0	0	0	0	0	0	0	0	0	0	0	0	0	0
6.16916	-2.3094	-0.000117262	-0.0367106	-0.982281	-1.02059	0.197959	-0.493012	-0.149737	-0.135852	0.49336	0.0477509	0	0	-0.524043	0.053243	-0.205498	0.278265	-0.174055	0	0	-1.39513	-0.021633	-0.0343718	0	0	0	0	0	0	0	0	0	0	0	0	0	0
6.17915	-2.3134	0.00708942	-0.0375206	-0.986099	-1.02059	0.199057	-0.492729	-0.150975	-0.13372	0.459373	0.0454568	0	0	-0.523822	0.0592531	-0.202662	0.277686	-0.170448	0	0	-1.39249	-0.0261693	-0.0397199	0	0	0	0	0	0	0	0	0	0	0	0	0	0
6.18913	-2.31727	0.0140728	-0.0386334	-0.989842	-1.02055	0.200242	-0.492734	-0.152208	-0.131252	0.427023	0.0410682	0	0	-0.523663	0.0651219	-0.200178	0.277133	-0.166835	0	0	-1.38996	-0.0309351	-0.0444268	0	0	0	0	0	0	0	0	0	0	0	0	0	0
6.19912	-2.32101	0.0208532	-0.0400023	-0.99351	-1.02047	0.2015	-0.492998	-0.153482	-0.128552	0.396615	0.03433	0	0	-0.523556	0.0708586	-0.197987	0.276636	-0.163223	0	0	-1.38758	-0.0358759	-0.0485121	0	0	0	0	0	0	0	0	0	0	0	0	0	0
6.20911	-2.32462	0.0274832	-0.0415591	-0.997103	-1.02035	0.202813	-0.493498	-0.154877	-0.125805	0.368441	0.0250548	0	0	-0.523491	0.076498	-0.195985	0.276215	-0.159625	0	0	-1.38537	-0.0409247	-0.0520311	0	0	0	0	0	0	0	0	0	0	0	0	0	0
6.21909	-2.32809	0.0340504	-0.0432108	-1.00062	-1.0202	0.204157	-0.494215	-0.156507	-0.123269	0.34277	0.0131833	0	0	-0.523458	0.0821021	-0.194017	0.27588	-0.156066	0	0	-1.38331	-0.0460001	-0.0550788	0	0	0	0	0	0	0	0	0	0	0	0	0	0
6.22908	-2.33142	0.0406679	-0.0448393	-1.00408	-1.02003	0.205507	-0.495134	-0.158504	-0.121256	0.319839	-0.00115535	0	0	-0.523449	0.0877498	-0.191885	0.275628	-0.152579	0	0	-1.38138	-0.0510056	-0.0577881	0	0	0	0	0	0	0	0	0	0	0	0	0	0
6.23906	-2.33463	0.0474448	-0.0463141	-1.00747	-1.01984	0.206836	-0.496234	-0.160984	-0.120083	0.299838	-0.0175781	0	0	-0.523454	0.0935091	-0.189385	0.275447	-0.149203	0	0	-1.37953	-0.055837	-0.0603151	0	0	0	0	0	0	0	0	0	0	0	0	0	0
6.24905	-2.33774	0.0544427	-0.0475221	-1.0108	-1.01965	0.208129	-0.497492	-0.164007	-0.120006	0.282892	-0.0353984	0	0	-0.52347	0.0994007	-0.186371	0.275324	-0.145971	0	0	-1.37769	-0.0604016	-0.0628094	0	0	0	0	0	0	0	0	0	0	0	0	0	0
6.25904	-2.34077	0.0616505	-0.0483818	-1.01408	-1.01946	0.209379	-0.498869	-0.167557	-0.121177	0.269035	-0.0536316	0	0	-0.52349	0.105379	-0.182793	0.27525	-0.142905	0	0	-1.37575	-0.0646219	-0.0653805	0	0	0	0	0	0	0	0	0	0	0	0	0	0
6.26902	-2.34373	0.0689854	-0.0488351	-1.01731	-1.01928	0.210585	-0.500325	-0.171533	-0.12362	0.258195	-0.0710976	0	0	-0.523511	0.111333	-0.178693	0.275225	-0.140017	0	0	-1.37362	-0.0684239	-0.0680771	0	0	0	0	0	0	0	0	0	0	0	0	0	0
6.27901	-2.34666	0.0763052	-0.0488441	-1.0205	-1.01913	0.211751	-0.501821	-0.175753	-0.12721	0.25016	-0.0866441	0	0	-0.523532	0.117095	-0.17419	0.275258	-0.137303	0	0	-1.37117	-0.0717376	-0.0708836	0	0	0	0	0	0	0	0	0	0	0	0	0	0
6.28899	-2.34956	0.0834379	-0.0483834	-1.02364	-1.01901	0.212878	-0.50333	-0.179982	-0.131678	0.244572	-0.0994551	0	0	-0.52355	0.122474	-0.16945	0.275361	-0.13475	0	0	-1.36829	-0.0744936	-0.0737318	0	0	0	0	0	0	0	0	0	0	0	0	0	0
6.29898	-2.35246	0.0902112	-0.0474388	-1.02675	-1.01894	0.213965	-0.504847	-0.183978	-0.136714	0.24096	-0.109242	0	0	-0.523566	0.127288	-0.164645	0.275545	-0.132334	0	0	-1.36486	-0.0766284	-0.0765234	0	0	0	0	0	0	0	0	0	0	0	0	0	0
6.30896	-2.35537	0.0964718	-0.0460079	-1.02983	-1.01891	0.21501	-0.506375	-0.187528	-0.142068	0.23882	-0.11614	0	0	-0.523579	0.131383	-0.159929	0.275818	-0.130022	0	0	-1.36082	-0.0780887	-0.0791541	0	0	0	0	0	0	0	0	0	0	0	0	0	0
6.31895	-2.3583	0.102101	-0.044104	-1.03286	-1.01894	0.216007	-0.507926	-0.190475	-0.147559	0.237697	-0.120498	0	0	-0.523588	0.134648	-0.15542	0.276181	-0.127782	0	0	-1.35614	-0.0788416	-0.0815349	0	0	0	0	0	0	0	0	0	0	0	0	0	0
6.32894	-2.36126	0.107026	-0.0417688	-1.03585	-1.01901	0.216957	-0.509506	-0.192719	-0.153052	0.237215	-0.122734	0	0	-0.523595	0.137033	-0.151195	0.276621	-0.125579	0	0	-1.35092	-0.0788897	-0.0836094	0	0	0	0	0	0	0	0	0	0	0	0	0	0
6.33892	-2.36422	0.111214	-0.0390898	-1.03879	-1.01912	0.217864	-0.511109	-0.194231	-0.158448	0.237077	-0.123272	0	0	-0.5236	0.138557	-0.147289	0.277106	-0.123393	0	0	-1.34537	-0.078283	-0.0853641	0	0	0	0	0	0	0	0	0	0	0	0	0	0
6.34891	-2.36716	0.114663	-0.0362132	-1.04164	-1.01927	0.218739	-0.512711	-0.195042	-0.163699	0.237033	-0.122522	0	0	-0.523603	0.139299	-0.143713	0.27757	-0.121223	0	0	-1.33988	-0.0771174	-0.0868292	0	0	0	0	0	0	0	0	0	0	0	0	0	0
6.35889	-2.37006	0.117418	-0.0332571	-1.0444	-1.01946	0.219595	-0.514289	-0.195217	-0.168785	0.236909	-0.120863	0	0	-0.523605	0.139362	-0.140464	0.27796	-0.119065	0	0	-1.33471	-0.0755125	-0.0880379	0	0	0	0	0	0	0	0	0	0	0	0	0	0
6.36888	-2.37292	0.119547	-0.0303079	-1.04706	-1.01966	0.220444	-0.515822	-0.19483	-0.173726	0.23659	-0.118624	0	0	-0.523605	0.138852	-0.137534	0.278233	-0.116918	0	0	-1.32999	-0.0735854	-0.0890255	0	0	0	0	0	0	0	0	0	0	0	0	0	0
6.37887	-2.37574	0.121131	-0.0274245	-1.04962	-1.01988	0.221295	-0.517286	-0.193964	-0.178564	0.236019	-0.116074	0	0	-0.523605	0.13787	-0.134904	0.278352	-0.114787	0	0	-1.3258	-0.0714416	-0.0898273	0	0	0	0	0	0	0	0	0	0	0	0	0	0
6.38885	-2.37851	0.12226	-0.0246478	-1.05209	-1.0201	0.222157	-0.518653	-0.192708	-0.183345	0.235186	-0.113418	0	0	-0.523604	0.13652	-0.13255	0.278286	-0.112677	0	0	-1.32214	-0.0691762	-0.0904794	0	0	0	0	0	0	0	0	0	0	0	0	0	0
6.39884	-2.38125	0.123027	-0.0220083	-1.05447	-1.02032	0.223032	-0.51989	-0.191161	-0.188102	0.234121	-0.110802	0	0	-0.523603	0.134901	-0.130443	0.278014	-0.110598	0	0	-1.31899	-0.0668739	-0.0910175	0	0	0	0	0	0	0	0	0	0	0	0	0	0
6.40882	-2.38397	0.123514	-0.0195401	-1.05676	-1.02054	0.223921	-0.520968	-0.189422	-0.192853	0.232873	-0.108323	0	0	-0.523603	0.133111	-0.128553	0.277526	-0.108564	0	0	-1.31637	-0.0646075	-0.0914786	0	0	0	0	0	0	0	0	0	0	0	0	0	0
6.41881	-2.38665	0.123789	-0.0172827	-1.05895	-1.02074	0.224821	-0.521867	-0.187583	-0.197596	0.231499	-0.106033	0	0	-0.523602	0.131237	-0.126848	0.276824	-0.106589	0	0	-1.31429	-0.0624362	-0.0918945	0	0	0	0	0	0	0	0	0	0	0	0	0	0
6.42879	-2.38928	0.123891	-0.0153	-1.06103	-1.02093	0.225729	-0.522578	-0.185727	-0.202309	0.230046	-0.103958	0	0	-0.523601	0.129361	-0.125298	0.275926	-0.104699	0	0	-1.31288	-0.0604111	-0.0922948	0	0	0	0	0	0	0	0	0	0	0	0	0	0
6.43878	-2.39183	0.123859	-0.0136203	-1.06299	-1.02111	0.226639	-0.523114	-0.183915	-0.206929	0.228547	-0.10209	0	0	-0.5236	0.127539	-0.123885	0.274863	-0.102897	0	0	-1.31214	-0.0585606	-0.0926877	0	0	0	0	0	0	0	0	0	0	0	0	0	0
6.44877	-2.39431	0.123723	-0.0122411	-1.06483	-1.02127	0.227541	-0.523495	-0.18218	-0.21137	0.227026	-0.100409	0	0	-0.5236	0.125804	-0.122607	0.273672	-0.101167	0	0	-1.31199	-0.0568889	-0.0930662	0	0	0	0	0	0	0	0	0	0	0	0	0	0
6.45875	-2.39671	0.123506	-0.0111459	-1.06658	-1.02141	0.228425	-0.523746	-0.180538	-0.215537	0.2255	-0.0988866	0	0	-0.523599	0.124173	-0.121472	0.272393	-0.0994945	0	0	-1.31232	-0.0553865	-0.0934162	0	0	0	0	0	0	0	0	0	0	0	0	0	0
6.46874	-2.39905	0.123224	-0.0103127	-1.06821	-1.02153	0.229281	-0.523895	-0.178994	-0.219347	0.223986	-0.0974927	0	0	-0.523599	0.122652	-0.120493	0.271071	-0.0978611	0	0	-1.31298	-0.0540394	-0.0937221	0	0	0	0	0	0	0	0	0	0	0	0	0	0
6.47872	-2.4013	0.122892	-0.00971976	-1.06977	-1.02165	0.230103	-0.523967	-0.177552	-0.222726	0.2225	-0.0961972	0	0	-0.523599	0.121244	-0.119685	0.26975	-0.0962571	0	0	-1.31385	-0.0528363	-0.0939721	0	0	0	0	0	0	0	0	0	0	0	0	0	0
6.48871	-2.40349	0.122537	-0.00931194	-1.07125	-1.02175	0.230885	-0.523983	-0.17621	-0.225607	0.221069	-0.0949734	0	0	-0.523599	0.119942	-0.11907	0.268466	-0.0946637	0	0	-1.31469	-0.0517626	-0.0941488	0	0	0	0	0	0	0	0	0	0	0	0	0	0
6.4987	-2.40562	0.122175	-0.00904635	-1.0727	-1.02184	0.231626	-0.523963	-0.174963	-0.227955	0.219713	-0.0938004	0	0	-0.523599	0.118736	-0.11866	0.267246	-0.0930821	0	0	-1.31533	-0.050805	-0.0942467	0	0	0	0	0	0	0	0	0	0	0	0	0	0
6.50868	-2.40769	0.121818	-0.00889914	-1.07411	-1.02192	0.232327	-0.523921	-0.173807	-0.229763	0.21844	-0.0926595	0	0	-0.523599	0.117622	-0.118448	0.266107	-0.0915259	0	0	-1.31573	-0.0499591	-0.0942715	0	0	0	0	0	0	0	0	0	0	0	0	0	0
6.51867	-2.40968	0.121469	-0.00886319	-1.0755	-1.022	0.232994	-0.523868	-0.17274	-0.231062	0.21725	-0.0915376	0	0	-0.523599	0.116596	-0.118416	0.265061	-0.0900162	0	0	-1.31592	-0.0492269	-0.0942365	0	0	0	0	0	0	0	0	0	0	0	0	0	0
6.52865	-2.41158	0.121126	-0.00894274	-1.07685	-1.02208	0.233631	-0.523813	-0.171759	-0.231907	0.216138	-0.0904285	0	0	-0.523599	0.115658	-0.118533	0.264112	-0.0885762	0	0	-1.31602	-0.0486145	-0.0941599	0	0	0	0	0	0	0	0	0	0	0	0	0	0
6.53864	-2.41341	0.12081	-0.00907872	-1.07817	-1.02215	0.234243	-0.523761	-0.170847	-0.232345	0.215117	-0.0893288	0	0	-0.523599	0.114787	-0.118789	0.263259	-0.087193	0	0	-1.31586	-0.04811	-0.0940406	0	0	0	0	0	0	0	0	0	0	0	0	0	0
6.54862	-2.4152	0.120526	-0.00921232	-1.07949	-1.02223	0.234833	-0.523715	-0.169973	-0.232441	0.214191	-0.0882455	0	0	-0.523599	0.113951	-0.119172	0.262489	-0.0858579	0	0	-1.31529	-0.0476852	-0.0938809	0	0	0	0	0	0	0	0	0	0	0	0	0	0
6.55861	-2.41695	0.120266	-0.00929558	-1.08081	-1.0223	0.235402	-0.523676	-0.169105	-0.232271	0.213363	-0.0871878	0	0	-0.523599	0.113115	-0.119669	0.261796	-0.0845596	0	0	-1.31426	-0.0473063	-0.0936837	0	0	0	0	0	0	0	0	0	0	0	0	0	0
6.5686	-2.41867	0.120016	-0.00929981	-1.08213	-1.02237	0.235954	-0.523645	-0.16821	-0.231914	0.212635	-0.0861649	0	0	-0.523599	0.112245	-0.120267	0.261177	-0.0832869	0	0	-1.31276	-0.0469392	-0.0934515	0	0	0	0	0	0	0	0	0	0	0	0	0	0
6.57858	-2.42036	0.119752	-0.00921856	-1.08345	-1.02244	0.236492	-0.523622	-0.167266	-0.231445	0.212005	-0.0851858	0	0	-0.523599	0.111317	-0.120949	0.260631	-0.0820301	0	0	-1.31087	-0.0465567	-0.0931846	0	0	0	0	0	0	0	0	0	0	0	0	0	0
6.58857	-2.42199	0.119446	-0.00907564	-1.08476	-1.0225	0.237019	-0.523605	-0.166257	-0.230933	0.211462	-0.084258	0	0	-0.523599	0.110319	-0.121696	0.260163	-0.0807871	0	0	-1.30876	-0.0461423	-0.0928817	0	0	0	0	0	0	0	0	0	0	0	0	0	0
6.59855	-2.42353	0.119065	-0.00892906	-1.08602	-1.02257	0.23754	-0.523594	-0.165186	-0.230441	0.210989	-0.0833838	0	0	-0.523599	0.109256	-0.12248	0.25978	-0.0795666	0	0	-1.30673	-0.0456959	-0.0925413	0	0	0	0	0	0	0	0	0	0	0	0	0	0
6.60854	-2.42498	0.118599	-0.00880193	-1.08723	-1.02263	0.238057	-0.523587	-0.164059	-0.229991	0.210587	-0.0825593	0	0	-0.523599	0.108131	-0.123291	0.259491	-0.0783579	0	0	-1.30486	-0.0452207	-0.0921434	0	0	0	0	0	0	0	0	0	0	0	0	0	0
6.61852	-2.42635	0.118056	-0.00867387	-1.08841	-1.02268	0.238567	-0.523584	-0.162873	-0.229577	0.210265	-0.0817815	0	0	-0.523599	0.106942	-0.124135	0.259297	-0.0771372	0	0	-1.30303	-0.0447082	-0.0916543	0	0	0	0	0	0	0	0	0	0	0	0	0	0
6.62851	-2.42765	0.117426	-0.00855508	-1.08953	-1.02273	0.239068	-0.523583	-0.161627	-0.229197	0.210013	-0.0810513	0	0	-0.523599	0.105686	-0.125008	0.259194	-0.0759036	0	0	-1.30129	-0.0441537	-0.0910542	0	0	0	0	0	0	0	0	0	0	0	0	0	0
6.6385	-2.42884	0.116692	-0.00850186	-1.09059	-1.02278	0.239565	-0.523583	-0.160334	-0.228862	0.209809	-0.0803657	0	0	-0.523599	0.104382	-0.125892	0.259181	-0.0746726	0	0	-1.29988	-0.0435725	-0.0903375	0	0	0	0	0	0	0	0	0	0	0	0	0	0
6.64848	-2.42992	0.115855	-0.00854815	-1.09159	-1.02282	0.240057	-0.523585	-0.159015	-0.228556	0.20964	-0.0797146	0	0	-0.523599	0.103051	-0.126778	0.259257	-0.0734448	0	0	-1.29892	-0.0429868	-0.089491	0	0	0	0	0	0	0	0	0	0	0	0	0	0
6.65847	-2.43089	0.114926	-0.00869593	-1.09252	-1.02287	0.240543	-0.523587	-0.157683	-0.228249	0.209499	-0.0790868	0	0	-0.523599	0.101707	-0.127673	0.259412	-0.0722141	0	0	-1.29836	-0.0424086	-0.088497	0	0	0	0	0	0	0	0	0	0	0	0	0	0
6.66845	-2.43176	0.113917	-0.00893949	-1.09339	-1.02292	0.241022	-0.523589	-0.156348	-0.227912	0.209379	-0.0784752	0	0	-0.523599	0.100357	-0.128582	0.259633	-0.0709826	0	0	-1.29814	-0.0418459	-0.0873449	0	0	0	0	0	0	0	0	0	0	0	0	0	0
6.67844	-2.43255	0.112843	-0.00927012	-1.09422	-1.02296	0.241493	-0.523592	-0.155017	-0.22752	0.209274	-0.0778761	0	0	-0.523599	0.0990103	-0.129511	0.259912	-0.0697557	0	0	-1.29821	-0.0413079	-0.0860322	0	0	0	0	0	0	0	0	0	0	0	0	0	0
6.68843	-2.43326	0.111719	-0.00967823	-1.09501	-1.02301	0.241956	-0.523593	-0.153697	-0.227055	0.209177	-0.0772886	0	0	-0.523599	0.0976732	-0.130467	0.260234	-0.0685402	0	0	-1.29849	-0.0408055	-0.0845641	0	0	0	0	0	0	0	0	0	0	0	0	0	0
6.69841	-2.43391	0.11056	-0.0101533	-1.09576	-1.02305	0.24241	-0.523595	-0.152392	-0.226504	0.209082	-0.0767127	0	0	-0.523599	0.0963525	-0.131456	0.260588	-0.0673444	0	0	-1.29893	-0.0403505	-0.0829515	0	0	0	0	0	0	0	0	0	0	0	0	0	0
6.7084	-2.43451	0.109383	-0.0106828	-1.09647	-1.02309	0.242856	-0.523596	-0.151106	-0.225863	0.208986	-0.0761489	0	0	-0.523599	0.0950535	-0.132481	0.26096	-0.0661772	0	0	-1.29949	-0.0399527	-0.0812108	0	0	0	0	0	0	0	0	0	0	0	0	0	0
6.71838	-2.43507	0.108205	-0.0112524	-1.09716	-1.02313	0.243295	-0.523596	-0.149844	-0.225133	0.208886	-0.0755977	0	0	-0.523599	0.0937803	-0.133539	0.26134	-0.0650486	0	0	-1.3001	-0.0396202	-0.0793641	0	0	0	0	0	0	0	0	0	0	0	0	0	0
6.72837	-2.43559	0.107042	-0.0118449	-1.09781	-1.02317	0.243731	-0.523597	-0.148608	-0.22433	0.208781	-0.0750596	0	0	-0.523599	0.0925362	-0.134624	0.261717	-0.0639679	0	0	-1.30075	-0.0393577	-0.0774379	0	0	0	0	0	0	0	0	0	0	0	0	0	0
6.73835	-2.43609	0.105914	-0.0124415	-1.09844	-1.02321	0.244165	-0.523596	-0.147401	-0.223471	0.208668	-0.0745347	0	0	-0.523599	0.091324	-0.13572	0.262079	-0.0629432	0	0	-1.30141	-0.0391666	-0.0754627	0	0	0	0	0	0	0	0	0	0	0	0	0	0
6.74834	-2.43657	0.104837	-0.0130235	-1.09904	-1.02324	0.2446	-0.523596	-0.146226	-0.222581	0.208548	-0.0740232	0	0	-0.523599	0.0901476	-0.136813	0.262416	-0.0619799	0	0	-1.30204	-0.0390464	-0.073472	0	0	0	0	0	0	0	0	0	0	0	0	0	0
6.75833	-2.43703	0.103832	-0.0135718	-1.09962	-1.02328	0.245036	-0.523596	-0.145091	-0.22169	0.20842	-0.0735257	0	0	-0.523599	0.0890137	-0.137878	0.262719	-0.0610815	0	0	-1.30265	-0.0389944	-0.071502	0	0	0	0	0	0	0	0	0	0	0	0	0	0
6.76831	-2.43749	0.102923	-0.0140662	-1.10018	-1.02332	0.245475	-0.523595	-0.144007	-0.220833	0.208286	-0.0730411	0	0	-0.523599	0.0879338	-0.138886	0.262978	-0.0602506	0	0	-1.30321	-0.039005	-0.0695914	0	0	0	0	0	0	0	0	0	0	0	0	0	0
6.7783	-2.43795	0.102139	-0.0144827	-1.10071	-1.02335	0.245914	-0.523595	-0.142992	-0.220058	0.208151	-0.0725645	0	0	-0.523599	0.0869258	-0.139794	0.263183	-0.0594907	0	0	-1.30372	-0.0390681	-0.0677839	0	0	0	0	0	0	0	0	0	0	0	0	0	0
6.78828	-2.43841	0.101519	-0.0147918	-1.10122	-1.02338	0.246348	-0.523595	-0.142076	-0.219427	0.208027	-0.0720874	0	0	-0.523599	0.0860171	-0.140544	0.263324	-0.0588072	0	0	-1.30418	-0.0391685	-0.0661299	0	0	0	0	0	0	0	0	0	0	0	0	0	0
6.79827	-2.43889	0.101109	-0.0149578	-1.10171	-1.02342	0.246771	-0.523595	-0.141297	-0.219014	0.20793	-0.0715988	0	0	-0.523599	0.0852444	-0.14106	0.263389	-0.0582084	0	0	-1.30459	-0.0392848	-0.0646877	0	0	0	0	0	0	0	0	0	0	0	0	0	0
6.80826	-2.43937	0.100959	-0.0149418	-1.10218	-1.02345	0.247175	-0.523595	-0.140693	-0.218898	0.207876	-0.0710886	0	0	-0.523599	0.0846443	-0.141261	0.263365	-0.0577031	0	0	-1.30493	-0.0393901	-0.0635196	0	0	0	0	0	0	0	0	0	0	0	0	0	0
6.81824	-2.43987	0.101094	-0.0147148	-1.10262	-1.02348	0.247553	-0.523595	-0.140281	-0.219136	0.207876	-0.0705518	0	0	-0.523599	0.0842337	-0.141092	0.263244	-0.0572972	0	0	-1.30523	-0.0394582	-0.0626792	0	0	0	0	0	0	0	0	0	0	0	0	0	0
6.82823	-2.44039	0.101498	-0.014277	-1.10305	-1.02351	0.24791	-0.523595	-0.140044	-0.219735	0.207926	-0.0699916	0	0	-0.523599	0.0839948	-0.140558	0.263026	-0.0569876	0	0	-1.30548	-0.0394789	-0.0621935	0	0	0	0	0	0	0	0	0	0	0	0	0	0
6.83821	-2.44093	0.102123	-0.0136523	-1.10345	-1.02354	0.248252	-0.523595	-0.139939	-0.220651	0.208012	-0.069419	0	0	-0.523599	0.0838853	-0.139716	0.262719	-0.0567636	0	0	-1.30569	-0.0394532	-0.0620547	0	0	0	0	0	0	0	0	0	0	0	0	0	0
6.8482	-2.44148	0.102907	-0.012877	-1.10384	-1.02357	0.248585	-0.523595	-0.139915	-0.221813	0.208116	-0.0688486	0	0	-0.523599	0.0838573	-0.138647	0.262335	-0.0566117	0	0	-1.30586	-0.0393871	-0.0622261	0	0	0	0	0	0	0	0	0	0	0	0	0	0
6.85818	-2.44203	0.103792	-0.0119908	-1.1042	-1.02361	0.248914	-0.523596	-0.139929	-0.223141	0.208222	-0.0682936	0	0	-0.523599	0.0838692	-0.137431	0.26189	-0.0565177	0	0	-1.30601	-0.0392885	-0.0626539	0	0	0	0	0	0	0	0	0	0	0	0	0	0
6.86817	-2.44258	0.104727	-0.0110315	-1.10453	-1.02364	0.24924	-0.523596	-0.13995	-0.224565	0.20832	-0.0677645	0	0	-0.523599	0.0838897	-0.136138	0.261402	-0.0564678	0	0	-1.30614	-0.0391659	-0.063278	0	0	0	0	0	0	0	0	0	0	0	0	0	0
6.87816	-2.44312	0.105672	-0.0100324	-1.10485	-1.02367	0.249563	-0.523597	-0.139955	-0.226025	0.2084	-0.0672688	0	0	-0.523599	0.0838976	-0.134824	0.260884	-0.0564498	0	0	-1.30626	-0.0390265	-0.06404	0	0	0	0	0	0	0	0	0	0	0	0	0	0
6.88814	-2.44366	0.106595	-0.00902201	-1.10514	-1.0237	0.249883	-0.523597	-0.139932	-0.227473	0.208458	-0.0668115	0	0	-0.523599	0.0838806	-0.133528	0.260352	-0.056453	0	0	-1.30637	-0.0388763	-0.0648881	0	0	0	0	0	0	0	0	0	0	0	0	0	0
6.89813	-2.44418	0.107477	-0.00802409	-1.10542	-1.02373	0.250196	-0.523598	-0.139875	-0.228875	0.208492	-0.0663957	0	0	-0.523599	0.0838334	-0.132278	0.259817	-0.0564679	0	0	-1.30648	-0.0387197	-0.0657788	0	0	0	0	0	0	0	0	0	0	0	0	0	0
6.90811	-2.44468	0.1083	-0.0070587	-1.10568	-1.02376	0.250501	-0.523598	-0.139784	-0.230205	0.208501	-0.0660224	0	0	-0.523599	0.083756	-0.131093	0.25929	-0.0564865	0	0	-1.30659	-0.0385609	-0.0666781	0	0	0	0	0	0	0	0	0	0	0	0	0	0
6.9181	-2.44516	0.109057	-0.00614196	-1.10593	-1.02379	0.250796	-0.523598	-0.139663	-0.231444	0.208484	-0.0656902	0	0	-0.523599	0.0836519	-0.129986	0.258778	-0.0565025	0	0	-1.30669	-0.0384038	-0.0675615	0	0	0	0	0	0	0	0	0	0	0	0	0	0
6.92809	-2.44561	0.109743	-0.00528628	-1.10616	-1.02381	0.251078	-0.523597	-0.139516	-0.232583	0.208442	-0.0653956	0	0	-0.523599	0.0835263	-0.128969	0.258286	-0.0565119	0	0	-1.30679	-0.0382521	-0.0684132	0	0	0	0	0	0	0	0	0	0	0	0	0	0
6.93807	-2.44605	0.110356	-0.00449965	-1.10638	-1.02384	0.251346	-0.523597	-0.139352	-0.233618	0.208381	-0.0651341	0	0	-0.523599	0.0833849	-0.128045	0.257821	-0.0565129	0	0	-1.30689	-0.0381092	-0.069225	0	0	0	0	0	0	0	0	0	0	0	0	0	0
6.94806	-2.44645	0.110898	-0.00378524	-1.10658	-1.02387	0.251599	-0.523597	-0.139177	-0.234551	0.208305	-0.0649008	0	0	-0.523599	0.083233	-0.127211	0.257387	-0.0565057	0	0	-1.307	-0.0379767	-0.069995	0	0	0	0	0	0	0	0	0	0	0	0	0	0
6.95804	-2.44684	0.111373	-0.00314135	-1.10678	-1.0239	0.251836	-0.523597	-0.138995	-0.235391	0.20822	-0.0646906	0	0	-0.523599	0.0830743	-0.126461	0.25699	-0.0564907	0	0	-1.3071	-0.0378541	-0.0707262	0	0	0	0	0	0	0	0	0	0	0	0	0	0
6.96803	-2.44719	0.111788	-0.00256207	-1.10698	-1.02392	0.252057	-0.523597	-0.138812	-0.236149	0.208133	-0.0644986	0	0	-0.523599	0.0829113	-0.125786	0.256629	-0.056468	0	0	-1.30722	-0.0377389	-0.0714246	0	0	0	0	0	0	0	0	0	0	0	0	0	0
6.97801	-2.44752	0.112149	-0.00203888	-1.10716	-1.02395	0.252263	-0.523597	-0.138628	-0.236841	0.208048	-0.0643202	0	0	-0.523599	0.0827462	-0.125174	0.256303	-0.0564377	0	0	-1.30733	-0.0376286	-0.0720971	0	0	0	0	0	0	0	0	0	0	0	0	0	0
6.988	-2.44784	0.112465	-0.00156158	-1.10734	-1.02397	0.252454	-0.523597	-0.138447	-0.237481	0.207967	-0.0641518	0	0	-0.523599	0.0825809	-0.124612	0.256005	-0.0564002	0	0	-1.30746	-0.0375207	-0.0727504	0	0	0	0	0	0	0	0	0	0	0	0	0	0
6.99799	-2.44813	0.112747	-0.00111976	-1.10751	-1.02399	0.252633	-0.523597	-0.138268	-0.238085	0.20789	-0.0639917	0	0	-0.523599	0.0824168	-0.12409	0.25573	-0.0563568	0	0	-1.30758	-0.0374141	-0.0733911	0	0	0	0	0	0	0	0	0	0	0	0	0	0
7.00797	-2.44842	0.113003	-0.000704562	-1.10768	-1.02401	0.252801	-0.523597	-0.138092	-0.238662	0.207816	-0.0638388	0	0	-0.523599	0.0822554	-0.123596	0.255471	-0.0563097	0	0	-1.30771	-0.0373084	-0.0740248	0	0	0	0	0	0	0	0	0	0	0	0	0	0
7.01796	-2.44869	0.113242	-0.000307697	-1.10785	-1.02403	0.252962	-0.523597	-0.137918	-0.239224	0.207743	-0.0636916	0	0	-0.523599	0.0820968	-0.123118	0.255223	-0.0562609	0	0	-1.30783	-0.037204	-0.0746554	0	0	0	0	0	0	0	0	0	0	0	0	0	0
7.02794	-2.44897	0.113471	7.87855e-05	-1.10802	-1.02405	0.253118	-0.523598	-0.137747	-0.239776	0.20767	-0.0635475	0	0	-0.523599	0.0819402	-0.12265	0.254981	-0.0562115	0	0	-1.30796	-0.0371002	-0.0752848	0	0	0	0	0	0	0	0	0	0	0	0	0	0
7.03793	-2.44924	0.113697	0.00046126	-1.10819	-1.02407	0.253273	-0.523598	-0.137577	-0.240324	0.207598	-0.0634042	0	0	-0.523599	0.0817843	-0.122185	0.254741	-0.0561619	0	0	-1.30809	-0.0369964	-0.0759138	0	0	0	0	0	0	0	0	0	0	0	0	0	0
