Coordinates
version=1
nRows=228
nColumns=38
inDegrees=no

Units are S.I. units (second, meters, Newtons, ...)
If the header above contains a line with 'inDegrees', this indicates whether rotational values are in degrees (yes) or radians (no).

endheader
time	pelvis_tilt	pelvis_list	pelvis_rotation	pelvis_tx	pelvis_ty	pelvis_tz	hip_flexion_r	hip_adduction_r	hip_rotation_r	knee_angle_r	ankle_angle_r	subtalar_angle_r	mtp_angle_r	hip_flexion_l	hip_adduction_l	hip_rotation_l	knee_angle_l	ankle_angle_l	subtalar_angle_l	mtp_angle_l	lumbar_extension	lumbar_bending	lumbar_rotation	arm_flex_r	arm_add_r	arm_rot_r	elbow_flex_r	pro_sup_r	wrist_flex_r	wrist_dev_r	arm_flex_l	arm_add_l	arm_rot_l	elbow_flex_l	pro_sup_l	wrist_flex_l	wrist_dev_l
0	2.34504	-0.074588	3.09577	-2.63302	-1.06405	0.253367	-0.523599	-0.136565	-0.198036	0.319904	-0.0390262	0	0	-0.523599	-0.0442688	-0.14442	0.31449	-0.0975674	0	0	-1.44879	-0.142933	0.033871	0	0	0	0	0	0	0	0	0	0	0	0	0	0
0.00998615	2.34514	-0.0748399	3.09572	-2.63289	-1.06399	0.25355	-0.523599	-0.137146	-0.198654	0.320033	-0.0384316	0	0	-0.523599	-0.0437744	-0.144192	0.314552	-0.0970496	0	0	-1.44812	-0.14544	0.047847	0	0	0	0	0	0	0	0	0	0	0	0	0	0
0.0199723	2.34525	-0.0751853	3.09565	-2.63275	-1.06393	0.253733	-0.523599	-0.137828	-0.1993	0.320151	-0.0378009	0	0	-0.523599	-0.0431707	-0.143892	0.314578	-0.0965543	0	0	-1.44742	-0.147893	0.0611458	0	0	0	0	0	0	0	0	0	0	0	0	0	0
0.0299584	2.3454	-0.0757335	3.09557	-2.63259	-1.06387	0.253917	-0.523599	-0.138722	-0.200051	0.320258	-0.0370949	0	0	-0.523599	-0.0423386	-0.143405	0.314513	-0.096103	0	0	-1.44663	-0.150223	0.0730604	0	0	0	0	0	0	0	0	0	0	0	0	0	0
0.0399446	2.3456	-0.0765613	3.09547	-2.63242	-1.0638	0.254102	-0.523599	-0.139902	-0.20099	0.320358	-0.0362972	0	0	-0.523599	-0.0411995	-0.14262	0.314313	-0.0957149	0	0	-1.44571	-0.152362	0.0830846	0	0	0	0	0	0	0	0	0	0	0	0	0	0
0.0499307	2.34585	-0.0776878	3.0954	-2.63221	-1.06374	0.254291	-0.523599	-0.141372	-0.202155	0.320453	-0.0354171	0	0	-0.523599	-0.0397439	-0.141486	0.313951	-0.0954	0	0	-1.44466	-0.154255	0.090976	0	0	0	0	0	0	0	0	0	0	0	0	0	0
0.0599169	2.34617	-0.0790475	3.09537	-2.63198	-1.06368	0.254482	-0.523599	-0.143051	-0.203508	0.320527	-0.0344938	0	0	-0.523599	-0.0380498	-0.140044	0.313427	-0.0951599	0	0	-1.44346	-0.155863	0.096745	0	0	0	0	0	0	0	0	0	0	0	0	0	0
0.069903	2.34653	-0.0804657	3.09538	-2.63174	-1.06362	0.254668	-0.523599	-0.144744	-0.204895	0.32054	-0.0336113	0	0	-0.523599	-0.0363107	-0.138467	0.312781	-0.0949919	0	0	-1.44217	-0.157146	0.100622	0	0	0	0	0	0	0	0	0	0	0	0	0	0
0.0798892	2.34693	-0.0818005	3.09542	-2.63151	-1.06358	0.254842	-0.523599	-0.146303	-0.206168	0.320471	-0.0328341	0	0	-0.523599	-0.034674	-0.136927	0.31207	-0.0948852	0	0	-1.44087	-0.158111	0.102944	0	0	0	0	0	0	0	0	0	0	0	0	0	0
0.0898753	2.34733	-0.0829641	3.09545	-2.6313	-1.06356	0.255002	-0.523599	-0.147645	-0.20722	0.320317	-0.0322041	0	0	-0.523599	-0.03323	-0.135549	0.311348	-0.0948291	0	0	-1.43962	-0.158793	0.104076	0	0	0	0	0	0	0	0	0	0	0	0	0	0
0.0998615	2.34772	-0.0839097	3.09545	-2.63111	-1.06355	0.25515	-0.523599	-0.148733	-0.207993	0.320099	-0.0317539	0	0	-0.523599	-0.0320208	-0.134399	0.310669	-0.0948218	0	0	-1.43854	-0.159239	0.104347	0	0	0	0	0	0	0	0	0	0	0	0	0	0
0.109848	2.34808	-0.0846336	3.09542	-2.63094	-1.06355	0.255285	-0.523599	-0.149565	-0.208469	0.319814	-0.0314659	0	0	-0.523599	-0.0310494	-0.133511	0.310037	-0.094838	0	0	-1.43758	-0.159503	0.104054	0	0	0	0	0	0	0	0	0	0	0	0	0	0
0.119834	2.34843	-0.0851521	3.09537	-2.6308	-1.06356	0.25541	-0.523599	-0.150159	-0.208655	0.319473	-0.0313281	0	0	-0.523599	-0.030298	-0.132873	0.309456	-0.0948693	0	0	-1.43674	-0.159633	0.103426	0	0	0	0	0	0	0	0	0	0	0	0	0	0
0.12982	2.34875	-0.0854917	3.09528	-2.63068	-1.06358	0.255528	-0.523599	-0.150548	-0.208576	0.319104	-0.0313343	0	0	-0.523599	-0.0297365	-0.132455	0.308943	-0.0949163	0	0	-1.43606	-0.159668	0.10263	0	0	0	0	0	0	0	0	0	0	0	0	0	0
0.139806	2.34905	-0.0856906	3.09516	-2.63058	-1.06361	0.255641	-0.523599	-0.150768	-0.208262	0.318714	-0.0314504	0	0	-0.523599	-0.0293279	-0.132224	0.308475	-0.0949592	0	0	-1.43545	-0.159643	0.101795	0	0	0	0	0	0	0	0	0	0	0	0	0	0
0.149792	2.34935	-0.0857795	3.09503	-2.63049	-1.06364	0.255746	-0.523599	-0.150855	-0.207744	0.31832	-0.0316629	0	0	-0.523599	-0.0290362	-0.132139	0.308045	-0.0949963	0	0	-1.43487	-0.159584	0.101	0	0	0	0	0	0	0	0	0	0	0	0	0	0
0.159778	2.34961	-0.0857838	3.09489	-2.63041	-1.06367	0.255844	-0.523599	-0.150843	-0.207054	0.317951	-0.0319711	0	0	-0.523599	-0.0288311	-0.13216	0.307668	-0.0950335	0	0	-1.43439	-0.159508	0.100284	0	0	0	0	0	0	0	0	0	0	0	0	0	0
0.169765	2.34981	-0.0857155	3.09471	-2.63036	-1.0637	0.255931	-0.523599	-0.150765	-0.206227	0.317649	-0.0323961	0	0	-0.523599	-0.0286866	-0.132245	0.307391	-0.0950931	0	0	-1.4342	-0.159427	0.0996497	0	0	0	0	0	0	0	0	0	0	0	0	0	0
0.179751	2.34992	-0.0855887	3.09448	-2.63035	-1.06373	0.256007	-0.523599	-0.150655	-0.205304	0.317436	-0.0329314	0	0	-0.523599	-0.02858	-0.132367	0.307238	-0.0951788	0	0	-1.43436	-0.15935	0.0990943	0	0	0	0	0	0	0	0	0	0	0	0	0	0
0.189737	2.34995	-0.0854204	3.09422	-2.63037	-1.06376	0.256073	-0.523599	-0.150537	-0.204339	0.317302	-0.0335385	0	0	-0.523599	-0.0284934	-0.132514	0.307198	-0.0952801	0	0	-1.43485	-0.159283	0.0986175	0	0	0	0	0	0	0	0	0	0	0	0	0	0
0.199723	2.34993	-0.0852296	3.09394	-2.6304	-1.06379	0.256131	-0.523599	-0.150432	-0.203398	0.317216	-0.0341543	0	0	-0.523599	-0.0284146	-0.132682	0.307235	-0.0953764	0	0	-1.43548	-0.159231	0.0982241	0	0	0	0	0	0	0	0	0	0	0	0	0	0
0.209709	2.34987	-0.085026	3.09365	-2.63045	-1.06382	0.256182	-0.523599	-0.150354	-0.202534	0.317162	-0.0347462	0	0	-0.523599	-0.0283377	-0.132859	0.307331	-0.0954682	0	0	-1.43622	-0.159189	0.0979041	0	0	0	0	0	0	0	0	0	0	0	0	0	0
0.219695	2.34977	-0.0848122	3.09334	-2.63051	-1.06385	0.25623	-0.523599	-0.150309	-0.201776	0.317148	-0.035311	0	0	-0.523599	-0.0282607	-0.133032	0.307499	-0.0955683	0	0	-1.43711	-0.15915	0.0976369	0	0	0	0	0	0	0	0	0	0	0	0	0	0
0.229681	2.34965	-0.084597	3.09304	-2.63058	-1.06387	0.256277	-0.523599	-0.150298	-0.201132	0.317159	-0.0358252	0	0	-0.523599	-0.0281811	-0.133198	0.307715	-0.0956656	0	0	-1.43806	-0.159112	0.0974165	0	0	0	0	0	0	0	0	0	0	0	0	0	0
0.239668	2.3495	-0.0843831	3.09273	-2.63065	-1.06389	0.256323	-0.523599	-0.150317	-0.200597	0.317193	-0.0362868	0	0	-0.523599	-0.0280996	-0.133352	0.307972	-0.0957623	0	0	-1.43904	-0.15907	0.0972304	0	0	0	0	0	0	0	0	0	0	0	0	0	0
0.249654	2.34936	-0.0841826	3.09245	-2.63071	-1.06391	0.256372	-0.523599	-0.15036	-0.200158	0.317223	-0.0366635	0	0	-0.523599	-0.0280151	-0.133503	0.308224	-0.0958332	0	0	-1.4399	-0.159025	0.0970843	0	0	0	0	0	0	0	0	0	0	0	0	0	0
0.25964	2.34927	-0.0840039	3.0922	-2.63074	-1.06392	0.256425	-0.523599	-0.150417	-0.199797	0.317226	-0.0369342	0	0	-0.523599	-0.027928	-0.133656	0.308433	-0.0958625	0	0	-1.44047	-0.158976	0.0969829	0	0	0	0	0	0	0	0	0	0	0	0	0	0
0.269626	2.34924	-0.0838521	3.092	-2.63074	-1.06393	0.256483	-0.523599	-0.150479	-0.199496	0.317188	-0.0370897	0	0	-0.523599	-0.02784	-0.133816	0.308573	-0.0958414	0	0	-1.44069	-0.158922	0.0969274	0	0	0	0	0	0	0	0	0	0	0	0	0	0
0.279612	2.34928	-0.0837277	3.09184	-2.6307	-1.06393	0.256546	-0.523599	-0.15054	-0.199235	0.317101	-0.0371293	0	0	-0.523599	-0.0277527	-0.133984	0.308631	-0.0957657	0	0	-1.44052	-0.158861	0.096917	0	0	0	0	0	0	0	0	0	0	0	0	0	0
0.289598	2.3494	-0.0836291	3.09173	-2.63063	-1.06393	0.256614	-0.523599	-0.150594	-0.198997	0.316966	-0.0370614	0	0	-0.523599	-0.0276688	-0.134162	0.308607	-0.0956369	0	0	-1.43999	-0.158792	0.0969475	0	0	0	0	0	0	0	0	0	0	0	0	0	0
0.299584	2.34957	-0.0835528	3.09166	-2.63052	-1.06393	0.256688	-0.523599	-0.150636	-0.198767	0.316789	-0.0368995	0	0	-0.523599	-0.0275902	-0.134352	0.308509	-0.0954593	0	0	-1.43914	-0.158713	0.0970142	0	0	0	0	0	0	0	0	0	0	0	0	0	0
0.309571	2.3498	-0.083494	3.09162	-2.6304	-1.06392	0.256765	-0.523599	-0.150665	-0.198531	0.316583	-0.0366625	0	0	-0.523599	-0.0275187	-0.134552	0.308351	-0.0952411	0	0	-1.43805	-0.158623	0.0971099	0	0	0	0	0	0	0	0	0	0	0	0	0	0
0.319557	2.35005	-0.0834467	3.0916	-2.63026	-1.06391	0.256844	-0.523599	-0.150681	-0.198282	0.316364	-0.0363767	0	0	-0.523599	-0.027456	-0.134758	0.308161	-0.0949958	0	0	-1.43681	-0.158523	0.097225	0	0	0	0	0	0	0	0	0	0	0	0	0	0
0.329543	2.3503	-0.0834029	3.09159	-2.63012	-1.0639	0.256923	-0.523599	-0.150688	-0.198015	0.316161	-0.0360775	0	0	-0.523599	-0.027404	-0.134965	0.307976	-0.0947447	0	0	-1.43558	-0.158412	0.0973451	0	0	0	0	0	0	0	0	0	0	0	0	0	0
0.339529	2.3505	-0.0833518	3.09157	-2.63	-1.06389	0.257001	-0.523599	-0.150689	-0.197727	0.316011	-0.0358119	0	0	-0.523599	-0.0273648	-0.135161	0.307848	-0.094518	0	0	-1.43457	-0.158286	0.0974505	0	0	0	0	0	0	0	0	0	0	0	0	0	0
0.349515	2.35064	-0.0832913	3.09152	-2.62991	-1.06388	0.257077	-0.523599	-0.150689	-0.197418	0.315924	-0.0355949	0	0	-0.523599	-0.0273381	-0.135348	0.307789	-0.0943227	0	0	-1.43382	-0.15815	0.0975359	0	0	0	0	0	0	0	0	0	0	0	0	0	0
0.359501	2.35075	-0.0832279	3.09147	-2.62984	-1.06387	0.257149	-0.523599	-0.150682	-0.197091	0.315875	-0.0354095	0	0	-0.523599	-0.0273236	-0.13553	0.307764	-0.0941448	0	0	-1.43322	-0.158007	0.0976107	0	0	0	0	0	0	0	0	0	0	0	0	0	0
0.369488	2.35084	-0.0831607	3.09142	-2.62977	-1.06386	0.257214	-0.523599	-0.150665	-0.196752	0.315853	-0.0352572	0	0	-0.523599	-0.027323	-0.135705	0.307753	-0.0939883	0	0	-1.43274	-0.157855	0.0976766	0	0	0	0	0	0	0	0	0	0	0	0	0	0
0.379474	2.35089	-0.0830813	3.09136	-2.62974	-1.06386	0.25727	-0.523599	-0.150635	-0.196406	0.315862	-0.0351602	0	0	-0.523599	-0.0273406	-0.135864	0.307773	-0.0938719	0	0	-1.43249	-0.157692	0.0977223	0	0	0	0	0	0	0	0	0	0	0	0	0	0
0.38946	2.3509	-0.0829896	3.09129	-2.62972	-1.06385	0.257316	-0.523599	-0.150589	-0.196064	0.315896	-0.035119	0	0	-0.523599	-0.0273796	-0.136003	0.307816	-0.0937954	0	0	-1.43247	-0.157516	0.0977454	0	0	0	0	0	0	0	0	0	0	0	0	0	0
0.399446	2.35087	-0.0828784	3.09122	-2.62974	-1.06385	0.257351	-0.523599	-0.150526	-0.195738	0.315962	-0.0351514	0	0	-0.523599	-0.0274426	-0.136109	0.307902	-0.0937752	0	0	-1.4328	-0.157328	0.0977328	0	0	0	0	0	0	0	0	0	0	0	0	0	0
0.409432	2.35079	-0.0827508	3.09113	-2.62978	-1.06386	0.257373	-0.523599	-0.150446	-0.19544	0.316047	-0.035247	0	0	-0.523599	-0.0275296	-0.13618	0.308023	-0.0938052	0	0	-1.43346	-0.15713	0.0976811	0	0	0	0	0	0	0	0	0	0	0	0	0	0
0.419418	2.35065	-0.0826068	3.09104	-2.62985	-1.06386	0.257381	-0.523599	-0.150349	-0.195179	0.316151	-0.0354081	0	0	-0.523599	-0.0276413	-0.136206	0.308182	-0.0938882	0	0	-1.43447	-0.156922	0.0975854	0	0	0	0	0	0	0	0	0	0	0	0	0	0
0.429404	2.3505	-0.0824525	3.09095	-2.62994	-1.06387	0.257372	-0.523599	-0.150234	-0.194959	0.316258	-0.0356117	0	0	-0.523599	-0.0277783	-0.136193	0.308357	-0.0940057	0	0	-1.43572	-0.156704	0.0974548	0	0	0	0	0	0	0	0	0	0	0	0	0	0
0.439391	2.35037	-0.0823011	3.0909	-2.63002	-1.06388	0.257345	-0.523599	-0.150093	-0.194783	0.316331	-0.035808	0	0	-0.523599	-0.0279417	-0.136152	0.308486	-0.0941205	0	0	-1.43695	-0.156479	0.0973137	0	0	0	0	0	0	0	0	0	0	0	0	0	0
0.449377	2.3503	-0.0821594	3.09091	-2.63008	-1.0639	0.2573	-0.523599	-0.149919	-0.194643	0.316346	-0.0359677	0	0	-0.523599	-0.0281349	-0.13609	0.308532	-0.0942148	0	0	-1.438	-0.156242	0.0971775	0	0	0	0	0	0	0	0	0	0	0	0	0	0
0.459363	2.35029	-0.0820322	3.09098	-2.6301	-1.06392	0.257239	-0.523599	-0.149707	-0.194533	0.316304	-0.0360757	0	0	-0.523599	-0.028361	-0.136007	0.308487	-0.0942819	0	0	-1.43883	-0.155994	0.0970534	0	0	0	0	0	0	0	0	0	0	0	0	0	0
0.469349	2.35034	-0.0819207	3.09112	-2.6301	-1.06394	0.257168	-0.523599	-0.149459	-0.19444	0.31622	-0.0361322	0	0	-0.523599	-0.0286203	-0.135899	0.308369	-0.0943274	0	0	-1.43949	-0.155733	0.0969374	0	0	0	0	0	0	0	0	0	0	0	0	0	0
0.479335	2.35042	-0.0818231	3.0913	-2.63008	-1.06397	0.257086	-0.523599	-0.149185	-0.194351	0.31613	-0.0361463	0	0	-0.523599	-0.0289083	-0.135758	0.308222	-0.0943638	0	0	-1.44011	-0.15546	0.0968171	0	0	0	0	0	0	0	0	0	0	0	0	0	0
0.489321	2.35052	-0.0817497	3.09152	-2.63005	-1.064	0.256997	-0.523599	-0.148894	-0.194248	0.316049	-0.0360945	0	0	-0.523599	-0.029217	-0.135589	0.308056	-0.094379	0	0	-1.44067	-0.155183	0.0966935	0	0	0	0	0	0	0	0	0	0	0	0	0	0
0.499307	2.35062	-0.0817063	3.09178	-2.62999	-1.06404	0.256901	-0.523599	-0.148596	-0.194112	0.315999	-0.0359631	0	0	-0.523599	-0.0295366	-0.135392	0.307896	-0.094372	0	0	-1.44121	-0.154907	0.0965624	0	0	0	0	0	0	0	0	0	0	0	0	0	0
0.509294	2.35071	-0.0816938	3.09206	-2.62992	-1.06409	0.256795	-0.523599	-0.148307	-0.193923	0.316012	-0.0357474	0	0	-0.523599	-0.0298566	-0.135162	0.307784	-0.0943461	0	0	-1.44182	-0.154634	0.0964149	0	0	0	0	0	0	0	0	0	0	0	0	0	0
0.51928	2.3508	-0.0817226	3.09235	-2.62983	-1.06414	0.256678	-0.523599	-0.148035	-0.19366	0.316088	-0.0354094	0	0	-0.523599	-0.0301647	-0.134906	0.307714	-0.094277	0	0	-1.44244	-0.154371	0.0962595	0	0	0	0	0	0	0	0	0	0	0	0	0	0
0.529266	2.35089	-0.0817978	3.09267	-2.62972	-1.0642	0.25655	-0.523599	-0.147787	-0.193306	0.316231	-0.0349283	0	0	-0.523599	-0.0304534	-0.134624	0.307691	-0.0941527	0	0	-1.44303	-0.154121	0.0961011	0	0	0	0	0	0	0	0	0	0	0	0	0	0
0.539252	2.35097	-0.0819197	3.09298	-2.62957	-1.06426	0.256415	-0.523599	-0.147563	-0.192847	0.316447	-0.034302	0	0	-0.523599	-0.0307202	-0.134319	0.307729	-0.0939681	0	0	-1.44362	-0.153885	0.0959407	0	0	0	0	0	0	0	0	0	0	0	0	0	0
0.549238	2.35104	-0.0820804	3.09329	-2.62941	-1.06433	0.256273	-0.523599	-0.147363	-0.192272	0.316747	-0.0335472	0	0	-0.523599	-0.0309658	-0.133989	0.307849	-0.0937246	0	0	-1.44428	-0.153667	0.0957767	0	0	0	0	0	0	0	0	0	0	0	0	0	0
0.559224	2.35107	-0.0822655	3.09357	-2.62923	-1.0644	0.25612	-0.523599	-0.147183	-0.191573	0.317145	-0.0326963	0	0	-0.523598	-0.0311944	-0.133641	0.30808	-0.0934275	0	0	-1.44509	-0.15347	0.0956089	0	0	0	0	0	0	0	0	0	0	0	0	0	0
0.569211	2.35109	-0.0824665	3.09382	-2.62902	-1.06448	0.255952	-0.523599	-0.147011	-0.190747	0.317615	-0.0317537	0	0	-0.523598	-0.031413	-0.133291	0.308395	-0.0930541	0	0	-1.44592	-0.153295	0.0954573	0	0	0	0	0	0	0	0	0	0	0	0	0	0
0.579197	2.35112	-0.0826698	3.09405	-2.62878	-1.06456	0.255767	-0.523599	-0.146829	-0.189797	0.318133	-0.0307334	0	0	-0.523598	-0.0316331	-0.132953	0.308771	-0.0925948	0	0	-1.44671	-0.153144	0.0953389	0	0	0	0	0	0	0	0	0	0	0	0	0	0
0.589183	2.35119	-0.0828609	3.09425	-2.6285	-1.06464	0.255563	-0.523599	-0.146622	-0.188733	0.318676	-0.0296514	0	0	-0.523599	-0.0318678	-0.132636	0.309189	-0.0920459	0	0	-1.44743	-0.153013	0.0952674	0	0	0	0	0	0	0	0	0	0	0	0	0	0
0.599169	2.35129	-0.0830278	3.09442	-2.62817	-1.06473	0.255343	-0.523599	-0.146373	-0.18757	0.319226	-0.0285247	0	0	-0.523599	-0.0321294	-0.132348	0.309637	-0.0914086	0	0	-1.44807	-0.152901	0.0952515	0	0	0	0	0	0	0	0	0	0	0	0	0	0
0.609155	2.35143	-0.0831629	3.09456	-2.62781	-1.06481	0.255106	-0.523599	-0.146075	-0.186321	0.319766	-0.0273682	0	0	-0.523599	-0.0324257	-0.132091	0.310103	-0.0906837	0	0	-1.44863	-0.152803	0.0952981	0	0	0	0	0	0	0	0	0	0	0	0	0	0
0.619141	2.35162	-0.0832625	3.09466	-2.62741	-1.0649	0.25485	-0.523599	-0.145723	-0.184996	0.320284	-0.0261956	0	0	-0.523599	-0.0327577	-0.131864	0.310572	-0.0898744	0	0	-1.4491	-0.152718	0.0954093	0	0	0	0	0	0	0	0	0	0	0	0	0	0
0.629127	2.35187	-0.0833293	3.09473	-2.62696	-1.06499	0.254572	-0.5236	-0.145319	-0.183604	0.320767	-0.0250196	0	0	-0.5236	-0.0331205	-0.131659	0.311028	-0.0889868	0	0	-1.44948	-0.152643	0.095582	0	0	0	0	0	0	0	0	0	0	0	0	0	0
0.639114	2.35217	-0.0833709	3.09477	-2.62648	-1.06507	0.254269	-0.5236	-0.144867	-0.182146	0.321209	-0.023856	0	0	-0.5236	-0.033505	-0.131464	0.311463	-0.0880351	0	0	-1.44979	-0.152576	0.0958047	0	0	0	0	0	0	0	0	0	0	0	0	0	0
0.6491	2.35253	-0.0834002	3.09478	-2.62595	-1.06516	0.253942	-0.5236	-0.144376	-0.180622	0.321603	-0.0227124	0	0	-0.523601	-0.0339002	-0.131273	0.311861	-0.0870322	0	0	-1.45002	-0.152514	0.096066	0	0	0	0	0	0	0	0	0	0	0	0	0	0
0.659086	2.35296	-0.0834295	3.09476	-2.62539	-1.06524	0.253591	-0.523601	-0.143853	-0.179027	0.321946	-0.0215923	0	0	-0.523602	-0.0342957	-0.131081	0.312213	-0.0859947	0	0	-1.45017	-0.152456	0.0963541	0	0	0	0	0	0	0	0	0	0	0	0	0	0
0.669072	2.35346	-0.0834677	3.09473	-2.62477	-1.06532	0.253211	-0.523602	-0.143301	-0.177357	0.322235	-0.0204929	0	0	-0.523603	-0.034685	-0.130891	0.312508	-0.0849388	0	0	-1.4502	-0.152402	0.0966582	0	0	0	0	0	0	0	0	0	0	0	0	0	0
0.679058	2.35403	-0.0835202	3.09468	-2.62411	-1.06541	0.252802	-0.523602	-0.142724	-0.175609	0.322469	-0.0194051	0	0	-0.523604	-0.0350671	-0.13071	0.31274	-0.083877	0	0	-1.45011	-0.152353	0.0969691	0	0	0	0	0	0	0	0	0	0	0	0	0	0
0.689044	2.35467	-0.0835871	3.09462	-2.62341	-1.06548	0.252364	-0.523603	-0.142119	-0.17378	0.322648	-0.0183155	0	0	-0.523605	-0.0354446	-0.130552	0.312915	-0.0828201	0	0	-1.4499	-0.152309	0.0972772	0	0	0	0	0	0	0	0	0	0	0	0	0	0
0.69903	2.35538	-0.0836628	3.09453	-2.62266	-1.06556	0.251892	-0.523603	-0.141487	-0.171878	0.322776	-0.0172003	0	0	-0.523606	-0.035824	-0.130434	0.313044	-0.0817713	0	0	-1.4496	-0.152273	0.0975758	0	0	0	0	0	0	0	0	0	0	0	0	0	0
0.709017	2.35615	-0.0837402	3.09442	-2.62186	-1.06564	0.251385	-0.523603	-0.140823	-0.169921	0.322856	-0.0160249	0	0	-0.523606	-0.0362179	-0.130374	0.313139	-0.0807232	0	0	-1.44921	-0.152244	0.0978634	0	0	0	0	0	0	0	0	0	0	0	0	0	0
0.719003	2.35699	-0.0838108	3.09428	-2.62101	-1.06571	0.250839	-0.523602	-0.14012	-0.167934	0.322896	-0.0147584	0	0	-0.523606	-0.0366428	-0.130388	0.313211	-0.079663	0	0	-1.44873	-0.152222	0.0981408	0	0	0	0	0	0	0	0	0	0	0	0	0	0
0.728989	2.35789	-0.083866	3.09412	-2.62011	-1.06579	0.250249	-0.523601	-0.139367	-0.165939	0.322902	-0.013379	0	0	-0.523604	-0.0371175	-0.130488	0.313266	-0.078575	0	0	-1.44811	-0.152202	0.0984096	0	0	0	0	0	0	0	0	0	0	0	0	0	0
0.738975	2.35886	-0.0838977	3.09395	-2.61915	-1.06585	0.24961	-0.523599	-0.138554	-0.163956	0.322891	-0.0118775	0	0	-0.523601	-0.0376605	-0.130676	0.31332	-0.0774459	0	0	-1.44737	-0.152183	0.0986676	0	0	0	0	0	0	0	0	0	0	0	0	0	0
0.748961	2.35987	-0.0838962	3.09377	-2.61814	-1.06592	0.248916	-0.523595	-0.137671	-0.162001	0.322884	-0.0102552	0	0	-0.523596	-0.0382886	-0.130949	0.313396	-0.0762648	0	0	-1.44655	-0.152162	0.098909	0	0	0	0	0	0	0	0	0	0	0	0	0	0
0.758947	2.36091	-0.0838507	3.09357	-2.6171	-1.06598	0.248162	-0.52359	-0.136709	-0.160089	0.322911	-0.00852616	0	0	-0.523588	-0.0390161	-0.131299	0.31353	-0.0750256	0	0	-1.44575	-0.152138	0.099124	0	0	0	0	0	0	0	0	0	0	0	0	0	0
0.768934	2.36194	-0.0837491	3.09334	-2.61602	-1.06603	0.247341	-0.523583	-0.135663	-0.158228	0.323006	-0.00671389	0	0	-0.523577	-0.0398548	-0.131716	0.313769	-0.073727	0	0	-1.44511	-0.152115	0.0993016	0	0	0	0	0	0	0	0	0	0	0	0	0	0
0.77892	2.36296	-0.0835779	3.09308	-2.61491	-1.06608	0.246451	-0.523573	-0.134519	-0.156426	0.323186	-0.00482311	0	0	-0.523562	-0.0408227	-0.132196	0.314138	-0.0723519	0	0	-1.44464	-0.15209	0.0994429	0	0	0	0	0	0	0	0	0	0	0	0	0	0
0.788906	2.36395	-0.0833215	3.0928	-2.61376	-1.06612	0.24549	-0.523562	-0.133256	-0.154689	0.323463	-0.00284968	0	0	-0.523544	-0.0419428	-0.132741	0.31465	-0.0708813	0	0	-1.44436	-0.152055	0.0995573	0	0	0	0	0	0	0	0	0	0	0	0	0	0
0.798892	2.36493	-0.0829616	3.09249	-2.61258	-1.06615	0.244453	-0.523549	-0.131857	-0.153018	0.323849	-0.000791037	0	0	-0.523522	-0.0432339	-0.133349	0.315322	-0.0693022	0	0	-1.44425	-0.152003	0.0996571	0	0	0	0	0	0	0	0	0	0	0	0	0	0
0.808878	2.36586	-0.0824816	3.09216	-2.61136	-1.06617	0.243337	-0.523535	-0.130305	-0.15141	0.324356	0.0013535	0	0	-0.523498	-0.0447116	-0.13402	0.31617	-0.0676045	0	0	-1.44434	-0.151928	0.0997567	0	0	0	0	0	0	0	0	0	0	0	0	0	0
0.818864	2.36676	-0.0818658	3.0918	-2.61011	-1.06618	0.242144	-0.523521	-0.128588	-0.149859	0.324998	0.00358555	0	0	-0.523472	-0.0463906	-0.134752	0.317212	-0.065777	0	0	-1.44464	-0.151823	0.0998737	0	0	0	0	0	0	0	0	0	0	0	0	0	0
0.82885	2.36762	-0.0810942	3.09142	-2.60881	-1.06617	0.240872	-0.523508	-0.126689	-0.148356	0.325787	0.00591093	0	0	-0.523448	-0.0482874	-0.135551	0.318466	-0.0638027	0	0	-1.44513	-0.151676	0.10003	0	0	0	0	0	0	0	0	0	0	0	0	0	0
0.838837	2.36843	-0.0801441	3.09101	-2.60748	-1.06615	0.239528	-0.523499	-0.124586	-0.146889	0.326737	0.00834138	0	0	-0.523429	-0.0504253	-0.136425	0.319949	-0.0616556	0	0	-1.44578	-0.151475	0.100255	0	0	0	0	0	0	0	0	0	0	0	0	0	0
0.848823	2.36919	-0.0789879	3.09059	-2.6061	-1.06611	0.238116	-0.523494	-0.122254	-0.145449	0.32786	0.010892	0	0	-0.52342	-0.0528325	-0.137387	0.321676	-0.0593019	0	0	-1.44656	-0.151202	0.100582	0	0	0	0	0	0	0	0	0	0	0	0	0	0
0.858809	2.36992	-0.0775936	3.09015	-2.60466	-1.06605	0.236641	-0.523493	-0.119662	-0.144024	0.329175	0.0135793	0	0	-0.523429	-0.0555413	-0.138448	0.323661	-0.0567027	0	0	-1.44738	-0.150836	0.101049	0	0	0	0	0	0	0	0	0	0	0	0	0	0
0.868795	2.3706	-0.0759255	3.0897	-2.60317	-1.06597	0.235109	-0.523495	-0.116781	-0.142601	0.330705	0.016419	0	0	-0.523464	-0.0585882	-0.139621	0.325924	-0.053819	0	0	-1.44819	-0.150353	0.101697	0	0	0	0	0	0	0	0	0	0	0	0	0	0
0.878781	2.37124	-0.0739448	3.08925	-2.60161	-1.06586	0.233525	-0.5235	-0.113575	-0.141171	0.332479	0.0194309	0	0	-0.523535	-0.0620133	-0.140915	0.328483	-0.0506125	0	0	-1.44888	-0.149728	0.10257	0	0	0	0	0	0	0	0	0	0	0	0	0	0
0.888767	2.3718	-0.0716115	3.0888	-2.6	-1.06573	0.231894	-0.523509	-0.110024	-0.139706	0.334546	0.0226053	0	0	-0.523655	-0.0658421	-0.142318	0.331383	-0.0470727	0	0	-1.44959	-0.148942	0.103693	0	0	0	0	0	0	0	0	0	0	0	0	0	0
0.898753	2.37225	-0.0688875	3.08832	-2.59834	-1.06556	0.23022	-0.523521	-0.106109	-0.138184	0.336959	0.0259389	0	0	-0.523835	-0.0701003	-0.14381	0.334666	-0.0431854	0	0	-1.45042	-0.147976	0.105095	0	0	0	0	0	0	0	0	0	0	0	0	0	0
0.90874	2.37257	-0.0657339	3.08782	-2.59664	-1.06537	0.228506	-0.523535	-0.101807	-0.136588	0.339767	0.0294343	0	0	-0.524089	-0.0748149	-0.145357	0.338367	-0.0389405	0	0	-1.45142	-0.146804	0.106809	0	0	0	0	0	0	0	0	0	0	0	0	0	0
0.918726	2.37272	-0.0621149	3.0873	-2.59491	-1.06514	0.226761	-0.523549	-0.0970901	-0.134913	0.343009	0.0330996	0	0	-0.524424	-0.080014	-0.146908	0.342511	-0.0343377	0	0	-1.45261	-0.145397	0.108871	0	0	0	0	0	0	0	0	0	0	0	0	0	0
0.928712	2.37271	-0.0580016	3.08678	-2.59313	-1.06487	0.224991	-0.523562	-0.0919323	-0.133158	0.346723	0.036938	0	0	-0.524846	-0.0857217	-0.148393	0.347119	-0.0293973	0	0	-1.45395	-0.14372	0.111318	0	0	0	0	0	0	0	0	0	0	0	0	0	0
0.938698	2.37252	-0.0533723	3.08628	-2.59131	-1.06457	0.223202	-0.523573	-0.0863134	-0.131326	0.350945	0.0409332	0	0	-0.525352	-0.0919516	-0.149724	0.352221	-0.024172	0	0	-1.45544	-0.141743	0.114178	0	0	0	0	0	0	0	0	0	0	0	0	0	0
0.948684	2.37215	-0.0482165	3.08582	-2.58944	-1.06423	0.221403	-0.523583	-0.0802164	-0.129431	0.355704	0.0450703	0	0	-0.525924	-0.0987123	-0.150798	0.357849	-0.0187425	0	0	-1.45699	-0.139436	0.117476	0	0	0	0	0	0	0	0	0	0	0	0	0	0
0.95867	2.3716	-0.0425427	3.08542	-2.58753	-1.06385	0.219598	-0.52359	-0.0736443	-0.127481	0.361025	0.049318	0	0	-0.526531	-0.105989	-0.151492	0.36406	-0.0132375	0	0	-1.45861	-0.136783	0.121218	0	0	0	0	0	0	0	0	0	0	0	0	0	0
0.968657	2.37086	-0.0363834	3.08509	-2.58557	-1.06346	0.217789	-0.523595	-0.0666262	-0.125489	0.366921	0.0536398	0	0	-0.527115	-0.113737	-0.151672	0.370936	-0.00782594	0	0	-1.46032	-0.13379	0.125392	0	0	0	0	0	0	0	0	0	0	0	0	0	0
0.978643	2.36995	-0.0298013	3.08483	-2.58358	-1.06304	0.215973	-0.523599	-0.0592211	-0.123461	0.373382	0.0579903	0	0	-0.527591	-0.12188	-0.151198	0.378589	-0.00271399	0	0	-1.46214	-0.130485	0.129971	0	0	0	0	0	0	0	0	0	0	0	0	0	0
0.988629	2.36887	-0.0228968	3.08465	-2.58155	-1.06262	0.214148	-0.523601	-0.0515202	-0.1214	0.380369	0.0623196	0	0	-0.527837	-0.130305	-0.149928	0.387158	0.00185857	0	0	-1.46411	-0.126929	0.134906	0	0	0	0	0	0	0	0	0	0	0	0	0	0
0.998615	2.36767	-0.0158083	3.08453	-2.57948	-1.06221	0.212311	-0.523602	-0.0436487	-0.119308	0.387807	0.0665782	0	0	-0.527695	-0.13886	-0.147722	0.396817	0.00562772	0	0	-1.46624	-0.123215	0.140125	0	0	0	0	0	0	0	0	0	0	0	0	0	0
1.0086	2.3664	-0.00870705	3.08442	-2.57738	-1.06183	0.210451	-0.523603	-0.0357655	-0.117186	0.395585	0.07072	0	0	-0.52696	-0.147359	-0.144457	0.407776	0.0083151	0	0	-1.46854	-0.119465	0.145534	0	0	0	0	0	0	0	0	0	0	0	0	0	0
1.01859	2.36511	-0.00179384	3.08431	-2.57524	-1.06148	0.208557	-0.523603	-0.0280515	-0.115045	0.403554	0.0747077	0	0	-0.525391	-0.1556	-0.140063	0.420272	0.00963515	0	0	-1.47098	-0.115828	0.15102	0	0	0	0	0	0	0	0	0	0	0	0	0	0
1.02857	2.3639	0.00471349	3.08414	-2.57306	-1.06119	0.206623	-0.523603	-0.0206982	-0.112906	0.411535	0.0785214	0	0	-0.522709	-0.163384	-0.134547	0.434557	0.00931108	0	0	-1.47356	-0.11246	0.156452	0	0	0	0	0	0	0	0	0	0	0	0	0	0
1.03856	2.36285	0.0105958	3.0839	-2.57082	-1.06097	0.204643	-0.523602	-0.0138933	-0.110809	0.419332	0.0821582	0	0	-0.518622	-0.170534	-0.128004	0.450883	0.00710268	0	0	-1.4762	-0.109513	0.161691	0	0	0	0	0	0	0	0	0	0	0	0	0	0
1.04855	2.36207	0.0156821	3.08356	-2.56852	-1.06082	0.202618	-0.523602	-0.00777164	-0.108794	0.426745	0.0856413	0	0	-0.512842	-0.176939	-0.120632	0.469467	0.00288101	0	0	-1.47883	-0.107104	0.166623	0	0	0	0	0	0	0	0	0	0	0	0	0	0
1.05853	2.36165	0.0198792	3.08313	-2.56613	-1.06074	0.200552	-0.523601	-0.0023936	-0.106886	0.433607	0.0890086	0	0	-0.505135	-0.182569	-0.11273	0.490461	-0.00333928	0	0	-1.48131	-0.105292	0.17118	0	0	0	0	0	0	0	0	0	0	0	0	0	0
1.06852	2.36166	0.0231619	3.08261	-2.56364	-1.06072	0.198453	-0.5236	0.00223299	-0.105088	0.439805	0.0922842	0	0	-0.495371	-0.187444	-0.104659	0.513866	-0.0114047	0	0	-1.48356	-0.104094	0.17534	0	0	0	0	0	0	0	0	0	0	0	0	0	0
1.0785	2.36214	0.0255681	3.08199	-2.56102	-1.06076	0.196331	-0.5236	0.00612652	-0.103405	0.445267	0.0955177	0	0	-0.483535	-0.191608	-0.0968312	0.539511	-0.0210028	0	0	-1.48544	-0.103509	0.17913	0	0	0	0	0	0	0	0	0	0	0	0	0	0
1.08849	2.36312	0.0271765	3.08125	-2.55825	-1.06084	0.194202	-0.5236	0.00932656	-0.101822	0.449967	0.0987473	0	0	-0.46974	-0.195112	-0.0896537	0.567026	-0.0317052	0	0	-1.48689	-0.103509	0.182615	0	0	0	0	0	0	0	0	0	0	0	0	0	0
1.09848	2.36457	0.028092	3.08036	-2.55534	-1.06095	0.192083	-0.523599	0.011874	-0.100326	0.453913	0.102016	0	0	-0.454196	-0.197996	-0.0835011	0.595855	-0.0429912	0	0	-1.48791	-0.104052	0.185885	0	0	0	0	0	0	0	0	0	0	0	0	0	0
1.10846	2.36653	0.0284083	3.07924	-2.55225	-1.06109	0.189989	-0.523599	0.0137733	-0.0989189	0.457087	0.105396	0	0	-0.437141	-0.200267	-0.0787399	0.625337	-0.0542554	0	0	-1.48835	-0.105141	0.189042	0	0	0	0	0	0	0	0	0	0	0	0	0	0
1.11845	2.36898	0.0282465	3.07782	-2.54897	-1.06123	0.187938	-0.523599	0.0150561	-0.0975749	0.459512	0.108937	0	0	-0.418899	-0.201949	-0.0757037	0.654685	-0.0648487	0	0	-1.48818	-0.106746	0.192194	0	0	0	0	0	0	0	0	0	0	0	0	0	0
1.12843	2.37188	0.0277432	3.07608	-2.54551	-1.06138	0.18595	-0.523599	0.0157832	-0.0962406	0.46125	0.112643	0	0	-0.399849	-0.203072	-0.0746293	0.683004	-0.074195	0	0	-1.48742	-0.108814	0.195454	0	0	0	0	0	0	0	0	0	0	0	0	0	0
1.13842	2.37517	0.02705	3.07398	-2.54185	-1.06154	0.18405	-0.523599	0.0160528	-0.0948417	0.462411	0.116474	0	0	-0.380419	-0.203674	-0.0756192	0.709317	-0.081888	0	0	-1.48619	-0.11125	0.19893	0	0	0	0	0	0	0	0	0	0	0	0	0	0
1.14841	2.37874	0.0263556	3.07156	-2.53803	-1.06169	0.182259	-0.523599	0.0160313	-0.0932812	0.463186	0.120357	0	0	-0.361123	-0.203825	-0.078625	0.732574	-0.0877563	0	0	-1.48475	-0.113892	0.202719	0	0	0	0	0	0	0	0	0	0	0	0	0	0
1.15839	2.38252	0.0258353	3.0689	-2.53405	-1.06185	0.180596	-0.523599	0.0158994	-0.0914712	0.463737	0.124246	0	0	-0.342423	-0.20362	-0.083568	0.751838	-0.0918762	0	0	-1.48325	-0.116577	0.206905	0	0	0	0	0	0	0	0	0	0	0	0	0	0
1.16838	2.38649	0.02561	3.06602	-2.5299	-1.062	0.179071	-0.523599	0.0157982	-0.0893445	0.464137	0.128153	0	0	-0.324639	-0.203175	-0.090415	0.766386	-0.09451	0	0	-1.4817	-0.119213	0.211544	0	0	0	0	0	0	0	0	0	0	0	0	0	0
1.17837	2.39063	0.0257666	3.06299	-2.52558	-1.06213	0.177686	-0.523599	0.0158426	-0.0868383	0.464467	0.132094	0	0	-0.308023	-0.20259	-0.0990696	0.77565	-0.096018	0	0	-1.48007	-0.121735	0.216653	0	0	0	0	0	0	0	0	0	0	0	0	0	0
1.18835	2.39499	0.0263076	3.05981	-2.52108	-1.06221	0.176428	-0.523599	0.0160668	-0.083932	0.464706	0.136148	0	0	-0.292635	-0.201936	-0.109481	0.779357	-0.0967425	0	0	-1.47816	-0.124167	0.222203	0	0	0	0	0	0	0	0	0	0	0	0	0	0
1.19834	2.39956	0.0272888	3.05656	-2.51638	-1.06223	0.175291	-0.523599	0.0165794	-0.0805758	0.464916	0.140359	0	0	-0.278559	-0.201309	-0.121398	0.777283	-0.0971214	0	0	-1.47592	-0.126455	0.228155	0	0	0	0	0	0	0	0	0	0	0	0	0	0
1.20832	2.4043	0.0288192	3.05333	-2.5115	-1.06218	0.174268	-0.523599	0.0175628	-0.0767011	0.46524	0.144737	0	0	-0.265895	-0.200819	-0.134354	0.769256	-0.0976905	0	0	-1.47346	-0.128462	0.234471	0	0	0	0	0	0	0	0	0	0	0	0	0	0
1.21831	2.40924	0.0309486	3.05022	-2.50642	-1.06203	0.173349	-0.523598	0.0191447	-0.0722835	0.465669	0.149367	0	0	-0.254529	-0.20057	-0.147944	0.755428	-0.0989191	0	0	-1.47066	-0.130114	0.241123	0	0	0	0	0	0	0	0	0	0	0	0	0	0
1.2283	2.41443	0.0337196	3.04732	-2.50113	-1.06177	0.172529	-0.523598	0.0214479	-0.0673051	0.466142	0.154367	0	0	-0.24426	-0.200684	-0.161797	0.736186	-0.101153	0	0	-1.46734	-0.131352	0.248101	0	0	0	0	0	0	0	0	0	0	0	0	0	0
1.23828	2.41987	0.0372026	3.04472	-2.49564	-1.06137	0.171803	-0.523598	0.0246118	-0.0617262	0.466727	0.159781	0	0	-0.235001	-0.20126	-0.175451	0.711899	-0.104652	0	0	-1.46353	-0.132066	0.255393	0	0	0	0	0	0	0	0	0	0	0	0	0	0
1.24827	2.42557	0.0414186	3.04248	-2.48993	-1.06082	0.171166	-0.523598	0.0287053	-0.0555352	0.467416	0.165688	0	0	-0.226551	-0.202366	-0.188512	0.683155	-0.109579	0	0	-1.45916	-0.132207	0.262981	0	0	0	0	0	0	0	0	0	0	0	0	0	0
1.25825	2.4315	0.0463981	3.04065	-2.48402	-1.06011	0.17062	-0.523598	0.0337884	-0.048706	0.468304	0.172094	0	0	-0.21879	-0.204043	-0.200518	0.650508	-0.116048	0	0	-1.45433	-0.131701	0.270842	0	0	0	0	0	0	0	0	0	0	0	0	0	0
1.26824	2.43762	0.0521453	3.03926	-2.47792	-1.05923	0.170166	-0.523598	0.0398701	-0.0412295	0.469468	0.178992	0	0	-0.211563	-0.206307	-0.211066	0.61463	-0.12406	0	0	-1.44908	-0.130512	0.278959	0	0	0	0	0	0	0	0	0	0	0	0	0	0
1.27823	2.44397	0.0585781	3.03825	-2.4716	-1.05818	0.169799	-0.523598	0.0468396	-0.0331588	0.470836	0.186416	0	0	-0.204573	-0.209136	-0.219919	0.576395	-0.133469	0	0	-1.4433	-0.128723	0.287324	0	0	0	0	0	0	0	0	0	0	0	0	0	0
1.28821	2.45056	0.0656254	3.03755	-2.46508	-1.05696	0.169522	-0.523599	0.0545716	-0.0245322	0.472432	0.19433	0	0	-0.197646	-0.21249	-0.226876	0.536602	-0.144003	0	0	-1.437	-0.126404	0.295913	0	0	0	0	0	0	0	0	0	0	0	0	0	0
1.2982	2.45728	0.0732469	3.03712	-2.45837	-1.05559	0.169344	-0.523599	0.0629677	-0.01536	0.474397	0.202644	0	0	-0.190741	-0.216331	-0.231713	0.495918	-0.155309	0	0	-1.43044	-0.123569	0.30469	0	0	0	0	0	0	0	0	0	0	0	0	0	0
1.30819	2.46408	0.0813774	3.03689	-2.45148	-1.05409	0.169277	-0.523599	0.071896	-0.00566825	0.476818	0.211278	0	0	-0.183784	-0.220608	-0.234279	0.455039	-0.166957	0	0	-1.42375	-0.120269	0.31361	0	0	0	0	0	0	0	0	0	0	0	0	0	0
1.31817	2.4709	0.0899455	3.03676	-2.44444	-1.05248	0.169329	-0.5236	0.0812091	0.00450629	0.479802	0.220116	0	0	-0.176753	-0.225254	-0.234463	0.414592	-0.178488	0	0	-1.41714	-0.116555	0.322615	0	0	0	0	0	0	0	0	0	0	0	0	0	0
1.32816	2.47772	0.0988416	3.03665	-2.43726	-1.05079	0.169503	-0.523601	0.0907168	0.015093	0.483351	0.22907	0	0	-0.169563	-0.230182	-0.232271	0.375234	-0.189441	0	0	-1.41063	-0.112538	0.33164	0	0	0	0	0	0	0	0	0	0	0	0	0	0
1.33814	2.48459	0.107914	3.03642	-2.42992	-1.04903	0.1698	-0.523602	0.100179	0.0259755	0.487338	0.238088	0	0	-0.16207	-0.235293	-0.22786	0.337647	-0.199416	0	0	-1.40414	-0.108403	0.340611	0	0	0	0	0	0	0	0	0	0	0	0	0	0
1.34813	2.49153	0.11704	3.03596	-2.42243	-1.04724	0.170222	-0.523603	0.109397	0.0370484	0.491719	0.247075	0	0	-0.154234	-0.240494	-0.221434	0.302364	-0.208151	0	0	-1.39765	-0.104288	0.349461	0	0	0	0	0	0	0	0	0	0	0	0	0	0
1.35812	2.49851	0.126153	3.03523	-2.41479	-1.04543	0.170774	-0.523604	0.118254	0.0482498	0.496528	0.255914	0	0	-0.146113	-0.245739	-0.213219	0.269784	-0.21553	0	0	-1.39126	-0.100251	0.358139	0	0	0	0	0	0	0	0	0	0	0	0	0	0
1.3681	2.50544	0.135248	3.03423	-2.40703	-1.04364	0.171467	-0.523606	0.126724	0.0595737	0.501898	0.264452	0	0	-0.137857	-0.251027	-0.203468	0.240176	-0.22155	0	0	-1.38516	-0.0962595	0.366613	0	0	0	0	0	0	0	0	0	0	0	0	0	0
1.37809	2.51229	0.144323	3.03298	-2.39915	-1.04188	0.172304	-0.523607	0.134791	0.0710084	0.507857	0.272585	0	0	-0.129564	-0.256373	-0.192538	0.213811	-0.226275	0	0	-1.37943	-0.0923081	0.374862	0	0	0	0	0	0	0	0	0	0	0	0	0	0
1.38807	2.51908	0.153367	3.03144	-2.39115	-1.04017	0.173284	-0.523608	0.142416	0.0825153	0.514372	0.280233	0	0	-0.1213	-0.261783	-0.180881	0.190949	-0.229823	0	0	-1.37403	-0.0884271	0.382866	0	0	0	0	0	0	0	0	0	0	0	0	0	0
1.39806	2.52593	0.162306	3.02953	-2.383	-1.03852	0.174393	-0.523609	0.149466	0.093969	0.521198	0.287409	0	0	-0.112999	-0.267215	-0.169089	0.1719	-0.232355	0	0	-1.36869	-0.0847697	0.390602	0	0	0	0	0	0	0	0	0	0	0	0	0	0
1.40805	2.53286	0.171075	3.02721	-2.3747	-1.03696	0.175631	-0.523608	0.155834	0.105246	0.528273	0.294062	0	0	-0.104726	-0.272608	-0.157726	0.15682	-0.234096	0	0	-1.36334	-0.0814265	0.398053	0	0	0	0	0	0	0	0	0	0	0	0	0	0
1.41803	2.53974	0.179661	3.02454	-2.36625	-1.03549	0.17701	-0.523606	0.161517	0.116294	0.535773	0.300085	0	0	-0.0967071	-0.277912	-0.147198	0.145661	-0.235321	0	0	-1.35821	-0.078353	0.405217	0	0	0	0	0	0	0	0	0	0	0	0	0	0
1.42802	2.54654	0.188023	3.02153	-2.35765	-1.03412	0.178529	-0.523602	0.166457	0.127019	0.543711	0.305457	0	0	-0.0890614	-0.283057	-0.137831	0.138364	-0.236335	0	0	-1.35335	-0.0755802	0.412071	0	0	0	0	0	0	0	0	0	0	0	0	0	0
1.43801	2.55319	0.196096	3.01819	-2.3489	-1.03286	0.180184	-0.523596	0.170567	0.13729	0.55215	0.310135	0	0	-0.0819324	-0.287942	-0.129845	0.134776	-0.237463	0	0	-1.3488	-0.0731599	0.418575	0	0	0	0	0	0	0	0	0	0	0	0	0	0
1.44799	2.55971	0.203762	3.01447	-2.33998	-1.03172	0.181958	-0.523586	0.173668	0.146905	0.561025	0.314103	0	0	-0.0753662	-0.292425	-0.123405	0.134736	-0.239029	0	0	-1.34446	-0.0712448	0.424664	0	0	0	0	0	0	0	0	0	0	0	0	0	0
1.45798	2.56606	0.21088	3.01032	-2.33088	-1.03071	0.18383	-0.523572	0.175553	0.155627	0.570319	0.317306	0	0	-0.0694257	-0.296347	-0.118575	0.137997	-0.24134	0	0	-1.34022	-0.0700108	0.430255	0	0	0	0	0	0	0	0	0	0	0	0	0	0
1.46796	2.57221	0.217302	3.0057	-2.32158	-1.02984	0.185778	-0.523553	0.176012	0.163218	0.580046	0.31965	0	0	-0.0641687	-0.29955	-0.11531	0.144247	-0.244656	0	0	-1.33598	-0.0696438	0.435246	0	0	0	0	0	0	0	0	0	0	0	0	0	0
1.47795	2.57794	0.222927	3.00068	-2.31209	-1.02911	0.187794	-0.52353	0.174954	0.169547	0.590507	0.320918	0	0	-0.0598028	-0.301905	-0.113424	0.15301	-0.249154	0	0	-1.33198	-0.0702002	0.439547	0	0	0	0	0	0	0	0	0	0	0	0	0	0
1.48794	2.58306	0.2277	2.99535	-2.30243	-1.02853	0.189865	-0.523503	0.172367	0.174565	0.602013	0.320856	0	0	-0.056516	-0.303344	-0.112662	0.163775	-0.254874	0	0	-1.32845	-0.0716942	0.443058	0	0	0	0	0	0	0	0	0	0	0	0	0	0
1.49792	2.58745	0.231533	2.98977	-2.29261	-1.02812	0.191961	-0.523471	0.168199	0.178207	0.614686	0.319205	0	0	-0.0543487	-0.303798	-0.11293	0.176143	-0.261632	0	0	-1.32544	-0.0742135	0.445668	0	0	0	0	0	0	0	0	0	0	0	0	0	0
1.50791	2.591	0.234347	2.98399	-2.28261	-1.02787	0.194051	-0.523438	0.162417	0.180415	0.628643	0.315643	0	0	-0.053329	-0.303214	-0.114232	0.189778	-0.269	0	0	-1.32297	-0.0778354	0.447268	0	0	0	0	0	0	0	0	0	0	0	0	0	0
1.51789	2.59367	0.236044	2.97804	-2.27243	-1.02779	0.19609	-0.523407	0.154961	0.181116	0.643819	0.309824	0	0	-0.0533737	-0.30153	-0.116708	0.2045	-0.276353	0	0	-1.32089	-0.0826783	0.447756	0	0	0	0	0	0	0	0	0	0	0	0	0	0
1.52788	2.59529	0.236614	2.97209	-2.26208	-1.02787	0.198056	-0.523381	0.145925	0.180328	0.660401	0.301275	0	0	-0.0546112	-0.298716	-0.120384	0.220026	-0.283048	0	0	-1.31938	-0.0886847	0.447078	0	0	0	0	0	0	0	0	0	0	0	0	0	0
1.53787	2.59577	0.236077	2.96625	-2.25158	-1.02812	0.199929	-0.523368	0.135437	0.178134	0.678436	0.289508	0	0	-0.0571382	-0.294756	-0.125245	0.236099	-0.288504	0	0	-1.31849	-0.0957722	0.445194	0	0	0	0	0	0	0	0	0	0	0	0	0	0
1.54785	2.59494	0.234487	2.96068	-2.24093	-1.02853	0.201705	-0.523376	0.123659	0.174659	0.698038	0.273995	0	0	-0.0611798	-0.289617	-0.131163	0.252353	-0.29225	0	0	-1.31839	-0.103789	0.442087	0	0	0	0	0	0	0	0	0	0	0	0	0	0
1.55784	2.59267	0.231859	2.9555	-2.23017	-1.02909	0.203388	-0.523417	0.110696	0.170033	0.719194	0.254245	0	0	-0.0669373	-0.283214	-0.138005	0.268427	-0.293928	0	0	-1.31917	-0.112613	0.437732	0	0	0	0	0	0	0	0	0	0	0	0	0	0
1.56783	2.58889	0.228131	2.95076	-2.21931	-1.02981	0.204988	-0.523503	0.0965492	0.16435	0.741759	0.229848	0	0	-0.0745502	-0.27539	-0.145673	0.284025	-0.293318	0	0	-1.32083	-0.122173	0.432079	0	0	0	0	0	0	0	0	0	0	0	0	0	0
1.57781	2.58347	0.223256	2.94656	-2.20837	-1.0307	0.206531	-0.52365	0.0812361	0.157718	0.765621	0.200528	0	0	-0.0842071	-0.265989	-0.154003	0.298838	-0.290366	0	0	-1.32348	-0.132351	0.425065	0	0	0	0	0	0	0	0	0	0	0	0	0	0
1.5878	2.57631	0.217238	2.94296	-2.19738	-1.03175	0.208051	-0.523875	0.0648504	0.150326	0.790651	0.166217	0	0	-0.0960817	-0.254927	-0.162761	0.312581	-0.285166	0	0	-1.32728	-0.142974	0.41663	0	0	0	0	0	0	0	0	0	0	0	0	0	0
1.59778	2.56736	0.210146	2.94001	-2.18636	-1.03296	0.209575	-0.524192	0.0475738	0.142462	0.816634	0.127124	0	0	-0.110281	-0.24221	-0.171691	0.325036	-0.27791	0	0	-1.33232	-0.153839	0.406748	0	0	0	0	0	0	0	0	0	0	0	0	0	0
1.60777	2.5566	0.20212	2.93774	-2.17534	-1.03434	0.211124	-0.524614	0.0296711	0.134493	0.843278	0.0837962	0	0	-0.126844	-0.227945	-0.18054	0.336053	-0.26886	0	0	-1.33866	-0.164731	0.395446	0	0	0	0	0	0	0	0	0	0	0	0	0	0
1.61776	2.54394	0.193489	2.9362	-2.16439	-1.03588	0.212737	-0.525148	0.0115943	0.126817	0.870541	0.0371676	0	0	-0.146013	-0.212395	-0.188939	0.345331	-0.258341	0	0	-1.34675	-0.175261	0.382826	0	0	0	0	0	0	0	0	0	0	0	0	0	0
1.62774	2.52936	0.184608	2.93541	-2.15355	-1.03758	0.214443	-0.525792	-0.00616372	0.119803	0.898232	-0.0113742	0	0	-0.167874	-0.195916	-0.196598	0.3527	-0.2467	0	0	-1.35681	-0.185077	0.369068	0	0	0	0	0	0	0	0	0	0	0	0	0	0
1.63773	2.513	0.175793	2.93538	-2.14285	-1.03944	0.21626	-0.526526	-0.0231635	0.113671	0.926032	-0.0600356	0	0	-0.192353	-0.178895	-0.203358	0.358125	-0.234288	0	0	-1.36892	-0.193905	0.354405	0	0	0	0	0	0	0	0	0	0	0	0	0	0
1.64771	2.49508	0.16727	2.93607	-2.1323	-1.04145	0.218196	-0.52731	-0.0390754	0.108426	0.953481	-0.106714	0	0	-0.219184	-0.161697	-0.209196	0.361734	-0.221435	0	0	-1.38289	-0.201575	0.339098	0	0	0	0	0	0	0	0	0	0	0	0	0	0
1.6577	2.4759	0.15921	2.93746	-2.1219	-1.04361	0.220253	-0.528074	-0.0536528	0.10384	0.980096	-0.149186	0	0	-0.248012	-0.14467	-0.214107	0.36371	-0.208452	0	0	-1.39846	-0.207952	0.323406	0	0	0	0	0	0	0	0	0	0	0	0	0	0
1.66769	2.45581	0.151719	2.93955	-2.11164	-1.04589	0.222429	-0.528713	-0.0667238	0.0995385	1.00533	-0.185369	0	0	-0.278365	-0.12812	-0.21808	0.364304	-0.195604	0	0	-1.41529	-0.212935	0.307563	0	0	0	0	0	0	0	0	0	0	0	0	0	0
1.67767	2.43529	0.1448	2.94235	-2.1015	-1.04828	0.224712	-0.529075	-0.0781863	0.0951169	1.02856	-0.213679	0	0	-0.309627	-0.112293	-0.221104	0.363845	-0.183104	0	0	-1.43289	-0.216479	0.291769	0	0	0	0	0	0	0	0	0	0	0	0	0	0
1.68766	2.41487	0.138346	2.94586	-2.09142	-1.05075	0.22708	-0.528958	-0.0880197	0.0902459	1.04905	-0.233314	0	0	-0.341031	-0.0973417	-0.22318	0.36275	-0.171096	0	0	-1.45062	-0.218621	0.276171	0	0	0	0	0	0	0	0	0	0	0	0	0	0
1.69765	2.3951	0.132215	2.95006	-2.08138	-1.05326	0.229506	-0.528107	-0.0962556	0.0846778	1.06616	-0.244339	0	0	-0.371824	-0.0833648	-0.224273	0.361398	-0.159671	0	0	-1.46792	-0.219413	0.260853	0	0	0	0	0	0	0	0	0	0	0	0	0	0
1.70763	2.37657	0.126167	2.95493	-2.07133	-1.05577	0.231952	-0.526211	-0.103031	0.0782556	1.07928	-0.247468	0	0	-0.401156	-0.0703565	-0.224375	0.360232	-0.148862	0	0	-1.4841	-0.219005	0.245855	0	0	0	0	0	0	0	0	0	0	0	0	0	0
1.71762	2.35975	0.120001	2.9604	-2.06125	-1.05824	0.234388	-0.522917	-0.108503	0.0708513	1.08806	-0.243892	0	0	-0.428346	-0.0582848	-0.223451	0.359561	-0.13865	0	0	-1.49875	-0.217535	0.231142	0	0	0	0	0	0	0	0	0	0	0	0	0	0
1.7276	2.34511	0.113512	2.96637	-2.05112	-1.06062	0.236779	-0.517843	-0.112895	0.0623586	1.09227	-0.234949	0	0	-0.452759	-0.0470645	-0.221475	0.359663	-0.128976	0	0	-1.5115	-0.215188	0.216651	0	0	0	0	0	0	0	0	0	0	0	0	0	0
1.73759	2.33305	0.106507	2.9727	-2.04092	-1.06287	0.239088	-0.510617	-0.116503	0.0526963	1.09182	-0.221902	0	0	-0.473846	-0.0365542	-0.218449	0.360758	-0.11974	0	0	-1.52192	-0.212209	0.202304	0	0	0	0	0	0	0	0	0	0	0	0	0	0
1.74758	2.32387	0.0988666	2.97917	-2.03064	-1.06492	0.241273	-0.500922	-0.119633	0.0418298	1.08674	-0.20588	0	0	-0.491274	-0.0265885	-0.214387	0.362905	-0.110811	0	0	-1.52975	-0.208859	0.188001	0	0	0	0	0	0	0	0	0	0	0	0	0	0
1.75756	2.31768	0.0905423	2.98555	-2.02029	-1.06674	0.243297	-0.488571	-0.12258	0.0297638	1.07718	-0.187856	0	0	-0.504981	-0.01699	-0.209307	0.365999	-0.102041	0	0	-1.53489	-0.205402	0.173636	0	0	0	0	0	0	0	0	0	0	0	0	0	0
1.76755	2.31439	0.08154	2.99165	-2.00989	-1.06829	0.245126	-0.473602	-0.125572	0.0165951	1.06329	-0.168724	0	0	-0.515218	-0.00757815	-0.203232	0.369785	-0.0932755	0	0	-1.53742	-0.202091	0.159097	0	0	0	0	0	0	0	0	0	0	0	0	0	0
1.77753	2.31376	0.0718724	2.99735	-1.99943	-1.06954	0.246736	-0.456317	-0.128789	0.00247328	1.04515	-0.149295	0	0	-0.522424	0.00182404	-0.196187	0.374017	-0.0843696	0	0	-1.53758	-0.199146	0.144285	0	0	0	0	0	0	0	0	0	0	0	0	0	0
1.78752	2.31539	0.0615311	3.00257	-1.98894	-1.07048	0.248107	-0.437188	-0.132373	-0.0124064	1.02276	-0.130325	0	0	-0.527119	0.0113899	-0.188183	0.378501	-0.0751963	0	0	-1.53567	-0.196753	0.129112	0	0	0	0	0	0	0	0	0	0	0	0	0	0
1.79751	2.31892	0.0504857	3.0073	-1.9784	-1.0711	0.249231	-0.416732	-0.136475	-0.0279064	0.996147	-0.112428	0	0	-0.529837	0.0212772	-0.179219	0.383077	-0.0656317	0	0	-1.53194	-0.195049	0.113508	0	0	0	0	0	0	0	0	0	0	0	0	0	0
1.80749	2.32393	0.038662	3.01155	-1.9678	-1.0714	0.250101	-0.395512	-0.141216	-0.043781	0.965292	-0.0961707	0	0	-0.531076	0.0316605	-0.16925	0.387644	-0.0555921	0	0	-1.52676	-0.194151	0.0973885	0	0	0	0	0	0	0	0	0	0	0	0	0	0
1.81748	2.33004	0.025951	3.01537	-1.95716	-1.07137	0.250716	-0.374086	-0.146692	-0.0596722	0.930143	-0.0820618	0	0	-0.531271	0.0427258	-0.158195	0.392168	-0.0450319	0	0	-1.52059	-0.194163	0.0806568	0	0	0	0	0	0	0	0	0	0	0	0	0	0
1.82747	2.33692	0.0122318	3.01881	-1.94647	-1.07102	0.251081	-0.352905	-0.153009	-0.0752009	0.890756	-0.0704778	0	0	-0.530784	0.0546485	-0.145955	0.396638	-0.0339138	0	0	-1.51379	-0.195168	0.06323	0	0	0	0	0	0	0	0	0	0	0	0	0	0
1.83745	2.34433	-0.00261277	3.02192	-1.93571	-1.07035	0.251201	-0.332278	-0.160274	-0.0899696	0.847336	-0.0616527	0	0	-0.529901	0.067581	-0.132432	0.401042	-0.0222047	0	0	-1.50663	-0.19722	0.0450443	0	0	0	0	0	0	0	0	0	0	0	0	0	0
1.84744	2.35209	-0.0186865	3.02476	-1.92488	-1.06937	0.251091	-0.312406	-0.168574	-0.103508	0.800198	-0.0557177	0	0	-0.528834	0.0816501	-0.117527	0.405402	-0.00989052	0	0	-1.49933	-0.200358	0.026051	0	0	0	0	0	0	0	0	0	0	0	0	0	0
1.85742	2.36005	-0.0360674	3.02737	-1.91397	-1.06806	0.250765	-0.293407	-0.177969	-0.115264	0.749745	-0.0527154	0	0	-0.527736	0.0969539	-0.101153	0.409782	0.00301565	0	0	-1.4921	-0.204608	0.0062156	0	0	0	0	0	0	0	0	0	0	0	0	0	0
1.86741	2.36811	-0.0547964	3.02981	-1.90298	-1.06645	0.250233	-0.27535	-0.188488	-0.124614	0.696443	-0.0526059	0	0	-0.526705	0.113554	-0.0832422	0.414306	0.0164678	0	0	-1.48518	-0.209981	-0.0144815	0	0	0	0	0	0	0	0	0	0	0	0	0	0
1.8774	2.37621	-0.0748571	3.03214	-1.8919	-1.06453	0.249516	-0.258174	-0.200142	-0.131035	0.640929	-0.0551846	0	0	-0.525799	0.13143	-0.0637802	0.419044	0.0304339	0	0	-1.47867	-0.21644	-0.0360167	0	0	0	0	0	0	0	0	0	0	0	0	0	0
1.88738	2.38442	-0.0961558	3.03446	-1.88071	-1.06233	0.248638	-0.241705	-0.212896	-0.134174	0.583998	-0.0600712	0	0	-0.525045	0.150446	-0.0428197	0.423996	0.0449054	0	0	-1.47253	-0.223871	-0.0583134	0	0	0	0	0	0	0	0	0	0	0	0	0	0
1.89737	2.39284	-0.118523	3.03695	-1.8694	-1.05987	0.247627	-0.22568	-0.226678	-0.133879	0.526583	-0.0667298	0	0	-0.524448	0.170361	-0.0204859	0.429094	0.0598945	0	0	-1.4666	-0.232089	-0.0812444	0	0	0	0	0	0	0	0	0	0	0	0	0	0
1.90735	2.40166	-0.141727	3.03981	-1.85793	-1.05715	0.24651	-0.209768	-0.241384	-0.130232	0.469737	-0.0745015	0	0	-0.523999	0.190842	0.00301792	0.434197	0.0754392	0	0	-1.46057	-0.240848	-0.104636	0	0	0	0	0	0	0	0	0	0	0	0	0	0
1.91734	2.41099	-0.165493	3.04322	-1.84629	-1.05423	0.24531	-0.19375	-0.256861	-0.123402	0.414424	-0.0827271	0	0	-0.523681	0.211522	0.0274616	0.43926	0.0915371	0	0	-1.45429	-0.249885	-0.128315	0	0	0	0	0	0	0	0	0	0	0	0	0	0
1.92733	2.42088	-0.189528	3.04732	-1.83447	-1.05112	0.244046	-0.177553	-0.272926	-0.113619	0.361479	-0.0908145	0	0	-0.523471	0.232048	0.0526066	0.444363	0.108148	0	0	-1.44773	-0.258953	-0.152126	0	0	0	0	0	0	0	0	0	0	0	0	0	0
1.93731	2.43137	-0.213534	3.05224	-1.82248	-1.04788	0.242737	-0.161114	-0.289373	-0.101273	0.31172	-0.0982577	0	0	-0.523347	0.252054	0.0781662	0.449549	0.125245	0	0	-1.44082	-0.26781	-0.175881	0	0	0	0	0	0	0	0	0	0	0	0	0	0
1.9473	2.44253	-0.237208	3.05811	-1.81032	-1.04454	0.241401	-0.144403	-0.305972	-0.0868874	0.265913	-0.104688	0	0	-0.523288	0.271167	0.103806	0.454834	0.142807	0	0	-1.43343	-0.276208	-0.199371	0	0	0	0	0	0	0	0	0	0	0	0	0	0
1.95729	2.45427	-0.260249	3.06496	-1.79799	-1.04114	0.240052	-0.127595	-0.322459	-0.070993	0.224578	-0.109932	0	0	-0.523275	0.289072	0.129225	0.460421	0.160726	0	0	-1.42569	-0.283939	-0.222427	0	0	0	0	0	0	0	0	0	0	0	0	0	0
1.96727	2.46647	-0.282391	3.07278	-1.78551	-1.03773	0.238692	-0.110926	-0.338577	-0.0541394	0.188106	-0.114008	0	0	-0.523293	0.305509	0.154137	0.466521	0.178886	0	0	-1.41773	-0.290833	-0.244874	0	0	0	0	0	0	0	0	0	0	0	0	0	0
1.97726	2.47898	-0.303397	3.08153	-1.77291	-1.03435	0.237322	-0.0946894	-0.354077	-0.0369052	0.156756	-0.117116	0	0	-0.523328	0.320272	0.178282	0.47338	0.197131	0	0	-1.4097	-0.29675	-0.266525	0	0	0	0	0	0	0	0	0	0	0	0	0	0
1.98724	2.49159	-0.323061	3.09112	-1.7602	-1.03102	0.235936	-0.0792354	-0.368719	-0.0198956	0.130646	-0.119618	0	0	-0.523372	0.333215	0.201449	0.481298	0.215257	0	0	-1.40184	-0.301581	-0.28718	0	0	0	0	0	0	0	0	0	0	0	0	0	0
1.99723	2.50412	-0.341211	3.10147	-1.74741	-1.02779	0.234535	-0.0648329	-0.382279	-0.00383503	0.109865	-0.121986	0	0	-0.523419	0.344192	0.22341	0.490469	0.233047	0	0	-1.39426	-0.305219	-0.306573	0	0	0	0	0	0	0	0	0	0	0	0	0	0
2.00722	2.51644	-0.357677	3.11256	-1.73452	-1.02468	0.233128	-0.0516777	-0.394517	0.0104469	0.0944691	-0.124763	0	0	-0.523463	0.353026	0.243893	0.501003	0.250253	0	0	-1.387	-0.307534	-0.324352	0	0	0	0	0	0	0	0	0	0	0	0	0	0
2.0172	2.52841	-0.372319	3.12433	-1.72156	-1.02173	0.231723	-0.0398964	-0.405217	0.022195	0.0844552	-0.128554	0	0	-0.523502	0.359552	0.262602	0.51295	0.266612	0	0	-1.38005	-0.308408	-0.340182	0	0	0	0	0	0	0	0	0	0	0	0	0	0
2.02719	2.53991	-0.385013	3.13671	-1.70851	-1.01896	0.230334	-0.0295564	-0.414179	0.0308361	0.0797376	-0.133978	0	0	-0.523534	0.363615	0.279222	0.526308	0.281831	0	0	-1.37334	-0.307733	-0.353773	0	0	0	0	0	0	0	0	0	0	0	0	0	0
2.03717	2.55069	-0.395644	3.14954	-1.69538	-1.01641	0.228966	-0.0208159	-0.421205	0.0361445	0.0800352	-0.141632	0	0	-0.52356	0.365129	0.293519	0.541246	0.295536	0	0	-1.36702	-0.305436	-0.364925	0	0	0	0	0	0	0	0	0	0	0	0	0	0
2.04716	2.56039	-0.404104	3.16256	-1.68221	-1.01412	0.227616	-0.0139354	-0.42612	0.038292	0.0848525	-0.152019	0	0	-0.52358	0.364097	0.305381	0.558112	0.307271	0	0	-1.36139	-0.301495	-0.373519	0	0	0	0	0	0	0	0	0	0	0	0	0	0
2.05715	2.56871	-0.410303	3.17549	-1.66902	-1.0121	0.226284	-0.00904334	-0.428775	0.0375832	0.093673	-0.165433	0	0	-0.523594	0.360508	0.314672	0.577089	0.316537	0	0	-1.35663	-0.295907	-0.379432	0	0	0	0	0	0	0	0	0	0	0	0	0	0
2.06713	2.57545	-0.414152	3.18813	-1.6558	-1.01039	0.224981	-0.00614121	-0.429044	0.034343	0.10601	-0.181828	0	0	-0.523603	0.354313	0.321195	0.5982	0.322769	0	0	-1.35283	-0.288679	-0.382531	0	0	0	0	0	0	0	0	0	0	0	0	0	0
2.07712	2.5804	-0.415584	3.20024	-1.64256	-1.00902	0.223721	-0.00521945	-0.42683	0.0289805	0.121365	-0.20067	0	0	-0.523609	0.345488	0.324773	0.621444	0.325337	0	0	-1.35004	-0.279846	-0.382692	0	0	0	0	0	0	0	0	0	0	0	0	0	0
2.08711	2.58341	-0.414555	3.21162	-1.6293	-1.008	0.222523	-0.00617435	-0.422072	0.0218587	0.13935	-0.220834	0	0	-0.523612	0.334007	0.325198	0.646665	0.323562	0	0	-1.34822	-0.269484	-0.379788	0	0	0	0	0	0	0	0	0	0	0	0	0	0
2.09709	2.58428	-0.411077	3.222	-1.61604	-1.00735	0.221397	-0.00905904	-0.414735	0.013519	0.15952	-0.240757	0	0	-0.523612	0.319957	0.322376	0.673846	0.316723	0	0	-1.3475	-0.257742	-0.373774	0	0	0	0	0	0	0	0	0	0	0	0	0	0
2.10708	2.58292	-0.40522	3.23114	-1.60275	-1.00707	0.220349	-0.0138411	-0.404858	0.00447413	0.181506	-0.258822	0	0	-0.523612	0.303483	0.31624	0.702764	0.304114	0	0	-1.3479	-0.244853	-0.364642	0	0	0	0	0	0	0	0	0	0	0	0	0	0
2.11706	2.57933	-0.397112	3.23883	-1.58944	-1.00715	0.219378	-0.0204155	-0.392535	-0.0048548	0.204949	-0.273663	0	0	-0.52361	0.284762	0.306753	0.732974	0.28508	0	0	-1.3493	-0.231127	-0.352438	0	0	0	0	0	0	0	0	0	0	0	0	0	0
2.12705	2.57349	-0.386986	3.24488	-1.57612	-1.00758	0.218463	-0.0289119	-0.377939	-0.0139774	0.229206	-0.284375	0	0	-0.523609	0.264099	0.294033	0.764172	0.259099	0	0	-1.35179	-0.216942	-0.337367	0	0	0	0	0	0	0	0	0	0	0	0	0	0
2.13704	2.56528	-0.375194	3.24914	-1.56282	-1.00833	0.217563	-0.0397087	-0.361336	-0.0223924	0.25336	-0.290552	0	0	-0.523607	0.241927	0.278403	0.796213	0.225894	0	0	-1.35569	-0.20271	-0.319815	0	0	0	0	0	0	0	0	0	0	0	0	0	0
2.14702	2.55475	-0.362121	3.25158	-1.54957	-1.0094	0.216635	-0.053068	-0.343066	-0.0299316	0.276611	-0.292184	0	0	-0.523605	0.218649	0.260294	0.828732	0.185482	0	0	-1.36114	-0.188799	-0.300261	0	0	0	0	0	0	0	0	0	0	0	0	0	0
2.15701	2.5419	-0.348228	3.25231	-1.53642	-1.01076	0.215629	-0.0693956	-0.323534	-0.0364605	0.298069	-0.28961	0	0	-0.523603	0.194726	0.240298	0.861488	0.138317	0	0	-1.36845	-0.175525	-0.279336	0	0	0	0	0	0	0	0	0	0	0	0	0	0
2.16699	2.52688	-0.333939	3.25154	-1.52339	-1.01239	0.214507	-0.0888832	-0.303164	-0.0421221	0.317115	-0.283346	0	0	-0.523602	0.17055	0.219083	0.894061	0.0852918	0	0	-1.37773	-0.163092	-0.257649	0	0	0	0	0	0	0	0	0	0	0	0	0	0
2.17698	2.50999	-0.319604	3.24959	-1.51049	-1.01428	0.213243	-0.111446	-0.282361	-0.0472789	0.333471	-0.273965	0	0	-0.523601	0.146452	0.19735	0.925876	0.0277556	0	0	-1.38883	-0.151603	-0.235731	0	0	0	0	0	0	0	0	0	0	0	0	0	0
2.18697	2.4916	-0.305519	3.24681	-1.49771	-1.01641	0.211824	-0.136817	-0.261501	-0.0523247	0.347115	-0.262047	0	0	-0.5236	0.122739	0.175792	0.956361	-0.0324901	0	0	-1.40143	-0.14108	-0.214017	0	0	0	0	0	0	0	0	0	0	0	0	0	0
2.19695	2.47205	-0.291954	3.24352	-1.48503	-1.01876	0.210254	-0.164684	-0.240921	-0.0575381	0.358154	-0.248159	0	0	-0.523599	0.0997106	0.155002	0.985137	-0.0932798	0	0	-1.41526	-0.131501	-0.192862	0	0	0	0	0	0	0	0	0	0	0	0	0	0
2.20694	2.45168	-0.279118	3.23998	-1.47244	-1.02131	0.208545	-0.194656	-0.220898	-0.0630915	0.366848	-0.232823	0	0	-0.523599	0.0776127	0.135362	1.012	-0.152314	0	0	-1.43003	-0.122811	-0.172511	0	0	0	0	0	0	0	0	0	0	0	0	0	0
2.21693	2.43081	-0.267124	3.23638	-1.4599	-1.02405	0.206724	-0.226273	-0.201616	-0.069069	0.373589	-0.216501	0	0	-0.523598	0.0565991	0.116996	1.03692	-0.207539	0	0	-1.44538	-0.114925	-0.153087	0	0	0	0	0	0	0	0	0	0	0	0	0	0
2.22691	2.40956	-0.256024	3.23276	-1.44743	-1.02693	0.204809	-0.25924	-0.18316	-0.0753839	0.378672	-0.199589	0	0	-0.523598	0.0367412	0.0997799	1.06018	-0.257576	0	0	-1.46129	-0.107774	-0.134629	0	0	0	0	0	0	0	0	0	0	0	0	0	0
2.2369	2.38808	-0.24574	3.22916	-1.43501	-1.02994	0.202825	-0.293202	-0.165487	-0.0819339	0.382477	-0.182383	0	0	-0.523598	0.0179679	0.0834638	1.0821	-0.302166	0	0	-1.47761	-0.101235	-0.117039	0	0	0	0	0	0	0	0	0	0	0	0	0	0
2.24688	2.36655	-0.236063	3.22559	-1.42262	-1.03302	0.200802	-0.327725	-0.148433	-0.0886725	0.385477	-0.165062	0	0	-0.523598	4.83775e-05	0.0677665	1.10294	-0.342218	0	0	-1.49409	-0.0951324	-0.100102	0	0	0	0	0	0	0	0	0	0	0	0	0	0
2.25687	2.34502	-0.226758	3.22203	-1.41023	-1.03616	0.19876	-0.362512	-0.131776	-0.0955322	0.388054	-0.147716	0	0	-0.523598	-0.0173322	0.0524169	1.12308	-0.379401	0	0	-1.51059	-0.0892864	-0.0835626	0	0	0	0	0	0	0	0	0	0	0	0	0	0
2.26686	2.32351	-0.217606	3.21848	-1.39785	-1.03931	0.196715	-0.39738	-0.115285	-0.102443	0.390481	-0.130375	0	0	-0.523598	-0.0344921	0.0371969	1.14291	-0.415446	0	0	-1.52709	-0.083541	-0.0671839	0	0	0	0	0	0	0	0	0	0	0	0	0	0
