Coordinates
version=1
nRows=240
nColumns=38
inDegrees=no

Units are S.I. units (second, meters, Newtons, ...)
If the header above contains a line with 'inDegrees', this indicates whether rotational values are in degrees (yes) or radians (no).

endheader
time	pelvis_tilt_moment	pelvis_list_moment	pelvis_rotation_moment	pelvis_tx_force	pelvis_ty_force	pelvis_tz_force	hip_flexion_r_moment	hip_adduction_r_moment	hip_rotation_r_moment	knee_angle_r_moment	ankle_angle_r_moment	subtalar_angle_r_moment	mtp_angle_r_moment	hip_flexion_l_moment	hip_adduction_l_moment	hip_rotation_l_moment	knee_angle_l_moment	ankle_angle_l_moment	subtalar_angle_l_moment	mtp_angle_l_moment	lumbar_extension_moment	lumbar_bending_moment	lumbar_rotation_moment	arm_flex_r_moment	arm_add_r_moment	arm_rot_r_moment	elbow_flex_r_moment	pro_sup_r_moment	wrist_flex_r_moment	wrist_dev_r_moment	arm_flex_l_moment	arm_add_l_moment	arm_rot_l_moment	elbow_flex_l_moment	pro_sup_l_moment	wrist_flex_l_moment	wrist_dev_l_moment
3.86	0	0	0	0	0	0	0	0	0	0	0	0	0	0	0	0	0	0	0	0	0	0	0	0	0	0	0	0	0	0	0	0	0	0	0	0	0
3.86999	-44.2976	-5.01847	7.49711	-0.437091	503.456	0.266348	-1.38188	-1.87004	0.0929295	-2.34218	-0.916427	0.107527	0.0245522	-29.8562	5.22755	0.0857367	9.05205	-2.47368	0.467951	0.0227684	-34.0567	-3.86394	3.62035	-2.63528	1.66714	0.662118	-1.60467	0.016382	-0.0992491	0.136471	-3.02241	-1.15355	-0.231574	-1.86927	-0.0186307	-0.168736	0.059643
3.87998	-45.9628	-3.2137	10.8467	1.75329	493.846	-4.35406	-0.745052	-2.06764	0.0749097	-2.46483	-0.928499	0.101288	0.0254949	-33.8747	5.02504	-0.076528	10.939	-2.15523	0.376557	0.0261872	-31.2202	-5.57097	6.28242	-2.00413	2.16268	0.834255	-1.34653	0.0250464	-0.0644334	0.140905	-2.8757	-1.63797	-0.451103	-1.74649	-0.0263734	-0.169673	0.0280984
3.88997	-46.443	-2.16844	13.5402	7.59425	478.969	-7.48279	-0.240463	-2.33508	0.0599246	-2.53817	-0.94583	0.0944215	0.0266841	-38.5974	4.83622	-0.246002	13.1372	-1.92565	0.298659	0.0306302	-25.883	-6.77335	7.83404	-1.25433	2.37819	0.889707	-1.01051	0.0300393	-0.0286461	0.128289	-2.49751	-1.88032	-0.588639	-1.50757	-0.0301082	-0.154222	-0.00110647
3.89996	-48.9888	-1.10004	15.6803	4.56153	468.838	-7.7516	1.27016	-2.54203	0.0621958	-2.84468	-0.962183	0.0905324	0.0281614	-42.6412	4.54316	-0.425841	14.9406	-1.75555	0.229788	0.0352428	-24.9332	-7.57447	8.76046	-0.835495	2.48167	0.923083	-0.867367	0.0325785	-0.0135189	0.124683	-2.32602	-2.0046	-0.66178	-1.42701	-0.0328155	-0.151452	-0.0139724
3.90995	-46.387	-1.12804	16.3902	12.0429	447.771	-7.45269	1.87039	-2.73861	0.0401363	-2.97652	-0.986355	0.0875253	0.029686	-45.5955	4.24574	-0.535308	16.293	-1.66682	0.191539	0.0396293	-18.3323	-7.72598	8.20328	-0.178262	2.21807	0.793965	-0.545481	0.0306234	0.0102855	0.0929944	-1.77615	-1.81238	-0.632437	-1.121	-0.0297028	-0.119592	-0.0285725
3.91994	-41.1521	-1.35117	16.1755	19.2147	423.576	-6.58632	2.5465	-2.79728	-0.00724257	-3.12093	-1.01769	0.0896505	0.0314813	-46.4029	3.92527	-0.59	16.8437	-1.67678	0.190829	0.043193	-11.6571	-7.63216	7.11729	0.39297	1.84667	0.625808	-0.2496	0.0270545	0.0294389	0.0585275	-1.24465	-1.51784	-0.559439	-0.821565	-0.0249525	-0.0856421	-0.0380089
3.92993	-32.2051	-1.59306	14.9886	28.3848	394.453	-5.82696	3.12414	-2.65443	-0.0987405	-3.23947	-1.05581	0.0986739	0.0334417	-44.7975	3.5268	-0.574935	16.5364	-1.81815	0.236266	0.0454151	-3.88154	-7.31812	5.63997	0.93403	1.39279	0.424306	0.0589948	0.0224175	0.0482825	0.0195589	-0.697742	-1.14686	-0.45624	-0.495876	-0.018738	-0.0468926	-0.0457127
3.93992	-29.319	0.451403	14.085	12.1653	381.89	-3.88482	5.81342	-2.03525	-0.220926	-3.85445	-1.08464	0.120099	0.0355366	-39.8634	2.69075	-0.542194	15.0842	-2.1028	0.316256	0.0457385	-9.94662	-7.60909	5.38993	0.590208	1.33986	0.437418	-0.167461	0.0213158	0.0258496	0.0351598	-1.07681	-1.09251	-0.412307	-0.735155	-0.0196122	-0.069103	-0.0271783
3.94991	-23.5799	3.19006	12.2706	-1.69541	365.508	-1.88829	8.48531	-1.22212	-0.372506	-4.43918	-1.11203	0.149052	0.037493	-32.9779	1.38821	-0.436249	12.9962	-2.55548	0.432015	0.0436955	-15.5162	-7.46099	4.88435	0.151774	1.24221	0.434541	-0.412268	0.0194548	0.0011939	0.0497755	-1.48365	-0.992786	-0.347026	-0.973608	-0.0194475	-0.0895857	-0.00643489
3.9599	-16.9134	6.89963	10.0732	-14.0899	347.557	-0.594249	11.2001	-0.206107	-0.555438	-5.0193	-1.14143	0.185904	0.0394418	-24.9528	-0.377978	-0.284255	10.6023	-3.16668	0.56787	0.0388915	-21.7201	-7.12938	4.48495	-0.416347	1.19127	0.454365	-0.706998	0.0180006	-0.0267421	0.0694652	-1.99505	-0.928534	-0.287493	-1.25689	-0.0196924	-0.114614	0.0162071
3.9699	-7.01839	10.6354	7.41014	-12.2326	319.989	-1.76576	12.703	0.907526	-0.783537	-5.40683	-1.18652	0.228933	0.0414338	-17.0882	-2.38945	-0.097046	8.43788	-3.91914	0.709788	0.0315039	-22.5284	-6.57628	3.69037	-0.726272	1.03192	0.40991	-0.816178	0.0156946	-0.0394802	0.0710443	-2.21752	-0.780814	-0.213495	-1.34241	-0.0175266	-0.118263	0.0290095
3.97989	-1.3821	15.1286	5.36557	-18.4149	301.305	-1.86893	15.3043	2.00248	-1.00846	-6.02588	-1.21672	0.272104	0.0432057	-9.40893	-4.4075	-0.0026056	6.47455	-4.75864	0.824721	0.0222555	-29.4074	-6.08463	3.55455	-1.4688	1.09522	0.475739	-1.17292	0.0153148	-0.0704267	0.0986381	-2.85336	-0.810914	-0.177733	-1.67894	-0.0187582	-0.149511	0.052198
3.98988	7.72495	18.7918	3.13368	-7.90712	271.713	-4.66562	16.3714	3.05382	-1.24027	-6.45919	-1.261	0.318024	0.0447652	-2.64255	-6.24224	-0.00442159	5.21747	-5.67555	0.910929	0.0134565	-29.1781	-5.45371	2.89681	-1.81854	1.0128	0.453182	-1.27029	0.0137645	-0.0803441	0.10119	-3.06188	-0.731079	-0.125332	-1.74151	-0.0168655	-0.151588	0.0615052
3.99987	16.4283	21.307	1.23538	4.69717	242.54	-6.60513	17.4289	3.80093	-1.41362	-6.93182	-1.29389	0.357064	0.0458692	3.55167	-7.32354	-0.194522	4.56118	-6.61069	0.9621	0.00635809	-28.7146	-4.69127	2.21002	-2.21487	0.953436	0.435889	-1.37614	0.0122158	-0.0905998	0.104368	-3.25851	-0.669269	-0.0762054	-1.79791	-0.0148281	-0.153019	0.0702682
4.00986	23.9204	22.1468	-0.209879	17.6304	215.487	-6.40052	18.5814	4.04662	-1.46837	-7.45378	-1.30061	0.38113	0.0460947	9.05458	-7.26307	-0.565567	4.53458	-7.49945	0.981889	0.00142457	-28.8128	-3.73406	1.52472	-2.7016	0.926419	0.430735	-1.51999	0.0106475	-0.103786	0.110667	-3.47804	-0.631124	-0.0300503	-1.875	-0.0128654	-0.156631	0.0801021
4.01985	29.5444	21.2559	-1.2008	29.1554	191.675	-3.59989	19.9902	3.91065	-1.41724	-8.06618	-1.26822	0.388677	0.0450057	13.7569	-5.75843	-1.10404	5.15437	-8.27775	0.974862	-0.00149746	-30.2023	-2.59434	0.934108	-3.30295	0.947943	0.447681	-1.72404	0.00925901	-0.121619	0.12258	-3.76193	-0.630065	0.00940901	-1.99951	-0.0114031	-0.165471	0.0921093
4.02984	32.8053	18.9267	-1.79679	37.3063	172.237	1.90963	21.8097	3.44053	-1.27107	-8.80487	-1.18221	0.375837	0.0421767	17.6759	-2.90306	-1.77092	6.36516	-8.89602	0.937723	-0.00265761	-33.6476	-1.24959	0.50479	-4.04619	1.02751	0.494328	-2.01264	0.00815169	-0.146153	0.142456	-4.15291	-0.673064	0.0409952	-2.1997	-0.0107852	-0.182572	0.107726
4.03983	36.87	15.696	-2.05648	53.6705	147.411	5.83603	22.5337	3.03405	-1.07358	-9.50578	-1.07164	0.351974	0.0379325	20.6259	0.905812	-2.50494	8.27534	-9.33338	0.864708	-0.00220209	-33.2628	-0.194946	0.0477318	-4.47959	1.05657	0.504292	-2.13227	0.00714447	-0.156114	0.148712	-4.29859	-0.687807	0.0640794	-2.24475	-0.00928871	-0.184465	0.113429
4.04982	38.2816	12.0824	-2.16031	64.0603	126.721	11.3523	23.6365	2.5395	-0.830039	-10.315	-0.892233	0.306314	0.0314954	23.0883	5.3084	-3.32507	10.5838	-9.56454	0.736378	-0.000576513	-35.662	0.983427	-0.330164	-5.06518	1.11863	0.538161	-2.35469	0.00612843	-0.175134	0.16362	-4.58124	-0.724272	0.0888309	-2.38994	-0.00863515	-0.196677	0.125148
4.05981	41.0004	8.77991	-2.07093	81.3195	99.4547	13.5792	23.5124	2.42065	-0.585811	-11.0515	-0.683962	0.251659	0.0235546	25.0204	9.74072	-4.17336	13.3333	-9.60213	0.544584	0.00205774	-34.2175	1.65912	-0.786406	-5.30303	1.11001	0.527709	-2.39618	0.0051085	-0.178988	0.163585	-4.60874	-0.716639	0.109268	-2.3765	-0.00704144	-0.193136	0.127154
4.0698	41.8834	5.67576	-1.96324	91.3309	75.2639	16.5853	23.7544	2.31131	-0.341958	-11.8755	-0.403026	0.174015	0.0135128	26.9189	14.0374	-5.05565	16.1894	-9.45164	0.281838	0.00516676	-35.3292	2.34165	-1.26095	-5.65533	1.11078	0.530467	-2.52435	0.00386481	-0.19105	0.170204	-4.74616	-0.711708	0.136975	-2.45131	-0.00606051	-0.198393	0.135097
4.07979	44.4928	3.35409	-1.73526	106.192	44.8376	16.6541	23.0643	2.59892	-0.171983	-12.691	-0.0964473	0.0872646	0.00249301	28.5447	17.9148	-5.89148	19.2463	-9.15319	-0.0442262	0.00856424	-32.9563	2.51336	-1.72991	-5.66392	1.05348	0.495682	-2.47932	0.00280274	-0.188337	0.163155	-4.64233	-0.671301	0.156452	-2.37736	-0.00439199	-0.189236	0.133431
4.08978	46.11	1.57719	-1.62109	112.503	17.783	17.6621	23.1525	2.98474	-0.130831	-13.7436	0.277033	-0.0168894	-0.0100763	30.3476	21.3567	-6.68043	22.1768	-8.72925	-0.426686	0.0118404	-33.081	2.71783	-2.08567	-5.76238	1.02469	0.481738	-2.5117	0.00187989	-0.192464	0.163132	-4.64487	-0.649584	0.174669	-2.3872	-0.0036409	-0.189007	0.13645
4.09977	47.0591	0.273161	-1.6214	111.674	-6.4647	19.766	23.9156	3.4172	-0.23222	-15.0473	0.706105	-0.134125	-0.0238011	32.2079	24.371	-7.39333	24.9553	-8.22438	-0.847131	0.0149341	-35.0128	2.99233	-2.29636	-5.89555	1.01897	0.483952	-2.59151	0.00116538	-0.2007	0.167928	-4.70998	-0.643097	0.188719	-2.45217	-0.00368011	-0.195023	0.142154
4.10976	48.7096	-0.48704	-1.74176	105.166	-29.2824	22.3924	25.3182	3.98385	-0.51292	-16.6285	1.17206	-0.255155	-0.0380863	34.3633	26.9043	-8.02299	27.4591	-7.67587	-1.28568	0.0176851	-37.5228	3.29454	-2.33575	-5.97487	1.02653	0.493548	-2.66754	0.00076901	-0.208385	0.173624	-4.76632	-0.646409	0.194396	-2.52389	-0.0042519	-0.202593	0.147235
4.11975	52.1169	-0.428873	-1.73514	103.993	-56.4745	22.742	25.8082	4.85094	-0.937307	-18.2439	1.59929	-0.363052	-0.0509406	36.0867	29.043	-8.55067	29.971	-7.13812	-1.71522	0.0201602	-36.3065	3.11582	-2.15064	-5.67235	1.00548	0.477075	-2.55263	0.00109992	-0.198781	0.165971	-4.56718	-0.638012	0.178199	-2.43274	-0.00451274	-0.195262	0.14032
4.12974	54.8296	-0.363775	-1.83281	100.412	-81.4477	24.1764	26.11	5.62298	-1.46134	-19.8396	1.98067	-0.455162	-0.061924	37.5947	31.0482	-9.02834	32.3152	-6.62727	-2.11475	0.0221333	-35.3146	3.00379	-1.89757	-5.31909	0.975161	0.458608	-2.42732	0.00143444	-0.188467	0.157837	-4.34107	-0.619173	0.160964	-2.33522	-0.00488376	-0.187755	0.132906
4.13973	56.7898	-0.4267	-1.99623	97.4095	-104.993	26.5929	25.716	6.22744	-2.01145	-21.2184	2.2621	-0.51933	-0.0695298	38.667	33.0313	-9.45642	34.5421	-6.15903	-2.46834	0.0236607	-33.5996	2.96836	-1.61832	-4.86991	0.917965	0.427918	-2.25936	0.00164194	-0.174728	0.146215	-4.03582	-0.576095	0.144308	-2.19523	-0.00495366	-0.176303	0.123109
4.14972	57.5812	-0.559906	-2.26967	96.9896	-127.21	29.8192	24.1444	6.55307	-2.48572	-22.1681	2.39138	-0.546815	-0.0723094	39.1624	34.9361	-9.82282	36.6644	-5.73197	-2.7722	0.0248302	-30.7761	3.0733	-1.33393	-4.32236	0.827221	0.381391	-2.04064	0.00162151	-0.156868	0.130191	-3.63372	-0.502668	0.129656	-1.9991	-0.00449418	-0.159438	0.110327
4.15971	57.2916	-0.893007	-2.6203	100.693	-148.233	33.911	21.2301	6.5055	-2.80675	-22.5552	2.34801	-0.535842	-0.0698542	39.037	36.795	-10.1268	38.6816	-5.33154	-3.02537	0.025733	-26.4598	3.36122	-1.10471	-3.68818	0.69211	0.313904	-1.76753	0.00119406	-0.134679	0.108894	-3.12643	-0.389083	0.121067	-1.73689	-0.00319364	-0.13582	0.0944523
4.16971	52.8508	-1.82409	-2.9786	96.9217	-159.725	39.8475	18.2717	6.0461	-3.0168	-22.4538	2.18578	-0.492681	-0.0639686	38.5614	38.5462	-10.4267	40.3901	-4.92092	-3.23922	0.0262968	-26.2767	3.86963	-0.883681	-3.35162	0.618601	0.285985	-1.66548	0.000778473	-0.127534	0.101739	-2.86985	-0.320963	0.117557	-1.64145	-0.00313873	-0.128846	0.0889835
4.1797	45.302	-3.2464	-3.33365	87.8104	-163.011	47.2062	15.3536	5.28143	-3.13801	-21.8738	1.93812	-0.424552	-0.0559837	37.671	40.1849	-10.7182	41.8294	-4.48308	-3.4201	0.0266805	-29.2033	4.61438	-0.695264	-3.26616	0.595246	0.289039	-1.7007	0.000350263	-0.132372	0.105675	-2.81846	-0.290323	0.118893	-1.67812	-0.00397777	-0.134809	0.0917995
4.18969	36.7078	-5.01887	-3.53547	77.1065	-160.524	55.0949	12.4779	4.23098	-3.14134	-20.9076	1.63781	-0.34483	-0.0469028	36.4275	41.5799	-10.9766	43.0024	-4.00385	-3.57848	0.027012	-33.1678	5.45477	-0.579182	-3.31296	0.594844	0.30405	-1.79669	-0.000118163	-0.14237	0.114015	-2.86652	-0.277716	0.12412	-1.7715	-0.00502807	-0.145815	0.0982656
4.19968	28.0087	-6.91696	-3.52247	66.6576	-152.648	62.3436	9.68628	3.04343	-3.05014	-19.6797	1.31154	-0.262277	-0.0374179	34.7523	42.6501	-11.182	43.9535	-3.47458	-3.72429	0.0273522	-37.2652	6.17417	-0.538881	-3.4378	0.615821	0.32566	-1.91861	-0.00046684	-0.154187	0.123954	-2.97772	-0.285194	0.129837	-1.8925	-0.00613427	-0.158764	0.106167
4.20967	20.5271	-8.39475	-3.2502	58.8253	-140.163	67.3378	6.71441	1.95727	-2.85834	-18.2876	0.968297	-0.18311	-0.0276562	32.8729	43.2503	-11.3214	44.6721	-2.88522	-3.86489	0.0277245	-40.2435	6.50247	-0.453134	-3.55219	0.670775	0.353426	-2.01384	-0.000186668	-0.162332	0.132232	-3.10476	-0.327759	0.124555	-1.99902	-0.00733436	-0.169697	0.111549
4.21966	14.8857	-8.89548	-2.82391	53.0189	-124.697	69.1861	3.47105	1.20503	-2.60243	-16.8381	0.616697	-0.108785	-0.0177352	31.3521	43.281	-11.39	45.0617	-2.22213	-4.00137	0.0280575	-41.946	6.34247	-0.111647	-3.59661	0.78659	0.397577	-2.05969	0.00129156	-0.164055	0.138863	-3.2282	-0.430613	0.0938968	-2.07743	-0.0091247	-0.178295	0.112019
4.22965	10.5321	-8.42143	-2.35745	48.1761	-107.019	68.2494	0.047895	0.779466	-2.31523	-15.3919	0.269237	-0.0404624	-0.00790965	30.1996	42.7872	-11.3734	45.1435	-1.4812	-4.13262	0.0283345	-42.8833	5.76679	0.48329	-3.57642	0.957569	0.45835	-2.06791	0.00383932	-0.160752	0.144801	-3.35125	-0.587919	0.0399651	-2.13812	-0.0115948	-0.185834	0.108547
4.23964	7.22304	-7.2131	-1.95127	43.5864	-88.2575	65.4518	-3.27224	0.612714	-2.04071	-14.0038	-0.055523	0.0207277	0.00136272	29.3013	41.884	-11.2568	44.9475	-0.660721	-4.25567	0.0285369	-43.2895	4.95306	1.21373	-3.50077	1.15203	0.525134	-2.04744	0.00692112	-0.154103	0.149608	-3.45648	-0.769744	-0.0263173	-2.1809	-0.0143716	-0.192012	0.102487
4.24963	4.72477	-5.55518	-1.66399	38.9313	-69.3244	61.7759	-6.35373	0.605721	-1.79639	-12.6773	-0.343757	0.0730199	0.00970219	28.5832	40.7076	-11.0435	44.506	0.24137	-4.36657	0.028642	-43.3159	4.07326	1.97107	-3.38127	1.34116	0.588178	-2.00654	0.0100541	-0.145593	0.152835	-3.53099	-0.948503	-0.0947407	-2.20554	-0.0170888	-0.196469	0.0950618
4.25962	3.57048	-3.81441	-1.43737	34.5354	-51.8014	58.1052	-8.98923	0.619379	-1.57893	-11.4191	-0.579725	0.112544	0.0166909	28.0545	39.3619	-10.7401	43.8396	1.2286	-4.46231	0.0286262	-42.5406	3.23462	2.6232	-3.204	1.48809	0.632261	-1.93451	0.0127205	-0.135027	0.152256	-3.53561	-1.09022	-0.154479	-2.19215	-0.0191518	-0.196695	0.0863776
4.26961	3.47207	-2.22211	-1.29452	30.548	-36.0238	55.0368	-11.2348	0.529897	-1.36042	-10.1897	-0.75971	0.136394	0.0222177	27.6519	37.9065	-10.3526	42.9906	2.30411	-4.54239	0.0285066	-41.057	2.52581	3.09498	-2.98385	1.5771	0.651984	-1.8388	0.0146328	-0.123482	0.147742	-3.46807	-1.17939	-0.199075	-2.14295	-0.0203326	-0.192626	0.0773251
4.2796	3.90889	-0.871835	-1.29529	25.8533	-21.5544	52.8481	-13.0764	0.277748	-1.11124	-9.00836	-0.88178	0.141912	0.0262549	27.4637	36.3751	-9.89538	41.9577	3.47492	-4.60739	0.0282761	-39.5404	2.03798	3.39002	-2.76752	1.61932	0.654185	-1.74676	0.015797	-0.113375	0.141633	-3.36601	-1.22414	-0.22814	-2.08413	-0.0208493	-0.186955	0.0695269
4.28959	5.07222	-0.0041854	-1.33107	20.2369	-8.88514	51.8839	-14.4733	-0.245415	-0.78582	-7.88005	-0.947183	0.12646	0.0288924	27.6513	34.8467	-9.39274	40.7274	4.74751	-4.65695	0.027952	-38.0334	1.77502	3.50507	-2.56652	1.61749	0.640245	-1.66237	0.0162304	-0.105017	0.134301	-3.2387	-1.22665	-0.241592	-2.01954	-0.0207235	-0.180044	0.0632318
4.29958	6.62263	0.328533	-1.34949	14.1211	1.95262	51.9312	-15.5791	-1.04003	-0.369202	-6.76006	-0.965771	0.0922665	0.0303621	28.1346	33.3937	-8.86523	39.3634	6.1223	-4.69186	0.0276381	-36.625	1.67384	3.46786	-2.38928	1.58378	0.614975	-1.58873	0.0160978	-0.0984656	0.126436	-3.10055	-1.19855	-0.242584	-1.95522	-0.0201293	-0.172635	0.0584617
4.30957	11.8187	-0.054502	-0.735092	16.3146	3.23871	52.7618	-16.444	-2.24391	0.139043	-5.41848	-0.937977	0.04148	0.0305817	28.1574	31.9571	-8.29863	38.0969	7.59658	-4.71979	0.0274526	-30.686	1.3237	3.1553	-1.9672	1.42446	0.526455	-1.35539	0.0148735	-0.079182	0.102526	-2.68518	-1.06155	-0.223967	-1.7097	-0.0171014	-0.145867	0.0453669
4.31956	15.9533	-0.902799	-0.296728	17.3146	4.22776	54.7987	-17.2967	-3.68407	0.739132	-4.09471	-0.882785	-0.0221438	0.0300402	28.4133	30.7249	-7.75712	36.761	9.18957	-4.7363	0.027322	-26.0061	1.27801	2.75168	-1.66225	1.26472	0.444031	-1.18299	0.0132964	-0.0657607	0.0828926	-2.3437	-0.919253	-0.19588	-1.5148	-0.014145	-0.123908	0.0364452
4.32955	18.4968	-2.03287	-0.133388	16.5626	5.56524	57.6647	-18.2743	-5.26483	1.40087	-2.77739	-0.807782	-0.0927609	0.0287698	28.9689	29.7021	-7.25695	35.3714	10.9169	-4.74488	0.0272009	-23.1269	1.53512	2.32691	-1.51198	1.13088	0.380058	-1.09156	0.011684	-0.0595389	0.0700497	-2.12584	-0.795945	-0.163949	-1.39623	-0.0117095	-0.109621	0.0325829
4.33954	18.9991	-3.24416	-0.328258	13.3931	7.93863	60.6574	-19.4125	-6.83487	2.06627	-1.47283	-0.71778	-0.162733	0.0267087	29.8412	28.8732	-6.80612	33.9438	12.7925	-4.75033	0.0270526	-22.5561	2.04346	1.9359	-1.5479	1.04978	0.346203	-1.09812	0.0103532	-0.0616404	0.0662475	-2.07516	-0.717421	-0.134137	-1.37738	-0.0102445	-0.105639	0.0345287
4.34953	16.7321	-4.34326	-1.06422	6.92105	12.5033	63.5647	-20.8519	-8.29101	2.70166	-0.153243	-0.617538	-0.226372	0.0237868	31.0516	28.2313	-6.41033	32.4922	14.8272	-4.75758	0.0268826	-24.9558	2.88114	1.62808	-1.80927	1.04394	0.353351	-1.22651	0.00952152	-0.0738984	0.0740422	-2.23769	-0.704064	-0.110443	-1.48613	-0.010161	-0.114984	0.0434798
4.35952	11.0622	-5.4151	-2.38963	-4.34835	20.1697	66.0034	-22.6186	-9.58215	3.27654	1.17427	-0.508715	-0.279788	0.0199258	32.6877	27.8589	-6.08624	31.0237	17.0288	-4.76866	0.0266852	-31.065	4.01641	1.44852	-2.32893	1.14381	0.414351	-1.4989	0.00949889	-0.0979923	0.096102	-2.65841	-0.785452	-0.0993649	-1.7521	-0.0120102	-0.140983	0.0605245
4.36951	1.31823	-6.26264	-4.50367	-22.2923	32.22	67.598	-24.7225	-10.5456	3.73588	2.50704	-0.396676	-0.315901	0.0151695	34.8445	27.7603	-5.83272	29.5365	19.4012	-4.78792	0.0264898	-41.7125	5.52855	1.47904	-3.13675	1.38285	0.543729	-1.93964	0.0106293	-0.135701	0.135395	-3.38199	-0.992524	-0.10875	-2.20688	-0.016411	-0.187282	0.086661
4.37951	-6.36688	-6.60035	-6.06749	-34.2985	36.9725	66.8535	-26.9868	-10.9861	4.01934	4.0382	-0.287439	-0.323598	0.00961828	36.5777	27.7276	-5.61558	28.2908	21.9378	-4.82955	0.0263598	-49.3225	6.35212	1.7208	-3.73125	1.63988	0.666987	-2.2508	0.0125876	-0.160789	0.166573	-3.94341	-1.22598	-0.142139	-2.54211	-0.020647	-0.222821	0.103355
4.3895	-12.1534	-6.28864	-7.21567	-41.5818	35.3087	64.1303	-29.3603	-10.7361	4.09629	5.7353	-0.201432	-0.295445	0.00394815	37.9609	27.7943	-5.44445	27.2742	24.6424	-4.89654	0.0262939	-54.2485	6.61963	2.09804	-4.13287	1.89898	0.779073	-2.44727	0.0150222	-0.175058	0.189947	-4.33962	-1.46899	-0.192459	-2.76559	-0.0245103	-0.248101	0.111873
4.39949	-16.154	-5.10744	-8.07371	-45.5397	28.2126	59.7435	-31.7653	-9.70046	3.96782	7.55334	-0.161902	-0.227342	-0.000940742	39.0838	27.9197	-5.3147	26.4751	27.5222	-4.99181	0.0262843	-56.8755	6.47658	2.58444	-4.36102	2.15199	0.878434	-2.54408	0.0177224	-0.18009	0.206223	-4.57527	-1.71134	-0.255466	-2.88736	-0.0279187	-0.263995	0.113253
4.40948	-18.6276	-3.03216	-8.71208	-46.9097	16.4862	54.0842	-34.2424	-7.94357	3.66309	9.4861	-0.18948	-0.122368	-0.00411797	39.948	28.1039	-5.21987	25.9075	30.5829	-5.11504	0.0263228	-57.4567	6.02902	3.16437	-4.42836	2.39204	0.963633	-2.55126	0.0205276	-0.176946	0.215838	-4.6513	-1.94458	-0.328016	-2.91323	-0.0307929	-0.270994	0.108168
4.41947	-19.4435	-0.285899	-9.08461	-46.2191	0.417495	47.6585	-36.7065	-5.7467	3.23407	11.4715	-0.291277	0.00575946	-0.00491508	40.5908	28.3185	-5.15499	25.5648	33.8293	-5.26496	0.026394	-56.0095	5.32293	3.81461	-4.33404	2.60748	1.03066	-2.47016	0.0232662	-0.16594	0.218443	-4.5585	-2.15655	-0.406562	-2.84087	-0.0329685	-0.268715	0.0968391
4.42946	-20.1989	3.34005	-9.48642	-43.4855	-16.392	40.808	-40.801	-3.3561	2.78739	14.3497	-1.16511	0.211614	-0.00306129	40.9536	28.5198	-5.1149	25.4625	37.2615	-5.43904	0.0264816	-52.3828	4.3991	4.50575	-4.06999	2.7805	1.07307	-2.29713	0.0257214	-0.146988	0.213154	-4.28125	-2.32943	-0.48637	-2.66245	-0.0341862	-0.25615	0.079272
4.43945	-18.1174	6.88356	-9.37518	-37.5678	-40.112	34.1859	-43.8652	-1.25508	2.26625	16.5972	-1.50537	0.3405	0.00133994	40.9447	28.6445	-5.09503	25.6235	40.8741	-5.63307	0.0265864	-46.3016	3.24084	5.19579	-3.62168	2.89072	1.08287	-2.02396	0.0276637	-0.119636	0.198649	-3.79833	-2.44376	-0.562362	-2.36598	-0.0341393	-0.231831	0.0552686
4.44944	-14.093	10.5251	-8.90698	-27.5988	-68.7427	27.8393	-47.0823	0.384821	1.74176	18.807	-1.83748	0.436971	0.00785692	40.5051	28.6001	-5.08905	26.0564	44.6562	-5.84121	0.0267321	-37.353	1.78242	5.84176	-2.96972	2.91626	1.05121	-1.63814	0.0288784	-0.0830195	0.173258	-3.08646	-2.47908	-0.629461	-1.93586	-0.0324867	-0.193882	0.0244
4.45943	-15.9808	12.8659	-10.5972	-32.7852	-86.7951	23.3929	-50.0916	1.25752	1.17293	20.5965	-2.09953	0.474649	0.0154055	41.1173	28.7777	-5.13505	26.3979	48.5934	-6.03788	0.0269486	-35.9231	1.87519	5.99068	-2.8168	2.96932	1.05586	-1.55461	0.0289935	-0.0755983	0.169336	-2.7934	-2.5345	-0.66067	-1.81032	-0.032428	-0.184778	0.0155147
4.46942	-15.5798	15.4114	-11.4848	-31.2989	-109.906	17.9177	-53.32	1.58296	0.648994	22.202	-2.28704	0.469163	0.0236045	41.1718	28.601	-5.16918	27.049	52.638	-6.23182	0.0272253	-31.0578	1.1607	6.38735	-2.38074	2.99094	1.03673	-1.31826	0.0294912	-0.0538062	0.154115	-2.27153	-2.56324	-0.706837	-1.53352	-0.031556	-0.16135	-0.00410651
4.47941	-20.1391	17.0523	-14.1065	-40.7874	-123.314	12.9082	-56.3594	1.51413	0.119445	23.2459	-2.3597	0.417578	0.0312182	42.0481	28.4621	-5.22882	27.6783	56.7394	-6.39609	0.0276804	-32.4184	1.52471	6.41627	-2.34312	3.05402	1.05393	-1.32498	0.0294965	-0.0551421	0.156887	-2.12577	-2.62984	-0.729646	-1.51741	-0.0323869	-0.162711	-0.00586589
4.4894	-19.4712	19.6048	-14.9625	-36.4715	-146.246	7.54	-59.1147	1.43303	-0.307892	23.8989	-2.34457	0.355764	0.0380124	41.7832	27.9496	-5.27749	28.6929	60.8156	-6.53427	0.0282547	-27.1194	0.695358	6.79722	-1.82952	3.03289	1.01814	-1.0611	0.0296917	-0.0313676	0.138357	-1.55558	-2.61766	-0.768186	-1.2164	-0.0310807	-0.136394	-0.0264299
4.49939	-15.1851	22.6756	-14.9297	-27.3092	-172.555	3.17141	-60.774	1.64808	-0.632402	23.9364	-2.25904	0.303991	0.0435153	41.2132	27.2329	-5.33165	29.9176	64.7894	-6.62406	0.0291542	-19.0105	-0.40706	7.10434	-1.1577	2.92196	0.940982	-0.701658	0.0291317	0.000336686	0.109704	-0.81267	-2.51889	-0.792117	-0.802117	-0.0280667	-0.0977168	-0.0523843
4.50938	-13.4446	24.632	-16.0485	-34.1627	-187.269	0.857259	-60.2006	2.0613	-0.866133	23.0709	-2.1363	0.272228	0.0477421	41.9409	26.6721	-5.41446	31.0004	68.5879	-6.63772	0.0303597	-18.0778	-0.10726	6.87834	-1.00855	2.84948	0.903054	-0.643195	0.0278256	0.00349647	0.102381	-0.558214	-2.45412	-0.780406	-0.70882	-0.0267731	-0.0886492	-0.0558442
4.51937	-16.5233	25.6123	-18.6902	-57.5939	-187.705	-0.63967	-59.0495	2.92602	-1.0228	22.4441	-2.21515	0.336274	0.0509591	44.2572	26.2586	-5.51045	31.8848	72.1136	-6.56556	0.0317798	-25.3464	1.4328	6.21869	-1.4259	2.87235	0.927263	-0.913602	0.0265254	-0.0235355	0.120336	-0.883944	-2.47963	-0.746347	-0.985472	-0.028213	-0.114494	-0.0355086
4.52936	-11.0461	24.6638	-18.8818	-83.0548	-188.032	1.37777	-52.0668	2.64193	-0.994671	18.9259	-2.00192	0.316525	0.0532235	46.3881	25.8168	-5.60901	32.8944	75.2269	-6.41201	0.03355	-30.6574	2.62033	5.69924	-1.7304	2.88068	0.939743	-1.11513	0.0254532	-0.0435282	0.132601	-1.12767	-2.48765	-0.717299	-1.19345	-0.0290615	-0.133104	-0.020348
4.53935	-4.03364	23.6121	-18.5243	-104.475	-185.482	6.05113	-45.3167	2.52295	-0.910054	16.0616	-2.09131	0.409925	0.0544776	48.3637	25.4569	-5.74026	33.9616	77.7965	-6.17584	0.0359418	-34.3184	3.76807	5.15812	-1.9737	2.84439	0.930748	-1.2735	0.0239991	-0.0595305	0.139513	-1.30044	-2.44801	-0.679227	-1.34711	-0.0288672	-0.145135	-0.00798812
4.54934	5.68609	21.6555	-17.4886	-124.357	-177.676	14.6253	-37.2849	1.92593	-0.76924	12.9035	-2.32667	0.546675	0.0545584	50.2147	25.2192	-5.92214	35.0321	79.704	-5.86425	0.039001	-36.9157	5.12623	4.58199	-2.20738	2.76931	0.905057	-1.41736	0.0220939	-0.0740947	0.143175	-1.44095	-2.36405	-0.629942	-1.47261	-0.0277523	-0.153074	0.00330066
4.55933	9.20437	16.4694	-18.648	-167.983	-145.217	26.9311	-27.7281	0.430018	-0.622432	9.37898	-2.70054	0.699601	0.0531593	54.0872	25.5724	-6.22856	35.6633	80.8582	-5.47785	0.0425118	-50.8874	8.50785	3.39757	-3.23659	2.82107	0.963148	-2.02305	0.0199592	-0.131127	0.181816	-2.35964	-2.39793	-0.548221	-2.10463	-0.0302406	-0.208823	0.0473537
4.56932	15.0841	10.682	-18.7827	-199.829	-110.626	42.8477	-18.8533	-1.88971	-0.410923	6.25551	-3.21795	0.861642	0.0498251	56.8782	26.0243	-6.58062	36.3495	81.1126	-5.05753	0.0465763	-60.4479	11.4382	2.50015	-3.99139	2.81855	0.987715	-2.46917	0.0178068	-0.172798	0.207178	-3.0045	-2.37228	-0.475142	-2.55413	-0.0310981	-0.246485	0.079105
4.57931	21.9605	4.66556	-18.4702	-219.497	-73.5227	62.1074	-11.3866	-4.76168	-0.153636	3.88111	-3.86687	1.0185	0.0447165	58.5414	26.4955	-6.95715	37.0559	80.3676	-4.63348	0.0512849	-66.0468	14.1883	1.72804	-4.53258	2.7349	0.971704	-2.78426	0.0151187	-0.202467	0.220268	-3.4082	-2.26191	-0.39697	-2.84279	-0.0300113	-0.267591	0.101471
4.58931	28.6156	-1.1457	-18.0653	-229.044	-34.8258	82.5261	-5.58327	-7.77084	0.0980739	2.41395	-4.6291	1.15697	0.0386711	59.3184	26.8431	-7.32148	37.7281	78.5736	-4.23924	0.0562378	-68.9159	16.7158	1.07991	-4.93084	2.60199	0.931714	-3.00783	0.0122534	-0.223573	0.225422	-3.66801	-2.10077	-0.317566	-3.02477	-0.0277481	-0.277867	0.1174
4.5993	35.2801	-5.97952	-17.4393	-225.226	-1.53731	101.283	-1.29988	-10.4652	0.27867	1.8546	-5.47713	1.27239	0.0329268	58.7685	26.7124	-7.56815	38.4207	75.7167	-3.9114	0.0609854	-68.1233	18.5867	0.614544	-5.12706	2.4202	0.86667	-3.09762	0.0094973	-0.232258	0.220574	-3.74898	-1.89461	-0.242976	-3.06285	-0.0243042	-0.274277	0.124432
4.60929	40.7571	-9.47836	-17.0267	-212.74	21.7783	114.342	2.24323	-12.3008	0.320185	1.90653	-6.34073	1.3662	0.0276777	57.3537	25.8279	-7.61993	39.0706	71.8479	-3.67624	0.0647497	-66.0829	19.7207	0.240531	-5.28357	2.24109	0.805204	-3.13843	0.00730582	-0.236326	0.214255	-3.84399	-1.70091	-0.17544	-3.06499	-0.0210071	-0.268039	0.129189
4.61928	45.7566	-11.0318	-16.5597	-188.016	21.4603	117.032	5.6124	-12.7839	0.185274	2.40628	-7.13466	1.45052	0.0223223	54.8371	23.7819	-7.37344	39.748	67.068	-3.55097	0.066576	-61.7489	19.4234	-0.0511707	-5.35632	2.06608	0.747027	-3.08497	0.00598452	-0.231978	0.204648	-3.92886	-1.53234	-0.120544	-2.99231	-0.0179114	-0.256206	0.12961
4.62927	50.6748	-9.80286	-15.9286	-146.521	-20.1016	104.039	9.15894	-11.2496	-0.181974	3.3375	-7.78046	1.54871	0.0159469	50.8873	20.1219	-6.72363	40.597	61.5367	-3.53647	0.0653277	-53.773	17.0221	-0.320332	-5.2911	1.88093	0.68568	-2.88278	0.00561647	-0.215024	0.188954	-3.95258	-1.3883	-0.0801232	-2.79065	-0.0148183	-0.234385	0.123413
4.63926	56.2626	-4.90548	-14.8638	-83.1537	-125.195	68.5029	13.4076	-6.97036	-0.843071	4.68903	-8.20184	1.68456	0.0072518	45.1709	14.3021	-5.55499	41.8241	55.4779	-3.61576	0.0596078	-40.4339	11.5867	-0.562307	-5.00212	1.68888	0.61969	-2.45637	0.00660652	-0.179132	0.163911	-3.84278	-1.28809	-0.0646475	-2.38842	-0.011746	-0.197122	0.106636
4.64925	63.7069	4.60135	-13.1359	7.95074	-320.01	3.02307	19.0885	0.753664	-1.83815	6.40323	-8.317	1.86934	-0.00566032	37.2997	5.68825	-3.72055	43.7201	49.1712	-3.75479	0.0478667	-19.5352	2.17676	-0.789648	-4.38484	1.48292	0.542836	-1.71527	0.00925005	-0.11683	0.125033	-3.49665	-1.24247	-0.0834068	-1.69404	-0.00849128	-0.137097	0.0744736
4.65924	73.9901	19.6422	-10.5818	133.092	-633.382	-100.586	26.8895	12.5744	-3.19947	8.45337	-8.0434	2.08898	-0.0249835	26.744	-6.4378	-1.04232	46.6876	42.9331	-3.90655	0.028563	11.2851	-12.2257	-0.993733	-3.31107	1.26179	0.449909	-0.557229	0.0139445	-0.0195895	0.0673912	-2.78997	-1.26928	-0.14945	-0.605171	-0.00493215	-0.0462881	0.0212534
4.66923	88.2311	40.9426	-7.27997	296.212	-1094.41	-250.633	37.6436	29.0104	-4.97309	10.7536	-7.28921	2.28977	-0.0530149	13.3415	-22.8131	2.66902	51.1465	37.0976	-4.01968	0.0002442	53.8918	-32.5506	-1.22646	-1.67856	1.025	0.336741	1.10248	0.0209869	0.119282	-0.012823	-1.61861	-1.38801	-0.273264	0.961867	-0.00104784	0.0815902	-0.0572674
4.67922	107.658	69.3396	-3.30298	502.897	-1729.92	-454.19	51.7156	50.5276	-7.18158	13.3498	-5.96878	2.37597	-0.0915658	-3.41195	-44.1489	7.63531	57.6208	31.9535	-4.05104	-0.0376669	111.103	-59.6418	-1.49391	0.699289	0.753952	0.187522	3.38735	0.0305176	0.310008	-0.123135	0.215868	-1.59707	-0.466138	3.13775	0.00366803	0.257563	-0.168368
4.68921	133.469	105.601	1.00429	753.929	-2559.23	-717.279	69.4421	77.4908	-9.8045	16.1865	-3.97601	2.19507	-0.14197	-23.4006	-71.0895	14.0623	66.5417	27.7213	-3.98294	-0.0849296	184.545	-94.0242	-1.81693	3.95474	0.447847	-0.0057363	6.37772	0.0426666	0.559114	-0.268183	2.86236	-1.90721	-0.738839	6.00732	0.00938718	0.488474	-0.31694
4.6992	48.0169	0.786548	-8.69878	-0.173812	-2.95591	-5.21938	28.4632	14.7574	-5.91575	15.3689	-8.40843	0.997852	0.0220017	35.3152	2.9487	-1.83955	19.2426	19.1999	-1.55684	0.0266301	-52.6755	1.83606	3.73289	-5.92649	3.04173	1.21578	-2.80823	0.0296746	-0.181073	0.250331	-6.33638	-2.63445	-0.439134	-3.29812	-0.0358859	-0.302133	0.115011
4.70919	53.2275	0.121141	-6.62083	-0.140304	-0.814378	-3.92244	34.1691	17.353	-6.60688	16.0422	-7.5519	0.119595	0.0246578	34.7976	3.28369	-1.56279	13.306	15.0653	-0.987912	0.0139421	-52.1161	1.79676	4.43226	-5.63167	3.06688	1.22785	-2.71471	0.0308377	-0.171439	0.247343	-6.17774	-2.65464	-0.475738	-3.22626	-0.037002	-0.298401	0.106445
4.71918	58.5413	-0.362882	-4.68837	0.353633	0.0643915	-2.9392	39.5463	19.8936	-7.23898	16.6868	-6.62199	-0.760679	0.0271107	34.156	3.62933	-1.30005	7.5037	11.4616	-0.628645	-2.23382e-05	-51.1113	1.7058	5.09223	-5.33015	3.09313	1.23643	-2.61061	0.0318917	-0.16083	0.24311	-5.98085	-2.67566	-0.512828	-3.13513	-0.0378484	-0.29262	0.0968044
4.72917	64.5528	-0.663728	-2.88679	0.299548	0.150431	-2.57698	44.4969	22.3453	-7.79295	17.311	-5.6566	-1.62282	0.02943	33.6479	3.95537	-1.07294	1.8086	8.48359	-0.464053	-0.0146876	-49.245	1.50252	5.68926	-4.964	3.10914	1.23304	-2.4715	0.0326823	-0.147305	0.235216	-5.67773	-2.68644	-0.550412	-2.99632	-0.0381569	-0.281973	0.0844622
4.73916	71.1493	-0.965579	-1.10486	0.472532	0.0317623	-2.55043	48.7241	24.6781	-8.25512	17.9881	-4.68554	-2.44856	0.0316568	33.3227	4.36957	-0.928676	-3.74587	6.16908	-0.459504	-0.0293772	-46.3342	1.11285	6.21878	-4.51718	3.10899	1.21515	-2.28888	0.0332243	-0.13014	0.222934	-5.26482	-2.682	-0.587671	-2.80447	-0.0378744	-0.265824	0.0691405
4.74915	82.7521	-1.99267	1.32364	1.11107	1.17599	-1.5749	52.6456	26.789	-8.61431	18.7251	-3.75941	-3.21291	0.0348422	32.4558	5.22448	-0.821114	-9.33376	4.44311	-0.565954	-0.0412835	-37.3313	0.295609	6.35189	-3.51074	2.93961	1.08934	-1.83423	0.0315113	-0.091467	0.1822	-4.12769	-2.5158	-0.608651	-2.27574	-0.0335545	-0.215029	0.0363254
4.75914	88.4996	-2.64536	2.65747	0.857739	0.132946	-3.06924	55.4485	28.917	-8.94715	19.5509	-2.79913	-3.92276	0.0365442	31.7867	5.84913	-0.818092	-14.3008	3.31502	-0.735207	-0.0522043	-33.1937	-0.133824	6.35874	-2.98196	2.85493	1.02359	-1.60451	0.0303684	-0.0726584	0.161603	-3.49375	-2.43369	-0.619802	-1.99868	-0.0313672	-0.189024	0.0196913
4.76913	88.1593	-3.44063	3.20314	1.23811	0.0710043	-3.04811	56.7597	30.6931	-9.21212	20.547	-1.81679	-4.5756	0.0372022	31.0188	6.60258	-1.02939	-18.4417	2.64482	-0.900143	-0.0604662	-33.5852	0.101206	6.21709	-2.9122	2.80791	1.00295	-1.59456	0.029369	-0.0735848	0.159209	-3.35674	-2.38748	-0.608685	-1.96516	-0.0307533	-0.186164	0.0196074
4.77912	82.2178	-4.24814	3.20241	1.54609	1.43484	-1.20231	56.769	32.1094	-9.40948	21.6825	-0.811519	-5.16406	0.0370512	29.8494	7.41609	-1.42079	-21.6086	2.27195	-1.0151	-0.0642863	-37.887	0.928581	5.96476	-3.20888	2.78518	1.01771	-1.76692	0.0284077	-0.0910101	0.171744	-3.61989	-2.36353	-0.578203	-2.13316	-0.0314356	-0.202517	0.0332487
4.78912	71.5764	-4.15766	2.74302	0.438417	0.759095	-1.54495	55.8526	33.6312	-9.57668	22.9111	0.226585	-5.67536	0.0360545	28.2084	7.83143	-1.84935	-23.6921	2.06855	-1.06067	-0.0632702	-45.3457	1.84533	5.75905	-3.75184	2.82507	1.07413	-2.06634	0.0280509	-0.119411	0.196732	-4.16772	-2.40108	-0.549806	-2.44983	-0.0337751	-0.234263	0.0555468
4.79911	62.1696	-3.65253	3.02567	0.692257	0.727571	-1.89257	54.4249	35.0782	-9.66145	24.2051	1.26202	-6.10161	0.0355814	25.4767	8.09422	-2.25116	-24.8895	1.9098	-1.02769	-0.0571046	-49.6534	2.20211	5.64131	-3.94068	2.81264	1.09193	-2.20355	0.027549	-0.133592	0.208018	-4.38372	-2.39044	-0.531213	-2.60024	-0.0349949	-0.24992	0.0668704
4.8091	54.6885	-2.86553	4.00906	1.819	1.13771	-1.91611	52.6717	36.3266	-9.6588	25.4914	2.31224	-6.45462	0.0356131	21.9203	8.22024	-2.61073	-25.2668	1.74773	-0.926145	-0.0477288	-50.6384	2.04549	5.64832	-3.76807	2.75199	1.07243	-2.17338	0.0270055	-0.132887	0.205424	-4.26728	-2.33489	-0.524401	-2.58018	-0.0351125	-0.249115	0.066717
4.81909	45.5994	-1.49607	4.79834	2.77012	0.16784	-3.01133	50.4038	37.4588	-9.61259	26.7373	3.42388	-6.75442	0.0352267	18.1671	8.03341	-2.93134	-24.781	1.57454	-0.773365	-0.037754	-52.4648	1.84652	5.77842	-3.6695	2.72684	1.07346	-2.17863	0.0269989	-0.134686	0.207375	-4.25988	-2.31281	-0.52447	-2.60755	-0.0360033	-0.253562	0.0685693
4.82908	36.2061	-0.0631309	5.41319	2.13126	0.531085	-3.02258	47.8166	38.178	-9.50208	27.8539	4.60025	-7.01665	0.0347582	14.6521	7.73738	-3.25007	-23.6919	1.36997	-0.588736	-0.028306	-54.7592	1.79317	5.95651	-3.61833	2.7059	1.08069	-2.20909	0.0270868	-0.138437	0.211434	-4.31531	-2.29129	-0.522802	-2.66362	-0.0370832	-0.260664	0.0720019
4.83907	27.508	1.28929	5.87956	3.70054	-2.25543	-1.97519	44.8288	38.5112	-9.32621	28.8838	5.85236	-7.25068	0.0340177	11.315	7.37471	-3.54692	-22.0691	1.11642	-0.391518	-0.0198967	-56.1669	1.84898	6.10014	-3.58041	2.65459	1.07834	-2.22817	0.0269543	-0.141209	0.213859	-4.38046	-2.23912	-0.511843	-2.70224	-0.0375884	-0.265371	0.0752867
4.84906	19.166	2.66074	5.9352	7.00495	-5.27038	-2.88539	41.5781	38.7116	-9.12333	29.7763	7.18749	-7.45964	0.032946	8.32269	6.78518	-3.74138	-20.2088	0.815087	-0.206383	-0.0125922	-57.6053	1.86175	6.10878	-3.686	2.61545	1.08251	-2.28735	0.0267495	-0.147267	0.218925	-4.54406	-2.19806	-0.493644	-2.77269	-0.0379082	-0.272317	0.081297
4.85905	14.1184	3.45521	5.86	8.47327	-6.98732	-4.12352	39.1617	38.6429	-8.89706	30.3075	8.59705	-7.64292	0.0321891	5.35943	6.31144	-3.95715	-17.5746	0.206716	0.0593399	-0.0055223	-57.3415	1.90154	5.72234	-3.76611	2.51137	1.04852	-2.30951	0.025352	-0.151091	0.21669	-4.57178	-2.09418	-0.453303	-2.77501	-0.0364088	-0.270304	0.0857217
4.86904	11.7553	3.57255	5.48379	8.74669	-7.77129	-5.22887	37.7725	38.2919	-8.65216	30.4577	10.0974	-7.80705	0.0313455	2.62922	5.78241	-3.79829	-16.2615	-0.0287733	0.110221	0.0010182	-55.6652	2.08682	5.018	-3.77612	2.33796	0.977497	-2.28619	0.0227801	-0.152337	0.207436	-4.43526	-1.92481	-0.393957	-2.70244	-0.0333374	-0.259658	0.088178
4.87903	10.3601	3.21128	5.00512	8.60114	-7.89475	-6.2397	36.9652	37.7789	-8.39307	30.3367	11.6771	-7.95342	0.0305204	-0.23434	5.378	-3.57325	-14.9346	-0.253506	0.150949	0.00735954	-53.6118	2.40069	4.12503	-3.81156	2.14435	0.894061	-2.26365	0.0196353	-0.15421	0.196482	-4.25625	-1.73621	-0.32496	-2.61266	-0.0295707	-0.246532	0.0908857
4.88902	9.71001	2.61882	4.43973	8.25429	-7.67717	-7.26495	36.6074	37.1659	-8.11953	29.9736	13.3362	-8.08621	0.0296617	-3.02909	5.03607	-3.3073	-13.6389	-0.456504	0.180801	0.0132495	-51.3934	2.81445	3.18941	-3.86914	1.95573	0.810157	-2.24414	0.0163607	-0.156337	0.185426	-4.06109	-1.55237	-0.255853	-2.51591	-0.0256146	-0.232622	0.0933613
4.89901	9.63496	1.86192	3.87966	7.83599	-7.27433	-8.35595	36.5223	36.4402	-7.82066	29.4135	15.0767	-8.21187	0.0287787	-5.58241	4.7319	-3.02125	-12.387	-0.625316	0.198838	0.0183119	-49.1303	3.2377	2.32461	-3.93663	1.79314	0.734887	-2.22532	0.0133423	-0.158035	0.175228	-3.86527	-1.39395	-0.195037	-2.41794	-0.0218879	-0.219032	0.094975
4.909	9.94427	1.06165	3.33223	7.44071	-6.8517	-9.5465	36.5853	35.6179	-7.49348	28.7001	16.9044	-8.33488	0.0278996	-7.81504	4.39602	-2.69512	-11.1768	-0.74849	0.201598	0.0221828	-46.9366	3.61849	1.5873	-4.00684	1.66565	0.672648	-2.20684	0.010773	-0.159067	0.16643	-3.6799	-1.26996	-0.146303	-2.32374	-0.0186209	-0.206511	0.0955547
4.91899	10.4054	0.267693	2.8383	7.09447	-6.51956	-10.7777	36.6787	34.7021	-7.1359	27.8883	18.8281	-8.4583	0.0270803	-9.74446	3.99042	-2.31219	-9.98096	-0.822224	0.187772	0.0247102	-44.8856	3.90176	1.00262	-4.06789	1.57552	0.624672	-2.1865	0.00874607	-0.159186	0.159093	-3.50782	-1.18292	-0.111265	-2.23542	-0.015935	-0.195372	0.0949926
4.92898	15.335	-0.760825	2.58336	7.06482	-5.64197	-12.2433	36.6561	33.5098	-6.73321	27.0033	20.8418	-8.58643	0.026975	-10.7731	3.51931	-1.93346	-8.8128	-0.843431	0.161248	0.025855	-39.2517	3.79483	0.477601	-3.77725	1.4469	0.539637	-1.99511	0.00677662	-0.143926	0.13739	-3.01285	-1.06483	-0.0894314	-1.97735	-0.0121268	-0.167438	0.0828412
4.93897	19.4153	-1.51496	2.33283	7.00361	-5.0898	-13.4976	36.5927	32.2985	-6.31874	26.0785	22.9888	-8.71266	0.0269112	-11.7494	2.86221	-1.44692	-7.61274	-0.823438	0.117424	0.0258251	-34.3981	3.63417	0.124531	-3.50258	1.35629	0.473387	-1.82264	0.00541007	-0.129677	0.119012	-2.58353	-0.983998	-0.0795719	-1.75426	-0.00919431	-0.143786	0.0712956
4.94896	22.1978	-1.87341	2.11521	7.05335	-4.8299	-14.6264	36.5158	31.1577	-5.91011	25.1416	25.2933	-8.83118	0.0268282	-12.916	1.98502	-0.832666	-6.32576	-0.774829	0.0586044	0.0249507	-30.554	3.39874	-0.0538863	-3.26276	1.30567	0.428316	-1.67905	0.00467909	-0.1173	0.104829	-2.24518	-0.941558	-0.0807401	-1.5782	-0.00723078	-0.125562	0.0611206
4.95895	23.6132	-1.90251	1.93998	6.8893	-4.65922	-15.2708	36.4729	30.0872	-5.51731	24.2014	27.7796	-8.93787	0.0267202	-14.288	0.939358	-0.117586	-4.97809	-0.708962	-0.00972047	0.0235436	-27.8602	3.13542	-0.0854052	-3.07343	1.287	0.402607	-1.57239	0.00446018	-0.107664	0.0951181	-2.01027	-0.928608	-0.0889617	-1.45572	-0.00614729	-0.113203	0.0530921
4.96894	23.2323	-1.52136	1.81131	6.54324	-4.66995	-15.4717	36.4576	29.1944	-5.1608	23.2919	30.4696	-9.02497	0.0265829	-16.0471	-0.24356	0.677156	-3.52682	-0.636492	-0.0824407	0.0218315	-26.5396	2.86594	0.0161653	-2.95649	1.29751	0.396917	-1.5136	0.00469402	-0.101826	0.0906282	-1.89903	-0.941544	-0.101633	-1.39704	-0.00594838	-0.107625	0.0480854
4.97893	20.597	-0.860705	1.78855	5.87004	-4.73446	-14.9461	36.4814	28.4729	-4.84638	22.4299	33.385	-9.08709	0.026408	-18.2829	-1.47752	1.49845	-1.96335	-0.562625	-0.15357	0.0198382	-26.9733	2.62009	0.218349	-2.95205	1.33394	0.412567	-1.52198	0.00527576	-0.101647	0.0926576	-1.94549	-0.976481	-0.11468	-1.42011	-0.00665002	-0.110437	0.0475937
4.98892	15.2049	-0.0127603	1.87823	4.80531	-4.70129	-13.2175	36.5623	27.9432	-4.579	21.6269	36.5449	-9.11709	0.0261559	-21.0438	-2.65648	2.29298	-0.290854	-0.490856	-0.217841	0.0175637	-29.6406	2.47959	0.479927	-3.11682	1.39035	0.451009	-1.62404	0.00603963	-0.109674	0.102946	-2.19538	-1.02652	-0.122227	-1.54836	-0.00824136	-0.12372	0.0536171
4.99892	6.56977	0.654057	2.12786	3.04734	-4.4635	-9.11618	36.783	27.5254	-4.35088	20.8718	39.965	-9.10828	0.0258114	-24.3628	-3.53891	2.99027	1.50319	-0.421837	-0.268327	0.0148634	-35.0893	2.55254	0.721165	-3.51417	1.45141	0.510608	-1.85014	0.00667108	-0.129013	0.123131	-2.69489	-1.07604	-0.114926	-1.80721	-0.0106037	-0.149583	0.0686422
5.00891	1.01627	1.21032	2.34616	-6.10002	-11.8882	-6.17474	39.3841	27.5691	-4.25058	19.5472	43.6846	-9.04566	0.0248316	-25.9771	-4.2204	3.45421	2.78505	-0.317351	-0.300325	0.0109358	-42.0515	2.39046	0.82755	-4.07074	1.5129	0.580918	-2.1487	0.00714111	-0.155394	0.149107	-3.34653	-1.12878	-0.0961267	-2.14151	-0.0133633	-0.182683	0.0895996
5.0189	-1.63532	2.97271	2.59336	-14.8323	-23.1502	-13.5232	42.0358	28.8503	-4.3271	18.3817	47.6066	-8.90318	0.0241722	-27.4556	-5.41795	3.86392	4.07401	-0.222881	-0.319775	0.00705462	-46.1625	1.13925	0.819954	-4.37988	1.5932	0.632972	-2.30983	0.00798809	-0.169481	0.16471	-3.73098	-1.21384	-0.0985222	-2.34158	-0.0156564	-0.203069	0.101117
5.02889	-0.779894	4.72029	2.58122	-30.1911	-36.3147	-22.5586	45.4287	30.7331	-4.54509	17.1817	51.6943	-8.68637	0.0240123	-28.202	-6.22311	4.04369	5.23529	-0.159528	-0.306822	0.00373058	-48.4415	-0.198606	0.642931	-4.41472	1.60315	0.640828	-2.35863	0.00802405	-0.175027	0.168845	-3.8178	-1.23593	-0.0961474	-2.41881	-0.0167042	-0.211015	0.106116
5.03888	-2.96454	6.15918	2.50683	-41.4033	-42.2815	-27.9598	47.3854	32.8372	-4.82253	16.5632	55.8633	-8.3985	0.0246922	-30.6386	-6.22156	4.05956	6.92536	-0.168387	-0.262265	0.00180294	-50.3891	-0.903677	0.399743	-4.3951	1.54311	0.622451	-2.39484	0.0072133	-0.180204	0.169205	-3.83753	-1.18431	-0.0758302	-2.47044	-0.0167675	-0.215301	0.110983
5.04887	-5.51706	6.55492	2.56373	-49.0556	-45.157	-31.8986	48.666	35.0764	-5.16257	16.3275	60.0919	-8.04732	0.0258167	-33.8378	-5.32204	3.86121	8.9027	-0.240951	-0.18478	0.00126218	-51.1718	-1.50197	0.00622658	-4.30409	1.4298	0.578789	-2.39054	0.00586534	-0.182422	0.164276	-3.77893	-1.08438	-0.0433902	-2.47643	-0.0159066	-0.213973	0.11429
5.05886	-7.31163	6.05038	2.72119	-55.3454	-47.0792	-35.2535	49.7287	37.418	-5.57007	16.3771	64.3488	-7.6381	0.0271847	-37.2985	-3.77213	3.48561	11.0245	-0.37022	-0.085926	0.00226221	-50.7243	-2.12008	-0.48457	-4.1192	1.28201	0.515309	-2.33583	0.00424103	-0.18057	0.154144	-3.62818	-0.955779	-0.00637466	-2.43082	-0.0143825	-0.206947	0.115025
5.06885	-8.52883	4.84171	2.96937	-59.9582	-45.9278	-37.9235	50.5748	39.7447	-6.03314	16.7093	68.5835	-7.17682	0.0288839	-41.103	-1.84597	2.99975	13.2692	-0.556696	0.0202391	0.00509254	-49.2684	-2.73541	-1.04376	-3.87244	1.11224	0.43803	-2.24467	0.00247681	-0.175578	0.140147	-3.4216	-0.809505	0.0335677	-2.34964	-0.0123641	-0.19575	0.11383
5.07884	-9.05608	3.21455	3.28662	-63.9675	-44.3495	-40.429	51.2853	41.9989	-6.54618	17.3463	72.746	-6.6707	0.0307522	-45.072	0.127355	2.45698	15.5512	-0.787254	0.118994	0.00965386	-46.8509	-3.37249	-1.64864	-3.5493	0.927123	0.349058	-2.11253	0.000636249	-0.167105	0.122407	-3.14358	-0.652678	0.0732103	-2.22825	-0.00997527	-0.180343	0.110282
5.08883	-8.90129	1.39348	3.64912	-67.1902	-42.3303	-42.8265	51.8351	44.1341	-7.10471	18.3243	76.769	-6.12588	0.0327918	-49.2302	1.94001	1.90649	17.816	-1.05116	0.200909	0.0157533	-43.4211	-3.98933	-2.28203	-3.14867	0.730397	0.249553	-1.93811	-0.00123804	-0.154941	0.100957	-2.79188	-0.488322	0.111251	-2.06474	-0.00723379	-0.160608	0.104141
5.09882	-7.89689	-0.492447	4.00843	-69.586	-40.0208	-45.3138	52.1175	46.0673	-7.70005	19.6856	80.5742	-5.5509	0.0350251	-53.5986	3.39447	1.40515	20.0054	-1.33782	0.261288	0.0231098	-38.6145	-4.56156	-2.9819	-2.62518	0.509892	0.131755	-1.7012	-0.00328207	-0.137552	0.0737695	-2.31721	-0.305829	0.148812	-1.83725	-0.00390751	-0.134305	0.0943084
5.10881	-15.804	-2.41702	6.01288	-71.7145	-36.031	-43.4134	52.4364	47.3367	-8.21258	21.4289	84.1256	-4.96309	0.0363343	-58.2346	4.90804	0.885608	21.8902	-1.55937	0.28895	0.0291489	-42.3585	-5.46611	-2.78299	-2.92087	0.578554	0.182739	-1.86477	-0.00234827	-0.150897	0.0888964	-2.73213	-0.375311	0.146084	-2.04205	-0.00608412	-0.154525	0.105012
5.1188	-21.3317	-4.11333	7.37116	-73.095	-32.145	-42.0258	52.4704	48.3844	-8.75461	23.5625	87.2747	-4.35663	0.0378113	-62.6987	5.76509	0.535826	23.4027	-1.77863	0.30113	0.0356213	-43.5584	-5.99534	-3.11219	-3.01636	0.513156	0.164676	-1.92232	-0.00319996	-0.157464	0.0900713	-2.85973	-0.324431	0.174767	-2.11253	-0.00576689	-0.159327	0.11163
5.12879	-22.9044	-5.73778	8.11849	-74.2527	-28.6106	-41.4659	52.2352	49.2342	-9.34673	26.0012	89.9116	-3.73443	0.0396904	-66.1403	6.27906	0.327486	24.3522	-1.9824	0.314084	0.0419138	-41.5969	-6.41149	-3.67037	-2.81471	0.363829	0.0943707	-1.83206	-0.00474683	-0.152134	0.0768172	-2.68694	-0.20222	0.21078	-2.03017	-0.00378708	-0.148055	0.11023
5.13878	-22.6219	-6.97637	8.57535	-74.9976	-24.6512	-40.9385	51.8658	49.8667	-9.96127	28.7555	91.946	-3.10265	0.04168	-68.1049	6.62334	0.233019	24.6149	-2.13855	0.33085	0.0469466	-39.4112	-6.77283	-4.02702	-2.64642	0.257933	0.0430224	-1.74572	-0.00557906	-0.145853	0.0658061	-2.57347	-0.118213	0.233898	-1.95819	-0.00231415	-0.138343	0.107885
5.14877	-18.458	-7.83331	8.40931	-75.1903	-20.8198	-41.2129	51.0992	50.3544	-10.6205	31.7614	93.2658	-2.47034	0.0439986	-68.398	6.7389	0.246763	24.1867	-2.25341	0.352896	0.0507975	-34.7926	-7.05448	-4.33462	-2.26788	0.130736	-0.0286637	-1.5497	-0.00618006	-0.129565	0.046184	-2.28915	-0.0177481	0.248749	-1.78357	-0.000222167	-0.118471	0.0985667
5.15876	-22.0416	-7.38746	9.39984	-75.0561	-15.5822	-37.6284	50.3468	50.2801	-11.1883	35.0959	93.8471	-1.86483	0.0451346	-68.039	6.72896	0.281122	23.677	-2.64394	0.385016	0.0513188	-38.9586	-7.33027	-3.4872	-2.88351	0.334342	0.096931	-1.80864	-0.00325913	-0.147256	0.0752757	-3.05202	-0.196492	0.218462	-2.08451	-0.00401302	-0.149879	0.111631
5.16875	-21.4481	-5.79029	9.36934	-74.6194	-10.6041	-34.7656	49.3487	50.1214	-11.781	38.4958	93.5476	-1.28974	0.0465126	-65.0218	6.19438	0.354923	21.9563	-2.63343	0.396877	0.0507659	-41.7293	-7.22063	-2.73849	-3.4217	0.494588	0.200168	-2.01851	-0.000768202	-0.160956	0.0989323	-3.71599	-0.33306	0.196434	-2.32621	-0.00685435	-0.174665	0.12205
5.17874	-20.1435	-3.33124	9.08308	-73.7363	-5.44905	-30.8853	48.3524	49.5613	-12.324	41.8794	92.3276	-0.775404	0.0477639	-60.5442	5.27202	0.405033	19.6786	-2.53912	0.391515	0.0485695	-45.534	-6.78063	-1.83093	-4.14935	0.690395	0.330638	-2.30259	0.00208708	-0.180278	0.13007	-4.56044	-0.495572	0.173728	-2.63742	-0.0102681	-0.20668	0.136373
5.18873	-15.6306	-0.601692	8.15931	-71.7281	-0.647433	-26.8999	46.9414	48.5779	-12.8065	45.0598	90.1208	-0.343961	0.049394	-55.1669	3.92137	0.427373	17.0943	-2.38302	0.366136	0.0455029	-46.4605	-5.97466	-1.25277	-4.60317	0.766053	0.399461	-2.45193	0.00376681	-0.189716	0.14687	-5.12014	-0.55301	0.170964	-2.80438	-0.0117093	-0.223161	0.14466
5.19873	-9.51612	1.62641	7.07082	-67.0125	4.41278	-21.538	45.2047	46.8181	-13.1252	47.9028	86.9218	-0.0253935	0.0512632	-49.594	2.4788	0.405848	14.4875	-2.15396	0.318931	0.0412453	-45.35	-4.88447	-0.962437	-4.89017	0.749891	0.42314	-2.51309	0.00449374	-0.192999	0.153835	-5.49638	-0.530699	0.186427	-2.8743	-0.0116427	-0.228949	0.149517
5.20872	-3.27028	2.46214	6.06384	-53.3911	10.2231	-13.9367	42.019	44.0807	-13.1781	50.4136	82.7242	0.164077	0.0536817	-45.467	1.37557	0.369133	12.5061	-1.86726	0.254231	0.0359372	-40.156	-3.52344	-1.1995	-4.79926	0.560503	0.358467	-2.38559	0.00357893	-0.182629	0.140545	-5.49387	-0.360438	0.232517	-2.74843	-0.00881706	-0.213299	0.146613
5.21871	-1.27853	2.04211	6.08082	-28.9429	14.0031	-5.11816	37.2987	40.2107	-12.8366	52.673	77.6277	0.213261	0.0557324	-42.9638	0.647277	0.2981	11.0824	-1.3245	0.107603	0.0289916	-34.7391	-2.36469	-1.54322	-4.75581	0.374032	0.295879	-2.26218	0.00266025	-0.172962	0.128072	-5.52259	-0.198579	0.281133	-2.62584	-0.00598709	-0.19811	0.14475
5.2287	0.77786	1.53558	6.64268	-11.6993	13.503	-1.32402	33.5218	36.2794	-12.3165	53.9802	71.7902	0.150989	0.0565328	-41.6843	-0.270983	0.141315	10.6203	-1.08091	0.0220686	0.0212188	-28.4052	-1.7666	-1.79551	-4.50025	0.245121	0.237429	-2.05005	0.00224469	-0.155523	0.111232	-5.29698	-0.0970682	0.29841	-2.40902	-0.00360242	-0.176257	0.135342
5.23869	6.50381	0.626772	6.81929	-3.30558	13.5059	-1.49026	30.9645	32.549	-11.6709	53.9507	65.3254	0.00270869	0.0566488	-38.2723	-0.587748	-0.0920835	9.69976	-0.514232	-0.143713	0.0139133	-22.0018	-1.70817	-1.93614	-4.08784	0.195701	0.190098	-1.78671	0.00236026	-0.13297	0.0920049	-4.85656	-0.0694329	0.28327	-2.13378	-0.00180158	-0.150504	0.119651
5.24868	16.9994	-1.04669	6.41204	-0.859439	11.7343	-1.83415	29.4776	28.6383	-10.8242	52.5616	58.4037	-0.221225	0.0554666	-32.7442	-0.536617	-0.285452	8.0914	0.0865027	-0.338477	0.00706907	-14.1158	-1.58346	-2.18853	-3.49314	0.119038	0.117346	-1.43939	0.00198462	-0.103832	0.0650995	-4.17105	-0.0163137	0.265719	-1.7554	0.000895214	-0.114936	0.0983262
5.25867	29.1811	-3.59988	5.74597	-0.508417	9.14671	-1.67576	28.3035	24.6011	-9.76875	49.9861	51.1837	-0.491438	0.0528165	-26.441	0.210617	-0.386374	6.2461	0.732078	-0.5624	0.00170605	-5.29136	-1.39921	-2.56439	-2.75189	0.00749246	0.0202301	-1.03009	0.00101137	-0.0702219	0.0319904	-3.2813	0.0705824	0.250469	-1.29689	0.0044194	-0.0716549	0.0731033
5.26866	29.2748	-3.95848	6.05942	-0.892812	10.6192	-2.42537	27.6498	20.9666	-8.6568	46.6463	43.9292	-0.766972	0.046112	-20.9579	0.751217	-0.432379	4.36172	1.49028	-0.868654	-0.00365852	-8.2746	-1.4795	-1.95018	-3.18644	0.283116	0.143188	-1.18275	0.00324831	-0.0806873	0.0557989	-3.50939	-0.173394	0.188464	-1.40384	0.00123853	-0.0891059	0.0758742
5.27865	28.8366	-3.9641	6.16291	-2.3457	15.8492	-4.0421	27.2372	17.5106	-7.41526	42.3143	36.7868	-1.02199	0.0371716	-15.919	1.19717	-0.371693	2.57378	2.26424	-1.23549	-0.00630679	-11.5119	-1.37991	-1.42834	-3.57812	0.541077	0.254354	-1.33114	0.00495544	-0.0914961	0.0777944	-3.65277	-0.399257	0.130654	-1.49434	-0.00158302	-0.104775	0.0782251
5.28864	28.6343	-3.59389	6.01305	-5.72796	23.8924	-6.14782	27.0076	14.3111	-6.09118	37.1053	29.9657	-1.22805	0.0263474	-10.9671	1.45318	-0.262524	0.858671	3.05975	-1.66802	-0.00651634	-14.6257	-1.13542	-1.03619	-3.86288	0.754183	0.341866	-1.45154	0.00598071	-0.100919	0.0953735	-3.67732	-0.583988	0.0812939	-1.55135	-0.00381172	-0.116616	0.0794267
5.29863	29.1463	-3.01472	5.57041	-9.8057	33.0445	-8.02544	26.8486	11.3408	-4.71607	31.2453	23.6748	-1.36702	0.0138828	-5.95145	1.50672	-0.136647	-0.764338	3.88518	-2.16303	-0.00497396	-17.2288	-0.672041	-0.833623	-4.04684	0.902371	0.398604	-1.53918	0.00614708	-0.108713	0.107481	-3.59084	-0.709562	0.0469745	-1.56919	-0.00512798	-0.123539	0.079782
5.30862	30.4515	-2.4476	4.85891	-13.1952	42.9004	-9.33754	26.7071	8.61752	-3.36161	24.9436	18.0934	-1.42949	0.000250453	-1.02779	1.457	-0.0053635	-2.18663	4.73714	-2.70611	-0.00232275	-19.078	-0.0199343	-0.828352	-4.14582	0.985652	0.424956	-1.59374	0.00552099	-0.114661	0.114077	-3.41459	-0.776453	0.028673	-1.54924	-0.00547489	-0.125424	0.0793975
5.31861	37.6323	-2.42949	4.07469	-14.058	48.8507	-9.50765	26.0505	6.23814	-2.0558	18.1353	13.316	-1.41766	-0.0126996	4.51764	1.62234	0.105671	-3.43409	5.59279	-3.26604	0.00133162	-14.8396	0.488793	-0.996885	-3.55066	0.893392	0.350385	-1.33525	0.00400619	-0.0947601	0.0916949	-2.65964	-0.691642	0.0182994	-1.23217	-0.00305673	-0.096537	0.0620715
5.3286	36.0436	-1.41337	3.32332	-16.526	60.0357	-9.94492	26.2179	4.42727	-1.10937	11.449	9.52488	-1.34195	-0.0277568	9.27215	1.46961	0.143696	-4.4645	6.51944	-3.86246	0.00339575	-20.1714	0.798154	-0.772285	-3.9495	1.05059	0.429333	-1.54684	0.00445912	-0.113126	0.113144	-2.90028	-0.828176	-0.00359703	-1.40964	-0.00551664	-0.117816	0.0717556
5.33859	35.4873	-0.489396	2.41461	-17.7291	69.3438	-9.72422	26.6727	2.98937	-0.431655	4.83126	6.68484	-1.23407	-0.0427668	13.8161	1.40583	0.159039	-5.25716	7.44365	-4.44826	0.00520569	-24.7189	1.16515	-0.478122	-4.27919	1.19912	0.502769	-1.72631	0.00509386	-0.128306	0.132019	-3.11831	-0.957337	-0.0279686	-1.56496	-0.0078747	-0.136648	0.0794789
5.34858	35.7815	0.241244	1.46427	-18.0658	77.2491	-9.06325	27.2658	1.94429	-0.0587399	-1.54044	4.72932	-1.11736	-0.0566893	18.0643	1.52618	0.140501	-5.81196	8.34778	-5.00415	0.00667624	-28.3805	1.41383	-0.0853492	-4.497	1.34199	0.570409	-1.85802	0.00607602	-0.13884	0.147454	-3.2933	-1.08367	-0.0587106	-1.68966	-0.010264	-0.152388	0.0842834
5.35857	37.6407	0.825596	0.532555	-17.6455	82.9533	-8.12611	27.8625	1.29899	0.00142509	-7.47477	3.53333	-1.00879	-0.068551	22.265	1.75369	0.0894541	-6.26357	9.22373	-5.5199	0.00775288	-30.5464	1.45401	0.38796	-4.5391	1.46302	0.623296	-1.91057	0.007364	-0.14211	0.156761	-3.37357	-1.19373	-0.0953122	-1.75469	-0.0124381	-0.162089	0.0845429
5.36856	39.0864	1.54283	-0.377409	-16.8664	86.8422	-6.84462	28.022	0.92803	-0.168283	-12.6523	2.91695	-0.916163	-0.0770909	25.9201	1.94126	0.0290047	-6.52846	10.0573	-5.99351	0.0085995	-32.0939	1.3375	0.960481	-4.45035	1.57122	0.66867	-1.91366	0.00893601	-0.140848	0.162572	-3.39455	-1.29413	-0.137608	-1.78802	-0.0146862	-0.168833	0.0819778
5.37855	40.0041	2.60333	-1.36786	-15.9172	89.3457	-5.44704	27.372	0.901323	-0.514299	-16.89	2.67458	-0.833429	-0.0809328	29.0667	2.06986	-0.0312981	-6.66583	10.8379	-6.42199	0.00945925	-32.7323	1.09665	1.60306	-4.18465	1.65017	0.69795	-1.84867	0.0106007	-0.133708	0.162912	-3.30318	-1.36938	-0.18356	-1.76759	-0.0167388	-0.170387	0.0755715
5.38854	39.8151	3.88693	-2.38359	-14.8025	90.7725	-3.73411	25.6468	1.03517	-0.898416	-20.0372	2.62088	-0.755409	-0.0793724	31.6164	2.14869	-0.0799273	-6.68218	11.5593	-6.80613	0.0105097	-32.5904	0.768161	2.26622	-3.75419	1.6922	0.708366	-1.72176	0.0121667	-0.121515	0.157846	-3.09411	-1.41228	-0.229733	-1.69475	-0.0184702	-0.166789	0.0658753
5.39853	38.6656	5.21496	-3.39401	-13.6454	91.1957	-1.82675	22.908	1.21486	-1.25179	-22.056	2.62566	-0.675366	-0.0731485	33.6025	2.21018	-0.109047	-6.59928	12.2201	-7.14851	0.0118656	-31.6325	0.386319	2.88311	-3.1843	1.6926	0.697435	-1.53952	0.0134356	-0.105051	0.14739	-2.76433	-1.41845	-0.272548	-1.56865	-0.0196786	-0.157744	0.0533682
5.40853	37.2569	6.55819	-4.45296	-12.2639	90.5427	0.226333	19.4589	1.43529	-1.58073	-23.0405	2.61138	-0.586856	-0.0638805	35.0487	2.25844	-0.106411	-6.41889	12.822	-7.45505	0.0135881	-29.5766	0.0576961	3.37887	-2.49916	1.63974	0.659822	-1.30428	0.0141372	-0.084716	0.130967	-2.30542	-1.37598	-0.306418	-1.38166	-0.0199888	-0.14211	0.0383112
5.41852	33.0429	7.45267	-5.48272	-11.4365	90.2347	2.35371	15.909	1.57447	-1.91956	-23.0132	2.54875	-0.485796	-0.0536647	35.7865	2.40533	-0.11944	-6.15447	13.3901	-7.73754	0.0150388	-29.7045	-0.264429	3.68363	-2.08672	1.60788	0.642303	-1.18923	0.0146237	-0.0753507	0.123562	-2.07795	-1.3562	-0.327023	-1.31268	-0.0208504	-0.137426	0.0316734
5.42851	27.0822	7.64524	-6.30967	-11.1139	90.0685	4.58838	12.5436	1.54821	-2.2289	-22.2142	2.42077	-0.378084	-0.0436589	35.9988	2.72448	-0.159876	-5.8041	13.9304	-8.00024	0.0161694	-31.5344	-0.612826	3.7783	-1.92427	1.59537	0.641235	-1.17804	0.0149001	-0.0754321	0.123696	-2.05637	-1.35829	-0.335049	-1.34474	-0.0220867	-0.141842	0.0323893
5.4385	21.4263	7.14604	-6.8961	-10.8441	89.3358	6.65347	9.6408	1.40629	-2.51249	-20.9164	2.2268	-0.269589	-0.0345659	35.8978	3.21683	-0.224369	-5.36968	14.4476	-8.24691	0.0170257	-33.6403	-0.963861	3.61436	-1.91331	1.57427	0.638371	-1.21535	0.0147302	-0.0801944	0.125984	-2.1304	-1.35548	-0.328138	-1.41565	-0.0229414	-0.148749	0.0370762
5.44849	16.8774	6.17433	-7.22443	-9.90126	87.2294	8.14203	7.13378	1.23466	-2.74351	-19.2912	1.96775	-0.166455	-0.0264804	35.534	3.85518	-0.311054	-4.80584	14.9512	-8.4822	0.0175438	-35.2585	-1.35571	3.21946	-1.99182	1.53623	0.627062	-1.26849	0.0141595	-0.086588	0.127755	-2.24812	-1.33924	-0.308053	-1.49325	-0.0231568	-0.154879	0.0435837
5.45848	14.708	5.52201	-7.43276	-8.27074	83.7438	8.76748	4.57638	1.21271	-2.87902	-17.5221	1.6402	-0.0736261	-0.0189153	35.6817	4.47064	-0.418546	-4.23344	15.456	-8.70728	0.0177812	-35.5345	-1.72695	2.90246	-2.04556	1.50751	0.614548	-1.28821	0.0138608	-0.0890364	0.127013	-2.3378	-1.32803	-0.292961	-1.53348	-0.0229875	-0.156892	0.0471117
5.46847	14.1386	5.32546	-7.59862	-6.14434	79.2112	8.80856	1.9568	1.34694	-2.93658	-15.7319	1.26222	0.00698811	-0.011748	36.2839	5.10928	-0.558181	-3.63214	15.9738	-8.92044	0.0177018	-35.0006	-2.00473	2.7338	-2.08607	1.49802	0.607659	-1.2886	0.0139446	-0.0887245	0.125505	-2.4193	-1.32969	-0.285776	-1.5521	-0.0227517	-0.156822	0.048281
5.47846	14.6366	5.4925	-7.69617	-3.65245	73.903	8.49707	-0.688113	1.59509	-2.93096	-13.9982	0.858524	0.0735357	-0.00496857	37.2119	5.81913	-0.735089	-2.99719	16.5157	-9.11904	0.0173339	-33.9046	-2.20813	2.70295	-2.10398	1.50298	0.605381	-1.2719	0.0143456	-0.0861224	0.123403	-2.48791	-1.34067	-0.285638	-1.55278	-0.0225239	-0.155191	0.0474671
5.48845	15.7648	5.64522	-7.45982	-0.961536	67.3669	7.94084	-3.54647	1.81654	-2.77672	-11.2318	-0.101515	0.11992	0.00122067	38.19	6.61556	-0.930364	-2.32342	17.0868	-9.29901	0.0169043	-32.2408	-2.40437	2.73339	-2.10258	1.51449	0.603384	-1.23909	0.0148993	-0.0815923	0.120199	-2.53711	-1.3552	-0.289126	-1.53527	-0.0221653	-0.151689	0.045063
5.49844	17.7443	6.01463	-7.3308	1.43106	60.5485	7.22894	-5.5365	2.08151	-2.66976	-10.1841	-0.266967	0.145744	0.00627083	39.2742	7.46544	-1.12953	-1.62132	17.7126	-9.45924	0.016174	-30.3968	-2.54833	2.79383	-2.05035	1.51462	0.59662	-1.18835	0.0153569	-0.075761	0.11573	-2.5354	-1.35789	-0.293082	-1.4967	-0.0217054	-0.14653	0.0415563
5.50843	19.6377	6.35269	-7.02784	3.56092	53.383	6.5116	-7.29865	2.24085	-2.477	-9.13897	-0.386857	0.153559	0.0102299	40.2378	8.32023	-1.32108	-0.887415	18.3988	-9.59541	0.0154521	-28.6721	-2.68548	2.88717	-1.99175	1.51839	0.591748	-1.13842	0.0158656	-0.0699621	0.111575	-2.53096	-1.36303	-0.298758	-1.45936	-0.021347	-0.141703	0.0379389
5.51842	21.5838	6.51521	-6.48607	5.27514	45.344	5.77288	-8.7024	2.20426	-2.16597	-8.14016	-0.453364	0.14002	0.0129074	41.1115	9.13484	-1.49912	-0.14146	19.1616	-9.70313	0.0147586	-27.0734	-2.85496	2.99402	-1.92839	1.52495	0.588307	-1.08935	0.0164071	-0.0642842	0.107713	-2.52443	-1.37081	-0.305672	-1.42371	-0.0210897	-0.137246	0.0343402
5.52841	23.2603	6.39649	-5.68437	6.55952	36.8389	4.96302	-9.86423	1.91269	-1.69944	-7.14008	-0.472859	0.105282	0.0144708	41.8296	9.90109	-1.65932	0.627786	20.0139	-9.77647	0.014155	-25.7257	-3.08621	3.10929	-1.86584	1.53946	0.587921	-1.04477	0.0170085	-0.0590305	0.104483	-2.51923	-1.38644	-0.314791	-1.39391	-0.0210056	-0.133602	0.0309128
5.5384	29.2503	5.97539	-4.13956	7.69017	25.7061	3.669	-10.2219	1.44664	-1.18188	-6.09341	-0.446152	0.0581256	0.0149492	42.34	10.3923	-1.76711	1.39951	20.9535	-9.81285	0.0142129	-20.6251	-3.70375	3.21502	-1.43771	1.49058	0.540279	-0.822572	0.0172347	-0.0383851	0.0856058	-2.13984	-1.34155	-0.328711	-1.17363	-0.0192323	-0.11093	0.0159903
5.54839	34.1626	5.05428	-2.45687	6.82016	14.8437	2.72271	-10.595	0.613028	-0.477988	-5.04133	-0.394595	-0.00660877	0.014906	42.8989	10.917	-1.8781	2.12797	22.0125	-9.79851	0.0143977	-16.5404	-4.30842	3.32133	-1.05395	1.46312	0.502457	-0.63298	0.0174826	-0.0207311	0.0696575	-1.78699	-1.3159	-0.345635	-0.984628	-0.0178977	-0.0917997	0.00268783
5.55838	37.5729	3.87181	-0.790039	3.20628	5.6538	1.45111	-11.1631	-0.44048	0.348608	-3.94581	-0.329243	-0.0805658	0.0144411	43.5902	11.433	-1.99134	2.79919	23.2038	-9.72664	0.0147891	-13.9191	-4.91881	3.46285	-0.745492	1.47897	0.483546	-0.492388	0.0179617	-0.00721707	0.0584748	-1.49359	-1.33019	-0.370073	-0.846463	-0.0173387	-0.0783349	-0.00837406
5.56837	38.4006	2.84221	0.63877	0.933616	2.24603	-1.93686	-12.4789	-1.50993	1.23308	-2.70881	-0.266284	-0.154616	0.0136824	43.9515	11.8333	-2.09624	3.5164	24.5328	-9.59274	0.0155604	-12.9112	-5.58884	3.62861	-0.615501	1.56585	0.496084	-0.431373	0.0189438	0.000108072	0.0548718	-1.3547	-1.41147	-0.403408	-0.791454	-0.0177708	-0.073342	-0.0155607
5.57836	36.4212	0.956658	1.6354	1.23125	2.25964	-0.441876	-14.5584	-3.09315	2.21688	-1.31172	-0.197499	-0.233165	0.0123538	44.027	12.8428	-2.27425	4.32941	26.0172	-9.38	0.0164626	-13.5377	-5.53852	3.66411	-0.694477	1.62895	0.513677	-0.469311	0.0193444	-0.00187587	0.0575253	-1.39935	-1.46554	-0.415006	-0.828114	-0.0181917	-0.0763208	-0.0153936
5.58835	32.0828	-0.638547	2.01923	-0.966626	3.53758	0.0812822	-17.0335	-4.45622	3.08395	0.206947	-0.12312	-0.298569	0.0101517	44.3266	13.8777	-2.47456	5.11208	27.689	-9.09755	0.0174022	-16.4339	-5.2836	3.65632	-0.960859	1.74032	0.557695	-0.603192	0.0198816	-0.012339	0.0685309	-1.60315	-1.56591	-0.42768	-0.962298	-0.0195775	-0.0892894	-0.00948263
5.59834	24.4759	-1.83694	1.57242	-2.54511	5.26289	-0.124844	-20.2018	-5.512	3.80679	1.93442	-0.0448355	-0.346315	0.00690397	44.5988	15.0532	-2.69141	5.95783	29.5706	-8.74281	0.0181796	-21.7901	-4.69219	3.57647	-1.49162	1.89687	0.632333	-0.858977	0.020545	-0.0335701	0.0899845	-2.0481	-1.71061	-0.435798	-1.22137	-0.0219764	-0.114657	0.00435442
5.60833	13.0729	-2.39354	-0.000638978	-3.31336	6.31066	-0.573644	-24.0927	-6.14094	4.34517	3.89664	0.0368111	-0.371715	0.00253228	44.8914	16.3802	-2.91539	6.88249	31.6884	-8.31575	0.0186042	-30.0783	-3.54749	3.40925	-2.34106	2.09491	0.740954	-1.26291	0.0212542	-0.0680607	0.123921	-2.79138	-1.89601	-0.434808	-1.63207	-0.0255075	-0.154995	0.0281554
5.61833	5.30435	-2.00349	-1.2721	-4.36044	8.56087	-1.18307	-27.8577	-5.98205	4.57623	5.97559	0.0872017	-0.354684	-0.0019451	45.3936	17.6681	-3.15035	7.7767	34.0313	-7.81733	0.0196404	-35.4009	-2.65498	3.40492	-2.91073	2.27061	0.824016	-1.53001	0.0221258	-0.0897327	0.146797	-3.27329	-2.05548	-0.446269	-1.90079	-0.028023	-0.181354	0.0421078
5.62832	2.0461	-0.82016	-1.98801	-6.24058	9.04991	-3.16097	-31.0512	-4.78581	4.44492	8.05593	0.0961129	-0.287316	-0.0061237	46.3687	19.0321	-3.43599	8.59764	36.6206	-7.23904	0.0210836	-37.5852	-2.25996	3.41616	-3.20826	2.40679	0.873681	-1.65647	0.0228753	-0.0988788	0.157655	-3.48163	-2.17767	-0.463703	-2.02063	-0.029252	-0.192776	0.0468334
5.63831	-0.800801	-0.970579	-3.11358	-7.67164	4.25549	-3.23228	-33.1448	-3.3443	4.07454	9.72295	0.112341	-0.198837	-0.0106542	48.8864	21.3698	-3.88183	9.10462	39.5003	-6.55344	0.0216626	-42.1614	-1.50775	2.89162	-3.93608	2.50436	0.931617	-1.95275	0.0227121	-0.124815	0.179632	-4.08548	-2.27697	-0.438384	-2.31271	-0.0305934	-0.219002	0.0665139
5.6483	-3.48079	-1.22859	-3.77306	-1.88056	-1.28913	-1.44444	-35.9945	-1.75995	3.61034	11.6271	0.0550903	-0.0894847	-0.0131815	50.4379	24.2899	-4.40936	10.0178	42.5954	-5.76312	0.0223776	-44.5137	-0.997614	2.50914	-4.53209	2.58032	0.976841	-2.16771	0.0228302	-0.142864	0.195677	-4.59995	-2.35439	-0.417514	-2.5259	-0.0313189	-0.237345	0.0809225
5.65829	-6.44811	-1.4171	-4.00953	-0.811256	-2.27366	-1.44219	-39.3322	0.0464069	3.06467	13.6657	-0.109862	0.0362738	-0.0122252	51.6793	27.3633	-5.00017	11.159	45.8709	-4.87026	0.0236922	-46.4667	-1.0338	2.3094	-4.9273	2.70701	1.0262	-2.31146	0.0235924	-0.153937	0.207726	-4.92547	-2.48041	-0.424808	-2.67434	-0.0325215	-0.250735	0.0886798
5.66828	-10.4277	-0.846702	-4.41102	-1.06541	-2.59774	-0.62083	-43.453	1.83185	2.49107	15.9267	-0.378768	0.164722	-0.00756297	52.2214	30.4009	-5.62218	12.6678	49.3046	-3.88313	0.0253059	-47.6873	-0.869399	2.33524	-5.14356	2.83152	1.06818	-2.39251	0.0244373	-0.159211	0.215471	-5.07502	-2.5958	-0.444639	-2.75205	-0.033543	-0.258263	0.0909698
5.67827	-364.824	-142.119	-76.6712	287.789	3901.83	1162.83	-233.068	-107.604	13.0323	41.0338	-8.37399	-0.607975	0.21009	-9.98115	127.437	-15.9805	2.1151	44.0765	-0.118204	0.23602	-294.632	142.061	3.72696	-36.1498	5.02392	3.04146	-18.6044	0.00299339	-1.4293	1.13516	-35.4486	-2.75924	1.3097	-19.0052	-0.0578538	-1.5344	0.980854
5.68826	-237.156	-89.3702	-53.4806	158.316	2439.09	754.772	-169.462	-67.3209	7.61998	36.4865	-5.89984	-0.194757	0.140697	16.1726	95.3693	-13.0318	7.36998	51.2043	-1.09862	0.159907	-202.925	92.3422	3.75557	-24.0992	4.20519	2.28108	-12.4707	0.0100653	-0.948401	0.783338	-23.5425	-2.65891	0.625838	-12.8085	-0.0484965	-1.048	0.637232
5.69825	-136.518	-45.5004	-34.2432	61.5048	1294.99	431.675	-120.141	-35.4631	3.97629	31.7737	-4.07255	0.112561	0.0912167	35.0602	68.9743	-10.3665	12.5585	57.7385	-2.64255	0.101053	-128.499	52.6028	4.02807	-14.4735	3.52123	1.66294	-7.55638	0.0156526	-0.560905	0.498958	-14.0368	-2.52548	0.0875298	-7.82762	-0.0398058	-0.654219	0.36003
5.70824	-64.4156	-11.2132	-20.5368	-14.79	446.325	189.527	-84.0013	-11.7604	1.61455	27.3518	-2.78002	0.313193	0.0578726	48.585	48.4355	-8.1083	17.3841	63.6041	-4.46539	0.0577437	-74.8418	23.1795	4.12968	-7.42992	2.99006	1.20334	-3.96709	0.0192257	-0.279249	0.29135	-7.04578	-2.40021	-0.297836	-4.17801	-0.033277	-0.366306	0.158617
5.71823	-14.219	14.8834	-11.154	-68.9356	-149.753	16.9058	-59.0476	4.94549	0.139585	23.6152	-1.92509	0.43564	0.0371092	57.4364	32.9147	-6.25214	21.8468	68.7464	-6.3517	0.0278999	-36.5428	2.31609	4.35213	-2.43482	2.61577	0.878809	-1.4182	0.0218307	-0.0783117	0.143701	-2.07506	-2.30293	-0.573127	-1.57599	-0.0283578	-0.160511	0.0142875
5.72822	21.6544	34.4308	-4.25301	-94.6301	-546.5	-98.0214	-43.3049	16.0113	-0.725101	20.787	-1.40727	0.509197	0.0253599	61.6421	21.6349	-4.81687	26.0834	73.1304	-8.1328	0.0091308	-5.81325	-12.1055	4.90109	1.23205	2.31131	0.625864	0.475875	0.0237167	0.0747376	0.0297803	1.57691	-2.16609	-0.767463	0.382101	-0.0229307	-0.00108869	-0.096627
5.73821	47.473	48.4801	0.52641	-100.158	-786.972	-166.478	-33.8774	22.7715	-1.18937	18.6319	-1.1295	0.556781	0.0196426	62.6293	13.8141	-3.76819	29.9498	76.7531	-9.6824	-0.000795059	18.6209	-21.1063	5.46585	3.78052	2.02948	0.418234	1.82116	0.024297	0.186087	-0.0570255	4.16912	-1.96945	-0.881589	1.81158	-0.0166492	0.120567	-0.178056
5.7482	59.6504	55.925	1.43926	-112.634	-896.193	-196.988	-27.6677	25.8615	-1.38704	16.6234	-0.999662	0.577761	0.0177482	63.1428	9.22218	-3.09427	33.0321	79.6362	-10.9043	-0.00410608	27.8695	-24.3466	5.28938	4.74848	1.85321	0.310895	2.33147	0.0230609	0.225728	-0.092446	5.2824	-1.83484	-0.903051	2.38881	-0.0132141	0.170102	-0.207333
5.75819	68.8945	59.5472	2.13415	-110.899	-925.759	-202.961	-24.0751	26.3349	-1.36813	14.9112	-0.957057	0.581449	0.0176192	61.8781	6.58924	-2.70661	35.7529	81.7721	-11.7768	-0.00286886	35.5076	-25.2772	5.34155	5.24513	1.71802	0.232037	2.62588	0.021967	0.251147	-0.117221	5.90576	-1.6971	-0.900761	2.75022	-0.00940817	0.205235	-0.226704
5.76818	69.7139	58.3886	0.315577	-120.649	-886.732	-190.001	-21.0647	24.664	-1.22922	13.0454	-0.938588	0.558775	0.0179799	61.2984	5.8084	-2.59927	37.6991	83.1694	-12.2801	0.00144165	31.655	-22.9402	4.80205	4.67137	1.69637	0.238759	2.35052	0.0201408	0.226524	-0.10366	5.50004	-1.66076	-0.848445	2.50978	-0.00878156	0.186893	-0.209174
5.77817	70.7615	55.2392	-0.762952	-119.571	-817.028	-167.734	-19.1913	21.6934	-0.989913	11.345	-0.91598	0.515983	0.0176572	59.7582	5.84907	-2.66285	39.2992	83.7991	-12.4506	0.00751079	28.9717	-20.3133	4.65308	4.04221	1.7189	0.262773	2.06959	0.0193495	0.204873	-0.0896165	4.96002	-1.648	-0.806493	2.25024	-0.00812271	0.168599	-0.193837
5.78816	61.677	48.2483	-4.98702	-139.129	-708.851	-137.548	-17.383	17.358	-0.736836	9.49223	-0.83948	0.429328	0.0157912	60.04	6.99223	-2.91661	40.0181	83.6592	-12.3094	0.0143024	12.7731	-15.1912	3.73861	2.36236	1.88034	0.3869	1.21015	0.0180287	0.130041	-0.0329094	3.39298	-1.7859	-0.724146	1.3611	-0.0121174	0.0908788	-0.138766
5.79815	50.8795	40.4068	-9.22756	-157.561	-590.255	-107.384	-16.751	12.4525	-0.461583	7.98572	-0.722393	0.314483	0.0123105	60.7029	8.13488	-3.1987	40.2742	82.7081	-11.9307	0.0208838	-4.75418	-10.3821	3.07305	0.586804	2.12388	0.549303	0.303541	0.0180453	0.052797	0.0305321	1.62692	-2.00499	-0.661485	0.38866	-0.0177305	0.00439435	-0.0816491
5.80814	41.7211	33.2991	-12.2769	-164.009	-475.003	-80.0599	-17.6384	7.75622	-0.226798	7.08797	-0.593491	0.192664	0.00796723	60.5767	8.90592	-3.45574	40.2226	80.8786	-11.3708	0.0272338	-17.8519	-6.77279	2.84351	-0.859786	2.35451	0.695619	-0.414077	0.019091	-0.00589204	0.081928	0.097042	-2.20742	-0.622645	-0.402264	-0.0225344	-0.0652683	-0.0377643
5.81814	34.5355	27.4048	-14.5184	-163.684	-366.399	-56.6176	-19.1062	3.69928	-0.111753	6.53876	-0.471826	0.0750466	0.00386614	60.1273	9.10607	-3.63384	39.771	78.1548	-10.6801	0.0330296	-27.6195	-4.06158	2.81272	-2.04119	2.53989	0.817488	-0.98448	0.0204561	-0.0511785	0.123024	-1.22796	-2.36727	-0.591944	-1.0485	-0.0264174	-0.121368	-0.00295378
5.82813	29.9922	23.1542	-15.914	-156.658	-266.801	-37.3766	-20.5712	0.555327	-0.0993931	6.13178	-0.371634	-0.0240149	0.000621933	59.158	8.64584	-3.68485	38.906	74.5358	-9.8991	0.0381324	-33.6361	-2.11487	2.92581	-2.92565	2.65327	0.903572	-1.39245	0.0217625	-0.0822265	0.151839	-2.29236	-2.45785	-0.563324	-1.52496	-0.0289055	-0.161317	0.022166
5.83812	25.4163	20.1144	-17.4548	-152.638	-169.327	-22.6852	-21.705	-1.6936	-0.133874	5.61824	-0.290995	-0.102775	-0.00171387	58.696	7.62634	-3.61786	37.4525	70.0753	-9.05674	0.0420784	-40.4117	-0.32157	2.91353	-3.82438	2.74708	0.98663	-1.81513	0.0228441	-0.11564	0.181816	-3.38536	-2.53838	-0.528028	-2.02369	-0.0316269	-0.203759	0.0496893
5.84811	23.501	18.1497	-18.1075	-139.97	-82.8113	-11.2533	-22.8755	-3.11274	-0.122758	5.1894	-0.252168	-0.149105	-0.00268973	57.3532	6.32206	-3.45196	35.5185	64.8134	-8.16933	0.0450221	-42.6135	0.870032	2.84286	-4.38171	2.71679	1.00906	-2.04979	0.0229864	-0.133718	0.195325	-4.10588	-2.4996	-0.480548	-2.30479	-0.0318871	-0.224732	0.0667186
5.8581	22.9344	16.8399	-18.0594	-119.692	-4.87032	-2.44346	-24.3553	-3.81284	-0.0487157	4.92818	-0.268423	-0.163055	-0.00195773	55.0926	4.97949	-3.22259	33.079	58.8581	-7.2537	0.0468432	-41.2472	1.63709	2.73255	-4.6647	2.59749	0.985524	-2.13458	0.0223953	-0.139581	0.195963	-4.51122	-2.37448	-0.426203	-2.40866	-0.0302394	-0.228505	0.0750522
5.86809	23.2407	15.7787	-17.2563	-92.0076	64.7768	4.27939	-26.1325	-3.97202	0.079776	4.84633	-0.335044	-0.150892	0.000317673	51.7757	3.77164	-2.94327	30.1417	52.3672	-6.33117	0.047297	-36.6298	1.96839	2.66799	-4.68252	2.42177	0.927753	-2.07661	0.0214429	-0.133339	0.185312	-4.61837	-2.19328	-0.374271	-2.34693	-0.0271266	-0.216691	0.0743595
5.87808	21.1797	14.3931	-16.574	-70.4538	135.328	8.4778	-27.7512	-4.00498	0.22432	4.69289	-0.423515	-0.1349	0.00353906	48.9508	2.68566	-2.63485	26.5653	45.5834	-5.43324	0.0452853	-34.942	2.22623	2.72905	-4.8181	2.34961	0.914634	-2.09989	0.0214414	-0.133769	0.184402	-4.86718	-2.117	-0.34568	-2.38825	-0.0260945	-0.216962	0.0775032
5.88807	16.9131	12.4883	-15.9414	-55.78	205.807	10.7713	-28.9648	-4.18475	0.37095	4.42266	-0.51806	-0.125276	0.00727216	46.5772	1.76182	-2.26771	22.439	38.7382	-4.58758	0.0403018	-36.278	2.36322	2.98821	-5.06306	2.39557	0.951538	-2.2037	0.0226005	-0.140466	0.193733	-5.25778	-2.1583	-0.345928	-2.53444	-0.0273644	-0.229783	0.0838984
5.89806	10.6446	10.2705	-15.4576	-49.6952	275.706	11.489	-29.4899	-4.50109	0.498739	3.99644	-0.606757	-0.123124	0.0110805	44.805	0.974419	-1.81641	17.8586	32.0727	-3.82134	0.0321149	-41.0139	2.47771	3.42805	-5.44522	2.56008	1.03988	-2.40497	0.0248261	-0.155002	0.214336	-5.80886	-2.31661	-0.37307	-2.80055	-0.0309869	-0.256533	0.0945484
5.90805	7.16323	7.93607	-14.1886	-36.7739	331.856	12.5317	-29.3345	-4.76711	0.616751	3.62692	-0.690102	-0.115269	0.0146225	41.7879	0.509186	-1.2264	13.1103	25.7566	-3.14746	0.0222946	-41.4377	2.27018	3.90437	-5.49633	2.64401	1.07975	-2.42836	0.0263852	-0.154361	0.219835	-5.9675	-2.39071	-0.399417	-2.85294	-0.0324322	-0.26256	0.0936518
5.91804	3.31638	6.01733	-12.9204	-29.5839	382.939	12.1765	-28.4656	-4.85264	0.687292	3.21253	-0.761706	-0.104155	0.0177086	39.1239	0.0796454	-0.58827	8.20782	20.0427	-2.58756	0.010358	-43.2644	2.02578	4.51834	-5.56582	2.791	1.14361	-2.48017	0.0284977	-0.155793	0.229632	-6.14461	-2.52426	-0.443656	-2.94007	-0.0349694	-0.273457	0.0930808
5.92803	-0.150531	4.71361	-11.6858	-27.5787	427.824	10.3274	-26.9956	-4.7256	0.707975	2.78489	-0.824147	-0.0883903	0.0203832	37.0375	-0.362716	0.0129649	3.2406	15.1025	-2.14414	-0.0033988	-45.886	1.73686	5.20571	-5.62325	2.97264	1.21907	-2.54152	0.0308598	-0.157961	0.24128	-6.30076	-2.68967	-0.498855	-3.03774	-0.0380802	-0.286363	0.0921679
5.93802	0.635096	3.18319	-9.69266	-17.2683	456.547	9.00212	-25.2453	-4.48214	0.714381	2.55073	-0.88309	-0.0634778	0.022677	34.1609	-0.373165	0.499453	-1.62792	10.9897	-1.79792	-0.017129	-42.7845	1.06798	5.64692	-5.28245	2.99388	1.2105	-2.38053	0.0316563	-0.142269	0.231328	-5.97709	-2.6983	-0.531165	-2.86807	-0.0376416	-0.271658	0.0790647
5.94801	3.15693	2.05165	-7.44107	-7.04474	476.295	6.56922	-23.2992	-3.94967	0.685301	2.40746	-0.936108	-0.029899	0.0245161	31.6268	-0.255835	0.809907	-6.41672	7.78038	-1.54505	-0.0309432	-38.1402	0.15813	6.0295	-4.78959	2.97842	1.17901	-2.14447	0.0321302	-0.120519	0.214735	-5.4871	-2.6721	-0.561631	-2.61482	-0.0363668	-0.248719	0.0616943
5.958	10.4696	0.361118	-4.15776	15.8685	478.957	4.60251	-21.5321	-3.31735	0.674059	2.52125	-0.990104	0.0133899	0.0260553	27.961	0.336113	0.962418	-10.9231	5.39085	-1.3594	-0.0426076	-26.0992	-1.40224	6.08717	-3.79053	2.76161	1.0427	-1.62067	0.030912	-0.075419	0.170677	-4.43875	-2.4553	-0.563796	-2.03395	-0.0308086	-0.191593	0.0292719
5.96799	14.0044	-1.39869	-1.70495	25.6969	485.134	2.93324	-19.5668	-2.75539	0.618854	2.44936	-1.02297	0.0477644	0.0270507	25.6797	1.16564	0.80214	-15.2362	3.80427	-1.226	-0.0533206	-19.928	-2.32263	5.93454	-3.14722	2.61246	0.950137	-1.31284	0.0295578	-0.0505052	0.143657	-3.72934	-2.30941	-0.558986	-1.68631	-0.027438	-0.15777	0.0110991
5.97798	13.7188	-3.43549	0.265326	25.4795	494.204	1.20902	-17.7641	-2.36858	0.55746	2.25899	-1.04224	0.0712197	0.027712	24.2871	2.20573	0.337424	-19.0623	2.85014	-1.11747	-0.0615417	-18.7156	-2.91998	5.61125	-2.80036	2.52411	0.896083	-1.18436	0.0282203	-0.0422834	0.131079	-3.31714	-2.22946	-0.55003	-1.53796	-0.0260406	-0.143902	0.00488591
5.98797	9.92018	-5.43742	1.99116	19.3257	504.909	-1.03766	-16.331	-2.0424	0.500258	2.00868	-1.05317	0.0878859	0.0280876	23.1089	3.28807	-0.347164	-22.1512	2.32637	-1.01191	-0.0654894	-21.078	-3.37731	5.21359	-2.66964	2.48825	0.873908	-1.18507	0.0270624	-0.0458426	0.12941	-3.1306	-2.20538	-0.54125	-1.53553	-0.0262153	-0.144836	0.00705695
5.99796	2.90381	-7.09866	3.65032	10.5273	516.13	-4.17495	-15.4643	-1.70136	0.455162	1.76497	-1.06043	0.100551	0.0282288	21.6124	4.24375	-1.147	-24.3067	2.05214	-0.894797	-0.0643754	-25.833	-3.84435	4.87715	-2.68045	2.50862	0.88189	-1.27046	0.0263816	-0.0565866	0.135949	-3.1083	-2.23782	-0.540327	-1.63322	-0.0277638	-0.156368	0.0140761
6.00795	-6.06522	-8.35458	5.2999	0.595482	526.714	-8.35593	-14.98	-1.35016	0.424592	1.49019	-1.0631	0.11014	0.0281402	19.7632	4.96605	-1.96579	-25.4914	1.90781	-0.762731	-0.0591068	-31.9173	-4.4643	4.64487	-2.77556	2.57731	0.913769	-1.40362	0.0262645	-0.0709436	0.147866	-3.19871	-2.31821	-0.549349	-1.79231	-0.0303455	-0.17459	0.0234299
6.01794	-16.3307	-8.99026	6.8444	-8.62088	536.388	-13.6448	-15.1092	-0.952789	0.41201	1.29281	-1.06887	0.118221	0.0279826	17.5619	5.31702	-2.69189	-25.761	1.81734	-0.622144	-0.0512666	-38.4569	-5.25444	4.56263	-2.91282	2.68747	0.964505	-1.5567	0.0267564	-0.0861412	0.162934	-3.36054	-2.43752	-0.569552	-1.98161	-0.0336401	-0.196302	0.0330899
6.02794	-26.5328	-8.85415	8.17297	-15.6577	544.862	-19.7973	-15.7525	-0.450011	0.406708	1.16736	-1.07965	0.126518	0.027821	15.1264	5.26697	-3.25464	-25.2449	1.73097	-0.481107	-0.0422494	-44.4221	-6.16375	4.64526	-3.05243	2.82401	1.02551	-1.7001	0.0277841	-0.0993414	0.178386	-3.54775	-2.57839	-0.599166	-2.16553	-0.0371385	-0.217624	0.0410891
6.03793	-35.3295	-7.72349	9.03967	-19.2505	552.481	-26.4436	-16.947	0.24229	0.400412	1.15147	-1.09947	0.137115	0.0277339	12.7403	4.7924	-3.60922	-24.1833	1.62235	-0.349925	-0.0330822	-48.8666	-7.00565	4.8751	-3.16989	2.96498	1.08604	-1.8112	0.0291173	-0.108471	0.191558	-3.71806	-2.71575	-0.632907	-2.31182	-0.0401985	-0.234801	0.0460273
6.04792	-41.7196	-6.30243	9.42582	-18.7606	559.965	-32.1567	-18.1384	0.92581	0.392219	1.14946	-1.1235	0.147154	0.0277796	10.1415	4.14103	-3.74174	-22.7755	1.46166	-0.233434	-0.0239623	-51.24	-7.58709	4.96524	-3.28215	3.04911	1.12054	-1.88708	0.0298158	-0.114436	0.199269	-3.8399	-2.79288	-0.648672	-2.4027	-0.0417155	-0.244575	0.0493568
6.05791	-45.9404	-5.28519	9.41212	-15.5479	567.142	-36.2057	-18.8569	1.43794	0.381292	1.10274	-1.14608	0.155118	0.0279551	7.1346	3.5087	-3.65885	-21.1716	1.23584	-0.134457	-0.0149735	-51.9803	-7.86835	4.69083	-3.40886	3.04169	1.11566	-1.9418	0.0292303	-0.119693	0.20093	-3.90386	-2.78165	-0.632833	-2.44664	-0.0413201	-0.24721	0.053313
6.0679	-48.6676	-4.74591	9.0631	-11.7047	574.478	-38.3803	-19.0415	1.75855	0.365907	1.00214	-1.16531	0.160974	0.0282232	3.93937	2.99195	-3.43347	-19.5131	0.955227	-0.0525694	-0.00642685	-51.9638	-7.80651	4.14725	-3.56626	2.97021	1.08435	-1.99592	0.0276289	-0.12588	0.199288	-3.93572	-2.7082	-0.593467	-2.46878	-0.0396334	-0.245995	0.0585401
6.07789	-50.3526	-4.61942	8.39712	-8.84663	581.664	-38.7257	-18.6344	1.88435	0.347574	0.841333	-1.17803	0.164598	0.0285006	0.752136	2.60901	-3.10914	-17.8957	0.638798	0.0118067	0.00142664	-51.8145	-7.36537	3.43765	-3.76494	2.86	1.03836	-2.0636	0.0252845	-0.133993	0.196594	-3.95379	-2.59587	-0.538538	-2.48632	-0.0371776	-0.2434	0.0652378
6.08788	-51.4763	-4.76974	7.53087	-7.7652	588.625	-37.5689	-17.7317	1.81304	0.3391	0.62991	-1.1833	0.1658	0.028724	-2.30102	2.32467	-2.7294	-16.3531	0.308228	0.0596405	0.00840607	-51.9349	-6.61286	2.70435	-3.99672	2.74239	0.990816	-2.14858	0.0226414	-0.143858	0.19464	-3.971	-2.47399	-0.479353	-2.50978	-0.0345399	-0.24131	0.0727925
6.09787	-52.1968	-4.77256	6.24291	-9.72118	592.962	-35.6433	-16.4303	1.54461	0.351268	0.365853	-1.18078	0.164172	0.0288549	-5.09204	1.88101	-2.11752	-14.1181	-0.4173	0.0931125	0.0142685	-52.5472	-5.66983	2.04911	-4.24947	2.6402	0.951003	-2.24995	0.020067	-0.154996	0.194494	-3.99722	-2.36477	-0.424529	-2.54542	-0.0321618	-0.240927	0.0806145
6.10786	-52.6476	-5.20637	5.29927	-13.4827	599.692	-32.7591	-14.7717	1.09664	0.383978	0.0376246	-1.16975	0.159469	0.0288614	-7.26575	1.6388	-1.73325	-13.1322	-0.564	0.100205	0.0188558	-53.8299	-4.63856	1.51646	-4.51764	2.56451	0.923724	-2.3683	0.0177534	-0.167309	0.19681	-4.04162	-2.27956	-0.378187	-2.59891	-0.0303044	-0.243118	0.0885854
6.11785	-49.0995	-5.52093	4.55062	-11.0761	597.027	-30.3778	-13.5478	0.449423	0.442946	-0.133082	-1.15585	0.148563	0.0287486	-8.9376	1.2682	-1.37764	-11.9008	-0.656362	0.0981715	0.0217887	-50.7131	-3.87701	1.01381	-4.4732	2.41916	0.854417	-2.30864	0.0153801	-0.163849	0.184686	-3.80493	-2.13214	-0.333432	-2.4704	-0.0267568	-0.22704	0.086141
6.12784	-40.7597	-5.6116	4.03209	-0.849909	583.149	-28.9596	-12.8643	-0.396754	0.521274	-0.147248	-1.13853	0.13001	0.0285006	-10.0393	0.693771	-1.0285	-10.4143	-0.690528	0.0844964	0.0230315	-42.2508	-3.49112	0.516428	-4.04688	2.18743	0.733302	-2.03155	0.0129717	-0.141199	0.154886	-3.23958	-1.91002	-0.289837	-2.12571	-0.0212114	-0.189105	0.0713734
6.13783	-33.4107	-5.49381	3.64026	6.73778	568.816	-27.9131	-12.0483	-1.27567	0.596994	-0.214613	-1.11543	0.109825	0.02815	-10.8561	-0.0267595	-0.647133	-8.95809	-0.681467	0.0566676	0.0231272	-35.1511	-3.26859	0.207757	-3.64791	2.01084	0.638168	-1.78581	0.0113179	-0.120694	0.129997	-2.75593	-1.74389	-0.262985	-1.83305	-0.0169717	-0.15759	0.0577097
6.14782	-27.477	-5.16046	3.38314	11.8309	554.709	-26.984	-11.0931	-2.11031	0.661891	-0.336555	-1.08792	0.090201	0.0277116	-11.5433	-0.835907	-0.247093	-7.53038	-0.639333	0.0182478	0.0223129	-29.689	-3.16865	0.0774823	-3.30828	1.88883	0.570852	-1.58674	0.0103671	-0.103724	0.111094	-2.38274	-1.63173	-0.250306	-1.6067	-0.0140727	-0.133792	0.0462056
6.15781	-23.2311	-4.57705	3.27349	14.7022	541.218	-26.0489	-10.066	-2.86767	0.716791	-0.503329	-1.05793	0.0721958	0.0272197	-12.1576	-1.74028	0.170072	-6.15444	-0.569616	-0.0295867	0.0207172	-25.9889	-3.18055	0.126256	-3.04445	1.82049	0.532323	-1.44183	0.0101021	-0.0909528	0.098732	-2.13629	-1.57138	-0.250276	-1.45357	-0.0125238	-0.118333	0.0373961
6.1678	-21.1113	-3.63628	3.29559	15.4834	529.026	-24.9946	-9.02983	-3.45817	0.75602	-0.69917	-1.02872	0.0584889	0.0267256	-12.8173	-2.73883	0.601126	-4.84109	-0.477306	-0.0856784	0.0184086	-24.2889	-3.25553	0.355139	-2.88087	1.80573	0.524227	-1.36339	0.0104766	-0.0834804	0.0937961	-2.03596	-1.56095	-0.2611	-1.38401	-0.0123463	-0.112186	0.0320421
6.17779	-21.5761	-2.44002	3.45613	13.6281	519.133	-23.6425	-7.96144	-3.85657	0.778204	-0.933693	-1.00178	0.050336	0.0262726	-13.5674	-3.8021	1.03498	-3.62978	-0.363933	-0.149125	0.0153383	-25.058	-3.39682	0.710945	-2.85804	1.84093	0.547105	-1.37271	0.0113317	-0.0834334	0.0975358	-2.11143	-1.5969	-0.27844	-1.41737	-0.0135647	-0.117072	0.0317302
6.18778	-25.1564	-1.05196	3.74104	8.06229	513.024	-21.8461	-6.80487	-4.01197	0.779623	-1.22383	-0.978626	0.0496322	0.0258905	-14.4073	-4.88002	1.44622	-2.57692	-0.228095	-0.218592	0.0113424	-28.9544	-3.58175	1.16084	-3.02775	1.92974	0.604581	-1.49834	0.0125362	-0.0934906	0.111903	-2.39714	-1.68153	-0.299554	-1.57873	-0.0162983	-0.135404	0.0381936
6.19777	-24.6488	0.169615	4.04714	13.1946	497.161	-19.8378	-6.56087	-4.17399	0.77624	-1.29197	-0.961282	0.0463527	0.0255257	-15.2134	-5.84278	1.80859	-1.44158	-0.0624545	-0.287624	0.00599712	-27.1543	-3.83025	1.27181	-2.85407	1.85785	0.582482	-1.41399	0.0126587	-0.0864806	0.105925	-2.35278	-1.62238	-0.293651	-1.51888	-0.0158982	-0.129626	0.0351979
6.20776	-28.4269	1.36391	4.69157	12.4718	488.156	-17.6776	-6.1171	-4.06168	0.746504	-1.46111	-0.947417	0.0510906	0.0252079	-16.2379	-6.65232	2.10426	-0.529395	0.122575	-0.357675	-0.0004586	-29.7379	-4.26667	1.63681	-2.9326	1.8993	0.620325	-1.4864	0.0137011	-0.092371	0.115536	-2.58534	-1.66692	-0.306444	-1.6341	-0.0180252	-0.142908	0.0399931
6.21775	-29.2667	2.16393	5.41941	20.5914	472.98	-15.2803	-6.37516	-3.93964	0.720712	-1.46189	-0.936144	0.0545276	0.024779	-17.5747	-7.20393	2.36444	0.413366	0.325447	-0.422547	-0.008143	-27.7909	-4.73087	1.75321	-2.73512	1.82646	0.598311	-1.39044	0.0139998	-0.0843615	0.109143	-2.5466	-1.60987	-0.30194	-1.57178	-0.0177671	-0.137012	0.0367491
6.22775	-32.259	5.13341	5.9035	11.0381	467.451	-17.0964	-5.54678	-2.95889	0.530669	-1.76572	-0.942276	0.0768918	0.0249116	-16.1778	-8.21789	2.14955	0.701381	0.431972	-0.45353	-0.0108859	-33.0428	-5.33087	2.49438	-2.95867	1.96582	0.686266	-1.55692	0.0161924	-0.0969461	0.129676	-2.97948	-1.73986	-0.337139	-1.80089	-0.0219133	-0.163145	0.0451318
6.23774	-34.0619	7.30927	6.23556	7.59821	461.351	-18.1507	-5.17286	-2.21238	0.372146	-1.94038	-0.949367	0.0928476	0.025015	-15.6417	-9.09606	1.97315	1.00096	0.514485	-0.483903	-0.0131329	-35.4866	-5.70253	2.6834	-3.06197	1.96511	0.708463	-1.63712	0.0166208	-0.104215	0.13784	-3.21044	-1.74283	-0.33388	-1.91534	-0.0233725	-0.175241	0.0514914
6.24773	0	0	0	0	0	0	0	0	0	0	0	0	0	0	0	0	0	0	0	0	0	0	0	0	0	0	0	0	0	0	0	0	0	0	0	0	0
