Coordinates
version=1
nRows=241
nColumns=38
inDegrees=no

Units are S.I. units (second, meters, Newtons, ...)
If the header above contains a line with 'inDegrees', this indicates whether rotational values are in degrees (yes) or radians (no).

endheader
time	pelvis_tilt_moment	pelvis_list_moment	pelvis_rotation_moment	pelvis_tx_force	pelvis_ty_force	pelvis_tz_force	hip_flexion_r_moment	hip_adduction_r_moment	hip_rotation_r_moment	knee_angle_r_moment	ankle_angle_r_moment	subtalar_angle_r_moment	mtp_angle_r_moment	hip_flexion_l_moment	hip_adduction_l_moment	hip_rotation_l_moment	knee_angle_l_moment	ankle_angle_l_moment	subtalar_angle_l_moment	mtp_angle_l_moment	lumbar_extension_moment	lumbar_bending_moment	lumbar_rotation_moment	arm_flex_r_moment	arm_add_r_moment	arm_rot_r_moment	elbow_flex_r_moment	pro_sup_r_moment	wrist_flex_r_moment	wrist_dev_r_moment	arm_flex_l_moment	arm_add_l_moment	arm_rot_l_moment	elbow_flex_l_moment	pro_sup_l_moment	wrist_flex_l_moment	wrist_dev_l_moment
3.1	0	0	0	0	0	0	0	0	0	0	0	0	0	0	0	0	0	0	0	0	0	0	0	0	0	0	0	0	0	0	0	0	0	0	0	0	0
3.10999	10.5745	5.59879	1.94382	14.5688	473.04	0.920128	-3.74892	-1.95132	0.107436	-0.698354	-0.90691	0.0920712	0.0243162	-2.16984	2.42559	-0.636082	-4.70344	0.199456	-0.0648904	-0.00755149	-26.8296	-1.50896	-1.50143	1.43167	-0.509579	-0.122903	-0.208634	-0.0142396	-0.0356438	-0.0295987	2.70992	-0.151606	-0.0558546	0.181488	-0.00381815	0.00302149	-0.0261669
3.11998	10.7897	7.04048	2.20057	14.6664	486.135	1.52912	-2.27971	-2.51902	0.13597	-1.22524	-0.898214	0.0856718	0.0243209	-4.20276	2.80702	-0.827425	-4.7861	0.0595356	-0.0328557	-0.00335952	-27.0957	-0.982651	-1.9106	1.44731	-0.427733	-0.111845	-0.202893	-0.0141455	-0.0338334	-0.0272403	2.96153	-0.296905	-0.0836842	0.241626	-0.00410317	0.00729182	-0.034913
3.12997	12.3975	8.13156	2.48372	14.076	501.571	4.32024	-1.67517	-2.9364	0.18369	-1.41762	-0.90794	0.0823796	0.0246033	-6.37208	3.02532	-0.94367	-4.82303	-0.0865612	-0.0070536	0.00121295	-27.6069	-0.666149	-1.91582	1.5325	-0.231035	-0.0786398	-0.174825	-0.0122361	-0.0291621	-0.0210941	3.17646	-0.545849	-0.131801	0.283623	-0.00614732	0.00891663	-0.0471293
3.13996	14.7112	8.58561	2.56942	13.2427	517.393	8.99989	-1.58925	-3.16792	0.232547	-1.39822	-0.929168	0.0821375	0.0250465	-8.53507	2.88194	-0.897452	-4.71032	-0.219493	0.00357092	0.00559279	-28.1946	-0.532936	-1.69134	1.66597	0.0194171	-0.0351173	-0.130949	-0.00934436	-0.0226305	-0.013418	3.37096	-0.838006	-0.188673	0.317414	-0.00901354	0.00945171	-0.0607847
3.14994	17.2787	8.22541	2.3764	12.241	532.151	15.1383	-1.75258	-3.22351	0.270904	-1.26883	-0.95583	0.0839653	0.0255535	-10.6654	2.25168	-0.644922	-4.38964	-0.328732	-0.00560189	0.00945804	-28.701	-0.55694	-1.34626	1.8327	0.278761	0.0102442	-0.0755568	-0.00604419	-0.0149053	-0.00584562	3.55098	-1.12786	-0.245737	0.34905	-0.0120358	0.00994772	-0.0743273
3.15993	19.7911	6.97463	1.90119	10.8128	544.698	22.2913	-1.98551	-3.11793	0.291423	-1.10044	-0.983279	0.0870352	0.0260447	-12.8068	1.07632	-0.179683	-3.82482	-0.410511	-0.0352368	0.0126674	-28.9316	-0.710667	-0.964042	2.02076	0.514697	0.0512943	-0.0109534	-0.00273374	-0.00632711	0.000394525	3.72098	-1.38259	-0.296804	0.383957	-0.014702	0.0113281	-0.086688
3.16992	22.0944	4.76537	1.14491	8.69114	554.193	30.1433	-2.18687	-2.84236	0.286558	-0.938826	-1.00925	0.0912238	0.0264933	-15.0024	-0.678088	0.482627	-3.00165	-0.463166	-0.0842228	0.0151263	-28.758	-0.953691	-0.599247	2.21896	0.705819	0.0840636	0.0603497	0.000311412	0.00278014	0.00455903	3.88078	-1.58059	-0.337784	0.424808	-0.0166834	0.0140997	-0.0971295
3.17991	24.0966	2.22143	0.469931	5.76813	560.226	37.7964	-2.29427	-2.60733	0.263706	-0.828374	-1.03075	0.0916172	0.0269323	-17.3173	-2.72921	1.24144	-1.91097	-0.489516	-0.142226	0.0167047	-28.1321	-1.36485	-0.320325	2.4147	0.835821	0.105025	0.134576	0.00281396	0.0118828	0.00597956	4.02907	-1.70585	-0.364956	0.472282	-0.0177132	0.018522	-0.10483
3.1899	26.0936	-0.77372	-0.180216	2.81377	563.364	45.3301	-2.17604	-2.26933	0.21439	-0.802403	-1.04881	0.0923985	0.0273655	-19.7855	-5.0619	2.06958	-0.605079	-0.490924	-0.206529	0.0173454	-27.4737	-1.89391	-0.150896	2.58285	0.893635	0.112795	0.1976	0.00440096	0.0191704	0.00500114	4.15006	-1.75166	-0.376637	0.516164	-0.0178659	0.0232514	-0.109009
3.19989	28.3663	-3.44872	-0.310005	0.849228	564.445	51.9113	-1.78028	-2.03938	0.161768	-0.888783	-1.06212	0.0903869	0.0278385	-22.3668	-7.24351	2.83559	0.84678	-0.475119	-0.262969	0.0170383	-27.2623	-2.68993	-0.0303748	2.71173	0.889113	0.109784	0.239072	0.00504063	0.0232169	0.00254879	4.21098	-1.72733	-0.373831	0.539511	-0.0175585	0.0261845	-0.109083
3.20988	30.7732	-6.07888	-0.202852	-0.528266	563.493	57.54	-1.15404	-1.69404	0.0912254	-1.05189	-1.07249	0.0904984	0.0282899	-25.0326	-9.22912	3.50785	2.38653	-0.448525	-0.306465	0.0159026	-27.2851	-3.53412	0.0316268	2.79795	0.821042	0.0962465	0.260967	0.00476447	0.0245023	-0.00131126	4.22286	-1.63471	-0.357703	0.548541	-0.0167014	0.0279911	-0.105699
3.21987	33.1589	-8.09312	0.287524	-2.01718	560.392	61.4324	-0.424554	-1.37266	0.0105126	-1.2584	-1.07668	0.0887543	0.0286276	-27.815	-10.6826	4.01613	4.01784	-0.423022	-0.324971	0.0141201	-27.2149	-4.38143	0.00540237	2.84623	0.693371	0.0723894	0.269813	0.00369799	0.0239867	-0.00682905	4.20152	-1.47849	-0.329237	0.552122	-0.0151531	0.0297676	-0.0994566
3.22985	35.7117	-9.16123	1.26534	-3.23542	555.789	63.1998	0.387876	-1.10702	-0.0710139	-1.49569	-1.07492	0.0853653	0.0288441	-30.7262	-11.3634	4.32302	5.7406	-0.409602	-0.310766	0.0119457	-27.2346	-5.23699	-0.09839	2.85263	0.509232	0.0390213	0.262022	0.00181006	0.0211994	-0.0136607	4.14246	-1.26357	-0.289244	0.546257	-0.0130445	0.0309261	-0.09035
3.23984	38.1799	-8.9513	2.764	-4.73896	549.566	62.4686	1.1855	-0.970291	-0.142513	-1.73428	-1.06937	0.0796546	0.0290106	-33.7301	-11.0651	4.40923	7.56333	-0.417128	-0.258561	0.00963297	-27.0063	-6.07978	-0.28443	2.8308	0.276092	-0.00306135	0.24701	-0.000670939	0.0174032	-0.0220696	4.06093	-0.9964	-0.23912	0.539754	-0.0102844	0.0325809	-0.079044
3.24983	42.4498	-7.00371	5.02829	-4.34769	546.48	58.9149	2.09205	-0.891857	-0.20102	-1.99613	-1.06425	0.0754634	0.0292557	-38.1162	-9.48889	4.35883	10.2203	-1.27465	-0.0583972	0.00746627	-27.3513	-6.87119	-0.509083	2.7599	-0.00491866	-0.0521711	0.206954	-0.00402463	0.0102687	-0.0307978	3.935	-0.684212	-0.180272	0.515042	-0.00731848	0.0322039	-0.0651306
3.25982	46.4943	-4.4386	7.50148	-1.52032	542.372	52.6371	3.16479	-0.972588	-0.234222	-2.29017	-1.05876	0.0712418	0.0295924	-41.5675	-7.29028	4.08631	12.386	-1.56938	0.0764236	0.00585255	-28.6575	-7.55099	-0.745629	2.632	-0.333073	-0.107245	0.134182	-0.00836211	-0.00117024	-0.0391823	3.75917	-0.331446	-0.11395	0.465483	-0.00436117	0.0287333	-0.0486546
3.26981	51.0248	-1.37677	10.1624	3.61667	539.078	43.2921	4.37048	-1.22137	-0.23921	-2.60123	-1.05138	0.0664464	0.029949	-44.9483	-4.57647	3.69166	14.553	-1.85976	0.219634	0.00534162	-30.7112	-7.93193	-0.939977	2.46238	-0.703326	-0.166712	0.0368668	-0.0134252	-0.0157593	-0.0471329	3.54183	0.058455	-0.0421272	0.397199	-0.00142754	0.022874	-0.0304212
3.2798	53.8713	1.54586	12.542	2.25168	530.866	31.8836	4.79699	-1.73866	-0.240128	-2.7358	-1.03988	0.0525645	0.0301189	-48.4453	-1.97307	3.25179	16.7984	-2.12413	0.351463	0.00656544	-29.6134	-7.66043	-1.09968	2.39543	-1.08468	-0.230355	0.0165774	-0.0170769	-0.020237	-0.0593257	3.39446	0.486272	0.0330716	0.397319	0.00304679	0.0266942	-0.0145315
3.28979	57.16	3.58686	15.02	5.20831	524.357	15.8824	5.62335	-2.63615	-0.202217	-2.96359	-1.0279	0.0322344	0.0305128	-51.4893	0.518842	2.71008	18.8273	-2.32509	0.459539	0.00948108	-29.985	-6.73276	-0.747214	2.31721	-1.51176	-0.292996	-0.031771	-0.0209792	-0.0286214	-0.0693982	3.10281	0.972365	0.113459	0.341946	0.00654175	0.0239574	0.00424792
3.29978	59.6014	4.8874	16.782	3.65978	514.951	0.531436	5.83951	-3.31138	-0.177464	-2.9965	-1.01846	0.0209244	0.0307193	-54.6809	1.98276	2.19691	20.7698	-2.44181	0.512846	0.0142285	-28.447	-5.3994	-0.950515	2.23635	-1.97654	-0.368904	-0.0499534	-0.0253033	-0.0326339	-0.0838542	2.96868	1.48258	0.199973	0.361466	0.0121476	0.0304824	0.0212799
3.30976	64.6339	5.88699	18.5753	12.8694	512.215	-14.0078	6.97413	-3.52738	-0.109002	-3.20318	-1.01542	0.0352693	0.0310418	-57.2917	2.87574	1.61638	22.2817	-2.44569	0.507922	0.0200074	-31.7168	-4.62445	-1.63089	1.93224	-2.46767	-0.447704	-0.201003	-0.0329277	-0.053469	-0.0928759	2.82107	1.949	0.284289	0.308819	0.0164762	0.0253118	0.0410609
3.31975	68.6355	7.46881	19.7019	17.7016	506.926	-22.1909	7.50412	-3.10288	-0.0484324	-3.22634	-1.01629	0.0741551	0.0310048	-59.7835	2.79866	1.09137	23.5306	-2.35348	0.444897	0.0266321	-33.2792	-4.6107	-3.46339	1.5923	-2.89148	-0.530902	-0.327591	-0.0410168	-0.0703195	-0.104891	2.98164	2.29762	0.357337	0.360253	0.0226778	0.0313639	0.0550157
3.32974	71.5397	11.0107	20.6719	16.7124	498.505	-19.72	7.12715	-1.89785	-0.000743921	-3.0127	-1.02381	0.141516	0.030573	-62.0221	2.17452	0.633624	24.4763	-2.19458	0.344673	0.0334184	-32.7169	-6.49178	-6.56559	1.25472	-3.153	-0.607877	-0.410017	-0.0486298	-0.0809475	-0.119194	3.49092	2.43358	0.407368	0.52333	0.0301721	0.0493785	0.0611005
3.33973	69.653	13.0538	21.4934	16.2805	485.832	-17.8687	7.32779	-1.28216	0.0779575	-3.0603	-1.03104	0.187661	0.0306163	-61.5599	1.64151	0.163854	24.3763	-1.99712	0.249184	0.0395846	-30.801	-8.2986	-7.85182	1.18681	-3.19198	-0.633288	-0.396183	-0.0503637	-0.079744	-0.126468	3.71192	2.43973	0.423263	0.612084	0.0333334	0.0602686	0.0625736
3.34972	63.5162	13.3953	21.8789	15.6935	468.536	-18.2285	7.98402	-1.20333	0.148247	-3.27108	-1.03901	0.210777	0.0311924	-58.5119	1.06848	-0.2195	23.22	-1.82075	0.181173	0.0445001	-27.8895	-9.71441	-7.73651	1.29518	-3.13693	-0.63054	-0.323288	-0.0484252	-0.0714146	-0.130053	3.67043	2.43019	0.42686	0.634925	0.0338469	0.0653227	0.0635548
3.35971	55.1948	11.7391	21.6179	23.6474	451.619	-23.1617	10.0084	-1.4538	0.219353	-3.78068	-1.04979	0.220191	0.0325174	-52.5707	0.676133	-0.500604	20.9108	-1.72369	0.168729	0.0474645	-28.0222	-10.5097	-6.50932	1.36659	-3.09287	-0.612039	-0.315411	-0.0462874	-0.0714817	-0.126535	3.31073	2.45663	0.428228	0.524338	0.0312248	0.0544149	0.0685385
3.3697	44.0778	8.30085	20.0214	35.8297	432.465	-30.7442	12.9416	-1.74845	0.250681	-4.46322	-1.06312	0.221897	0.034375	-44.1019	0.174679	-0.632322	17.6802	-1.77024	0.234056	0.0483013	-29.6373	-10.486	-4.90997	1.3709	-3.10779	-0.594543	-0.355725	-0.0449398	-0.0772897	-0.120592	2.81641	2.5419	0.435185	0.356742	0.0277757	0.0367111	0.0761922
3.37969	30.2204	4.19262	17.2057	43.734	406.973	-37.7386	15.6713	-2.04394	0.224366	-5.1355	-1.08091	0.215472	0.0365051	-34.0762	-0.591127	-0.609938	13.9723	-2.00662	0.392877	0.0468744	-29.9615	-10.015	-3.56237	1.36277	-3.17575	-0.588738	-0.38316	-0.0440267	-0.0810555	-0.117911	2.37484	2.67911	0.451762	0.223805	0.0257438	0.0239521	0.084264
3.38967	14.87	-0.776726	13.3195	47.6564	376.609	-42.7512	18.2484	-2.04175	0.119779	-5.79791	-1.10672	0.211771	0.0388643	-23.2589	-1.80143	-0.468469	10.1587	-2.44265	0.644082	0.0430236	-29.5167	-9.20329	-2.54257	1.32507	-3.27129	-0.590666	-0.408271	-0.0436491	-0.0839745	-0.117172	2.00843	2.82953	0.471854	0.122947	0.0247568	0.0151395	0.0916133
3.39966	-0.402816	-6.58221	8.79633	49.3484	343.778	-45.6279	20.9222	-1.63381	-0.0595825	-6.478	-1.13766	0.217162	0.0413209	-12.5161	-3.47262	-0.260662	6.67299	-3.05644	0.973652	0.0365957	-29.3373	-8.1477	-1.81576	1.23301	-3.36738	-0.59418	-0.452104	-0.0439475	-0.0886173	-0.116011	1.70703	2.95406	0.488483	0.0350046	0.0240188	0.00713993	0.0975099
3.40965	-15.2865	-12.6296	4.11848	40.3066	304.658	-42.8909	22.53	-0.812213	-0.32752	-7.00028	-1.17768	0.232086	0.043577	-3.10438	-5.93955	-0.0172681	4.14057	-3.81345	1.35282	0.028028	-26.4324	-7.2987	-1.63078	1.1993	-3.42077	-0.601013	-0.434561	-0.0434587	-0.0850483	-0.118991	1.59398	3.0322	0.501204	0.0347609	0.0249791	0.0101154	0.0994315
3.41964	-28.3679	-18.6455	-0.281577	29.2486	265.064	-37.7677	24.1807	0.307485	-0.638462	-7.53141	-1.21545	0.257905	0.0455393	4.90279	-8.47461	0.141054	2.70399	-4.66091	1.76259	0.0181651	-23.9826	-6.49221	-1.64621	1.13894	-3.41111	-0.598778	-0.427822	-0.0429059	-0.0822114	-0.119659	1.55398	3.02205	0.49958	0.0434333	0.0253888	0.0129124	0.0979025
3.42963	-40.2909	-23.672	-4.30996	14.399	224.05	-30.8709	25.5455	1.46101	-0.95937	-8.01527	-1.24117	0.287149	0.0468067	11.5214	-10.5897	0.153987	2.41109	-5.55454	2.18675	0.00889055	-20.8869	-5.67889	-1.89755	1.09573	-3.31508	-0.585709	-0.401197	-0.0415829	-0.0761159	-0.1191	1.63066	2.90806	0.480848	0.0882597	0.0256153	0.0191073	0.091285
3.43962	-51.6554	-27.2142	-7.98928	-4.60666	181.593	-23.2831	26.463	2.52537	-1.26552	-8.44856	-1.24928	0.315229	0.0471059	17.0812	-11.728	0.0146574	3.07364	-6.42436	2.61195	0.00135406	-16.6458	-4.77029	-2.22653	1.105	-3.11765	-0.558369	-0.336706	-0.0388321	-0.0645167	-0.117305	1.80563	2.68845	0.443355	0.17135	0.0255236	0.0293078	0.0790913
3.44961	-63.417	-29.3178	-11.2636	-39.0264	132.06	-12.2218	25.3298	3.5822	-1.56439	-8.66299	-1.2592	0.34198	0.0464202	21.1177	-12.0708	-0.197078	4.75548	-7.19866	3.01419	-0.00379839	-7.06769	-4.05664	-2.62308	1.33006	-2.80959	-0.522658	-0.125032	-0.0325733	-0.0340395	-0.120952	2.14302	2.4072	0.395836	0.370957	0.0270592	0.0555172	0.0604894
3.4596	-71.0754	-29.7289	-13.5342	-63.8174	91.6499	-7.21634	25.2589	4.41104	-1.77439	-9.14909	-1.22194	0.358975	0.0442268	24.3153	-10.1726	-0.625105	7.02805	-7.78578	3.39119	-0.00711787	-2.43667	-3.02735	-2.60993	1.39998	-2.46906	-0.468407	-0.0289595	-0.0276087	-0.0177555	-0.114484	2.31691	2.05869	0.332481	0.454817	0.0253152	0.0650069	0.0425828
3.46958	-72.691	-28.7024	-14.6785	-69.9195	66.2755	-9.8773	27.404	5.18985	-1.9119	-10.0779	-1.09384	0.362758	0.0394124	26.6674	-6.05672	-1.31609	9.75146	-8.13649	3.71806	-0.00857083	-6.49258	-1.64028	-2.24195	1.16421	-2.14595	-0.398658	-0.14827	-0.0262457	-0.0284908	-0.0936956	2.24037	1.65502	0.256373	0.348095	0.0190712	0.0470639	0.0289895
3.47957	-72.5853	-26.0012	-15.1753	-78.3754	42.612	-13.9601	29.2103	5.86198	-1.97276	-11.0043	-0.900073	0.349047	0.0320972	27.529	-0.73219	-2.15176	13.1801	-8.26602	3.96371	-0.00753154	-10.0637	-0.13127	-2.08713	0.921185	-1.8226	-0.331417	-0.260539	-0.0250073	-0.0381735	-0.0737749	2.21714	1.24201	0.179922	0.263727	0.0133442	0.0316497	0.0145026
3.48956	-71.7664	-22.0562	-15.0071	-93.5921	17.0506	-17.1989	29.8635	6.40196	-1.93751	-11.8399	-0.659027	0.314776	0.0228032	27.1227	5.21198	-3.11969	17.2003	-8.18154	4.09841	-0.00437478	-11.0577	1.16033	-2.17478	0.756362	-1.4978	-0.270957	-0.31026	-0.022939	-0.0401446	-0.0584357	2.28697	0.843895	0.108441	0.24294	0.00920518	0.0250187	-0.00108444
3.49955	-68.1736	-17.2603	-14.1502	-97.6608	-1.32021	-23.4661	31.4208	6.82243	-1.86075	-12.844	-0.33098	0.255205	0.0111014	26.5321	11.9044	-4.29535	21.2867	-7.88047	4.10546	-0.000272469	-16.1566	2.44109	-2.28087	0.443334	-1.21548	-0.211982	-0.463072	-0.0231717	-0.0556204	-0.0382926	2.25698	0.451881	0.0392127	0.139566	0.00359589	0.00651124	-0.0127652
3.50954	-64.8033	-11.8158	-12.7729	-106.986	-22.7986	-28.8802	31.8024	7.0261	-1.74553	-13.7162	0.0275188	0.172672	-0.00158118	25.2936	18.6254	-5.51576	25.6042	-7.4255	3.9707	0.0046324	-18.4852	3.38645	-2.49587	0.241628	-0.937735	-0.160406	-0.541649	-0.0222851	-0.0622648	-0.0233835	2.2948	0.0935808	-0.0223368	0.0966622	-0.000418941	-0.0031469	-0.0247633
3.51953	-62.9102	-7.61609	-11.4821	-129.069	-51.8517	-29.916	29.971	7.44923	-1.68276	-14.4074	0.360598	0.0833192	-0.0136952	23.4036	24.2889	-6.63674	30.0947	-6.85209	3.66677	0.00991471	-15.1228	3.8133	-2.62219	0.279039	-0.642417	-0.11497	-0.465152	-0.0183571	-0.0499032	-0.017224	2.42202	-0.210014	-0.0743565	0.162876	-0.00189448	0.00368509	-0.0386176
3.52952	-60.1579	-3.92133	-10.1403	-141.677	-76.1318	-32.3472	28.9596	7.79011	-1.74718	-15.3328	0.729002	-0.0179364	-0.0260871	21.9213	29.4297	-7.73777	34.1933	-6.15626	3.20224	0.0145465	-14.4559	4.10162	-2.70194	0.224668	-0.404617	-0.0753179	-0.456068	-0.0161138	-0.0467469	-0.00898813	2.45174	-0.466989	-0.117271	0.168581	-0.00406051	0.002496	-0.0479069
3.53951	-56.9605	-0.943623	-8.86142	-144.317	-95.5613	-35.987	28.9845	8.06191	-1.99892	-16.4874	1.12352	-0.120913	-0.0384732	20.9316	33.8084	-8.73993	37.7564	-5.35654	2.58463	0.0183877	-16.4759	4.27793	-2.67496	0.088591	-0.22162	-0.0408089	-0.512175	-0.0154251	-0.0526206	0.00128915	2.36903	-0.675922	-0.150848	0.108955	-0.00703277	-0.00711467	-0.0523579
3.54949	-54.8392	0.812948	-7.95145	-149.555	-116.564	-39.2048	28.4237	8.22767	-2.36185	-17.6393	1.47319	-0.21337	-0.0490049	19.9547	37.0506	-9.51186	40.9231	-4.48023	1.82978	0.0215911	-16.5048	4.39781	-2.50462	0.0405544	-0.0720064	-0.0135202	-0.514646	-0.013872	-0.0521722	0.00757642	2.27741	-0.814487	-0.173382	0.0799726	-0.00885363	-0.0113428	-0.0556135
3.55948	-52.1294	1.77138	-7.01013	-148.721	-133.686	-42.7594	28.2399	8.18937	-2.82362	-18.8264	1.77237	-0.287426	-0.057281	19.2931	39.2437	-10.0944	43.447	-3.51455	0.960998	0.0238288	-18.1638	4.22908	-2.21613	-0.0451443	0.0121242	0.00484312	-0.554989	-0.0134572	-0.0575083	0.0136513	2.08452	-0.878563	-0.181635	0.00426548	-0.010859	-0.020886	-0.0536094
3.56947	-48.4627	2.25777	-5.91525	-144.346	-147.482	-47.021	27.8633	7.7219	-3.24538	-19.8742	1.9729	-0.338311	-0.0618723	18.7929	40.5046	-10.4759	45.3291	-2.46318	0.0159214	0.0252261	-20.8553	3.85794	-1.7877	-0.140593	0.0421169	0.0156271	-0.615322	-0.0137365	-0.0662858	0.0190045	1.80855	-0.874356	-0.177329	-0.104519	-0.0128952	-0.0339103	-0.0473083
3.57946	-43.6405	2.16286	-4.873	-139.028	-158.532	-51.7683	26.7272	6.83813	-3.53235	-20.615	2.04013	-0.361909	-0.0619501	18.3494	40.8459	-10.6456	46.5815	-1.32879	-0.96708	0.0259965	-23.8913	3.47792	-1.18836	-0.216468	0.0344383	0.0214801	-0.675904	-0.0141671	-0.0757681	0.0233977	1.47575	-0.81549	-0.164163	-0.229522	-0.0148535	-0.04831	-0.0383352
3.58945	-37.7375	1.89658	-3.86162	-133.582	-166.571	-57.0811	24.6756	5.56631	-3.62742	-20.9623	1.98177	-0.362384	-0.0581106	17.9484	40.5895	-10.6352	47.2266	-0.117382	-1.94037	0.0263532	-27.0231	3.13613	-0.466814	-0.265898	0.00200883	0.0239573	-0.730821	-0.0145904	-0.0849942	0.0268695	1.11686	-0.720939	-0.145618	-0.360302	-0.0167095	-0.0629997	-0.027936
3.59944	-31.2226	1.90406	-2.83662	-128.346	-171.05	-62.9609	21.7615	3.98763	-3.5234	-20.911	1.82956	-0.347617	-0.0516938	17.6421	40.1217	-10.4853	47.3057	1.1616	-2.85691	0.0265249	-29.996	2.8478	0.326009	-0.280822	-0.0359843	0.025586	-0.774158	-0.0147963	-0.0929399	0.0296237	0.767874	-0.617986	-0.126594	-0.486055	-0.018515	-0.0769079	-0.0176957
3.60943	-24.8191	2.83057	-1.54688	-123.821	-171.205	-69.7232	18.0514	2.0575	-3.17668	-20.5072	1.61713	-0.330254	-0.0438897	17.5312	39.9266	-10.2493	46.8826	2.49513	-3.67484	0.0267261	-32.4155	2.5808	1.15112	-0.245495	-0.0555646	0.029553	-0.796294	-0.0144509	-0.0980687	0.0317868	0.469412	-0.538174	-0.11283	-0.593659	-0.0203333	-0.0886268	-0.00949998
3.61942	-21.363	3.18787	-0.0442855	-119.741	-165.512	-74.042	14.8138	0.492583	-2.7648	-20.2132	1.40402	-0.313123	-0.0363624	17.6442	39.5884	-9.96358	46.0151	3.88453	-4.39301	0.0270568	-33.2506	1.94186	2.23192	-0.0741479	-0.0301782	0.0399781	-0.761722	-0.0124222	-0.0959106	0.032261	0.231709	-0.494933	-0.10812	-0.671612	-0.0223213	-0.0959793	-0.00476808
3.62941	-18.8507	3.86215	1.28959	-116.506	-154.444	-77.5299	11.0168	-0.858847	-2.23728	-19.6452	1.16551	-0.295201	-0.0286808	18.0353	39.3763	-9.64915	44.7377	5.32585	-5.00073	0.0274322	-33.2567	1.31018	3.00664	0.128005	-0.040539	0.0405327	-0.712038	-0.0108534	-0.0915872	0.0296032	0.136055	-0.44332	-0.102011	-0.702616	-0.023228	-0.0978622	-0.00193473
3.63939	-16.9542	4.8335	2.4269	-112.719	-139.655	-79.8275	7.0828	-1.97079	-1.68029	-18.8885	0.921382	-0.276027	-0.0213312	18.6452	39.3244	-9.31305	43.1183	6.81484	-5.50444	0.0277876	-32.9149	0.701668	3.51701	0.344911	-0.0603233	0.0364725	-0.653631	-0.00959663	-0.085972	0.0254681	0.153512	-0.404411	-0.0978522	-0.698291	-0.0234823	-0.0960415	-0.00104331
3.64938	-15.3397	5.83284	3.23712	-107.676	-122.478	-80.2733	3.28168	-2.73906	-1.18685	-17.9957	0.68001	-0.251765	-0.014457	19.3719	39.3318	-8.94939	41.2398	8.34561	-5.92138	0.0280985	-32.5561	0.110201	3.81755	0.565076	-0.0716989	0.0315676	-0.591196	-0.00851874	-0.0797338	0.0210263	0.252418	-0.389576	-0.0973609	-0.669924	-0.0234176	-0.0920227	-0.00185361
3.65937	-13.7092	6.53021	3.57122	-101.22	-103.954	-78.7092	-0.220127	-3.11792	-0.808307	-16.9985	0.44506	-0.220488	-0.00802445	20.0646	39.2321	-8.54588	39.1982	9.91146	-6.2736	0.028366	-32.3692	-0.3957	3.93213	0.777795	-0.0795263	0.0256213	-0.529513	-0.00771465	-0.0735658	0.0165649	0.411193	-0.389495	-0.0989334	-0.624163	-0.02307	-0.0866012	-0.00370154
3.66936	-11.838	6.65454	3.38721	-93.5678	-84.8888	-75.3513	-3.32904	-3.13857	-0.551745	-15.9161	0.22048	-0.183405	-0.00199974	20.5522	38.8856	-8.09302	37.0978	11.5065	-6.58175	0.0285998	-32.4263	-0.750404	3.92934	0.98526	-0.0881829	0.0187484	-0.46894	-0.00714154	-0.0676106	0.0122057	0.608194	-0.393752	-0.101249	-0.566877	-0.022506	-0.0803663	-0.00607173
3.67935	-9.62384	6.0061	2.69025	-85.1391	-65.8732	-70.6616	-5.96323	-2.84504	-0.411312	-14.775	0.0139594	-0.143403	0.00350447	20.6521	38.1953	-7.58294	35.045	13.1285	-6.86209	0.0287994	-32.7014	-0.895023	3.86565	1.19443	-0.108013	0.00983362	-0.40806	-0.00679285	-0.0617855	0.00768316	0.830627	-0.387372	-0.102288	-0.50061	-0.0216864	-0.0734513	-0.0084703
3.68934	-7.0783	4.55983	1.5248	-76.4828	-47.3598	-65.4912	-8.02713	-2.33539	-0.363464	-13.6114	-0.161282	-0.10584	0.00817281	20.1586	37.1179	-7.00735	33.1475	14.782	-7.1251	0.0289368	-33.084	-0.750485	3.7296	1.40719	-0.160572	-0.00468747	-0.346714	-0.00686334	-0.0561214	0.00222429	1.083	-0.348699	-0.0986741	-0.422189	-0.0203482	-0.0653219	-0.0103826
3.69933	-4.24416	2.41537	0.00242321	-68.2818	-29.6485	-60.7446	-9.48942	-1.72034	-0.373084	-12.4473	-0.295499	-0.075851	0.0117661	18.8866	35.6766	-6.36853	31.4988	16.4815	-7.37561	0.0289684	-33.4159	-0.277634	3.50481	1.62721	-0.263856	-0.0279657	-0.283762	-0.00750467	-0.0504922	-0.00494416	1.37361	-0.260479	-0.0876934	-0.327456	-0.0182462	-0.0553221	-0.0114789
3.70932	-1.1724	-0.261526	-1.7495	-61.2822	-10.102	-57.1956	-10.4396	-1.06217	-0.409197	-11.3141	-0.391969	-0.0555712	0.0144301	16.6971	33.9502	-5.68009	30.1481	18.249	-7.61353	0.0289867	-33.5975	0.513666	3.15569	1.86832	-0.433541	-0.0632365	-0.217476	-0.00888578	-0.0447034	-0.0147586	1.7326	-0.113371	-0.0680179	-0.209077	-0.0151745	-0.0425372	-0.0118966
3.7193	-1.1271	-3.25979	-3.70956	-52.4552	7.43321	-55.0308	-10.9703	-0.405154	-0.440712	-10.1596	-0.45377	-0.0454299	0.0162531	16.0911	32.0919	-5.00192	28.3017	20.1606	-7.8419	0.0285296	-33.127	1.55405	2.69496	2.13354	-0.661138	-0.109223	-0.13979	-0.0107317	-0.0375285	-0.0273597	2.15576	0.0880109	-0.0404922	-0.0622475	-0.0110607	-0.0261163	-0.0120697
3.72929	-7.43249	-6.32302	-5.82616	-38.8135	22.285	-54.4394	-11.249	0.160095	-0.417611	-8.95076	-0.491161	-0.0462238	0.0175759	19.6136	30.2811	-4.38391	25.113	22.2535	-8.05985	0.0273918	-31.5475	2.77198	2.10691	2.43021	-0.938091	-0.164951	-0.0438724	-0.0128377	-0.0278399	-0.0429942	2.65992	0.332309	-0.00722367	0.120831	-0.00585272	-0.00498966	-0.0129069
3.73928	-13.234	-8.20942	-7.36937	-25.0668	34.4496	-57.2291	-11.2932	0.0899518	-0.214474	-7.8085	-0.493317	-0.0716539	0.0182843	22.7473	29.0129	-3.75449	22.2399	24.3877	-8.22844	0.0265556	-30.2312	4.16097	1.43178	2.70545	-1.24224	-0.225334	0.0418936	-0.0154854	-0.0195751	-0.0590583	3.16879	0.601082	0.030524	0.303989	-0.000341221	0.0159838	-0.0127568
3.74927	-18.5757	-9.09986	-8.37621	-11.9146	43.0881	-62.454	-11.2806	-0.528548	0.14271	-6.68506	-0.462877	-0.117183	0.0182618	25.5852	28.1492	-3.12793	19.653	26.522	-8.3472	0.0259833	-28.9837	5.58396	0.743391	2.96514	-1.54174	-0.284754	0.123571	-0.0181709	-0.011806	-0.0746694	3.66345	0.867337	0.068215	0.482901	0.00510944	0.0363894	-0.0123849
3.75926	-23.3529	-9.09629	-8.86879	0.276698	48.0165	-68.9246	-11.4332	-1.50938	0.60292	-5.52482	-0.405455	-0.174035	0.017396	28.261	27.6174	-2.52671	17.3209	28.6285	-8.4181	0.025605	-27.8117	6.83452	0.0670498	3.20231	-1.80536	-0.338145	0.200451	-0.0205761	-0.00446801	-0.0888414	4.12612	1.1008	0.101547	0.650133	0.0101085	0.0553515	-0.0123206
3.76925	-27.2719	-8.08673	-8.75935	10.8794	49.4216	-75.2416	-12.0768	-2.67923	1.13517	-4.23943	-0.330569	-0.233396	0.0156905	30.8453	27.4113	-1.97345	15.2331	30.6862	-8.44293	0.0254132	-26.7521	7.59811	-0.600589	3.40332	-1.99311	-0.379456	0.270134	-0.0223651	0.00234563	-0.100381	4.53921	1.26111	0.125154	0.797217	0.014201	0.0718486	-0.0132236
3.77924	-29.7295	-5.94696	-7.96936	19.0305	47.9622	-79.4264	-13.6071	-3.76546	1.69354	-2.71315	-0.252394	-0.282539	0.0132404	33.2793	27.5053	-1.48299	13.4267	32.6789	-8.42393	0.0254828	-25.9477	7.44797	-1.27264	3.54704	-2.05249	-0.400827	0.327639	-0.0231414	0.00826337	-0.107669	4.87827	1.29488	0.13214	0.911733	0.0167758	0.0843602	-0.0158503
3.78923	-29.8134	-2.43811	-6.36466	23.5063	44.7306	-78.8403	-16.4876	-4.41324	2.22514	-0.801022	-0.188047	-0.306039	0.0102005	35.3486	27.8716	-1.07502	11.9991	34.5988	-8.36317	0.0259107	-25.6356	5.7756	-1.98227	3.6041	-1.91782	-0.392787	0.365832	-0.0224453	0.012674	-0.108765	5.11078	1.13578	0.114421	0.977378	0.0170915	0.0909378	-0.0209444
3.79921	-26.2374	2.62113	-3.84931	22.6405	41.2391	-69.9428	-21.2688	-4.17885	2.68732	1.68446	-0.158027	-0.288024	0.0068403	36.6694	28.3353	-0.768644	11.1114	36.4518	-8.26586	0.0268606	-26.1627	1.81042	-2.76627	3.53873	-1.51182	-0.344349	0.375943	-0.0197379	0.0147706	-0.101441	5.1923	0.707291	0.0630796	0.973183	0.0142749	0.0891523	-0.0291353
3.8092	-17.1052	9.9705	-0.131113	14.9837	39.6921	-49.0548	-28.5745	-2.73907	3.08868	4.94022	-0.181488	-0.217832	0.00350379	36.6872	28.8405	-0.603764	10.9885	38.2658	-8.13308	0.0284636	-28.3389	-5.40069	-3.69706	3.29794	-0.753657	-0.24466	0.339823	-0.0146637	0.0124019	-0.0832271	5.06024	-0.0705882	-0.0297075	0.867839	0.00732314	0.0753537	-0.0401745
3.81919	-8.92692	12.6003	1.44374	7.00456	29.7895	-42.8216	-33.4642	-2.41916	3.40893	7.5217	-0.16528	-0.177908	-0.000188779	34.9304	29.9739	-0.480068	11.3541	40.1485	-7.90854	0.028827	-29.2736	-7.75849	-2.40098	3.31973	-0.166072	-0.14139	0.372733	-0.00707749	0.0181823	-0.0637011	4.63593	-0.573094	-0.1086	0.715417	-0.000688014	0.0575524	-0.0493868
3.82918	-3.9588	9.49855	0.2008	2.38058	10.9472	-53.9999	-35.2314	-3.10981	3.52652	9.16605	-0.128553	-0.163144	-0.00354428	32.4896	31.8534	-0.41199	11.8121	42.1764	-7.61573	0.0279299	-28.3667	-4.13361	1.00206	3.6494	0.180211	-0.0450733	0.4871	0.00234442	0.0336235	-0.0448686	4.0544	-0.749966	-0.170724	0.562314	-0.0087087	0.0402232	-0.058693
3.83917	1.08605	6.35971	-2.48925	-0.979192	-6.53059	-59.2133	-37.2794	-1.64803	3.3385	11.013	-0.169059	-0.079593	-0.005826	30.9076	32.9895	-0.272801	12.1844	44.3637	-7.36447	0.0277282	-27.9476	-1.30746	1.82587	3.60397	0.234799	-0.0201493	0.477819	0.00392977	0.033902	-0.0372584	3.84152	-0.768334	-0.185263	0.509114	-0.0106748	0.0334935	-0.0609493
3.84916	5.75854	3.06531	-5.8227	-2.78339	-23.0914	-60.1145	-39.6217	1.03986	3.02936	13.0244	-0.282915	0.0434101	-0.00641828	30.1758	33.8772	-0.184109	12.5198	46.742	-7.16971	0.0277928	-27.7251	1.03512	1.50625	3.37711	0.225586	-0.0159369	0.412243	0.00263226	0.0278005	-0.0322965	3.7888	-0.787615	-0.19024	0.494238	-0.01071	0.0303506	-0.0623289
3.85915	11.7478	-0.584058	-9.62575	-3.34588	-36.0221	-56.9998	-43.7732	4.71013	2.7078	16.0933	-1.113	0.253111	-0.00483262	30.0724	34.6651	-0.164871	12.8555	49.3251	-7.04023	0.027959	-27.5469	2.78625	0.806348	3.08525	0.259214	-0.00892356	0.331343	0.00102435	0.0202926	-0.0264992	3.77957	-0.871822	-0.201421	0.48623	-0.010753	0.0275626	-0.0650068
3.86914	16.0669	-3.66004	-12.8447	-2.93201	-51.4916	-51.418	-46.9888	8.02074	2.34082	18.5017	-1.43709	0.3931	-0.000803035	30.3595	35.4847	-0.223176	13.2328	52.1154	-6.97715	0.0280955	-27.2598	3.97755	0.138315	2.79735	0.374366	0.0105911	0.259182	0.00035415	0.0142134	-0.0186382	3.75686	-1.03599	-0.224524	0.472331	-0.0116114	0.023962	-0.0697805
3.87912	19.9784	-6.14972	-15.6883	-1.81133	-67.7252	-44.4316	-50.3443	10.7745	1.948	20.869	-1.75364	0.499379	0.00557267	30.8499	36.3689	-0.355631	13.6867	55.1036	-6.9791	0.028149	-26.7584	4.73428	-0.299311	2.55119	0.570543	0.0443213	0.207994	0.001056	0.0109137	-0.00870836	3.69885	-1.26784	-0.259534	0.449678	-0.0134559	0.0194231	-0.0766301
3.88911	23.3948	-7.86417	-18.1795	-0.0778835	-85.1958	-37.2867	-53.6556	12.6138	1.50575	23.0663	-2.0291	0.555931	0.0138698	31.3902	37.3221	-0.556964	14.2527	58.2681	-7.04235	0.0281127	-25.9852	5.24508	-0.443424	2.36128	0.828757	0.0900468	0.181368	0.00308964	0.0107173	0.00280714	3.60421	-1.54476	-0.303929	0.420277	-0.0161409	0.014261	-0.0852059
3.8991	26.2802	-8.50434	-20.3224	2.18901	-104.154	-31.1114	-56.7359	13.2966	0.99658	24.9526	-2.23384	0.553637	0.0233962	31.8565	38.3828	-0.826223	14.9646	61.5736	-7.16064	0.0280077	-24.9926	5.63473	-0.343453	2.22213	1.12014	0.14285	0.175234	0.00605841	0.0129855	0.0150826	3.48257	-1.84007	-0.353284	0.387444	-0.0193266	0.00888677	-0.0947262
3.90909	29.1629	-7.57262	-22.3206	8.18135	-122.785	-25.547	-59.2012	12.7678	0.408709	26.2961	-2.34111	0.490504	0.0331276	32.587	39.5562	-1.14554	15.7381	64.9744	-7.33033	0.0279305	-25.3156	6.117	-0.292099	2.05258	1.39898	0.193076	0.142749	0.00832749	0.011314	0.0278865	3.33033	-2.12816	-0.398961	0.329598	-0.0228257	0.000184881	-0.102015
3.91908	31.685	-5.26978	-23.8722	15.7944	-141.596	-19.9991	-61.0305	11.3404	-0.202553	27.0265	-2.34949	0.382182	0.04206	33.4207	40.6521	-1.48891	16.6634	68.4044	-7.55137	0.0279717	-26.4407	6.21887	-0.346337	1.87203	1.65339	0.236767	0.0976593	0.00996695	0.00735207	0.0394957	3.16662	-2.39223	-0.437142	0.260773	-0.0261214	-0.00962833	-0.10673
3.92907	33.1644	-2.72053	-25.038	24.113	-161.561	-14.5802	-61.7636	9.47308	-0.767738	26.9442	-2.27079	0.250885	0.0492142	34.3217	41.5235	-1.8326	17.746	71.7898	-7.82106	0.0280798	-27.9047	6.1826	-0.354825	1.71262	1.88377	0.275913	0.0540607	0.0114208	0.00300517	0.0499563	2.99115	-2.62523	-0.46945	0.187184	-0.0292498	-0.0197113	-0.10977
3.93906	31.7519	-1.40854	-25.3328	28.0242	-186.614	-11.4947	-61.0279	7.5541	-1.1849	26.0192	-2.15037	0.127203	0.0541802	34.6198	42.0835	-2.18955	19.1248	75.0392	-8.13197	0.0281908	-27.0561	5.98837	0.107269	1.70522	2.11854	0.319253	0.0858434	0.0148314	0.00837836	0.0584836	2.83791	-2.82729	-0.504504	0.155156	-0.031954	-0.0237532	-0.11585
3.94905	27.7871	-0.985013	-24.9721	36.2449	-212.647	-7.54331	-57.8017	5.97995	-1.43157	24.0581	-2.03737	0.0356335	0.0568032	35.3272	42.2135	-2.47682	20.5631	78.0689	-8.4842	0.0285429	-27.0592	5.87179	0.367476	1.66706	2.28746	0.349729	0.0932546	0.0169228	0.0100586	0.0651206	2.7018	-2.97459	-0.527851	0.118325	-0.0340348	-0.0284411	-0.118951
3.95903	20.8025	-1.25899	-23.7218	50.4266	-238.746	-2.02986	-51.7928	4.72233	-1.5008	21.0662	-1.9869	-0.011843	0.0572826	36.7027	41.9156	-2.66906	21.9774	80.7836	-8.86917	0.029192	-28.2941	5.72573	0.309948	1.57451	2.38215	0.364532	0.0641236	0.0172549	0.00639225	0.0695788	2.58607	-3.06507	-0.537138	0.0719897	-0.0354006	-0.0343787	-0.118183
3.96902	10.9742	-1.82296	-21.5639	70.9699	-263.629	5.38409	-43.1862	3.61515	-1.42705	17.1667	-2.04066	-0.0140212	0.0557863	38.8645	41.1937	-2.75812	23.3116	83.0778	-9.27292	0.0301783	-31.0187	5.46265	-0.152362	1.41047	2.4	0.36214	-0.00961833	0.0155507	-0.00369739	0.0717261	2.4942	-3.10065	-0.5312	0.013363	-0.036001	-0.0419419	-0.113037
3.97901	-2.15248	-3.69932	-18.4902	87.1309	-291.481	9.99292	-33.1885	2.41051	-1.24528	12.7722	-2.22499	0.0215124	0.0523596	40.5148	40.0353	-2.82955	24.7768	84.8302	-9.6693	0.0313416	-31.1066	5.13963	-0.231192	1.38578	2.42143	0.363887	-0.00941934	0.0156943	-0.00382884	0.0720621	2.45818	-3.11386	-0.530251	0.00730144	-0.0360188	-0.0424147	-0.112122
3.989	-17.072	-6.05165	-14.9069	99.0398	-319.533	11.7717	-22.7418	0.932215	-0.999117	8.22597	-2.54037	0.0833766	0.0469118	41.7662	38.5041	-2.88811	26.2959	85.9385	-10.0345	0.0327476	-29.2771	4.76299	-0.098761	1.4603	2.42882	0.365302	0.0424664	0.0169025	0.00296917	0.0704223	2.48337	-3.09884	-0.530751	0.0451353	-0.0353574	-0.0371103	-0.114069
3.99899	-31.6627	-8.16368	-11.4042	107.86	-343.901	12.289	-12.983	-0.734658	-0.708926	3.9663	-2.97174	0.160719	0.0393304	42.9719	36.5622	-2.89954	27.7391	86.3212	-10.3488	0.0343952	-26.9778	4.26529	0.0148043	1.57233	2.39914	0.359916	0.108301	0.0179687	0.0113673	0.0666616	2.55583	-3.04682	-0.52631	0.103442	-0.0340429	-0.0291231	-0.115969
4.00898	-43.8777	-9.31701	-8.60418	116.605	-360.408	13.8808	-4.70239	-2.3867	-0.414238	0.392237	-3.496	0.240369	0.0298949	44.6264	34.2283	-2.82034	28.9386	85.9137	-10.5906	0.0362317	-26.2264	3.68807	-0.215205	1.62542	2.30577	0.340038	0.132516	0.0172215	0.0137044	0.0610613	2.65144	-2.95239	-0.50936	0.147708	-0.0322014	-0.0230873	-0.114024
4.01897	-55.3727	-10.9264	-6.02904	114.54	-375.209	11.2012	1.41994	-4.06619	-0.129609	-2.04447	-4.11932	0.313287	0.0204148	45.2062	31.6732	-2.77741	30.1041	84.6421	-10.721	0.0380838	-22.0527	3.01494	0.188932	1.87171	2.25226	0.3327	0.256764	0.0194234	0.0296044	0.0545295	2.79704	-2.86029	-0.505062	0.251504	-0.0301972	-0.00899742	-0.11861
4.02896	-63.5469	-10.7996	-4.39266	116.795	-378.583	11.4369	6.38172	-5.60971	0.0244197	-3.70661	-4.78253	0.360246	0.0117474	46.4818	28.9474	-2.63283	30.7818	82.4912	-10.7306	0.0400947	-21.379	2.42588	-0.0756677	1.95149	2.11269	0.304396	0.281425	0.0181556	0.0316361	0.0468939	2.93524	-2.72584	-0.481891	0.305397	-0.0278603	-0.00173432	-0.115825
4.03895	-72.3457	-11.805	-2.62158	107.334	-381.456	7.1249	10.2886	-6.95105	0.135595	-4.58578	-5.45959	0.388802	0.0051232	46.2021	26.0799	-2.53839	31.3249	79.4202	-10.5868	0.0421207	-16.4065	1.84771	0.459945	2.24874	2.04045	0.295437	0.424691	0.0206717	0.0500924	0.0392433	3.11353	-2.61296	-0.477563	0.425975	-0.0256011	0.014572	-0.121597
4.04893	-79.8035	-12.257	-1.11542	96.7368	-376.638	3.86702	13.8348	-7.80948	0.174606	-5.07073	-6.05854	0.391862	-0.000121731	45.7093	23.2354	-2.41323	31.3889	75.4641	-10.2893	0.0441788	-12.3166	1.29169	0.760678	2.48059	1.94159	0.280078	0.533601	0.0220511	0.0640776	0.0313381	3.28984	-2.4915	-0.468101	0.531245	-0.0232268	0.0288332	-0.125388
4.05892	-85.7487	-12.1427	0.0824676	85.0082	-363.797	2.02202	16.9105	-8.1005	0.137069	-5.19592	-6.53073	0.36799	-0.00378657	45.1486	20.551	-2.26478	30.8859	70.6822	-9.8401	0.0459313	-9.34593	0.774229	0.857643	2.63166	1.83156	0.26135	0.600598	0.0223594	0.0727311	0.0241016	3.43923	-2.37726	-0.455647	0.609327	-0.0210896	0.039602	-0.127138
4.06891	-89.9902	-11.3321	0.988261	71.7633	-343.32	1.3249	19.3278	-7.89897	-0.00401253	-4.94527	-6.84764	0.317431	-0.005441	44.5422	18.1387	-2.10466	29.7644	65.1628	-9.24891	0.0470188	-7.51143	0.275914	0.841797	2.70563	1.72772	0.242986	0.627183	0.0219072	0.0763073	0.0182862	3.5378	-2.28288	-0.442669	0.652563	-0.0195131	0.0460406	-0.127072
4.0789	-92.6713	-9.83425	1.76126	57.019	-316.263	1.70762	21.1521	-7.25515	-0.25461	-4.37616	-6.98662	0.250239	-0.00510431	43.9143	16.051	-1.93446	27.9942	59.029	-8.53562	0.04703	-6.77567	-0.303864	0.792287	2.71479	1.63957	0.226965	0.61849	0.0209685	0.0753998	0.0140897	3.56957	-2.21167	-0.429975	0.657543	-0.0186509	0.0478983	-0.125187
4.08889	-94.1695	-7.83212	2.59295	41.25	-284.292	3.29408	22.6587	-6.15183	-0.597679	-3.59426	-6.93214	0.18729	-0.00326601	43.2958	14.3083	-1.74882	25.5678	52.4407	-7.72838	0.0454956	-7.06854	-1.05813	0.756195	2.67192	1.56967	0.213821	0.58026	0.0197186	0.0706416	0.0113934	3.5287	-2.16127	-0.41739	0.624774	-0.0185136	0.0453602	-0.121422
4.09888	-94.4215	-5.44212	3.4523	27.0914	-248.26	7.11349	24.2132	-4.51902	-1.031	-2.71418	-6.68173	0.15596	-0.000571735	42.9526	12.8719	-1.51002	22.4691	45.5977	-6.86454	0.0418569	-9.19865	-1.99766	0.629208	2.55014	1.50215	0.19971	0.494644	0.017532	0.0593675	0.0100383	3.40688	-2.12082	-0.400801	0.542829	-0.0190708	0.0368791	-0.114068
4.10887	-93.5078	-2.69784	4.27303	17.6508	-209.27	13.9053	26.2042	-2.38737	-1.56252	-1.85926	-6.2498	0.185123	0.00243693	43.2039	11.7501	-1.18865	18.7069	38.7275	-5.98319	0.0355471	-13.9497	-3.08458	0.290343	2.32217	1.42028	0.180724	0.343934	0.0137555	0.03897	0.00990273	3.20518	-2.08078	-0.376629	0.403178	-0.0202617	0.0211365	-0.101699
4.11886	-92.4037	-0.516864	4.99981	11.0569	-171.631	22.3797	28.7697	0.309341	-2.17561	-1.03093	-5.68089	0.309376	0.00555973	43.7309	10.8443	-0.78527	14.4567	32.0546	-5.1188	0.0264432	-19.7132	-4.19678	-0.00909134	2.06851	1.34563	0.163255	0.173413	0.00971574	0.0156545	0.0109065	2.95394	-2.04711	-0.351698	0.236545	-0.0219835	0.00199743	-0.0876729
4.12884	-92.6087	-0.420202	5.66414	-4.06057	-144.426	27.0556	31.3602	3.65517	-2.81159	0.0457564	-5.0529	0.563195	0.00907066	42.7613	10.0645	-0.386684	10.0982	25.7566	-4.28911	0.0156098	-21.1717	-4.93953	0.489585	2.01138	1.36572	0.170467	0.120066	0.00971179	0.00873688	0.0134965	2.72247	-2.05869	-0.349668	0.132801	-0.0240672	-0.00890295	-0.0828375
4.13883	-92.6929	-1.23498	5.9749	-15.3006	-121.563	33.309	34.4732	7.50959	-3.49997	1.08684	-4.38729	0.955551	0.0122222	42.0806	9.32153	0.0512832	5.50414	20.0794	-3.54155	0.00293971	-23.4021	-5.57346	1.00117	1.94924	1.37986	0.176738	0.0571263	0.00943635	7.28317e-05	0.0164454	2.47126	-2.06171	-0.345354	0.0165416	-0.0263213	-0.021565	-0.0766536
4.14882	-94.1365	-3.76127	6.19291	-34.1506	-110.477	36.2067	37.3179	11.8371	-4.16076	2.39631	-3.76096	1.49919	0.0153978	40.1346	8.69148	0.381972	0.977428	15.135	-2.87947	-0.00999298	-21.3738	-5.90257	2.12254	2.06978	1.46691	0.201742	0.108308	0.0126969	0.00728432	0.0196996	2.27028	-2.09346	-0.359294	-0.0263346	-0.0283809	-0.02471	-0.0789144
4.15881	-95.6045	-6.89909	6.04388	-48.9414	-104.274	40.675	40.2441	16.4565	-4.81824	3.72022	-3.18683	2.18046	0.0180086	38.7482	8.10805	0.632743	-3.63404	11.0693	-2.33257	-0.0233015	-19.924	-6.17851	3.15829	2.17997	1.53535	0.222589	0.151528	0.0154861	0.0130013	0.0224936	2.06945	-2.10588	-0.368541	-0.0723054	-0.0302257	-0.0283984	-0.0796861
4.1688	-96.5482	-10.3245	5.39258	-56.7398	-100.895	47.5733	43.1575	21.3221	-5.45675	5.01989	-2.69493	2.98274	0.0199479	38.3709	7.62445	0.768936	-8.28034	7.92256	-1.90393	-0.0365818	-20.2704	-6.39207	3.92142	2.22273	1.56244	0.233992	0.15321	0.0167472	0.0126055	0.0249483	1.85819	-2.08913	-0.368099	-0.14049	-0.0318764	-0.0352857	-0.076717
4.17879	-96.9329	-13.9399	4.44372	-60.4866	-101.258	55.6309	45.7677	26.395	-6.04103	6.37165	-2.3238	3.881	0.0213787	38.4128	7.3076	0.728562	-12.722	5.63057	-1.57605	-0.0486248	-21.3382	-6.59974	4.50555	2.23178	1.56389	0.239532	0.138387	0.0172244	0.00969992	0.0269212	1.65312	-2.05029	-0.361725	-0.211833	-0.0331851	-0.0428433	-0.0719565
4.18878	-96.233	-17.5288	3.34635	-62.5507	-105.383	63.8338	47.7989	31.5965	-6.54706	7.84402	-2.10382	4.83741	0.0224655	38.211	7.13742	0.492096	-16.6891	4.06152	-1.32467	-0.0578408	-22.5232	-6.81724	4.94247	2.2206	1.54789	0.240993	0.119682	0.0172853	0.00616403	0.0283414	1.46428	-1.9933	-0.351358	-0.275319	-0.0340346	-0.0496247	-0.0664734
4.19877	-93.7858	-20.8819	2.09742	-62.9542	-111.903	72.1552	49.2455	36.7971	-6.97092	9.39772	-2.04643	5.8033	0.0232477	37.409	6.95868	0.106507	-19.9633	3.05265	-1.1284	-0.0628252	-24.1415	-7.04032	5.14755	2.16517	1.5082	0.236777	0.0856947	0.0165709	0.000543595	0.0293006	1.29237	-1.91727	-0.335776	-0.335124	-0.0343909	-0.0562755	-0.059749
4.20875	-87.8524	-22.5203	2.52883	-64.2716	-119.251	78.2976	50.087	41.9576	-7.3073	11.0275	-2.15593	6.72664	0.023812	33.9695	8.07544	-1.2671	-21.76	2.09758	-0.538653	-0.0626128	-26.0883	-7.32923	5.08716	2.06238	1.44188	0.226034	0.0369111	0.0150294	-0.00703959	0.0295544	1.14438	-1.82027	-0.314474	-0.387763	-0.0341319	-0.0623402	-0.0518326
4.21874	-82.1125	-26.9943	-0.915204	-62.968	-128.296	89.472	50.3556	46.913	-7.54909	12.7006	-2.42271	7.54797	0.0242615	32.4595	5.54453	-0.683752	-23.8173	2.05114	-0.836146	-0.0574668	-28.2295	-7.75967	4.71764	1.91259	1.33944	0.206626	-0.0256434	0.0125404	-0.0164324	0.0285106	1.03379	-1.69545	-0.286087	-0.427808	-0.033049	-0.067093	-0.0426756
4.22873	-73.2971	-29.9707	-2.83432	-63.3164	-135.824	98.2303	50.122	51.6783	-7.69756	14.4033	-2.82797	8.21205	0.0247125	28.2804	4.02128	-0.88016	-24.3713	1.81535	-0.724477	-0.0487993	-30.415	-8.20417	4.02839	1.72111	1.18789	0.176644	-0.10107	0.0089895	-0.0274414	0.0257207	0.978443	-1.53493	-0.250057	-0.449446	-0.0309909	-0.0698711	-0.0325584
4.23872	-63.2974	-32.564	-4.91362	-63.7013	-140.985	105.787	49.3991	55.9209	-7.74851	16.0909	-3.33551	8.65702	0.0252843	23.2523	2.1135	-0.926832	-24.1365	1.65003	-0.627202	-0.0382886	-32.5478	-8.54653	2.93918	1.48492	0.965754	0.132148	-0.192108	0.00403502	-0.0403233	0.020396	1.00923	-1.32792	-0.204796	-0.444177	-0.0276618	-0.0697466	-0.0216383
4.24871	-56.6673	-33.0518	-6.97405	-62.3615	-141.847	108.545	47.915	58.6035	-7.72974	17.7289	-3.88838	8.80843	0.0261216	19.7506	0.76996	-0.9467	-24.0531	1.56986	-0.550526	-0.0287265	-33.3626	-8.40223	1.09783	1.17651	0.657489	0.068951	-0.295722	-0.00273627	-0.053426	0.0114149	1.25069	-1.09568	-0.155068	-0.367854	-0.0222271	-0.0618957	-0.0135693
4.2587	-50.2878	-31.8404	-8.16983	-62.9295	-137.251	108.357	45.4368	59.9597	-7.64021	19.3869	-4.43945	8.6568	0.0271357	15.9335	-0.188273	-0.967245	-23.5467	1.46292	-0.471458	-0.0193399	-33.4002	-8.29362	-0.637145	0.918782	0.415477	0.0171441	-0.37767	-0.00839715	-0.0630434	0.00369808	1.54423	-0.945685	-0.121308	-0.277251	-0.0175195	-0.052624	-0.0100416
4.26869	-43.2621	-29.4983	-8.67007	-65.9397	-127.341	106.458	41.7737	60.342	-7.49575	21.1456	-4.9378	8.21893	0.0282709	11.7828	-0.899693	-0.97927	-22.6319	1.30004	-0.389072	-0.0103804	-32.9708	-8.22655	-2.05512	0.735588	0.274678	-0.0159598	-0.432503	-0.0123059	-0.0687223	-0.00128727	1.84269	-0.899979	-0.107858	-0.189357	-0.0142557	-0.0439501	-0.0111525
4.27868	-35.2463	-26.7089	-8.89838	-70.2897	-113.306	102.421	36.932	60.0051	-7.3108	23.0273	-5.32287	7.52697	0.0294563	7.67443	-1.48491	-0.969616	-21.4329	1.08785	-0.308841	-0.0024078	-32.4517	-7.86633	-3.11066	0.626367	0.187847	-0.036937	-0.465718	-0.0149557	-0.0716456	-0.00440468	2.12514	-0.902987	-0.106301	-0.109095	-0.0120729	-0.0363823	-0.0148073
4.28866	-26.0087	-23.5872	-8.94848	-76.162	-95.8878	95.8471	30.7362	58.9667	-7.08332	25.0711	-5.52703	6.61752	0.0306777	3.7917	-1.97854	-0.942694	-20.0311	0.840139	-0.234316	0.0042246	-31.9411	-7.11202	-3.80053	0.586362	0.130687	-0.049449	-0.48035	-0.0166128	-0.0723719	-0.00621987	2.38169	-0.925884	-0.11199	-0.0379856	-0.0107253	-0.029975	-0.0199161
4.29865	-17.6951	-20.0225	-8.57783	-82.7091	-75.257	88.3991	24.6858	57.1521	-6.82551	26.7533	-5.45373	5.54291	0.0315527	0.0575689	-2.28784	-0.934078	-18.4624	0.565853	-0.164014	0.00955455	-31.1	-6.27885	-4.2861	0.593716	0.134587	-0.0503852	-0.477386	-0.0171628	-0.0705192	-0.00632898	2.64201	-1.00995	-0.130051	0.032076	-0.0102516	-0.0238536	-0.0279516
4.30864	-12.6721	-16.4608	-7.57762	-87.6399	-51.1426	80.7389	20.6221	54.524	-6.55262	27.4559	-5.03164	4.35897	0.0317726	-3.53406	-2.30834	-0.978931	-16.7846	0.278829	-0.0966622	0.0137024	-29.6999	-5.49678	-4.38922	0.68993	0.227573	-0.0344109	-0.441851	-0.0158938	-0.0642655	-0.00430744	2.89306	-1.17244	-0.164427	0.0984833	-0.0110532	-0.0181188	-0.0396912
4.31863	-13.5591	-13.442	-6.20917	-87.8711	-28.1931	73.6291	20.4474	51.0557	-6.28566	26.5578	-4.2392	3.11451	0.0309208	-7.06844	-2.14897	-0.929945	-14.1794	-0.441076	-0.00307711	0.0168031	-27.281	-4.82986	-4.10571	0.88542	0.406944	-0.00233935	-0.364655	-0.0126463	-0.0523777	-0.000786096	3.14065	-1.4054	-0.213983	0.169197	-0.0128955	-0.0115321	-0.0552778
4.32862	-0.832645	0.588162	-0.68159	-0.116271	0.657514	-0.495214	18.4303	40.6411	-5.69759	26.1948	-3.29081	1.73908	0.0335907	-10.3756	4.36256	-2.35648	-12.1998	-0.645141	0.147178	0.0201492	-39.2157	3.72249	-3.18514	2.29132	-0.295524	-0.112227	-0.059758	-0.0165177	-0.0325897	-0.0271479	4.41553	-0.645214	-0.142052	0.550694	-0.00491155	0.0203267	-0.0529943
4.33861	-0.470443	0.453773	-0.878821	0.0662948	0.678709	-0.498049	17.8069	38.6268	-5.34315	25.6088	-2.07694	0.591529	0.0316871	-12.4793	3.41266	-1.97845	-10.5732	-0.685052	0.132004	0.0208555	-36.6839	4.54858	-2.15523	2.48191	0.0253624	-0.0488688	0.0435951	-0.0104239	-0.0171999	-0.0167293	4.37939	-0.932092	-0.20347	0.561254	-0.00877043	0.0206321	-0.0682122
4.3486	0.288521	0.302742	-0.961874	0.441511	0.402218	-0.308559	16.8997	36.6059	-4.94459	25.0776	-0.716921	-0.466848	0.0301185	-14.2975	2.35963	-1.51973	-8.94624	-0.697088	0.102311	0.0209952	-34.4456	5.17867	-1.12002	2.68424	0.332885	0.0114019	0.147869	-0.00447861	-0.00217805	-0.00708226	4.33745	-1.1964	-0.260211	0.569521	-0.0124536	0.020824	-0.0820503
4.35859	0.982457	0.383523	-0.815507	0.217044	0.146244	-0.562173	15.9924	34.4969	-4.51679	24.501	0.781684	-1.43867	0.0288209	-15.9011	1.30195	-1.00321	-7.33835	-0.686164	0.0619785	0.0206649	-32.4176	5.58081	-0.200497	2.85975	0.597717	0.0632065	0.238716	0.000713895	0.0108818	0.0010449	4.28946	-1.41874	-0.307872	0.573958	-0.0156201	0.0209172	-0.0935861
4.36857	1.31794	0.260943	-0.737969	0.224574	0.376825	-0.388562	15.39	32.5207	-4.08287	23.8157	2.41734	-2.31821	0.0278059	-17.2481	0.0830026	-0.389528	-5.78793	-0.65451	0.00896479	0.0199777	-30.6968	5.80952	0.554978	3.00652	0.815356	0.105537	0.313803	0.00499535	0.0216861	0.00755484	4.25332	-1.60023	-0.346676	0.578062	-0.0182044	0.021131	-0.103037
4.37856	1.15972	0.175685	-0.552418	0.534606	0.0537443	0.00413986	15.3092	30.6403	-3.65486	22.9532	4.20448	-3.10788	0.026964	-18.3784	-1.20856	0.282796	-4.30884	-0.60682	-0.0513876	0.018994	-29.3978	5.75975	1.08484	3.09447	0.969041	0.135318	0.361389	0.0079676	0.0287711	0.012174	4.21113	-1.72687	-0.373043	0.574816	-0.0200661	0.0208003	-0.109267
4.38855	-0.57289	0.158477	-0.121885	-0.532504	0.439219	-0.118993	15.9805	28.7816	-3.24141	21.8166	6.15602	-3.8094	0.0263179	-19.2096	-2.42722	0.948508	-2.96981	-0.546295	-0.112223	0.0177245	-27.9185	5.3952	1.48197	3.1337	1.05895	0.153275	0.387661	0.00991243	0.0332112	0.0145544	4.1496	-1.7972	-0.387401	0.563597	-0.021244	0.0203579	-0.112591
4.39854	0.0885937	-0.360009	-0.14943	-0.436193	0.965335	-0.787512	16.2208	27.4715	-2.86664	20.8845	8.25973	-4.4159	0.0260607	-20.6658	-3.81374	1.66117	-1.43461	-0.494904	-0.169996	0.0165221	-27.4717	5.40676	1.76644	3.16844	1.0899	0.161568	0.39981	0.0108236	0.0351465	0.0158819	4.12554	-1.81424	-0.393552	0.557603	-0.021873	0.0198582	-0.114185
4.40853	0.103458	-0.669254	0.0530871	-0.425606	0.286333	-0.0943902	17.0036	26.4608	-2.53799	19.7918	10.5622	-4.93457	0.0259231	-22.0638	-5.01966	2.28766	0.0499388	-0.438729	-0.215067	0.0148998	-27.144	5.01573	1.82549	3.15404	1.079	0.160523	0.393045	0.0107791	0.0346004	0.0156135	4.10566	-1.79829	-0.390927	0.550413	-0.0218691	0.01954	-0.113598
4.41852	0.111907	-0.601596	0.566302	-0.619773	0.466363	-0.6821	17.9823	25.643	-2.24773	18.6468	13.0768	-5.36745	0.0261284	-23.8094	-5.87773	2.79922	1.60134	-0.391481	-0.239955	0.0130185	-26.7744	4.50135	1.74626	3.15283	0.988385	0.144363	0.386533	0.00977548	0.0334838	0.0118697	4.12761	-1.70547	-0.374647	0.559243	-0.0207231	0.0215109	-0.110572
4.42851	0.0127804	-0.631667	1.07523	-0.413429	0.233451	-0.697358	19.2293	25.3334	-2.01368	17.4605	15.828	-5.70784	0.0265376	-25.8005	-6.48162	3.20503	3.19856	-0.352441	-0.243139	0.0107955	-26.308	3.90352	1.57486	3.17252	0.85235	0.119127	0.38668	0.00829023	0.0327574	0.00581568	4.18602	-1.56722	-0.350412	0.583409	-0.0188023	0.0254865	-0.106315
4.4385	0.0678547	-0.608805	1.51763	-0.465687	0.197186	-0.444717	20.6498	25.6254	-1.84084	16.2633	18.8374	-5.95378	0.0270463	-28.0267	-6.63513	3.46949	4.82045	-0.327466	-0.217224	0.00829849	-25.9635	3.32165	1.30254	3.17257	0.67381	0.0863415	0.376539	0.00611428	0.0305909	-0.00150377	4.25248	-1.39302	-0.319477	0.608998	-0.0163953	0.0297379	-0.100649
4.44848	-0.028217	-0.54618	1.76433	0.0582383	-0.0747872	-0.7902	22.1772	26.532	-1.72842	15.0902	22.12	-6.10585	0.0276374	-30.3343	-6.18732	3.5755	6.44972	-0.323825	-0.15791	0.00576819	-25.5359	2.95404	0.98041	3.18485	0.448663	0.0457353	0.369634	0.00347442	0.0285843	-0.0105507	4.34772	-1.17475	-0.282045	0.647531	-0.0133404	0.035596	-0.0941713
4.45847	0.0799478	-0.593012	1.78957	-0.188	0.214019	-0.160924	23.5828	28.2351	-1.68395	14.0178	25.6819	-6.16458	0.0283324	-32.8317	-5.2374	3.54828	8.12092	-0.348549	-0.0665193	0.00346354	-24.9738	2.64167	0.624696	3.20032	0.205033	0.00180872	0.364171	0.00064196	0.026721	-0.0204147	4.45655	-0.941666	-0.242256	0.692035	-0.010008	0.0422487	-0.0874756
4.46846	0.259837	-0.424278	1.81076	-0.252788	0.539516	-0.38979	25.0337	30.4845	-1.69471	12.9849	29.533	-6.1415	0.0290897	-35.3497	-3.63742	3.37125	9.79676	-0.40098	0.0542432	0.00150286	-24.6065	2.41539	0.27812	3.19743	-0.0859428	-0.0491457	0.346714	-0.00280317	0.0231394	-0.0313275	4.53953	-0.662789	-0.194701	0.727615	-0.00636142	0.0481554	-0.0787395
4.47845	-0.176989	-0.989988	1.41259	0.145972	0.22303	-0.129289	26.5984	33.4013	-1.77114	11.9847	33.6662	-6.04497	0.029858	-37.6396	-1.93519	3.10569	11.4064	-0.480961	0.18456	0.000376357	-23.9934	2.40217	0.0389963	3.21366	-0.397032	-0.102203	0.336347	-0.00617232	0.0203738	-0.0429507	4.6088	-0.358569	-0.144291	0.763857	-0.00256397	0.0544748	-0.0695438
4.48844	-1.10378	-2.47846	0.513175	0.0675577	0.175844	-0.645881	28.1423	36.8091	-1.91188	11.0474	38.0575	-5.89412	0.030685	-39.7538	-0.370584	2.76992	12.9511	-0.595164	0.309638	0.000666183	-23.1177	2.83487	-0.0680256	3.23195	-0.736888	-0.157595	0.325817	-0.00958475	0.0177558	-0.0549997	4.65213	-0.0233593	-0.0907948	0.796046	0.00133275	0.0607007	-0.059861
4.49843	-1.3467	-3.22986	0.40867	-0.0878601	0.105219	-0.477623	29.3677	40.0565	-2.06491	10.2657	42.6719	-5.72648	0.0316413	-42.0922	1.20082	2.3329	14.5925	-0.757359	0.425093	0.00292903	-22.3777	2.76411	-0.2129	3.23545	-1.07494	-0.214172	0.308479	-0.0131606	0.0140301	-0.0673463	4.67277	0.310236	-0.0350063	0.818359	0.00519089	0.0660317	-0.0489075
4.50842	-1.12339	-3.25901	1.30808	0.238743	0.571831	0.00504635	30.5501	42.7889	-2.20007	9.57249	47.4583	-5.56394	0.0327689	-44.5752	2.4131	1.80776	16.2797	-0.964985	0.510242	0.00757001	-21.9694	2.08396	-0.422879	3.20071	-1.41606	-0.272706	0.272338	-0.0171659	0.00772526	-0.0797516	4.65417	0.642228	0.0239664	0.820769	0.00889982	0.0692775	-0.0360495
4.51841	0.333712	-2.72078	3.10075	0.355355	0.237657	0.171948	30.7901	44.9386	-2.34253	9.26594	52.3433	-5.42062	0.033836	-48.7589	2.86372	1.26737	18.9131	-1.84901	0.714229	0.0150233	-19.5249	1.35343	-0.72599	3.2997	-1.75723	-0.336388	0.313094	-0.0201056	0.0106162	-0.0966268	4.7651	0.993846	0.0855581	0.898225	0.0141777	0.0821215	-0.0253969
4.5284	4.346	-1.3933	6.59652	0.771378	-0.17859	0.122799	30.8322	46.2314	-2.42049	9.14527	57.2505	-5.29712	0.0350559	-52.4757	2.92235	0.617541	21.0567	-2.25013	0.769133	0.0238801	-19.7582	-0.379382	-0.904608	3.22083	-2.08171	-0.393586	0.255923	-0.0243101	0.000992168	-0.10824	4.64669	1.31732	0.148179	0.862145	0.0173544	0.0812445	-0.00924357
4.53838	11.0029	-0.601419	10.9132	0.330498	0.0386097	-0.155512	30.8874	47.133	-2.46566	9.22045	62.0887	-5.16842	0.036246	-56.0723	2.34336	-0.0667174	22.8675	-2.51025	0.758611	0.03284	-22.6469	-2.30887	-0.82841	2.89963	-2.36287	-0.434821	0.0804261	-0.029505	-0.0224676	-0.111231	4.23648	1.58087	0.203352	0.690814	0.017603	0.0638095	0.0106552
4.54837	15.8235	-1.58331	14.1105	0.820238	0.162006	0.438937	30.8586	48.037	-2.58548	9.50328	66.7381	-5.00832	0.0376275	-58.9579	0.686582	-0.658496	24.1889	-2.63742	0.686049	0.0419483	-24.2851	-3.50961	-0.724225	2.70954	-2.60621	-0.47087	-0.031061	-0.0333403	-0.037728	-0.115388	3.97673	1.81044	0.24786	0.585483	0.0183615	0.0536356	0.0251322
4.55836	18.9919	-11.9512	16.7752	69.203	-307.412	93.417	30.3751	56.199	-3.26241	12.3709	71.7257	-4.79711	0.0210085	-49.4422	-9.47538	-1.11228	22.6994	-2.08761	0.360276	0.0393125	-20.9392	-14.275	-1.16017	2.12432	-1.28629	-0.281783	0.14645	-0.0179573	-0.0159171	-0.0764008	2.55269	1.00665	0.173417	0.397143	0.01195	0.0350585	0.0306938
4.56835	18.5906	-14.6505	17.0938	83.5571	-297.157	87.7981	32.0908	56.7065	-3.50664	12.5975	75.742	-4.57976	0.0233946	-48.9239	-10.8902	-1.47993	22.2041	-1.99	0.238372	0.0459745	-24.3936	-13.5495	-0.764053	2.10083	-1.52621	-0.310572	0.0640597	-0.0212314	-0.0280243	-0.0785029	2.49079	1.21161	0.200317	0.334639	0.0119857	0.0267954	0.0384507
4.57834	14.4829	-16.3693	16.0895	102.389	-289.704	78.5115	34.7835	56.6882	-3.76151	12.787	79.3104	-4.354	0.0259173	-46.0673	-11.1692	-1.66208	20.6778	-1.81866	0.131419	0.049773	-28.3279	-12.2039	-0.455755	2.03097	-1.7695	-0.337832	-0.0364662	-0.0248791	-0.0417895	-0.0790717	2.44247	1.40688	0.223683	0.271448	0.0118972	0.0177356	0.0449955
4.58833	6.2335	-16.4196	13.888	117.585	-289.601	68.8806	37.4166	56.1751	-4.06023	13.1458	82.286	-4.10822	0.0282992	-41.3583	-10.5195	-1.62949	18.3265	-1.63136	0.0537582	0.0505542	-29.9908	-10.7643	-0.581145	1.96931	-1.99248	-0.368288	-0.0973587	-0.0281112	-0.0496533	-0.0825229	2.51485	1.57584	0.245498	0.273161	0.0132767	0.0170049	0.0484804
4.59832	-5.43581	-14.9055	10.5044	128.131	-296.181	61.8665	39.778	55.5223	-4.43633	13.7473	84.5193	-3.81586	0.0305263	-35.1662	-9.1823	-1.39051	15.3583	-1.48738	0.0170618	0.0484969	-29.3524	-9.64705	-1.31927	1.90862	-2.15634	-0.398566	-0.117798	-0.0308242	-0.0514602	-0.0883804	2.74479	1.66933	0.260229	0.347054	0.0159865	0.0250908	0.0476861
4.60831	-18.6415	-11.301	6.35167	132.079	-307.322	60.6695	41.4048	54.9882	-4.90009	14.7303	85.8728	-3.45942	0.0325611	-28.465	-7.25983	-0.961212	12.2119	-1.44661	0.0342362	0.0439777	-26.6033	-9.41907	-2.99733	1.8179	-2.19552	-0.422067	-0.10532	-0.0329972	-0.0478464	-0.0951169	3.19745	1.59828	0.256836	0.502587	0.0196609	0.0421714	0.0401158
4.61829	-29.5927	-5.19591	2.12342	131.23	-317.339	67.2983	42.0851	54.942	-5.4393	16.2235	86.2374	-3.03227	0.0343855	-22.6035	-4.66003	-0.378732	9.4525	-1.55693	0.113875	0.0373773	-23.9657	-10.5608	-5.80309	1.61201	-2.02342	-0.424031	-0.110927	-0.0349964	-0.0449379	-0.0969601	3.87501	1.24212	0.217162	0.703191	0.0225133	0.0616414	0.0234545
4.62828	-41.1472	-0.449882	-0.747649	129.306	-328.626	70.9182	42.6875	53.7957	-5.90236	17.7526	85.5746	-2.62059	0.0364044	-15.7636	-2.01848	0.170003	6.75581	-1.80443	0.226842	0.0292918	-21.1254	-12.0297	-6.76595	1.64623	-1.75605	-0.397111	-0.050426	-0.0328096	-0.0354602	-0.0952638	4.1888	0.907768	0.172263	0.801605	0.0220925	0.0717408	0.0101375
4.63827	-51.6037	1.97593	-2.30171	125.587	-338.622	69.4466	43.269	51.5183	-6.27756	19.2637	83.8536	-2.252	0.0386456	-9.08354	0.0173506	0.689117	4.64279	-2.18745	0.351219	0.0201534	-18.7071	-13.14	-6.20176	1.82174	-1.50732	-0.358999	0.0339733	-0.0284843	-0.0244006	-0.0918001	4.16367	0.686652	0.136912	0.801846	0.0196149	0.0726993	0.00276821
4.64826	-59.8448	1.98892	-2.98502	120.856	-344.77	63.5632	43.8982	48.3684	-6.55394	20.6707	81.0728	-1.93023	0.0408748	-3.12864	1.03711	1.13686	3.40721	-2.69454	0.453332	0.0110858	-17.5356	-13.5781	-4.87295	1.99987	-1.32913	-0.321826	0.0923247	-0.0242228	-0.0172204	-0.0868778	3.92559	0.575555	0.11362	0.729686	0.0161567	0.066037	0.000578981
4.65825	-66.2915	0.057822	-3.34676	113.468	-346.909	55.5045	44.2871	44.5766	-6.71644	21.9088	77.2599	-1.6514	0.0428083	2.11661	0.916256	1.47463	3.07437	-3.30165	0.500446	0.00348358	-16.9614	-13.3313	-3.43715	2.12167	-1.22406	-0.292204	0.120311	-0.0208979	-0.0136716	-0.081982	3.62115	0.53858	0.100182	0.633888	0.0128829	0.0568235	0.00103372
4.66824	-71.5789	-3.32511	-3.8589	102.435	-344.814	46.9744	44.2825	40.4118	-6.76139	22.8594	72.4786	-1.40649	0.044206	6.83775	-0.101081	1.70605	3.50031	-3.95747	0.468403	-0.00212913	-16.4384	-12.4505	-2.19586	2.17706	-1.17067	-0.270114	0.12579	-0.0185489	-0.0123363	-0.077592	3.33256	0.536978	0.0919652	0.543359	0.0102228	0.0481115	0.00193191
4.67823	-76.6524	-7.40222	-4.57837	78.7825	-342.536	41.4229	42.7161	36.0677	-6.67946	23.5172	66.8195	-1.18994	0.0449482	10.6215	-1.91541	1.86964	4.75552	-4.61219	0.339223	-0.00551684	-12.6749	-11.4051	-1.36733	2.26167	-1.14049	-0.25908	0.185007	-0.0158858	-0.00337018	-0.0787093	3.16863	0.557635	0.0903407	0.531105	0.00980951	0.0502653	0.00089475
4.68822	-80.6792	-11.4213	-5.47996	51.9155	-334.606	35.5952	40.9611	31.6492	-6.46233	23.5262	60.4493	-0.99655	0.044854	13.6466	-3.42106	1.91918	6.64349	-5.20945	0.120207	-0.00701042	-8.921	-9.97939	-0.826957	2.28717	-1.13076	-0.252112	0.226456	-0.0139885	0.00402471	-0.0798482	3.05534	0.57592	0.0886543	0.532336	0.00985613	0.0535136	-0.00106986
4.6982	-80.2025	-14.6096	-6.04752	42.0845	-310.692	24.0739	41.3614	27.1951	-6.09454	22.3964	53.5967	-0.827365	0.0431123	16.5304	-3.33573	1.73443	8.75926	-5.68971	-0.174755	-0.00741015	-12.9985	-8.06175	-0.32976	2.03975	-1.15427	-0.237753	0.0802995	-0.0156982	-0.012603	-0.0692642	2.79315	0.563643	0.0787141	0.389536	0.00651102	0.034675	0.000814173
4.70819	-78.446	-16.4613	-6.85741	33.7186	-280.751	12.3414	42.1209	23.0468	-5.63374	20.4697	46.451	-0.678175	0.0392422	18.6847	-2.25178	1.42225	11.3122	-6.0624	-0.552039	-0.00621843	-18.2433	-5.97895	-0.40893	1.68755	-1.16966	-0.224651	-0.108766	-0.0187635	-0.0339789	-0.0568201	2.63288	0.494954	0.0617865	0.2578	0.00322244	0.0152326	0.000578814
4.71818	-77.1425	-17.7377	-7.94822	14.0914	-253.922	6.45661	41.3031	19.5518	-5.0973	18.0062	39.2062	-0.546997	0.0335297	19.9469	-1.14833	1.03697	14.3662	-6.33657	-1.03137	-0.00341751	-19.5506	-4.45965	-1.00437	1.42788	-1.13892	-0.215936	-0.210426	-0.0205651	-0.0437761	-0.0501821	2.66407	0.382084	0.0429444	0.230058	0.00211062	0.00954592	-0.00398865
4.72817	-75.7225	-17.8476	-9.11728	-6.93165	-227.198	2.62952	40.0879	16.4983	-4.48492	14.9166	32.1404	-0.448631	0.025804	20.8885	0.661521	0.511144	17.6309	-6.52076	-1.59477	0.00024409	-20.0544	-3.20884	-1.92632	1.18679	-1.05713	-0.20396	-0.289383	-0.0219659	-0.050416	-0.0439758	2.80306	0.205534	0.0159497	0.241837	0.00138519	0.00805504	-0.011778
4.73816	-74.3207	-17.0255	-10.3256	-28.9875	-202.5	0.272277	38.4058	13.9269	-3.83914	11.345	25.508	-0.388972	0.0162111	21.5803	3.08471	-0.122644	21.0063	-6.64228	-2.23507	0.00438698	-19.6001	-2.16438	-2.9899	0.99361	-0.920719	-0.186724	-0.335026	-0.0225266	-0.0527075	-0.0381604	3.02003	-0.0249341	-0.0189131	0.288022	0.000872582	0.0104895	-0.0225457
4.74815	-74.0615	-16.6326	-11.7022	-61.7771	-186.602	2.39271	34.9002	12.13	-3.22127	7.57444	19.4967	-0.361695	0.00589977	21.7417	5.21321	-0.763866	24.5561	-6.73265	-2.9606	0.0089301	-14.5067	-1.63372	-3.90151	0.99855	-0.731441	-0.16789	-0.254116	-0.0202751	-0.0390111	-0.0384107	3.31849	-0.257037	-0.0531874	0.420573	0.00202835	0.02599	-0.0364674
4.75814	-71.7655	-15.2616	-12.6483	-79.2746	-167.165	1.15332	32.9663	10.6404	-2.71954	3.26822	14.3653	-0.377173	-0.00594975	22.3313	8.2875	-1.55995	27.7587	-6.7875	-3.73976	0.0128688	-14.3973	-1.11581	-4.61404	0.889591	-0.534854	-0.139981	-0.271743	-0.0195131	-0.0387013	-0.0312017	3.48498	-0.511211	-0.0928901	0.453691	0.000669176	0.02691	-0.0471656
4.76813	-70.1484	-13.9451	-13.6789	-97.4483	-153.33	-0.733439	30.8922	9.53024	-2.38137	-1.18081	10.1779	-0.421236	-0.0180907	22.6761	11.4191	-2.34144	30.851	-6.8424	-4.57602	0.0165736	-12.9864	-0.487357	-5.04166	0.861727	-0.320035	-0.108399	-0.245386	-0.0174706	-0.0329373	-0.0250978	3.62781	-0.750966	-0.132327	0.501192	-0.000511657	0.0305959	-0.0584473
4.77811	-67.8238	-12.5432	-14.5997	-106.186	-140.271	-4.73642	29.9983	8.77606	-2.30696	-5.79824	6.99393	-0.480823	-0.0306602	23.1117	14.7026	-3.1319	33.6041	-6.8898	-5.46327	0.0196241	-14.0963	0.241404	-5.21877	0.785396	-0.11843	-0.0736812	-0.266947	-0.0161083	-0.0339558	-0.0155887	3.65806	-0.970025	-0.169892	0.488179	-0.00293958	0.026175	-0.0666057
4.7881	-66.1952	-12.3135	-15.9982	-117.711	-133.892	-8.14635	28.7507	8.60124	-2.51392	-10.2026	4.7161	-0.532377	-0.0420225	23.0911	17.3299	-3.79562	36.2033	-6.93835	-6.40343	0.0223331	-13.2687	1.12238	-5.03714	0.800609	0.0801679	-0.0385031	-0.234681	-0.0133582	-0.0282506	-0.00845164	3.64349	-1.14291	-0.202257	0.493103	-0.00480292	0.0256877	-0.0744819
4.79809	-63.6038	-12.408	-17.3105	-123.145	-129.172	-12.4636	28.0451	8.72904	-2.97482	-14.2958	3.24095	-0.565376	-0.051505	22.9115	19.626	-4.39329	38.4645	-6.96307	-7.37096	0.0244268	-14.0434	1.95313	-4.6362	0.781471	0.243057	-0.00561918	-0.235574	-0.0112598	-0.0274978	-9.35502e-05	3.52121	-1.26603	-0.226783	0.451229	-0.00722959	0.0195859	-0.0784018
4.80808	-59.7275	-12.6654	-18.3416	-122.862	-125.701	-17.9101	27.5789	8.90226	-3.58518	-17.8404	2.38607	-0.571087	-0.0576958	22.6034	21.5396	-4.91682	40.3494	-6.9428	-8.33709	0.0259497	-16.4518	2.71341	-4.02008	0.730407	0.360472	0.0230646	-0.269943	-0.0099288	-0.031881	0.00901337	3.29043	-1.32981	-0.241532	0.362181	-0.0101159	0.00792763	-0.0778484
4.81807	-54.4213	-12.8088	-18.8916	-118.921	-123.685	-24.7349	26.7694	8.78009	-4.16429	-20.6128	1.94936	-0.548659	-0.059336	22.193	23.0873	-5.36172	41.849	-6.85905	-9.26556	0.0270046	-19.9329	3.4206	-3.20456	0.668533	0.43069	0.0463334	-0.323797	-0.00916208	-0.0395935	0.0178835	2.97213	-1.33113	-0.245977	0.239372	-0.0131566	-0.00740523	-0.0732865
4.82806	-47.8687	-12.5096	-18.8322	-113.499	-123.262	-33.0403	25.1564	8.14003	-4.5592	-22.4766	1.7619	-0.503574	-0.0564649	21.7056	24.3926	-5.7341	42.9813	-6.69906	-10.1157	0.0277379	-23.7625	4.09047	-2.2433	0.619119	0.460044	0.0639188	-0.380106	-0.008671	-0.0482903	0.025598	2.60532	-1.27862	-0.241597	0.102406	-0.0160295	-0.0238966	-0.0659517
4.83805	-40.6356	-11.3428	-17.9824	-108.118	-124.102	-42.9854	22.5786	6.83862	-4.66579	-23.4236	1.70838	-0.447674	-0.0504325	21.1915	25.7069	-6.0507	43.7777	-6.45561	-10.847	0.0283044	-27.2793	4.686	-1.18846	0.608308	0.460993	0.0765291	-0.422286	-0.00812607	-0.0556675	0.0314537	2.23506	-1.18925	-0.231297	-0.029348	-0.0185171	-0.0391706	-0.0573966
4.84804	-33.2733	-9.07826	-16.216	-103.071	-124.81	-54.2702	19.1137	4.87249	-4.44402	-23.5523	1.7074	-0.392072	-0.0427401	20.7339	27.1948	-6.32115	44.2571	-6.12211	-11.4308	0.0288214	-30.257	5.08835	-0.0797213	0.65755	0.447497	0.0853527	-0.441656	-0.00733206	-0.0605673	0.0351971	1.90048	-1.08403	-0.218429	-0.144627	-0.0206215	-0.0520319	-0.0488589
4.85802	-29.9186	-7.09255	-13.4342	-97.3348	-123.095	-63.6969	16.8224	2.99093	-4.09318	-23.6758	1.75828	-0.345019	-0.0357948	20.3763	28.6016	-6.56376	44.4622	-5.68647	-11.8645	0.0293413	-31.3032	4.7458	1.27135	0.881589	0.415749	0.0876803	-0.392463	-0.00541492	-0.0575968	0.0335228	1.65121	-0.949711	-0.201309	-0.216199	-0.0218798	-0.0581426	-0.0410899
4.86801	-27.4797	-4.43042	-10.2531	-92.8839	-118.412	-72.5761	13.6951	1.04982	-3.48475	-23.1932	1.74454	-0.305099	-0.0284788	20.2687	30.0958	-6.77043	44.3516	-5.13598	-12.1456	0.0297392	-31.3076	4.08285	2.21477	1.14765	0.309813	0.0720995	-0.32469	-0.00448077	-0.0524726	0.0264591	1.5755	-0.778003	-0.176045	-0.228901	-0.0213957	-0.0571456	-0.0340139
4.878	-25.6736	-1.45639	-6.9901	-88.2599	-111.52	-80.4102	10.1868	-0.861192	-2.70298	-22.2845	1.65312	-0.274903	-0.0212804	20.3849	31.5547	-6.91744	43.9339	-4.46122	-12.2922	0.0299825	-30.7831	3.27176	2.8362	1.43941	0.168321	0.0467028	-0.244424	-0.00415039	-0.0458262	0.016439	1.63263	-0.598778	-0.14841	-0.198087	-0.0198393	-0.0512953	-0.0282397
4.88799	-24.21	1.32587	-4.04862	-82.6581	-103.045	-86.4363	6.61145	-2.56988	-1.8626	-21.0907	1.483	-0.252425	-0.0144293	20.6632	32.7596	-6.97776	43.2318	-3.65817	-12.3332	0.0301037	-30.088	2.44088	3.21559	1.74077	0.0206767	0.017789	-0.15728	-0.00412111	-0.0382428	0.00536383	1.78144	-0.432988	-0.122414	-0.138217	-0.0177471	-0.0425419	-0.0240339
4.89798	-22.8173	3.44541	-1.7516	-75.8071	-93.4202	-90.1652	3.16518	-3.93237	-1.06446	-19.7182	1.24263	-0.234473	-0.00795861	21.0112	33.5183	-6.93375	42.2821	-2.72827	-12.2994	0.030147	-29.4506	1.69671	3.44803	2.04286	-0.115886	-0.0104289	-0.066838	-0.00415236	-0.0301245	-0.00550582	1.98247	-0.289025	-0.10002	-0.0621303	-0.0155106	-0.0324513	-0.0212952
4.90797	-21.2648	4.71881	-0.151606	-67.5751	-82.8283	-91.6399	-0.00590757	-4.91859	-0.360777	-18.2533	0.950103	-0.219976	-0.00185982	21.3288	33.7628	-6.7896	41.1337	-1.67767	-12.2171	0.030135	-29.0641	1.05801	3.59447	2.33974	-0.242297	-0.0373466	0.0230411	-0.00423592	-0.0220541	-0.0158115	2.20714	-0.159673	-0.0801445	0.0207502	-0.013267	-0.0220564	-0.0193395
4.91796	-19.4256	4.92189	0.64641	-58.0181	-71.3841	-90.9919	-2.80327	-5.47425	0.198405	-16.7552	0.627037	-0.206103	0.00387423	21.5281	33.4202	-6.54857	39.8388	-0.514924	-12.1091	0.0301018	-29.0381	0.591626	3.70137	2.62731	-0.363436	-0.0630564	0.109141	-0.0044045	-0.0144853	-0.0253941	2.43681	-0.0364096	-0.0616694	0.10412	-0.011085	-0.0120336	-0.0176676
4.92795	-17.1601	4.29693	1.01889	-47.0208	-61.1661	-88.7466	-5.4135	-5.77491	0.738787	-14.462	-0.0977345	-0.228238	0.00919618	21.4852	32.537	-6.22545	38.4709	0.749015	-11.9906	0.0300919	-29.3356	0.287576	3.78599	2.9069	-0.482189	-0.0879443	0.191358	-0.00466237	-0.00744632	-0.0343832	2.66738	0.0847222	-0.0439577	0.186661	-0.00895841	-0.0024483	-0.0160968
4.93793	-14.6906	2.69551	0.59108	-36.6304	-46.8955	-85.0724	-7.26773	-5.67751	1.01984	-13.3684	-0.256465	-0.211912	0.0139503	21.0404	31.1927	-5.83684	37.117	2.10553	-11.8708	0.0301336	-29.8748	0.0818901	3.85304	3.1826	-0.6014	-0.112715	0.270764	-0.00501582	-0.000828325	-0.0430819	2.9009	0.206519	-0.0263703	0.268964	-0.0068431	0.00687781	-0.0145076
4.94792	-11.8964	0.605168	-0.0962531	-26.7912	-31.8411	-80.8556	-8.70709	-5.41479	1.21008	-12.2342	-0.385344	-0.196269	0.0179166	19.9998	29.5366	-5.40312	35.8708	3.55301	-11.7537	0.0301863	-30.4903	-0.023729	3.86465	3.45481	-0.730839	-0.139359	0.347645	-0.00559426	0.00545956	-0.052038	3.1527	0.334823	-0.00786291	0.356054	-0.00455856	0.0165996	-0.0129508
4.95791	-8.85258	-1.63291	-0.794283	-18.5937	-15.8894	-76.9695	-9.75482	-5.12678	1.35643	-11.0633	-0.478624	-0.186076	0.0209508	18.1519	27.7384	-4.9423	34.8167	5.1005	-11.6405	0.0301836	-30.9361	-0.0393634	3.78527	3.72772	-0.88042	-0.169965	0.424163	-0.0064949	0.0117593	-0.0619278	3.44181	0.475563	0.0125548	0.454754	-0.00189409	0.0276205	-0.0115838
4.9679	-7.94295	-3.64209	-1.4316	-10.3757	0.157176	-73.7148	-10.5367	-4.88455	1.49148	-9.831	-0.537945	-0.183105	0.0230777	17.2539	25.9774	-4.50364	33.3825	6.79164	-11.5317	0.0298473	-30.7997	-0.0372765	3.59281	4.01007	-1.0431	-0.203994	0.506976	-0.0075547	0.0191084	-0.0730699	3.78685	0.619077	0.0333314	0.573073	0.00123067	0.041006	-0.0111965
4.97789	-12.8235	-4.92192	-2.02388	0.916333	15.3374	-71.4975	-11.2016	-4.7816	1.6505	-8.50452	-0.566765	-0.189214	0.0243623	20.0401	24.5047	-4.1589	30.6789	8.65829	-11.4257	0.0288815	-29.5308	-0.0376064	3.20729	4.30216	-1.21262	-0.241274	0.601591	-0.00868886	0.028581	-0.0858115	4.22007	0.751669	0.0522716	0.723657	0.0049887	0.0582951	-0.0130165
4.98788	-16.9434	-5.3942	-2.30617	11.1798	29.5662	-70.7658	-11.7354	-5.03848	1.87304	-7.20759	-0.555781	-0.21098	0.0245585	22.322	23.3841	-3.80284	28.2399	10.5799	-11.3116	0.0281338	-28.575	0.0669509	2.73716	4.55021	-1.37051	-0.276418	0.679179	-0.0100655	0.0362076	-0.097295	4.64034	0.867139	0.0690507	0.864414	0.00849975	0.07409	-0.0149725
4.99787	-20.2707	-5.29355	-2.29421	19.9071	41.7802	-71.0362	-12.2372	-5.57992	2.13676	-5.91765	-0.508274	-0.244572	0.0235855	24.1166	22.5463	-3.44815	26.0786	12.5194	-11.1936	0.0275901	-27.803	0.199019	2.28752	4.7657	-1.50559	-0.307031	0.745665	-0.0113364	0.0427096	-0.107273	5.02132	0.963113	0.0830306	0.989888	0.01158	0.0880186	-0.016942
5.00786	-22.7309	-4.86938	-2.12616	27.0772	51.4149	-71.962	-12.8165	-6.32042	2.42348	-4.62596	-0.431368	-0.285917	0.0215041	25.5212	21.8991	-3.10082	24.1822	14.4589	-11.0779	0.0272417	-27.2492	0.375979	1.90119	4.94678	-1.61389	-0.331982	0.800297	-0.0124095	0.0480038	-0.115437	5.34681	1.03853	0.0939091	1.09512	0.0141033	0.0995597	-0.0187795
5.01785	-24.3341	-4.33143	-1.96165	32.7171	57.9768	-73.313	-13.5526	-7.11819	2.7002	-3.31569	-0.334255	-0.328084	0.0184151	26.632	21.4147	-2.76943	22.5356	16.3962	-10.9703	0.0270512	-26.9025	0.645417	1.58032	5.08729	-1.69316	-0.350654	0.841535	-0.0132673	0.0519781	-0.121553	5.61086	1.09113	0.101246	1.17837	0.0160206	0.108505	-0.0205409
5.02783	-25.1616	-3.98987	-2.01637	36.8756	61.0453	-74.7855	-14.4958	-7.7086	2.91086	-1.95384	-0.228745	-0.359589	0.0144509	27.5505	21.0937	-2.46407	21.1157	18.3412	-10.8765	0.0269513	-26.7105	1.0782	1.32077	5.18184	-1.73868	-0.362032	0.868641	-0.0138609	0.0546677	-0.125314	5.81168	1.11546	0.10396	1.23939	0.0172761	0.114782	-0.0225158
5.03782	-25.4336	-4.13686	-2.44203	39.0503	60.0496	-76.0025	-15.7255	-7.8162	3.01645	-0.483621	-0.128609	-0.369358	0.00983029	28.3261	20.9358	-2.19179	19.9076	20.3118	-10.8021	0.0268704	-26.3545	1.68455	1.10833	5.23246	-1.74405	-0.365205	0.88666	-0.0140355	0.05691	-0.126738	5.9571	1.10481	0.100742	1.28389	0.0179283	0.119137	-0.025332
5.04781	-24.8723	-4.55213	-3.2125	40.1403	55.5023	-76.8566	-17.3413	-7.32392	3.02375	1.13004	-0.0471571	-0.351246	0.00488368	29.1048	21.1047	-1.97617	18.8729	22.3278	-10.7474	0.0268019	-26.1892	2.42319	0.828692	5.21026	-1.70508	-0.360236	0.883271	-0.0140982	0.0571968	-0.125302	6.05187	1.04689	0.0908078	1.3079	0.0179026	0.120778	-0.0288943
5.0578	-23.6132	-5.32046	-4.35671	39.4778	47.1682	-76.8202	-19.4305	-5.99676	2.92456	2.95187	0.00135899	-0.296367	-5.16295e-05	29.8341	21.6308	-1.82669	18.0267	24.4084	-10.7157	0.0267784	-25.8527	3.19968	0.421312	5.11249	-1.60692	-0.345477	0.86354	-0.0138705	0.056444	-0.120909	6.11092	0.924106	0.0716374	1.31913	0.0172469	0.120635	-0.0341512
5.06779	-21.068	-6.20932	-5.9307	37.788	36.0487	-75.3313	-22.1742	-3.79596	2.75041	5.03155	0.0040865	-0.204119	-0.00449757	30.533	22.5264	-1.75469	17.369	26.5725	-10.7103	0.0268478	-25.7665	3.95914	-0.225568	4.90612	-1.42719	-0.318019	0.814244	-0.0134942	0.0531297	-0.112319	6.13355	0.705663	0.0395802	1.31033	0.0156488	0.117409	-0.0414998
5.07778	-16.6288	-6.75465	-7.84266	35.0105	23.0293	-71.5542	-25.8433	-0.857598	2.5482	7.43385	-0.0521049	-0.0804328	-0.00779594	31.0749	23.7402	-1.76676	16.9499	28.8349	-10.7347	0.0271159	-26.1172	4.46648	-1.19368	4.56985	-1.13485	-0.274003	0.729467	-0.0128713	0.0466591	-0.0985257	6.11533	0.35587	-0.00948232	1.27616	0.012796	0.110269	-0.0514726
5.08777	-10.5484	-7.29922	-9.80237	31.0814	8.2688	-66.5972	-30.3563	2.4151	2.35568	10.1175	-0.174511	0.0587385	-0.00920875	31.2838	25.1999	-1.85703	16.8274	31.2146	-10.7871	0.0275014	-26.5894	4.71631	-1.96037	4.21614	-0.748679	-0.213419	0.644101	-0.0110391	0.0405577	-0.0810447	6.00172	-0.0722815	-0.0705142	1.21011	0.0085558	0.0994854	-0.0626362
5.09776	-3.14001	-7.95044	-11.6263	27.054	-7.75811	-62.0119	-35.4642	5.5028	2.17379	12.9706	-0.366268	0.192831	-0.00798995	31.1223	26.8294	-2.00556	16.9966	33.7325	-10.8643	0.0279034	-27.198	4.82115	-2.18499	3.92696	-0.319074	-0.142325	0.578736	-0.00781092	0.0364696	-0.0620738	5.76697	-0.506092	-0.134369	1.1107	0.00322235	0.0855956	-0.0728071
5.10774	4.79863	-8.47921	-13.319	23.4989	-25.2527	-58.3461	-40.8114	8.00034	1.96316	15.8589	-0.623178	0.303932	-0.00369973	30.6525	28.5408	-2.19412	17.4012	36.4088	-10.9647	0.0282216	-27.6526	4.8626	-1.91601	3.7181	0.122309	-0.0662473	0.540643	-0.00344065	0.0352119	-0.0431117	5.44569	-0.916004	-0.19693	0.993839	-0.0026288	0.0705747	-0.0818362
5.11773	12.5347	-8.71216	-14.9531	20.8249	-44.4413	-55.7387	-46.0816	9.67315	1.68169	18.6597	-0.931413	0.378787	0.00357216	29.9806	30.2575	-2.40987	17.9825	39.256	-11.0861	0.0284014	-27.7157	4.92255	-1.28557	3.58403	0.552927	0.0104019	0.530365	0.00171071	0.0369647	-0.025107	5.07941	-1.2881	-0.256079	0.874998	-0.00849929	0.0561238	-0.0900335
5.12772	19.4552	-8.65109	-16.6463	19.2711	-65.3586	-54.0867	-51.0187	10.4576	1.30938	21.2655	-1.26945	0.410934	0.0132343	29.2491	31.8835	-2.64161	18.6835	42.2748	-11.2266	0.0284557	-27.2214	5.10193	-0.433963	3.51167	0.959696	0.0848813	0.545204	0.00731678	0.0415929	-0.00847931	4.70677	-1.62002	-0.311507	0.766596	-0.014055	0.0434543	-0.0980041
5.13771	25.6847	-7.82331	-18.5391	20.7776	-86.7085	-52.8579	-55.4267	10.3163	0.84554	23.5391	-1.60598	0.39729	0.0242473	28.7916	33.4832	-2.88613	19.4132	45.4504	-11.3794	0.0284341	-27.017	5.52447	0.344161	3.43074	1.33708	0.154657	0.553221	0.0124224	0.0451488	0.00760226	4.35013	-1.92891	-0.363413	0.661621	-0.0193181	0.0309236	-0.105325
5.1477	30.9715	-6.38937	-20.626	25.2812	-108.163	-51.2483	-59.1165	9.47238	0.317941	25.3697	-1.91334	0.34633	0.035459	28.7212	34.9822	-3.13504	20.1482	48.75	-11.541	0.0283825	-27.1973	6.14281	0.950407	3.32306	1.68629	0.219081	0.547519	0.0168045	0.046848	0.0232173	4.02131	-2.22334	-0.412221	0.560653	-0.0242549	0.0184412	-0.112076
5.15769	35.226	-4.75117	-22.9089	32.6075	-129.256	-48.4234	-61.9053	8.26655	-0.220189	26.6454	-2.16725	0.272885	0.045723	29.1084	36.2316	-3.36841	20.8806	52.1211	-11.7099	0.0283709	-27.9259	6.91558	1.3372	3.177	2.00665	0.277512	0.522146	0.0202909	0.0459122	0.0383984	3.7215	-2.50622	-0.457592	0.460977	-0.0288795	0.00561752	-0.117991
5.16768	37.8499	-3.41113	-25.0526	40.4767	-150.616	-44.6558	-63.6675	6.95604	-0.68522	27.2721	-2.35048	0.194028	0.0540872	29.7582	37.153	-3.57851	21.6638	55.4906	-11.8815	0.028438	-28.4315	7.64988	1.64543	3.039	2.29689	0.330274	0.500089	0.0234376	0.045297	0.0521442	3.45539	-2.76532	-0.499117	0.374525	-0.0329867	-0.00557445	-0.123664
5.17767	37.3011	-3.1967	-26.4119	43.5616	-175.076	-42.2082	-64.2489	5.71687	-0.988376	27.2425	-2.46239	0.129223	0.0600873	29.9985	37.7719	-3.78914	22.642	58.7686	-12.0481	0.0285199	-26.3202	8.13505	2.26616	3.0294	2.56676	0.381983	0.546162	0.027995	0.0537805	0.0628347	3.24248	-2.98194	-0.540096	0.338753	-0.0361618	-0.00950226	-0.132265
5.18765	34.6039	-3.52908	-27.2246	49.0131	-198.101	-37.8005	-63.1649	4.94646	-1.12346	26.5159	-2.50152	0.0937336	0.0633642	30.592	37.8164	-3.92896	23.6792	61.866	-12.2158	0.0289456	-24.5336	8.28628	2.49302	2.9597	2.79516	0.423354	0.568103	0.0312625	0.0592284	0.0719266	3.08653	-3.18445	-0.57501	0.31322	-0.0385854	-0.0124983	-0.139751
5.19764	29.1964	-4.70733	-27.4449	57.6909	-219.381	-32.5798	-60.0501	4.47124	-1.11117	25.0108	-2.46621	0.0828788	0.0639249	31.6106	37.401	-4.00148	24.7092	64.6904	-12.3759	0.0296378	-22.9918	8.4918	2.555	2.86463	2.98587	0.457681	0.574684	0.0337018	0.0626641	0.0800198	2.96422	-3.36455	-0.605382	0.291853	-0.0405937	-0.01524	-0.146426
5.20763	21.5343	-6.4309	-27.1155	69.0261	-237.655	-26.8243	-55.2082	4.11159	-0.99573	22.8388	-2.3567	0.0862416	0.0618068	32.9638	36.5025	-3.99296	25.7202	67.1382	-12.5218	0.0306454	-21.7361	8.70255	2.4385	2.74272	3.1343	0.483905	0.564805	0.035226	0.0638899	0.0868609	2.87616	-3.51772	-0.630097	0.274457	-0.0421176	-0.0176937	-0.151981
5.21762	13.0024	-7.5313	-26.4053	84.7439	-249.685	-20.0591	-49.1712	3.52806	-0.834596	20.1344	-2.16487	0.085688	0.0568549	34.8759	35.2458	-3.89316	26.6082	69.1037	-12.642	0.0319972	-22.0929	8.84336	1.89198	2.52901	3.22396	0.496646	0.503561	0.0347135	0.0580236	0.0924903	2.81714	-3.64298	-0.644492	0.243066	-0.043146	-0.0224344	-0.154004
5.22761	3.08862	-9.18009	-25.1183	92.4934	-259.322	-16.7505	-43.4275	2.60122	-0.61754	17.3903	-1.9048	0.072383	0.0491945	35.9923	33.5525	-3.75641	27.6077	70.4706	-12.7223	0.0334904	-19.5794	8.63009	1.82411	2.48164	3.28948	0.508917	0.522675	0.0359659	0.0626946	0.0946308	2.80582	-3.71123	-0.657669	0.263707	-0.0432671	-0.0194468	-0.158995
5.2376	-5.67099	-10.3609	-24.1001	97.8914	-260.764	-14.3133	-38.6416	1.48345	-0.397917	14.8451	-1.58096	0.0372279	0.0389227	37.1223	31.4396	-3.53989	28.4675	71.149	-12.753	0.0352459	-17.2721	8.30553	1.65707	2.44055	3.2977	0.510524	0.53595	0.0363816	0.0661565	0.0943915	2.83443	-3.73036	-0.661993	0.293303	-0.042679	-0.0152923	-0.162271
5.24759	-13.14	-11.1176	-23.4211	101.414	-252.789	-12.1764	-35.0164	0.313533	-0.216934	12.7059	-1.23175	-0.017506	0.0273997	38.4019	28.9476	-3.24236	29.0837	71.0594	-12.7189	0.0371407	-15.3249	7.81805	1.39779	2.40964	3.24781	0.500999	0.542496	0.035917	0.0681507	0.0916171	2.90215	-3.69968	-0.656916	0.32965	-0.0414106	-0.0102148	-0.16352
5.25758	-19.0674	-10.7666	-23.0112	106.985	-233.127	-9.01535	-32.0762	-0.984043	-0.135485	10.8555	-0.891721	-0.0906839	0.0163635	40.1851	26.2426	-2.86156	29.2794	70.1352	-12.5987	0.039072	-15.2723	7.16673	0.777213	2.31442	3.12328	0.474979	0.502042	0.0333333	0.0630762	0.0866058	2.99902	-3.62043	-0.637845	0.350774	-0.0395276	-0.00738292	-0.160119
5.26756	-26.6446	-11.5015	-21.8662	100.666	-210.34	-10.8703	-29.7419	-2.331	-0.073035	9.35284	-0.610924	-0.160042	0.0074668	40.5097	23.3228	-2.50324	29.3472	68.3031	-12.3606	0.0408637	-10.7285	6.14203	1.00493	2.48853	2.98239	0.452746	0.591277	0.0338957	0.0749959	0.0771205	3.14778	-3.46713	-0.620137	0.446991	-0.0365883	0.00672338	-0.161833
5.27755	-33.0828	-11.7623	-20.7028	94.1606	-177.179	-12.1525	-27.5373	-3.39549	-0.0466355	7.93657	-0.37448	-0.219928	0.000387543	40.7343	20.3206	-2.09265	28.9208	65.5588	-11.989	0.0425681	-7.30631	5.01242	1.01142	2.6269	2.77453	0.416813	0.651708	0.0329358	0.0824213	0.0653875	3.31571	-3.26235	-0.590205	0.535552	-0.0330106	0.0198354	-0.159922
5.28754	-38.1221	-11.7427	-19.5528	86.0634	-134.319	-12.7491	-25.7708	-3.97654	-0.0238507	6.70377	-0.20044	-0.260764	-0.00445167	40.7833	17.3727	-1.65131	27.9588	61.9252	-11.4658	0.0439059	-4.71467	3.76777	0.895651	2.74035	2.52104	0.371612	0.69071	0.0309347	0.0865056	0.052128	3.48541	-3.02204	-0.551604	0.614107	-0.0290773	0.0318018	-0.155222
5.29753	-41.137	-11.2735	-18.5078	76.1232	-82.3525	-12.7422	-24.7531	-4.0533	0.00274562	5.75385	-0.102364	-0.280294	-0.00670507	40.6263	14.6373	-1.20865	26.4196	57.4647	-10.7797	0.0446021	-3.15032	2.49348	0.680133	2.81305	2.24164	0.320917	0.702056	0.0280284	0.0865909	0.0385291	3.63323	-2.76568	-0.507363	0.67234	-0.0251699	0.0412553	-0.14796
5.30752	-42.0309	-10.1932	-17.4723	64.6588	-22.6861	-12.2794	-24.4911	-3.73931	0.043448	5.07165	-0.0765271	-0.280652	-0.00655597	40.2766	12.2521	-0.796448	24.2866	52.2858	-9.93143	0.0443199	-2.72234	1.21807	0.407839	2.84078	1.95363	0.268067	0.684271	0.0244246	0.0825588	0.0254651	3.74089	-2.50852	-0.460074	0.703286	-0.021597	0.0472967	-0.138403
5.31751	-41.0876	-8.52395	-16.3242	52.5549	42.5729	-11.2736	-24.7306	-3.15846	0.0974535	4.57098	-0.106537	-0.26624	-0.00459034	39.784	10.2722	-0.429891	21.5783	46.5446	-8.93858	0.0426598	-3.47891	-0.0540318	0.113771	2.82454	1.66831	0.21528	0.638115	0.0202946	0.074528	0.0134658	3.79826	-2.25968	-0.411435	0.703681	-0.0185444	0.0494871	-0.126779
5.3275	-38.8145	-6.15059	-14.8646	41.3306	110.987	-9.64035	-25.12	-2.52187	0.145744	4.15546	-0.171915	-0.24495	-0.00145951	39.2691	8.77572	-0.121162	18.3304	40.4403	-7.83441	0.0392109	-5.50414	-1.39159	-0.208282	2.76477	1.38991	0.163048	0.564073	0.0156721	0.0625034	0.00264233	3.80536	-2.02289	-0.361839	0.673462	-0.0160454	0.047765	-0.113093
5.33749	-34.8286	-2.80162	-13.3441	38.2677	183.102	-5.48587	-25.0958	-1.90574	0.148074	3.646	-0.243582	-0.223594	0.00195721	39.6508	7.80626	0.166844	14.4497	34.2193	-6.67406	0.0334201	-11.1655	-2.64545	-0.889891	2.56246	1.10084	0.106048	0.404508	0.00891168	0.0384681	-0.00575624	3.7505	-1.80493	-0.307164	0.579994	-0.0144257	0.0370824	-0.0942122
5.34747	-30.5709	-0.0566324	-11.9481	40.6039	253.844	0.276913	-24.4172	-0.987809	0.118577	3.07913	-0.320278	-0.191366	0.00531009	40.604	7.10479	0.46185	10.1523	28.121	-5.52014	0.0251706	-18.371	-3.67315	-1.55041	2.33017	0.825134	0.052037	0.218212	0.00178264	0.0104701	-0.0120976	3.65693	-1.60437	-0.254307	0.456907	-0.0135972	0.0220535	-0.0740116
5.35746	-27.9111	0.966515	-10.3886	35.0897	313.57	1.91056	-23.5813	0.235326	0.110222	2.75045	-0.422038	-0.141034	0.00890132	40.1151	6.73176	0.668487	5.87727	22.3342	-4.4169	0.015453	-21.3723	-4.18799	-1.42849	2.29987	0.628456	0.0193572	0.146418	-0.00147552	-0.00149599	-0.0175492	3.57447	-1.42789	-0.219595	0.391609	-0.0129971	0.0150557	-0.0621532
5.36745	-26.7493	0.451344	-8.80574	22.9829	361.666	0.246339	-22.5737	1.67565	0.108273	2.64933	-0.539785	-0.077421	0.0125183	38.3395	6.5516	0.78229	1.73604	17.0739	-3.42466	0.00493677	-20.5954	-4.20921	-0.668195	2.44863	0.503989	0.00511124	0.178596	-0.00131842	0.00107812	-0.0224425	3.51323	-1.27492	-0.20079	0.38257	-0.012459	0.015781	-0.0578184
5.37744	-25.9235	-0.253884	-7.35897	17.1334	403.949	-0.460098	-20.904	2.93876	0.0732208	2.44668	-0.638086	-0.0184113	0.0155179	37.1646	6.57292	0.797163	-2.43346	12.5598	-2.59827	-0.00667872	-20.9677	-4.00825	0.017644	2.57812	0.394798	-0.00707936	0.195409	-0.00144173	0.00128244	-0.0259327	3.4482	-1.13996	-0.183861	0.361239	-0.0123173	0.0142527	-0.0529818
5.38743	-26.5289	-1.72328	-5.71448	5.31127	434.251	-3.40525	-19.3346	4.18479	0.0650751	2.44814	-0.742089	0.0447483	0.0183811	34.991	6.80858	0.65214	-6.31388	8.85342	-1.94412	-0.0179608	-17.9399	-3.65928	1.1251	2.85258	0.345781	-0.00595712	0.303784	0.0012239	0.014286	-0.0298603	3.4172	-1.02577	-0.178633	0.39632	-0.0118689	0.0205666	-0.0543354
5.39742	-26.7697	-2.57308	-4.14892	0.396096	459.614	-5.27819	-17.51	5.01813	0.041469	2.32921	-0.818038	0.092941	0.0205257	33.5811	7.32644	0.356236	-10.0486	6.02894	-1.46794	-0.029136	-16.7354	-3.23862	1.95812	3.05483	0.303776	-0.00591569	0.373616	0.00288905	0.0219288	-0.0322503	3.38056	-0.93298	-0.172907	0.409813	-0.0117508	0.0232817	-0.0539779
5.40741	-26.4991	-3.45025	-2.90737	-0.670017	479.279	-5.98118	-15.6725	5.74327	0.0132011	2.17141	-0.875574	0.133759	0.022088	32.4521	7.86092	-0.0309424	-13.3893	4.01734	-1.14373	-0.0389492	-16.4209	-2.75694	2.63988	3.21974	0.276204	-0.00460457	0.426223	0.00418732	0.0272491	-0.0334425	3.34397	-0.860075	-0.168662	0.414604	-0.0118543	0.0243275	-0.0532658
5.4174	-25.16	-4.22298	-1.95341	0.496673	493.463	-5.88814	-13.9827	6.36597	-0.018157	1.99988	-0.917438	0.167078	0.0231577	31.0806	8.35025	-0.478927	-16.0777	2.67534	-0.926217	-0.0457904	-16.772	-2.25377	3.15459	3.3434	0.265279	-0.00165393	0.463194	0.00517711	0.0306339	-0.0334308	3.31035	-0.80954	-0.166448	0.413763	-0.0121244	0.0241331	-0.0525565
5.42738	-22.1952	-5.30746	-1.53632	2.371	502.612	-4.43913	-12.5026	7.13976	-0.0641166	1.86023	-0.949532	0.199422	0.0238068	28.9672	8.4862	-0.881109	-17.88	1.8217	-0.776049	-0.0479817	-17.5992	-1.74689	3.49788	3.42488	0.271804	0.00314145	0.486212	0.00591043	0.0324341	-0.0322536	3.28242	-0.782286	-0.166633	0.409813	-0.0125173	0.0230595	-0.0521329
5.43737	-17.3815	-6.70494	-1.63708	3.86764	507.272	-1.67782	-11.2209	8.08646	-0.125713	1.75757	-0.973909	0.232546	0.0240926	25.7309	8.15379	-1.17798	-18.6404	1.278	-0.658408	-0.0445718	-18.7299	-1.27781	3.65016	3.46197	0.29552	0.00958594	0.496258	0.00639341	0.0328971	-0.0300408	3.26558	-0.779457	-0.169382	0.405657	-0.0129641	0.0215087	-0.0522278
5.44736	-10.8751	-8.49332	-2.24962	4.37366	508.099	2.1538	-10.0681	9.25035	-0.201432	1.68982	-0.992749	0.269006	0.0240645	21.2394	7.33609	-1.33901	-18.3194	0.910155	-0.549483	-0.0360122	-19.9799	-0.813755	3.6205	3.45905	0.332606	0.0172514	0.495616	0.00664966	0.0323944	-0.0270059	3.26548	-0.798051	-0.174622	0.404337	-0.0133979	0.019905	-0.05306
5.45735	-3.23062	-10.8336	-3.42175	3.71907	505.948	6.72863	-8.93769	10.6932	-0.289463	1.65116	-1.00927	0.311709	0.0238093	15.6423	6.06394	-1.34271	-17.0165	0.636674	-0.440093	-0.0238384	-21.1508	-0.280366	3.4416	3.42758	0.371665	0.0246833	0.487882	0.00667132	0.0313849	-0.0236572	3.28923	-0.827146	-0.181277	0.409586	-0.0136943	0.0188057	-0.0546655
5.46734	4.86588	-13.6872	-5.1178	2.16585	502.052	11.4541	-7.72441	12.3845	-0.387672	1.62197	-1.02549	0.360747	0.0234372	9.27748	4.46412	-1.20625	-14.9618	0.417039	-0.328882	-0.009903	-22.1792	0.399158	3.1117	3.3708	0.392971	0.0288714	0.472067	0.0062464	0.0296932	-0.0206746	3.34605	-0.850447	-0.187019	0.424128	-0.0136575	0.0186032	-0.0567131
5.47733	7.56202	-15.0565	-7.16088	2.44005	498.688	12.928	-6.61194	13.3961	-0.503769	1.58137	-1.03107	0.388859	0.0231203	5.55658	3.63227	-1.14536	-13.5579	0.343175	-0.233365	0.00173017	-21.6476	1.52893	2.33825	3.2761	0.399086	0.028714	0.456965	0.00530047	0.0296737	-0.0188229	3.54569	-0.900366	-0.197947	0.487729	-0.0126835	0.0237436	-0.0631102
5.48732	8.18677	-15.3412	-9.08625	2.01461	496.504	11.9164	-5.51133	13.979	-0.624002	1.49251	-1.02927	0.403654	0.0228605	2.58749	3.31793	-1.16498	-12.3629	0.354806	-0.142874	0.0111556	-20.4821	2.88932	1.24007	3.14041	0.365094	0.0204829	0.430946	0.00346867	0.029009	-0.0185247	3.82732	-0.941717	-0.20689	0.576361	-0.0108869	0.0316677	-0.0706554
5.49731	0	0	0	0	0	0	0	0	0	0	0	0	0	0	0	0	0	0	0	0	0	0	0	0	0	0	0	0	0	0	0	0	0	0	0	0	0
