PathFileType	4	(X/Y/Z)	/tmp/tmpd_587ckk/P10/MarkerData/DB4_P10_T17_r_comf_relabeled_segment_2.trc
DataRate	CameraRate	NumFrames	NumMarkers	Units	OrigDataRate	OrigDataStartFrame	OrigNumFrames
100.156	100.156	26	22	m	100.156	0	26
Frame#	Time	C7			CLAV			LANK			LASI			LHEE			LKNE			LMT5			LPSI			LSHO			LTHI			LTIB			LTOE			RANK			RASI			RHEE			RKNE			RMT5			RPSI			RSHO			RTHI			RTIB			RTOE		
		X1	Y1	Z1	X2	Y2	Z2	X3	Y3	Z3	X4	Y4	Z4	X5	Y5	Z5	X6	Y6	Z6	X7	Y7	Z7	X8	Y8	Z8	X9	Y9	Z9	X10	Y10	Z10	X11	Y11	Z11	X12	Y12	Z12	X13	Y13	Z13	X14	Y14	Z14	X15	Y15	Z15	X16	Y16	Z16	X17	Y17	Z17	X18	Y18	Z18	X19	Y19	Z19	X20	Y20	Z20	X21	Y21	Z21	X22	Y22	Z22

1	3.66	1.93929	-1.39589	0.311321	2.07271	-1.33076	0.313673	1.65323	-0.200277	0.435015	1.82452	-1.05267	0.358998	1.59771	-0.223919	0.390858	1.99459	-0.408902	0.44497	1.68721	-0.086555	0.425828	1.80167	-0.913893	0.341283	2.00634	-1.332	0.486105	2.01649	-0.595561	0.501053	1.88064	-0.336578	0.464309	1.71187	-0.0349354	0.389092	2.11449	-0.0486397	0.235011	1.83374	-1.06373	0.258678	2.058	-0.0238495	0.265912	2.16731	-0.447023	0.232941	2.25639	-0.0120162	0.235165	1.81141	-0.924423	0.240339	2.01099	-1.34307	0.126679	2.11915	-0.586435	0.14778	2.13659	-0.295703	0.214064	2.29699	-0.0058366	0.295083
2	3.66998	1.95338	-1.39928	0.311113	2.08671	-1.33523	0.314043	1.68518	-0.199283	0.434889	1.84018	-1.05694	0.359077	1.62858	-0.220179	0.390352	2.02293	-0.413375	0.446885	1.7252	-0.0863403	0.42718	1.81702	-0.91817	0.341923	2.01865	-1.33597	0.48721	2.039	-0.600428	0.50224	1.90976	-0.339808	0.465473	1.75097	-0.0355732	0.391594	2.11444	-0.0486661	0.235013	1.84866	-1.06788	0.258623	2.05862	-0.0231529	0.265647	2.17169	-0.446716	0.231768	2.25661	-0.0116851	0.234987	1.82607	-0.928481	0.240916	2.02526	-1.34678	0.126246	2.14641	-0.555504	0.156343	2.13948	-0.295388	0.213338	2.29707	-0.0058156	0.294865
3	3.67997	1.96751	-1.40252	0.311103	nan	nan	nan	1.71835	-0.197259	0.435467	1.85581	-1.06118	0.359488	1.66028	-0.214913	0.390479	2.05088	-0.418127	0.448565	1.76394	-0.0861345	0.428425	1.8323	-0.922387	0.342855	2.03137	-1.33888	0.486899	2.06177	-0.605583	0.503486	1.93864	-0.342658	0.466347	1.79196	-0.0361076	0.393127	2.11459	-0.0486529	0.235086	1.86347	-1.07182	0.25896	2.05878	-0.0232653	0.265632	2.17598	-0.446343	0.230811	2.25687	-0.0113365	0.234789	1.84058	-0.932409	0.241842	2.0388	-1.35038	0.125312	2.16359	-0.574343	0.15583	2.14273	-0.295002	0.212771	2.29717	-0.00577208	0.294809
4	3.68995	1.98158	-1.40558	0.310765	2.11478	-1.34365	0.314581	1.7524	-0.193953	0.436299	1.87138	-1.06527	0.360096	1.69277	-0.208164	0.391108	2.07855	-0.423105	0.450051	1.80337	-0.0857133	0.429481	1.84747	-0.926488	0.343968	2.04405	-1.34247	0.487307	2.08479	-0.61099	0.504737	1.96748	-0.345261	0.466982	1.83421	-0.0363927	0.393958	2.11481	-0.0486532	0.235131	1.87815	-1.07555	0.259322	2.05874	-0.0236915	0.265659	2.18012	-0.445912	0.230029	2.25715	-0.0110191	0.234611	1.85493	-0.936135	0.242939	2.0529	-1.35405	0.124682	2.17222	-0.587688	0.153892	2.14613	-0.294563	0.212235	2.29726	-0.00573467	0.294844
5	3.69994	1.99567	-1.40854	0.310313	2.12884	-1.34743	0.314656	1.78697	-0.188961	0.436714	1.88683	-1.06919	0.360567	1.72623	-0.200147	0.392034	2.10596	-0.428279	0.451389	1.84356	-0.0844287	0.430185	1.86251	-0.930449	0.345125	2.05701	-1.34582	0.487496	2.1084	-0.616673	0.505962	1.99653	-0.347769	0.467597	1.87717	-0.0364132	0.394287	2.11501	-0.0486957	0.235115	1.89279	-1.07906	0.25967	2.05863	-0.0241286	0.265577	2.18409	-0.445489	0.229367	2.25741	-0.0107015	0.234464	1.86917	-0.939674	0.243944	2.06748	-1.35763	0.124354	2.17806	-0.588569	0.153015	2.14942	-0.294123	0.21168	2.29734	-0.00572515	0.294891
6	3.70992	2.00972	-1.4114	0.309749	2.14294	-1.35085	0.31455	1.82243	-0.182943	0.437187	1.90214	-1.07291	0.360805	1.76068	-0.191284	0.3931	2.13304	-0.433609	0.452513	1.88439	-0.0821615	0.430618	1.8774	-0.93418	0.346209	2.07029	-1.34886	0.487425	2.13299	-0.622519	0.507223	2.02587	-0.350058	0.468292	1.92055	-0.0362387	0.394393	2.11481	-0.0490067	0.234736	1.90738	-1.08239	0.260003	2.05852	-0.0245026	0.265461	2.18777	-0.445117	0.228778	2.25764	-0.0104065	0.234345	1.8833	-0.943024	0.244899	2.08214	-1.36106	0.124123	2.18376	-0.586258	0.152647	2.1522	-0.293896	0.211156	2.29744	-0.00572972	0.294903
7	3.71991	2.02353	-1.41398	0.308765	2.15715	-1.35391	0.314313	1.85873	-0.176219	0.437714	1.91731	-1.07632	0.361104	1.79615	-0.181705	0.394086	2.15979	-0.439027	0.453422	1.92576	-0.0791249	0.43095	1.89218	-0.937575	0.347234	2.08377	-1.3516	0.48712	2.15638	-0.627661	0.508347	2.05546	-0.351956	0.469042	1.96416	-0.0358592	0.394569	2.1141	-0.0496313	0.233895	1.92191	-1.08546	0.260158	2.05851	-0.0249507	0.265654	2.19108	-0.444813	0.228234	2.25787	-0.0101838	0.234266	1.89738	-0.946041	0.245815	2.09641	-1.36411	0.124029	2.19072	-0.586161	0.15237	2.15427	-0.293789	0.21097	2.29758	-0.00573681	0.294814
8	3.72989	2.03708	-1.41619	0.307232	2.17143	-1.35648	0.314011	1.89568	-0.168969	0.437957	1.93229	-1.07939	0.361337	1.8326	-0.171452	0.394864	2.18594	-0.444361	0.454123	1.96761	-0.0758117	0.43139	1.90681	-0.940659	0.348014	2.0975	-1.35412	0.486807	2.17233	-0.632956	0.509233	2.08508	-0.353362	0.469743	2.00829	-0.0351328	0.394929	2.11395	-0.0498445	0.233856	1.93637	-1.08812	0.260236	2.05852	-0.025504	0.266092	2.1941	-0.444589	0.2278	2.25806	-0.0100267	0.234222	1.9114	-0.948748	0.246546	2.11003	-1.36663	0.124271	2.19988	-0.591034	0.15177	2.15572	-0.293243	0.210752	2.29779	-0.00576387	0.294932
9	3.73988	2.05108	-1.41831	0.306558	nan	nan	nan	1.93326	-0.161416	0.438252	1.9471	-1.08213	0.361383	1.86987	-0.160588	0.395411	2.21149	-0.449521	0.454661	2.01006	-0.0725347	0.431985	1.92131	-0.943388	0.348695	2.11145	-1.35634	0.486508	2.17967	-0.643566	0.509505	2.11456	-0.354288	0.470319	2.05306	-0.0347362	0.395761	2.11443	-0.0496031	0.234618	1.95072	-1.09043	0.260318	2.05871	-0.0258831	0.266582	2.19691	-0.444397	0.227496	2.25821	-0.00991847	0.234243	1.92541	-0.951126	0.247119	2.12411	-1.36894	0.124196	2.20886	-0.598566	0.150807	2.15701	-0.293006	0.21082	2.29806	-0.00580652	0.295396
10	3.74986	2.06552	-1.42023	0.306287	nan	nan	nan	1.97147	-0.153624	0.43861	1.96183	-1.08448	0.361407	1.90801	-0.149105	0.395712	2.23648	-0.454474	0.45505	2.05314	-0.0695074	0.432898	1.9357	-0.945743	0.3494	2.12542	-1.35822	0.48614	2.19993	-0.662037	0.508619	2.14377	-0.354834	0.470826	2.09877	-0.0345711	0.397182	2.11504	-0.0495449	0.235392	1.96496	-1.09243	0.260383	2.05929	-0.0259229	0.267101	2.19975	-0.444192	0.227339	2.25833	-0.00979074	0.23429	1.9394	-0.953079	0.247799	2.13863	-1.37104	0.123861	2.20415	-0.594036	0.149234	2.15694	-0.29714	0.210255	2.29819	-0.00581167	0.295688
11	3.75984	2.07989	-1.42163	0.305329	2.21435	-1.36208	0.312719	2.01042	-0.145649	0.438995	1.97644	-1.0865	0.361525	1.94709	-0.137209	0.395842	2.26096	-0.459151	0.455315	nan	nan	nan	1.95005	-0.947769	0.350214	2.1393	-1.35982	0.485687	2.2216	-0.666187	0.508624	2.17267	-0.355037	0.471314	2.14521	-0.0345093	0.399259	2.11513	-0.0499997	0.235486	1.97913	-1.09407	0.260405	2.05992	-0.0259369	0.267521	2.20277	-0.443973	0.227331	2.25841	-0.00967754	0.234349	1.95331	-0.954666	0.248548	2.15323	-1.37282	0.123522	2.18954	-0.595898	0.144972	2.15487	-0.309524	0.209201	2.29827	-0.00578644	0.295722
12	3.76983	2.09413	-1.42273	0.304666	nan	nan	nan	2.05001	-0.137587	0.43951	1.99088	-1.08815	0.361706	1.98709	-0.125158	0.395932	2.28494	-0.463495	0.455421	nan	nan	nan	1.96428	-0.94943	0.351075	2.15315	-1.36108	0.485291	2.23822	-0.655782	0.510544	2.20125	-0.354784	0.471532	2.19139	-0.0351105	0.401692	2.11478	-0.050925	0.235049	1.99321	-1.09531	0.260601	2.05937	-0.0267682	0.267291	2.2059	-0.443729	0.227459	2.2585	-0.0096046	0.234463	1.96704	-0.955943	0.249282	2.16783	-1.37408	0.123203	2.18839	-0.598729	0.143348	2.15363	-0.31989	0.209279	2.29836	-0.00579765	0.295693
13	3.77981	2.10861	-1.42347	0.304258	2.24323	-1.36413	0.312204	2.09004	-0.129352	0.439669	2.00516	-1.08943	0.362015	2.02787	-0.113259	0.396134	2.30847	-0.467472	0.455355	nan	nan	nan	1.9784	-0.950693	0.352024	2.16699	-1.36198	0.484991	2.25617	-0.651915	0.511373	2.22982	-0.354232	0.471634	2.23719	-0.0360637	0.403939	2.11491	-0.0514186	0.23523	2.00718	-1.09625	0.260995	2.0599	-0.0270617	0.267354	2.20927	-0.443508	0.227761	2.25854	-0.00956738	0.234588	1.9807	-0.956931	0.250138	2.18249	-1.375	0.122976	2.20504	-0.601275	0.145119	2.155	-0.32268	0.209423	2.29848	-0.00578662	0.295748
14	3.7898	2.12325	-1.42367	0.303517	2.25765	-1.36453	0.31201	2.13067	-0.121171	0.439982	2.0193	-1.09029	0.362617	2.06919	-0.101721	0.396503	2.33138	-0.471047	0.455141	nan	nan	nan	1.99244	-0.951533	0.353118	2.18081	-1.36256	0.484758	2.27571	-0.653968	0.511159	2.25869	-0.353462	0.471675	nan	nan	nan	2.11548	-0.0514279	0.236033	2.0209	-1.09683	0.261408	2.06023	-0.0275339	0.267825	2.2128	-0.443295	0.228213	2.25856	-0.0095648	0.234712	1.99441	-0.957539	0.251319	2.19719	-1.37555	0.122822	2.23734	-0.604711	0.149195	2.15794	-0.3226	0.209728	2.29861	-0.00571118	0.29578
15	3.79978	2.13768	-1.42366	0.302738	2.27197	-1.36455	0.311857	2.17193	-0.113088	0.440774	2.03342	-1.09072	0.363299	2.11134	-0.0902094	0.397019	2.35359	-0.47415	0.454693	nan	nan	nan	2.00634	-0.951969	0.354262	2.19454	-1.36281	0.484501	2.29551	-0.660282	0.510601	2.28696	-0.352655	0.471685	nan	nan	nan	2.11569	-0.0517371	0.236572	2.03438	-1.09703	0.261976	2.05998	-0.0284382	0.268441	2.21632	-0.443064	0.228733	2.25855	-0.00968106	0.234752	2.00803	-0.957777	0.252571	2.21189	-1.37572	0.122733	nan	nan	nan	2.16138	-0.323002	0.210215	2.29862	-0.00566169	0.295556
16	3.80977	2.15217	-1.42338	0.301723	nan	nan	nan	2.21389	-0.105054	0.441761	2.04748	-1.09073	0.364187	2.15448	-0.0787229	0.39771	2.37503	-0.476732	0.453973	nan	nan	nan	2.02012	-0.951972	0.355345	2.20815	-1.36278	0.484245	nan	nan	nan	2.31139	-0.351985	0.471737	nan	nan	nan	2.11562	-0.0523649	0.236968	2.04803	-1.09694	0.263037	2.05979	-0.029111	0.269027	2.21973	-0.442824	0.229242	2.2585	-0.00993865	0.234662	2.02141	-0.957582	0.253793	2.22659	-1.3754	0.122691	2.26026	-0.604883	0.15183	2.16263	-0.322651	0.210632	2.2983	-0.0059981	0.295039
17	3.81975	2.16684	-1.42282	0.301007	nan	nan	nan	2.25617	-0.0976928	0.442209	2.0615	-1.09029	0.365263	2.19863	-0.0674146	0.39857	2.39576	-0.47878	0.453028	nan	nan	nan	2.03405	-0.95148	0.356619	2.22174	-1.36254	0.484091	2.33473	-0.684863	0.506542	2.33045	-0.351256	0.471984	nan	nan	nan	2.11554	-0.0531875	0.23754	2.0616	-1.09642	0.263996	2.05981	-0.0295553	0.269896	2.22308	-0.442628	0.229692	2.2584	-0.0099717	0.234787	2.0347	-0.957001	0.255002	2.24119	-1.37478	0.122681	2.26625	-0.604206	0.152024	2.15654	-0.31752	0.210605	2.2976	-0.00678512	0.29411
18	3.82973	nan	nan	nan	nan	nan	nan	nan	nan	nan	2.07537	-1.08933	0.366234	2.24305	-0.0568776	0.39956	2.4158	-0.480229	0.451895	nan	nan	nan	2.04812	-0.950575	0.357923	2.23534	-1.36212	0.484118	2.35336	-0.688401	0.505114	2.35417	-0.349241	0.471694	2.46452	-0.0446552	0.412589	2.11566	-0.0540692	0.23845	2.0751	-1.09548	0.265109	2.05992	-0.0304743	0.271177	2.22641	-0.442513	0.230082	2.25827	-0.00979397	0.235154	2.0483	-0.956035	0.25626	2.25578	-1.37383	0.122656	nan	nan	nan	2.14702	-0.310061	0.210304	2.29772	-0.00682254	0.294076
19	3.83972	nan	nan	nan	nan	nan	nan	2.34067	-0.0852877	0.4444	2.08919	-1.08789	0.367354	2.28771	-0.0473965	0.400526	2.4351	-0.481057	0.450542	nan	nan	nan	2.06219	-0.949215	0.359175	2.24883	-1.36142	0.484127	2.37526	-0.682669	0.503953	2.38051	-0.346422	0.470858	2.50891	-0.0460717	0.41398	2.11599	-0.0547781	0.239718	2.08859	-1.09414	0.266297	2.06003	-0.0317256	0.272452	2.22971	-0.442502	0.230409	2.258	-0.009726	0.235394	2.06192	-0.954656	0.257103	nan	nan	nan	nan	nan	nan	2.16056	-0.318576	0.211543	2.29853	-0.00616412	0.294823
20	3.8497	nan	nan	nan	nan	nan	nan	2.38304	-0.0798726	0.445318	2.103	-1.08595	0.368634	2.33235	-0.0392396	0.401695	2.45359	-0.481223	0.449016	nan	nan	nan	2.07626	-0.947274	0.360039	2.26231	-1.36054	0.484212	2.39827	-0.668993	0.503248	2.40474	-0.343523	0.469196	2.55115	-0.0447434	0.414568	2.11598	-0.0557559	0.240523	2.1021	-1.09231	0.267426	2.06021	-0.0331537	0.273533	2.23306	-0.442646	0.230627	2.25771	-0.00974473	0.23547	2.07571	-0.953017	0.257949	nan	nan	nan	2.29272	-0.602688	0.153222	2.17063	-0.324915	0.212711	2.29888	-0.00586437	0.295041
21	3.85969	nan	nan	nan	nan	nan	nan	2.42555	-0.075266	0.446045	2.11672	-1.08356	0.369782	2.37712	-0.0321072	0.402825	2.47158	-0.480748	0.447466	nan	nan	nan	2.09049	-0.944887	0.360844	2.27578	-1.35945	0.484371	2.40324	-0.664176	0.503522	2.42554	-0.339245	0.467015	nan	nan	nan	2.11578	-0.0570689	0.240767	2.11569	-1.09028	0.268723	2.06042	-0.034722	0.274361	2.23654	-0.442944	0.230582	2.25745	-0.00977793	0.235459	2.08974	-0.950933	0.258941	nan	nan	nan	2.29634	-0.602292	0.152468	2.17346	-0.326556	0.213231	2.29886	-0.00586208	0.294861
22	3.86967	nan	nan	nan	nan	nan	nan	2.46784	-0.0715986	0.446562	2.13061	-1.08091	0.371102	2.42182	-0.0261314	0.403692	2.48889	-0.479551	0.44587	nan	nan	nan	2.10487	-0.942103	0.361565	2.28888	-1.358	0.4843	2.41347	-0.674392	0.501813	2.44957	-0.324385	0.4654	nan	nan	nan	2.11588	-0.0583638	0.240923	2.12926	-1.08801	0.269923	2.06067	-0.0364234	0.27479	2.24037	-0.443302	0.230218	2.25727	-0.00978873	0.235399	2.10395	-0.948578	0.259904	nan	nan	nan	nan	nan	nan	2.17437	-0.327188	0.212875	2.29874	-0.00591695	0.294645
23	3.87966	nan	nan	nan	nan	nan	nan	2.50952	-0.0690037	0.44676	2.14471	-1.07792	0.372423	2.46586	-0.0214346	0.40423	2.50502	-0.477484	0.444145	nan	nan	nan	2.11938	-0.939091	0.362427	2.30141	-1.35613	0.48381	2.42829	-0.677626	0.500377	2.47915	-0.274408	0.465732	nan	nan	nan	2.11636	-0.0595347	0.240811	2.14307	-1.08544	0.271161	2.06093	-0.0382921	0.274428	2.24482	-0.443576	0.229601	2.25724	-0.00974611	0.235268	2.11829	-0.945891	0.260814	nan	nan	nan	2.27961	-0.602017	0.146032	2.17666	-0.328139	0.212258	2.29863	-0.00594849	0.294517
24	3.88964	nan	nan	nan	nan	nan	nan	nan	nan	nan	2.15916	-1.07471	0.374048	2.50827	-0.0183032	0.40413	2.51981	-0.474493	0.442256	nan	nan	nan	2.13416	-0.935784	0.36343	2.31463	-1.35443	0.483944	2.44348	-0.673944	0.499747	nan	nan	nan	nan	nan	nan	2.11707	-0.0606401	0.240123	2.15719	-1.08249	0.27266	2.06127	-0.0402905	0.2732	2.25016	-0.443648	0.228824	2.2574	-0.00963975	0.235058	2.13272	-0.943033	0.261693	nan	nan	nan	2.28344	-0.601575	0.144763	2.18034	-0.329197	0.211367	2.29851	-0.00595068	0.294406
25	3.89963	nan	nan	nan	nan	nan	nan	nan	nan	nan	2.17384	-1.07133	0.375618	2.54803	-0.0170317	0.403369	2.53485	-0.471092	0.440395	nan	nan	nan	2.14919	-0.932381	0.364646	2.32833	-1.35278	0.484541	2.45792	-0.668792	0.499574	nan	nan	nan	nan	nan	nan	2.11774	-0.0622324	0.238587	2.17153	-1.07957	0.274346	2.06175	-0.042444	0.271307	2.25643	-0.443452	0.227929	2.25769	-0.00947213	0.234764	2.14734	-0.940079	0.263023	nan	nan	nan	2.29282	-0.600943	0.144287	2.18508	-0.32998	0.21019	2.29836	-0.00590788	0.294289
26	3.90961	nan	nan	nan	nan	nan	nan	nan	nan	nan	2.18879	-1.06785	0.377136	2.58692	-0.0162093	0.402986	2.55052	-0.467501	0.438622	nan	nan	nan	2.16443	-0.928924	0.366108	2.34213	-1.35099	0.485251	2.47251	-0.664222	0.499683	nan	nan	nan	nan	nan	nan	2.11855	-0.0640165	0.236723	2.18624	-1.07659	0.276323	2.06246	-0.044797	0.269199	2.26357	-0.442971	0.226922	2.25804	-0.00920852	0.23438	2.16194	-0.936974	0.264316	nan	nan	nan	2.3027	-0.600433	0.143783	2.19067	-0.330429	0.208745	2.29823	-0.00579918	0.294163
