Coordinates
version=1
nRows=309
nColumns=38
inDegrees=no

Units are S.I. units (second, meters, Newtons, ...)
If the header above contains a line with 'inDegrees', this indicates whether rotational values are in degrees (yes) or radians (no).

endheader
time	pelvis_tilt	pelvis_list	pelvis_rotation	pelvis_tx	pelvis_ty	pelvis_tz	hip_flexion_r	hip_adduction_r	hip_rotation_r	knee_angle_r	ankle_angle_r	subtalar_angle_r	mtp_angle_r	hip_flexion_l	hip_adduction_l	hip_rotation_l	knee_angle_l	ankle_angle_l	subtalar_angle_l	mtp_angle_l	lumbar_extension	lumbar_bending	lumbar_rotation	arm_flex_r	arm_add_r	arm_rot_r	elbow_flex_r	pro_sup_r	wrist_flex_r	wrist_dev_r	arm_flex_l	arm_add_l	arm_rot_l	elbow_flex_l	pro_sup_l	wrist_flex_l	wrist_dev_l
0	0.0228968	-0.118471	-1.4886	0.274608	0.951216	-0.0183969	0.360276	0.0434301	0.0480031	1.50116e-07	-0.264307	0	0	-0.0249136	0.0877706	-0.0325364	0.636331	0.34006	0	0	-0.457006	0.0469728	-0.202826	-0.0285109	-0.140383	-0.0890261	0.454144	1.57079	0	0	0.332262	-0.376883	0.0980833	1.00117	1.57078	0	0
0.00398706	0.0230251	-0.119414	-1.48585	0.274545	0.950463	-0.0117352	0.36223	0.0438446	0.0521889	0.00375287	-0.263746	0	0	-0.0321631	0.0868353	-0.0270369	0.638463	0.332097	0	0	-0.457588	0.0474328	-0.204883	-0.03316	-0.139902	-0.0918524	0.451922	1.57079	0	0	0.331335	-0.378194	0.0983462	1.00792	1.57078	0	0
0.00797411	0.0231524	-0.120358	-1.4831	0.274483	0.949711	-0.00507311	0.364179	0.0442613	0.0563625	0.00751677	-0.2632	0	0	-0.0394134	0.0858986	-0.0215395	0.640594	0.324125	0	0	-0.458171	0.0478938	-0.206937	-0.0378088	-0.139423	-0.0946794	0.449702	1.57079	0	0	0.330405	-0.379502	0.098609	1.01466	1.57078	0	0
0.0119612	0.0232766	-0.121304	-1.48035	0.27442	0.94896	0.0015901	0.366115	0.044684	0.0605002	0.0113121	-0.262694	0	0	-0.0466657	0.084958	-0.0160492	0.642723	0.316124	0	0	-0.458753	0.0483572	-0.208981	-0.0424564	-0.138944	-0.0975083	0.447489	1.57079	0	0	0.329468	-0.380801	0.0988718	1.02139	1.57078	0	0
0.0159482	0.023395	-0.122254	-1.47762	0.274357	0.948211	0.00825548	0.368026	0.045118	0.0645694	0.0151671	-0.26226	0	0	-0.0539214	0.0840096	-0.0105736	0.64485	0.308069	0	0	-0.459334	0.0488253	-0.211007	-0.0471005	-0.138469	-0.10034	0.445286	1.57079	0	0	0.328515	-0.382083	0.0991338	1.02809	1.57078	0	0
0.0199353	0.0235039	-0.123209	-1.47489	0.274293	0.947465	0.0149243	0.3699	0.0455696	0.0685305	0.0191173	-0.261934	0	0	-0.0611821	0.0830485	-0.00512349	0.646971	0.299924	0	0	-0.459913	0.0493007	-0.213005	-0.0517375	-0.137998	-0.103173	0.443095	1.57079	0	0	0.327538	-0.383338	0.0993932	1.03475	1.57078	0	0
0.0239223	0.0235986	-0.124171	-1.47219	0.274229	0.946723	0.021598	0.371727	0.046046	0.0723392	0.0232039	-0.26175	0	0	-0.0684488	0.0820689	0.000287174	0.649086	0.291648	0	0	-0.460486	0.0497866	-0.214965	-0.056362	-0.137535	-0.106006	0.44092	1.57079	0	0	0.326524	-0.384556	0.0996472	1.04135	1.57078	0	0
0.0279094	0.023674	-0.125141	-1.46952	0.274163	0.945989	0.0282783	0.373496	0.046555	0.0759488	0.0274737	-0.261741	0	0	-0.0757219	0.0810637	0.00564107	0.651189	0.283191	0	0	-0.461051	0.0502865	-0.216875	-0.0609679	-0.137081	-0.108838	0.438762	1.57079	0	0	0.325461	-0.385724	0.0998922	1.04787	1.57078	0	0
0.0318964	0.0237243	-0.126122	-1.46689	0.274095	0.945263	0.0349667	0.375198	0.0471051	0.0793114	0.0319772	-0.261935	0	0	-0.0830014	0.0800252	0.0109176	0.653278	0.274501	0	0	-0.461605	0.0508042	-0.21872	-0.0655481	-0.136639	-0.111663	0.436621	1.57079	0	0	0.324335	-0.386828	0.100124	1.0543	1.57078	0	0
0.0358835	0.0237429	-0.127114	-1.46431	0.274026	0.944547	0.0416652	0.376827	0.0477051	0.0823797	0.0367679	-0.262356	0	0	-0.0902864	0.0789444	0.0160931	0.65535	0.265519	0	0	-0.462144	0.0513439	-0.220488	-0.0700952	-0.136213	-0.114479	0.4345	1.57079	0	0	0.32313	-0.387855	0.100337	1.0606	1.57078	0	0
0.0398706	0.0237226	-0.128119	-1.46179	0.273955	0.943844	0.0483753	0.378381	0.0483642	0.0851073	0.0419012	-0.263022	0	0	-0.0975749	0.0778115	0.0211409	0.657402	0.256182	0	0	-0.462663	0.0519099	-0.222162	-0.074601	-0.135807	-0.117281	0.432399	1.57079	0	0	0.321833	-0.38879	0.100527	1.06676	1.57078	0	0
0.0438576	0.023656	-0.129137	-1.45935	0.273882	0.943156	0.055099	0.379859	0.0490917	0.0874498	0.0474332	-0.263943	0	0	-0.104863	0.0766157	0.0260318	0.659433	0.246427	0	0	-0.463158	0.0525071	-0.223728	-0.0790567	-0.135424	-0.120065	0.430319	1.57079	0	0	0.320428	-0.389618	0.100687	1.07275	1.57078	0	0
0.0478447	0.023535	-0.13017	-1.45699	0.273805	0.942485	0.0618378	0.381266	0.049897	0.089366	0.0534193	-0.265124	0	0	-0.112147	0.0753456	0.0307341	0.661442	0.236185	0	0	-0.463624	0.0531402	-0.225169	-0.0834529	-0.135069	-0.122827	0.428259	1.57079	0	0	0.318902	-0.390324	0.10081	1.07855	1.57078	0	0
0.0518317	0.0233516	-0.131217	-1.45474	0.273726	0.941834	0.0685932	0.382607	0.0507889	0.0908187	0.0599135	-0.266561	0	0	-0.119418	0.0739891	0.0352141	0.663429	0.225391	0	0	-0.464056	0.053814	-0.22647	-0.0877793	-0.134745	-0.125559	0.426217	1.57079	0	0	0.31724	-0.390893	0.100889	1.08413	1.57078	0	0
0.0558188	0.0230979	-0.132278	-1.4526	0.273644	0.941205	0.0753666	0.383895	0.051776	0.0917751	0.0669672	-0.268244	0	0	-0.126668	0.0725339	0.0394368	0.665399	0.213978	0	0	-0.464448	0.0545332	-0.227615	-0.0920255	-0.134457	-0.128258	0.424192	1.57079	0	0	0.315429	-0.391311	0.100919	1.08946	1.57078	0	0
0.0598058	0.022766	-0.133352	-1.45059	0.273559	0.940601	0.0821593	0.385141	0.0528662	0.0922077	0.074628	-0.270156	0	0	-0.133885	0.0709677	0.0433664	0.667354	0.201879	0	0	-0.464796	0.0553023	-0.228588	-0.0961807	-0.13421	-0.130915	0.422182	1.57079	0	0	0.31346	-0.391564	0.100892	1.09453	1.57078	0	0
0.0637929	0.0223483	-0.134439	-1.44873	0.27347	0.940024	0.0889723	0.38636	0.0540665	0.0920948	0.082939	-0.272271	0	0	-0.141057	0.0692778	0.0469665	0.669303	0.189032	0	0	-0.465096	0.0561256	-0.229375	-0.100234	-0.134007	-0.133525	0.420185	1.57079	0	0	0.311321	-0.391638	0.100802	1.09931	1.57078	0	0
0.0677799	0.0218378	-0.135538	-1.44702	0.273378	0.939476	0.0958063	0.38757	0.0553827	0.0914211	0.0919377	-0.274558	0	0	-0.148168	0.0674514	0.0502016	0.671255	0.175376	0	0	-0.465343	0.0570071	-0.229963	-0.104174	-0.133854	-0.13608	0.418201	1.57079	0	0	0.309005	-0.391522	0.100644	1.10377	1.57078	0	0
0.071767	0.0212276	-0.136646	-1.44548	0.273283	0.938959	0.102662	0.388788	0.0568199	0.0901781	0.101655	-0.276976	0	0	-0.155199	0.0654761	0.0530372	0.673224	0.160856	0	0	-0.465534	0.0579506	-0.230338	-0.107989	-0.133753	-0.138573	0.416228	1.57079	0	0	0.306507	-0.391204	0.100412	1.1079	1.57079	0	0
0.075754	0.0205116	-0.137762	-1.44411	0.273185	0.938477	0.109539	0.390034	0.0583817	0.0883649	0.112114	-0.279481	0	0	-0.162127	0.0633397	0.0554409	0.675225	0.145422	0	0	-0.465664	0.0589594	-0.230491	-0.111669	-0.133709	-0.140999	0.414268	1.57079	0	0	0.303823	-0.390675	0.100104	1.11167	1.57079	0	0
0.0797411	0.0196844	-0.138883	-1.44293	0.273084	0.93803	0.116439	0.391325	0.0600707	0.0859881	0.123329	-0.28202	0	0	-0.16893	0.0610306	0.0573825	0.677278	0.129028	0	0	-0.465732	0.0600365	-0.23041	-0.115203	-0.133726	-0.14335	0.412321	1.57079	0	0	0.300951	-0.389926	0.0997169	1.11507	1.57079	0	0
0.0837282	0.0187409	-0.140006	-1.44195	0.27298	0.937622	0.12336	0.392678	0.0618884	0.0830622	0.135305	-0.284534	0	0	-0.175579	0.0585377	0.0588349	0.679406	0.111641	0	0	-0.465734	0.0611848	-0.230089	-0.118581	-0.133806	-0.145621	0.410393	1.57079	0	0	0.297894	-0.38895	0.0992481	1.11806	1.57079	0	0
0.0877152	0.0176768	-0.141127	-1.44116	0.272874	0.937254	0.130302	0.394108	0.0638354	0.0796097	0.148037	-0.286958	0	0	-0.182042	0.0558508	0.0597745	0.681636	0.0932319	0	0	-0.465669	0.0624068	-0.229519	-0.121792	-0.133953	-0.147805	0.408486	1.57079	0	0	0.294655	-0.38774	0.098697	1.12063	1.57079	0	0
0.0917023	0.0164885	-0.14224	-1.44058	0.272766	0.936927	0.137264	0.395626	0.0659112	0.0756617	0.161507	-0.289221	0	0	-0.188286	0.0529606	0.0601819	0.683999	0.0737848	0	0	-0.465534	0.0637048	-0.228696	-0.124826	-0.13417	-0.149896	0.406608	1.57079	0	0	0.291241	-0.386292	0.0980637	1.12277	1.57079	0	0
0.0956893	0.0151731	-0.14334	-1.4402	0.272656	0.936644	0.144246	0.397237	0.0681145	0.0712573	0.175684	-0.291245	0	0	-0.194272	0.0498586	0.0600424	0.686528	0.0532947	0	0	-0.465329	0.0650809	-0.227617	-0.127672	-0.134461	-0.151886	0.404763	1.57079	0	0	0.287661	-0.384602	0.0973494	1.12444	1.57079	0	0
0.0996764	0.0137284	-0.144421	-1.44004	0.272546	0.936406	0.151245	0.398942	0.0704437	0.0664444	0.190524	-0.29295	0	0	-0.199962	0.0465378	0.0593466	0.68926	0.0317697	0	0	-0.465053	0.0665367	-0.226278	-0.130318	-0.134827	-0.153768	0.402961	1.57079	0	0	0.283927	-0.382669	0.0965566	1.12565	1.57079	0	0
0.103663	0.0121529	-0.145476	-1.44008	0.272436	0.936214	0.158261	0.400735	0.0728968	0.0612789	0.205969	-0.294249	0	0	-0.205311	0.042992	0.0580907	0.692237	0.00923245	0	0	-0.464705	0.0680739	-0.22468	-0.132754	-0.135272	-0.155534	0.401209	1.57079	0	0	0.280053	-0.38049	0.0956891	1.12637	1.57079	0	0
0.10765	0.0104457	-0.146499	-1.44033	0.272326	0.93607	0.165291	0.402603	0.0754722	0.055823	0.221949	-0.295057	0	0	-0.210275	0.0392162	0.0562761	0.695501	-0.0142793	0	0	-0.464287	0.0696937	-0.222823	-0.134969	-0.135797	-0.157175	0.399515	1.57079	0	0	0.276057	-0.378067	0.0947525	1.12658	1.57079	0	0
0.111638	0.00860703	-0.147481	-1.44078	0.272218	0.935974	0.172335	0.404526	0.0781682	0.0501433	0.238381	-0.29529	0	0	-0.214808	0.0352065	0.05391	0.6991	-0.0387122	0	0	-0.4638	0.0713972	-0.22071	-0.136953	-0.136403	-0.158686	0.397889	1.57079	0	0	0.271957	-0.375402	0.0937543	1.12628	1.57079	0	0
0.115625	0.00663787	-0.148419	-1.44143	0.272111	0.935927	0.179388	0.406479	0.0809833	0.0443065	0.255177	-0.294875	0	0	-0.218864	0.0309597	0.0510051	0.70308	-0.0639978	0	0	-0.463247	0.0731851	-0.218345	-0.138694	-0.137091	-0.16006	0.396343	1.57079	0	0	0.267775	-0.372498	0.0927034	1.12544	1.57079	0	0
0.119612	0.00454034	-0.149305	-1.44226	0.272008	0.935931	0.18645	0.408434	0.0839156	0.0383772	0.27224	-0.293747	0	0	-0.222399	0.0264734	0.0475796	0.707489	-0.0900522	0	0	-0.462631	0.0750576	-0.215734	-0.140184	-0.137861	-0.161291	0.394887	1.57079	0	0	0.263532	-0.369361	0.0916106	1.12407	1.57079	0	0
0.123599	0.00231763	-0.150136	-1.44326	0.271909	0.935985	0.193517	0.410362	0.0869623	0.0324165	0.289473	-0.291861	0	0	-0.225365	0.0217465	0.0436577	0.712376	-0.116776	0	0	-0.461958	0.0770147	-0.212887	-0.141415	-0.138712	-0.162375	0.393535	1.57079	0	0	0.259254	-0.365999	0.0904881	1.12214	1.57079	0	0
0.127586	-2.57792e-05	-0.150906	-1.44442	0.271814	0.93609	0.200588	0.412233	0.0901197	0.0264802	0.306776	-0.289186	0	0	-0.22772	0.0167794	0.0392695	0.71779	-0.144052	0	0	-0.461233	0.0790558	-0.209814	-0.14238	-0.139642	-0.16331	0.392301	1.57079	0	0	0.254964	-0.36242	0.0893503	1.11966	1.57079	0	0
0.131573	-0.00248383	-0.151613	-1.44573	0.271725	0.936246	0.207659	0.414015	0.0933825	0.0206183	0.324052	-0.285708	0	0	-0.229419	0.0115742	0.0344506	0.723779	-0.171749	0	0	-0.460461	0.0811793	-0.206529	-0.143073	-0.140649	-0.164092	0.391202	1.57079	0	0	0.250688	-0.358636	0.0882133	1.11662	1.57079	0	0
0.13556	-0.00504866	-0.152254	-1.44716	0.271641	0.936453	0.214727	0.415681	0.0967432	0.0148725	0.34121	-0.281425	0	0	-0.230423	0.00613508	0.0292403	0.730387	-0.199725	0	0	-0.459649	0.0833818	-0.203047	-0.143491	-0.141729	-0.164719	0.390253	1.57079	0	0	0.246451	-0.35466	0.0870943	1.11301	1.57079	0	0
0.139547	-0.0077105	-0.152826	-1.44869	0.271565	0.93671	0.22179	0.417205	0.100192	0.00927729	0.358166	-0.276348	0	0	-0.230694	0.000468253	0.0236809	0.737654	-0.22783	0	0	-0.458804	0.0856584	-0.199385	-0.14363	-0.14288	-0.165186	0.389471	1.57079	0	0	0.242277	-0.350508	0.086011	1.10884	1.57079	0	0
0.143534	-0.0104577	-0.153326	-1.4503	0.271496	0.937018	0.228844	0.418564	0.103718	0.00385998	0.37484	-0.270496	0	0	-0.230198	-0.00541738	0.0178174	0.745615	-0.255904	0	0	-0.45793	0.088002	-0.195564	-0.143487	-0.144096	-0.165489	0.388871	1.57079	0	0	0.238188	-0.346198	0.0849814	1.10411	1.57079	0	0
0.147521	-0.0132769	-0.153752	-1.45198	0.271435	0.937374	0.235887	0.419738	0.107305	-0.00135799	0.391162	-0.2639	0	0	-0.228901	-0.0115101	0.0116971	0.7543	-0.283778	0	0	-0.457035	0.0904039	-0.191604	-0.14306	-0.145374	-0.16562	0.388466	1.57079	0	0	0.234205	-0.341749	0.0840236	1.09882	1.57079	0	0
0.151508	-0.0161529	-0.154098	-1.45369	0.271383	0.93778	0.242915	0.420713	0.110939	-0.00635999	0.407069	-0.256595	0	0	-0.226774	-0.0177959	0.0053666	0.763732	-0.311282	0	0	-0.456121	0.0928533	-0.18753	-0.142347	-0.146708	-0.165571	0.388271	1.57079	0	0	0.230348	-0.337181	0.0831552	1.09298	1.57079	0	0
0.155495	-0.0190693	-0.154362	-1.45542	0.271339	0.938232	0.249925	0.421475	0.114602	-0.0111331	0.422507	-0.248625	0	0	-0.223793	-0.0242583	-0.00112833	0.773924	-0.338251	0	0	-0.455192	0.0953373	-0.183365	-0.141348	-0.148094	-0.165336	0.388296	1.57079	0	0	0.226632	-0.332518	0.0823935	1.0866	1.57079	0	0
0.159482	-0.0220083	-0.15454	-1.45715	0.271303	0.938731	0.256913	0.422019	0.118274	-0.0156668	0.437433	-0.240036	0	0	-0.219936	-0.0308787	-0.00774335	0.784879	-0.36452	0	0	-0.454251	0.0978417	-0.179133	-0.140061	-0.149526	-0.164907	0.388554	1.57079	0	0	0.223074	-0.327783	0.0817551	1.07969	1.57079	0	0
0.163469	-0.0249516	-0.154626	-1.45885	0.271276	0.939273	0.263876	0.42234	0.121937	-0.0199529	0.451812	-0.230879	0	0	-0.215189	-0.0376362	-0.0144357	0.796593	-0.389932	0	0	-0.4533	0.100351	-0.174859	-0.138487	-0.150998	-0.164275	0.389053	1.57079	0	0	0.219686	-0.322998	0.0812561	1.07228	1.57079	0	0
0.167456	-0.0278806	-0.154617	-1.46052	0.271256	0.939858	0.27081	0.42244	0.125572	-0.0239844	0.465617	-0.221204	0	0	-0.209545	-0.0445079	-0.0211645	0.809047	-0.414334	0	0	-0.452341	0.102849	-0.170567	-0.136626	-0.152504	-0.163433	0.389802	1.57079	0	0	0.216478	-0.318188	0.0809115	1.06436	1.57079	0	0
0.171443	-0.0307768	-0.15451	-1.46212	0.271243	0.940484	0.27771	0.422319	0.129161	-0.0277557	0.478829	-0.211068	0	0	-0.203002	-0.0514687	-0.0278899	0.822214	-0.437578	0	0	-0.451374	0.105319	-0.166278	-0.134482	-0.154039	-0.162376	0.390807	1.57079	0	0	0.21346	-0.313376	0.0807346	1.05597	1.57079	0	0
0.17543	-0.0336222	-0.154303	-1.46365	0.271235	0.941147	0.284572	0.42198	0.132686	-0.031263	0.491436	-0.200525	0	0	-0.195568	-0.0584922	-0.0345742	0.836056	-0.459525	0	0	-0.450402	0.107745	-0.162012	-0.132057	-0.155598	-0.1611	0.392075	1.57079	0	0	0.210636	-0.308581	0.0807371	1.04712	1.57079	0	0
0.179417	-0.0364001	-0.153997	-1.46509	0.271232	0.941844	0.291391	0.421427	0.136132	-0.0345042	0.503428	-0.189629	0	0	-0.187255	-0.0655505	-0.0411806	0.850525	-0.48004	0	0	-0.449427	0.110112	-0.157788	-0.129356	-0.157175	-0.159601	0.393611	1.57079	0	0	0.208014	-0.303824	0.0809293	1.03783	1.57079	0	0
0.183405	-0.0390951	-0.153592	-1.46644	0.27123	0.942573	0.298162	0.42066	0.139484	-0.0374789	0.514803	-0.178434	0	0	-0.178087	-0.0726149	-0.0476746	0.865564	-0.499	0	0	-0.448451	0.112405	-0.153622	-0.126385	-0.158766	-0.15788	0.395418	1.57079	0	0	0.205594	-0.299122	0.0813202	1.02811	1.57079	0	0
0.187392	-0.0416935	-0.153091	-1.46767	0.271229	0.94333	0.304878	0.419683	0.14273	-0.0401887	0.525561	-0.166991	0	0	-0.168092	-0.0796561	-0.0540233	0.881107	-0.516291	0	0	-0.447478	0.114613	-0.149526	-0.12315	-0.160366	-0.155937	0.397498	1.57079	0	0	0.203378	-0.294491	0.0819182	1.018	1.57079	0	0
0.191379	-0.0441836	-0.152499	-1.46879	0.271224	0.94411	0.311534	0.418493	0.145861	-0.0426367	0.535706	-0.155351	0	0	-0.15731	-0.0866445	-0.0601963	0.897079	-0.531813	0	0	-0.44651	0.116724	-0.145512	-0.11966	-0.161973	-0.153776	0.399852	1.57079	0	0	0.201364	-0.289944	0.0827308	1.00749	1.57079	0	0
0.195366	-0.0465558	-0.151825	-1.46979	0.271214	0.94491	0.318122	0.41709	0.148868	-0.0448267	0.545243	-0.143562	0	0	-0.145785	-0.0935507	-0.0661654	0.913401	-0.54548	0	0	-0.445552	0.118728	-0.141587	-0.115924	-0.163584	-0.151402	0.402481	1.57079	0	0	0.199548	-0.285492	0.0837651	0.996623	1.57079	0	0
0.199353	-0.0488021	-0.151078	-1.47067	0.271193	0.945723	0.324634	0.415467	0.151748	-0.0467633	0.554181	-0.131669	0	0	-0.13357	-0.100345	-0.0719054	0.929986	-0.557229	0	0	-0.44461	0.120619	-0.137754	-0.111953	-0.165196	-0.148821	0.405382	1.57079	0	0	0.197926	-0.281146	0.0850267	0.985404	1.57079	0	0
0.20334	-0.0509164	-0.150268	-1.47142	0.271158	0.946545	0.331062	0.413618	0.154496	-0.0484513	0.562529	-0.119716	0	0	-0.120722	-0.106996	-0.0773946	0.946742	-0.567015	0	0	-0.443688	0.122389	-0.134015	-0.107755	-0.166808	-0.146042	0.408549	1.57079	0	0	0.196491	-0.276912	0.0865203	0.973852	1.57079	0	0
0.207327	-0.0528939	-0.149408	-1.47206	0.271103	0.947369	0.337394	0.411536	0.157112	-0.0498949	0.570298	-0.107742	0	0	-0.107306	-0.113476	-0.0826147	0.963575	-0.574817	0	0	-0.442795	0.124034	-0.130367	-0.103341	-0.16842	-0.143073	0.411974	1.57079	0	0	0.195233	-0.272795	0.0882486	0.961984	1.57079	0	0
0.211314	-0.0547306	-0.148513	-1.47259	0.271024	0.948187	0.34362	0.409209	0.159596	-0.0510979	0.577502	-0.0957844	0	0	-0.093387	-0.119755	-0.0875512	0.980391	-0.580629	0	0	-0.441936	0.125546	-0.126807	-0.0987189	-0.17003	-0.139919	0.415642	1.57079	0	0	0.194143	-0.268798	0.0902128	0.949816	1.57079	0	0
0.215301	-0.0564234	-0.147598	-1.47301	0.270914	0.948993	0.349729	0.406628	0.16195	-0.0520632	0.584151	-0.083878	0	0	-0.079033	-0.125804	-0.0921934	0.997095	-0.584462	0	0	-0.441121	0.126922	-0.123327	-0.0938959	-0.17164	-0.136588	0.419538	1.57079	0	0	0.19321	-0.264924	0.0924122	0.937365	1.57079	0	0
0.219288	-0.0579697	-0.146678	-1.47334	0.270768	0.949778	0.355707	0.403779	0.164176	-0.0527927	0.590263	-0.0720547	0	0	-0.0643124	-0.131595	-0.0965355	1.0136	-0.586339	0	0	-0.440357	0.128156	-0.11992	-0.0888781	-0.17325	-0.133085	0.423642	1.57079	0	0	0.192421	-0.261173	0.0948443	0.924647	1.57079	0	0
0.223275	-0.0593666	-0.145768	-1.4736	0.270577	0.950532	0.361539	0.400651	0.166277	-0.0532875	0.59585	-0.0603438	0	0	-0.049292	-0.137102	-0.100576	1.02981	-0.586299	0	0	-0.439654	0.129243	-0.116575	-0.0836699	-0.17486	-0.129416	0.42793	1.57079	0	0	0.191763	-0.257545	0.0975046	0.91168	1.57079	0	0
0.227262	-0.0606117	-0.144882	-1.47379	0.270334	0.951246	0.36721	0.397234	0.168255	-0.0535474	0.60093	-0.0487722	0	0	-0.0340366	-0.1423	-0.10432	1.04564	-0.58439	0	0	-0.43902	0.130176	-0.113281	-0.0782733	-0.176471	-0.125586	0.432377	1.57079	0	0	0.191222	-0.254036	0.100387	0.898482	1.57079	0	0
0.231249	-0.0617008	-0.144028	-1.47394	0.270103	0.951976	0.37284	0.393517	0.170112	-0.0535716	0.605519	-0.0373648	0	0	-0.0186102	-0.147167	-0.107778	1.06102	-0.580677	0	0	-0.438463	0.130949	-0.110027	-0.0726887	-0.178084	-0.121599	0.436951	1.57079	0	0	0.190782	-0.250647	0.103482	0.885071	1.57079	0	0
0.235236	-0.0626307	-0.143219	-1.47405	0.269883	0.952719	0.378432	0.389493	0.17185	-0.0533579	0.609636	-0.0261449	0	0	-0.00307221	-0.151683	-0.110966	1.07587	-0.575233	0	0	-0.43799	0.131555	-0.106801	-0.0669169	-0.1797	-0.117463	0.441627	1.57079	0	0	0.190429	-0.247373	0.10678	0.871466	1.57079	0	0
0.239223	-0.0633981	-0.142464	-1.47416	0.269672	0.953475	0.38399	0.385157	0.173472	-0.0529037	0.613299	-0.0151347	0	0	0.0125201	-0.155832	-0.113906	1.09013	-0.56815	0	0	-0.437608	0.131987	-0.10359	-0.0609611	-0.181318	-0.113189	0.446384	1.57079	0	0	0.190146	-0.244211	0.110268	0.857689	1.57079	0	0
0.24321	-0.0639998	-0.141771	-1.47427	0.26947	0.954242	0.389518	0.380506	0.174978	-0.0522056	0.616527	-0.00435532	0	0	0.0281123	-0.159601	-0.116627	1.10371	-0.559531	0	0	-0.437322	0.132238	-0.100384	-0.0548264	-0.182938	-0.108797	0.451212	1.57079	0	0	0.189916	-0.241156	0.11393	0.843761	1.57079	0	0
0.247197	-0.0644327	-0.141149	-1.47441	0.269275	0.955019	0.39502	0.37554	0.176368	-0.0512606	0.61934	0.00617355	0	0	0.0436531	-0.162978	-0.119159	1.11657	-0.549495	0	0	-0.437134	0.132303	-0.09717	-0.0485201	-0.18456	-0.104312	0.456104	1.57079	0	0	0.189725	-0.238202	0.117749	0.829704	1.57079	0	0
0.251184	-0.0646943	-0.1406	-1.4746	0.269088	0.955803	0.4005	0.370264	0.177643	-0.0500654	0.621758	0.0164349	0	0	0.059094	-0.165956	-0.12154	1.12864	-0.538169	0	0	-0.437047	0.132174	-0.0939366	-0.0420509	-0.186182	-0.099763	0.46106	1.57079	0	0	0.189557	-0.235345	0.121707	0.81554	1.57079	0	0
0.255172	-0.0647825	-0.140128	-1.47485	0.268907	0.956592	0.40596	0.364685	0.178802	-0.0486174	0.623805	0.0264144	0	0	0.07439	-0.168533	-0.123807	1.13987	-0.525687	0	0	-0.437059	0.131847	-0.090672	-0.0354291	-0.187802	-0.0951824	0.466082	1.57079	0	0	0.189397	-0.232576	0.125784	0.801291	1.57079	0	0
0.259159	-0.0646966	-0.139733	-1.47519	0.268732	0.957383	0.411403	0.358815	0.179847	-0.0469143	0.625503	0.0361009	0	0	0.0895005	-0.170707	-0.126002	1.15021	-0.512187	0	0	-0.437166	0.131316	-0.0873647	-0.0286659	-0.189419	-0.0906022	0.471175	1.57079	0	0	0.18923	-0.22989	0.129963	0.786978	1.57079	0	0
0.263146	-0.0644365	-0.139412	-1.47563	0.26856	0.958175	0.416832	0.35267	0.180776	-0.0449548	0.626877	0.045487	0	0	0.10439	-0.172481	-0.128165	1.15962	-0.4978	0	0	-0.437362	0.130579	-0.084004	-0.0217732	-0.19103	-0.0860536	0.476345	1.57079	0	0	0.189043	-0.22728	0.134223	0.772621	1.57079	0	0
0.267133	-0.0640039	-0.139162	-1.47619	0.268392	0.958964	0.42225	0.346269	0.181591	-0.0427388	0.627954	0.0545681	0	0	0.119029	-0.17386	-0.130334	1.16805	-0.48266	0	0	-0.437637	0.129633	-0.0805797	-0.0147638	-0.192635	-0.0815671	0.481602	1.57079	0	0	0.188821	-0.224739	0.138546	0.758242	1.57079	0	0
0.27112	-0.0634015	-0.138976	-1.47689	0.268227	0.959747	0.427659	0.339635	0.182293	-0.0402675	0.628761	0.0633426	0	0	0.133391	-0.174852	-0.132546	1.17547	-0.466892	0	0	-0.437982	0.128477	-0.077083	-0.00765141	-0.19423	-0.0771748	0.486956	1.57079	0	0	0.188554	-0.22226	0.142913	0.743858	1.57079	0	0
0.275107	-0.0626333	-0.138846	-1.47774	0.268063	0.96052	0.43306	0.332791	0.182882	-0.0375438	0.629324	0.0718116	0	0	0.147455	-0.175465	-0.134835	1.18185	-0.450619	0	0	-0.438383	0.127112	-0.0735061	-0.000450234	-0.195814	-0.0729097	0.492422	1.57079	0	0	0.188227	-0.219839	0.147308	0.729492	1.57079	0	0
0.279094	-0.0617047	-0.138763	-1.47875	0.267899	0.961281	0.438456	0.325763	0.183361	-0.0345726	0.629672	0.0799791	0	0	0.161204	-0.175712	-0.13723	1.18717	-0.433954	0	0	-0.43883	0.125541	-0.0698425	0.00682612	-0.197385	-0.0688009	0.498011	1.57079	0	0	0.187831	-0.217469	0.151714	0.715162	1.57079	0	0
0.283081	-0.060622	-0.138717	-1.47993	0.267737	0.962026	0.443847	0.318578	0.183732	-0.0313613	0.629833	0.0878519	0	0	0.174626	-0.175608	-0.139758	1.19141	-0.417001	0	0	-0.439309	0.123767	-0.0660875	0.0141657	-0.19894	-0.0648722	0.503733	1.57079	0	0	0.187356	-0.215148	0.156117	0.700887	1.57079	0	0
0.287068	-0.059393	-0.138697	-1.48129	0.267573	0.962751	0.449235	0.311265	0.183998	-0.0279202	0.629833	0.0954391	0	0	0.187714	-0.175168	-0.142441	1.19456	-0.399859	0	0	-0.439807	0.121797	-0.0622393	0.0215586	-0.200478	-0.0611415	0.509597	1.57079	0	0	0.186793	-0.212871	0.160504	0.686687	1.57079	0	0
0.291055	-0.0580262	-0.138691	-1.48282	0.26741	0.963453	0.454621	0.303853	0.184162	-0.0242623	0.629701	0.102751	0	0	0.200467	-0.17441	-0.145293	1.19661	-0.38262	0	0	-0.440311	0.11964	-0.058299	0.0289973	-0.201998	-0.0576224	0.515608	1.57079	0	0	0.186137	-0.210637	0.164867	0.672581	1.57079	0	0
0.295042	-0.0565311	-0.138688	-1.48452	0.267246	0.964129	0.460004	0.296373	0.184226	-0.0204026	0.629461	0.1098	0	0	0.212884	-0.173353	-0.148328	1.19755	-0.365367	0	0	-0.440808	0.117305	-0.0542697	0.0364757	-0.203498	-0.0543236	0.521769	1.57079	0	0	0.185384	-0.208445	0.169194	0.658588	1.57079	0	0
0.299029	-0.0549177	-0.138678	-1.48639	0.267082	0.964775	0.465386	0.288852	0.184194	-0.016358	0.629139	0.116599	0	0	0.224968	-0.172015	-0.151553	1.19739	-0.34818	0	0	-0.441288	0.114804	-0.050156	0.0439895	-0.204977	-0.0512495	0.528082	1.57079	0	0	0.184528	-0.206294	0.17348	0.644729	1.57079	0	0
0.303016	-0.0531964	-0.138651	-1.48842	0.266918	0.965388	0.470766	0.281316	0.184068	-0.0121464	0.62876	0.123161	0	0	0.236721	-0.170417	-0.154974	1.19612	-0.331131	0	0	-0.441743	0.112149	-0.0459636	0.0515356	-0.206435	-0.0484	0.534546	1.57079	0	0	0.183567	-0.204185	0.177717	0.631022	1.57079	0	0
0.307003	-0.0513778	-0.1386	-1.4906	0.266754	0.965967	0.476144	0.27379	0.183853	-0.00778708	0.628345	0.129502	0	0	0.248146	-0.168577	-0.158592	1.19375	-0.314285	0	0	-0.442166	0.109353	-0.0416996	0.0591123	-0.207873	-0.0457713	0.541161	1.57079	0	0	0.182498	-0.202118	0.181899	0.617488	1.57079	0	0
0.31099	-0.0494727	-0.138519	-1.49292	0.266591	0.966508	0.48152	0.266296	0.183551	-0.0033002	0.627916	0.135635	0	0	0.259244	-0.166514	-0.162406	1.19029	-0.297703	0	0	-0.442551	0.10643	-0.0373719	0.0667191	-0.209289	-0.0433561	0.547924	1.57079	0	0	0.181318	-0.200095	0.18602	0.604148	1.57079	0	0
0.314977	-0.0474917	-0.138402	-1.49537	0.26643	0.967009	0.486895	0.258851	0.183167	0.00129376	0.627493	0.141576	0	0	0.270016	-0.164245	-0.166413	1.18573	-0.28144	0	0	-0.442897	0.103394	-0.0329888	0.0743562	-0.210687	-0.0411439	0.55483	1.57079	0	0	0.180026	-0.198116	0.19007	0.59102	1.57079	0	0
0.318964	-0.0454453	-0.138248	-1.49794	0.26627	0.967469	0.492267	0.251472	0.182703	0.00597415	0.627096	0.14734	0	0	0.280461	-0.161789	-0.170607	1.18008	-0.265545	0	0	-0.443202	0.10026	-0.0285594	0.0820248	-0.212066	-0.0391213	0.561876	1.57079	0	0	0.178619	-0.196181	0.194042	0.578125	1.57079	0	0
0.322951	-0.0433438	-0.138054	-1.50061	0.266112	0.967886	0.497636	0.244172	0.182164	0.0107205	0.62674	0.152942	0	0	0.290578	-0.159162	-0.174981	1.17336	-0.25006	0	0	-0.443468	0.0970405	-0.024093	0.0897271	-0.213429	-0.0372719	0.569057	1.57079	0	0	0.177095	-0.194291	0.197925	0.565481	1.57079	0	0
0.326939	-0.0411971	-0.13782	-1.50338	0.265958	0.968258	0.503004	0.236965	0.181553	0.0155125	0.626442	0.158395	0	0	0.300364	-0.156378	-0.179526	1.16557	-0.235025	0	0	-0.443697	0.0937511	-0.0195993	0.0974661	-0.21478	-0.0355753	0.576366	1.57079	0	0	0.175453	-0.192445	0.201707	0.553107	1.5708	0	0
0.330926	-0.0390153	-0.137547	-1.50624	0.265808	0.968584	0.508368	0.229857	0.180874	0.0203305	0.626215	0.163713	0	0	0.309818	-0.153452	-0.184231	1.15672	-0.220472	0	0	-0.443893	0.0904061	-0.015089	0.105246	-0.21612	-0.0340078	0.583797	1.57079	0	0	0.173692	-0.190642	0.205375	0.541019	1.5708	0	0
0.334913	-0.0368085	-0.137235	-1.50917	0.265662	0.968864	0.51373	0.222855	0.180132	0.0251549	0.626072	0.16891	0	0	0.318933	-0.150398	-0.189082	1.14681	-0.206428	0	0	-0.444061	0.0870205	-0.0105738	0.113071	-0.217454	-0.0325433	0.591338	1.57079	0	0	0.171808	-0.188882	0.208918	0.529232	1.5708	0	0
0.3389	-0.0345866	-0.136889	-1.51216	0.265521	0.969098	0.519089	0.215964	0.179331	0.0299664	0.626024	0.173998	0	0	0.327707	-0.147229	-0.194063	1.13587	-0.192915	0	0	-0.444206	0.0836095	-0.00606668	0.120947	-0.218784	-0.0311534	0.598981	1.57079	0	0	0.169801	-0.187165	0.212323	0.517759	1.5708	0	0
0.342887	-0.0323594	-0.136509	-1.51521	0.265387	0.969284	0.524446	0.209188	0.178477	0.0347459	0.62608	0.17899	0	0	0.336137	-0.143957	-0.199154	1.12389	-0.179953	0	0	-0.444334	0.080188	-0.00158078	0.128881	-0.220114	-0.0298081	0.606711	1.57079	0	0	0.16767	-0.18549	0.215578	0.506613	1.5708	0	0
0.346874	-0.030136	-0.136098	-1.51829	0.26526	0.969423	0.5298	0.202529	0.177574	0.0394745	0.626247	0.183895	0	0	0.34422	-0.140592	-0.204335	1.1109	-0.167556	0	0	-0.44445	0.0767705	0.00287038	0.136881	-0.221446	-0.0284761	0.614517	1.57079	0	0	0.165417	-0.183855	0.218672	0.495802	1.5708	0	0
0.350861	-0.0279249	-0.135657	-1.52139	0.26514	0.969515	0.53515	0.195992	0.176626	0.0441339	0.626533	0.188722	0	0	0.351955	-0.137143	-0.209583	1.0969	-0.155733	0	0	-0.444561	0.0733702	0.00727401	0.144954	-0.222783	-0.0271252	0.622383	1.57079	0	0	0.163042	-0.182261	0.221593	0.485336	1.5708	0	0
0.354848	-0.0257341	-0.135189	-1.52451	0.265028	0.969559	0.540498	0.189575	0.175638	0.048707	0.626944	0.193479	0	0	0.359338	-0.133618	-0.214873	1.08191	-0.144491	0	0	-0.444673	0.0699994	0.0116183	0.153108	-0.224129	-0.025722	0.630295	1.5708	0	0	0.160544	-0.180706	0.224331	0.475224	1.5708	0	0
0.358835	-0.0235713	-0.134698	-1.52764	0.264926	0.969557	0.545844	0.183279	0.174614	0.0531771	0.627486	0.198175	0	0	0.366367	-0.13002	-0.220176	1.06594	-0.133833	0	0	-0.444792	0.0666699	0.0158923	0.161349	-0.225486	-0.024233	0.638237	1.5708	0	0	0.157924	-0.179189	0.226877	0.465471	1.5708	0	0
0.362822	-0.0214437	-0.134188	-1.53077	0.264833	0.969508	0.551188	0.177101	0.173557	0.0575281	0.628161	0.202818	0	0	0.373039	-0.126357	-0.225464	1.04902	-0.123758	0	0	-0.444922	0.0633929	0.0200855	0.169681	-0.226859	-0.0226269	0.646198	1.5708	0	0	0.15518	-0.177709	0.229221	0.456084	1.5708	0	0
0.366809	-0.0193586	-0.133661	-1.53389	0.26475	0.969413	0.556531	0.171035	0.172473	0.0617449	0.628973	0.207414	0	0	0.379349	-0.12263	-0.230702	1.03115	-0.11426	0	0	-0.44507	0.0601792	0.0241893	0.178108	-0.228251	-0.0208764	0.654165	1.5708	0	0	0.152312	-0.176265	0.231357	0.447067	1.5708	0	0
0.370796	-0.0173224	-0.133123	-1.53699	0.264677	0.969274	0.561874	0.165078	0.171365	0.0658134	0.629922	0.211971	0	0	0.385295	-0.118844	-0.235856	1.01237	-0.105334	0	0	-0.445239	0.0570381	0.0281976	0.186629	-0.229664	-0.0189591	0.662129	1.5708	0	0	0.149319	-0.174856	0.233281	0.438422	1.5708	0	0
0.374783	-0.0153416	-0.132577	-1.54008	0.264616	0.969092	0.567217	0.159224	0.170237	0.0697216	0.631011	0.216492	0	0	0.390876	-0.114999	-0.240886	0.992683	-0.0969706	0	0	-0.445435	0.0539782	0.0321076	0.195243	-0.2311	-0.0168582	0.670083	1.5708	0	0	0.146205	-0.17348	0.234992	0.430149	1.5708	0	0
0.37877	-0.0134216	-0.132028	-1.54314	0.264565	0.968866	0.572562	0.153467	0.169094	0.0734593	0.632239	0.220981	0	0	0.396089	-0.111096	-0.245753	0.97213	-0.0891587	0	0	-0.445659	0.0510062	0.0359226	0.203942	-0.232564	-0.0145666	0.678024	1.5708	0	0	0.142977	-0.172135	0.236499	0.422239	1.5708	0	0
0.382757	-0.011568	-0.131479	-1.54618	0.264526	0.968599	0.577911	0.147801	0.16794	0.0770189	0.633607	0.225442	0	0	0.400936	-0.107137	-0.250412	0.950736	-0.0818858	0	0	-0.445914	0.0481286	0.0396493	0.212716	-0.234057	-0.0120844	0.685953	1.5708	0	0	0.139645	-0.170817	0.237817	0.414676	1.5708	0	0
0.386744	-0.00978603	-0.130935	-1.54919	0.264498	0.968291	0.583265	0.142222	0.166779	0.0803948	0.635112	0.229874	0	0	0.405418	-0.103121	-0.254817	0.928534	-0.0751375	0	0	-0.446201	0.045351	0.0432962	0.221552	-0.235583	-0.00941527	0.69387	1.5708	0	0	0.136222	-0.169524	0.238963	0.407444	1.5708	0	0
0.390731	-0.00808059	-0.130398	-1.55219	0.264482	0.967942	0.588625	0.136722	0.165617	0.0835844	0.636754	0.234275	0	0	0.409539	-0.0990485	-0.258921	0.905562	-0.0688985	0	0	-0.446518	0.0426778	0.0468731	0.230438	-0.237144	-0.0065638	0.701779	1.5708	0	0	0.132718	-0.168252	0.239955	0.400526	1.5708	0	0
0.394718	-0.00645632	-0.129868	-1.55516	0.264477	0.967555	0.593992	0.1313	0.164458	0.0865877	0.638531	0.238644	0	0	0.413305	-0.0949202	-0.262676	0.88186	-0.0631522	0	0	-0.446866	0.0401125	0.0503907	0.23936	-0.238742	-0.00353518	0.709683	1.5708	0	0	0.129147	-0.166997	0.240809	0.393904	1.5708	0	0
0.398706	-0.0049175	-0.129348	-1.55812	0.264484	0.967129	0.59937	0.12595	0.163307	0.0894076	0.640438	0.242974	0	0	0.416726	-0.0907374	-0.266032	0.857473	-0.0578809	0	0	-0.447242	0.0376578	0.0538594	0.248305	-0.240378	-0.000335877	0.717587	1.5708	0	0	0.125517	-0.165756	0.241539	0.38756	1.5708	0	0
0.402693	-0.00346803	-0.128836	-1.56106	0.264503	0.966667	0.604758	0.120668	0.16217	0.0920492	0.642474	0.247259	0	0	0.419809	-0.0865026	-0.268944	0.832453	-0.053066	0	0	-0.447644	0.0353156	0.0572891	0.257261	-0.242053	0.00302591	0.725492	1.5708	0	0	0.12184	-0.164528	0.242159	0.381478	1.5708	0	0
0.40668	-0.00211133	-0.128333	-1.564	0.264532	0.966169	0.61016	0.115452	0.161052	0.0945195	0.644634	0.251491	0	0	0.422567	-0.0822195	-0.271364	0.806851	-0.048688	0	0	-0.44807	0.0330867	0.060689	0.266217	-0.243765	0.0065399	0.733398	1.5708	0	0	0.118124	-0.163308	0.242677	0.37564	1.5708	0	0
0.410667	-0.000850259	-0.127838	-1.56694	0.264572	0.965636	0.615577	0.110297	0.159957	0.0968276	0.646914	0.255661	0	0	0.425011	-0.0778932	-0.273251	0.780728	-0.0447265	0	0	-0.448516	0.0309709	0.0640682	0.275162	-0.245511	0.010194	0.741304	1.5708	0	0	0.114377	-0.162095	0.243102	0.370032	1.5708	0	0
0.414654	0.000313129	-0.127349	-1.56989	0.264623	0.965071	0.62101	0.105202	0.15889	0.098985	0.649311	0.259761	0	0	0.427156	-0.0735303	-0.274565	0.754145	-0.0411609	0	0	-0.448978	0.0289665	0.0674367	0.284085	-0.247288	0.0139742	0.749208	1.5708	0	0	0.110609	-0.160887	0.24344	0.364636	1.5708	0	0
0.418641	0.00137756	-0.126864	-1.57285	0.264682	0.964473	0.626461	0.100166	0.157854	0.101006	0.65182	0.26378	0	0	0.429018	-0.069139	-0.275272	0.727169	-0.0379698	0	0	-0.449451	0.0270709	0.070804	0.292977	-0.24909	0.0178656	0.757108	1.5708	0	0	0.10683	-0.15968	0.2437	0.359429	1.5708	0	0
0.422628	0.00234254	-0.12638	-1.57583	0.264752	0.963844	0.631932	0.0951879	0.156853	0.102906	0.654435	0.267706	0	0	0.430613	-0.0647294	-0.275346	0.699872	-0.0351313	0	0	-0.449929	0.0252808	0.0741795	0.301827	-0.250916	0.0218515	0.765002	1.5708	0	0	0.103052	-0.158471	0.243892	0.354389	1.5708	0	0
0.426615	0.00320834	-0.125894	-1.57884	0.26483	0.963186	0.637425	0.0902645	0.155889	0.104703	0.657152	0.271529	0	0	0.431958	-0.0603128	-0.274766	0.672327	-0.0326229	0	0	-0.450408	0.0235926	0.0775713	0.310622	-0.252759	0.0259144	0.772889	1.5708	0	0	0.0992854	-0.157259	0.244024	0.349493	1.5708	0	0
0.430602	0.00397611	-0.125406	-1.58189	0.264916	0.962501	0.642943	0.0853926	0.154965	0.106416	0.659965	0.275235	0	0	0.433069	-0.0559021	-0.273518	0.644614	-0.0304214	0	0	-0.450883	0.0220021	0.0809864	0.319352	-0.254615	0.0300356	0.78077	1.5708	0	0	0.0955427	-0.156041	0.244107	0.344716	1.5708	0	0
0.434589	0.00464785	-0.124914	-1.58497	0.265011	0.961791	0.648486	0.0805674	0.154083	0.108065	0.662867	0.278811	0	0	0.433963	-0.0515112	-0.271596	0.616816	-0.0285032	0	0	-0.451349	0.0205044	0.0844302	0.328001	-0.25648	0.0341957	0.788644	1.5708	0	0	0.0918349	-0.154814	0.24415	0.340034	1.5708	0	0
0.438576	0.0052265	-0.124418	-1.5881	0.265114	0.961057	0.654058	0.0757828	0.153242	0.109669	0.66585	0.282243	0	0	0.434654	-0.0471549	-0.269002	0.589017	-0.0268442	0	0	-0.451804	0.019094	0.0879066	0.336558	-0.258345	0.0383747	0.79651	1.5708	0	0	0.0881728	-0.153577	0.24416	0.335423	1.5708	0	0
0.442563	0.00571592	-0.123921	-1.59126	0.265224	0.960302	0.65966	0.0710314	0.152443	0.111249	0.668908	0.285517	0	0	0.435157	-0.0428485	-0.265746	0.561307	-0.0254203	0	0	-0.452244	0.0177646	0.0914177	0.345009	-0.260207	0.0425532	0.804367	1.5708	0	0	0.0845663	-0.152328	0.244146	0.330863	1.5708	0	0
0.44655	0.00612095	-0.123424	-1.59448	0.265341	0.959528	0.665294	0.0663044	0.151685	0.112825	0.672032	0.288618	0	0	0.435486	-0.0386075	-0.261849	0.533775	-0.0242077	0	0	-0.452667	0.0165092	0.0949641	0.35334	-0.262056	0.0467129	0.812214	1.5708	0	0	0.0810244	-0.151068	0.244113	0.326332	1.5708	0	0
0.450537	0.00644735	-0.122929	-1.59773	0.265465	0.958739	0.670962	0.0615919	0.150966	0.114418	0.675214	0.291528	0	0	0.435655	-0.0344478	-0.25734	0.506515	-0.0231839	0	0	-0.453072	0.0153202	0.0985449	0.361539	-0.263888	0.0508371	0.820047	1.5708	0	0	0.0775547	-0.149795	0.24407	0.321814	1.5708	0	0
0.454524	0.00670175	-0.122442	-1.60103	0.265596	0.957937	0.676668	0.0568832	0.150282	0.116047	0.678445	0.294231	0	0	0.435675	-0.0303844	-0.252257	0.479619	-0.0223279	0	0	-0.453457	0.0141894	0.102157	0.369592	-0.265695	0.0549111	0.827865	1.5708	0	0	0.074164	-0.148512	0.244019	0.317291	1.5708	0	0
0.458511	0.00689153	-0.121965	-1.60437	0.265732	0.957124	0.682412	0.0521669	0.149629	0.117731	0.681716	0.29671	0	0	0.43556	-0.0264319	-0.246646	0.453181	-0.0216216	0	0	-0.453823	0.0131081	0.105795	0.377486	-0.26747	0.0589223	0.835665	1.5708	0	0	0.0708576	-0.147218	0.243967	0.312749	1.57079	0	0
0.462498	0.00702463	-0.121504	-1.60775	0.265873	0.956304	0.688199	0.0474307	0.149004	0.119486	0.685016	0.298944	0	0	0.435319	-0.0226031	-0.24056	0.427294	-0.0210495	0	0	-0.454169	0.0120678	0.109451	0.385209	-0.269208	0.06286	0.843442	1.5708	0	0	0.0676398	-0.145914	0.243915	0.308176	1.57079	0	0
0.466485	0.00710958	-0.121064	-1.61116	0.26602	0.955481	0.694029	0.0426619	0.1484	0.121329	0.688337	0.300915	0	0	0.434964	-0.0189091	-0.234058	0.402049	-0.0206002	0	0	-0.454497	0.0110597	0.113117	0.392747	-0.2709	0.0667145	0.851193	1.5708	0	0	0.0645138	-0.144603	0.243866	0.303561	1.57079	0	0
0.470472	0.00715548	-0.120651	-1.61459	0.266171	0.954657	0.699907	0.0378474	0.147811	0.123273	0.691668	0.3026	0	0	0.434504	-0.0153587	-0.227204	0.377534	-0.0202664	0	0	-0.454805	0.0100753	0.116782	0.400089	-0.272541	0.0704767	0.858914	1.5708	0	0	0.0614819	-0.143286	0.243822	0.298897	1.57079	0	0
0.47446	0.00717182	-0.120271	-1.61804	0.266326	0.953837	0.705833	0.0329746	0.147231	0.125329	0.694998	0.303977	0	0	0.433948	-0.0119581	-0.220069	0.353836	-0.0200462	0	0	-0.455096	0.00910627	0.120433	0.407223	-0.274124	0.0741381	0.8666	1.5708	0	0	0.058546	-0.141965	0.243785	0.294174	1.57079	0	0
0.478447	0.00716839	-0.119928	-1.6215	0.266486	0.953023	0.71181	0.0280312	0.146651	0.127506	0.698317	0.305024	0	0	0.433304	-0.00871042	-0.212723	0.331035	-0.0199431	0	0	-0.455368	0.0081448	0.124056	0.414135	-0.27564	0.0776908	0.874243	1.5708	0	0	0.0557073	-0.140641	0.243754	0.289386	1.57079	0	0
0.482434	0.00715519	-0.119628	-1.62495	0.266649	0.95222	0.717841	0.0230059	0.146064	0.129808	0.701614	0.305715	0	0	0.432581	-0.00561578	-0.20524	0.309206	-0.0199665	0	0	-0.455623	0.00718343	0.127633	0.420814	-0.277084	0.081128	0.881839	1.5708	0	0	0.0529661	-0.139316	0.243729	0.284526	1.57079	0	0
0.486421	0.00714243	-0.119376	-1.62839	0.266816	0.951431	0.723928	0.0178878	0.145461	0.132238	0.704881	0.306025	0	0	0.431783	-0.00267111	-0.197694	0.288417	-0.0201313	0	0	-0.45586	0.00621514	0.131147	0.427249	-0.278447	0.0844439	0.88938	1.5708	0	0	0.0503216	-0.137993	0.243711	0.27959	1.57079	0	0
0.490408	0.00714043	-0.119177	-1.63179	0.266987	0.950659	0.730072	0.0126668	0.144833	0.134796	0.708106	0.305926	0	0	0.430916	0.000129888	-0.190156	0.268731	-0.0204584	0	0	-0.456079	0.00523336	0.134578	0.433429	-0.279724	0.087634	0.89686	1.5708	0	0	0.0477722	-0.136673	0.243698	0.274579	1.57079	0	0
0.494395	0.00715942	-0.119036	-1.63515	0.267163	0.949909	0.736276	0.00733351	0.144169	0.137478	0.71128	0.305391	0	0	0.429983	0.00279644	-0.182697	0.250202	-0.0209734	0	0	-0.456281	0.00423214	0.137907	0.439343	-0.280907	0.0906944	0.904273	1.5708	0	0	0.0453153	-0.135359	0.243687	0.269492	1.57079	0	0
0.498382	0.00720926	-0.118956	-1.63845	0.267343	0.949183	0.742541	0.00187933	0.143462	0.140276	0.714393	0.304389	0	0	0.428985	0.00534029	-0.175382	0.232875	-0.0217067	0	0	-0.456466	0.00320643	0.141113	0.44498	-0.281991	0.0936221	0.911612	1.5708	0	0	0.0429484	-0.134053	0.243677	0.26433	1.57079	0	0
0.502369	0.00729938	-0.118943	-1.64168	0.267528	0.948486	0.74887	-0.00370391	0.142701	0.14318	0.717437	0.30289	0	0	0.427922	0.00777537	-0.168271	0.216788	-0.022692	0	0	-0.456636	0.00215213	0.144173	0.450329	-0.28297	0.0964142	0.918871	1.5708	0	0	0.0406682	-0.132758	0.243664	0.259097	1.57079	0	0
0.506356	0.00743869	-0.119001	-1.64481	0.267719	0.947821	0.755264	-0.00942365	0.141877	0.146175	0.720402	0.300863	0	0	0.42679	0.0101172	-0.161421	0.201971	-0.0239654	0	0	-0.456791	0.0010659	0.147066	0.455381	-0.283839	0.099068	0.926044	1.5708	0	0	0.0384706	-0.131476	0.243643	0.253798	1.57079	0	0
0.510343	0.00763544	-0.119135	-1.64783	0.267915	0.947191	0.761724	-0.0152863	0.14098	0.149244	0.723278	0.298272	0	0	0.425588	0.0123822	-0.154882	0.188444	-0.025564	0	0	-0.456933	-5.50464e-05	0.149771	0.460126	-0.284591	0.101581	0.933126	1.5708	0	0	0.0363501	-0.130211	0.243609	0.248444	1.57079	0	0
0.51433	0.00789716	-0.119349	-1.65072	0.268118	0.946598	0.768252	-0.0212972	0.140004	0.152366	0.726058	0.295085	0	0	0.42431	0.0145873	-0.148697	0.176221	-0.0275253	0	0	-0.457064	-0.00121293	0.152265	0.464555	-0.285223	0.10395	0.94011	1.5708	0	0	0.0342998	-0.128966	0.243552	0.243048	1.57079	0	0
0.518317	0.00823051	-0.119647	-1.65347	0.268328	0.946046	0.774848	-0.0274602	0.138938	0.155517	0.728732	0.291263	0	0	0.422952	0.0167492	-0.142905	0.16531	-0.0298862	0	0	-0.457189	-0.00240935	0.154529	0.46866	-0.285728	0.106174	0.946989	1.5708	0	0	0.0323119	-0.127746	0.243465	0.237629	1.57079	0	0
0.522304	0.00864124	-0.120033	-1.65606	0.268545	0.945537	0.781514	-0.0337775	0.137775	0.15867	0.731293	0.286769	0	0	0.42151	0.018884	-0.137537	0.15571	-0.0326822	0	0	-0.457308	-0.00364516	0.156543	0.472433	-0.286102	0.108251	0.953759	1.5708	0	0	0.030378	-0.126555	0.243334	0.232208	1.57079	0	0
0.526291	0.00913408	-0.120508	-1.65847	0.268769	0.945074	0.788249	-0.0402493	0.136509	0.161796	0.733735	0.281564	0	0	0.41998	0.021007	-0.13262	0.147417	-0.035947	0	0	-0.457426	-0.00492041	0.158289	0.47587	-0.286338	0.110179	0.960411	1.5708	0	0	0.0284893	-0.125398	0.243146	0.226806	1.57079	0	0
0.530278	0.00971258	-0.121076	-1.66069	0.269003	0.944658	0.795052	-0.0468733	0.135132	0.164862	0.736051	0.275607	0	0	0.418359	0.0231316	-0.128171	0.14042	-0.0397108	0	0	-0.457546	-0.00623436	0.159748	0.478966	-0.286434	0.111959	0.96694	1.5708	0	0	0.0266375	-0.124278	0.242887	0.221449	1.57079	0	0
0.534265	0.0103792	-0.121737	-1.66271	0.269245	0.944292	0.801924	-0.0536454	0.133639	0.167835	0.738236	0.268855	0	0	0.416647	0.0252694	-0.124205	0.134703	-0.0440003	0	0	-0.457671	-0.00758561	0.160907	0.481716	-0.286386	0.113592	0.973337	1.5708	0	0	0.0248139	-0.123201	0.242542	0.216161	1.57079	0	0
0.538252	0.0111351	-0.122491	-1.66452	0.269497	0.943978	0.808863	-0.060559	0.132025	0.17068	0.740285	0.261267	0	0	0.414844	0.0274303	-0.120728	0.130247	-0.0488375	0	0	-0.457804	-0.00897208	0.161752	0.484119	-0.286189	0.115078	0.979594	1.5708	0	0	0.0230105	-0.122171	0.242095	0.21097	1.57079	0	0
0.542239	0.0119806	-0.12334	-1.6661	0.269759	0.943715	0.815867	-0.0676054	0.130285	0.173361	0.742197	0.252799	0	0	0.412952	0.0296218	-0.117745	0.12703	-0.0542391	0	0	-0.457949	-0.0103912	0.162271	0.486175	-0.285841	0.11642	0.985704	1.5708	0	0	0.0212194	-0.121192	0.241533	0.205903	1.57079	0	0
0.546227	0.0129153	-0.12428	-1.66745	0.270032	0.943507	0.822935	-0.0747731	0.128413	0.17584	0.743969	0.243407	0	0	0.410976	0.03185	-0.115255	0.125026	-0.0602156	0	0	-0.458109	-0.0118399	0.162456	0.487883	-0.285341	0.117623	0.991656	1.5708	0	0	0.0194332	-0.120267	0.240842	0.200989	1.57079	0	0
0.550214	0.0139384	-0.125311	-1.66857	0.270317	0.943353	0.830063	-0.0820476	0.126407	0.17808	0.745602	0.233051	0	0	0.408922	0.0341192	-0.113257	0.124204	-0.0667706	0	0	-0.458288	-0.013315	0.162299	0.489245	-0.284687	0.118691	0.997444	1.5708	0	0	0.0176446	-0.1194	0.240009	0.196256	1.57079	0	0
0.554201	0.0150484	-0.126428	-1.66945	0.270614	0.943253	0.837249	-0.0894118	0.12426	0.180045	0.7471	0.221686	0	0	0.406797	0.036432	-0.111744	0.124533	-0.0739001	0	0	-0.458486	-0.0148132	0.161796	0.490264	-0.28388	0.11963	1.00306	1.57079	0	0	0.0158472	-0.118595	0.239024	0.191732	1.57079	0	0
0.558188	0.0162433	-0.127629	-1.6701	0.270924	0.943209	0.844489	-0.0968458	0.121968	0.181699	0.748467	0.209275	0	0	0.404612	0.038789	-0.110709	0.125978	-0.0815914	0	0	-0.458706	-0.0163309	0.160941	0.490945	-0.282919	0.120445	1.00849	1.57079	0	0	0.0140359	-0.117852	0.237877	0.187445	1.57079	0	0
0.562175	0.0175207	-0.128908	-1.67051	0.271247	0.94322	0.85178	-0.104327	0.119527	0.183009	0.749709	0.195778	0	0	0.402377	0.041189	-0.110145	0.128502	-0.0898227	0	0	-0.45895	-0.0178649	0.159737	0.491291	-0.281807	0.121144	1.01372	1.57079	0	0	0.0122062	-0.117175	0.236559	0.183419	1.57079	0	0
0.566162	0.0188778	-0.130258	-1.67068	0.271585	0.943285	0.859116	-0.111829	0.116931	0.183942	0.750838	0.181162	0	0	0.400104	0.0436294	-0.110039	0.132064	-0.0985611	0	0	-0.45922	-0.0194121	0.158182	0.49131	-0.280544	0.121735	1.01875	1.57079	0	0	0.0103552	-0.116564	0.235063	0.17968	1.57079	0	0
0.570149	0.0203117	-0.131674	-1.67064	0.271937	0.943404	0.866494	-0.119323	0.114176	0.184468	0.751866	0.165397	0	0	0.397806	0.0461065	-0.11038	0.13662	-0.107762	0	0	-0.459515	-0.0209696	0.156282	0.491009	-0.279133	0.122227	1.02357	1.57079	0	0	0.00848115	-0.116018	0.23338	0.176248	1.57079	0	0
0.574136	0.0218195	-0.133146	-1.67038	0.272304	0.943576	0.873908	-0.126778	0.111257	0.184562	0.75281	0.148458	0	0	0.395493	0.0486155	-0.111151	0.142122	-0.117367	0	0	-0.459836	-0.0225355	0.15404	0.490399	-0.277576	0.122631	1.02817	1.57079	0	0	0.00658344	-0.115539	0.231503	0.173146	1.57079	0	0
0.578123	0.0233988	-0.134668	-1.66991	0.272685	0.943799	0.881353	-0.134159	0.108169	0.184202	0.753687	0.130327	0	0	0.393177	0.0511516	-0.112334	0.148517	-0.127304	0	0	-0.460184	-0.0241084	0.151463	0.489491	-0.275877	0.122957	1.03252	1.57079	0	0	0.00466255	-0.115125	0.229424	0.170391	1.57079	0	0
0.58211	0.0250475	-0.136229	-1.66925	0.273081	0.94407	0.888823	-0.141429	0.104906	0.183369	0.754523	0.110992	0	0	0.390864	0.0537102	-0.113906	0.155748	-0.137484	0	0	-0.460558	-0.0256882	0.148559	0.488296	-0.274039	0.123218	1.03663	1.57079	0	0	0.00271986	-0.114776	0.227137	0.168003	1.57079	0	0
0.586097	0.0267644	-0.137821	-1.66842	0.273491	0.944388	0.896313	-0.148548	0.101465	0.182052	0.755343	0.0904526	0	0	0.388561	0.0562875	-0.115841	0.163754	-0.147807	0	0	-0.460958	-0.0272759	0.145337	0.486829	-0.272064	0.123425	1.04048	1.57079	0	0	0.000757532	-0.11449	0.224634	0.166	1.57079	0	0
0.590084	0.028549	-0.139433	-1.66742	0.273916	0.944751	0.903816	-0.155474	0.0978389	0.18024	0.756178	0.0687173	0	0	0.38627	0.0588808	-0.118106	0.172467	-0.158158	0	0	-0.461383	-0.0288735	0.141804	0.485105	-0.269956	0.123591	1.04406	1.57079	0	0	-0.00122192	-0.114267	0.221907	0.164398	1.57079	0	0
0.594071	0.0304014	-0.141056	-1.66627	0.274353	0.945156	0.911327	-0.162165	0.0940238	0.177933	0.757062	0.0458063	0	0	0.383991	0.0614887	-0.120664	0.181818	-0.168411	0	0	-0.461834	-0.0304844	0.13797	0.483139	-0.267717	0.123728	1.04736	1.57079	0	0	-0.00321594	-0.114105	0.218949	0.163217	1.57079	0	0
0.598058	0.0323219	-0.14268	-1.66499	0.274803	0.9456	0.91884	-0.168577	0.0900155	0.175131	0.758031	0.0217515	0	0	0.381721	0.0641108	-0.123476	0.191736	-0.178436	0	0	-0.462311	-0.0321129	0.133843	0.480952	-0.265349	0.123852	1.05035	1.57079	0	0	-0.00522197	-0.114005	0.215747	0.162474	1.57079	0	0
0.602045	0.0343115	-0.144295	-1.6636	0.275264	0.946081	0.926348	-0.174663	0.0858105	0.171844	0.759125	-0.0034022	0	0	0.379455	0.0667479	-0.1265	0.202148	-0.188103	0	0	-0.462815	-0.0337641	0.129432	0.478561	-0.262854	0.123975	1.05304	1.57079	0	0	-0.0072375	-0.113965	0.21229	0.162188	1.57079	0	0
0.606032	0.036371	-0.145893	-1.6621	0.275735	0.946596	0.933845	-0.180381	0.0814063	0.168085	0.760387	-0.0295964	0	0	0.37719	0.0694014	-0.129695	0.212984	-0.197285	0	0	-0.463345	-0.0354437	0.124749	0.475989	-0.260234	0.124113	1.05541	1.57079	0	0	-0.00925999	-0.113986	0.208563	0.162379	1.57079	0	0
0.610019	0.0385014	-0.147464	-1.66053	0.276215	0.947143	0.941325	-0.185683	0.0768018	0.163875	0.76186	-0.0567587	0	0	0.374919	0.0720738	-0.13302	0.224173	-0.205865	0	0	-0.463903	-0.0371576	0.119804	0.473254	-0.25749	0.12428	1.05744	1.57079	0	0	-0.0112868	-0.114067	0.204551	0.163064	1.57079	0	0
0.614006	0.0407036	-0.149001	-1.6589	0.276703	0.947719	0.948782	-0.190525	0.0719977	0.159241	0.763592	-0.0848015	0	0	0.372638	0.0747674	-0.136437	0.235646	-0.213733	0	0	-0.464488	-0.0389116	0.114609	0.470379	-0.254627	0.124491	1.05912	1.57079	0	0	-0.013315	-0.114207	0.200239	0.164262	1.57079	0	0
0.617994	0.0429777	-0.150494	-1.65722	0.277197	0.948321	0.956211	-0.194862	0.0669973	0.154217	0.76563	-0.113622	0	0	0.370342	0.0774845	-0.13991	0.247337	-0.220793	0	0	-0.465098	-0.0407112	0.109179	0.467386	-0.251647	0.12476	1.06044	1.57079	0	0	-0.0153412	-0.114407	0.195614	0.165989	1.57079	0	0
0.621981	0.0453226	-0.151937	-1.65553	0.277695	0.948946	0.963604	-0.198649	0.0618066	0.148842	0.768025	-0.143102	0	0	0.368028	0.0802264	-0.143409	0.259182	-0.22696	0	0	-0.465733	-0.0425607	0.103531	0.464292	-0.248558	0.1251	1.0614	1.57079	0	0	-0.0173602	-0.114664	0.190664	0.168257	1.57079	0	0
0.625968	0.0477362	-0.153319	-1.65382	0.278195	0.949593	0.970958	-0.201842	0.0564355	0.143161	0.770828	-0.173107	0	0	0.365694	0.0829932	-0.146904	0.271123	-0.232166	0	0	-0.466386	-0.0444635	0.0976838	0.461119	-0.245365	0.125522	1.06197	1.57079	0	0	-0.0193648	-0.114979	0.185385	0.171077	1.57079	0	0
0.629955	0.0502145	-0.154632	-1.65213	0.278695	0.950258	0.978265	-0.204394	0.0508973	0.137225	0.774087	-0.203488	0	0	0.36334	0.0857836	-0.15037	0.283101	-0.236355	0	0	-0.467053	-0.046421	0.0916624	0.45788	-0.24208	0.126035	1.06215	1.57079	0	0	-0.0213447	-0.115351	0.179781	0.17445	1.57079	0	0
0.633942	0.0527517	-0.155866	-1.65046	0.279194	0.950938	0.985521	-0.20626	0.0452098	0.131091	0.777855	-0.234081	0	0	0.360967	0.0885948	-0.153782	0.295064	-0.239491	0	0	-0.467725	-0.0484326	0.0854943	0.45459	-0.238714	0.126645	1.06194	1.57079	0	0	-0.0232863	-0.11578	0.173861	0.178376	1.57079	0	0
0.637929	0.0553399	-0.157008	-1.64885	0.279689	0.95163	0.992722	-0.207395	0.0393946	0.124814	0.782177	-0.264712	0	0	0.358581	0.0914223	-0.157118	0.306963	-0.24155	0	0	-0.468391	-0.0504958	0.0792118	0.451259	-0.235282	0.127351	1.06134	1.57079	0	0	-0.025173	-0.116264	0.167649	0.182845	1.57079	0	0
0.641916	0.0579696	-0.158047	-1.64729	0.280178	0.952333	0.999863	-0.207756	0.0334759	0.118453	0.787096	-0.295198	0	0	0.356187	0.0942601	-0.160355	0.318751	-0.242528	0	0	-0.469036	-0.0526057	0.0728507	0.447893	-0.2318	0.12815	1.06033	1.57079	0	0	-0.0269841	-0.116804	0.161173	0.187842	1.57079	0	0
0.645903	0.0606295	-0.158969	-1.64581	0.28066	0.953043	1.00694	-0.207299	0.0274812	0.112065	0.79265	-0.325355	0	0	0.353794	0.0971011	-0.163473	0.330388	-0.242432	0	0	-0.469646	-0.0547553	0.066451	0.444493	-0.228289	0.129034	1.05894	1.57079	0	0	-0.0286952	-0.117399	0.154474	0.193342	1.57079	0	0
0.64989	0.0633068	-0.15976	-1.64441	0.281134	0.953757	1.01395	-0.205988	0.0214392	0.105704	0.798867	-0.354997	0	0	0.351411	0.0999367	-0.166453	0.341835	-0.241285	0	0	-0.470201	-0.0569359	0.060056	0.441057	-0.22477	0.12999	1.05716	1.57079	0	0	-0.0302782	-0.118047	0.147603	0.199314	1.57079	0	0
0.653877	0.0659875	-0.160408	-1.64312	0.281597	0.954474	1.02089	-0.203788	0.0153804	0.0994213	0.805766	-0.383943	0	0	0.349051	0.102758	-0.169279	0.353058	-0.239122	0	0	-0.470683	-0.059137	0.0537121	0.437579	-0.221267	0.130998	1.055	1.57079	0	0	-0.031701	-0.118747	0.140622	0.205719	1.57079	0	0
0.657864	0.0686565	-0.1609	-1.64192	0.282049	0.95519	1.02776	-0.200672	0.00933636	0.0932642	0.813357	-0.412016	0	0	0.346724	0.105553	-0.171937	0.364028	-0.235987	0	0	-0.47107	-0.0613474	0.047468	0.43405	-0.217805	0.132037	1.05247	1.57079	0	0	-0.0329279	-0.119499	0.1336	0.212508	1.57079	0	0
0.661851	0.0712973	-0.161221	-1.64084	0.282488	0.955903	1.03456	-0.19662	0.00333942	0.0872775	0.821636	-0.439046	0	0	0.34444	0.108314	-0.174417	0.374718	-0.231935	0	0	-0.471342	-0.0635554	0.0413741	0.430456	-0.214409	0.13308	1.04959	1.57079	0	0	-0.0339206	-0.120303	0.126616	0.219629	1.57079	0	0
0.665838	0.0738937	-0.16136	-1.63987	0.282915	0.956611	1.04128	-0.191622	-0.00257742	0.0815036	0.830592	-0.46487	0	0	0.342209	0.111028	-0.176711	0.385104	-0.227026	0	0	-0.471479	-0.0657493	0.0354818	0.426781	-0.211106	0.134098	1.04637	1.57079	0	0	-0.0346381	-0.121157	0.119754	0.22702	1.57079	0	0
0.669825	0.0764313	-0.161305	-1.63901	0.283327	0.957312	1.04793	-0.185673	-0.00838039	0.0759825	0.8402	-0.489338	0	0	0.340035	0.113686	-0.178815	0.395165	-0.221327	0	0	-0.471463	-0.067917	0.029843	0.423007	-0.207922	0.135058	1.04283	1.57079	0	0	-0.0350377	-0.122064	0.113105	0.234614	1.57079	0	0
0.673812	0.0788972	-0.161051	-1.63828	0.283724	0.958003	1.0545	-0.178782	-0.0140356	0.0707515	0.850426	-0.512308	0	0	0.337924	0.116277	-0.180727	0.404881	-0.214909	0	0	-0.471275	-0.0700471	0.0245083	0.419112	-0.204884	0.135926	1.03897	1.57079	0	0	-0.0350751	-0.123022	0.106763	0.242339	1.57079	0	0
0.677799	0.0812796	-0.160593	-1.63767	0.284106	0.958684	1.06101	-0.170962	-0.0195095	0.0658451	0.861223	-0.533659	0	0	0.335874	0.118792	-0.182447	0.414237	-0.207845	0	0	-0.4709	-0.0721287	0.019526	0.415075	-0.202016	0.13667	1.03482	1.57079	0	0	-0.0347058	-0.124035	0.100825	0.250117	1.57079	0	0
0.681786	0.0835681	-0.159932	-1.63717	0.284472	0.959353	1.06744	-0.162242	-0.0247697	0.0612937	0.872535	-0.553288	0	0	0.333885	0.121224	-0.183975	0.423217	-0.200207	0	0	-0.470324	-0.0741518	0.0149407	0.410872	-0.199341	0.137254	1.03039	1.57079	0	0	-0.0338868	-0.125101	0.0953855	0.257871	1.57079	0	0
0.685773	0.0857536	-0.159073	-1.63678	0.284823	0.960009	1.07381	-0.152657	-0.0297849	0.057124	0.884293	-0.571118	0	0	0.331949	0.123566	-0.185314	0.431809	-0.192068	0	0	-0.469537	-0.0761073	0.0107921	0.406482	-0.19688	0.137647	1.02571	1.57079	0	0	-0.0325775	-0.126225	0.0905348	0.265523	1.57079	0	0
0.689761	0.0878281	-0.158023	-1.6365	0.285157	0.960651	1.08012	-0.142254	-0.034525	0.0533587	0.89642	-0.5871	0	0	0.330056	0.125814	-0.186466	0.440005	-0.183499	0	0	-0.468532	-0.0779867	0.00711409	0.401883	-0.194651	0.137819	1.02078	1.57079	0	0	-0.0307414	-0.127406	0.0863557	0.273001	1.57079	0	0
0.693748	0.0897854	-0.156794	-1.63632	0.285476	0.961279	1.08637	-0.131091	-0.0389613	0.0500171	0.908833	-0.601209	0	0	0.328192	0.127965	-0.187433	0.447798	-0.174568	0	0	-0.467307	-0.0797823	0.00393358	0.397054	-0.192671	0.137743	1.01562	1.57079	0	0	-0.0283471	-0.128648	0.0829211	0.280236	1.57079	0	0
0.697735	0.0916203	-0.155398	-1.63622	0.285779	0.961893	1.09256	-0.119228	-0.043067	0.0471144	0.921443	-0.613438	0	0	0.32634	0.130018	-0.188215	0.455182	-0.165342	0	0	-0.465863	-0.0814865	0.00126955	0.391979	-0.190952	0.137395	1.01025	1.57079	0	0	-0.0253696	-0.129951	0.0802916	0.28717	1.57079	0	0
0.701722	0.0933288	-0.153853	-1.6362	0.286066	0.962493	1.09869	-0.106733	-0.0468179	0.0446611	0.93416	-0.623799	0	0	0.324481	0.131972	-0.188811	0.462154	-0.155884	0	0	-0.464207	-0.0830927	-0.000868177	0.386642	-0.189503	0.136758	1.00469	1.57079	0	0	-0.0217915	-0.131316	0.0785136	0.293752	1.57079	0	0
0.705709	0.0949078	-0.152177	-1.63624	0.286339	0.963079	1.10478	-0.0936767	-0.0501926	0.0426622	0.946896	-0.632316	0	0	0.322591	0.133829	-0.189221	0.468712	-0.146255	0	0	-0.46235	-0.0845941	-0.0024799	0.381036	-0.188327	0.135819	0.998936	1.57079	0	0	-0.0176049	-0.132744	0.077617	0.299946	1.57079	0	0
0.709696	0.096355	-0.150392	-1.63633	0.286597	0.963652	1.11083	-0.0801308	-0.0531739	0.041116	0.959561	-0.639022	0	0	0.320645	0.135591	-0.189442	0.474858	-0.136512	0	0	-0.460308	-0.0859844	-0.00357723	0.375155	-0.187425	0.134575	0.993011	1.57079	0	0	-0.0128127	-0.134235	0.077612	0.305731	1.57079	0	0
0.713683	0.0976687	-0.148522	-1.63644	0.286841	0.964212	1.11683	-0.0661691	-0.0557491	0.0400133	0.972072	-0.643961	0	0	0.318618	0.137259	-0.18947	0.480594	-0.126709	0	0	-0.458101	-0.0872572	-0.00418463	0.369004	-0.186791	0.133033	0.98692	1.57079	0	0	-0.00743037	-0.135789	0.0784859	0.311106	1.57079	0	0
0.71767	0.0988475	-0.146589	-1.63656	0.287072	0.964761	1.1228	-0.0518643	-0.0579106	0.039336	0.984346	-0.647184	0	0	0.31648	0.138839	-0.189303	0.485926	-0.116896	0	0	-0.455758	-0.0884057	-0.00434097	0.362593	-0.186413	0.131213	0.980668	1.57079	0	0	-0.001487	-0.137405	0.0802023	0.316085	1.57079	0	0
0.721657	0.0998903	-0.14462	-1.63667	0.28729	0.965298	1.12872	-0.0372875	-0.0596568	0.0390568	0.99631	-0.648745	0	0	0.314205	0.140331	-0.188935	0.49086	-0.107119	0	0	-0.453306	-0.0894229	-0.00409733	0.355941	-0.186274	0.129144	0.974258	1.57079	0	0	0.00497593	-0.13908	0.0827027	0.320705	1.57079	0	0
0.725644	0.100796	-0.142638	-1.63675	0.287498	0.965826	1.13462	-0.0225062	-0.0609924	0.0391383	1.00789	-0.648705	0	0	0.311767	0.141739	-0.188363	0.495407	-0.0974218	0	0	-0.45078	-0.0903018	-0.00351461	0.349073	-0.186354	0.126863	0.967689	1.57079	0	0	0.0119063	-0.140815	0.0859088	0.325019	1.57079	0	0
0.729631	0.101563	-0.140667	-1.63678	0.287695	0.966345	1.14048	-0.00758389	-0.0619287	0.039533	1.01903	-0.64713	0	0	0.309142	0.143064	-0.187581	0.499579	-0.0878428	0	0	-0.448214	-0.0910354	-0.00266096	0.342018	-0.186628	0.124412	0.960961	1.57079	0	0	0.0192442	-0.142608	0.089725	0.329093	1.57079	0	0
0.733618	0.102191	-0.138727	-1.63674	0.287884	0.966855	1.14631	0.00742154	-0.0624839	0.0401846	1.02966	-0.644089	0	0	0.30631	0.144307	-0.186585	0.503391	-0.0784154	0	0	-0.445642	-0.0916166	-0.00160886	0.334807	-0.187069	0.121834	0.95407	1.57079	0	0	0.0269244	-0.144458	0.0940444	0.333004	1.57079	0	0
0.737605	0.102679	-0.136836	-1.6366	0.288065	0.967357	1.15212	0.0224578	-0.062682	0.0410294	1.03974	-0.639657	0	0	0.303255	0.145468	-0.185373	0.506859	-0.0691675	0	0	-0.443095	-0.0920387	-0.000432586	0.327475	-0.187646	0.119168	0.947011	1.57079	0	0	0.0348798	-0.146366	0.0987538	0.33683	1.57079	0	0
0.741592	0.103027	-0.135009	-1.63635	0.288239	0.967851	1.1579	0.0374775	-0.0625525	0.0419977	1.04921	-0.633916	0	0	0.299965	0.146546	-0.183941	0.510005	-0.0601216	0	0	-0.440603	-0.0922954	0.000794104	0.320056	-0.188331	0.116455	0.93978	1.57079	0	0	0.0430418	-0.148332	0.103736	0.340654	1.57079	0	0
0.745579	0.103233	-0.133259	-1.63597	0.288409	0.968337	1.16365	0.0524377	-0.0621287	0.0430163	1.05803	-0.626952	0	0	0.296435	0.147539	-0.182287	0.512849	-0.0512955	0	0	-0.438193	-0.0923808	0.0020003	0.312582	-0.189093	0.113731	0.932371	1.57079	0	0	0.0513427	-0.150357	0.108872	0.344558	1.57079	0	0
0.749566	0.103298	-0.131594	-1.63544	0.288576	0.968815	1.16937	0.0672998	-0.0614458	0.0440126	1.06616	-0.618855	0	0	0.292661	0.148444	-0.180411	0.515415	-0.042702	0	0	-0.435887	-0.09229	0.0031201	0.305087	-0.189903	0.111026	0.924779	1.57079	0	0	0.0597178	-0.15244	0.114045	0.348622	1.57079	0	0
0.753553	0.103221	-0.130019	-1.63476	0.28874	0.969285	1.17507	0.0820309	-0.0605397	0.0449165	1.07356	-0.609718	0	0	0.288646	0.149258	-0.178313	0.517728	-0.0343493	0	0	-0.433705	-0.0920191	0.00409372	0.297599	-0.190733	0.108365	0.917001	1.57079	0	0	0.068106	-0.154582	0.119147	0.352921	1.57079	0	0
0.75754	0.103006	-0.128538	-1.6339	0.288903	0.969744	1.18075	0.0966031	-0.0594458	0.0456628	1.0802	-0.599633	0	0	0.284397	0.149975	-0.175994	0.519812	-0.0262413	0	0	-0.431661	-0.0915649	0.00486822	0.290146	-0.191557	0.105767	0.909034	1.57079	0	0	0.0764509	-0.156785	0.124075	0.357524	1.57079	0	0
0.761528	0.102653	-0.127151	-1.63287	0.289066	0.970193	1.18641	0.110994	-0.0581986	0.0461924	1.08605	-0.588692	0	0	0.279925	0.150593	-0.173457	0.521692	-0.0183781	0	0	-0.429764	-0.0909256	0.00539832	0.282752	-0.192352	0.103242	0.900874	1.57079	0	0	0.0847013	-0.159049	0.128737	0.362493	1.57079	0	0
0.765515	0.102167	-0.125858	-1.63165	0.289228	0.97063	1.19204	0.125186	-0.0568313	0.0464536	1.09108	-0.576986	0	0	0.275243	0.151107	-0.170708	0.523394	-0.0107564	0	0	-0.42802	-0.0901013	0.0056468	0.275437	-0.193097	0.100796	0.892521	1.57079	0	0	0.0928119	-0.161372	0.13305	0.367885	1.57079	0	0
0.769502	0.101551	-0.124655	-1.63025	0.289392	0.971053	1.19766	0.139166	-0.055376	0.0464035	1.09528	-0.564603	0	0	0.27037	0.151515	-0.167753	0.524942	-0.0033695	0	0	-0.426431	-0.0890936	0.00558474	0.268218	-0.193775	0.0984306	0.883978	1.57079	0	0	0.100743	-0.163754	0.136945	0.373745	1.57079	0	0
0.773489	0.100807	-0.123538	-1.62866	0.289557	0.971459	1.20325	0.152923	-0.0538624	0.0460069	1.09863	-0.551627	0	0	0.265323	0.151816	-0.164602	0.526358	0.00379216	0	0	-0.424995	-0.0879061	0.005191	0.261111	-0.194373	0.096141	0.875244	1.57079	0	0	0.108462	-0.166192	0.140364	0.380109	1.57079	0	0
0.777476	0.0999379	-0.122499	-1.62689	0.289722	0.971847	1.20883	0.16645	-0.0523175	0.0452368	1.10112	-0.53814	0	0	0.260122	0.152007	-0.161267	0.527666	0.0107405	0	0	-0.423708	-0.0865433	0.00445177	0.254125	-0.194877	0.0939185	0.866324	1.57079	0	0	0.115941	-0.168683	0.143262	0.387006	1.57079	0	0
0.781463	0.0989489	-0.121534	-1.62495	0.289889	0.972215	1.21439	0.17974	-0.0507647	0.0440735	1.10273	-0.524216	0	0	0.254786	0.152088	-0.157759	0.528886	0.0174891	0	0	-0.422565	-0.0850106	0.00336002	0.247268	-0.195281	0.0917493	0.857223	1.57079	0	0	0.123159	-0.171224	0.145606	0.394456	1.57079	0	0
0.78545	0.0978436	-0.120632	-1.62284	0.290058	0.97256	1.21993	0.192789	-0.0492245	0.0425042	1.10346	-0.509931	0	0	0.249334	0.152057	-0.154094	0.530039	0.0240532	0	0	-0.42156	-0.0833143	0.00191482	0.240545	-0.195576	0.0896153	0.847949	1.57079	0	0	0.1301	-0.173813	0.147374	0.402472	1.57079	0	0
0.789437	0.096627	-0.119789	-1.62058	0.290227	0.97288	1.22546	0.20559	-0.047714	0.0405228	1.1033	-0.495352	0	0	0.243784	0.151915	-0.150287	0.531143	0.0304487	0	0	-0.420687	-0.0814621	0.000120883	0.233959	-0.195758	0.0874937	0.838513	1.57079	0	0	0.136754	-0.176446	0.148554	0.411061	1.57079	0	0
0.793424	0.0953045	-0.118997	-1.61817	0.290396	0.973174	1.23097	0.218142	-0.0462478	0.0381298	1.10226	-0.480547	0	0	0.238154	0.151661	-0.146359	0.532215	0.0366921	0	0	-0.41994	-0.0794631	-0.00201167	0.227508	-0.195824	0.0853569	0.828925	1.57079	0	0	0.143114	-0.179121	0.149143	0.420224	1.57079	0	0
0.797411	0.0938828	-0.118248	-1.61563	0.290566	0.973439	1.23647	0.230442	-0.0448383	0.0353316	1.10032	-0.465581	0	0	0.232459	0.151298	-0.142327	0.533269	0.0428001	0	0	-0.419309	-0.0773282	-0.00446764	0.22119	-0.19577	0.0831736	0.8192	1.57079	0	0	0.149179	-0.181833	0.149147	0.429958	1.57079	0	0
0.801398	0.0923694	-0.117538	-1.61298	0.290734	0.973674	1.24196	0.242488	-0.0434953	0.0321402	1.0975	-0.450513	0	0	0.226717	0.150825	-0.138216	0.534319	0.0487891	0	0	-0.418789	-0.0750702	-0.00722743	0.215002	-0.195597	0.0809101	0.80935	1.57079	0	0	0.154951	-0.184582	0.148578	0.440254	1.57079	0	0
0.805385	0.0907724	-0.116858	-1.61023	0.2909	0.973877	1.24743	0.254281	-0.0422267	0.0285719	1.09379	-0.435401	0	0	0.220943	0.150247	-0.134047	0.535377	0.0546754	0	0	-0.418371	-0.0727026	-0.0102683	0.20894	-0.195303	0.078531	0.799386	1.57079	0	0	0.160438	-0.187365	0.147456	0.451096	1.57079	0	0
0.809372	0.0891003	-0.116202	-1.6074	0.291062	0.974045	1.25289	0.265821	-0.0410382	0.0246461	1.0892	-0.420296	0	0	0.21515	0.149567	-0.129845	0.536451	0.0604749	0	0	-0.418046	-0.0702397	-0.0135649	0.203	-0.194887	0.0760007	0.789322	1.57079	0	0	0.165651	-0.190178	0.14581	0.462465	1.57079	0	0
0.813359	0.0873622	-0.115565	-1.6045	0.291221	0.974177	1.25834	0.277109	-0.0399339	0.0203853	1.08374	-0.405247	0	0	0.209353	0.148788	-0.125633	0.53755	0.0662028	0	0	-0.417806	-0.0676963	-0.0170892	0.197173	-0.194351	0.0732818	0.779169	1.57079	0	0	0.170607	-0.193021	0.143678	0.47433	1.57079	0	0
0.817346	0.0855673	-0.114941	-1.60155	0.291374	0.974272	1.26378	0.288146	-0.0389156	0.0158148	1.07742	-0.390297	0	0	0.203563	0.147914	-0.121434	0.538681	0.0718735	0	0	-0.41764	-0.0650875	-0.0208108	0.191453	-0.193695	0.0703356	0.768937	1.57079	0	0	0.175326	-0.195893	0.141108	0.48666	1.57079	0	0
0.821333	0.083725	-0.114325	-1.59857	0.291521	0.974327	1.26921	0.298933	-0.0379835	0.0109624	1.07024	-0.375487	0	0	0.197791	0.14695	-0.117271	0.539848	0.0775	0	0	-0.41754	-0.0624284	-0.0246982	0.185829	-0.192921	0.067123	0.75864	1.57079	0	0	0.179831	-0.198792	0.138151	0.499415	1.57079	0	0
0.82532	0.0818445	-0.113712	-1.59556	0.29166	0.974341	1.27462	0.309468	-0.0371357	0.00585723	1.06222	-0.360852	0	0	0.192045	0.145902	-0.113164	0.541058	0.0830945	0	0	-0.417495	-0.0597332	-0.0287194	0.180289	-0.192033	0.0636052	0.748292	1.57079	0	0	0.184148	-0.201718	0.134865	0.512552	1.57079	0	0
0.829307	0.0799346	-0.113099	-1.59254	0.291791	0.974315	1.28003	0.319751	-0.0363682	0.00052998	1.05336	-0.346428	0	0	0.186334	0.144773	-0.109134	0.542314	0.0886674	0	0	-0.417497	-0.0570155	-0.0328432	0.17482	-0.191032	0.0597444	0.737906	1.57079	0	0	0.188304	-0.204672	0.131312	0.526026	1.57079	0	0
0.833294	0.0780035	-0.112483	-1.58951	0.291913	0.974246	1.28543	0.329779	-0.035675	-0.00498763	1.04369	-0.332246	0	0	0.180664	0.143567	-0.105197	0.54362	0.0942278	0	0	-0.417537	-0.0542877	-0.0370397	0.169409	-0.189923	0.0555051	0.7275	1.57079	0	0	0.192328	-0.207653	0.127554	0.539789	1.57079	0	0
0.837282	0.0760589	-0.111862	-1.58648	0.292026	0.974135	1.29083	0.33955	-0.0350489	-0.0106628	1.0332	-0.318332	0	0	0.175041	0.142289	-0.101369	0.54498	0.0997833	0	0	-0.417607	-0.0515612	-0.0412812	0.164042	-0.188709	0.0508549	0.717089	1.57079	0	0	0.196249	-0.210663	0.123653	0.553793	1.57079	0	0
0.841269	0.0741081	-0.111234	-1.58346	0.292128	0.973981	1.29622	0.349061	-0.0344813	-0.016462	1.02191	-0.304712	0	0	0.16947	0.140943	-0.0976616	0.546398	0.10534	0	0	-0.417698	-0.0488465	-0.045543	0.158706	-0.187393	0.0457655	0.70669	1.57079	0	0	0.200094	-0.213704	0.119668	0.567991	1.57079	0	0
0.845256	0.0721582	-0.110597	-1.58044	0.292219	0.973783	1.30161	0.358309	-0.033963	-0.0223508	1.00985	-0.291406	0	0	0.163955	0.139533	-0.0940854	0.547879	0.110904	0	0	-0.417807	-0.046153	-0.0498043	0.153391	-0.185978	0.0402142	0.696317	1.57079	0	0	0.203888	-0.216779	0.115654	0.58234	1.57079	0	0
0.849243	0.070216	-0.109951	-1.57743	0.292299	0.973542	1.307	0.367289	-0.0334843	-0.0282934	0.997024	-0.278432	0	0	0.1585	0.138063	-0.0906483	0.549425	0.116478	0	0	-0.417926	-0.0434893	-0.0540473	0.148086	-0.184468	0.0341835	0.685987	1.57079	0	0	0.207655	-0.219889	0.111662	0.596798	1.57079	0	0
0.85323	0.068288	-0.109297	-1.57442	0.292367	0.973256	1.31238	0.376001	-0.0330353	-0.0342524	0.983454	-0.265805	0	0	0.153106	0.136538	-0.0873558	0.551042	0.122067	0	0	-0.418051	-0.0408632	-0.0582574	0.142783	-0.182866	0.027662	0.675715	1.57079	0	0	0.211415	-0.223036	0.107737	0.611328	1.57079	0	0
0.857217	0.0663805	-0.108634	-1.57143	0.292424	0.972927	1.31777	0.38444	-0.0326054	-0.0401888	0.969162	-0.253537	0	0	0.147777	0.134962	-0.0842112	0.552732	0.127674	0	0	-0.418181	-0.0382816	-0.062423	0.137475	-0.181178	0.0206448	0.665517	1.57079	0	0	0.215187	-0.226224	0.103919	0.625893	1.57079	0	0
0.861204	0.0644992	-0.107964	-1.56844	0.292468	0.972554	1.32316	0.392604	-0.032184	-0.0460625	0.954172	-0.241637	0	0	0.142512	0.133339	-0.0812153	0.5545	0.1333	0	0	-0.418311	-0.0357498	-0.0665366	0.132156	-0.179407	0.0131335	0.655409	1.57079	0	0	0.218986	-0.229454	0.100244	0.640462	1.57079	0	0
0.865191	0.0626499	-0.107289	-1.56544	0.292499	0.972138	1.32855	0.400488	-0.0317601	-0.051832	0.93851	-0.230113	0	0	0.137309	0.131674	-0.0783661	0.556351	0.138948	0	0	-0.418443	-0.0332725	-0.0705947	0.12682	-0.17756	0.00513638	0.645406	1.57079	0	0	0.222824	-0.232729	0.0967433	0.655005	1.57079	0	0
0.869178	0.0608374	-0.106613	-1.56244	0.292518	0.971679	1.33394	0.408089	-0.0313226	-0.0574555	0.922205	-0.218969	0	0	0.132169	0.129972	-0.0756585	0.558289	0.144618	0	0	-0.418575	-0.0308527	-0.0745976	0.121466	-0.175641	-0.00333266	0.635524	1.57079	0	0	0.226714	-0.236051	0.0934416	0.669497	1.57079	0	0
0.873165	0.0590669	-0.105937	-1.55943	0.292524	0.971177	1.33934	0.415404	-0.0308607	-0.0628901	0.905286	-0.20821	0	0	0.127088	0.128236	-0.0730849	0.560319	0.15031	0	0	-0.41871	-0.0284926	-0.0785492	0.11609	-0.173655	-0.0122555	0.625777	1.57079	0	0	0.230662	-0.239425	0.0903606	0.683915	1.57079	0	0
0.877152	0.0573428	-0.105266	-1.55639	0.292519	0.970635	1.34475	0.422433	-0.0303637	-0.0680924	0.887786	-0.19784	0	0	0.122066	0.12647	-0.0706349	0.562446	0.156021	0	0	-0.418849	-0.0261938	-0.0824552	0.110693	-0.171608	-0.0216107	0.616179	1.57079	0	0	0.234677	-0.242851	0.0875172	0.698241	1.57079	0	0
0.881139	0.0556696	-0.1046	-1.55331	0.2925	0.970052	1.35016	0.429174	-0.0298218	-0.0730184	0.86974	-0.187862	0	0	0.117103	0.124678	-0.0682961	0.564675	0.161749	0	0	-0.418994	-0.0239575	-0.0863228	0.105276	-0.169504	-0.0313726	0.606745	1.57079	0	0	0.238763	-0.246333	0.0849245	0.712457	1.57079	0	0
0.885126	0.0540515	-0.103942	-1.55019	0.29247	0.969431	1.35558	0.43563	-0.0292258	-0.0776238	0.851186	-0.178281	0	0	0.112196	0.122866	-0.066054	0.56701	0.167489	0	0	-0.419148	-0.0217851	-0.0901591	0.0998401	-0.16735	-0.0415126	0.597488	1.57079	0	0	0.242925	-0.249874	0.0825923	0.72655	1.57079	0	0
0.889113	0.0524928	-0.103296	-1.54703	0.292428	0.968772	1.36102	0.4418	-0.0285671	-0.0818642	0.832164	-0.169099	0	0	0.107345	0.121038	-0.0638926	0.569456	0.173236	0	0	-0.419313	-0.0196778	-0.0939711	0.0943867	-0.165151	-0.0519994	0.58842	1.57079	0	0	0.247164	-0.253474	0.0805274	0.740506	1.57079	0	0
0.8931	0.0509975	-0.102663	-1.5438	0.292373	0.968076	1.36646	0.447688	-0.0278384	-0.0856956	0.812716	-0.16032	0	0	0.102545	0.1192	-0.0617946	0.572014	0.178982	0	0	-0.419492	-0.0176374	-0.097765	0.0889177	-0.162913	-0.0627994	0.579555	1.57079	0	0	0.251483	-0.257135	0.0787341	0.754314	1.57079	0	0
0.897087	0.0495693	-0.102049	-1.54052	0.292307	0.967347	1.37192	0.453294	-0.027033	-0.0890747	0.792887	-0.15195	0	0	0.0977928	0.117356	-0.0597421	0.574687	0.184722	0	0	-0.419688	-0.0156658	-0.101546	0.0834347	-0.160642	-0.0738773	0.570904	1.57079	0	0	0.25588	-0.260857	0.077214	0.767963	1.57079	0	0
0.901074	0.048212	-0.101456	-1.53718	0.292227	0.966584	1.37739	0.458623	-0.0261453	-0.0919592	0.772723	-0.143991	0	0	0.0930825	0.115512	-0.0577165	0.577476	0.190445	0	0	-0.419905	-0.0137653	-0.105317	0.0779387	-0.158345	-0.0851963	0.562481	1.57079	0	0	0.260354	-0.26464	0.0759663	0.781442	1.57079	0	0
0.905061	0.0469286	-0.100889	-1.53377	0.292134	0.965791	1.38288	0.463674	-0.0251705	-0.0943096	0.752273	-0.136449	0	0	0.088407	0.113674	-0.0556984	0.580378	0.196143	0	0	-0.420147	-0.011938	-0.109081	0.0724303	-0.156028	-0.0967185	0.554294	1.57079	0	0	0.264902	-0.268481	0.0749885	0.794744	1.57079	0	0
0.909049	0.0457219	-0.100353	-1.53029	0.292028	0.96497	1.38839	0.46845	-0.0241051	-0.096089	0.731589	-0.129328	0	0	0.0837577	0.111844	-0.0536678	0.583393	0.201805	0	0	-0.420415	-0.0101854	-0.11284	0.0669099	-0.153698	-0.108405	0.546355	1.57079	0	0	0.269519	-0.272379	0.0742761	0.80786	1.57079	0	0
0.913036	0.0445941	-0.0998532	-1.52676	0.291909	0.964122	1.39392	0.472951	-0.0229469	-0.0972648	0.710723	-0.122631	0	0	0.0791252	0.110028	-0.051604	0.586517	0.207418	0	0	-0.420715	-0.00850848	-0.116598	0.0613777	-0.15136	-0.120216	0.538671	1.57079	0	0	0.2742	-0.276333	0.073823	0.820782	1.57079	0	0
0.917023	0.0435471	-0.0993946	-1.52315	0.291775	0.963251	1.39947	0.47718	-0.0216959	-0.0978086	0.68973	-0.116364	0	0	0.0744999	0.108228	-0.0494858	0.589745	0.212968	0	0	-0.421048	-0.00690781	-0.120355	0.0558341	-0.149022	-0.132113	0.531249	1.57079	0	0	0.278938	-0.280338	0.0736209	0.833504	1.57079	0	0
0.92101	0.0425824	-0.0989817	-1.51947	0.291627	0.962359	1.40505	0.48114	-0.0203534	-0.0976976	0.668667	-0.11053	0	0	0.0698717	0.10645	-0.0472919	0.593072	0.21844	0	0	-0.421418	-0.00538371	-0.124113	0.0502795	-0.146689	-0.144056	0.524097	1.57079	0	0	0.283725	-0.284392	0.0736603	0.846023	1.57079	0	0
0.924997	0.0417013	-0.0986182	-1.51573	0.291463	0.961448	1.41065	0.484833	-0.0189228	-0.096915	0.647593	-0.105132	0	0	0.0652309	0.104695	-0.045001	0.596489	0.223819	0	0	-0.421826	-0.00393613	-0.127872	0.0447142	-0.144367	-0.156007	0.51722	1.57079	0	0	0.288552	-0.288491	0.0739304	0.858333	1.57079	0	0
0.928984	0.0409044	-0.0983077	-1.51192	0.291286	0.960521	1.41629	0.488264	-0.0174091	-0.0954502	0.626566	-0.100175	0	0	0.0605676	0.102967	-0.0425924	0.599989	0.229086	0	0	-0.422275	-0.00256471	-0.131633	0.0391387	-0.142061	-0.167926	0.510622	1.57079	0	0	0.293412	-0.292628	0.0744195	0.870429	1.57079	0	0
0.932971	0.0401922	-0.0980529	-1.50805	0.291093	0.959581	1.42195	0.491439	-0.0158192	-0.0932998	0.605649	-0.0956594	0	0	0.0558722	0.10127	-0.0400458	0.603562	0.234221	0	0	-0.422764	-0.00126877	-0.135392	0.0335532	-0.139777	-0.179776	0.504306	1.57079	0	0	0.298294	-0.2968	0.0751154	0.882309	1.57079	0	0
0.936958	0.0395647	-0.0978558	-1.50411	0.290885	0.958631	1.42765	0.494363	-0.0141617	-0.0904675	0.584904	-0.0915874	0	0	0.0511354	0.0996063	-0.0373421	0.607196	0.239206	0	0	-0.423294	-4.72861e-05	-0.139147	0.027958	-0.137521	-0.191518	0.498274	1.57079	0	0	0.303189	-0.301	0.0760054	0.893968	1.57079	0	0
0.940945	0.0390213	-0.0977178	-1.50012	0.290662	0.957673	1.43339	0.497043	-0.0124465	-0.0869649	0.564395	-0.0879593	0	0	0.0463483	0.0979787	-0.0344632	0.61088	0.244017	0	0	-0.423864	0.00110118	-0.142895	0.0223534	-0.135297	-0.203117	0.492526	1.57079	0	0	0.308087	-0.30522	0.0770764	0.905403	1.57079	0	0
0.944932	0.0385608	-0.0976394	-1.49608	0.290424	0.956711	1.43917	0.499489	-0.0106844	-0.0828117	0.544187	-0.084774	0	0	0.0415022	0.0963897	-0.0313923	0.6146	0.248632	0	0	-0.424471	0.00217863	-0.146631	0.01674	-0.133112	-0.214534	0.487061	1.57079	0	0	0.312977	-0.309455	0.0783154	0.91661	1.57079	0	0
0.948919	0.0381816	-0.0976206	-1.49198	0.290172	0.955746	1.44498	0.50171	-0.00888716	-0.078036	0.524345	-0.0820292	0	0	0.0365892	0.0948414	-0.0281144	0.618342	0.253028	0	0	-0.425113	0.00318764	-0.150348	0.0111182	-0.13097	-0.225736	0.481874	1.57079	0	0	0.317849	-0.313694	0.0797091	0.927585	1.57079	0	0
0.952906	0.0378811	-0.0976606	-1.48784	0.289906	0.954782	1.45085	0.503715	-0.00706735	-0.0726749	0.504934	-0.0797212	0	0	0.0316017	0.0933351	-0.0246167	0.622091	0.25718	0	0	-0.425785	0.00413154	-0.154042	0.0054886	-0.128876	-0.23669	0.476963	1.57079	0	0	0.322692	-0.317929	0.0812441	0.938323	1.57079	0	0
0.956893	0.0376564	-0.0977583	-1.48366	0.289627	0.953821	1.45676	0.505516	-0.00523784	-0.0667748	0.48602	-0.0778445	0	0	0.0265329	0.0918717	-0.0208883	0.625833	0.26106	0	0	-0.426484	0.00501437	-0.157704	-0.00014838	-0.126836	-0.247365	0.472322	1.57079	0	0	0.327493	-0.322149	0.0829069	0.94882	1.57079	0	0
0.96088	0.0375034	-0.097912	-1.47945	0.289335	0.952866	1.46272	0.507125	-0.00341165	-0.0603906	0.467669	-0.0763924	0	0	0.0213765	0.0904513	-0.0169216	0.629552	0.26464	0	0	-0.427203	0.00584096	-0.161327	-0.00579225	-0.124854	-0.257735	0.467944	1.57079	0	0	0.332241	-0.326343	0.084684	0.95907	1.57079	0	0
0.964867	0.0374173	-0.0981196	-1.47522	0.289031	0.951918	1.46873	0.508553	-0.00160141	-0.0535861	0.449944	-0.075357	0	0	0.0161272	0.0890732	-0.0127119	0.633235	0.267893	0	0	-0.427938	0.00661689	-0.1649	-0.0114422	-0.122936	-0.267775	0.463824	1.57079	0	0	0.336923	-0.330499	0.0865613	0.969069	1.57079	0	0
0.968854	0.0373944	-0.0983734	-1.47096	0.288761	0.950991	1.47481	0.509813	0.000182025	-0.0464321	0.432909	-0.07473	0	0	0.0107787	0.0877352	-0.00825792	0.636866	0.270787	0	0	-0.428684	0.0073485	-0.168416	-0.0170965	-0.121086	-0.277465	0.459953	1.57079	0	0	0.341524	-0.334604	0.0885244	0.978812	1.57079	0	0
0.972841	0.0374279	-0.0986708	-1.46669	0.288522	0.950082	1.48097	0.510917	0.00192807	-0.0390058	0.416624	-0.0745033	0	0	0.00532681	0.0864347	-0.00356203	0.640433	0.273294	0	0	-0.429433	0.00804266	-0.171862	-0.022753	-0.119308	-0.286786	0.456319	1.57079	0	0	0.346032	-0.338646	0.090559	0.988294	1.57079	0	0
0.976828	0.0375103	-0.0990093	-1.46242	0.288306	0.949189	1.48719	0.511877	0.0036278	-0.0313893	0.401146	-0.0746694	0	0	-0.000232411	0.0851682	0.00136956	0.643922	0.275384	0	0	-0.43018	0.00870685	-0.175228	-0.0284093	-0.117608	-0.295721	0.452912	1.57079	0	0	0.350429	-0.342611	0.0926506	0.997509	1.57079	0	0
0.980816	0.0376333	-0.0993869	-1.45817	0.288112	0.948309	1.49347	0.512704	0.0052742	-0.0236689	0.386528	-0.0752217	0	0	-0.00590248	0.0839309	0.0065269	0.647321	0.277025	0	0	-0.430917	0.00934922	-0.178502	-0.0340623	-0.11599	-0.304258	0.449722	1.57079	0	0	0.354702	-0.346485	0.0947845	1.00645	1.57079	0	0
0.984803	0.0377874	-0.0998019	-1.45393	0.287933	0.947441	1.4998	0.513408	0.00686248	-0.0159335	0.372821	-0.0761548	0	0	-0.0116868	0.082717	0.0118964	0.650618	0.278187	0	0	-0.431638	0.00997848	-0.18167	-0.0397092	-0.114457	-0.312387	0.446736	1.57079	0	0	0.358833	-0.350253	0.0969458	1.01512	1.57079	0	0
0.98879	0.0379624	-0.100253	-1.44972	0.287767	0.946586	1.50619	0.513998	0.00839022	-0.00827309	0.36007	-0.0774648	0	0	-0.0175887	0.0815198	0.0174607	0.653802	0.27884	0	0	-0.432338	0.0106038	-0.18472	-0.0453467	-0.113015	-0.320099	0.443944	1.57079	0	0	0.362805	-0.353903	0.0991187	1.02351	1.57079	0	0
0.992777	0.0381474	-0.100739	-1.44556	0.287611	0.945742	1.51262	0.514481	0.00985739	-0.000777714	0.348315	-0.0791493	0	0	-0.023611	0.080331	0.0231988	0.656864	0.278954	0	0	-0.433011	0.0112349	-0.187638	-0.0509708	-0.111666	-0.32739	0.441335	1.57079	0	0	0.3666	-0.357418	0.101287	1.03162	1.57079	0	0
0.996764	0.0383305	-0.101261	-1.44146	0.287459	0.944909	1.5191	0.514864	0.0112664	0.00646426	0.337591	-0.081207	0	0	-0.0297558	0.0791418	0.0290862	0.659794	0.278497	0	0	-0.433652	0.0118817	-0.190409	-0.0565776	-0.110414	-0.334259	0.438902	1.57079	0	0	0.370201	-0.360786	0.103435	1.03944	1.57079	0	0
1.00075	0.0384991	-0.101817	-1.43744	0.287311	0.944089	1.52563	0.515153	0.0126221	0.0133676	0.327925	-0.0836381	0	0	-0.0360242	0.0779419	0.0350944	0.662586	0.277439	0	0	-0.434255	0.0125547	-0.193019	-0.0621624	-0.109263	-0.340705	0.436633	1.57079	0	0	0.37359	-0.363993	0.105547	1.04698	1.57079	0	0
1.00474	0.0386402	-0.102408	-1.43351	0.287163	0.943283	1.53219	0.51535	0.0139317	0.0198519	0.319342	-0.0864439	0	0	-0.0424164	0.0767201	0.0411919	0.665235	0.27575	0	0	-0.434816	0.0132646	-0.195454	-0.0677198	-0.108216	-0.34673	0.434522	1.57079	0	0	0.376747	-0.367024	0.107607	1.05421	1.57079	0	0
1.00872	0.0387399	-0.103034	-1.42969	0.287013	0.942491	1.53879	0.515461	0.0152045	0.0258427	0.311858	-0.0896264	0	0	-0.048931	0.0754644	0.0473436	0.667735	0.273397	0	0	-0.43533	0.0140221	-0.197699	-0.0732436	-0.107277	-0.352338	0.43256	1.57079	0	0	0.379655	-0.369866	0.109601	1.06115	1.57079	0	0
1.01271	0.0387848	-0.103694	-1.426	0.28686	0.941716	1.54544	0.515486	0.0164515	0.031273	0.305482	-0.0931879	0	0	-0.0555653	0.0741622	0.0535121	0.670084	0.270351	0	0	-0.435793	0.0148376	-0.19974	-0.0787256	-0.106449	-0.357532	0.430739	1.57079	0	0	0.382295	-0.372507	0.111512	1.06779	1.57079	0	0
1.0167	0.0387611	-0.10439	-1.42246	0.2867	0.940959	1.55212	0.515428	0.0176853	0.0360841	0.300218	-0.0971308	0	0	-0.0623144	0.072801	0.0596575	0.672283	0.266578	0	0	-0.436202	0.0157208	-0.201563	-0.0841555	-0.105735	-0.362315	0.429047	1.57079	0	0	0.384649	-0.374935	0.113324	1.07413	1.57079	0	0
1.02069	0.0386556	-0.10512	-1.41908	0.286533	0.940222	1.55883	0.51529	0.0189196	0.0402262	0.296066	-0.101457	0	0	-0.069172	0.071368	0.0657381	0.67433	0.262048	0	0	-0.436552	0.0166805	-0.203158	-0.0895214	-0.105138	-0.366694	0.427473	1.57079	0	0	0.386699	-0.37714	0.115021	1.08016	1.57079	0	0
1.02467	0.0384558	-0.105882	-1.41589	0.286357	0.939508	1.56558	0.515072	0.0201687	0.0436586	0.293015	-0.106167	0	0	-0.0761292	0.069851	0.0717099	0.67623	0.25673	0	0	-0.43684	0.0177247	-0.204511	-0.0948094	-0.104661	-0.370673	0.426004	1.57079	0	0	0.38843	-0.379114	0.116587	1.08587	1.57079	0	0
1.02866	0.0381497	-0.106677	-1.4129	0.286171	0.93882	1.57236	0.514776	0.0214475	0.0463499	0.291053	-0.111258	0	0	-0.0831754	0.0682379	0.0775281	0.677986	0.250592	0	0	-0.437063	0.0188599	-0.205613	-0.100004	-0.104307	-0.374258	0.424626	1.57079	0	0	0.389825	-0.380848	0.118007	1.09128	1.57079	0	0
1.03265	0.0377266	-0.107502	-1.41014	0.285975	0.938158	1.57918	0.514406	0.0227709	0.0482782	0.290159	-0.116727	0	0	-0.0902972	0.0665175	0.083146	0.679604	0.243604	0	0	-0.437219	0.0200913	-0.206454	-0.105087	-0.104076	-0.377452	0.423325	1.57079	0	0	0.390872	-0.382338	0.119263	1.09636	1.57079	0	0
1.03663	0.037177	-0.108355	-1.40762	0.285767	0.937526	1.58603	0.513963	0.0241528	0.0494309	0.290309	-0.122566	0	0	-0.0974789	0.0646794	0.0885164	0.681094	0.235738	0	0	-0.437306	0.0214226	-0.207026	-0.11004	-0.103971	-0.380261	0.422088	1.57079	0	0	0.391558	-0.383579	0.120343	1.10113	1.57079	0	0
1.04062	0.036493	-0.109233	-1.40536	0.285548	0.936927	1.59291	0.513452	0.0256066	0.0498047	0.291473	-0.128761	0	0	-0.104702	0.0627142	0.0935917	0.682466	0.226965	0	0	-0.437322	0.0228558	-0.207323	-0.114844	-0.103993	-0.382688	0.420899	1.57079	0	0	0.391875	-0.384565	0.121233	1.10557	1.57079	0	0
1.04461	0.0356683	-0.110133	-1.40337	0.285316	0.936362	1.59981	0.512875	0.0271444	0.0494054	0.293618	-0.135295	0	0	-0.111945	0.0606137	0.0983247	0.683735	0.21726	0	0	-0.437266	0.0243915	-0.207341	-0.119477	-0.104141	-0.384737	0.419745	1.57079	0	0	0.391815	-0.385297	0.12192	1.10967	1.57079	0	0
1.0486	0.0346981	-0.111049	-1.40167	0.285071	0.935834	1.60674	0.512237	0.0287768	0.0482481	0.296701	-0.142144	0	0	-0.119183	0.0583709	0.10267	0.684917	0.206601	0	0	-0.437137	0.0260289	-0.207076	-0.123919	-0.104417	-0.38641	0.418612	1.57079	0	0	0.391375	-0.38577	0.122395	1.11343	1.57079	0	0
1.05258	0.0335794	-0.111977	-1.40027	0.284813	0.935346	1.6137	0.511543	0.0305134	0.0463564	0.300679	-0.149275	0	0	-0.126388	0.0559799	0.106582	0.686031	0.194966	0	0	-0.436933	0.0277657	-0.206529	-0.128145	-0.10482	-0.387708	0.417486	1.57079	0	0	0.390552	-0.385987	0.122648	1.11685	1.57079	0	0
1.05657	0.0323107	-0.112909	-1.39918	0.284543	0.934899	1.62068	0.510795	0.0323619	0.043763	0.305499	-0.156647	0	0	-0.133529	0.0534363	0.110021	0.687101	0.182337	0	0	-0.436653	0.0295984	-0.205701	-0.132135	-0.105349	-0.388631	0.416355	1.57079	0	0	0.389348	-0.385946	0.122672	1.1199	1.57079	0	0
1.06056	0.0308919	-0.113839	-1.3984	0.284261	0.934496	1.62767	0.509997	0.0343288	0.0405093	0.311106	-0.164209	0	0	-0.14057	0.0507362	0.112947	0.688151	0.168703	0	0	-0.436297	0.0315226	-0.204595	-0.135864	-0.106003	-0.389179	0.415207	1.57079	0	0	0.387767	-0.385648	0.12246	1.12259	1.57079	0	0
1.06454	0.0293247	-0.114759	-1.39795	0.283966	0.934138	1.63469	0.509151	0.0364191	0.036646	0.317437	-0.171898	0	0	-0.147476	0.0478773	0.115325	0.689212	0.154055	0	0	-0.435864	0.0335327	-0.203218	-0.13931	-0.106779	-0.38935	0.414031	1.57078	0	0	0.385813	-0.385097	0.122008	1.1249	1.57079	0	0
1.06853	0.0276121	-0.115661	-1.39782	0.28366	0.933827	1.64172	0.508255	0.0386366	0.0322331	0.324426	-0.17964	0	0	-0.154206	0.0448579	0.117126	0.690314	0.138389	0	0	-0.435354	0.0356226	-0.20158	-0.14245	-0.107675	-0.389139	0.412818	1.57078	0	0	0.383497	-0.384294	0.121311	1.12682	1.57079	0	0
1.07252	0.0257586	-0.116537	-1.39801	0.283342	0.933565	1.64875	0.507307	0.0409843	0.0273397	0.332001	-0.187348	0	0	-0.160718	0.0416768	0.118323	0.691493	0.12171	0	0	-0.434769	0.0377859	-0.19969	-0.145262	-0.108689	-0.388544	0.411559	1.57078	0	0	0.38083	-0.383242	0.120367	1.12833	1.57079	0	0
1.0765	0.0237697	-0.117379	-1.39852	0.283014	0.933353	1.6558	0.506303	0.0434646	0.022043	0.340088	-0.194925	0	0	-0.166968	0.0383335	0.118896	0.692787	0.104028	0	0	-0.434109	0.0400161	-0.197562	-0.147725	-0.109815	-0.387561	0.410251	1.57078	0	0	0.377825	-0.381945	0.119178	1.12943	1.57079	0	0
1.08049	0.021652	-0.118178	-1.39932	0.282676	0.933192	1.66285	0.505237	0.0460795	0.0164254	0.348614	-0.202267	0	0	-0.172913	0.0348276	0.118831	0.694236	0.0853622	0	0	-0.433377	0.0423066	-0.195213	-0.14982	-0.111051	-0.386185	0.408889	1.57078	0	0	0.3745	-0.380408	0.117744	1.13011	1.57079	0	0
1.08448	0.0194132	-0.118929	-1.40042	0.282329	0.933083	1.6699	0.504102	0.0488305	0.0105721	0.357506	-0.209268	0	0	-0.178506	0.0311589	0.118121	0.695883	0.0657369	0	0	-0.432577	0.0446509	-0.19266	-0.151529	-0.112389	-0.384414	0.407473	1.57078	0	0	0.370874	-0.378637	0.116071	1.13034	1.57079	0	0
1.08847	0.0170622	-0.119624	-1.4018	0.281974	0.933026	1.67695	0.502891	0.0517178	0.00456737	0.366694	-0.215821	0	0	-0.183706	0.027327	0.116765	0.69777	0.0451862	0	0	-0.431711	0.0470429	-0.189924	-0.152836	-0.113824	-0.382245	0.406005	1.57078	0	0	0.366967	-0.376639	0.114167	1.13013	1.57079	0	0
1.09245	0.0146085	-0.12026	-1.40342	0.281611	0.933022	1.68399	0.501597	0.0547401	-0.00150704	0.376109	-0.221827	0	0	-0.188467	0.0233319	0.114768	0.699942	0.0237521	0	0	-0.430786	0.0494766	-0.187025	-0.153728	-0.115348	-0.379678	0.404489	1.57078	0	0	0.362803	-0.374421	0.112043	1.12945	1.57079	0	0
1.09644	0.0120629	-0.120832	-1.40528	0.281242	0.933071	1.69102	0.500212	0.0578942	-0.00757462	0.385689	-0.227192	0	0	-0.192747	0.0191735	0.112143	0.702444	0.00148586	0	0	-0.429805	0.051946	-0.183989	-0.154195	-0.116953	-0.376714	0.402931	1.57078	0	0	0.358406	-0.371993	0.109712	1.1283	1.57079	0	0
1.10043	0.00943679	-0.121337	-1.40734	0.280867	0.933173	1.69804	0.498729	0.0611748	-0.0135654	0.395374	-0.231835	0	0	-0.196507	0.0148519	0.10891	0.705324	-0.0215526	0	0	-0.428777	0.0544455	-0.18084	-0.154228	-0.11863	-0.373357	0.401343	1.57078	0	0	0.353804	-0.369366	0.107189	1.12666	1.57079	0	0
1.10441	0.00674263	-0.121773	-1.40958	0.280488	0.933326	1.70504	0.497144	0.0645742	-0.0194171	0.405107	-0.235686	0	0	-0.199705	0.0103681	0.105096	0.708626	-0.0452942	0	0	-0.427705	0.0569695	-0.177605	-0.153825	-0.120367	-0.369612	0.399735	1.57078	0	0	0.349023	-0.366551	0.104492	1.12453	1.57079	0	0
1.1084	0.00399364	-0.122136	-1.41195	0.280106	0.933531	1.71202	0.495451	0.0680823	-0.0250766	0.414837	-0.23869	0	0	-0.202303	0.00572362	0.100734	0.712397	-0.0696608	0	0	-0.426596	0.0595119	-0.174311	-0.152981	-0.122153	-0.36549	0.398122	1.57078	0	0	0.344093	-0.363562	0.101643	1.1219	1.57079	0	0
1.11239	0.00120367	-0.122426	-1.41444	0.279721	0.933787	1.71898	0.493648	0.071686	-0.0305004	0.424516	-0.240806	0	0	-0.204261	0.000920958	0.0958657	0.716683	-0.0945658	0	0	-0.425453	0.0620668	-0.170988	-0.151698	-0.123977	-0.360999	0.39652	1.57078	0	0	0.339041	-0.360412	0.0986626	1.11876	1.57079	0	0
1.11638	-0.00161297	-0.122637	-1.41699	0.279334	0.934091	1.72591	0.491734	0.0753698	-0.0356553	0.434098	-0.242007	0	0	-0.205543	-0.00403594	0.0905356	0.72153	-0.119914	0	0	-0.424281	0.0646278	-0.167663	-0.149979	-0.125825	-0.356154	0.394944	1.57078	0	0	0.333899	-0.357116	0.0955741	1.11511	1.57079	0	0
1.12036	-0.00444168	-0.122768	-1.41959	0.278947	0.934444	1.73281	0.489708	0.0791159	-0.0405177	0.443543	-0.242285	0	0	-0.206111	-0.00914167	0.084794	0.726979	-0.145604	0	0	-0.423082	0.0671881	-0.164364	-0.14783	-0.127685	-0.350967	0.393413	1.57078	0	0	0.328694	-0.353692	0.0924012	1.11094	1.57079	0	0
1.12435	-0.00726787	-0.122811	-1.42219	0.278561	0.934842	1.73968	0.487575	0.0829045	-0.0450728	0.452813	-0.241644	0	0	-0.20593	-0.0143894	0.0786945	0.733073	-0.171527	0	0	-0.421855	0.0697409	-0.16112	-0.145258	-0.129544	-0.345454	0.391943	1.57078	0	0	0.323455	-0.350154	0.089168	1.10626	1.57079	0	0
1.12834	-0.0100773	-0.122762	-1.42476	0.278176	0.935285	1.74651	0.485338	0.086715	-0.0493134	0.461875	-0.240099	0	0	-0.204966	-0.0197713	0.0722923	0.739849	-0.19757	0	0	-0.4206	0.0722792	-0.157955	-0.142273	-0.131391	-0.339632	0.390552	1.57078	0	0	0.318209	-0.346521	0.0858989	1.10106	1.57079	0	0
1.13232	-0.0128565	-0.122614	-1.42726	0.277792	0.935769	1.75331	0.483007	0.0905266	-0.0532387	0.470699	-0.237681	0	0	-0.203187	-0.0252788	0.0656436	0.747338	-0.223622	0	0	-0.419312	0.0747961	-0.154893	-0.138886	-0.133212	-0.333519	0.389255	1.57078	0	0	0.312983	-0.342808	0.0826176	1.09535	1.57079	0	0
1.13631	-0.0155929	-0.12236	-1.42968	0.277412	0.936294	1.76007	0.480592	0.0943186	-0.0568534	0.479263	-0.234426	0	0	-0.200564	-0.0309031	0.0588032	0.755565	-0.249574	0	0	-0.417988	0.0772857	-0.151959	-0.13511	-0.134999	-0.327133	0.388067	1.57078	0	0	0.3078	-0.339031	0.0793475	1.08913	1.57079	0	0
1.1403	-0.0182755	-0.121991	-1.43198	0.277036	0.936856	1.76679	0.478105	0.0980714	-0.060167	0.487548	-0.230379	0	0	-0.197075	-0.0366354	0.0518243	0.764549	-0.27532	0	0	-0.416622	0.0797427	-0.149173	-0.130959	-0.136741	-0.32049	0.387001	1.57078	0	0	0.302682	-0.335208	0.0761111	1.08241	1.57079	0	0
1.14428	-0.0208948	-0.121499	-1.43413	0.276663	0.937453	1.77347	0.475564	0.101767	-0.0631934	0.49554	-0.22559	0	0	-0.192702	-0.042467	0.0447579	0.774299	-0.300763	0	0	-0.415207	0.0821633	-0.146553	-0.126447	-0.138431	-0.313608	0.386068	1.57078	0	0	0.297648	-0.331352	0.0729297	1.07521	1.57079	0	0
1.14827	-0.0234438	-0.120877	-1.43611	0.276296	0.938083	1.78011	0.472983	0.105388	-0.0659508	0.503231	-0.220116	0	0	-0.187431	-0.0483891	0.0376529	0.784816	-0.325807	0	0	-0.413733	0.0845454	-0.144116	-0.121592	-0.140062	-0.306507	0.385277	1.57078	0	0	0.292713	-0.327479	0.0698229	1.06754	1.57079	0	0
1.15226	-0.0259177	-0.120116	-1.43791	0.275933	0.938744	1.78671	0.47038	0.108923	-0.0684609	0.510617	-0.214014	0	0	-0.181258	-0.0543933	0.0305557	0.796093	-0.350365	0	0	-0.412194	0.086889	-0.141875	-0.116412	-0.141629	-0.299206	0.38464	1.57078	0	0	0.287892	-0.323601	0.0668079	1.05941	1.57079	0	0
1.15625	-0.0283141	-0.119211	-1.4395	0.275576	0.939432	1.79327	0.467771	0.112359	-0.0707481	0.517698	-0.207344	0	0	-0.174185	-0.0604715	0.0235097	0.808115	-0.374357	0	0	-0.410582	0.0891955	-0.139839	-0.110928	-0.143129	-0.291724	0.384166	1.57078	0	0	0.283196	-0.319729	0.0638994	1.05084	1.57079	0	0
1.16023	-0.0306329	-0.118159	-1.44088	0.275225	0.940145	1.79978	0.465172	0.115688	-0.0728395	0.524477	-0.200168	0	0	-0.166223	-0.066616	0.0165549	0.82086	-0.39771	0	0	-0.40889	0.0914687	-0.138016	-0.10516	-0.144559	-0.284083	0.383864	1.57078	0	0	0.278631	-0.315873	0.0611089	1.04186	1.57079	0	0
1.16422	-0.0328764	-0.116958	-1.44204	0.27488	0.94088	1.80626	0.462595	0.118905	-0.0747631	0.53096	-0.192543	0	0	-0.157392	-0.0728197	0.00972661	0.834297	-0.420361	0	0	-0.407112	0.0937136	-0.136409	-0.0991314	-0.145919	-0.276302	0.383741	1.57078	0	0	0.274202	-0.312041	0.0584454	1.03248	1.57079	0	0
1.16821	-0.0350485	-0.115607	-1.44296	0.27454	0.941636	1.81271	0.460051	0.122007	-0.0765471	0.537157	-0.184528	0	0	-0.147721	-0.0790756	0.00305544	0.848388	-0.442259	0	0	-0.405245	0.0959363	-0.135017	-0.0928672	-0.147209	-0.268401	0.383806	1.57078	0	0	0.269912	-0.308239	0.0559149	1.02273	1.57079	0	0
1.17219	-0.0371547	-0.114111	-1.44366	0.274207	0.94241	1.81912	0.457548	0.124996	-0.078219	0.543082	-0.176178	0	0	-0.137246	-0.0853768	-0.00343381	0.86309	-0.463364	0	0	-0.403287	0.0981438	-0.133836	-0.0863923	-0.14843	-0.260401	0.384064	1.57078	0	0	0.26576	-0.304471	0.0535209	1.01263	1.57079	0	0
1.17618	-0.0392017	-0.112475	-1.44414	0.273879	0.943199	1.82549	0.455092	0.127873	-0.0798045	0.548747	-0.167544	0	0	-0.126015	-0.0917162	-0.00972235	0.878355	-0.48365	0	0	-0.401238	0.100343	-0.13286	-0.0797326	-0.149587	-0.252321	0.384522	1.57078	0	0	0.261742	-0.30074	0.0512638	1.00221	1.57079	0	0
1.18017	-0.041197	-0.110707	-1.4444	0.273557	0.944002	1.83184	0.452684	0.130645	-0.0813266	0.554172	-0.158674	0	0	-0.114079	-0.0980876	-0.0157991	0.89413	-0.503104	0	0	-0.3991	0.102541	-0.132077	-0.0729129	-0.150682	-0.24418	0.385183	1.57078	0	0	0.257852	-0.297047	0.0491408	0.991498	1.57079	0	0
1.18416	-0.0431483	-0.108818	-1.44445	0.27324	0.944817	1.83815	0.450325	0.13332	-0.0828055	0.559373	-0.149609	0	0	-0.101499	-0.104485	-0.0216601	0.910361	-0.521732	0	0	-0.396879	0.104744	-0.131475	-0.0659564	-0.15172	-0.235992	0.386045	1.57078	0	0	0.254081	-0.293391	0.047146	0.980521	1.57079	0	0
1.18814	-0.0450631	-0.106819	-1.44432	0.272927	0.945641	1.84444	0.448012	0.135906	-0.084258	0.564373	-0.140386	0	0	-0.0883399	-0.110904	-0.0273079	0.926989	-0.539553	0	0	-0.394581	0.106957	-0.131038	-0.0588842	-0.152707	-0.227771	0.387099	1.57078	0	0	0.25042	-0.289773	0.0452707	0.96931	1.57078	0	0
1.19213	-0.0469485	-0.104724	-1.44402	0.272619	0.946473	1.85071	0.44574	0.138413	-0.0856972	0.569193	-0.131038	0	0	-0.0746706	-0.117338	-0.032751	0.943958	-0.556605	0	0	-0.392214	0.109182	-0.13075	-0.0517155	-0.15365	-0.219526	0.388333	1.57078	0	0	0.246855	-0.286189	0.0435039	0.957894	1.57078	0	0
1.19612	-0.0488109	-0.102548	-1.44357	0.272315	0.947312	1.85696	0.443503	0.140853	-0.0871331	0.573856	-0.121593	0	0	-0.0605614	-0.123783	-0.0380027	0.961212	-0.572938	0	0	-0.389788	0.111424	-0.130594	-0.0444674	-0.154553	-0.211263	0.389731	1.57078	0	0	0.243375	-0.282636	0.041833	0.946303	1.57078	0	0
1.2001	-0.0506558	-0.100304	-1.44299	0.272014	0.948155	1.86319	0.441294	0.143235	-0.0885725	0.578384	-0.112073	0	0	-0.0460829	-0.130234	-0.0430807	0.978699	-0.588618	0	0	-0.387311	0.113682	-0.13055	-0.0371545	-0.155425	-0.202989	0.391273	1.57078	0	0	0.239966	-0.279111	0.0402439	0.934566	1.57078	0	0
1.20409	-0.0524882	-0.0980078	-1.44231	0.271716	0.949003	1.86941	0.439107	0.145572	-0.0900191	0.582802	-0.102499	0	0	-0.0313035	-0.136688	-0.048006	0.99637	-0.603726	0	0	-0.384795	0.115955	-0.130599	-0.0297893	-0.15627	-0.194705	0.392935	1.57078	0	0	0.236613	-0.27561	0.0387215	0.922711	1.57078	0	0
1.20808	-0.0543119	-0.0956708	-1.44154	0.271421	0.949854	1.87562	0.436936	0.147874	-0.0914745	0.58713	-0.0928861	0	0	-0.0162888	-0.143141	-0.0528024	1.01418	-0.618352	0	0	-0.382248	0.118244	-0.130724	-0.0223826	-0.157095	-0.186413	0.394693	1.57078	0	0	0.233303	-0.272128	0.0372508	0.910765	1.57078	0	0
1.21206	-0.0561301	-0.0933051	-1.44071	0.271126	0.950707	1.88182	0.434774	0.15015	-0.0929385	0.591391	-0.0832475	0	0	-0.00109921	-0.14959	-0.0574955	1.03209	-0.632596	0	0	-0.379678	0.120544	-0.130907	-0.0149443	-0.157906	-0.178113	0.396524	1.57078	0	0	0.230024	-0.268662	0.0358171	0.898751	1.57078	0	0
1.21605	-0.0579449	-0.0909206	-1.43983	0.270833	0.951561	1.88802	0.432617	0.152408	-0.0944093	0.595603	-0.0735932	0	0	0.0142109	-0.156035	-0.0621116	1.05006	-0.646557	0	0	-0.377094	0.122854	-0.131133	-0.00748336	-0.158708	-0.169808	0.398406	1.57078	0	0	0.226765	-0.265207	0.0344077	0.886693	1.57078	0	0
1.22004	-0.0597581	-0.0885252	-1.43893	0.270541	0.952416	1.89421	0.430463	0.154656	-0.0958849	0.599785	-0.0639305	0	0	0.0295957	-0.162476	-0.0666759	1.06807	-0.660333	0	0	-0.374501	0.125171	-0.131385	-7.86129e-06	-0.159503	-0.161499	0.400322	1.57078	0	0	0.223517	-0.26176	0.0330121	0.874607	1.57078	0	0
1.22403	-0.0615706	-0.0861248	-1.43801	0.270249	0.953271	1.9004	0.428309	0.156898	-0.0973631	0.60395	-0.0542641	0	0	0.0450189	-0.168913	-0.0712113	1.08611	-0.674007	0	0	-0.371904	0.127491	-0.131653	0.00747547	-0.160295	-0.153187	0.402256	1.57078	0	0	0.220273	-0.258316	0.0316224	0.862507	1.57078	0	0
1.22801	-0.0633829	-0.0837228	-1.43709	0.269958	0.954127	1.90659	0.426155	0.159139	-0.0988423	0.60811	-0.0445966	0	0	0.0604552	-0.175348	-0.0757359	1.10414	-0.687645	0	0	-0.369305	0.129812	-0.131926	0.0149617	-0.161086	-0.144874	0.404196	1.57078	0	0	0.217031	-0.254875	0.0302344	0.850403	1.57078	0	0
