nColumns=19
nRows=221
DataType=double
version=3
OpenSimVersion=4.1
endheader
time	ground_force_calcn_l_vx	ground_force_calcn_l_vy	ground_force_calcn_l_vz	ground_force_calcn_l_px	ground_force_calcn_l_py	ground_force_calcn_l_pz	ground_force_calcn_l_mx	ground_force_calcn_l_my	ground_force_calcn_l_mz	ground_force_calcn_r_vx	ground_force_calcn_r_vy	ground_force_calcn_r_vz	ground_force_calcn_r_px	ground_force_calcn_r_py	ground_force_calcn_r_pz	ground_force_calcn_r_mx	ground_force_calcn_r_my	ground_force_calcn_r_mz
2.93	0	0	0	0	-0.0271052	0	0	0	0	0	0	0	0	-0.0174777	0	0	0	0
2.93999	2.78578	-23.5553	0.637666	1.34175	-1.48947e-16	0.211308	0.0160586	-0.135784	0.00367581	0	0	0	0	-1.48947e-16	0	0	0	0
2.94997	2.91025	-21.7241	1.10397	1.34189	-1.48952e-16	0.211267	0.0144683	-0.108002	0.00548838	0	0	0	0	-1.48952e-16	0	0	0	0
2.95996	2.94339	-19.2208	1.59079	1.34198	-1.48952e-16	0.211224	0.0121705	-0.0794753	0.0065777	0	0	0	0	-1.48952e-16	0	0	0	0
2.96994	2.79465	-15.4361	2.10869	1.34198	-1.48941e-16	0.211161	0.00898559	-0.0496316	0.00678005	0	0	0	0	-1.48941e-16	0	0	0	0
2.97993	2.34639	-9.63424	2.66157	1.34181	-1.48912e-16	0.211107	0.00444213	-0.0182393	0.00503881	0	0	0	0	-1.48912e-16	0	0	0	0
2.98991	1.45872	-1.00823	3.24155	1.33782	-1.48856e-16	0.212636	-0.00134338	0.000928506	-0.00298524	0	0	0	0	-1.48856e-16	0	0	0	0
2.9999	-0.022733	11.2507	3.82438	1.33867	-1.48762e-16	0.210915	-8.42445e-05	0.041693	0.0141725	0	0	0	0	-1.48762e-16	0	0	0	0
3.00989	-2.25569	27.8728	4.3658	1.33821	-1.48619e-16	0.210172	-0.00622437	0.0769124	0.012047	0	0	0	0	-1.48619e-16	0	0	0	0
3.01987	-5.38683	49.4243	4.79991	1.33659	-1.48414e-16	0.20947	-0.0113262	0.103918	0.0100921	0	0	0	0	-1.48414e-16	0	0	0	0
3.02986	-9.53485	76.2281	5.0404	1.33421	-1.48139e-16	0.208614	-0.0155055	0.123961	0.00819665	0	0	0	0	-1.48139e-16	0	0	0	0
3.03984	-14.7724	108.305	4.9858	1.33108	-1.47786e-16	0.207582	-0.0187595	0.137537	0.0063315	0	0	0	0	-1.47786e-16	0	0	0	0
3.04983	-21.1088	145.349	4.52916	1.32722	-1.47355e-16	0.206393	-0.0211011	0.145296	0.00452751	0	0	0	0	-1.47355e-16	0	0	0	0
3.05982	-28.4763	186.753	3.57188	1.32274	-1.46855e-16	0.205083	-0.0225962	0.14819	0.00283432	0	0	0	0	-1.46855e-16	0	0	0	0
3.0698	-36.7202	231.662	2.03978	1.31776	-1.46301e-16	0.203692	-0.0233769	0.147481	0.00129857	0	0	0	0	-1.46301e-16	0	0	0	0
3.07979	-45.5973	279.044	-0.10273	1.31244	-1.4571e-16	0.202261	-0.0236268	0.14459	-5.3231e-05	0	0	0	0	-1.4571e-16	0	0	0	0
3.08977	-54.7844	327.75	-2.8448	1.30695	-1.451e-16	0.200826	-0.0235324	0.140784	-0.00122197	0	0	0	0	-1.451e-16	0	0	0	0
3.09976	-63.901	376.573	-6.12961	1.30143	-1.44487e-16	0.19942	-0.0232205	0.13684	-0.0022274	0	0	0	0	-1.44487e-16	0	0	0	0
3.10974	-72.5431	424.299	-9.86198	1.29602	-1.43887e-16	0.198067	-0.0227152	0.13286	-0.00308806	0	0	0	0	-1.43887e-16	0	0	0	0
3.11973	-80.3206	469.747	-13.9188	1.29082	-1.43309e-16	0.196782	-0.0219411	0.12832	-0.00380219	0	0	0	0	-1.43309e-16	0	0	0	0
3.12972	-86.8932	511.818	-18.1597	1.28589	-1.42761e-16	0.19557	-0.0207706	0.122343	-0.00434082	0	0	0	0	-1.42761e-16	0	0	0	0
3.1397	-91.9991	549.54	-22.4363	1.28125	-1.42247e-16	0.194429	-0.0190908	0.114035	-0.00465577	0	0	0	0	-1.42247e-16	0	0	0	0
3.14969	-95.475	582.11	-26.6015	1.27692	-1.41766e-16	0.193351	-0.0168588	0.102788	-0.00469724	0	0	0	0	-1.41766e-16	0	0	0	0
3.15967	-97.2634	608.938	-30.5173	1.27285	-1.41314e-16	0.192325	-0.01413	0.0884638	-0.00443341	0	0	0	0	-1.41314e-16	0	0	0	0
3.16966	-97.409	629.676	-34.0621	1.269	-1.40887e-16	0.191338	-0.0110537	0.071454	-0.00386529	0	0	0	0	-1.40887e-16	0	0	0	0
3.17965	-96.0434	644.231	-37.1365	1.26532	-1.40478e-16	0.190379	-0.00784296	0.0526083	-0.00303259	0	0	0	0	-1.40478e-16	0	0	0	0
3.18963	-93.3637	652.76	-39.6672	1.26173	-1.4008e-16	0.189437	-0.00473086	0.0330762	-0.00200999	0	0	0	0	-1.4008e-16	0	0	0	0
3.19962	-89.6068	655.641	-41.61	1.2582	-1.39688e-16	0.188506	-0.0019294	0.0141171	-0.000895939	0	0	0	0	-1.39688e-16	0	0	0	0
3.2096	-85.0253	653.438	-42.9504	1.25466	-1.39295e-16	0.187583	0.000400579	-0.00307854	0.000202352	0	0	0	0	-1.39295e-16	0	0	0	0
3.21959	-79.8654	646.849	-43.7024	1.25109	-1.389e-16	0.18667	0.00216494	-0.0175344	0.00118465	0	0	0	0	-1.389e-16	0	0	0	0
3.22957	-74.3514	636.651	-43.9061	1.24748	-1.38498e-16	0.18577	0.00333935	-0.028594	0.00197196	0	0	0	0	-1.38498e-16	0	0	0	0
3.23956	-68.6752	623.652	-43.6236	1.24381	-1.38092e-16	0.184889	0.00396415	-0.0359992	0.00251809	0	0	0	0	-1.38092e-16	0	0	0	0
3.24955	-62.9911	608.644	-42.9332	1.24011	-1.3768e-16	0.184033	0.00413469	-0.039951	0.00281811	0	0	0	0	-1.3768e-16	0	0	0	0
3.25953	-57.4152	592.374	-41.9235	1.23639	-1.37267e-16	0.18321	0.00398958	-0.0411619	0.00291311	0	0	0	0	-1.37267e-16	0	0	0	0
3.26952	-52.0284	575.513	-40.6855	1.23267	-1.36855e-16	0.182429	0.00369781	-0.0409033	0.00289163	0	0	0	0	-1.36855e-16	0	0	0	0
3.2795	-46.8805	558.649	-39.3069	1.229	-1.36447e-16	0.181697	0.00344398	-0.0410401	0.0028876	0	0	0	0	-1.36447e-16	0	0	0	0
3.28949	-41.9967	542.284	-37.8658	1.2254	-1.36047e-16	0.181023	0.00340969	-0.0440277	0.0030743	0	0	0	0	-1.36047e-16	0	0	0	0
3.29948	-37.3843	526.832	-36.4275	1.2219	-1.35658e-16	0.180415	0.0037504	-0.0528518	0.00365441	0	0	0	0	-1.35658e-16	0	0	0	0
3.30946	-33.0382	512.631	-35.0427	1.21851	-1.35283e-16	0.179884	0.00456934	-0.0708994	0.00484659	0	0	0	0	-1.35283e-16	0	0	0	0
3.31945	-28.9457	499.955	-33.7477	1.21525	-1.34921e-16	0.179437	0.0058924	-0.101774	0.00686991	0	0	0	0	-1.34921e-16	0	0	0	0
3.32943	-25.09	489.022	-32.5655	1.21212	-1.34574e-16	0.179083	0.00764803	-0.149066	0.00992676	0	0	0	0	-1.34574e-16	0	0	0	0
3.33942	-21.4505	480.008	-31.5091	1.20911	-1.34241e-16	0.178828	0.00965634	-0.216084	0.0141844	0	0	0	0	-1.34241e-16	0	0	0	0
3.3494	-18.0027	473.055	-30.5837	1.20621	-1.33921e-16	0.178676	0.0116301	-0.305603	0.0197577	0	0	0	0	-1.33921e-16	0	0	0	0
3.35939	-14.7165	468.279	-29.7897	1.20341	-1.33611e-16	0.178628	0.0131877	-0.419633	0.0266951	0	0	0	0	-1.33611e-16	0	0	0	0
3.36938	-11.5544	465.77	-29.1262	1.20069	-1.33312e-16	0.178681	0.0138735	-0.559255	0.0349722	0	0	0	0	-1.33312e-16	0	0	0	0
3.37936	-8.46986	465.592	-28.5922	1.19805	-1.33021e-16	0.178829	0.0131801	-0.724516	0.0444928	0	0	0	0	-1.33021e-16	0	0	0	0
3.38935	-5.40694	467.781	-28.1888	1.19547	-1.32736e-16	0.179064	0.0105687	-0.91435	0.0550993	0	0	0	0	-1.32736e-16	0	0	0	0
3.39933	-2.29999	472.335	-27.9194	1.19294	-1.32459e-16	0.179371	0.00548552	-1.12653	0.0665884	0	0	0	0	-1.32459e-16	0	0	0	0
3.40932	0.925847	479.215	-27.7903	1.19048	-1.32188e-16	0.179734	-0.00262285	-1.35758	0.0787275	0	0	0	0	-1.32188e-16	0	0	0	0
3.4193	4.35356	488.33	-27.8092	1.18808	-1.31925e-16	0.180135	-0.0142883	-1.6027	0.0912697	0	0	0	0	-1.31925e-16	0	0	0	0
3.42929	8.07192	499.537	-27.9857	1.18577	-1.3167e-16	0.180554	-0.029986	-1.85571	0.103963	0	0	0	0	-1.3167e-16	0	0	0	0
3.43928	12.1714	512.633	-28.3294	1.18354	-1.31425e-16	0.18097	-0.0500767	-2.10912	0.116555	0.296812	-3.68565	0.125079	0.660097	-1.31425e-16	0.299631	-0.0018935	0.0235124	-0.000797936
3.44926	16.7384	527.345	-28.8482	1.18143	-1.31192e-16	0.181364	-0.0747275	-2.35429	0.128791	0.556933	-5.42938	0.105228	0.660377	-7.33231e-17	0.299388	-0.00168524	0.0164289	-0.000318413
3.45925	21.8478	543.325	-29.5461	1.17944	-1.30973e-16	0.181719	-0.103822	-2.5819	0.140404	0.892836	-7.4601	0.0604626	0.660574	-7.33395e-17	0.29918	-0.00109983	0.00918964	-7.44802e-05
3.46923	27.5555	560.15	-30.4187	1.17759	-1.30768e-16	0.182024	-0.136878	-2.78247	0.151101	1.30404	-9.68056	-0.0174494	0.660754	-7.33584e-17	0.299002	-0.000147839	0.00109748	1.97823e-06
3.47922	33.8903	577.319	-31.4502	1.17588	-1.3058e-16	0.182272	-0.172999	-2.94703	0.160543	1.78008	-11.9176	-0.136916	0.660928	-7.33787e-17	0.298835	0.00128767	-0.00862094	-9.90419e-05
3.48921	40.8463	594.251	-32.6091	1.17433	-1.30409e-16	0.182462	-0.210872	-3.06787	0.168347	2.29636	-13.9048	-0.305436	0.661085	-7.33988e-17	0.298664	0.00340698	-0.0206298	-0.000453158
3.49919	48.3766	610.292	-33.8452	1.17294	-1.30254e-16	0.182603	-0.248838	-3.1392	0.174092	2.80976	-15.2677	-0.528033	0.661192	-7.3416e-17	0.298469	0.00650584	-0.0353515	-0.00122263
3.50918	56.3873	624.721	-35.0891	1.17169	-1.30115e-16	0.182705	-0.285016	-3.15773	0.177362	3.25433	-15.5165	-0.805197	0.661191	-7.34265e-17	0.298201	0.0110604	-0.0527353	-0.00273659
3.51916	64.7342	636.76	-36.2526	1.17057	-1.2999e-16	0.182787	-0.317481	-3.12291	0.177796	3.53785	-14.0487	-1.13037	0.660945	-7.34252e-17	0.297695	0.018063	-0.0717277	-0.00577129
3.52915	73.2222	645.594	-37.2337	1.16957	-1.29878e-16	0.182868	-0.344452	-3.037	0.175154	3.54005	-10.1661	-1.48719	0.659916	-7.34056e-17	0.296109	0.0305555	-0.0877479	-0.0128365
3.53913	81.6069	650.398	-37.9227	1.16867	-1.29777e-16	0.182973	-0.364466	-2.90475	0.169367	3.11374	-3.11033	-1.84675	0.650717	-7.33598e-17	0.282394	0.0527021	-0.0526444	-0.0312575
3.54912	89.5999	650.378	-38.212	1.16783	-1.29683e-16	0.183124	-0.376498	-2.73289	0.160566	2.08979	7.88421	-2.16551	0.655626	-7.32787e-17	0.295418	-0.033553	-0.126587	0.0347689
3.55911	96.8785	644.813	-38.0059	1.16703	-1.29592e-16	0.183346	-0.380022	-2.52939	0.149084	0.287034	23.5195	-2.38441	0.658218	-7.31525e-17	0.30006	-0.00192739	-0.15793	0.016011
3.56909	103.099	633.11	-37.2313	1.16622	-1.29501e-16	0.183663	-0.374999	-2.30279	0.13542	-2.4723	44.3533	-2.43008	0.657067	-7.29713e-17	0.300963	0.00900407	-0.161534	0.00885031
3.57908	107.916	614.86	-35.8468	1.16537	-1.29404e-16	0.184098	-0.361818	-2.06149	0.120187	-6.34199	70.7197	-2.219	0.654996	-7.27266e-17	0.301726	0.0135443	-0.151032	0.00473901
3.58906	111.004	589.891	-33.8487	1.16441	-1.29295e-16	0.184673	-0.341193	-1.81315	0.104041	-11.4274	102.666	-1.66514	0.652219	-7.2413e-17	0.302597	0.0140895	-0.126582	0.00205304
3.59905	112.087	558.318	-31.2746	1.1633	-1.2917e-16	0.185407	-0.314036	-1.56424	0.0876222	-17.7604	139.924	-0.691131	0.648793	-7.20308e-17	0.303583	0.0112229	-0.0884194	0.000436732
3.60904	110.97	520.576	-28.2027	1.16199	-1.29022e-16	0.186321	-0.281324	-1.31974	0.0714979	-25.2773	181.927	0.758102	0.644815	-7.15888e-17	0.304656	0.0053165	-0.0382642	-0.000159449
3.61902	107.562	477.436	-24.7471	1.16043	-1.28846e-16	0.187429	-0.243954	-1.08284	0.0561272	-33.8072	227.862	2.7017	0.640415	-7.11004e-17	0.305778	-0.00298049	0.0200886	0.000238186
3.62901	101.908	429.986	-21.0495	1.15858	-1.2864e-16	0.188747	-0.202596	-0.854827	0.0418472	-43.0741	276.741	5.11369	0.635737	-7.05816e-17	0.306908	-0.0125638	0.0807195	0.00149156
3.63899	94.1978	379.588	-17.2679	1.15645	-1.28401e-16	0.190283	-0.157575	-0.634979	0.028886	-52.7165	327.451	7.9219	0.630935	-7.00489e-17	0.308013	-0.0219161	0.136133	0.00329341
3.64898	84.7686	327.793	-13.5627	1.15403	-1.2813e-16	0.192045	-0.108797	-0.420708	0.0174071	-62.3194	378.8	11.016	0.62615	-6.95181e-17	0.309059	-0.0293285	0.17827	0.00518429
3.65896	74.0827	276.237	-10.0826	1.15139	-1.27833e-16	0.194036	-0.055783	-0.208001	0.00759203	-71.4519	429.552	14.2619	0.621506	-6.90028e-17	0.310023	-0.0332201	0.199711	0.00663079
3.66895	62.6902	226.513	-6.95182	1.14858	-1.27518e-16	0.196257	0.00214438	0.00774811	-0.000237794	-79.7043	478.472	17.5194	0.617097	-6.85132e-17	0.31089	-0.0324476	0.194786	0.00713214
3.67894	51.1752	180.05	-4.25991	1.14573	-1.27199e-16	0.198717	0.0655066	0.230472	-0.00545288	-86.7215	524.373	20.6565	0.612984	-6.80562e-17	0.311656	-0.0265212	0.160364	0.00631717
3.68892	40.0948	138.007	-2.05696	1.14297	-1.26889e-16	0.201456	0.134143	0.461722	-0.00688185	-92.2301	566.166	23.5611	0.609192	-6.76347e-17	0.312324	-0.0156813	0.0962617	0.00400595
3.69891	29.9235	101.209	-0.35354	1.14041	-1.26606e-16	0.204589	0.206549	0.698602	-0.00244033	-96.0573	602.919	26.1491	0.605716	-6.72481e-17	0.312907	-0.000834791	0.0052397	0.00022725
3.70889	21.0132	70.1173	0.874413	1.13806	-1.26361e-16	0.208425	0.279127	0.931399	0.0116152	-98.137	633.902	28.3671	0.602523	-6.68927e-17	0.313423	0.0166242	-0.107382	-0.00480534
3.71888	13.575	44.8459	1.67719	1.13558	-1.26161e-16	0.213781	0.345316	1.14077	0.0426637	-98.5053	658.629	30.1922	0.59956	-6.65627e-17	0.313894	0.0350659	-0.234459	-0.0107478
3.72887	7.68316	25.2028	2.12113	1.13108	-1.26006e-16	0.223062	0.394157	1.29294	0.108817	-97.2854	676.871	31.6283	0.596761	-6.6251e-17	0.314344	0.0528877	-0.36797	-0.0171943
3.73885	3.29345	10.7508	2.27872	1.10946	-1.25891e-16	0.245879	0.402279	1.31315	0.278335	-94.666	688.654	32.6998	0.594054	-6.59494e-17	0.314798	0.0687326	-0.5	-0.0237418
3.74884	0	0	0	0	-6.56502e-17	0	0	0	0	-90.8772	694.238	33.4449	0.591367	-6.56502e-17	0.315276	0.0816317	-0.623609	-0.0300423
3.75882	-1.57491	-5.13724	2.01147	1.05493	-1.25759e-16	0.15269	0.293621	0.957769	-0.375012	-86.1673	694.08	33.9089	0.588634	-6.53458e-17	0.315799	0.0910612	-0.7335	-0.0358347
3.76881	-2.47044	-8.05639	1.70582	1.10669	-1.2573e-16	0.178056	0.25884	0.844106	-0.178727	-80.7828	688.797	34.1381	0.585798	-6.503e-17	0.316381	0.0969221	-0.826409	-0.0409585
3.77879	-2.64652	-8.64037	1.34976	1.11701	-1.25718e-16	0.187606	0.196855	0.642694	-0.100399	-74.9528	679.117	34.1749	0.582813	-6.46978e-17	0.317031	0.0994608	-0.901173	-0.0453493
3.78878	-2.32731	-7.61278	0.981545	1.12045	-1.25718e-16	0.192611	0.136091	0.44516	-0.0573962	-68.8796	665.836	34.0543	0.579649	-6.43458e-17	0.317754	0.099154	-0.958488	-0.0490221
3.79877	-1.72093	-5.64418	0.634416	1.12152	-1.25725e-16	0.195662	0.0838299	0.274938	-0.0309036	-62.7331	649.775	33.8031	0.576291	-6.39723e-17	0.318546	0.0965866	-1.00042	-0.0520447
3.80875	-1.01696	-3.34964	0.339734	1.12145	-1.25737e-16	0.19765	0.0430297	0.141729	-0.0143748	-56.6496	631.746	33.4397	0.572741	-6.35775e-17	0.319396	0.0923423	-1.02979	-0.0545088
3.81874	0	0	0	0	-6.31632e-17	0	0	0	0	-50.7333	612.513	32.9766	0.569016	-6.31632e-17	0.32029	0.086925	-1.04946	-0.0565011
3.82872	0	0	0	0	-6.27327e-17	0	0	0	0	-45.0601	592.775	32.4223	0.565144	-6.27327e-17	0.321204	0.0807153	-1.06182	-0.0580775
3.83871	0	0	0	0	-6.22903e-17	0	0	0	0	-39.682	573.141	31.7852	0.561164	-6.22903e-17	0.322112	0.0739628	-1.06827	-0.059244
3.8487	0	0	0	0	-6.1841e-17	0	0	0	0	-34.6325	554.133	31.0754	0.557122	-6.1841e-17	0.322984	0.0668088	-1.06896	-0.0599469
3.85868	0	0	0	0	-6.13897e-17	0	0	0	0	-29.9313	536.174	30.3071	0.553061	-6.13897e-17	0.32379	0.0593272	-1.06276	-0.0600723
3.86867	0	0	0	0	-6.09409e-17	0	0	0	0	-25.5878	519.604	29.4986	0.549021	-6.09409e-17	0.324499	0.051573	-1.04728	-0.0594553
3.87865	0	0	0	0	-6.04983e-17	0	0	0	0	-21.6042	504.69	28.6714	0.545035	-6.04983e-17	0.325085	0.0436262	-1.01914	-0.0578971
3.88864	0	0	0	0	-6.00642e-17	0	0	0	0	-17.976	491.643	27.8479	0.541122	-6.00642e-17	0.325524	0.0356229	-0.974284	-0.0551858
3.89862	0	0	0	0	-5.96398e-17	0	0	0	0	-14.6913	480.639	27.0486	0.537293	-5.96398e-17	0.3258	0.0277657	-0.908382	-0.0511204
3.90861	0	0	0	0	-5.9225e-17	0	0	0	0	-11.7287	471.833	26.2897	0.533548	-5.9225e-17	0.325903	0.0203159	-0.817287	-0.0455378
3.9186	0	0	0	0	-5.88194e-17	0	0	0	0	-9.05411	465.379	25.5816	0.529881	-5.88194e-17	0.325829	0.0135712	-0.697557	-0.0383442
3.92858	0	0	0	0	-5.84221e-17	0	0	0	0	-6.61681	461.431	24.9289	0.526285	-5.84221e-17	0.325583	0.00784377	-0.546995	-0.0295515
3.93857	0	0	0	0	-5.80328e-17	0	0	0	0	-4.34648	460.142	24.3332	0.522756	-5.80328e-17	0.325178	0.00344962	-0.365195	-0.0193122
3.94855	0	0	0	0	-5.76518e-17	0	0	0	0	-2.15204	461.652	23.7968	0.519301	-5.76518e-17	0.324634	0.000717876	-0.153998	-0.00793814
3.95854	0	0	0	0	-5.72805e-17	0	0	0	0	0.0768715	466.067	23.3266	0.515932	-5.72805e-17	0.323978	1.35666e-05	0.0822535	0.00411678
3.96852	0	0	0	0	-5.69212e-17	0	0	0	0	2.46531	473.427	22.9376	0.512672	-5.69212e-17	0.323242	0.00175338	0.336711	0.0163137
3.97851	0	0	0	0	-5.65766e-17	0	0	0	0	5.14593	483.688	22.6547	0.509546	-5.65766e-17	0.32246	0.00638638	0.600283	0.0281157
3.9885	0	0	0	0	-5.62496e-17	0	0	0	0	8.25002	496.697	22.5115	0.506583	-5.62496e-17	0.321666	0.0143201	0.862152	0.0390748
3.99848	0.337915	-3.40047	-0.225971	-0.0327053	-5.5943e-17	0.221362	-3.41839e-05	0.000343996	2.28595e-05	11.898	512.184	22.5466	0.503806	-5.5943e-17	0.320891	0.0257976	1.11053	0.0488863
4.00847	0.615771	-5.03012	-0.260244	-0.0325629	-5.56587e-17	0.22144	-0.000239242	0.00195433	0.000101111	16.1903	529.766	22.7974	0.501233	-5.56587e-17	0.32016	0.0407568	1.33361	0.0573892
4.01845	0.97187	-6.93349	-0.280288	-0.0324023	3.6001e-18	0.221523	-0.000589062	0.00420247	0.000169886	21.1989	548.951	23.2912	0.498875	-5.53978e-17	0.319489	0.058722	1.52062	0.0645179
4.02844	1.40465	-9.02194	-0.275519	-0.0322233	3.5802e-18	0.221609	-0.00111485	0.00716056	0.000218675	26.9601	569.156	24.0379	0.496731	-5.51606e-17	0.318886	0.0787691	1.6629	0.0702313
4.03843	1.90188	-11.1362	-0.232801	-0.0320343	3.55878e-18	0.221697	-0.00185482	0.0108606	0.000227041	33.4689	589.715	25.0219	0.494795	-5.49462e-17	0.31835	0.09959	1.75476	0.0744552
4.04841	2.43639	-13.0297	-0.136857	-0.0318521	3.53766e-18	0.221783	-0.00284693	0.0152252	0.000159918	40.675	609.897	26.1985	0.493051	-5.47534e-17	0.31787	0.119652	1.79411	0.0770669
4.0584	2.96163	-14.3547	0.0287744	-0.0317048	3.51963e-18	0.221868	-0.0041335	0.0200346	-4.01599e-05	48.482	628.919	27.493	0.491481	-5.45799e-17	0.317434	0.137416	1.78259	0.0779255
4.06838	3.40725	-14.6551	0.280101	-0.031636	3.5087e-18	0.221957	-0.00578107	0.0248652	-0.000475245	56.7483	645.959	28.8051	0.490062	-5.44233e-17	0.317021	0.151569	1.72529	0.0769353
4.07837	3.67577	-13.368	0.630257	-0.0317195	3.51024e-18	0.222091	-0.00795954	0.0289473	-0.00136476	65.2904	660.175	30.0175	0.488768	-5.42811e-17	0.316612	0.161197	1.62992	0.0741107
4.08835	3.64085	-9.83996	1.08631	-0.0321477	3.53112e-18	0.222507	-0.0112846	0.0304984	-0.00336696	73.887	670.721	31.0069	0.487574	-5.41506e-17	0.316187	0.165891	1.5059	0.0696165
4.09834	3.14848	-3.35847	1.64542	-0.0347701	3.57969e-18	0.225969	-0.0162406	0.0173237	-0.00848741	82.2845	676.776	31.6577	0.486457	-5.40291e-17	0.31573	0.165742	1.3632	0.0637666
4.10833	2.02208	6.79776	2.29074	-0.0344542	3.66553e-18	0.222063	0.00862869	0.0290076	0.00977511	90.2027	677.574	31.8737	0.485392	-5.39139e-17	0.315226	0.161272	1.21142	0.0569865
4.11831	0.0723494	21.2934	2.98771	-0.0343993	3.79904e-18	0.220322	9.31084e-05	0.0274031	0.00384496	97.342	672.443	31.5878	0.484355	-5.38024e-17	0.314664	0.153319	1.05914	0.0497527
4.1283	-2.88753	40.661	3.68162	-0.0359743	3.99053e-18	0.219664	-0.000983158	0.0138444	0.00125354	103.393	660.851	30.7681	0.483321	-5.36915e-17	0.314036	0.14292	0.913495	0.0425308
4.13828	-7.02171	65.2259	4.29763	-0.0382662	4.2489e-18	0.218905	0.000475561	-0.00441757	-0.000291067	108.05	642.443	29.4196	0.482262	-5.35776e-17	0.313336	0.131214	0.780173	0.0357267
4.14827	-12.448	95.0475	4.74442	-0.0412381	4.57977e-18	0.217986	0.00319657	-0.0244076	-0.00121834	111.024	617.097	27.5821	0.481149	-5.34567e-17	0.312558	0.119366	0.663461	0.0296544
4.15826	-19.2131	129.891	4.92235	-0.0448691	4.98286e-18	0.216934	0.00637897	-0.0431252	-0.00163427	112.071	584.956	25.3259	0.479946	-5.3324e-17	0.311696	0.108512	0.566379	0.0245216
4.16824	-27.2713	169.243	4.73628	-0.0490685	5.44876e-18	0.215786	0.00924344	-0.0573638	-0.00160533	111.01	546.465	22.7444	0.478617	-5.31738e-17	0.310742	0.0996869	0.490726	0.0204245
4.17823	-36.4704	212.366	4.1113	-0.0537035	5.96293e-18	0.214586	0.0109681	-0.0638668	-0.00123643	107.751	502.388	19.9468	0.477126	-5.30006e-17	0.309687	0.0937262	0.436997	0.0173505
4.18821	-46.5496	258.364	3.0075	-0.0586161	6.508e-18	0.213376	0.010754	-0.0596878	-0.0006948	102.324	453.796	17.0492	0.475439	-5.27987e-17	0.308523	0.0911433	0.40421	0.0151862
4.1982	-57.1513	306.236	1.42824	-0.0636379	7.0653e-18	0.212197	0.00796824	-0.0426965	-0.000199131	94.8912	402.032	14.1667	0.473538	-5.25634e-17	0.307241	0.091989	0.389736	0.0137334
4.20818	-67.8454	354.918	-0.580509	-0.0686034	7.61651e-18	0.211085	0.00231137	-0.0120914	1.97769e-05	85.7539	348.641	11.4055	0.47142	-5.22923e-17	0.305838	0.0957504	0.389282	0.0127351
4.21817	-78.1636	403.307	-2.93922	-0.0733638	8.14509e-18	0.210069	-0.00606184	0.0312778	-0.000227946	75.3388	295.264	8.85582	0.469108	-5.19856e-17	0.304318	0.101341	0.397173	0.0119123
4.22816	-87.6401	450.3	-5.54796	-0.0777983	8.63761e-18	0.209168	-0.0165301	0.0849326	-0.00104642	64.1647	243.523	6.58687	0.466659	-5.16478e-17	0.302695	0.107231	0.406973	0.0110079
4.23814	-95.852	494.815	-8.29914	-0.0818216	9.08457e-18	0.208391	-0.0281149	0.145137	-0.00243427	52.7922	194.889	4.64359	0.46416	-5.12876e-17	0.301001	0.11171	0.412392	0.00982599
4.24813	-102.455	535.832	-11.0879	-0.0853869	9.48074e-18	0.207737	-0.0396711	0.207477	-0.00429328	41.7643	150.574	3.04564	0.461729	-5.09189e-17	0.299289	0.113242	0.408273	0.00825808
4.25811	-107.211	572.435	-13.8196	-0.0884853	9.8251e-18	0.207193	-0.0500944	0.267471	-0.00645723	31.5493	111.458	1.78862	0.459492	-5.0559e-17	0.297634	0.110798	0.391429	0.00628147
4.2681	-110.001	603.87	-16.4148	-0.091141	1.01203e-17	0.206741	-0.0584966	0.321127	-0.00872912	22.4993	78.0569	0.847719	0.457564	-5.02267e-17	0.296148	0.104087	0.361108	0.00392173
4.27809	-110.83	629.586	-18.8108	-0.0934048	1.03719e-17	0.206357	-0.0643211	0.365385	-0.010917	14.8315	50.5313	0.183374	0.456003	-4.99386e-17	0.294998	0.0936354	0.319019	0.00115769
4.28807	-109.811	649.268	-20.9602	-0.0953453	1.05877e-17	0.206017	-0.067386	0.398425	-0.0128622	8.62985	28.7248	-0.251828	0.454867	-4.97016e-17	0.29452	0.0807864	0.268901	-0.00235744
4.29806	-107.144	662.849	-22.8278	-0.0970408	1.07761e-17	0.205695	-0.0678525	0.419773	-0.0144565	3.86425	12.2239	-0.506774	0.454595	-4.95162e-17	0.296098	0.0680308	0.215204	-0.00892184
4.30804	-103.082	670.5	-24.3875	-0.0985711	1.09462e-17	0.20537	-0.0661385	0.430199	-0.0156472	0	0	0	0	1.09462e-17	0	0	0	0
4.31803	-97.9089	672.597	-25.619	-0.10001	1.11061e-17	0.205022	-0.0628015	0.431422	-0.0164328	-1.88777	-7.37743	-0.652734	0.454335	-4.92822e-17	0.284541	0.0325099	0.127049	0.0112409
4.32801	-91.9048	669.675	-26.5067	-0.101424	1.12631e-17	0.204639	-0.0584216	0.425696	-0.0168496	-3.2544	-11.951	-0.616365	0.452954	-4.92201e-17	0.286497	0.023721	0.0871094	0.00449261
4.338	-85.3323	662.382	-27.0402	-0.102863	1.14229e-17	0.204209	-0.0535068	0.41534	-0.0169553	-3.8933	-14.0366	-0.543742	0.452626	-4.91847e-17	0.287123	0.0148954	0.0537029	0.00208031
4.34799	-78.4228	651.425	-27.218	-0.104368	1.15901e-17	0.203728	-0.0484381	0.402355	-0.0168113	-4.0023	-14.318	-0.454014	0.45253	-4.91692e-17	0.287491	0.007564	0.0270597	0.000858047
4.35797	-71.3729	637.53	-27.0509	-0.10597	1.17679e-17	0.203192	-0.0434566	0.388171	-0.0164704	-3.75512	-13.3886	-0.360649	0.452536	-4.91677e-17	0.287804	0.00196659	0.00701171	0.000188875
4.36796	-64.3443	621.412	-26.5648	-0.10769	1.19588e-17	0.202599	-0.0386833	0.373588	-0.0159706	-3.29514	-11.7364	-0.272452	0.452594	-4.91752e-17	0.288118	-0.00196819	-0.00701012	-0.000162736
4.37794	-57.4682	603.751	-25.8016	-0.109545	1.21647e-17	0.201947	-0.0341572	0.35885	-0.0153356	-2.7338	-9.74074	-0.194585	0.452677	-4.91878e-17	0.288451	-0.00445254	-0.0158648	-0.00031692
4.38793	-50.8491	585.187	-24.8165	-0.111552	1.23875e-17	0.201236	-0.0298765	0.343828	-0.014581	-2.15214	-7.67875	-0.129492	0.452767	-4.92028e-17	0.288811	-0.00576157	-0.020557	-0.000346667
4.39791	-44.5698	566.313	-23.6737	-0.113728	1.2629e-17	0.200465	-0.0258309	0.328213	-0.0137203	-1.60456	-5.73734	-0.0777081	0.452855	-4.9218e-17	0.289215	-0.00618104	-0.0221013	-0.000299346
4.4079	-38.6935	547.676	-22.4401	-0.116089	1.2891e-17	0.199631	-0.0220198	0.311673	-0.0127703	-1.12345	-4.02894	-0.0385149	0.45294	-4.92322e-17	0.289695	-0.00596429	-0.0213893	-0.000204472
4.41789	-33.265	529.777	-21.1799	-0.118649	1.31751e-17	0.198735	-0.0184552	0.293916	-0.0117505	0	0	0	0	1.31751e-17	0	0	0	0
4.42787	-28.3107	513.068	-19.9494	-0.121421	1.34827e-17	0.197779	-0.0151556	0.274661	-0.0106795	0	0	0	0	1.34827e-17	0	0	0	0
4.43786	-23.8372	497.954	-18.7944	-0.12441	1.38144e-17	0.196766	-0.0121369	0.253538	-0.00956936	0	0	0	0	1.38144e-17	0	0	0	0
4.44784	-19.8314	484.785	-17.7503	-0.12761	1.41694e-17	0.195704	-0.00940727	0.229963	-0.00842006	0	0	0	0	1.41694e-17	0	0	0	0
4.45783	-16.2602	473.85	-16.8433	-0.131006	1.45462e-17	0.194606	-0.0069681	0.203062	-0.00721795	0	0	0	0	1.45462e-17	0	0	0	0
4.46782	-13.073	465.377	-16.0934	-0.134568	1.49415e-17	0.193485	-0.00482185	0.17165	-0.00593589	0	0	0	0	1.49415e-17	0	0	0	0
4.4778	-10.2045	459.53	-15.5169	-0.13826	1.53511e-17	0.19236	-0.00298227	0.134298	-0.00453483	0	0	0	0	1.53511e-17	0	0	0	0
4.48779	-7.57901	456.408	-15.1282	-0.142037	1.57701e-17	0.191249	-0.00148525	0.0894416	-0.00296466	0	0	0	0	1.57701e-17	0	0	0	0
4.49777	-5.11392	456.049	-14.9393	-0.14585	1.61931e-17	0.190175	-0.000398368	0.0355256	-0.00116375	0	0	0	0	1.61931e-17	0	0	0	0
4.50776	-2.72303	458.432	-14.9588	-0.149651	1.66148e-17	0.189155	0.000171391	-0.0288542	0.000941526	0	0	0	0	1.66148e-17	0	0	0	0
4.51774	-0.318615	463.478	-15.1906	-0.1534	1.70306e-17	0.188208	7.20474e-05	-0.104805	0.003435	0	0	0	0	1.70306e-17	0	0	0	0
4.52773	2.18692	471.051	-15.6317	-0.157062	1.74367e-17	0.187351	-0.000895974	-0.192988	0.00640424	0	0	0	0	1.74367e-17	0	0	0	0
4.53772	4.87968	480.965	-16.2716	-0.160613	1.78304e-17	0.186593	-0.00297751	-0.293478	0.0099287	0	0	0	0	1.78304e-17	0	0	0	0
4.5477	7.84249	492.977	-17.0926	-0.164039	1.821e-17	0.185944	-0.00645284	-0.405624	0.0140639	0	0	0	0	1.821e-17	0	0	0	0
4.55769	11.1525	506.792	-18.0702	-0.167334	1.85752e-17	0.185408	-0.0116181	-0.527952	0.0188247	0	0	0	0	1.85752e-17	0	0	0	0
4.56767	14.8778	522.059	-19.1739	-0.170503	1.89261e-17	0.184983	-0.0187549	-0.658106	0.0241706	0	0	0	0	1.89261e-17	0	0	0	0
4.57766	19.0737	538.38	-20.3684	-0.173552	1.92636e-17	0.184669	-0.0280894	-0.792858	0.029996	0	0	0	0	1.92636e-17	0	0	0	0
4.58765	23.7786	555.301	-21.6133	-0.176492	1.95889e-17	0.184459	-0.0397469	-0.928209	0.0361275	0	0	0	0	1.95889e-17	0	0	0	0
4.59763	29.0091	572.322	-22.8628	-0.179332	1.99027e-17	0.184348	-0.0537077	-1.0596	0.0423284	0	0	0	0	1.99027e-17	0	0	0	0
4.60762	34.7565	588.896	-24.0649	-0.182079	2.02061e-17	0.184328	-0.069777	-1.18227	0.0483127	0	0	0	0	2.02061e-17	0	0	0	0
4.6176	40.9828	604.429	-25.1606	-0.184737	2.04992e-17	0.184392	-0.0875796	-1.29166	0.0537678	0	0	0	0	2.04992e-17	0	0	0	0
4.62759	47.6182	618.289	-26.0835	-0.187306	2.0782e-17	0.184535	-0.106583	-1.38391	0.0583824	0	0	0	0	2.0782e-17	0	0	0	0
4.63757	54.5595	629.806	-26.7623	-0.189784	2.10542e-17	0.184751	-0.126145	-1.45616	0.0618764	0	0	0	0	2.10542e-17	0	0	0	0
4.64756	61.6681	638.29	-27.1244	-0.192168	2.13153e-17	0.185037	-0.14557	-1.50671	0.0640281	0	0	0	0	2.13153e-17	0	0	0	0
4.65755	68.7694	643.04	-27.102	-0.194456	2.1565e-17	0.185389	-0.164156	-1.53497	0.0646939	0	0	0	0	2.1565e-17	0	0	0	0
4.66753	75.6518	643.375	-26.6391	-0.196649	2.18038e-17	0.185809	-0.181237	-1.54131	0.0638186	0	0	0	0	2.18038e-17	0	0	0	0
4.67752	82.0685	638.658	-25.6988	-0.198756	2.20327e-17	0.186298	-0.196195	-1.52679	0.0614359	0	0	0	0	2.20327e-17	0	0	0	0
4.6875	87.7422	628.342	-24.2683	-0.200795	2.22538e-17	0.186864	-0.208476	-1.49295	0.0576617	0	0	0	0	2.22538e-17	0	0	0	0
4.69749	92.3756	612.009	-22.3645	-0.202792	2.24708e-17	0.187517	-0.2176	-1.44165	0.0526818	0	0	0	0	2.24708e-17	0	0	0	0
4.70748	95.6685	589.421	-20.0352	-0.204782	2.26884e-17	0.188272	-0.223175	-1.375	0.046738	0	0	0	0	2.26884e-17	0	0	0	0
4.71746	97.3415	560.574	-17.3588	-0.206808	2.29125e-17	0.189149	-0.224932	-1.29535	0.0401119	0	0	0	0	2.29125e-17	0	0	0	0
4.72745	97.1659	525.734	-14.4415	-0.208915	2.31499e-17	0.190172	-0.222748	-1.20522	0.0331065	0	0	0	0	2.31499e-17	0	0	0	0
4.73743	94.9962	485.473	-11.4104	-0.21115	2.34074e-17	0.191364	-0.216676	-1.10731	0.026026	0	0	0	0	2.34074e-17	0	0	0	0
4.74742	90.7994	440.67	-8.40438	-0.213549	2.36918e-17	0.19275	-0.206942	-1.00434	0.0191545	0	0	0	0	2.36918e-17	0	0	0	0
4.7574	84.6774	392.494	-5.56253	-0.216136	2.4008e-17	0.194352	-0.193917	-0.898838	0.0127386	0	0	0	0	2.4008e-17	0	0	0	0
4.76739	76.8736	342.341	-3.01093	-0.218911	2.43591e-17	0.196181	-0.17807	-0.792999	0.00697453	0	0	0	0	2.43591e-17	0	0	0	0
4.77738	67.7618	291.746	-0.849996	-0.221846	2.47445e-17	0.198236	-0.159918	-0.688521	0.00200599	0	0	0	0	2.47445e-17	0	0	0	0
4.78736	57.8157	242.266	0.855649	-0.224877	2.51592e-17	0.200502	-0.140002	-0.58665	-0.00207197	0	0	0	0	2.51592e-17	0	0	0	0
4.79735	47.5617	195.357	2.0825	-0.227906	2.55933e-17	0.202937	-0.118899	-0.488371	-0.00520601	0	0	0	0	2.55933e-17	0	0	0	0
4.80733	37.5228	152.261	2.84768	-0.230807	2.60319e-17	0.20548	-0.0972693	-0.394701	-0.00738197	0	0	0	0	2.60319e-17	0	0	0	0
4.81732	28.1622	113.913	3.20273	-0.23344	2.64559e-17	0.208043	-0.0758865	-0.306953	-0.00863017	0	0	0	0	2.64559e-17	0	0	0	0
4.8273	19.8391	80.9035	3.22326	-0.235685	2.68443e-17	0.210518	-0.0556213	-0.226823	-0.00903682	0	0	0	0	2.68443e-17	0	0	0	0
4.83729	12.784	53.4715	2.99682	-0.23749	2.71791e-17	0.212791	-0.0373587	-0.15626	-0.0087576	0	0	0	0	2.71791e-17	0	0	0	0
4.84728	7.09617	31.5376	2.61119	-0.238837	2.74529e-17	0.214762	-0.0218581	-0.0971444	-0.00804317	0	0	0	0	2.74529e-17	0	0	0	0
4.85726	2.75808	14.7589	2.14486	-0.239648	2.7666e-17	0.216419	-0.00948759	-0.0507695	-0.00737816	0	0	0	0	2.7666e-17	0	0	0	0
4.86725	-0.338104	2.59689	1.66102	-0.237629	2.78233e-17	0.218972	0.00171618	-0.0131815	-0.00843113	0	0	0	0	2.78233e-17	0	0	0	0
4.87723	-2.36004	-5.61122	1.20534	-0.241505	2.79324e-17	0.2189	0.00186083	0.00442431	-0.000950378	0	0	0	0	2.79324e-17	0	0	0	0
4.88722	-3.50577	-10.5844	0.806621	-0.241725	2.80021e-17	0.219276	0.0062803	0.0189611	-0.001445	0	0	0	0	2.80021e-17	0	0	0	0
4.89721	-3.97895	-13.0383	0.47928	-0.241766	2.80411e-17	0.219631	0.00841507	0.0275747	-0.00101363	0	0	0	0	2.80411e-17	0	0	0	0
4.90719	-3.97046	-13.6394	0.226598	-0.241721	2.80573e-17	0.219832	0.00914273	0.0314071	-0.000521783	0	0	0	0	2.80573e-17	0	0	0	0
4.91718	-3.64658	-12.9726	0.0441297	-0.241619	2.80577e-17	0.219907	0.00892768	0.03176	-0.00010804	0	0	0	0	2.80577e-17	0	0	0	0
4.92716	-3.14303	-11.5247	-0.0772419	-0.241484	2.80479e-17	0.219891	0.00812301	0.029785	0.000199628	0	0	0	0	2.80479e-17	0	0	0	0
4.93715	-2.56374	-9.67874	-0.148834	-0.241335	2.80325e-17	0.219814	0.00700243	0.0264358	0.000406515	0	0	0	0	2.80325e-17	0	0	0	0
4.94713	-1.98276	-7.71847	-0.182336	-0.241184	2.80146e-17	0.2197	0.0057645	0.02244	0.000530106	0	0	0	0	2.80146e-17	0	0	0	0
4.95712	-1.44828	-5.83912	-0.188597	-0.241038	2.79967e-17	0.219565	0.00453456	0.0182823	0.000590495	0	0	0	0	2.79967e-17	0	0	0	0
4.96711	-0.987528	-4.16175	-0.176935	-0.240896	2.79801e-17	0.219427	0.00336369	0.0141756	0.000602672	0	0	0	0	2.79801e-17	0	0	0	0
4.97709	0	0	0	0	-0.158307	0	0	0	0	0	0	0	0	-0.0294824	0	0	0	0
4.98708	0	0	0	0	-0.14677	0	0	0	0	0	0	0	0	-0.0302841	0	0	0	0
4.99706	0	0	0	0	-0.134996	0	0	0	0	0	0	0	0	-0.0308786	0	0	0	0
5.00705	0	0	0	0	-0.123199	0	0	0	0	0	0	0	0	-0.0312868	0	0	0	0
5.01704	0	0	0	0	-0.111561	0	0	0	0	0	0	0	0	-0.0315473	0	0	0	0
5.02702	0	0	0	0	-0.100261	0	0	0	0	0	0	0	0	-0.0317022	0	0	0	0
5.03701	0	0	0	0	-0.0894689	0	0	0	0	0	0	0	0	-0.0317948	0	0	0	0
5.04699	0	0	0	0	-0.0793409	0	0	0	0	0	0	0	0	-0.031869	0	0	0	0
5.05698	0	0	0	0	-0.070011	0	0	0	0	0	0	0	0	-0.0319699	0	0	0	0
5.06696	0	0	0	0	-0.0615909	0	0	0	0	0	0	0	0	-0.0321445	0	0	0	0
5.07695	0	0	0	0	-0.0541909	0	0	0	0	0	0	0	0	-0.0324228	0	0	0	0
5.08694	0	0	0	0	-0.0479172	0	0	0	0	0	0	0	0	-0.0328171	0	0	0	0
5.09692	0	0	0	0	-0.0428688	0	0	0	0	0	0	0	0	-0.0333214	0	0	0	0
5.10691	0	0	0	0	-0.03912	0	0	0	0	0	0	0	0	-0.0339305	0	0	0	0
5.11689	0	0	0	0	-0.0367265	0	0	0	0	0	0	0	0	-0.0346402	0	0	0	0
5.12688	0	0	0	0	-0.0357302	0	0	0	0	0	0	0	0	-0.0354473	0	0	0	0
