Coordinates
version=1
nRows=196
nColumns=38
inDegrees=no

Units are S.I. units (second, meters, Newtons, ...)
If the header above contains a line with 'inDegrees', this indicates whether rotational values are in degrees (yes) or radians (no).

endheader
time	pelvis_tilt	pelvis_list	pelvis_rotation	pelvis_tx	pelvis_ty	pelvis_tz	hip_flexion_r	hip_adduction_r	hip_rotation_r	knee_angle_r	ankle_angle_r	subtalar_angle_r	mtp_angle_r	hip_flexion_l	hip_adduction_l	hip_rotation_l	knee_angle_l	ankle_angle_l	subtalar_angle_l	mtp_angle_l	lumbar_extension	lumbar_bending	lumbar_rotation	arm_flex_r	arm_add_r	arm_rot_r	elbow_flex_r	pro_sup_r	wrist_flex_r	wrist_dev_r	arm_flex_l	arm_add_l	arm_rot_l	elbow_flex_l	pro_sup_l	wrist_flex_l	wrist_dev_l
2.74	-2.61241	-0.151022	0.00669584	2.05119	-0.960158	0.18675	-0.269793	0.00734844	-0.268649	0.700754	0.35433	0	0	0.200127	-0.208191	-0.314127	0.291192	0.0347725	0	0	-1.14768	0.197855	0.305023	0.228752	-0.544975	-0.0523766	0.802216	0.63608	0	0	0.269946	0.600726	0.167809	0.841187	0.637169	0	0
2.74999	-2.62123	-0.160097	0.00213953	2.03181	-0.956778	0.186953	-0.269139	0.00735392	-0.258385	0.718769	0.362622	0	0	0.213351	-0.212535	-0.304593	0.278536	0.0343967	0	0	-1.13989	0.20316	0.301631	0.226755	-0.544479	-0.0522969	0.801996	0.63602	0	0	0.267666	0.600919	0.167727	0.840918	0.637113	0	0
2.75997	-2.63006	-0.16897	-0.00250785	2.01243	-0.953409	0.187166	-0.268485	0.00713222	-0.248048	0.736816	0.370605	0	0	0.226532	-0.216741	-0.29525	0.266542	0.0338428	0	0	-1.13191	0.208136	0.298535	0.224758	-0.543983	-0.0522171	0.801776	0.63596	0	0	0.265386	0.601111	0.167645	0.840649	0.637058	0	0
2.76996	-2.63885	-0.177322	-0.00733228	1.99302	-0.950078	0.187408	-0.26783	0.00631918	-0.237637	0.755128	0.377738	0	0	0.239465	-0.220579	-0.286437	0.256112	0.0327689	0	0	-1.12372	0.212329	0.296033	0.22276	-0.543487	-0.0521374	0.801557	0.6359	0	0	0.263105	0.601304	0.167563	0.84038	0.637002	0	0
2.77994	-2.64748	-0.184743	-0.012397	1.97358	-0.946815	0.187702	-0.267173	0.00448062	-0.227236	0.773963	0.383317	0	0	0.251927	-0.22374	-0.278539	0.248277	0.0307105	0	0	-1.11528	0.215237	0.294255	0.220763	-0.542991	-0.0520576	0.801337	0.635839	0	0	0.260825	0.601496	0.167481	0.840111	0.636946	0	0
2.78993	-2.65572	-0.190824	-0.0176655	1.95408	-0.943661	0.188072	-0.266514	0.00118506	-0.21709	0.793795	0.386532	0	0	0.263542	-0.225901	-0.271883	0.243871	0.0271565	0	0	-1.10686	0.216436	0.293206	0.218765	-0.542495	-0.0519778	0.801117	0.635779	0	0	0.258544	0.601688	0.167399	0.839842	0.63689	0	0
2.79991	-2.66333	-0.195171	-0.0230421	1.93453	-0.940659	0.188544	-0.265856	-0.00396213	-0.207546	0.815095	0.386507	0	0	0.273932	-0.226732	-0.266658	0.243517	0.021598	0	0	-1.0988	0.215584	0.292732	0.216767	-0.541998	-0.051898	0.800897	0.635719	0	0	0.256263	0.60188	0.167317	0.839572	0.636834	0	0
2.8099	-2.67008	-0.197398	-0.0284067	1.91493	-0.937857	0.18914	-0.265199	-0.0113245	-0.199005	0.838228	0.382322	0	0	0.282783	-0.225888	-0.262919	0.247588	0.0135827	0	0	-1.09134	0.212394	0.292542	0.214769	-0.541502	-0.0518181	0.800677	0.635659	0	0	0.253982	0.602072	0.167235	0.839303	0.636778	0	0
2.81988	-2.67573	-0.197143	-0.0336339	1.89528	-0.935304	0.18988	-0.264548	-0.0212344	-0.191894	0.863464	0.373062	0	0	0.289831	-0.223019	-0.260578	0.256161	0.00277412	0	0	-1.08471	0.206632	0.292266	0.21277	-0.541005	-0.0517383	0.800458	0.635598	0	0	0.2517	0.602264	0.167153	0.839034	0.636723	0	0
2.82987	-2.68009	-0.194095	-0.0386164	1.8756	-0.933051	0.190776	-0.263909	-0.0339827	-0.186606	0.890978	0.357888	0	0	0.29484	-0.217797	-0.259403	0.269008	-0.0109855	0	0	-1.07915	0.198123	0.291501	0.210771	-0.540508	-0.0516584	0.800238	0.635538	0	0	0.249418	0.602455	0.167071	0.838764	0.636667	0	0
2.83985	-2.68293	-0.188018	-0.0432882	1.85592	-0.931146	0.191838	-0.263291	-0.0497949	-0.183444	0.92085	0.33611	0	0	0.29757	-0.209944	-0.259034	0.285607	-0.0276085	0	0	-1.0749	0.186759	0.289849	0.208772	-0.540011	-0.0515785	0.800018	0.635478	0	0	0.247136	0.602646	0.166989	0.838495	0.636611	0	0
2.84984	-2.68397	-0.178831	-0.0476128	1.83626	-0.929634	0.193064	-0.262707	-0.0687707	-0.182573	0.953176	0.307328	0	0	0.297679	-0.199312	-0.259041	0.305155	-0.0466457	0	0	-1.07234	0.172579	0.286988	0.206773	-0.539514	-0.0514986	0.799798	0.635418	0	0	0.244853	0.602836	0.166907	0.838225	0.636555	0	0
2.85983	-2.68302	-0.166575	-0.051616	1.81667	-0.928558	0.194448	-0.262169	-0.0908399	-0.183908	0.987801	0.271472	0	0	0.29492	-0.185875	-0.259101	0.326851	-0.0671385	0	0	-1.07172	0.155711	0.282641	0.204773	-0.539017	-0.0514187	0.799578	0.635358	0	0	0.242571	0.603026	0.166825	0.837955	0.636499	0	0
2.86981	-2.67995	-0.151441	-0.0553925	1.79717	-0.927956	0.195973	-0.261695	-0.115733	-0.187105	1.02429	0.228905	0	0	0.289147	-0.169762	-0.2591	0.350036	-0.087605	0	0	-1.07305	0.136397	0.276613	0.202773	-0.538519	-0.0513387	0.799358	0.635297	0	0	0.240288	0.603215	0.166742	0.837686	0.636444	0	0
2.8798	-2.67477	-0.133789	-0.0590892	1.7778	-0.927858	0.197617	-0.261303	-0.142949	-0.191579	1.06192	0.180508	0	0	0.280337	-0.15127	-0.259151	0.374236	-0.106341	0	0	-1.0761	0.115017	0.268813	0.200773	-0.538021	-0.0512587	0.799138	0.635237	0	0	0.238004	0.603404	0.16666	0.837416	0.636388	0	0
2.88978	-2.66759	-0.114134	-0.0628792	1.75861	-0.928289	0.19935	-0.261013	-0.171765	-0.196576	1.09964	0.127741	0	0	0.268589	-0.130846	-0.259473	0.399086	-0.121883	0	0	-1.08028	0.0920957	0.259254	0.198773	-0.537523	-0.0511786	0.798918	0.635177	0	0	0.235721	0.603592	0.166578	0.837146	0.636332	0	0
2.89977	-2.65817	-0.0932966	-0.0666913	1.73962	-0.929264	0.201139	-0.260841	-0.201178	-0.20148	1.13699	0.072882	0	0	0.253328	-0.109172	-0.260104	0.4235	-0.133264	0	0	-1.08637	0.0684932	0.248293	0.196772	-0.537025	-0.0510986	0.798698	0.635117	0	0	0.233437	0.60378	0.166495	0.836876	0.636276	0	0
2.90975	-2.64639	-0.072158	-0.0704056	1.72087	-0.930789	0.202946	-0.260801	-0.230007	-0.205616	1.17321	0.0186792	0	0	0.234112	-0.0869775	-0.260873	0.44639	-0.140175	0	0	-1.09481	0.0451703	0.236314	0.194771	-0.536527	-0.0510185	0.798477	0.635057	0	0	0.231152	0.603967	0.166413	0.836606	0.636221	0	0
2.91974	-2.63225	-0.0515823	-0.073883	1.70237	-0.932861	0.204733	-0.260897	-0.257065	-0.208396	1.20746	-0.0318749	0	0	0.210584	-0.0650023	-0.261535	0.466687	-0.14283	0	0	-1.1058	0.0230825	0.223715	0.192769	-0.536028	-0.0509383	0.798257	0.634997	0	0	0.228868	0.604153	0.16633	0.836336	0.636165	0	0
2.92972	-2.61585	-0.0323572	-0.0769702	1.68414	-0.935464	0.206467	-0.261117	-0.281221	-0.209377	1.23886	-0.0757644	0	0	0.182598	-0.0439818	-0.261843	0.483578	-0.141722	0	0	-1.11931	0.00308508	0.210896	0.190768	-0.535529	-0.0508581	0.798037	0.634937	0	0	0.226583	0.604338	0.166247	0.836065	0.636109	0	0
2.93971	-2.59745	-0.0151425	-0.0795084	1.66619	-0.938569	0.208117	-0.261432	-0.301475	-0.208296	1.26647	-0.110303	0	0	0.150339	-0.0246167	-0.261547	0.49671	-0.137406	0	0	-1.13506	-0.0141458	0.198252	0.188765	-0.535029	-0.0507779	0.797816	0.634877	0	0	0.224297	0.604523	0.166164	0.835795	0.636054	0	0
2.94969	-2.57742	-0.000404456	-0.081338	1.64851	-0.942134	0.209663	-0.261781	-0.31706	-0.205122	1.28938	-0.133623	0	0	0.11437	-0.00749431	-0.2604	0.506239	-0.130385	0	0	-1.15248	-0.0281767	0.186159	0.186763	-0.53453	-0.0506976	0.797596	0.634817	0	0	0.222012	0.604706	0.166081	0.835524	0.635998	0	0
2.95968	-2.55626	0.0115941	-0.0822992	1.63108	-0.946104	0.21109	-0.262066	-0.327568	-0.200138	1.30682	-0.145093	0	0	0.0754538	0.00695397	-0.258188	0.512554	-0.121126	0	0	-1.17096	-0.0387884	0.17493	0.18476	-0.534029	-0.0506173	0.797376	0.634757	0	0	0.219725	0.604889	0.165998	0.835253	0.635942	0	0
2.96967	-2.53453	0.0208329	-0.0822319	1.61389	-0.950413	0.212393	-0.262142	-0.333003	-0.193933	1.31816	-0.145296	0	0	0.0344977	0.018516	-0.254774	0.516131	-0.110107	0	0	-1.18988	-0.0459779	0.164776	0.182756	-0.533529	-0.0505369	0.797155	0.634697	0	0	0.217438	0.605071	0.165915	0.834982	0.635886	0	0
2.97965	-2.51291	0.0275328	-0.0809923	1.5969	-0.954982	0.213574	-0.261812	-0.333766	-0.18733	1.32299	-0.135686	0	0	-0.00751234	0.0272162	-0.250129	0.517427	-0.09782	0	0	-1.20859	-0.0499372	0.155778	0.180751	-0.533028	-0.0504564	0.796934	0.634637	0	0	0.21515	0.605251	0.165831	0.834711	0.635831	0	0
2.98964	-2.4921	0.0321009	-0.0784766	1.5801	-0.959725	0.214644	-0.260816	-0.330558	-0.181251	1.32107	-0.11818	0	0	-0.0495639	0.0332854	-0.244314	0.516849	-0.0847511	0	0	-1.22641	-0.0510128	0.147891	0.178746	-0.532526	-0.0503759	0.796713	0.634577	0	0	0.212862	0.605431	0.165748	0.834439	0.635775	0	0
2.99962	-2.47282	0.0350668	-0.0746472	1.56344	-0.964549	0.215619	-0.258831	-0.324285	-0.176569	1.31239	-0.0948443	0	0	-0.0906423	0.0371136	-0.23746	0.514795	-0.0713338	0	0	-1.24266	-0.0496638	0.140958	0.176741	-0.532025	-0.0502953	0.796493	0.634517	0	0	0.210573	0.605609	0.165664	0.834168	0.635719	0	0
3.00961	-2.45578	0.037022	-0.0695493	1.54691	-0.96936	0.216521	-0.255481	-0.315963	-0.174008	1.29707	-0.0676835	0	0	-0.129733	0.0392042	-0.229738	0.51172	-0.0579105	0	0	-1.25664	-0.0464259	0.134746	0.174734	-0.531522	-0.0502147	0.796272	0.634457	0	0	0.208284	0.605785	0.16558	0.833896	0.635664	0	0
3.01959	-2.44155	0.0385295	-0.0633054	1.53047	-0.974064	0.217375	-0.250343	-0.306586	-0.174053	1.27546	-0.0385766	0	0	-0.165929	0.0400944	-0.221315	0.508077	-0.0447097	0	0	-1.26789	-0.0418626	0.128956	0.172727	-0.531019	-0.0501339	0.796051	0.634397	0	0	0.205993	0.605961	0.165496	0.833624	0.635608	0	0
3.02958	-2.4306	0.0400837	-0.0561	1.5141	-0.978571	0.21821	-0.242984	-0.297047	-0.176911	1.24808	-0.00918176	0	0	-0.198446	0.0403055	-0.212346	0.504334	-0.0318394	0	0	-1.27613	-0.0365299	0.123275	0.17072	-0.530515	-0.0500531	0.795829	0.634337	0	0	0.203703	0.606134	0.165412	0.833351	0.635552	0	0
3.03956	-2.42327	0.0420908	-0.0481572	1.49777	-0.982798	0.219056	-0.233004	-0.288084	-0.182519	1.21553	0.0191253	0	0	-0.226661	0.0403138	-0.202969	0.500952	-0.0192948	0	0	-1.28121	-0.0309552	0.117405	0.168712	-0.530011	-0.0499722	0.795608	0.634277	0	0	0.201411	0.606306	0.165328	0.833079	0.635497	0	0
3.04955	-2.41973	0.044869	-0.0397188	1.48149	-0.986673	0.219945	-0.220108	-0.280268	-0.19058	1.17848	0.0452965	0	0	-0.250187	0.0405359	-0.193303	0.498326	-0.00698281	0	0	-1.28315	-0.0256213	0.111086	0.166703	-0.529506	-0.0498912	0.795387	0.634218	0	0	0.199119	0.606477	0.165243	0.832806	0.635441	0	0
3.05953	-2.4199	0.0486587	-0.0310322	1.46523	-0.990135	0.220907	-0.204197	-0.27401	-0.200624	1.13764	0.0686289	0	0	-0.268974	0.0413268	-0.183461	0.49671	0.00524099	0	0	-1.28212	-0.02096	0.104104	0.164693	-0.529001	-0.0498102	0.795165	0.634158	0	0	0.196826	0.606645	0.165158	0.832532	0.635385	0	0
3.06952	-2.42344	0.0536474	-0.0223337	1.44899	-0.993135	0.221969	-0.185488	-0.269571	-0.212054	1.09364	0.0887499	0	0	-0.283365	0.0429858	-0.173542	0.496212	0.0175326	0	0	-1.27849	-0.0173511	0.0962931	0.162683	-0.528495	-0.049729	0.794943	0.634098	0	0	0.194533	0.606812	0.165073	0.832259	0.63533	0	0
3.07951	-2.42986	0.0599934	-0.0138066	1.43276	-0.995641	0.22316	-0.164393	-0.267096	-0.224223	1.04704	0.105559	0	0	-0.293924	0.0457584	-0.163597	0.496855	0.0300405	0	0	-1.27276	-0.0151027	0.0875097	0.160672	-0.527988	-0.0496477	0.794721	0.634038	0	0	0.192238	0.606976	0.164988	0.831985	0.635274	0	0
3.08949	-2.43862	0.0678298	-0.00558948	1.41653	-0.997631	0.224499	-0.141401	-0.266651	-0.23645	0.998384	0.119157	0	0	-0.301313	0.0498424	-0.153647	0.49861	0.0428908	0	0	-1.26547	-0.0144669	0.077638	0.15866	-0.52748	-0.0495664	0.794499	0.633979	0	0	0.189943	0.607138	0.164902	0.831711	0.635218	0	0
3.09948	-2.44916	0.0772607	0.00221766	1.40032	-0.999099	0.226005	-0.11701	-0.268243	-0.248043	0.948159	0.129775	0	0	-0.306203	0.0553882	-0.143682	0.501428	0.0561784	0	0	-1.25721	-0.0156436	0.0665965	0.156647	-0.526972	-0.0494849	0.794277	0.633919	0	0	0.187648	0.607299	0.164816	0.831436	0.635163	0	0
3.10946	-2.46098	0.0883556	0.00954965	1.38411	-1.00005	0.22769	-0.0916931	-0.271833	-0.258315	0.896828	0.137717	0	0	-0.309219	0.0624962	-0.133656	0.505259	0.0699582	0	0	-1.24855	-0.0187725	0.0543488	0.154634	-0.526463	-0.0494033	0.794055	0.633859	0	0	0.185351	0.607457	0.16473	0.831161	0.635107	0	0
3.11945	-2.47368	0.101135	0.0163976	1.36789	-1.0005	0.229557	-0.0658364	-0.277367	-0.26671	0.844894	0.143373	0	0	-0.310903	0.0711937	-0.123503	0.510046	0.0842696	0	0	-1.23993	-0.0239079	0.0409152	0.15262	-0.525953	-0.0493216	0.793833	0.6338	0	0	0.183054	0.607612	0.164644	0.830886	0.635052	0	0
3.12943	-2.48693	0.115563	0.0228165	1.35167	-1.00047	0.231605	-0.0397296	-0.284769	-0.272817	0.792908	0.147175	0	0	-0.311705	0.0814269	-0.113127	0.515719	0.0991354	0	0	-1.23157	-0.0310089	0.0263719	0.150605	-0.525442	-0.0492398	0.79361	0.63374	0	0	0.180756	0.607766	0.164557	0.830611	0.634996	0	0
3.13942	-2.50055	0.131545	0.028926	1.33542	-1	0.233824	-0.0135754	-0.293941	-0.276382	0.741457	0.149549	0	0	-0.311976	0.0930581	-0.102407	0.522194	0.114561	0	0	-1.22356	-0.0399411	0.0108441	0.148589	-0.52493	-0.0491579	0.793387	0.633681	0	0	0.178457	0.607916	0.16447	0.830335	0.63494	0	0
3.1494	-2.51441	0.148925	0.0349071	1.31914	-0.99913	0.236199	0.0124969	-0.304756	-0.277319	0.691164	0.150877	0	0	-0.311978	0.105867	-0.0912041	0.529375	0.130534	0	0	-1.21577	-0.0504826	-0.00550742	0.146573	-0.524418	-0.0490758	0.793164	0.633621	0	0	0.176158	0.608064	0.164383	0.830058	0.634885	0	0
3.15939	-2.52849	0.167489	0.0409966	1.3028	-0.997895	0.238706	0.0384124	-0.317058	-0.275735	0.642684	0.151484	0	0	-0.311897	0.119554	-0.0794026	0.537153	0.147026	0	0	-1.20794	-0.0623274	-0.022495	0.144555	-0.523904	-0.0489937	0.792941	0.633562	0	0	0.173857	0.608209	0.164295	0.829781	0.634829	0	0
3.16937	-2.54277	0.18698	0.0474023	1.2864	-0.996335	0.241318	0.0640206	-0.330647	-0.271863	0.596527	0.151621	0	0	-0.31185	0.133789	-0.0669273	0.545476	0.163951	0	0	-1.2	-0.0751248	-0.0399367	0.142536	-0.523389	-0.0489113	0.792718	0.633502	0	0	0.171555	0.608352	0.164207	0.829504	0.634773	0	0
3.17936	-2.55716	0.207113	0.0542483	1.2699	-0.994495	0.244001	0.0890709	-0.345294	-0.266047	0.553048	0.151467	0	0	-0.311907	0.148259	-0.0537586	0.554388	0.181162	0	0	-1.19209	-0.0885246	-0.0576625	0.140516	-0.522873	-0.0488289	0.792494	0.633443	0	0	0.169252	0.608491	0.164119	0.829226	0.634718	0	0
3.18934	-2.57163	0.227593	0.0616445	1.25329	-0.992423	0.246717	0.113338	-0.360774	-0.258775	0.51264	0.151142	0	0	-0.312097	0.162644	-0.0399214	0.56393	0.198498	0	0	-1.18427	-0.102175	-0.0754737	0.138495	-0.522356	-0.0487462	0.79227	0.633383	0	0	0.166948	0.608628	0.164031	0.828947	0.634662	0	0
3.19933	-2.58613	0.248106	0.0696833	1.23655	-0.990171	0.249429	0.136616	-0.376851	-0.250678	0.475725	0.150677	0	0	-0.312424	0.176621	-0.0254719	0.574161	0.215759	0	0	-1.1765	-0.115718	-0.0931544	0.136473	-0.521838	-0.0486634	0.792046	0.633324	0	0	0.164644	0.608761	0.163941	0.828669	0.634606	0	0
3.20932	-2.60063	0.268333	0.0784329	1.21967	-0.987789	0.252095	0.1587	-0.393274	-0.242484	0.442747	0.14998	0	0	-0.312874	0.189871	-0.0104863	0.585172	0.232699	0	0	-1.16874	-0.128796	-0.110482	0.13445	-0.521319	-0.0485805	0.791822	0.633265	0	0	0.162337	0.60889	0.163852	0.828389	0.63455	0	0
3.2193	-2.61501	0.287954	0.0879249	1.20261	-0.98533	0.254674	0.179369	-0.409759	-0.234938	0.414138	0.148818	0	0	-0.313423	0.202081	0.00493701	0.597097	0.24902	0	0	-1.16093	-0.141061	-0.127236	0.132425	-0.520799	-0.0484974	0.791597	0.633205	0	0	0.16003	0.609016	0.163762	0.828109	0.634495	0	0
3.22929	-2.62913	0.306649	0.0981362	1.18537	-0.982846	0.257128	0.198367	-0.425984	-0.228703	0.390261	0.146842	0	0	-0.314044	0.212955	0.0206635	0.610123	0.264349	0	0	-1.15313	-0.15219	-0.143206	0.1304	-0.520277	-0.0484141	0.791372	0.633146	0	0	0.157722	0.609139	0.163672	0.827828	0.634439	0	0
3.23927	-2.64276	0.324108	0.10896	1.16794	-0.980386	0.259421	0.215381	-0.441586	-0.224266	0.371353	0.143651	0	0	-0.314708	0.222227	0.0365034	0.624498	0.278227	0	0	-1.14547	-0.161902	-0.158204	0.128373	-0.519754	-0.0483306	0.791147	0.633087	0	0	0.155413	0.609258	0.163581	0.827547	0.634383	0	0
3.24926	-2.65569	0.340033	0.120289	1.15031	-0.977999	0.26152	0.230158	-0.456188	-0.221923	0.357577	0.138815	0	0	-0.31539	0.229629	0.0521942	0.64037	0.290126	0	0	-1.138	-0.169937	-0.172012	0.126345	-0.51923	-0.048247	0.790922	0.633028	0	0	0.153102	0.609372	0.16349	0.827265	0.634327	0	0
3.25924	-2.66776	0.354129	0.132008	1.13248	-0.975729	0.263394	0.242514	-0.469408	-0.221819	0.349007	0.131903	0	0	-0.31607	0.23489	0.0674036	0.657795	0.299437	0	0	-1.13065	-0.176047	-0.184403	0.124316	-0.518704	-0.0481632	0.790696	0.632969	0	0	0.15079	0.609483	0.163398	0.826983	0.634272	0	0
3.26923	-2.67878	0.366112	0.143996	1.11446	-0.973615	0.265022	0.252326	-0.480863	-0.223996	0.345616	0.12251	0	0	-0.316733	0.237743	0.0817512	0.676757	0.305478	0	0	-1.12332	-0.179997	-0.195143	0.122285	-0.518177	-0.0480791	0.79047	0.632909	0	0	0.148478	0.60959	0.163306	0.8267	0.634216	0	0
3.27921	-2.68857	0.375706	0.156122	1.09627	-0.971694	0.266385	0.259529	-0.490182	-0.228417	0.347269	0.110297	0	0	-0.317372	0.237924	0.0948295	0.697197	0.307505	0	0	-1.11587	-0.181555	-0.204003	0.120253	-0.517648	-0.0479949	0.790244	0.63285	0	0	0.146164	0.609692	0.163214	0.826416	0.63416	0	0
3.2892	-2.69677	0.382648	0.168104	1.07793	-0.969995	0.267469	0.263949	-0.496958	-0.234939	0.353604	0.0950755	0	0	-0.317984	0.235242	0.106237	0.719266	0.304714	0	0	-1.10859	-0.180534	-0.210845	0.11822	-0.517118	-0.0479105	0.790018	0.632791	0	0	0.143848	0.60979	0.16312	0.826132	0.634104	0	0
3.29918	-2.70299	0.386698	0.179645	1.05947	-0.968543	0.268271	0.265431	-0.500803	-0.2433	0.364122	0.076847	0	0	-0.318574	0.229544	0.115603	0.743116	0.29632	0	0	-1.1018	-0.176772	-0.215522	0.116186	-0.516586	-0.0478258	0.789791	0.632732	0	0	0.141532	0.609883	0.163027	0.825847	0.634048	0	0
3.30917	-2.70682	0.387629	0.190446	1.04093	-0.967354	0.268789	0.26384	-0.501343	-0.253173	0.37821	0.0558875	0	0	-0.319151	0.220706	0.122597	0.768907	0.281594	0	0	-1.0959	-0.170118	-0.217888	0.11415	-0.516053	-0.047741	0.789564	0.632673	0	0	0.139214	0.609971	0.162932	0.825561	0.633992	0	0
3.31916	-2.70782	0.385251	0.200212	1.02235	-0.96644	0.269032	0.259044	-0.498237	-0.264158	0.395173	0.0328515	0	0	-0.319731	0.208659	0.126953	0.796801	0.259931	0	0	-1.09132	-0.160459	-0.217806	0.112113	-0.515518	-0.0476559	0.789336	0.632614	0	0	0.136895	0.610055	0.162838	0.825274	0.633936	0	0
3.32914	-2.70573	0.379412	0.208721	1.00377	-0.965804	0.269013	0.251043	-0.491223	-0.27587	0.414364	0.00888632	0	0	-0.320331	0.19338	0.128476	0.826774	0.230933	0	0	-1.08833	-0.147738	-0.215122	0.110075	-0.514981	-0.0475706	0.789109	0.632555	0	0	0.134575	0.610134	0.162742	0.824987	0.63388	0	0
3.33913	-2.70031	0.370073	0.215766	0.985235	-0.965444	0.268749	0.239835	-0.480155	-0.287887	0.435153	-0.0143873	0	0	-0.320971	0.174982	0.127075	0.858756	0.194498	0	0	-1.08721	-0.132043	-0.209747	0.108035	-0.514443	-0.0474851	0.78888	0.632497	0	0	0.132254	0.610208	0.162646	0.824698	0.633824	0	0
3.34911	-2.69144	0.357384	0.221159	0.966793	-0.965353	0.268268	0.225413	-0.465067	-0.299821	0.456902	-0.035242	0	0	-0.321669	0.153792	0.122808	0.892631	0.150965	0	0	-1.08829	-0.113687	-0.201678	0.105994	-0.513902	-0.0473993	0.788652	0.632438	0	0	0.129931	0.610276	0.16255	0.824409	0.633768	0	0
3.3591	-2.6791	0.341705	0.224763	0.948483	-0.965519	0.267596	0.20776	-0.446214	-0.311385	0.478924	-0.0522844	0	0	-0.32244	0.130351	0.1159	0.928168	0.101216	0	0	-1.09186	-0.0932218	-0.191007	0.103951	-0.51336	-0.0473133	0.788423	0.632379	0	0	0.127607	0.610339	0.162453	0.82412	0.633712	0	0
3.36908	-2.66344	0.323591	0.226525	0.930341	-0.965925	0.266768	0.186793	-0.424033	-0.322374	0.500381	-0.0646754	0	0	-0.323286	0.105369	0.106733	0.965029	0.0467653	0	0	-1.09819	-0.0713826	-0.17793	0.101906	-0.512816	-0.047227	0.788194	0.63232	0	0	0.125281	0.610397	0.162355	0.823829	0.633656	0	0
3.37907	-2.64466	0.303749	0.226492	0.912403	-0.966557	0.265816	0.162353	-0.399105	-0.332609	0.520296	-0.0721596	0	0	-0.324198	0.0796678	0.0958302	1.00277	-0.0102282	0	0	-1.10756	-0.0490104	-0.162739	0.0998601	-0.51227	-0.0471405	0.787964	0.632261	0	0	0.122953	0.610448	0.162256	0.823537	0.6336	0	0
3.38905	-2.6232	0.282937	0.224836	0.8947	-0.967394	0.264773	0.134428	-0.372141	-0.342012	0.537814	-0.0749609	0	0	-0.325142	0.0540943	0.0838321	1.04069	-0.0670891	0	0	-1.11992	-0.0269441	-0.145771	0.0978121	-0.511723	-0.0470537	0.787734	0.632203	0	0	0.120624	0.610494	0.162157	0.823245	0.633544	0	0
3.39904	-2.59954	0.261986	0.221779	0.877258	-0.96842	0.263669	0.103082	-0.34398	-0.350509	0.552221	-0.0736278	0	0	-0.326053	0.0295467	0.0714392	1.07803	-0.12077	0	0	-1.13516	-0.00602324	-0.127435	0.0957625	-0.511172	-0.0469666	0.787504	0.632144	0	0	0.118294	0.610534	0.162057	0.822951	0.633488	0	0
3.40902	-2.57432	0.241676	0.217574	0.860107	-0.969614	0.262531	0.0686853	-0.315561	-0.35812	0.563226	-0.0688496	0	0	-0.326827	0.00687839	0.0592961	1.11389	-0.168063	0	0	-1.15278	0.0130095	-0.108176	0.0937111	-0.51062	-0.0468792	0.787273	0.632085	0	0	0.115961	0.610568	0.161956	0.822657	0.633431	0	0
3.41901	-2.54832	0.222628	0.212474	0.843277	-0.970957	0.261377	0.0319645	-0.287822	-0.36495	0.571026	-0.061321	0	0	-0.327313	-0.0132051	0.0478582	1.14719	-0.205938	0	0	-1.17192	0.0295951	-0.0884476	0.0916579	-0.510066	-0.0467915	0.787041	0.632027	0	0	0.113628	0.610595	0.161855	0.822361	0.633375	0	0
3.429	-2.52227	0.20534	0.206678	0.826802	-0.972425	0.260223	-0.00626288	-0.261601	-0.371039	0.576024	-0.0516882	0	0	-0.327301	-0.0301655	0.0373224	1.17699	-0.232144	0	0	-1.19175	0.0433163	-0.0687071	0.089603	-0.509509	-0.0467035	0.78681	0.631968	0	0	0.111292	0.610616	0.161753	0.822065	0.633319	0	0
3.43898	-2.49686	0.190122	0.200339	0.810726	-0.97399	0.259076	-0.0450921	-0.237557	-0.376368	0.578746	-0.0405238	0	0	-0.326517	-0.043704	0.0276219	1.20239	-0.245758	0	0	-1.21151	0.0539229	-0.0493677	0.0875463	-0.508951	-0.0466153	0.786577	0.63191	0	0	0.108955	0.610629	0.16165	0.821767	0.633262	0	0
3.44897	-2.47283	0.177066	0.193591	0.7951	-0.975615	0.257939	-0.0835372	-0.216114	-0.380898	0.579784	-0.0283131	0	0	-0.324625	-0.053809	0.018472	1.22259	-0.247275	0	0	-1.23034	0.0613505	-0.0307668	0.0854878	-0.508389	-0.0465267	0.786345	0.631851	0	0	0.106616	0.610636	0.161546	0.821469	0.633206	0	0
3.45895	-2.45077	0.166108	0.186503	0.779985	-0.97725	0.256809	-0.12072	-0.197478	-0.384599	0.579591	-0.0154351	0	0	-0.32123	-0.060655	0.00944451	1.23702	-0.238337	0	0	-1.2478	0.0656661	-0.0131517	0.0834274	-0.507826	-0.0464377	0.786112	0.631793	0	0	0.104276	0.610636	0.161442	0.821169	0.633149	0	0
3.46894	-2.43163	0.156937	0.179122	0.764761	-0.978448	0.255887	-0.155821	-0.181688	-0.387455	0.578659	-0.00218132	0	0	-0.315974	-0.0646175	4.71983e-05	1.24529	-0.221084	0	0	-1.26343	0.0671557	0.00330963	0.0813599	-0.507266	-0.046349	0.785875	0.631734	0	0	0.10193	0.610636	0.161337	0.820867	0.633092	0	0
3.47892	-2.41596	0.149214	0.171592	0.749426	-0.979252	0.255161	-0.187952	-0.168573	-0.389526	0.577467	0.0112402	0	0	-0.308409	-0.0662459	-0.0101992	1.24713	-0.197756	0	0	-1.27666	0.0662054	0.0185336	0.079284	-0.506709	-0.0462603	0.785636	0.631675	0	0	0.0995781	0.610637	0.161232	0.820562	0.633036	0	0
3.48891	-2.40419	0.142564	0.16409	0.733998	-0.979711	0.254615	-0.216361	-0.157843	-0.390936	0.576436	0.0247035	0	0	-0.298121	-0.0661413	-0.0216639	1.2425	-0.170576	0	0	-1.28708	0.0633	0.0325052	0.0771985	-0.506155	-0.0461718	0.785393	0.631617	0	0	0.0972196	0.610637	0.161126	0.820255	0.632979	0	0
3.49889	-2.39654	0.13663	0.156807	0.7185	-0.979874	0.254222	-0.240513	-0.149132	-0.391847	0.575911	0.0381536	0	0	-0.284806	-0.0648953	-0.0345697	1.2315	-0.141592	0	0	-1.29443	0.0589838	0.0452602	0.075102	-0.505605	-0.0460834	0.785146	0.631558	0	0	0.0948541	0.610637	0.16102	0.819946	0.632923	0	0
3.50888	-2.39301	0.131108	0.149948	0.702956	-0.979793	0.253955	-0.260186	-0.142015	-0.392422	0.576116	0.0515919	0	0	-0.268378	-0.0630562	-0.048984	1.21435	-0.112565	0	0	-1.29863	0.0538279	0.0568724	0.0729939	-0.505057	-0.0459951	0.784895	0.631499	0	0	0.0924814	0.610635	0.160914	0.819634	0.632866	0	0
3.51886	-2.39331	0.125735	0.143694	0.687377	-0.979525	0.25378	-0.27559	-0.13603	-0.392811	0.577134	0.0650542	0	0	-0.249102	-0.0611002	-0.0648259	1.19134	-0.0848921	0	0	-1.29984	0.0484012	0.0674457	0.0708743	-0.504513	-0.0459069	0.78464	0.631441	0	0	0.0901011	0.610633	0.160807	0.81932	0.632809	0	0
3.52885	-2.39695	0.120263	0.138159	0.671763	-0.979129	0.253663	-0.287207	-0.130715	-0.393127	0.579005	0.078587	0	0	-0.227531	-0.0594284	-0.081925	1.16271	-0.0595684	0	0	-1.29837	0.0432288	0.0771424	0.0687441	-0.503972	-0.0458188	0.784382	0.631382	0	0	0.0877132	0.61063	0.1607	0.819003	0.632752	0	0
3.53884	-2.40339	0.114451	0.133411	0.65611	-0.978668	0.253569	-0.295654	-0.125638	-0.393445	0.581747	0.0922381	0	0	-0.204343	-0.0583578	-0.100038	1.12875	-0.0372029	0	0	-1.29462	0.0387759	0.0861565	0.0666041	-0.503436	-0.045731	0.784121	0.631323	0	0	0.0853175	0.610627	0.160593	0.818684	0.632696	0	0
3.54882	-2.41206	0.108077	0.129492	0.640411	-0.978196	0.253471	-0.301587	-0.120411	-0.393796	0.585364	0.106056	0	0	-0.180235	-0.0581249	-0.118868	1.0898	-0.0180661	0	0	-1.28901	0.0354386	0.0946958	0.0644557	-0.502905	-0.0456435	0.783856	0.631264	0	0	0.0829141	0.610625	0.160485	0.818363	0.632639	0	0
3.55881	-2.42241	0.100935	0.126444	0.624657	-0.977758	0.253345	-0.305621	-0.114688	-0.394167	0.589841	0.12009	0	0	-0.155838	-0.058897	-0.138079	1.04625	-0.00214645	0	0	-1.28192	0.0335336	0.102972	0.0623024	-0.50238	-0.0455569	0.78359	0.631205	0	0	0.0805027	0.610626	0.160377	0.81804	0.632582	0	0
3.56879	-2.43395	0.0928188	0.124273	0.608837	-0.977397	0.253179	-0.308302	-0.108165	-0.394506	0.595152	0.134386	0	0	-0.131681	-0.0607881	-0.157295	0.998545	0.0107742	0	0	-1.27376	0.0333268	0.111179	0.060146	-0.501864	-0.0454712	0.783322	0.631145	0	0	0.0780831	0.610632	0.16027	0.817714	0.632525	0	0
3.57878	-2.44622	0.0835349	0.122953	0.592952	-0.97714	0.25296	-0.310083	-0.100579	-0.39473	0.60126	0.148985	0	0	-0.108175	-0.0638749	-0.176118	0.947157	0.0210525	0	0	-1.26494	0.0350235	0.119489	0.0579873	-0.501355	-0.0453864	0.783053	0.631086	0	0	0.0756553	0.610642	0.160163	0.817387	0.632468	0	0
3.58876	-2.45884	0.0729079	0.122417	0.577015	-0.977012	0.252681	-0.311318	-0.0917152	-0.394737	0.608117	0.163918	0	0	-0.0856266	-0.0681954	-0.19412	0.892572	0.0290964	0	0	-1.25591	0.0387639	0.128048	0.0558271	-0.500855	-0.0453026	0.782782	0.631027	0	0	0.0732193	0.610657	0.160057	0.817057	0.632411	0	0
3.59875	-2.47149	0.0608233	0.122565	0.561029	-0.977014	0.252339	-0.312271	-0.0814469	-0.394392	0.615661	0.179199	0	0	-0.0641713	-0.0737662	-0.210982	0.835422	0.035374	0	0	-1.24697	0.0445961	0.136966	0.0536653	-0.500362	-0.0452195	0.782511	0.630968	0	0	0.0707749	0.610676	0.15995	0.816726	0.632354	0	0
3.60873	-2.484	0.0472445	0.123261	0.544981	-0.977134	0.251939	-0.313131	-0.0697585	-0.393532	0.623817	0.194827	0	0	-0.0438052	-0.0805623	-0.226485	0.776465	0.0403467	0	0	-1.23831	0.0524576	0.146307	0.0515024	-0.499876	-0.0451373	0.782239	0.630908	0	0	0.0683221	0.610699	0.159845	0.816393	0.632297	0	0
3.61872	-2.49624	0.0322243	0.124327	0.528858	-0.977342	0.251487	-0.314018	-0.0567478	-0.391985	0.632511	0.210795	0	0	-0.0244168	-0.0885129	-0.240498	0.71655	0.0444193	0	0	-1.22998	0.0621853	0.156087	0.0493384	-0.499398	-0.0450558	0.781967	0.630849	0	0	0.0658614	0.610727	0.159739	0.816058	0.63224	0	0
3.6287	-2.50814	0.0159084	0.125541	0.512642	-0.9776	0.250991	-0.314998	-0.0426196	-0.389573	0.641683	0.227095	0	0	-0.00582577	-0.0974937	-0.252941	0.656584	0.0479239	0	0	-1.22198	0.0735339	0.166278	0.0471729	-0.498926	-0.044975	0.781694	0.63079	0	0	0.0633939	0.610759	0.159634	0.815722	0.632183	0	0
3.63869	-2.51968	-0.00148167	0.126664	0.496317	-0.977862	0.250462	-0.316096	-0.0276753	-0.386126	0.65129	0.243718	0	0	0.0121706	-0.107326	-0.263745	0.597494	0.0511252	0	0	-1.21422	0.0861832	0.176812	0.045006	-0.49846	-0.0448949	0.78142	0.63073	0	0	0.0609201	0.610793	0.159529	0.815385	0.632126	0	0
3.64868	-2.53086	-0.0196705	0.127442	0.479865	-0.978075	0.249907	-0.317309	-0.012295	-0.381514	0.661317	0.26064	0	0	0.0297656	-0.117768	-0.272813	0.540184	0.0542216	0	0	-1.20661	0.0997645	0.18758	0.0428359	-0.497999	-0.0448152	0.781146	0.630671	0	0	0.058441	0.610827	0.159424	0.815047	0.63207	0	0
3.65866	-2.54171	-0.0383239	0.127644	0.463283	-0.978185	0.249337	-0.318621	0.00308856	-0.375662	0.671787	0.277788	0	0	0.0470837	-0.128538	-0.279985	0.485489	0.0573327	0	0	-1.19905	0.113875	0.198449	0.0406616	-0.497542	-0.0447357	0.780871	0.630611	0	0	0.0559564	0.61086	0.159318	0.814709	0.632013	0	0
3.66865	-2.55221	-0.0570775	0.127065	0.446578	-0.978138	0.248764	-0.320002	0.0180257	-0.368568	0.682773	0.295017	0	0	0.0641611	-0.139337	-0.285067	0.434129	0.0604826	0	0	-1.19149	0.128113	0.209271	0.0384813	-0.497087	-0.0446563	0.780595	0.630552	0	0	0.0534666	0.61089	0.159212	0.814369	0.631956	0	0
3.67863	-2.56233	-0.0755454	0.125558	0.429772	-0.977888	0.248203	-0.32141	0.032082	-0.360305	0.694419	0.312092	0	0	0.080916	-0.149887	-0.287868	0.38669	0.0635939	0	0	-1.18399	0.1421	0.219905	0.0362946	-0.496634	-0.0445767	0.780317	0.630492	0	0	0.0509718	0.610916	0.159105	0.814028	0.631899	0	0
3.68862	-2.57207	-0.0933486	0.123037	0.412883	-0.97739	0.247671	-0.322816	0.0448379	-0.35098	0.706817	0.32869	0	0	0.0972702	-0.159918	-0.28834	0.343774	0.0665151	0	0	-1.17649	0.15544	0.230188	0.0341014	-0.496182	-0.044497	0.780038	0.630433	0	0	0.048472	0.610938	0.158997	0.813687	0.631842	0	0
3.6986	-2.58146	-0.110104	0.119449	0.395929	-0.976596	0.247188	-0.324192	0.0559028	-0.34074	0.720024	0.344407	0	0	0.113157	-0.16918	-0.28666	0.305991	0.0690202	0	0	-1.16887	0.167727	0.23995	0.0319017	-0.495732	-0.0444172	0.779758	0.630374	0	0	0.0459675	0.610956	0.158889	0.813345	0.631785	0	0
3.70859	-2.59053	-0.125439	0.114772	0.378933	-0.975461	0.246784	-0.325517	0.0649244	-0.329772	0.734082	0.358764	0	0	0.128517	-0.177449	-0.283262	0.273928	0.0708012	0	0	-1.16097	0.178564	0.249025	0.0296955	-0.495283	-0.0443373	0.779476	0.630314	0	0	0.0434586	0.610969	0.15878	0.813002	0.631728	0	0
3.71857	-2.59929	-0.139009	0.109022	0.361922	-0.97394	0.246491	-0.326774	0.0715919	-0.318319	0.749051	0.371221	0	0	0.143277	-0.184524	-0.278804	0.2481	0.0714565	0	0	-1.15264	0.187578	0.257261	0.0274824	-0.494836	-0.0442574	0.779193	0.630255	0	0	0.0409455	0.610978	0.15867	0.812659	0.631671	0	0
3.72856	-2.60766	-0.150511	0.102262	0.344934	-0.971996	0.24634	-0.327951	0.0756383	-0.306687	0.765052	0.381185	0	0	0.157335	-0.190223	-0.274086	0.228895	0.0704948	0	0	-1.14384	0.194437	0.264527	0.0252622	-0.494388	-0.0441774	0.778909	0.630195	0	0	0.0384288	0.610982	0.158559	0.812315	0.631614	0	0
3.73854	-2.61556	-0.159692	0.0946038	0.32801	-0.969597	0.246362	-0.329042	0.076835	-0.295237	0.782257	0.388022	0	0	0.170552	-0.194368	-0.269918	0.216531	0.0673524	0	0	-1.13459	0.198865	0.270706	0.0230344	-0.493941	-0.0440975	0.778623	0.630136	0	0	0.0359092	0.610981	0.158448	0.811971	0.631557	0	0
3.74853	-2.6228	-0.166354	0.0862081	0.311198	-0.966715	0.246581	-0.330046	0.0749778	-0.28439	0.800922	0.391068	0	0	0.182721	-0.196776	-0.26697	0.210972	0.0614319	0	0	-1.12506	0.200654	0.275695	0.0207983	-0.493492	-0.0440175	0.778335	0.630076	0	0	0.0333873	0.610976	0.158336	0.811626	0.631499	0	0
3.75852	-2.62943	-0.170313	0.0773877	0.293861	-0.964712	0.246817	-0.33099	0.0698677	-0.274594	0.821336	0.389642	0	0	0.193547	-0.197293	-0.265687	0.211968	0.0521841	0	0	-1.11559	0.199555	0.279393	0.0185639	-0.493042	-0.0439373	0.778047	0.630017	0	0	0.030868	0.610964	0.158223	0.811282	0.631442	0	0
3.7685	-2.63517	-0.171367	0.0683423	0.276109	-0.963445	0.247087	-0.331874	0.0613357	-0.266335	0.843795	0.38308	0	0	0.202784	-0.195708	-0.266251	0.21901	0.0392011	0	0	-1.10651	0.195475	0.28168	0.0163313	-0.49259	-0.0438569	0.77776	0.629958	0	0	0.0283511	0.610947	0.15811	0.810938	0.631385	0	0
3.77849	-2.63969	-0.169346	0.0592881	0.258052	-0.962781	0.247403	-0.332702	0.0492424	-0.260079	0.868609	0.370771	0	0	0.210152	-0.191806	-0.26856	0.231366	0.0223049	0	0	-1.09827	0.188385	0.282421	0.0141004	-0.492136	-0.0437762	0.777474	0.629898	0	0	0.0258368	0.610923	0.157995	0.810595	0.631328	0	0
3.78847	-2.64272	-0.164094	0.0504214	0.239797	-0.962611	0.247766	-0.333479	0.0334924	-0.256179	0.895946	0.35219	0	0	0.215414	-0.185354	-0.272309	0.248179	0.00166163	0	0	-1.09124	0.178275	0.281456	0.0118713	-0.491681	-0.0436954	0.777188	0.629839	0	0	0.0233248	0.610893	0.15788	0.810251	0.63127	0	0
3.79846	-2.64398	-0.155539	0.0419055	0.221446	-0.962847	0.248172	-0.334213	0.0140837	-0.254825	0.925896	0.326989	0	0	0.218306	-0.176165	-0.277017	0.268481	-0.0220745	0	0	-1.08582	0.165202	0.278637	0.00964382	-0.491223	-0.0436143	0.776902	0.629779	0	0	0.0208153	0.610857	0.157765	0.809907	0.631213	0	0
3.80844	-2.64321	-0.143749	0.0338651	0.203092	-0.963425	0.248608	-0.334917	-0.00881776	-0.255972	0.958436	0.295096	0	0	0.218545	-0.164167	-0.282115	0.291314	-0.0475929	0	0	-1.08241	0.149346	0.273869	0.00741805	-0.490764	-0.0435331	0.776617	0.62972	0	0	0.0183081	0.610815	0.157648	0.809564	0.631155	0	0
3.81843	-2.64018	-0.128996	0.0263899	0.184816	-0.964304	0.249057	-0.335604	-0.0348084	-0.25931	0.9934	0.256822	0	0	0.215845	-0.149468	-0.287072	0.315827	-0.0729911	0	0	-1.08138	0.13107	0.267144	0.00519397	-0.490303	-0.0434517	0.776333	0.629661	0	0	0.0158033	0.610768	0.157531	0.809221	0.631098	0	0
3.82841	-2.63472	-0.111784	0.0195395	0.166687	-0.965458	0.249492	-0.336288	-0.0632062	-0.26426	1.03046	0.212956	0	0	0.209927	-0.132404	-0.291527	0.341262	-0.0962481	0	0	-1.08305	0.110958	0.258576	0.00297154	-0.489841	-0.0433701	0.776049	0.629601	0	0	0.0133008	0.610716	0.157414	0.808878	0.63104	0	0
3.8384	-2.62669	-0.0928183	0.013339	0.148764	-0.966875	0.249885	-0.336985	-0.0930925	-0.270035	1.06908	0.16483	0	0	0.200503	-0.113508	-0.295274	0.366837	-0.115717	0	0	-1.08763	0.0897816	0.248407	0.000750765	-0.489377	-0.0432883	0.775766	0.629542	0	0	0.0108007	0.610658	0.157295	0.808535	0.630983	0	0
3.84838	-2.61603	-0.0729364	0.00776899	0.131088	-0.968551	0.250203	-0.337712	-0.123408	-0.275729	1.10859	0.114308	0	0	0.187234	-0.0934348	-0.298198	0.391638	-0.130441	0	0	-1.09527	0.0684308	0.236993	-0.00146838	-0.488911	-0.0432063	0.775483	0.629483	0	0	0.00830276	0.610595	0.157176	0.808192	0.630925	0	0
3.85837	-2.60275	-0.0530022	0.00276292	0.113691	-0.970483	0.250412	-0.338483	-0.153057	-0.280411	1.14812	0.0636583	0	0	0.169793	-0.0728767	-0.300292	0.414683	-0.140198	0	0	-1.10595	0.0477892	0.22476	-0.00368592	-0.488444	-0.0431242	0.7752	0.629424	0	0	0.0058071	0.610527	0.157057	0.80785	0.630868	0	0
3.86836	-2.58693	-0.0338172	-0.00176833	0.096591	-0.972671	0.250485	-0.339306	-0.180978	-0.28322	1.18665	0.0153797	0	0	0.14798	-0.0525167	-0.301668	0.435119	-0.145277	0	0	-1.11947	0.0286365	0.212171	-0.00590185	-0.487976	-0.0430419	0.774918	0.629364	0	0	0.00331365	0.610454	0.156937	0.807508	0.63081	0	0
3.87834	-2.56874	-0.0161267	-0.00591591	0.0797932	-0.975109	0.250395	-0.340182	-0.206179	-0.283454	1.22314	-0.0279788	0	0	0.12171	-0.0330335	-0.30242	0.452291	-0.146227	0	0	-1.13557	0.0116506	0.199703	-0.00811619	-0.487506	-0.0429594	0.774636	0.629305	0	0	0.000822401	0.610377	0.156816	0.807166	0.630752	0	0
3.88833	-2.54838	-0.000568474	-0.00975726	0.0632936	-0.977786	0.250127	-0.3411	-0.227784	-0.28063	1.25659	-0.0641405	0	0	0.0911395	-0.0150664	-0.302566	0.465939	-0.143629	0	0	-1.15394	-0.00265542	0.187826	-0.010329	-0.487035	-0.0428768	0.774355	0.629246	0	0	-0.00166669	0.610294	0.156694	0.806824	0.630694	0	0
3.89831	-2.52617	0.0124121	-0.0133377	0.0470793	-0.980683	0.249674	-0.342031	-0.245147	-0.274584	1.28602	-0.0915162	0	0	0.0567344	0.000857908	-0.302081	0.476221	-0.138023	0	0	-1.17407	-0.0139908	0.176958	-0.0125402	-0.486562	-0.042794	0.774074	0.629187	0	0	-0.00415365	0.610207	0.156573	0.806482	0.630637	0	0
3.9083	-2.50262	0.0226572	-0.0166445	0.03113	-0.983768	0.249039	-0.342924	-0.257982	-0.265559	1.31047	-0.109485	0	0	0.0192915	0.0144237	-0.300976	0.483638	-0.129941	0	0	-1.19526	-0.0223281	0.167402	-0.0147498	-0.486089	-0.0427111	0.773794	0.629128	0	0	-0.0066385	0.610116	0.15645	0.80614	0.630579	0	0
3.91828	-2.47828	0.0302526	-0.0195872	0.0154208	-0.987005	0.248234	-0.343697	-0.266382	-0.254225	1.32917	-0.118381	0	0	-0.0202885	0.0255228	-0.299267	0.488705	-0.119955	0	0	-1.21685	-0.0278061	0.159305	-0.016958	-0.485614	-0.0426281	0.773514	0.629069	0	0	-0.00912127	0.610021	0.156327	0.805799	0.630521	0	0
3.92827	-2.45379	0.0354872	-0.0219969	-7.65681e-05	-0.990345	0.247281	-0.344231	-0.270748	-0.241564	1.34155	-0.119217	0	0	-0.0610599	0.0342301	-0.296948	0.491874	-0.108669	0	0	-1.23824	-0.0306695	0.152636	-0.0191646	-0.485137	-0.0425449	0.773235	0.629009	0	0	-0.011602	0.609922	0.156204	0.805458	0.630463	0	0
3.93825	-2.42982	0.038796	-0.0236564	-0.0153916	-0.993732	0.246209	-0.344367	-0.271686	-0.228709	1.34727	-0.113377	0	0	-0.102074	0.0407586	-0.293975	0.493526	-0.096661	0	0	-1.25886	-0.0312255	0.14721	-0.0213698	-0.48466	-0.0424616	0.772956	0.62895	0	0	-0.0140807	0.609818	0.15608	0.805117	0.630405	0	0
3.94824	-2.40703	0.0407069	-0.0243481	-0.0305537	-0.997106	0.245053	-0.343901	-0.269928	-0.216775	1.34615	-0.102379	0	0	-0.142395	0.045419	-0.290284	0.494021	-0.084433	0	0	-1.27818	-0.0298216	0.14272	-0.0235736	-0.484182	-0.0423782	0.772677	0.628891	0	0	-0.0165576	0.609711	0.155956	0.804776	0.630347	0	0
3.95822	-2.38605	0.0417874	-0.0238986	-0.0455916	-1.0004	0.24385	-0.342584	-0.266264	-0.206737	1.33818	-0.0877047	0	0	-0.181111	0.0485854	-0.285795	0.493752	-0.0723675	0	0	-1.29571	-0.0268363	0.138777	-0.0257763	-0.483702	-0.0422947	0.772399	0.628832	0	0	-0.0190328	0.6096	0.155831	0.804435	0.630289	0	0
3.96821	-2.36747	0.0425963	-0.0222073	-0.060532	-1.00354	0.242641	-0.340132	-0.261471	-0.19934	1.32352	-0.0706809	0	0	-0.217333	0.0506546	-0.280436	0.493185	-0.0607086	0	0	-1.311	-0.0226656	0.13496	-0.0279776	-0.483221	-0.042211	0.77212	0.628773	0	0	-0.0215063	0.609485	0.155706	0.804095	0.630231	0	0
3.9782	-2.35179	0.0436422	-0.0192576	-0.0753996	-1.00648	0.241467	-0.336234	-0.256261	-0.19506	1.30241	-0.0524112	0	0	-0.250218	0.0520136	-0.274168	0.492853	-0.049559	0	0	-1.32358	-0.0177119	0.130864	-0.0301778	-0.48274	-0.0421272	0.771843	0.628714	0	0	-0.0239781	0.609367	0.15558	0.803754	0.630173	0	0
3.98818	-2.33942	0.0453294	-0.0151055	-0.0902159	-1.00913	0.240368	-0.330581	-0.251218	-0.194093	1.27521	-0.0338152	0	0	-0.279091	0.0530014	-0.266983	0.493241	-0.0389011	0	0	-1.3332	-0.0123671	0.126133	-0.0323768	-0.482257	-0.0420433	0.771565	0.628655	0	0	-0.0264483	0.609245	0.155454	0.803414	0.630115	0	0
3.99817	-2.33058	0.0479591	-0.00987354	-0.105	-1.01146	0.239381	-0.32291	-0.246793	-0.196387	1.24241	-0.0156282	0	0	-0.303498	0.0539132	-0.258927	0.494717	-0.0286315	0	0	-1.33973	-0.00700766	0.120485	-0.0345745	-0.481773	-0.0419593	0.771288	0.628596	0	0	-0.0289168	0.60912	0.155327	0.803074	0.630057	0	0
4.00815	-2.32537	0.0517432	-0.00374322	-0.119769	-1.01342	0.23854	-0.313057	-0.243335	-0.201698	1.20453	0.00160329	0	0	-0.323283	0.0550201	-0.250102	0.497457	-0.0186023	0	0	-1.34321	-0.00199754	0.113717	-0.0367711	-0.481289	-0.0418752	0.771012	0.628536	0	0	-0.0313837	0.608992	0.1552	0.802734	0.629999	0	0
4.01814	-2.32365	0.0568214	0.0030597	-0.134536	-1.01496	0.237875	-0.301035	-0.241105	-0.209638	1.16215	0.0175203	0	0	-0.338654	0.0565794	-0.240656	0.501404	-0.00865367	0	0	-1.34383	0.00231619	0.105709	-0.0389665	-0.480803	-0.041791	0.770735	0.628477	0	0	-0.0338491	0.608861	0.155073	0.802394	0.629941	0	0
4.02812	-2.32507	0.0632851	0.0102948	-0.149313	-1.01607	0.237408	-0.287073	-0.24027	-0.219705	1.11582	0.0319386	0	0	-0.350096	0.0588321	-0.230732	0.506396	0.00137028	0	0	-1.34192	0.00561557	0.0964187	-0.0411608	-0.480317	-0.0417067	0.770459	0.628418	0	0	-0.0363128	0.608726	0.154945	0.802055	0.629882	0	0
4.03811	-2.32921	0.0711861	0.0177306	-0.164111	-1.01673	0.23716	-0.27152	-0.240916	-0.231323	1.06606	0.0447972	0	0	-0.358232	0.0619918	-0.220438	0.51224	0.0116138	0	0	-1.33787	0.00762348	0.0858727	-0.0433539	-0.47983	-0.0416222	0.770184	0.628359	0	0	-0.0387751	0.608589	0.154817	0.801715	0.629824	0	0
4.04809	-2.33557	0.0805399	0.0251565	-0.178937	-1.01692	0.237141	-0.254775	-0.243069	-0.243862	1.01341	0.0561052	0	0	-0.363723	0.0662386	-0.209844	0.518766	0.0222017	0	0	-1.33219	0.00811297	0.0741594	-0.0455459	-0.479341	-0.0415378	0.769908	0.6283	0	0	-0.0412358	0.608448	0.154689	0.801376	0.629766	0	0
4.05808	-2.34366	0.0913287	0.0323886	-0.193801	-1.01665	0.237357	-0.23723	-0.246697	-0.256655	0.958382	0.0659006	0	0	-0.3672	0.0717139	-0.198976	0.525848	0.033229	0	0	-1.32539	0.00690975	0.0614141	-0.0477368	-0.478853	-0.0414532	0.769633	0.628241	0	0	-0.043695	0.608305	0.15456	0.801037	0.629707	0	0
4.06806	-2.35307	0.1035	0.0392998	-0.208708	-1.01592	0.237806	-0.21919	-0.251752	-0.2691	0.901605	0.0742947	0	0	-0.369226	0.0784987	-0.187836	0.533379	0.0447825	0	0	-1.31793	0.00391429	0.0478098	-0.0499266	-0.478363	-0.0413685	0.769358	0.628182	0	0	-0.0461527	0.60816	0.154431	0.800698	0.629649	0	0
4.07805	-2.36343	0.116971	0.0458264	-0.223667	-1.01476	0.23848	-0.200861	-0.25817	-0.28067	0.843783	0.0814575	0	0	-0.370275	0.0866077	-0.176402	0.541275	0.0569341	0	0	-1.31016	-0.000894784	0.0335412	-0.0521153	-0.477873	-0.0412838	0.769084	0.628123	0	0	-0.048609	0.608012	0.154302	0.800359	0.629591	0	0
4.08803	-2.37448	0.131624	0.0519673	-0.238686	-1.01317	0.239365	-0.182361	-0.265867	-0.290917	0.785673	0.0876047	0	0	-0.370727	0.0959878	-0.164639	0.549474	0.0697425	0	0	-1.30233	-0.00746333	0.0188103	-0.0543029	-0.477382	-0.0411989	0.768809	0.628064	0	0	-0.0510639	0.607861	0.154173	0.80002	0.629532	0	0
4.09802	-2.38604	0.147314	0.0577796	-0.253773	-1.01119	0.240442	-0.163737	-0.274738	-0.299486	0.728055	0.0929818	0	0	-0.370871	0.10652	-0.152495	0.557938	0.0832539	0	0	-1.29457	-0.0156669	0.00381636	-0.0564895	-0.47689	-0.041114	0.768535	0.628004	0	0	-0.0535173	0.607708	0.154043	0.799682	0.629474	0	0
4.10801	-2.39798	0.163869	0.0633742	-0.268939	-1.00885	0.241685	-0.144991	-0.284662	-0.306125	0.671704	0.0978363	0	0	-0.370913	0.118024	-0.139909	0.566642	0.0974944	0	0	-1.28694	-0.0253157	-0.0112504	-0.058675	-0.476398	-0.0410291	0.768261	0.627945	0	0	-0.0559694	0.607552	0.153912	0.799343	0.629415	0	0
4.11799	-2.41026	0.181091	0.0689087	-0.284192	-1.00618	0.243069	-0.126107	-0.295503	-0.310703	0.617365	0.102379	0	0	-0.370992	0.130267	-0.126813	0.575571	0.112461	0	0	-1.27938	-0.0361632	-0.0262144	-0.0608595	-0.475905	-0.0409441	0.767988	0.627886	0	0	-0.0584202	0.607395	0.153782	0.799005	0.629357	0	0
4.12798	-2.42286	0.198769	0.0745766	-0.299542	-1.00321	0.24456	-0.107077	-0.307124	-0.313232	0.565742	0.106745	0	0	-0.371192	0.142974	-0.113145	0.584722	0.128116	0	0	-1.27175	-0.0479191	-0.0409198	-0.0630429	-0.475411	-0.040859	0.767715	0.627827	0	0	-0.0608696	0.607235	0.153651	0.798667	0.629298	0	0
4.13796	-2.4358	0.216685	0.0805941	-0.314998	-1	0.246128	-0.0879154	-0.319392	-0.313892	0.51749	0.110973	0	0	-0.371555	0.155845	-0.098862	0.594096	0.144393	0	0	-1.26379	-0.0602639	-0.0552364	-0.0652254	-0.474917	-0.0407739	0.767442	0.627768	0	0	-0.0633177	0.607074	0.153521	0.798329	0.62924	0	0
4.14795	-2.44903	0.234622	0.0870764	-0.330566	-0.996586	0.247739	-0.0687894	-0.332173	-0.312999	0.473049	0.114992	0	0	-0.372092	0.168607	-0.0839711	0.603812	0.161155	0	0	-1.25559	-0.0728873	-0.0691052	-0.0674071	-0.474423	-0.0406887	0.767169	0.627709	0	0	-0.0657647	0.60691	0.153389	0.797991	0.629181	0	0
4.15793	-2.46247	0.252372	0.094106	-0.346251	-0.993005	0.249361	-0.0499012	-0.345343	-0.310991	0.432815	0.118625	0	0	-0.372794	0.181001	-0.0685278	0.614014	0.17825	0	0	-1.24722	-0.0854966	-0.0824821	-0.069588	-0.473928	-0.0406034	0.766896	0.62765	0	0	-0.0682107	0.606745	0.153258	0.797653	0.629123	0	0
4.16792	-2.47601	0.269723	0.101737	-0.362055	-0.989291	0.250961	-0.0314789	-0.35877	-0.308433	0.397159	0.121604	0	0	-0.37364	0.192765	-0.0526325	0.624883	0.195492	0	0	-1.23873	-0.0977987	-0.0953348	-0.0717681	-0.473432	-0.0405181	0.766623	0.627591	0	0	-0.0706558	0.606578	0.153127	0.797315	0.629064	0	0
4.1779	-2.4895	0.286462	0.109987	-0.377975	-0.985484	0.252511	-0.0137785	-0.372299	-0.305977	0.366435	0.123574	0	0	-0.374602	0.203635	-0.0364254	0.636651	0.212657	0	0	-1.2302	-0.109497	-0.107638	-0.0739476	-0.472936	-0.0404328	0.766351	0.627531	0	0	-0.0730998	0.606409	0.152995	0.796978	0.629005	0	0
4.18789	-2.50273	0.302364	0.118817	-0.394005	-0.981623	0.25398	0.00291406	-0.385738	-0.30428	0.340967	0.124092	0	0	-0.375651	0.213352	-0.0200823	0.649615	0.229468	0	0	-1.2218	-0.120296	-0.11937	-0.0761263	-0.47244	-0.0403474	0.766079	0.627472	0	0	-0.0755429	0.606239	0.152863	0.79664	0.628947	0	0
4.19787	-2.51538	0.317199	0.128123	-0.410133	-0.977749	0.255344	0.0182711	-0.398846	-0.303892	0.32101	0.122631	0	0	-0.376758	0.221662	-0.00381777	0.664158	0.245585	0	0	-1.21383	-0.129908	-0.130502	-0.0783042	-0.471943	-0.0402619	0.765807	0.627413	0	0	-0.077985	0.606067	0.152731	0.796303	0.628888	0	0
4.20786	-2.52719	0.330712	0.137823	-0.426343	-0.973904	0.256579	0.0320268	-0.411334	-0.305172	0.306786	0.118603	0	0	-0.377898	0.228274	0.0121033	0.680576	0.260622	0	0	-1.20642	-0.13801	-0.140944	-0.0804815	-0.471446	-0.0401764	0.765535	0.627354	0	0	-0.0804261	0.605894	0.152599	0.795965	0.628829	0	0
4.21785	-2.53789	0.342625	0.147861	-0.442613	-0.970131	0.257666	0.0439622	-0.422858	-0.30827	0.298431	0.111403	0	0	-0.379051	0.232847	0.0273596	0.699092	0.274131	0	0	-1.19962	-0.144241	-0.150546	-0.0826581	-0.470948	-0.0400909	0.765264	0.627295	0	0	-0.0828664	0.605719	0.152466	0.795628	0.628771	0	0
4.22783	-2.54709	0.352649	0.158072	-0.458915	-0.966472	0.258588	0.0537874	-0.433018	-0.313108	0.295883	0.100476	0	0	-0.380201	0.235066	0.0415929	0.720021	0.285569	0	0	-1.19367	-0.148266	-0.159171	-0.084834	-0.47045	-0.0400053	0.764992	0.627236	0	0	-0.0853058	0.605543	0.152334	0.795291	0.628712	0	0
4.23782	-2.55446	0.360504	0.168282	-0.475216	-0.962972	0.259332	0.0612794	-0.44142	-0.319431	0.298941	0.0853487	0	0	-0.381335	0.234636	0.0544464	0.743574	0.294339	0	0	-1.18878	-0.149778	-0.166618	-0.0870092	-0.469951	-0.0399197	0.764721	0.627176	0	0	-0.0877443	0.605365	0.152201	0.794954	0.628653	0	0
4.2478	-2.55968	0.365913	0.178311	-0.49148	-0.959674	0.25989	0.0663017	-0.447679	-0.32691	0.307294	0.0657337	0	0	-0.382448	0.231283	0.0655795	0.769848	0.29979	0	0	-1.18506	-0.148498	-0.172629	-0.0891837	-0.469453	-0.0398341	0.76445	0.627117	0	0	-0.0901819	0.605186	0.152068	0.794617	0.628594	0	0
4.25779	-2.56248	0.368618	0.187984	-0.507666	-0.956621	0.260262	0.0688107	-0.45144	-0.335194	0.320545	0.0416681	0	0	-0.383537	0.224769	0.0746923	0.798816	0.301244	0	0	-1.18256	-0.144181	-0.176914	-0.0913576	-0.468954	-0.0397484	0.764179	0.627058	0	0	-0.0926187	0.605006	0.151935	0.79428	0.628535	0	0
4.26777	-2.56265	0.368391	0.197133	-0.523729	-0.953856	0.260451	0.0688495	-0.452392	-0.343928	0.338237	0.0137081	0	0	-0.384603	0.214918	0.0815524	0.83033	0.298043	0	0	-1.18127	-0.136645	-0.179166	-0.0935308	-0.468454	-0.0396627	0.763908	0.626999	0	0	-0.0950546	0.604825	0.151802	0.793943	0.628476	0	0
4.27776	-2.56007	0.365068	0.20561	-0.539624	-0.951418	0.26047	0.0665327	-0.450292	-0.352765	0.359863	-0.0168657	0	0	-0.385652	0.201641	0.0860191	0.864113	0.289611	0	0	-1.18114	-0.125803	-0.179093	-0.0957034	-0.467955	-0.0395769	0.763637	0.626939	0	0	-0.0974897	0.604643	0.151668	0.793607	0.628418	0	0
4.28774	-2.55451	0.358613	0.213142	-0.555307	-0.949344	0.260336	0.0618595	-0.444959	-0.361319	0.384769	-0.04799	0	0	-0.386691	0.185051	0.0880537	0.899995	0.275526	0	0	-1.18245	-0.111756	-0.176557	-0.0978754	-0.467455	-0.0394912	0.763367	0.62688	0	0	-0.0999241	0.60446	0.151535	0.79327	0.628359	0	0
4.29773	-2.5459	0.34916	0.219488	-0.570736	-0.947668	0.260075	0.0548515	-0.436352	-0.369248	0.412229	-0.0772163	0	0	-0.38773	0.165456	0.0877683	0.937673	0.255634	0	0	-1.18544	-0.0948342	-0.171489	-0.100047	-0.466955	-0.0394054	0.763096	0.626821	0	0	-0.102358	0.604276	0.151401	0.792934	0.6283	0	0
4.30771	-2.53432	0.337023	0.224488	-0.585871	-0.946417	0.259719	0.0454983	-0.424577	-0.376323	0.441376	-0.102317	0	0	-0.388779	0.14334	0.0854299	0.976708	0.230104	0	0	-1.19028	-0.075576	-0.163941	-0.102218	-0.466454	-0.0393196	0.762826	0.626762	0	0	-0.10479	0.604091	0.151268	0.792597	0.628241	0	0
4.3177	-2.51996	0.322678	0.228095	-0.600679	-0.945615	0.259301	0.0336932	-0.409862	-0.38245	0.471126	-0.121739	0	0	-0.389849	0.119305	0.0814386	1.01655	0.199495	0	0	-1.19704	-0.0546639	-0.154091	-0.104388	-0.465954	-0.0392338	0.762556	0.626702	0	0	-0.107223	0.603905	0.151134	0.792261	0.628182	0	0
4.32769	-2.50299	0.306772	0.230284	-0.615135	-0.945279	0.258859	0.0190471	-0.392531	-0.387626	0.500055	-0.134799	0	0	-0.390947	0.0940792	0.0762651	1.05678	0.16481	0	0	-1.20616	-0.0328951	-0.142315	-0.106557	-0.465453	-0.039148	0.762285	0.626643	0	0	-0.109654	0.603719	0.151	0.791924	0.628123	0	0
4.33767	-2.48374	0.289978	0.231174	-0.62922	-0.945417	0.258425	0.00128937	-0.373036	-0.39208	0.526859	-0.141571	0	0	-0.392078	0.0683868	0.0704358	1.09672	0.127478	0	0	-1.21773	-0.0110345	-0.129033	-0.108726	-0.464952	-0.0390622	0.762015	0.626584	0	0	-0.112084	0.603532	0.150867	0.791588	0.628064	0	0
4.34766	-2.46261	0.272989	0.230952	-0.642925	-0.946034	0.258029	-0.0197455	-0.351951	-0.396095	0.550456	-0.142639	0	0	-0.393238	0.0429563	0.0644786	1.13564	0.0892616	0	0	-1.23173	0.0102034	-0.114725	-0.110895	-0.464451	-0.0389763	0.761745	0.626524	0	0	-0.114515	0.603344	0.150733	0.791252	0.628005	0	0
4.35764	-2.44017	0.25643	0.229834	-0.65625	-0.947121	0.257693	-0.043879	-0.329977	-0.399995	0.570282	-0.13886	0	0	-0.394414	0.0184923	0.0588725	1.17258	0.0521221	0	0	-1.24772	0.0302144	-0.0998666	-0.113063	-0.46395	-0.0388904	0.761475	0.626465	0	0	-0.116944	0.603156	0.150599	0.790916	0.627946	0	0
4.36763	-2.41701	0.240841	0.228001	-0.669202	-0.948665	0.257428	-0.0706469	-0.307908	-0.404013	0.586262	-0.131237	0	0	-0.395577	-0.00432052	0.0539968	1.20658	0.0180083	0	0	-1.26505	0.0484968	-0.0849141	-0.115231	-0.463449	-0.0388046	0.761206	0.626406	0	0	-0.119374	0.602967	0.150465	0.79058	0.627887	0	0
4.37761	-2.3937	0.22669	0.225526	-0.681798	-0.950638	0.257237	-0.0994802	-0.286535	-0.408206	0.598589	-0.120803	0	0	-0.396678	-0.0248289	0.0500579	1.23678	-0.0114016	0	0	-1.28319	0.0646248	-0.070289	-0.117399	-0.462948	-0.0387187	0.760936	0.626346	0	0	-0.121803	0.602777	0.150331	0.790244	0.627828	0	0
4.3876	-2.37071	0.214294	0.222397	-0.694057	-0.953009	0.257115	-0.129729	-0.266556	-0.412493	0.607639	-0.108536	0	0	-0.397646	-0.0424962	0.0470537	1.26245	-0.0349906	0	0	-1.30165	0.0782853	-0.0563266	-0.119566	-0.462446	-0.0386327	0.760666	0.626287	0	0	-0.124231	0.602587	0.150197	0.789908	0.627768	0	0
4.39758	-2.34852	0.203788	0.218544	-0.706004	-0.955735	0.257044	-0.160701	-0.248494	-0.416727	0.613852	-0.0953055	0	0	-0.39838	-0.0569897	0.0447665	1.28298	-0.0523871	0	0	-1.31999	0.0893033	-0.0432438	-0.121733	-0.461945	-0.0385468	0.760396	0.626227	0	0	-0.126659	0.602397	0.150062	0.789572	0.627709	0	0
4.40757	-2.32752	0.195114	0.213883	-0.717664	-0.958765	0.257003	-0.191701	-0.232659	-0.42073	0.617656	-0.0818437	0	0	-0.398747	-0.0682228	0.0427925	1.29785	-0.0638754	0	0	-1.33777	0.0976399	-0.031133	-0.1239	-0.461443	-0.0384609	0.760127	0.626168	0	0	-0.129087	0.602206	0.149928	0.789236	0.62765	0	0
4.41755	-2.30812	0.188059	0.208353	-0.729065	-0.962045	0.256965	-0.22205	-0.21916	-0.424336	0.61945	-0.0687234	0	0	-0.398582	-0.076344	0.0406058	1.30665	-0.070129	0	0	-1.35456	0.10338	-0.0199772	-0.126067	-0.460941	-0.038375	0.759857	0.626108	0	0	-0.131514	0.602015	0.149794	0.7889	0.627591	0	0
4.42754	-2.29068	0.182292	0.201953	-0.740233	-0.965513	0.256898	-0.251087	-0.207936	-0.427419	0.619627	-0.0563519	0	0	-0.397687	-0.081702	0.0376435	1.30913	-0.0719706	0	0	-1.3699	0.106719	-0.00967837	-0.128233	-0.460439	-0.038289	0.759588	0.626049	0	0	-0.133941	0.601823	0.14966	0.788564	0.627532	0	0
4.43753	-2.27553	0.177412	0.194778	-0.751195	-0.969108	0.256772	-0.278173	-0.198795	-0.429918	0.618607	-0.0449754	0	0	-0.395842	-0.0848008	0.0333873	1.30515	-0.0702117	0	0	-1.38335	0.107957	-9.11666e-05	-0.130399	-0.459937	-0.0382031	0.759318	0.625989	0	0	-0.136368	0.601632	0.149525	0.788228	0.627472	0	0
4.44751	-2.26297	0.173023	0.186999	-0.761973	-0.972766	0.256556	-0.302772	-0.191461	-0.431821	0.616774	-0.0346994	0	0	-0.392816	-0.0862004	0.0274357	1.29476	-0.0656443	0	0	-1.39462	0.107454	0.00894524	-0.132564	-0.459435	-0.0381171	0.759049	0.62593	0	0	-0.138794	0.601439	0.149391	0.787892	0.627413	0	0
4.4575	-2.25317	0.168774	0.178852	-0.772589	-0.976425	0.256222	-0.324463	-0.185615	-0.433174	0.614477	-0.0255135	0	0	-0.38839	-0.0864588	0.0195417	1.27814	-0.059013	0	0	-1.40353	0.10561	0.0175813	-0.134729	-0.458933	-0.0380312	0.758779	0.62587	0	0	-0.14122	0.601247	0.149256	0.787557	0.627354	0	0
4.46748	-2.24627	0.164368	0.170619	-0.783061	-0.980028	0.255742	-0.342959	-0.180921	-0.434077	0.612021	-0.0173205	0	0	-0.382398	-0.0860904	0.00962362	1.25558	-0.0510086	0	0	-1.41005	0.10285	0.0259419	-0.136894	-0.458431	-0.0379452	0.75851	0.625811	0	0	-0.143646	0.601054	0.149122	0.787221	0.627295	0	0
4.47747	-2.24227	0.159578	0.162593	-0.793404	-0.98352	0.255097	-0.358152	-0.177035	-0.434655	0.609631	-0.00996525	0	0	-0.374769	-0.0855385	-0.00224518	1.22747	-0.0422762	0	0	-1.41421	0.0995988	0.0341214	-0.139059	-0.457929	-0.0378593	0.75824	0.625751	0	0	-0.146071	0.600861	0.148987	0.786885	0.627235	0	0
4.48745	-2.24102	0.154251	0.155039	-0.80363	-0.986854	0.254266	-0.370162	-0.173614	-0.435033	0.607431	-0.00326128	0	0	-0.365592	-0.0851597	-0.015862	1.19421	-0.0334191	0	0	-1.41616	0.0962634	0.0421858	-0.141224	-0.457426	-0.0377733	0.757971	0.625692	0	0	-0.148496	0.600668	0.148853	0.786549	0.627176	0	0
4.49744	-2.24221	0.148284	0.148149	-0.813751	-0.98999	0.253237	-0.379323	-0.17034	-0.435325	0.605481	0.0029859	0	0	-0.355168	-0.0852176	-0.0309325	1.15623	-0.0249788	0	0	-1.41613	0.0932078	0.0501756	-0.143388	-0.456924	-0.0376873	0.757702	0.625632	0	0	-0.150921	0.600475	0.148719	0.786214	0.627117	0	0
4.50742	-2.24542	0.141607	0.142032	-0.823776	-0.992895	0.251999	-0.386073	-0.166937	-0.435612	0.603826	0.00896897	0	0	-0.343923	-0.0858848	-0.0471097	1.1139	-0.0174006	0	0	-1.41442	0.0907365	0.0581133	-0.145552	-0.456422	-0.0376014	0.757433	0.625573	0	0	-0.153345	0.600281	0.148584	0.785878	0.627058	0	0
4.51741	-2.25021	0.13417	0.13673	-0.833713	-0.995543	0.250547	-0.390887	-0.163177	-0.435929	0.602509	0.0148797	0	0	-0.33231	-0.0872573	-0.0640195	1.06769	-0.0110004	0	0	-1.41134	0.0890892	0.0660115	-0.147716	-0.45592	-0.0375154	0.757163	0.625513	0	0	-0.155769	0.600088	0.14845	0.785542	0.626998	0	0
4.52739	-2.25614	0.125944	0.132236	-0.843569	-0.997915	0.248879	-0.394224	-0.158886	-0.436249	0.601577	0.0209074	0	0	-0.320746	-0.0893667	-0.0812809	1.01809	-0.00594803	0	0	-1.4072	0.0884404	0.0738797	-0.149879	-0.455418	-0.0374295	0.756894	0.625454	0	0	-0.158193	0.599894	0.148315	0.785207	0.626939	0	0
4.53738	-2.26282	0.116923	0.128506	-0.853351	-1	0.246995	-0.396494	-0.153947	-0.436495	0.601081	0.0272323	0	0	-0.309562	-0.0921892	-0.0985192	0.965699	-0.00227891	0	0	-1.40223	0.0889	0.0817258	-0.152043	-0.454916	-0.0373436	0.756625	0.625394	0	0	-0.160617	0.599701	0.148181	0.784871	0.62688	0	0
4.54737	-2.2699	0.107129	0.125465	-0.863063	-1.00179	0.2449	-0.398046	-0.148308	-0.436555	0.601083	0.0340147	0	0	-0.298991	-0.0956502	-0.115373	0.911206	7.23746e-05	0	0	-1.39667	0.0905136	0.0895548	-0.154206	-0.454413	-0.0372576	0.756356	0.625335	0	0	-0.16304	0.599507	0.148046	0.784535	0.62682	0	0
4.55735	-2.27712	0.0966202	0.123016	-0.872711	-1.00329	0.242602	-0.399159	-0.141985	-0.436293	0.601645	0.041388	0	0	-0.289156	-0.0996306	-0.131499	0.855377	0.00123246	0	0	-1.39066	0.0932642	0.0973659	-0.156369	-0.453911	-0.0371717	0.756086	0.625275	0	0	-0.165464	0.599314	0.147912	0.7842	0.626761	0	0
4.56734	-2.28426	0.0854847	0.121042	-0.882298	-1.0045	0.240109	-0.400048	-0.135056	-0.435562	0.602829	0.0494584	0	0	-0.280087	-0.103977	-0.146581	0.799037	0.0013445	0	0	-1.38435	0.0970771	0.10515	-0.158533	-0.453409	-0.0370858	0.755817	0.625215	0	0	-0.167888	0.59912	0.147777	0.783864	0.626701	0	0
4.57732	-2.29117	0.0738436	0.11941	-0.891828	-1.00541	0.237435	-0.400867	-0.127656	-0.434231	0.6047	0.058301	0	0	-0.271738	-0.108512	-0.160335	0.743037	0.000523527	0	0	-1.37783	0.101825	0.112887	-0.160696	-0.452907	-0.0369998	0.755548	0.625156	0	0	-0.170311	0.598926	0.147643	0.783528	0.626642	0	0
4.58731	-2.29774	0.0618404	0.117981	-0.901303	-1.00605	0.234593	-0.401719	-0.119964	-0.432206	0.607317	0.0679529	0	0	-0.264013	-0.113055	-0.172507	0.6882	-0.00117515	0	0	-1.37116	0.107343	0.120548	-0.162859	-0.452405	-0.0369139	0.755278	0.625096	0	0	-0.172735	0.598733	0.147508	0.783193	0.626583	0	0
4.59729	-2.3039	0.0496314	0.116621	-0.910727	-1.00644	0.2316	-0.402668	-0.112188	-0.42944	0.61073	0.0784082	0	0	-0.256795	-0.117433	-0.182889	0.635267	-0.00376604	0	0	-1.36441	0.11344	0.128093	-0.165022	-0.451903	-0.0368279	0.755009	0.625036	0	0	-0.175158	0.598539	0.147374	0.782857	0.626523	0	0
4.60728	-2.30962	0.0373706	0.115215	-0.920102	-1.0066	0.228473	-0.403744	-0.104532	-0.425948	0.614974	0.0896193	0	0	-0.249968	-0.121506	-0.191325	0.58484	-0.00733458	0	0	-1.35764	0.119929	0.135479	-0.167186	-0.451401	-0.036742	0.75474	0.624977	0	0	-0.177582	0.598346	0.147239	0.782521	0.626464	0	0
4.61726	-2.31489	0.0251912	0.113683	-0.929432	-1.00655	0.225231	-0.404957	-0.0971673	-0.421796	0.620061	0.101507	0	0	-0.243441	-0.125183	-0.197737	0.537324	-0.0120179	0	0	-1.35093	0.126642	0.142668	-0.169349	-0.450898	-0.0366561	0.75447	0.624917	0	0	-0.180006	0.598152	0.147105	0.782186	0.626404	0	0
4.62725	-2.31972	0.0131874	0.111981	-0.938719	-1.00632	0.221893	-0.406298	-0.0902062	-0.417091	0.625976	0.113971	0	0	-0.237153	-0.128434	-0.202168	0.492895	-0.0179569	0	0	-1.3444	0.13345	0.149633	-0.171512	-0.450396	-0.0365701	0.754201	0.624857	0	0	-0.182429	0.597958	0.14697	0.78185	0.626345	0	0
4.63723	-2.32413	0.00139953	0.110106	-0.94797	-1.00595	0.218478	-0.40775	-0.0836818	-0.411963	0.632675	0.126893	0	0	-0.231087	-0.131303	-0.204794	0.451467	-0.0252365	0	0	-1.33824	0.140276	0.156373	-0.173676	-0.449894	-0.0364842	0.753932	0.624798	0	0	-0.184853	0.597765	0.146836	0.781514	0.626285	0	0
4.64722	-2.32816	-0.0101686	0.108084	-0.957188	-1.00548	0.215004	-0.409291	-0.0775672	-0.406529	0.640068	0.140151	0	0	-0.225205	-0.133876	-0.205957	0.412792	-0.0338158	0	0	-1.33251	0.147077	0.162904	-0.175839	-0.449392	-0.0363982	0.753662	0.624738	0	0	-0.187276	0.597571	0.146701	0.781179	0.626226	0	0
4.65721	-2.33187	-0.0215437	0.105951	-0.966383	-1.00492	0.211488	-0.410897	-0.0717909	-0.400884	0.648019	0.153629	0	0	-0.219452	-0.136255	-0.20609	0.376452	-0.0435027	0	0	-1.32721	0.153839	0.169258	-0.178002	-0.44889	-0.0363123	0.753393	0.624678	0	0	-0.1897	0.597378	0.146567	0.780843	0.626167	0	0
4.66719	-2.33537	-0.0327717	0.103749	-0.97556	-1.00431	0.207946	-0.412544	-0.0662568	-0.395107	0.656361	0.167228	0	0	-0.21377	-0.138529	-0.205612	0.341881	-0.0539851	0	0	-1.32224	0.160561	0.175482	-0.180166	-0.448388	-0.0362264	0.753124	0.624618	0	0	-0.192123	0.597184	0.146432	0.780507	0.626107	0	0
4.67718	-2.33873	-0.0439098	0.101511	-0.984727	-1.00368	0.20439	-0.414214	-0.0608639	-0.389261	0.664927	0.18088	0	0	-0.208118	-0.140761	-0.20485	0.308411	-0.0649132	0	0	-1.31747	0.167255	0.181628	-0.182329	-0.447885	-0.0361404	0.752854	0.624559	0	0	-0.194547	0.59699	0.146298	0.780171	0.626048	0	0
4.68716	-2.34205	-0.0550123	0.0992609	-0.99389	-1.00303	0.200829	-0.415892	-0.0555236	-0.38339	0.673577	0.194546	0	0	-0.202472	-0.142985	-0.204006	0.275393	-0.0759988	0	0	-1.31279	0.173935	0.187745	-0.184492	-0.447383	-0.0360545	0.752585	0.624499	0	0	-0.196971	0.596797	0.146164	0.779836	0.625988	0	0
