Coordinates
version=1
nRows=235
nColumns=38
inDegrees=no

Units are S.I. units (second, meters, Newtons, ...)
If the header above contains a line with 'inDegrees', this indicates whether rotational values are in degrees (yes) or radians (no).

endheader
time	pelvis_tilt_moment	pelvis_list_moment	pelvis_rotation_moment	pelvis_tx_force	pelvis_ty_force	pelvis_tz_force	hip_flexion_r_moment	hip_adduction_r_moment	hip_rotation_r_moment	knee_angle_r_moment	ankle_angle_r_moment	subtalar_angle_r_moment	mtp_angle_r_moment	hip_flexion_l_moment	hip_adduction_l_moment	hip_rotation_l_moment	knee_angle_l_moment	ankle_angle_l_moment	subtalar_angle_l_moment	mtp_angle_l_moment	lumbar_extension_moment	lumbar_bending_moment	lumbar_rotation_moment	arm_flex_r_moment	arm_add_r_moment	arm_rot_r_moment	elbow_flex_r_moment	pro_sup_r_moment	wrist_flex_r_moment	wrist_dev_r_moment	arm_flex_l_moment	arm_add_l_moment	arm_rot_l_moment	elbow_flex_l_moment	pro_sup_l_moment	wrist_flex_l_moment	wrist_dev_l_moment
0	0	0	0	0	0	0	0	0	0	0	0	0	0	0	0	0	0	0	0	0	0	0	0	0	0	0	0	0	0	0	0	0	0	0	0	0	0
0.00497872	47.8047	13.1396	-4.35384	-51.8906	469.76	-0.127353	-22.4336	8.61938	-1.33813	10.5997	1.36523	0.0167577	-0.0877024	-4.44661	2.97956	-1.50724	-10.0033	17.447	0.97019	-0.070239	16.5581	-3.90571	-5.2717	4.95242	-8.27595	-2.63536	2.13878	-0.0859898	0.0409593	-0.341723	4.52319	6.47575	1.56443	3.1581	0.0595942	0.346086	-0.042931
0.00995745	46.8632	13.4736	-4.88979	-62.0244	434.669	0.42061	-20.4662	9.05823	-1.4025	10.4295	1.32482	0.0540334	-0.0869997	-7.62879	1.257	-0.898951	-11.7989	18.6282	1.59322	-0.0721475	16.2792	-3.61127	-5.47035	4.87736	-8.32774	-2.64509	2.09538	-0.0863498	0.0363095	-0.33905	4.44466	6.52953	1.59338	3.12022	0.0601688	0.343494	-0.0377653
0.0149362	45.3466	13.6906	-5.28691	-72.2908	400.458	0.711365	-17.7533	9.62989	-1.46258	10.038	1.30362	0.0897717	-0.0867745	-10.8964	-0.391198	-0.273979	-13.6926	19.5075	2.28622	-0.0746435	15.9099	-3.2125	-5.61474	4.78009	-8.36175	-2.64371	2.04405	-0.086342	0.0316312	-0.33452	4.33101	6.57707	1.62092	3.07398	0.0606041	0.339704	-0.0322062
0.0199149	43.2433	13.7922	-5.64982	-82.3922	367.324	0.925758	-14.4473	10.3122	-1.52479	9.45385	1.30608	0.12136	-0.0872544	-14.1059	-2.0206	0.368922	-15.7385	20.0884	3.04632	-0.0774958	15.4816	-2.72252	-5.79984	4.64555	-8.39339	-2.63865	1.97998	-0.0862595	0.0259527	-0.328582	4.18681	6.62729	1.65272	3.01928	0.061118	0.335128	-0.0255796
0.0248936	40.5482	13.7107	-5.83386	-92.0426	335.493	1.31138	-10.6963	11.0701	-1.59249	8.70816	1.33594	0.146222	-0.0886434	-17.1449	-3.68849	1.03219	-17.9692	20.3783	3.86851	-0.080518	15.0542	-2.14043	-5.86954	4.50187	-8.39051	-2.61786	1.91591	-0.085662	0.0213081	-0.321036	4.02086	6.6592	1.67625	2.96418	0.061363	0.329824	-0.01975
0.0298723	37.3092	13.4372	-5.81686	-100.881	305.127	2.02834	-6.6465	11.8577	-1.66609	7.83376	1.3942	0.162213	-0.0910191	-19.9425	-5.4407	1.71827	-20.3931	20.3875	4.74646	-0.0835088	14.6734	-1.48108	-5.81084	4.35482	-8.35068	-2.58129	1.8552	-0.0845474	0.0180339	-0.312174	3.83931	6.67014	1.6898	2.91209	0.0613235	0.324086	-0.0151101
0.0348511	33.6117	13.0228	-5.71447	-108.519	276.346	3.14535	-2.43937	12.6246	-1.74324	6.86382	1.47921	0.167772	-0.0943309	-22.4577	-7.31041	2.42899	-22.9992	20.1296	5.67297	-0.0862763	14.3757	-0.77629	-5.7642	4.1873	-8.30398	-2.54197	1.79159	-0.0833917	0.0146665	-0.302865	3.64674	6.67783	1.70339	2.8618	0.0613442	0.318501	-0.0104927
0.0398298	29.5283	12.4417	-5.37765	-114.707	249.307	4.7689	1.80711	13.3177	-1.81835	5.82624	1.59029	0.161247	-0.0985677	-24.6649	-9.32318	3.16532	-25.7655	19.6228	6.64028	-0.0886897	14.205	-0.0316731	-5.59021	4.02734	-8.22505	-2.49022	1.73687	-0.0818267	0.0130074	-0.293043	3.45129	6.66569	1.70646	2.82033	0.0611256	0.313135	-0.00750705
0.0448085	25.154	11.7559	-4.9533	-119.17	224.069	6.88527	5.97947	13.9058	-1.88808	4.74791	1.72322	0.142569	-0.103557	-26.5526	-11.487	3.92654	-28.6616	18.8879	7.64115	-0.0906337	14.188	0.718631	-5.45162	3.85621	-8.15068	-2.44153	1.6834	-0.0804109	0.0113021	-0.283698	3.25759	6.65599	1.71119	2.78551	0.0610703	0.308606	-0.00470705
0.0497872	20.5627	10.9689	-4.29911	-121.808	200.693	9.48661	9.99527	14.3361	-1.94215	3.64819	1.87588	0.110673	-0.109198	-28.117	-13.8011	4.71036	-31.6523	17.9476	8.66897	-0.0920433	14.349	1.47175	-5.21432	3.70108	-8.05725	-2.38662	1.64195	-0.0787889	0.0112233	-0.274717	3.07282	6.63362	1.70776	2.76323	0.060888	0.304898	-0.00356343
0.054766	15.8426	10.1402	-3.41923	-122.536	179.185	12.4681	13.7806	14.5604	-1.96837	2.54484	2.04434	0.0651167	-0.115299	-29.3652	-16.2488	5.51222	-34.6971	16.8243	9.71841	-0.0928854	14.6997	2.21357	-4.89693	3.56506	-7.9525	-2.32885	1.61314	-0.0770717	0.0126229	-0.266484	2.90198	6.60324	1.69785	2.75453	0.0606428	0.302247	-0.00398174
0.0597447	11.0909	9.36558	-2.48062	-121.291	159.462	15.6625	17.2696	14.5543	-1.95755	1.45384	2.22269	0.00675329	-0.121582	-30.3165	-18.803	6.32556	-37.7511	15.5386	10.7854	-0.093161	15.2438	2.91796	-4.67678	3.4262	-7.87626	-2.2846	1.58714	-0.0758494	0.0134741	-0.259897	2.74782	6.58979	1.6951	2.75531	0.0607644	0.301144	-0.00424277
0.0647234	6.37895	8.64232	-1.36286	-118.199	141.473	18.979	20.4324	14.3017	-1.90092	0.382353	2.40812	-0.0637781	-0.127909	-31.0012	-21.4366	7.14301	-40.7662	14.1087	11.8668	-0.0928885	15.9766	3.59071	-4.42236	3.30965	-7.80478	-2.24419	1.57315	-0.0747554	0.0153159	-0.254677	2.61569	6.57872	1.69007	2.7699	0.0609574	0.301415	-0.00567558
0.0697021	1.7802	8.00786	-0.096358	-113.389	125.086	22.2728	23.246	13.8024	-1.79257	-0.663234	2.59632	-0.144919	-0.134077	-31.4533	-24.1119	7.95507	-43.6936	12.5499	12.9601	-0.0921106	16.8841	4.22665	-4.15148	3.21605	-7.74374	-2.20993	1.57028	-0.0738669	0.0179108	-0.250983	2.50809	6.57381	1.68436	2.79761	0.0612656	0.303098	-0.00807977
0.0746809	-2.60852	7.52562	1.14227	-106.975	110.171	25.3628	25.6811	13.0721	-1.63037	-1.67216	2.78123	-0.234125	-0.139823	-31.7096	-26.7881	8.75126	-46.4855	10.8752	14.0632	-0.0908898	17.943	4.81085	-4.02575	3.1225	-7.72726	-2.19561	1.56787	-0.0736843	0.0193108	-0.249391	2.42457	6.59669	1.6903	2.83274	0.0620568	0.306415	-0.00976478
0.0796596	-6.75432	7.13747	2.42945	-99.2555	96.7015	28.2177	27.7457	12.1667	-1.4254	-2.6412	2.96044	-0.328054	-0.145079	-31.7946	-29.4273	9.52069	-49.1001	9.09605	15.1728	-0.0892851	19.1282	5.35424	-3.91479	3.0514	-7.72967	-2.19065	1.57391	-0.0738144	0.0209816	-0.249432	2.36835	6.63167	1.69829	2.87841	0.0630197	0.311046	-0.0119827
0.0846383	-10.6158	6.86492	3.7402	-90.5382	84.6082	30.7128	29.4507	11.0973	-1.17614	-3.56651	3.13028	-0.424739	-0.149693	-31.7233	-31.9945	10.2526	-51.502	7.22373	16.2845	-0.0873625	20.402	5.85624	-3.82242	3.00286	-7.75097	-2.19496	1.58711	-0.0742523	0.0227875	-0.250999	2.33987	6.67876	1.7085	2.93286	0.0641365	0.316812	-0.0146031
0.089617	-14.1481	6.73219	4.91703	-81.0307	73.9113	32.7397	30.793	9.90112	-0.889651	-4.43703	3.28567	-0.520979	-0.153486	-31.5	-34.4577	10.9367	-53.6623	5.2707	17.3917	-0.0852058	21.7317	6.30806	-3.87686	2.95607	-7.81622	-2.21849	1.59807	-0.0753615	0.023141	-0.254361	2.33579	6.75364	1.73046	2.99029	0.0656784	0.323732	-0.016212
0.0945957	-17.3477	6.68375	6.04118	-71.1524	64.7453	34.3061	31.8007	8.62208	-0.577331	-5.24688	3.42487	-0.614034	-0.156449	-31.1186	-36.7918	11.5638	-55.5579	3.25084	18.4857	-0.0828744	23.0761	6.71818	-3.9503	2.93176	-7.89843	-2.25011	1.61411	-0.076733	0.0234629	-0.258943	2.35853	6.83934	1.75437	3.05319	0.0673178	0.331396	-0.0180236
0.0995745	-20.2011	6.71645	6.97122	-61.2619	57.1866	35.3853	32.4885	7.31151	-0.25442	-5.98439	3.54387	-0.700542	-0.158483	-30.5613	-38.9758	12.1259	-57.1742	1.18104	19.5556	-0.0804453	24.3901	7.07596	-4.14351	2.91319	-8.01542	-2.29694	1.62739	-0.0786292	0.0224882	-0.264854	2.4055	6.94636	1.78718	3.11617	0.0692394	0.339697	-0.0189149
0.104553	-22.7171	6.75814	7.78408	-51.7477	51.505	36.0418	32.8851	6.01193	0.0644047	-6.63879	3.64134	-0.778038	-0.159622	-29.8121	-41.0021	12.618	-58.4997	-0.919948	20.589	-0.0779783	25.6364	7.38939	-4.33921	2.91849	-8.14241	-2.34862	1.64452	-0.0806695	0.0215158	-0.271524	2.47761	7.05923	1.82004	3.18153	0.0711452	0.348252	-0.0199768
0.109532	-24.9069	6.76332	8.45555	-43.0624	47.9322	36.3435	33.0214	4.77304	0.360428	-7.19869	3.71542	-0.843877	-0.159885	-28.8471	-42.865	13.0362	-59.531	-3.0317	21.5729	-0.0755385	26.7721	7.65305	-4.51988	2.95131	-8.27441	-2.40297	1.66604	-0.0827748	0.0207025	-0.278753	2.57617	7.17412	1.85104	3.2486	0.0729515	0.356844	-0.0213438
0.114511	-26.7676	6.69031	8.87137	-35.5393	46.6681	36.3984	32.9163	3.65127	0.61015	-7.65	3.76377	-0.895161	-0.159277	-27.6498	-44.5761	13.3802	-60.2704	-5.13244	22.4946	-0.0732054	27.7607	7.85	-4.76364	2.99971	-8.4261	-2.46567	1.68642	-0.0851479	0.0191046	-0.286652	2.69864	7.2992	1.88563	3.31334	0.0747957	0.365392	-0.022144
0.119489	-28.3209	6.4984	9.12791	-29.6281	48.0086	36.2721	32.6082	2.64635	0.812232	-7.98169	3.7865	-0.931857	-0.157876	-26.2	-46.1474	13.6506	-60.7259	-7.20074	23.3421	-0.0710198	28.5685	7.98691	-4.96518	3.08146	-8.57546	-2.52763	1.71214	-0.0874606	0.0179153	-0.294777	2.84908	7.42069	1.91556	3.37888	0.07641	0.373634	-0.0234422
0.124468	-29.5758	6.1589	9.22292	-25.7314	52.2357	36.0593	32.1301	1.78159	0.956055	-8.18305	3.78348	-0.953182	-0.155758	-24.4822	-47.5856	13.8479	-60.9089	-9.21543	24.1052	-0.0690382	29.1641	8.05679	-5.10787	3.20135	-8.71931	-2.58734	1.74439	-0.0896557	0.0173176	-0.303023	3.02994	7.53615	1.93927	3.4456	0.0777283	0.381466	-0.025404
0.129447	-30.5622	5.67274	9.08663	-24.289	59.5875	35.8517	31.5283	1.074	1.03391	-8.24939	3.75578	-0.959076	-0.153028	-22.477	-48.9104	13.9743	-60.8381	-11.1561	24.775	-0.067333	29.522	8.03974	-5.25786	3.35317	-8.87226	-2.65052	1.77977	-0.0919371	0.0165663	-0.311662	3.24353	7.65395	1.9614	3.51166	0.0788761	0.38897	-0.0273831
0.134426	-31.2947	5.00093	8.79952	-25.6156	70.271	35.7489	30.8405	0.533449	1.04144	-8.17641	3.70462	-0.949903	-0.149784	-20.1865	-50.1275	14.0318	-60.529	-13.0058	25.3451	-0.0659252	29.6227	7.941	-5.32647	3.55265	-9.01679	-2.70991	1.82423	-0.0940421	0.0166928	-0.320387	3.49421	7.76327	1.97515	3.58048	0.0796392	0.396009	-0.0303134
0.139404	-31.8003	4.13682	8.37586	-30.1168	84.5749	35.8432	30.111	0.165718	0.977195	-7.96197	3.63219	-0.926563	-0.146147	-17.5974	-51.2507	14.0227	-60.0063	-14.7491	25.8111	-0.0648602	29.4496	7.75148	-5.30123	3.8071	-9.15299	-2.76535	1.87989	-0.0959624	0.0178857	-0.329297	3.78804	7.86411	1.9795	3.65404	0.0799821	0.402668	-0.0344079
0.144383	-32.1301	3.09975	7.76445	-38.2056	102.63	36.1898	29.4056	-0.0271969	0.842753	-7.61533	3.5424	-0.890688	-0.142282	-14.7005	-52.2977	13.9505	-59.2985	-16.373	26.1703	-0.0641737	28.9866	7.45976	-5.24723	4.11034	-9.29528	-2.82263	1.94342	-0.0979106	0.0194065	-0.338686	4.12914	7.96537	1.97904	3.73132	0.0800414	0.409107	-0.0390745
0.149362	-32.3223	1.87435	7.04521	-50.1484	124.562	36.9104	28.7671	-0.0355677	0.636508	-7.14234	3.43806	-0.843371	-0.1383	-11.4965	-53.2735	13.8179	-58.4326	-17.8678	26.4225	-0.0638832	28.2317	7.05987	-5.08592	4.47984	-9.43034	-2.87631	2.02161	-0.0996838	0.022257	-0.348492	4.52429	8.05852	1.96783	3.81681	0.0796392	0.415365	-0.0452339
0.15434	-32.445	0.504171	6.18372	-66.3404	150.506	38.0332	28.2717	0.126407	0.370496	-6.56011	3.32463	-0.787429	-0.134384	-7.97366	-54.1958	13.6291	-57.443	-19.2255	26.5688	-0.0640123	27.1778	6.54086	-4.88119	4.91076	-9.57328	-2.93251	2.11174	-0.101506	0.025741	-0.359085	4.97918	8.15312	1.95047	3.91036	0.0789198	0.421688	-0.0523511
0.159319	-32.5559	-1.00393	5.26945	-87.0423	180.453	39.6521	27.969	0.450857	0.054415	-5.88241	3.20557	-0.724972	-0.130622	-4.12855	-55.0766	13.3884	-56.3636	-20.4412	26.6123	-0.0645619	25.8262	5.89559	-4.55999	5.41971	-9.71131	-2.98618	2.22027	-0.10319	0.0308048	-0.370433	5.50101	8.2408	1.92123	4.01635	0.0777166	0.428133	-0.0613126
0.164298	-32.7217	-2.6265	4.32794	-112.493	214.315	41.8413	27.9184	0.933255	-0.302956	-5.12951	3.08555	-0.658253	-0.127139	0.0390297	-55.9285	13.1007	-55.2291	-21.5119	26.5575	-0.0655261	24.179	5.11531	-4.11657	6.01135	-9.84415	-3.03742	2.34892	-0.10474	0.0375911	-0.382666	6.09493	8.32097	1.8793	4.1366	0.0760123	0.434823	-0.0723046
0.169277	-32.9878	-4.34737	3.34644	-142.905	251.752	44.6458	28.1657	1.57171	-0.693713	-4.3229	2.96754	-0.58904	-0.123972	4.52824	-56.7634	12.7713	-54.0758	-22.4375	26.4103	-0.0668611	22.2155	4.20187	-3.57285	6.67958	-9.9719	-3.08657	2.49504	-0.106179	0.0457933	-0.395641	6.76036	8.39311	1.82538	4.26928	0.0738212	0.441626	-0.085096
0.174255	-33.4622	-6.1296	2.38082	-178.397	292.579	48.1338	28.7767	2.35773	-1.10728	-3.49143	2.85768	-0.519931	-0.12129	9.33845	-57.5939	12.406	-52.9392	-23.2185	26.1774	-0.0685684	19.9665	3.14163	-2.90426	7.43418	-10.0922	-3.13312	2.66294	-0.107484	0.0558673	-0.409636	7.50435	8.45524	1.75745	4.41821	0.071106	0.448817	-0.100154
0.179234	-34.2236	-7.95929	1.4535	-218.986	336.246	52.3765	29.7963	3.28843	-1.53597	-2.66464	2.75998	-0.452799	-0.119159	14.4576	-58.4366	12.0117	-51.8535	-23.8576	25.8663	-0.0706034	17.439	1.93351	-2.10594	8.27327	-10.1999	-3.1756	2.85249	-0.108609	0.0678947	-0.424545	8.32619	8.50319	1.6742	4.5831	0.0678355	0.456329	-0.117582
0.184213	-22.0944	-2.41818	3.33845	2.19244	4.4346	-4.48372	16.4563	-3.43223	-0.0596903	-5.2764	2.19904	-0.44776	-0.0885131	-8.4882	-49.8697	11.5544	-44.2278	-25.3069	25.6906	-0.0463064	20.6052	8.63647	-4.07396	3.09537	-7.43714	-2.22974	1.24763	-0.077122	-0.00958605	-0.248862	2.86557	6.52091	1.67359	2.6023	0.0643914	0.296165	-0.00310213
0.189191	-20.6334	-3.48047	2.69758	1.92725	4.08682	-4.61504	15.0214	-3.31824	-0.281149	-4.72304	2.03023	-0.384554	-0.082814	-7.3802	-49.5279	11.1313	-42.1476	-25.881	25.3061	-0.0455056	19.4889	8.22748	-3.75655	3.12496	-7.2415	-2.16532	1.2276	-0.0745878	-0.00791046	-0.242089	2.80715	6.33921	1.6188	2.51297	0.0618309	0.285316	-0.00321969
0.19417	-19.1215	-4.44987	2.15417	1.66324	3.79209	-4.6803	13.648	-3.20033	-0.479292	-4.17242	1.86759	-0.325222	-0.077363	-6.40637	-49.0877	10.6833	-40.0258	-26.4138	24.9045	-0.0447986	18.4018	7.79121	-3.39645	3.16578	-7.04211	-2.09902	1.21337	-0.0719545	-0.00551889	-0.235502	2.74751	6.15372	1.56135	2.42654	0.0591904	0.274593	-0.00384586
0.199149	-17.6066	-5.29923	1.6354	1.38703	3.51694	-4.64657	12.3671	-3.07929	-0.650572	-3.63721	1.71506	-0.270984	-0.0722886	-5.56133	-48.5694	10.2161	-37.8871	-26.9152	24.4952	-0.0441721	17.3569	7.3302	-3.07881	3.20365	-6.85579	-2.03772	1.19969	-0.0694838	-0.00337893	-0.229395	2.68692	5.97548	1.50749	2.34148	0.0566744	0.264234	-0.00419054
0.204128	-16.1124	-6.03905	1.22381	1.15831	3.24164	-4.47125	11.1687	-2.95891	-0.793026	-3.11834	1.57176	-0.221774	-0.067522	-4.83425	-47.9904	9.73503	-35.7553	-27.3952	24.0869	-0.043623	16.3744	6.84231	-2.72409	3.25406	-6.66968	-1.97608	1.1931	-0.0669731	-0.000491113	-0.223709	2.62861	5.79674	1.45178	2.26206	0.0541286	0.254308	-0.00512784
0.209106	-14.6726	-6.64902	0.834028	0.991278	2.89049	-4.15277	10.0756	-2.83968	-0.905028	-2.62564	1.44087	-0.178424	-0.0631725	-4.22229	-47.3685	9.24536	-33.6488	-27.8641	23.6882	-0.0431338	15.4605	6.33611	-2.42503	3.29975	-6.50083	-1.9211	1.187	-0.0646922	0.00203815	-0.218657	2.57124	5.62888	1.40097	2.18569	0.0517697	0.24498	-0.00574068
0.214085	-13.3051	-7.14775	0.555893	0.861162	2.52762	-3.74099	9.07907	-2.72468	-0.986966	-2.15768	1.32117	-0.140524	-0.0591702	-3.70729	-46.7143	8.75109	-31.5867	-28.3313	23.3069	-0.042708	14.6272	5.81578	-2.09179	3.3597	-6.33566	-1.86711	1.18852	-0.0624274	0.00529107	-0.214196	2.52078	5.46424	1.34906	2.11714	0.049426	0.236325	-0.00701065
0.219064	-12.0243	-7.51742	0.39381	0.780076	2.22345	-3.3361	8.18146	-2.6247	-1.03597	-1.71505	1.21317	-0.108271	-0.0555244	-3.27541	-46.0307	8.25535	-29.5837	-28.8064	22.9505	-0.0423463	13.8827	5.28926	-1.72535	3.43527	-6.17681	-1.81497	1.1979	-0.0602119	0.00924174	-0.210419	2.47922	5.30555	1.29668	2.05742	0.0471253	0.228462	-0.00894382
0.224043	-10.8592	-7.78973	0.233009	0.678458	1.92179	-2.7742	7.39974	-2.51861	-1.05992	-1.30449	1.11922	-0.0816478	-0.0523313	-2.91659	-45.3574	7.76495	-27.6547	-29.2981	22.6251	-0.0420338	13.2192	4.76387	-1.42959	3.50538	-6.04074	-1.77157	1.20714	-0.0583185	0.0126324	-0.207428	2.44435	5.16342	1.25083	2.0029	0.0450858	0.221468	-0.0104987
0.229021	-9.80178	-7.9541	0.174933	0.65062	1.7133	-2.23426	6.71186	-2.42536	-1.05564	-0.919331	1.03727	-0.0602076	-0.0495026	-2.61893	-44.6829	7.28116	-25.8078	-29.8149	22.3365	-0.0417784	12.6514	4.24473	-1.10771	3.59012	-5.91359	-1.73094	1.22367	-0.0565168	0.0166072	-0.205169	2.42043	5.03018	1.20543	1.95807	0.0431283	0.215382	-0.0126696
0.234	-8.85384	-8.01607	0.217288	0.740391	1.55802	-1.79983	6.11057	-2.35015	-1.02408	-0.558971	0.967044	-0.0437077	-0.0470287	-2.37417	-44.0126	6.80698	-24.0497	-30.3643	22.0895	-0.0415724	12.1791	3.74323	-0.760013	3.68837	-5.79555	-1.69307	1.24674	-0.0548119	0.0211005	-0.203591	2.40724	4.90682	1.16076	1.9227	0.0412648	0.210195	-0.015415
0.238979	-8.03894	-8.02075	0.229308	0.833263	1.34718	-1.26284	5.60866	-2.26508	-0.97657	-0.229129	0.910134	-0.0317393	-0.0449853	-2.16948	-43.3888	6.34838	-22.3901	-30.953	21.8868	-0.0413953	11.7839	3.26522	-0.499126	3.77645	-5.70283	-1.66491	1.26731	-0.0534816	0.024738	-0.202739	2.40173	4.80334	1.12411	1.89215	0.0397154	0.205905	-0.0175892
0.243957	-7.34844	-7.95877	0.32146	0.945348	1.07863	-0.800339	5.18596	-2.18882	-0.910001	0.0752309	0.864266	-0.0238215	-0.0432797	-1.99028	-42.7954	5.90517	-20.8316	-31.5866	21.7314	-0.0412473	11.4684	2.81172	-0.215101	3.87597	-5.61721	-1.63889	1.29319	-0.0522369	0.0287971	-0.202436	2.40778	4.70873	1.08796	1.87034	0.03825	0.202424	-0.020296
0.248936	-6.78419	-7.85193	0.482282	1.02198	0.772966	-0.410778	4.83633	-2.11527	-0.830617	0.355734	0.828886	-0.0193302	-0.041902	-1.82053	-42.2415	5.47933	-19.3782	-32.2692	21.6245	-0.0411232	11.2244	2.38753	0.0914533	3.9863	-5.53804	-1.61477	1.32381	-0.051075	0.0332298	-0.202622	2.42612	4.62284	1.05224	1.85706	0.0368647	0.199717	-0.0235189
0.253915	-6.33961	-7.7162	0.583696	1.05003	0.530211	-0.0467129	4.56273	-2.03272	-0.744153	0.613637	0.804877	-0.0180189	-0.0409084	-1.65347	-41.7431	5.07341	-18.0293	-33.0038	21.5662	-0.0410158	11.0397	2.00654	0.300073	4.08397	-5.48637	-1.6011	1.34987	-0.0503262	0.0365495	-0.203458	2.45362	4.55978	1.02568	1.8478	0.0358262	0.197871	-0.0259917
0.258894	-6.00456	-7.56789	0.731516	1.02101	0.322717	0.330532	4.3439	-1.94255	-0.653764	0.853548	0.789961	-0.0190868	-0.0402156	-1.47941	-41.2979	4.68731	-16.7837	-33.7925	21.5557	-0.04092	10.9151	1.65429	0.526962	4.19069	-5.44018	-1.58901	1.37997	-0.0496541	0.0401766	-0.204699	2.49351	4.5046	0.999456	1.84659	0.03486	0.196738	-0.0289371
0.263872	-5.76405	-7.41999	0.919417	0.971186	0.19634	0.731758	4.16787	-1.84216	-0.563327	1.07951	0.783341	-0.022035	-0.0398082	-1.29482	-40.9069	4.32124	-15.6372	-34.636	21.5916	-0.0408315	10.8476	1.33259	0.772431	4.30552	-5.39874	-1.57818	1.41375	-0.0490493	0.0440943	-0.206287	2.54508	4.45685	0.973488	1.8531	0.0339611	0.196275	-0.032338
0.268851	-5.60731	-7.26179	1.02321	0.881523	0.295489	1.04731	4.03738	-1.72991	-0.47578	1.29459	0.785649	-0.0267396	-0.0397323	-1.08934	-40.5627	3.97442	-14.5864	-35.5341	21.6717	-0.0407539	10.8232	1.06279	0.912414	4.4055	-5.38556	-1.578	1.44153	-0.0488705	0.0467364	-0.208438	2.60556	4.43291	0.95728	1.86261	0.0334195	0.196593	-0.0348518
0.27383	-5.49732	-7.07907	1.16459	1.01634	0.346294	1.06272	3.91734	-1.62967	-0.386651	1.50372	0.794408	-0.0328655	-0.0398947	-0.88612	-40.2326	3.64412	-13.6164	-36.4867	21.7936	-0.040663	10.8516	0.849406	1.06245	4.50793	-5.37816	-1.57931	1.47007	-0.0487726	0.0493993	-0.210775	2.67273	4.41861	0.942754	1.87727	0.0329834	0.19743	-0.0375418
0.278809	-5.47469	-6.93335	1.20139	1.02515	0.00081455	1.30288	3.82295	-1.48984	-0.314046	1.69727	0.810155	-0.0395104	-0.0403294	-0.658686	-39.972	3.33323	-12.7338	-37.4916	21.9534	-0.0405325	10.8908	0.669321	1.1145	4.58938	-5.38616	-1.58717	1.49117	-0.0489606	0.0508737	-0.213233	2.74362	4.41665	0.934948	1.89157	0.0327908	0.198604	-0.0393979
0.283787	-5.50594	-6.78664	1.26003	0.955496	-0.311726	1.48679	3.74112	-1.33851	-0.251219	1.88771	0.83161	-0.0466724	-0.0410009	-0.40224	-39.736	3.03692	-11.9275	-38.5459	22.1478	-0.0403904	10.9568	0.521783	1.18296	4.67607	-5.3955	-1.59516	1.51415	-0.0491783	0.0525193	-0.21582	2.82406	4.41933	0.926943	1.91102	0.0326323	0.200185	-0.0415842
0.288766	-5.58236	-6.64791	1.33987	0.827416	-0.587078	1.61191	3.66339	-1.17431	-0.200531	2.07858	0.858211	-0.0540659	-0.0419011	-0.115851	-39.5203	2.75378	-11.1905	-39.6466	22.3731	-0.040236	11.0471	0.409112	1.27004	4.76722	-5.40476	-1.60277	1.53866	-0.0494095	0.0543376	-0.21847	2.91327	4.42573	0.918469	1.9352	0.0324981	0.202122	-0.0441012
0.293745	-5.68299	-6.52516	1.31505	0.701847	-0.71941	1.78699	3.58283	-0.981794	-0.168382	2.27529	0.890032	-0.0613089	-0.0430581	0.19582	-39.3345	2.48362	-10.5144	-40.7896	22.6249	-0.0400787	11.1557	0.335514	1.25335	4.84017	-5.43611	-1.61904	1.55621	-0.0499927	0.0548937	-0.221442	3.00739	4.4499	0.91838	1.95978	0.0326581	0.204541	-0.0456889
0.298723	-5.80106	-6.41507	1.30976	0.601284	-0.829497	1.96495	3.48435	-0.772918	-0.152378	2.48156	0.925857	-0.0682814	-0.0444301	0.531885	-39.1627	2.22378	-9.89117	-41.9714	22.8994	-0.0399082	11.2869	0.28723	1.2578	4.9173	-5.46546	-1.63433	1.57555	-0.050562	0.0556864	-0.224444	3.10851	4.47542	0.917209	1.98841	0.0328178	0.207233	-0.0476301
0.303702	-5.94027	-6.34121	1.31847	0.516776	-1.00758	2.21876	3.35962	-0.541344	-0.155509	2.69989	0.965123	-0.074698	-0.0460076	0.897532	-39.016	1.97386	-9.31666	-43.1877	23.1921	-0.039722	11.4358	0.261819	1.28364	4.99644	-5.49048	-1.64784	1.59603	-0.0510901	0.056697	-0.227361	3.21437	4.50037	0.914644	2.02008	0.0329614	0.210095	-0.0498852
0.308681	-6.11247	-6.29461	1.22368	0.327268	-1.29732	2.52961	3.21778	-0.278397	-0.180665	2.92893	1.00799	-0.0804332	-0.0478035	1.30657	-38.8963	1.73273	-8.78831	-44.4338	23.4987	-0.0395255	11.5832	0.267961	1.21231	5.05689	-5.53235	-1.66843	1.60903	-0.0519096	0.0564925	-0.230449	3.32322	4.53834	0.919134	2.05009	0.0333444	0.213205	-0.0512231
0.31366	-6.30253	-6.28084	1.14854	0.0837766	-1.68093	2.86192	3.03617	-6.97428e-05	-0.223039	3.17833	1.05337	-0.0855503	-0.0497901	1.76009	-38.7981	1.4986	-8.29925	-45.7053	23.8151	-0.0393176	11.7404	0.292274	1.16811	5.12181	-5.56872	-1.68695	1.62363	-0.0526718	0.0565719	-0.233475	3.43764	4.57445	0.921623	2.08272	0.0336878	0.216428	-0.052926
0.318638	-6.50871	-6.3031	1.09497	-0.189188	-2.11807	3.19361	2.81025	0.289162	-0.281007	3.45189	1.10095	-0.0900992	-0.0519628	2.25969	-38.7227	1.27044	-7.84338	-46.9972	24.1369	-0.039103	11.9097	0.334518	1.15185	5.19156	-5.59988	-1.70352	1.63989	-0.0533778	0.056942	-0.236453	3.55727	4.60889	0.922182	2.11786	0.0339933	0.219762	-0.0549888
0.323617	-6.7255	-6.36829	0.941791	-0.47015	-2.60712	3.53042	2.53222	0.596715	-0.356196	3.7537	1.15002	-0.0938385	-0.0543043	2.81014	-38.6828	1.04823	-7.41687	-48.3042	24.4597	-0.0388914	12.0824	0.406704	1.04153	5.24399	-5.64851	-1.72741	1.64902	-0.0543743	0.056133	-0.239661	3.67857	4.65662	0.929919	2.15086	0.0345395	0.223328	-0.0561219
0.328596	-6.95512	-6.48394	0.809558	-0.783616	-3.12996	3.8732	2.19529	0.908434	-0.442974	4.08802	1.20021	-0.0970749	-0.0568042	3.41471	-38.6788	0.830505	-7.01399	-49.621	24.779	-0.038679	12.2675	0.492375	0.960385	5.30232	-5.69196	-1.74944	1.66009	-0.0553129	0.0556406	-0.24286	3.80489	4.70233	0.93563	2.18608	0.0350426	0.226989	-0.0576197
0.333574	-8.51831	-6.03097	0.431924	-0.940581	-3.5217	4.27824	3.45219	0.838824	-0.421116	3.28759	3.2527	-1.12505	-0.0591829	4.00175	-38.8296	0.625919	-6.62003	-50.948	25.089	-0.0382159	12.2566	0.691558	0.847591	5.31104	-5.69596	-1.75894	1.64874	-0.055916	0.0537002	-0.243628	3.90642	4.72236	0.937814	2.19938	0.0353661	0.228508	-0.0579657
0.338553	-9.03341	-6.12198	0.189391	-1.26015	-4.19394	4.63306	3.30586	1.07954	-0.495875	3.47575	3.68744	-1.33837	-0.0618501	4.71691	-38.9387	0.41644	-6.25088	-52.2699	25.3883	-0.0379527	12.4098	0.828763	0.716125	5.35224	-5.73854	-1.78217	1.65144	-0.0569411	0.052311	-0.246516	4.03268	4.76933	0.946064	2.22917	0.0359599	0.231895	-0.05883
0.343532	-9.5646	-6.2549	-0.0385403	-1.66179	-4.91297	4.97226	3.09479	1.29871	-0.567145	3.69961	4.13385	-1.56448	-0.0645833	5.49981	-39.1012	0.208561	-5.89233	-53.5862	25.6716	-0.0376928	12.568	0.973308	0.615598	5.40092	-5.77517	-1.8035	1.65621	-0.0579003	0.0512563	-0.249422	4.16431	4.81315	0.951947	2.26045	0.036495	0.235316	-0.0600627
0.348511	-10.0894	-6.42441	-0.36887	-2.01526	-5.64141	5.31347	2.81417	1.49726	-0.632293	3.96229	4.5835	-1.80054	-0.0673229	6.33392	-39.3277	0.00213704	-5.53475	-54.8924	25.9354	-0.0374471	12.7281	1.13686	0.425161	5.43421	-5.82875	-1.8321	1.65443	-0.0591335	0.0490981	-0.252608	4.29576	4.86889	0.964692	2.28858	0.0372522	0.238891	-0.0603672
0.353489	-10.6004	-6.63	-0.688774	-2.37175	-6.46183	5.65141	2.44651	1.65906	-0.684199	4.27153	5.02736	-2.04344	-0.0700474	7.22113	-39.6165	-0.204873	-5.17324	-56.1853	26.1768	-0.0372094	12.8978	1.30198	0.261764	5.47443	-5.87731	-1.8592	1.65472	-0.0603092	0.0472573	-0.255854	4.43115	4.9216	0.975374	2.31783	0.0379584	0.242496	-0.0609938
0.358468	-11.0757	-6.85585	-1.00037	-2.71457	-7.34861	5.9863	1.97786	1.77318	-0.71726	4.63468	5.4547	-2.28901	-0.0727092	8.1557	-39.9662	-0.41401	-4.80103	-57.4623	26.3932	-0.0369872	13.0797	1.46318	0.123785	5.52239	-5.9219	-1.88519	1.6575	-0.0614379	0.0457484	-0.259217	4.57076	4.97169	0.984141	2.34845	0.0386176	0.246166	-0.061945
0.363447	-11.4814	-7.09663	-1.41477	-3.05329	-8.23029	6.27275	1.3939	1.84102	-0.729975	5.05896	5.85266	-2.53174	-0.0752154	9.13534	-40.3784	-0.626171	-4.41328	-58.7218	26.5828	-0.0367982	13.2589	1.63852	-0.100784	5.55787	-5.98437	-1.91872	1.6545	-0.0628428	0.0431938	-0.262927	4.71134	5.03408	0.999664	2.37622	0.0394909	0.250006	-0.062006
0.368426	-11.8119	-7.33884	-1.82369	-3.3695	-9.2053	6.54155	0.680027	1.84962	-0.717674	5.55026	6.20918	-2.76588	-0.0775485	10.1517	-40.8451	-0.843574	-4.0034	-59.964	26.7446	-0.0366362	13.453	1.80511	-0.30336	5.60189	-6.04465	-1.95179	1.65434	-0.0642194	0.0409646	-0.266832	4.85661	5.0948	1.01362	2.40568	0.0403276	0.253959	-0.0623777
0.373404	-12.0471	-7.6037	-2.22369	-3.643	-10.1737	6.80231	-0.176195	1.81961	-0.687893	6.11507	6.51063	-2.98346	-0.0796668	11.1963	-41.3602	-1.06757	-3.56541	-61.1902	26.8777	-0.0365139	13.6693	1.96299	-0.486456	5.65564	-6.10537	-1.98524	1.65748	-0.0655955	0.0390544	-0.271027	5.00757	5.15589	1.02656	2.43762	0.0411484	0.25812	-0.0630559
0.378383	-12.1675	-7.82635	-2.68828	-3.89486	-11.1183	7.00959	-1.18378	1.72366	-0.630057	6.76001	6.74365	-3.17767	-0.0815239	12.266	-41.9168	-1.29955	-3.09556	-62.4032	26.9823	-0.0364303	13.9076	2.10958	-0.726936	5.7085	-6.18293	-2.0257	1.6598	-0.0672101	0.0366211	-0.27584	5.16438	5.22783	1.04432	2.47033	0.0421333	0.262681	-0.0632981
0.383362	-12.1446	-8.01209	-3.1451	-4.06663	-12.1181	7.15784	-2.36908	1.55756	-0.544467	7.49429	6.89349	-3.33962	-0.0830339	13.3507	-42.5023	-1.54063	-2.58898	-63.6069	27.0588	-0.0363934	14.1754	2.24089	-0.950605	5.77187	-6.2627	-2.06711	1.66609	-0.0688413	0.0345326	-0.281025	5.3274	5.30105	1.06135	2.50633	0.0431127	0.267532	-0.0638634
0.38834	-11.9539	-8.15633	-3.69636	-4.26192	-13.0287	7.2788	-3.73459	1.33859	-0.437163	8.32209	6.94609	-3.45939	-0.0841126	14.4519	-43.1128	-1.79101	-2.04482	-64.8064	27.1081	-0.0364172	14.4563	2.36686	-1.26243	5.82807	-6.36567	-2.11768	1.66933	-0.0707938	0.0315471	-0.286833	5.49471	5.38946	1.08562	2.54231	0.0443239	0.272808	-0.0636562
0.393319	-11.5843	-8.24479	-4.23311	-4.41231	-13.9329	7.37317	-5.30142	1.06122	-0.310012	9.25163	6.88958	-3.52717	-0.0847388	15.5564	-43.7277	-2.05181	-1.45787	-66.0082	27.1317	-0.036499	14.7775	2.46787	-1.55907	5.89749	-6.47373	-2.17013	1.67801	-0.0727922	0.0289808	-0.293166	5.6709	5.48082	1.1094	2.58347	0.0455424	0.278545	-0.063853
0.398298	-11.0374	-8.26365	-4.74647	-4.56214	-14.8846	7.36807	-7.07856	0.728448	-0.168178	10.2871	6.71307	-3.53246	-0.0848618	16.6694	-44.3282	-2.32349	-0.830166	-67.2193	27.1314	-0.0366395	15.1429	2.54489	-1.83925	5.9816	-6.58784	-2.22474	1.69264	-0.0748476	0.0268638	-0.300083	5.85762	5.57599	1.13272	2.63061	0.0467735	0.284808	-0.0645013
0.403277	-10.2838	-8.27439	-5.32526	-4.70552	-15.7092	7.37279	-9.07461	0.41221	-0.034641	11.4351	6.407	-3.46247	-0.0844316	17.783	-44.9102	-2.60473	-0.161073	-68.4469	27.109	-0.0368498	15.543	2.6121	-2.20691	6.06078	-6.72886	-2.28946	1.70583	-0.077255	0.0239442	-0.307769	6.05007	5.68923	1.16387	2.68016	0.0482624	0.291716	-0.064459
0.408255	-9.34173	-8.23657	-5.85681	-4.85268	-16.5442	7.28054	-11.2959	0.0891432	0.0924578	12.697	5.96635	-3.30771	-0.0834321	18.896	-45.4453	-2.89583	0.548924	-69.6985	27.0666	-0.0371231	16.0044	2.65187	-2.55886	6.1566	-6.87922	-2.35728	1.72616	-0.0797504	0.0215286	-0.316172	6.25466	5.80887	1.19514	2.73758	0.0497888	0.299333	-0.0649213
0.413234	-8.21885	-8.17607	-6.3362	-5.05882	-17.349	7.19268	-13.7419	-0.219019	0.204154	14.0738	5.38873	-3.05793	-0.081834	20.009	-45.9354	-3.19504	1.29575	-70.981	27.0058	-0.0374614	16.5343	2.65995	-2.89296	6.26999	-7.03891	-2.42814	1.7545	-0.0823346	0.0196935	-0.325327	6.47319	5.93479	1.22622	2.80425	0.0513497	0.307753	-0.0659871
0.418213	-6.89406	-8.11332	-6.84787	-5.31151	-18.1566	7.02887	-16.4171	-0.481898	0.288559	15.5664	4.67462	-2.703	-0.0795766	21.1183	-46.3665	-3.50016	2.07621	-72.3008	26.9285	-0.03786	17.1121	2.6614	-3.30557	6.38032	-7.22577	-2.5088	1.78263	-0.085264	0.0171914	-0.335272	6.69903	6.07956	1.26479	2.87536	0.0531665	0.316948	-0.0665115
0.423191	-5.41465	-8.07727	-7.27766	-5.65191	-19.0008	6.88396	-19.3044	-0.676888	0.335948	17.1673	3.83112	-2.23465	-0.0766952	22.2208	-46.7336	-3.8096	2.88685	-73.6634	26.8361	-0.0383155	17.77	2.63196	-3.69331	6.50918	-7.42181	-2.59215	1.81962	-0.088272	0.0153746	-0.345969	6.93925	6.23091	1.3029	2.9571	0.0550154	0.327032	-0.0677442
0.42817	-3.76644	-8.12836	-7.61826	-6.18201	-19.8662	6.85553	-22.4225	-0.765247	0.334575	18.8827	2.86802	-1.64532	-0.0731821	23.3243	-47.0432	-4.12058	3.71907	-75.0735	26.7298	-0.03883	18.505	2.57041	-4.04869	6.65868	-7.62575	-2.67762	1.86629	-0.0913427	0.0143423	-0.357406	7.19646	6.38811	1.33984	3.05063	0.0568765	0.338049	-0.0698139
0.433149	-1.92312	-8.34748	-7.94892	-6.78525	-20.8302	6.9071	-25.7596	-0.683309	0.26893	20.7031	1.8	-0.928632	-0.0690256	24.4019	-47.293	-4.42923	4.57361	-76.535	26.6107	-0.0393926	19.2902	2.51214	-4.4689	6.80431	-7.85402	-2.77127	1.913	-0.0947115	0.0127604	-0.369454	7.46014	6.56312	1.38346	3.14972	0.0589703	0.349842	-0.0714681
0.438128	-0.730448	-8.02879	-8.24308	-7.10498	-21.6365	7.17517	-28.3346	-1.2039	0.339307	21.9373	0.591059	-0.0191527	-0.0644454	25.1386	-47.5905	-4.72837	5.53381	-78.0516	26.4768	-0.040068	20.3202	2.36169	-4.86832	6.95858	-8.10203	-2.86884	1.97531	-0.0981727	0.0124777	-0.382528	7.7176	6.74878	1.42884	3.26762	0.0611935	0.363267	-0.0740431
0.443106	2.39587	-9.436	-8.35293	-8.31138	-22.8703	7.50479	-33.0774	0.0283125	-0.0643022	24.6375	-0.562988	0.891793	-0.0589714	26.4262	-47.6377	-5.02788	6.3387	-79.6217	26.3353	-0.0406685	21.0384	2.36684	-5.26015	7.13221	-8.34026	-2.96526	2.02568	-0.101689	0.0109472	-0.394972	8.02205	6.93805	1.47223	3.37748	0.0633066	0.37578	-0.0763063
0.448085	4.95177	-10.3578	-8.41338	-8.99682	-23.8825	8.05242	-37.0669	0.668189	-0.332994	26.74	-1.80376	1.99022	-0.0531791	27.3253	-47.734	-5.31115	7.24692	-81.2477	26.1789	-0.0413817	21.993	2.28683	-5.61018	7.31433	-8.59437	-3.06333	2.09184	-0.105216	0.0108821	-0.408185	8.31542	7.13592	1.51634	3.50575	0.0655021	0.38977	-0.0795699
0.453064	7.77319	-11.5311	-8.3304	-9.51648	-24.8319	8.7061	-41.2576	1.48922	-0.666375	28.9119	-3.04097	3.20385	-0.0469945	28.1325	-47.7657	-5.57993	8.16548	-82.9256	26.0095	-0.0421512	23.0081	2.1971	-5.88114	7.51692	-8.8479	-3.15855	2.16788	-0.108635	0.0119453	-0.421576	8.61669	7.33575	1.55707	3.64537	0.0676147	0.40439	-0.0838656
0.458043	10.8531	-12.955	-8.21669	-9.88187	-25.7077	9.36066	-45.6193	2.48863	-1.05968	31.1292	-4.23992	4.51953	-0.0404835	28.8566	-47.7332	-5.82976	9.07894	-84.6495	25.8252	-0.0429866	24.0471	2.12759	-6.17886	7.71626	-9.11929	-3.25793	2.24402	-0.112209	0.0127186	-0.435096	8.91656	7.55043	1.60278	3.78961	0.0698748	0.419476	-0.0878575
0.463021	14.1276	-14.6015	-7.94982	-10.0282	-26.5422	10.0363	-50.1206	3.62978	-1.50164	33.3643	-5.36307	5.91786	-0.0338072	29.5067	-47.6324	-6.05903	9.97363	-86.411	25.6236	-0.0438826	25.1372	2.04814	-6.37275	7.93744	-9.38463	-3.35193	2.33054	-0.115577	0.0148426	-0.448567	9.21954	7.76345	1.64353	3.94422	0.0719882	0.43499	-0.0929981
0.468	17.5212	-16.467	-7.52829	-10.0925	-27.3557	10.7177	-54.7129	4.89989	-1.98131	35.5831	-6.37427	7.37457	-0.0271141	30.1186	-47.4681	-6.2649	10.8245	-88.1972	25.4011	-0.0448436	26.2631	1.96077	-6.45161	8.18129	-9.64039	-3.43913	2.42732	-0.118692	0.0183881	-0.461853	9.52488	7.97249	1.67836	4.10845	0.0739164	0.450799	-0.0993427
0.472979	21.0097	-18.4922	-7.09865	-10.0544	-28.1844	11.3572	-59.3529	6.24891	-2.47943	37.751	-7.23999	8.85791	-0.0205299	30.7074	-47.2484	-6.44327	11.6112	-89.9919	25.1538	-0.0458716	27.3833	1.88955	-6.53859	8.41982	-9.90634	-3.52731	2.52326	-0.121842	0.0217569	-0.474892	9.82084	8.1904	1.71647	4.27411	0.0759099	0.466671	-0.105365
0.477957	24.4931	-20.6144	-6.54198	-9.97197	-29.0855	11.9951	-63.9898	7.59544	-2.97161	39.8303	-7.92934	10.3288	-0.0142561	31.3094	-46.9817	-6.59313	12.3079	-91.7747	24.8765	-0.0469535	28.5095	1.80316	-6.48578	8.67968	-10.1527	-3.60476	2.62896	-0.124593	0.0267492	-0.487345	10.1119	8.39641	1.74612	4.44646	0.0776124	0.482421	-0.112671
0.482936	27.9	-22.7519	-5.86575	-9.92867	-30.0741	12.639	-68.5679	8.87204	-3.4304	41.782	-8.41777	11.7387	-0.00848266	31.9584	-46.6616	-6.71274	12.89	-93.5217	24.5643	-0.0480847	29.6203	1.69858	-6.28175	8.96007	-10.3739	-3.66942	2.74395	-0.126871	0.033442	-0.49899	10.3948	8.58603	1.7659	4.62373	0.0789653	0.497808	-0.121291
0.487915	31.1861	-24.7938	-5.26946	-9.84834	-31.1487	13.2232	-73.0323	10.0074	-3.82525	43.568	-8.68854	13.0325	-0.00338476	32.6721	-46.2912	-6.79881	13.3355	-95.2052	24.2118	-0.0492592	30.6789	1.60401	-6.11141	9.22368	-10.6023	-3.73431	2.85348	-0.129153	0.0395463	-0.510029	10.6568	8.78035	1.7898	4.79566	0.0803682	0.512719	-0.129071
0.492894	34.2682	-26.6315	-4.65736	-9.83753	-32.3517	13.8124	-77.3166	10.8946	-4.11893	45.1466	-8.73206	14.1436	0.00082733	33.4848	-45.8672	-6.85106	13.6202	-96.795	23.8141	-0.0504549	31.6648	1.4967	-5.84775	9.48936	-10.8083	-3.78785	2.96484	-0.131015	0.0465158	-0.519899	10.8975	8.95817	1.8071	4.96413	0.0814762	0.52671	-0.137272
0.497872	37.0535	-28.1493	-4.04435	-9.93407	-33.6707	14.3377	-81.3443	11.4538	-4.28953	46.4732	-8.54906	15.0313	0.00396453	34.4272	-45.3756	-6.86871	13.7212	-98.2585	23.3668	-0.0516541	32.5557	1.37314	-5.49017	9.75478	-10.9882	-3.82886	3.07683	-0.132409	0.0543114	-0.528433	11.1128	9.11588	1.81715	5.1264	0.0822513	0.539515	-0.145801
0.502851	39.4474	-29.2593	-3.57002	-10.0981	-35.1083	14.8006	-85.0342	11.651	-4.3235	47.5017	-8.15048	15.667	0.00586703	35.5222	-44.81	-6.85062	13.6183	-99.5614	22.8664	-0.0528379	33.324	1.25076	-5.1733	9.99129	-11.163	-3.86621	3.17839	-0.133662	0.0612704	-0.535724	11.292	9.26665	1.82968	5.27413	0.0829699	0.550979	-0.153081
0.50783	41.3319	-29.855	-3.11424	-10.3656	-36.6407	15.1855	-88.2923	11.4227	-4.21164	48.1809	-7.55475	16.0339	0.00637286	36.799	-44.1423	-6.79768	13.2921	-100.669	22.311	-0.0539816	33.9548	1.09869	-4.76448	10.2188	-11.3018	-3.88792	3.27753	-0.134326	0.0689584	-0.541234	11.4334	9.38778	1.83342	5.40908	0.0832694	0.560632	-0.16044
0.512809	42.6154	-29.8948	-2.7075	-10.7767	-38.2997	15.5075	-91.0316	10.7594	-3.95433	48.4644	-6.79024	16.1283	0.0053867	38.2794	-43.3605	-6.70998	12.7251	-101.545	21.7001	-0.0550616	34.4071	0.927116	-4.28425	10.425	-11.4003	-3.89265	3.36953	-0.134363	0.0769892	-0.544545	11.5275	9.475	1.82876	5.52555	0.0831335	0.568	-0.16746
0.517787	43.24	-29.371	-2.04469	-11.4015	-40.1143	15.804	-93.1867	9.63783	-3.55735	48.3174	-5.89301	15.9586	0.00281702	39.9813	-42.4302	-6.58953	11.9043	-102.154	21.0349	-0.0560581	34.6417	0.701973	-3.40538	10.6536	-11.3837	-3.85041	3.4718	-0.132686	0.0890016	-0.544062	11.5698	9.47659	1.78913	5.62875	0.0817115	0.57197	-0.177304
0.522766	43.1379	-28.2503	-1.12377	-12.2956	-42.0782	16.1138	-94.7134	8.07461	-3.03437	47.7205	-4.90659	15.5449	-0.00135476	41.9223	-41.3332	-6.43813	10.8175	-102.462	20.3182	-0.0569582	34.6458	0.410192	-2.12811	10.9023	-11.2473	-3.75993	3.58381	-0.129247	0.105019	-0.539677	11.5574	9.38721	1.71329	5.71659	0.0789583	0.57234	-0.189963
0.527745	42.2051	-26.4254	-0.481565	-13.2374	-43.9661	16.2997	-95.5982	6.11731	-2.40493	46.6727	-3.87893	14.9174	-0.00706514	44.1184	-40.0744	-6.25749	9.45026	-102.435	19.5541	-0.0577728	34.4773	0.0866449	-1.03612	11.0881	-11.1148	-3.67248	3.67363	-0.125885	0.118635	-0.534085	11.4892	9.28904	1.64661	5.77479	0.0763133	0.57066	-0.199733
0.532723	40.461	-23.8888	-0.121494	-14.1968	-45.7177	16.3921	-95.8655	3.81963	-1.68932	45.1916	-2.85702	14.1138	-0.0142567	46.5578	-38.6181	-6.05141	7.80501	-102.041	18.7493	-0.0585175	34.1448	-0.28784	-0.158524	11.2094	-10.9913	-3.59076	3.7411	-0.122684	0.129663	-0.527567	11.3663	9.18398	1.59061	5.80273	0.0738273	0.567032	-0.206428
0.537702	37.9294	-20.6902	-0.0385376	-15.1584	-47.3083	16.402	-95.5533	1.23573	-0.907883	43.3022	-1.88499	13.176	-0.0227808	49.2307	-36.9528	-5.82419	5.883	-101.251	17.9113	-0.0592177	33.6575	-0.715783	0.497629	11.2647	-10.8768	-3.51516	3.78603	-0.119657	0.138072	-0.520184	11.1885	9.07162	1.54544	5.8001	0.0715121	0.561477	-0.210025
0.542681	34.7042	-16.9341	-0.051481	-16.1643	-48.769	16.4236	-94.7171	-1.5687	-0.0793031	41.0378	-1.00065	12.1473	-0.0324749	52.1076	-35.0595	-5.58101	3.69524	-100.039	17.0496	-0.0599175	32.998	-1.21283	1.1076	11.2762	-10.7313	-3.4295	3.81766	-0.116219	0.145813	-0.511055	10.9535	8.92455	1.49689	5.77008	0.0689146	0.553428	-0.212234
0.54766	30.8309	-12.6946	-0.30053	-17.1234	-50.0293	16.4544	-93.4245	-4.50881	0.778079	38.4381	-0.237102	11.0703	-0.04304	55.1497	-32.9401	-5.32838	1.25866	-98.3848	16.1741	-0.0606589	32.2201	-1.76486	1.48892	11.2214	-10.5964	-3.35118	3.82764	-0.113002	0.150971	-0.501295	10.6674	8.77156	1.45945	5.71135	0.0665271	0.543702	-0.211449
0.552638	26.418	-8.10933	-0.758006	-18.0137	-51.0701	16.5772	-91.756	-7.49498	1.64851	35.5493	0.379716	9.98414	-0.0541802	58.3031	-30.601	-5.07332	-1.40118	-96.2726	15.2955	-0.0615	31.3486	-2.36669	1.64256	11.1017	-10.4734	-3.28087	3.81682	-0.110034	0.153597	-0.491048	10.3341	8.61446	1.43324	5.62598	0.0643758	0.532514	-0.207797
0.557617	21.6248	-3.37983	-1.31509	-18.837	-51.9075	16.9315	-89.8139	-10.4286	2.51818	32.428	0.828498	8.92341	-0.0655296	61.5005	-28.0644	-4.8236	-4.25028	-93.6939	14.4244	-0.062495	30.3988	-3.00737	1.66159	10.9294	-10.3432	-3.2108	3.79016	-0.107054	0.154688	-0.479946	9.95828	8.44221	1.41124	5.51823	0.0622651	0.519816	-0.202287
0.562596	16.6348	1.28941	-2.02071	-19.4485	-52.4714	17.7045	-87.7114	-13.1931	3.37336	29.1372	1.09478	7.91711	-0.0767987	64.6506	-25.3765	-4.58572	-7.2435	-90.6474	13.5704	-0.0637122	29.4065	-3.66719	1.47345	10.6955	-10.2239	-3.14838	3.74436	-0.104342	0.153451	-0.468475	9.54591	8.2688	1.39961	5.38941	0.0604213	0.506105	-0.194342
0.567574	11.8072	5.60226	-2.72976	-19.5442	-52.6485	19.1427	-85.6124	-15.6712	4.20108	25.7598	1.16798	6.98878	-0.0876959	67.6109	-22.5983	-4.36472	-10.3149	-87.1415	12.7419	-0.0652109	28.3596	-4.32028	1.22871	10.4149	-10.0832	-3.07964	3.68515	-0.101423	0.151349	-0.45568	9.09489	8.07508	1.38736	5.24293	0.0584998	0.490937	-0.185322
0.572553	7.52478	9.48782	-3.50443	-18.4863	-52.0077	21.051	-83.6905	-17.8266	4.99409	22.3831	1.04065	6.15518	-0.0978739	70.1778	-19.7381	-4.16726	-13.366	-83.1963	11.9469	-0.067017	27.3238	-4.94783	0.807641	10.08	-9.95833	-3.019	3.60907	-0.0988073	0.147155	-0.442655	8.61434	7.88874	1.38601	5.08135	0.0569004	0.475231	-0.17422
0.577532	3.86287	13.0003	-4.27226	-16.4559	-50.6392	22.8625	-82.0074	-19.6896	5.74981	19.0529	0.71111	5.42648	-0.10703	72.3251	-16.7458	-4.00466	-16.3483	-78.84	11.1922	-0.0691896	26.3207	-5.53746	0.219872	9.70249	-9.85605	-2.96907	3.51846	-0.096582	0.140964	-0.429838	8.11495	7.71695	1.39645	4.90795	0.055673	0.459348	-0.161219
0.582511	0.721842	16.0914	-4.93508	-14.2319	-48.8111	24.3956	-80.5243	-21.2759	6.46482	15.779	0.182969	4.80822	-0.114938	74.1139	-13.6555	-3.8847	-19.243	-74.109	10.4813	-0.0718037	25.327	-6.08183	-0.426436	9.3027	-9.75408	-2.92122	3.41892	-0.0944519	0.133866	-0.416852	7.60739	7.54636	1.41009	4.72657	0.0545619	0.443117	-0.147471
0.587489	-1.87498	18.6144	-5.53714	-11.9683	-46.5695	25.7118	-79.2694	-22.5291	7.13068	12.5962	-0.539331	4.30426	-0.121394	75.5167	-10.5514	-3.81141	-22.0013	-69.0517	9.81396	-0.0748601	24.3824	-6.56451	-1.178	8.8821	-9.66745	-2.88213	3.30995	-0.0926725	0.125386	-0.404352	7.10704	7.38961	1.43114	4.54123	0.0537512	0.427202	-0.132791
0.592468	-3.8712	20.521	-6.04384	-9.86088	-44.1087	26.71	-78.2501	-23.4559	7.74341	9.531	-1.44738	3.91422	-0.126268	76.4912	-7.48312	-3.78722	-24.5632	-63.7274	9.18807	-0.0783414	23.4831	-6.97751	-1.99749	8.45013	-9.58992	-2.84954	3.1938	-0.0911725	0.115885	-0.392319	6.62193	7.24396	1.45691	4.35443	0.0531724	0.411671	-0.117628
0.597447	-5.29635	21.7261	-6.41515	-8.11325	-41.7206	27.367	-77.4677	-24.0728	8.29931	6.6066	-2.52994	3.63531	-0.129496	77.0783	-4.53679	-3.8103	-26.9031	-58.2012	8.59827	-0.0822551	22.6055	-7.30438	-2.79161	8.01694	-9.50029	-2.81471	3.07343	-0.089653	0.106219	-0.380144	6.1517	7.09656	1.48033	4.16718	0.0526019	0.396162	-0.102791
0.602426	-6.19087	22.158	-6.77751	-6.68729	-39.4271	27.7256	-76.9003	-24.3651	8.79193	3.83863	-3.77321	3.46382	-0.131103	77.2416	-1.80786	-3.87403	-28.9671	-52.5479	8.03692	-0.0865247	21.8088	-7.53144	-3.67645	7.57565	-9.42969	-2.79098	2.94557	-0.0886012	0.0952202	-0.368925	5.71135	6.97066	1.51133	3.98262	0.0524098	0.381622	-0.0874452
0.607404	-6.52555	21.7505	-7.15065	-5.53916	-37.2298	27.8688	-76.5392	-24.3508	9.2173	1.24735	-5.16185	3.39446	-0.131156	76.9575	0.608732	-3.96611	-30.71	-46.8466	7.49473	-0.0910839	21.0918	-7.64844	-4.61949	7.13211	-9.37288	-2.77609	2.81192	-0.0879455	0.0831975	-0.358565	5.30458	6.8639	1.54777	3.80274	0.0525395	0.368084	-0.071937
0.612383	-6.27645	20.4528	-7.30865	-4.72212	-35.2523	27.9281	-76.3638	-24.0778	9.57556	-1.15249	-6.67884	3.4208	-0.129778	76.2207	2.64856	-4.07391	-32.0952	-41.18	6.96224	-0.0958279	20.4322	-7.65605	-5.32892	6.72237	-9.2647	-2.74331	2.68627	-0.0867537	0.0732014	-0.347495	4.93165	6.7336	1.56664	3.63429	0.0522736	0.354709	-0.0590879
0.617362	-5.51106	18.3711	-7.49457	-4.13862	-33.3513	27.8066	-76.3359	-23.615	9.86994	-3.35088	-8.30657	3.53592	-0.127109	75.0395	4.24182	-4.17797	-33.0974	-35.6295	6.42925	-0.100692	19.8573	-7.56344	-6.01502	6.32856	-9.15837	-2.71414	2.56123	-0.0857653	0.0631355	-0.337198	4.59829	6.61514	1.58541	3.47521	0.0521661	0.342399	-0.0469609
0.62234	-4.28324	15.5669	-7.50136	-3.84682	-31.6216	27.5263	-76.4062	-23.0446	10.1069	-5.34481	-10.0263	3.73254	-0.123348	73.4447	5.36401	-4.26175	-33.7038	-30.2751	5.88777	-0.105554	19.3547	-7.38686	-6.41743	5.98536	-8.9974	-2.66523	2.45034	-0.0841529	0.0558111	-0.326389	4.30381	6.47064	1.58363	3.3317	0.0515728	0.330434	-0.0380898
0.627319	-2.75262	12.2785	-7.54468	-3.81964	-30.0492	26.874	-76.5149	-22.4635	10.2966	-7.13622	-11.82	4.00311	-0.118663	71.4949	6.02473	-4.3114	-33.9165	-25.19	5.33234	-0.110354	18.9569	-7.1533	-6.75122	5.67658	-8.83639	-2.6188	2.34723	-0.0826672	0.0491912	-0.316688	4.05353	6.33521	1.57889	3.20171	0.0510475	0.319745	-0.0305374
0.632298	-1.06189	8.75639	-7.61624	-4.15402	-28.6765	25.6597	-76.5899	-21.9765	10.4524	-8.7341	-13.6695	4.33963	-0.11325	69.2637	6.28187	-4.32027	-33.7494	-20.4398	4.76147	-0.115013	18.6629	-6.89609	-7.0105	5.41046	-8.67799	-2.57564	2.25503	-0.0813073	0.0435242	-0.308339	3.84829	6.20879	1.57083	3.08615	0.0505631	0.310394	-0.0244189
0.637277	0.666919	5.24828	-7.52571	-4.9653	-27.5961	23.6672	-76.5761	-21.7107	10.5926	-10.1442	-15.5568	4.73336	-0.107317	66.8331	6.20998	-4.28611	-33.2269	-16.0799	4.17742	-0.119422	18.4704	-6.65158	-6.99733	5.21818	-8.48175	-2.51888	2.18594	-0.0794534	0.0410811	-0.300553	3.68757	6.06283	1.5439	2.99007	0.049619	0.301873	-0.0217023
0.642255	2.36718	2.07597	-7.43235	-6.07242	-26.5236	20.7141	-76.4375	-21.753	10.7325	-11.3664	-17.466	5.17591	-0.101024	64.2348	5.90903	-4.21405	-32.3645	-12.1533	3.58691	-0.123529	18.4028	-6.46387	-6.92275	5.08487	-8.30174	-2.47009	2.13466	-0.0778216	0.0399527	-0.294906	3.57426	5.93063	1.51508	2.91129	0.0487305	0.295033	-0.020492
0.647234	4.30054	-0.935847	-7.40532	-6.73836	-24.9964	17.7677	-76.27	-22.0014	10.8617	-12.3568	-19.385	5.66261	-0.0945483	61.3859	5.29319	-4.07779	-31.1653	-8.69084	2.99601	-0.127177	18.4441	-6.34374	-6.79981	4.99829	-8.13508	-2.42731	2.09948	-0.0763569	0.040027	-0.290964	3.4995	5.80802	1.48416	2.84901	0.0478678	0.289678	-0.0206303
0.652213	6.61752	-4.1465	-7.31663	-6.5976	-22.8647	15.7879	-76.1072	-22.287	10.9572	-13.1005	-21.302	6.18979	-0.0880924	58.2425	4.26999	-3.84828	-29.655	-5.70807	2.4124	-0.130185	18.5609	-6.25394	-6.44617	4.96184	-7.93048	-2.36915	2.08372	-0.0743636	0.0429378	-0.2869	3.45377	5.66193	1.43566	2.80492	0.0465409	0.284892	-0.0237099
0.657191	9.03179	-7.37184	-7.2659	-5.98549	-20.3901	14.4304	-75.8597	-22.6265	11.0212	-13.6329	-23.2049	6.75006	-0.0817614	54.9509	2.9544	-3.54102	-27.9119	-3.20181	1.84906	-0.132561	18.7614	-6.19049	-6.02793	4.95935	-7.72735	-2.31189	2.08024	-0.0724037	0.0469591	-0.283768	3.44025	5.51903	1.38314	2.77568	0.0451766	0.281239	-0.0281342
0.66217	11.2828	-10.3163	-7.22068	-5.25206	-17.871	13.2356	-75.4486	-23.0929	11.0647	-13.9887	-25.0823	7.33499	-0.0756527	51.6601	1.51175	-3.18763	-26.0178	-1.15531	1.32019	-0.13431	19.046	-6.17209	-5.58353	4.99107	-7.53613	-2.2599	2.08865	-0.0706095	0.0517856	-0.281956	3.45948	5.38517	1.32969	2.76017	0.0438604	0.278833	-0.0335473
0.667149	13.2732	-12.7837	-7.04037	-4.57141	-15.4209	12.0344	-74.8387	-23.7287	11.0956	-14.1881	-26.9247	7.93691	-0.0698704	48.4502	0.0736728	-2.818	-24.0367	0.459005	0.838353	-0.135395	19.3992	-6.2217	-5.02131	5.06861	-7.33518	-2.20419	2.11376	-0.0686533	0.0584457	-0.28092	3.50793	5.24424	1.26749	2.75921	0.0423273	0.277258	-0.0408073
0.672128	14.9471	-14.661	-6.80882	-3.90015	-13.0488	10.7312	-74.0364	-24.5107	11.1116	-14.2401	-28.7255	8.54995	-0.0644499	45.3771	-1.25874	-2.46289	-22.027	1.67893	0.413845	-0.135853	19.8186	-6.34363	-4.48736	5.17372	-7.15703	-2.1579	2.14885	-0.0669875	0.0654376	-0.281402	3.58363	5.11709	1.20805	2.76908	0.0409248	0.276876	-0.0484735
0.677106	16.3317	-15.9125	-6.398	-3.27009	-10.8703	9.29924	-73.0605	-25.4257	11.1121	-14.1526	-30.4796	9.16826	-0.0593784	42.4756	-2.4177	-2.146	-20.0417	2.54815	0.0534672	-0.135696	20.2633	-6.5458	-3.87648	5.31329	-6.97467	-2.10938	2.19678	-0.0651954	0.0737744	-0.282448	3.67542	4.98445	1.14275	2.78796	0.0393404	0.276935	-0.0573193
0.682085	17.3797	-16.5522	-5.95097	-2.63409	-8.82872	7.83362	-71.9164	-26.4347	11.0926	-13.9381	-32.1809	9.786	-0.0547343	39.7741	-3.39729	-1.87658	-18.1329	3.11431	-0.240407	-0.134925	20.7441	-6.82032	-3.33779	5.46704	-6.81972	-2.07184	2.25041	-0.0637511	0.0819026	-0.284817	3.78541	4.86735	1.083	2.81357	0.0379431	0.277941	-0.0659803
0.687064	18.1108	-16.6158	-5.47986	-2.04093	-6.97189	6.26305	-70.6183	-27.5119	11.0503	-13.609	-33.8251	10.3977	-0.050524	37.2808	-4.17857	-1.66547	-16.3368	3.42546	-0.467603	-0.133567	21.236	-7.14849	-2.89251	5.62704	-6.69416	-2.04593	2.3063	-0.0626863	0.0894414	-0.288325	3.90921	4.76772	1.03049	2.84311	0.0367716	0.279716	-0.074093
0.692043	18.5629	-16.1692	-4.93039	-1.51341	-5.3086	4.71864	-69.1845	-28.6182	10.981	-13.177	-35.4082	10.9982	-0.0467681	34.9983	-4.75182	-1.52117	-14.6803	3.52825	-0.630442	-0.13166	21.7146	-7.52081	-2.47765	5.79269	-6.57862	-2.02364	2.36482	-0.0617358	0.0969192	-0.292235	4.04056	4.67235	0.979611	2.87558	0.0356369	0.281786	-0.0821372
0.697021	18.749	-15.2966	-4.38536	-1.05909	-3.80373	3.27033	-67.6393	-29.6994	10.8784	-12.652	-36.9281	11.5836	-0.0434418	32.9326	-5.1294	-1.4452	-13.1843	3.46723	-0.733958	-0.129284	22.1697	-7.92523	-2.16943	5.95145	-6.48846	-2.01123	2.42117	-0.0611244	0.103469	-0.296803	4.1775	4.59165	0.936301	2.90832	0.0347203	0.284268	-0.0893166
0.702	18.6438	-13.5632	-3.60047	-0.701745	-2.56286	2.15564	-66.0435	-30.643	10.729	-12.0402	-38.3848	12.1513	-0.040493	31.1425	-4.76294	-1.65015	-11.706	3.28287	-0.69231	-0.126467	22.5993	-8.40895	-1.97192	6.08452	-6.40803	-2.0035	2.47338	-0.0606748	0.109187	-0.301419	4.30331	4.50956	0.897499	2.93741	0.0339123	0.286688	-0.0955919
0.706979	18.4729	-12.5481	-3.35439	-0.409367	-1.26465	1.21953	-64.2974	-31.6344	10.5606	-11.3686	-39.7714	12.6938	-0.0380397	29.4174	-5.33148	-1.50074	-10.7069	3.01055	-0.789385	-0.123431	22.9404	-8.81039	-1.85945	6.22494	-6.36444	-2.00802	2.52064	-0.0606743	0.113576	-0.30666	4.44875	4.45942	0.869326	2.96752	0.0334013	0.289561	-0.100825
0.711957	18.0843	-10.8895	-2.92563	-0.265762	-0.332855	0.850323	-62.5436	-32.4162	10.3407	-10.632	-41.0935	13.2129	-0.0359153	27.9372	-5.23168	-1.60807	-9.7234	2.68206	-0.758526	-0.120092	23.2268	-9.2681	-1.85834	6.3293	-6.32407	-2.01475	2.56006	-0.0607698	0.116923	-0.311485	4.57664	4.40371	0.845048	2.99078	0.0329704	0.29203	-0.104984
0.716936	17.5878	-9.15437	-2.58407	-0.194777	0.324648	0.915519	-60.7688	-33.0395	10.0793	-9.84375	-42.3496	13.7053	-0.0341282	26.6132	-5.02814	-1.75439	-8.89681	2.32336	-0.700036	-0.116568	23.4352	-9.71664	-1.96945	6.40553	-6.29828	-2.02699	2.58995	-0.0610848	0.118889	-0.316064	4.69465	4.35577	0.82791	3.00757	0.0327164	0.294228	-0.107839
0.721915	17.0285	-7.39175	-2.29172	-0.195335	0.719744	1.25133	-58.9913	-33.5227	9.7829	-9.01239	-43.5397	14.1687	-0.0326669	25.4314	-4.73077	-1.93289	-8.21394	1.95669	-0.621894	-0.112951	23.5508	-10.1273	-2.13906	6.45395	-6.27349	-2.03887	2.60991	-0.0614289	0.119826	-0.319825	4.79807	4.30813	0.814192	3.01696	0.0325174	0.295808	-0.109725
0.726894	16.4318	-5.67384	-2.09271	-0.266739	0.815016	1.82319	-57.2303	-33.8483	9.45239	-8.14598	-44.6656	14.6028	-0.0314835	24.3724	-4.37026	-2.12913	-7.65848	1.59925	-0.531775	-0.109286	23.5748	-10.4934	-2.39946	6.47161	-6.25819	-2.05386	2.61833	-0.0619186	0.119371	-0.322994	4.88692	4.26694	0.806867	3.01794	0.0324664	0.296871	-0.110295
0.731872	15.8399	-4.02863	-1.97348	-0.335047	0.689836	2.41682	-55.5055	-34.0297	9.09327	-7.24979	-45.7284	15.0071	-0.030553	23.4144	-3.94585	-2.33963	-7.20933	1.26427	-0.435684	-0.10563	23.5098	-10.7934	-2.74125	6.45845	-6.25232	-2.07154	2.61448	-0.0625428	0.117509	-0.325485	4.95946	4.23379	0.806183	3.01007	0.0325717	0.297378	-0.109528
0.736851	15.2812	-2.49379	-1.88435	-0.459238	0.319485	2.71144	-53.8268	-34.0964	8.71263	-6.3313	-46.7293	15.3814	-0.0298693	22.5545	-3.4568	-2.56066	-6.8516	0.962701	-0.339044	-0.102085	23.3386	-10.9869	-3.10988	6.41615	-6.24378	-2.08654	2.59763	-0.0631297	0.114535	-0.32676	5.01229	4.20331	0.808915	2.99242	0.0327287	0.297004	-0.107727
0.74183	14.8378	-1.18359	-1.88355	-0.368114	0.433264	3.62556	-52.2126	-33.9675	8.30327	-5.38899	-47.6699	15.7278	-0.0294391	21.732	-2.9938	-2.76193	-6.54777	0.699536	-0.247082	-0.0986307	23.1123	-11.1518	-3.52121	6.35255	-6.23883	-2.10161	2.57403	-0.0637467	0.110833	-0.327428	5.05199	4.17472	0.814663	2.97031	0.0329359	0.296235	-0.105206
0.746809	14.4558	-0.0604894	-1.91629	-0.343442	0.491818	4.43987	-50.6593	-33.7191	7.87801	-4.43609	-48.552	16.0465	-0.0292137	20.9888	-2.51583	-2.95453	-6.30077	0.480912	-0.162561	-0.0953754	22.7967	-11.2276	-3.93296	6.26687	-6.22719	-2.11242	2.54049	-0.0642624	0.106419	-0.32694	5.07457	4.1453	0.821603	2.94047	0.0331309	0.294651	-0.102019
0.751787	14.1271	0.883852	-2.01372	-0.300551	0.518212	5.19471	-49.174	-33.3602	7.44139	-3.47722	-49.3783	16.339	-0.0291574	20.3028	-2.04039	-3.13011	-6.09226	0.307367	-0.0877781	-0.0922895	22.4279	-11.2367	-4.37794	6.16279	-6.22015	-2.12389	2.49878	-0.0648309	0.101168	-0.325893	5.08555	4.12185	0.832413	2.90498	0.033415	0.29266	-0.0980482
0.756766	13.8556	1.62427	-2.17769	-0.248887	0.567433	5.89715	-47.7583	-32.9009	6.99692	-2.51753	-50.1508	16.607	-0.0292496	19.6682	-1.58681	-3.28115	-5.90926	0.178784	-0.0243942	-0.0893892	22.0128	-11.1787	-4.84933	6.04256	-6.2174	-2.13587	2.44962	-0.065446	0.0951654	-0.324329	5.08625	4.10438	0.846747	2.86452	0.0337815	0.290307	-0.0933834
0.761745	13.6708	2.13314	-2.34264	-0.191195	0.696026	6.58178	-46.4151	-32.3519	6.54782	-1.56084	-50.8718	16.8526	-0.0294737	19.0821	-1.16534	-3.4046	-5.74094	0.0943907	0.0267409	-0.086731	21.5386	-11.0531	-5.27115	5.91222	-6.20087	-2.14063	2.39536	-0.0658394	0.0891329	-0.321663	5.07218	4.08081	0.85865	2.81927	0.034031	0.28721	-0.08865
0.766723	13.5407	2.4404	-2.54405	-0.121614	0.828253	7.16668	-45.1467	-31.7358	6.09921	-0.610454	-51.5443	17.0778	-0.0297978	18.5398	-0.777239	-3.50045	-5.57941	0.0504216	0.0659225	-0.0842736	21.0351	-10.8665	-5.68841	5.77267	-6.1838	-2.14403	2.3362	-0.0662083	0.0827323	-0.318495	5.05014	4.06026	0.871892	2.77082	0.0343047	0.283801	-0.0835858
0.771702	13.4526	2.54223	-2.78235	-0.0691515	1.0007	7.69878	-43.9437	-31.0649	5.65415	0.327531	-52.171	17.2847	-0.0302047	18.0387	-0.437445	-3.56468	-5.41812	0.0432727	0.0934117	-0.0820176	20.5105	-10.6264	-6.09787	5.6267	-6.16644	-2.14625	2.27325	-0.0665563	0.0760601	-0.314927	5.02233	4.04262	0.886148	2.72016	0.0345974	0.28016	-0.0782902
0.776681	13.4351	2.43179	-2.99113	-0.0132728	1.22289	8.14553	-42.8144	-30.3614	5.21634	1.25349	-52.7548	17.4753	-0.030666	17.5795	-0.150842	-3.59685	-5.2531	0.0698257	0.109768	-0.0800133	19.9518	-10.3308	-6.42839	5.47984	-6.13209	-2.14012	2.20858	-0.066633	0.069778	-0.310405	4.98398	4.01691	0.895987	2.66722	0.0347258	0.275919	-0.0733261
0.78166	13.4454	2.16079	-3.21609	0.0201316	1.50171	8.48421	-41.747	-29.6453	4.7896	2.16234	-53.2986	17.6517	-0.0311713	17.1584	0.0865304	-3.60021	-5.08072	0.124499	0.116506	-0.0782092	19.3897	-9.99426	-6.73881	5.33281	-6.09706	-2.13281	2.14251	-0.0666808	0.0634641	-0.305657	4.94366	3.99374	0.905962	2.61401	0.0348564	0.271593	-0.0683613
0.786638	13.4737	1.76097	-3.45261	0.0567353	1.78141	8.55118	-40.7409	-28.948	4.37827	3.05243	-53.8053	17.8156	-0.0316993	16.7732	0.281397	-3.57835	-4.90032	0.202649	0.114986	-0.0765995	18.8313	-9.60947	-7.03633	5.18587	-6.06449	-2.1256	2.0748	-0.0667432	0.0570287	-0.300798	4.90232	3.97598	0.917108	2.56068	0.0350278	0.267272	-0.0633212
0.791617	13.5428	1.25578	-3.61965	0.121814	1.91913	8.12975	-39.8042	-28.3019	3.98612	3.92455	-54.2786	17.9689	-0.0322124	16.4256	0.449794	-3.53835	-4.71426	0.300847	0.10653	-0.0752342	18.2573	-9.16671	-7.24948	5.04393	-6.018	-2.1113	2.00674	-0.066568	0.0510768	-0.295233	4.85317	3.95344	0.924382	2.50612	0.0350637	0.262514	-0.0586854
0.796596	13.6077	0.662086	-3.7989	0.226659	1.96767	7.47587	-38.9244	-27.7016	3.61252	4.77494	-54.721	18.1135	-0.0327194	16.1112	0.570667	-3.47506	-4.52315	0.413733	0.092251	-0.0740535	17.7023	-8.69185	-7.45538	4.90441	-5.97555	-2.0981	1.93849	-0.0664372	0.045079	-0.289769	4.80597	3.93652	0.932845	2.45276	0.0351522	0.257918	-0.0540559
0.801574	13.6761	-0.0134618	-3.95186	0.330166	1.76712	6.62698	-38.1055	-27.1558	3.25721	5.60313	-55.1361	18.2513	-0.0331863	15.8448	0.644089	-3.38944	-4.33479	0.538833	0.072901	-0.0731159	17.1393	-8.19268	-7.60362	4.76834	-5.92243	-2.07981	1.87064	-0.0661317	0.0394811	-0.283844	4.75325	3.91464	0.938214	2.39879	0.0351344	0.253033	-0.0497515
0.806553	13.7313	-0.757982	-4.12176	0.467253	1.64208	5.834	-37.3298	-26.649	2.91902	6.40653	-55.5263	18.3844	-0.0336491	15.6054	0.65551	-3.27979	-4.14179	0.670936	0.0497854	-0.0723634	16.6112	-7.69903	-7.74872	4.63985	-5.87476	-2.06355	1.80558	-0.0658896	0.0340395	-0.278293	4.70706	3.89713	0.944159	2.34829	0.0351544	0.248504	-0.0456337
0.811532	12.5623	-1.36427	-4.45694	0.565751	1.39353	4.97526	-36.5179	-26.2117	2.6004	7.17785	-55.8897	18.5129	-0.0342687	16.5781	0.624855	-3.10333	-5.58904	1.72272	-0.128433	-0.0719328	16.1451	-7.20119	-7.90706	4.55212	-5.86112	-2.05912	1.75085	-0.0660423	0.0288113	-0.274402	4.70247	3.90709	0.954855	2.31271	0.0353651	0.24546	-0.0420118
0.816511	12.8246	-2.21003	-4.56467	0.590872	0.926681	4.0972	-35.8307	-25.8216	2.29861	7.9265	-56.242	18.6409	-0.0346249	16.156	0.538618	-2.96477	-5.05653	1.68539	-0.126374	-0.071566	15.6406	-6.72741	-7.98889	4.43471	-5.8022	-2.03841	1.6901	-0.0656267	0.0241195	-0.268773	4.65524	3.88197	0.956389	2.26383	0.0352548	0.240866	-0.0385239
0.821489	13.0278	-3.0657	-4.70272	0.61662	0.744547	3.38837	-35.165	-25.4758	2.01235	8.64723	-56.579	18.7684	-0.0349977	15.7856	0.397115	-2.81037	-4.55733	1.65585	-0.127722	-0.0713933	15.1889	-6.28657	-8.09013	4.33032	-5.75655	-2.02311	1.63451	-0.0653798	0.0195782	-0.263978	4.62188	3.86505	0.959788	2.22099	0.0352305	0.236955	-0.035237
0.826468	13.1353	-3.88611	-4.86904	0.523541	0.347398	2.60281	-34.5108	-25.1988	1.7433	9.3353	-56.9054	18.8968	-0.0353543	15.4764	0.226267	-2.64927	-4.10402	1.63419	-0.132029	-0.0713997	14.7698	-5.86492	-8.21923	4.23461	-5.7234	-2.01319	1.58163	-0.0653049	0.0149653	-0.259893	4.59933	3.85652	0.965764	2.18151	0.0353084	0.233552	-0.0319322
0.831447	13.2242	-4.67821	-4.98415	0.435261	0.32466	1.76644	-33.8822	-24.9896	1.49036	9.99903	-57.225	19.0273	-0.0357187	15.2159	0.0236502	-2.47981	-3.68442	1.62099	-0.13949	-0.0716396	14.3853	-5.47704	-8.3001	4.16029	-5.69026	-2.00253	1.5363	-0.0651731	0.0111411	-0.25619	4.58558	3.84754	0.968927	2.14763	0.0353015	0.230462	-0.0293163
0.836426	13.2154	-5.41675	-5.13127	0.227684	0.140237	0.926263	-33.2581	-24.8448	1.25222	10.6305	-57.5424	19.1612	-0.0360813	15.0096	-0.205608	-2.30548	-3.31018	1.61534	-0.149718	-0.0720496	14.0402	-5.12292	-8.41651	4.09639	-5.67164	-1.99822	1.49469	-0.0652398	0.00727242	-0.253348	4.58449	3.84738	0.974893	2.11781	0.0354045	0.22797	-0.0266971
0.841404	13.1496	-6.10861	-5.31365	0.10643	0.112607	0.209752	-32.6551	-24.7529	1.02697	11.2378	-57.8622	19.2999	-0.03647	14.835	-0.470089	-2.12287	-2.96995	1.61653	-0.16272	-0.0726221	13.7592	-4.81547	-8.576	4.04509	-5.67175	-2.00175	1.45848	-0.0655482	0.00342546	-0.251587	4.59758	3.85805	0.984298	2.09389	0.0356423	0.226274	-0.0241167
0.846383	13.0986	-6.76227	-5.44906	0.216772	0.344248	-0.383697	-32.0973	-24.7129	0.813567	11.8303	-58.1902	19.4447	-0.0368737	14.6758	-0.764438	-1.93256	-2.65486	1.6245	-0.178446	-0.0733805	13.5274	-4.56269	-8.69622	4.0132	-5.67197	-2.0048	1.43054	-0.0658	0.000413786	-0.250274	4.61704	3.86651	0.990853	2.07557	0.0357935	0.224915	-0.0222129
0.851362	12.9847	-7.37091	-5.61829	0.304421	0.410206	-0.805598	-31.5557	-24.7233	0.611051	12.3998	-58.5316	19.5968	-0.0372896	14.5434	-1.09582	-1.73309	-2.37354	1.63858	-0.196908	-0.0742762	13.3437	-4.36244	-8.85506	3.99251	-5.68643	-2.01426	1.40743	-0.0662446	-0.00254927	-0.249895	4.64916	3.88208	0.99979	2.06175	0.0360395	0.224181	-0.0203614
0.85634	12.8663	-7.9465	-5.73366	0.305299	0.457156	-1.16493	-31.0376	-24.7893	0.418996	12.9516	-58.8926	19.7574	-0.0377045	14.4351	-1.45478	-1.52641	-2.11783	1.65883	-0.218021	-0.0753373	13.1781	-4.21218	-8.96534	3.99178	-5.69619	-2.02165	1.39158	-0.0665829	-0.00468377	-0.249778	4.68858	3.89249	1.00471	2.05199	0.0361539	0.223582	-0.0192102
0.861319	12.7239	-8.46119	-5.86668	0.323479	0.512762	-1.51098	-30.5473	-24.9172	0.237057	13.4905	-59.2784	19.9274	-0.0381434	14.3366	-1.83279	-1.31586	-1.88036	1.68399	-0.241226	-0.0765316	13.0663	-4.10432	-9.11242	4.00457	-5.72241	-2.03607	1.3809	-0.0671348	-0.00676719	-0.250664	4.74221	3.91248	1.0125	2.04743	0.0363807	0.223685	-0.0181213
0.866298	12.5708	-8.93402	-6.01401	0.332606	0.548059	-1.82292	-30.0871	-25.104	0.0640562	14.0204	-59.6951	20.1079	-0.0386021	14.2399	-2.23661	-1.09844	-1.65503	1.71356	-0.266657	-0.0778512	13.0043	-4.03643	-9.29239	4.03091	-5.76364	-2.05699	1.37524	-0.0678838	-0.00878028	-0.252499	4.81022	3.94117	1.02277	2.04791	0.0367074	0.224453	-0.0171231
0.871277	12.4877	-9.39865	-6.07947	0.29648	0.589255	-2.08471	-29.6721	-25.3493	-0.100855	14.5492	-60.1494	20.3	-0.0390512	14.1345	-2.67138	-0.871535	-1.43225	1.7472	-0.294467	-0.0793035	12.9483	-4.01233	-9.40153	4.07785	-5.7943	-2.07325	1.37685	-0.0684407	-0.00980301	-0.254347	4.88348	3.96111	1.02733	2.05197	0.0368423	0.225184	-0.0169654
0.876255	12.4775	-9.87295	-6.12138	0.237257	0.644432	-2.30856	-29.3033	-25.6495	-0.259089	15.0815	-60.6466	20.5044	-0.0395085	14.0069	-3.14199	-0.633813	-1.20388	1.78388	-0.324542	-0.0808631	12.9061	-4.01416	-9.5036	4.13699	-5.82833	-2.09085	1.38246	-0.0690255	-0.0105339	-0.256567	4.96526	3.98263	1.03132	2.05915	0.0369616	0.226166	-0.0170768
0.881234	12.5622	-10.3695	-6.13098	0.181718	0.708707	-2.47624	-28.9876	-26.0058	-0.411382	15.623	-61.1928	20.722	-0.039967	13.8433	-3.65364	-0.383493	-0.961242	1.82296	-0.35691	-0.0825236	12.8777	-4.04092	-9.59211	4.20865	-5.86399	-2.10907	1.39226	-0.0696153	-0.010913	-0.259106	5.05544	4.00463	1.03419	2.06958	0.0370493	0.227376	-0.0175186
0.886213	12.7749	-10.8953	-6.03013	0.0704845	0.678725	-2.62078	-28.7312	-26.4232	-0.557832	16.1795	-61.7943	20.9535	-0.0403914	13.6348	-4.20157	-0.122341	-0.697574	1.86392	-0.391434	-0.0842843	12.8443	-4.09887	-9.58879	4.30097	-5.88291	-2.12021	1.40889	-0.0699395	-0.0101865	-0.261425	5.15062	4.0146	1.02973	2.08329	0.0368972	0.22842	-0.0189485
0.891191	13.1253	-11.5114	-5.88685	-0.0117181	0.471749	-2.30345	-28.5427	-26.8629	-0.702461	16.7572	-62.4564	21.1998	-0.0407928	13.3586	-4.82535	0.159049	-0.40532	1.90588	-0.428607	-0.0861186	12.8174	-4.20229	-9.54791	4.40511	-5.89265	-2.12817	1.43064	-0.0701422	-0.00880551	-0.263787	5.2531	4.01593	1.02078	2.1003	0.0366082	0.229514	-0.0210102
0.89617	13.7013	-12.0892	-5.64413	0.510671	0.403836	-2.8063	-28.4674	-27.4412	-0.83701	17.3755	-63.1831	21.4595	-0.0411744	12.9617	-5.42712	0.438296	-0.0559115	1.9466	-0.466478	-0.0880171	12.8395	-4.25793	-9.49151	4.51974	-5.91261	-2.13893	1.45458	-0.0704332	-0.00730208	-0.266538	5.3596	4.02899	1.01416	2.12084	0.036416	0.231031	-0.0231736
0.901149	14.3801	-12.7874	-5.35541	0.0841891	0.725198	-2.88152	-28.3799	-28.0337	-0.971623	18.0019	-63.9773	21.7342	-0.041563	12.5511	-6.10645	0.732302	0.321715	1.98862	-0.506887	-0.0900177	12.8058	-4.34928	-9.38325	4.65784	-5.92232	-2.14613	1.48394	-0.070606	-0.00515601	-0.269312	5.48861	4.03444	1.00178	2.14591	0.0360356	0.232563	-0.0261497
0.906128	15.2389	-13.4976	-4.97658	-0.263394	0.469961	-3.15838	-28.3611	-28.7051	-1.10166	18.6602	-64.8449	22.0231	-0.0418799	12.0235	-6.78571	1.02206	0.750325	2.02778	-0.547475	-0.0920202	12.7659	-4.4342	-9.22765	4.80472	-5.92227	-2.14959	1.51534	-0.0706522	-0.00255942	-0.271922	5.62168	4.03472	0.98593	2.17223	0.0355559	0.234015	-0.029593
0.911106	16.3578	-14.283	-4.51618	-0.23503	0.0875055	-3.2387	-28.4387	-29.4196	-1.22999	19.3627	-65.7878	22.326	-0.0421581	11.338	-7.50064	1.31735	1.24859	2.06279	-0.588736	-0.0940011	12.7427	-4.53137	-9.02751	4.96046	-5.91358	-2.14955	1.55056	-0.070577	0.000617316	-0.274454	5.75915	4.02894	0.966323	2.20181	0.0349711	0.235532	-0.0336142
0.916085	17.6793	-15.1115	-3.96456	-0.378775	-0.14336	-3.23291	-28.5573	-30.1831	-1.35585	20.0966	-66.8064	22.6417	-0.042412	10.5276	-8.23189	1.60994	1.81195	2.09341	-0.630126	-0.0959549	12.7257	-4.64418	-8.77284	5.13741	-5.89808	-2.14695	1.59191	-0.0704129	0.00451683	-0.27717	5.91385	4.01909	0.942192	2.23728	0.0342638	0.237297	-0.0384667
0.921064	19.2421	-15.9634	-3.31795	-0.476418	-0.081242	-3.19131	-28.7323	-30.9994	-1.47856	20.8687	-67.9007	22.9686	-0.0426502	9.56162	-8.96251	1.89523	2.45174	2.11774	-0.67088	-0.097834	12.7366	-4.7691	-8.47004	5.33612	-5.87974	-2.14317	1.64001	-0.070204	0.00912515	-0.280225	6.08616	4.00809	0.914528	2.27975	0.0334725	0.239468	-0.0441293
0.926043	21.0789	-16.8153	-2.52995	-0.502982	0.291498	-3.25348	-28.9592	-31.8732	-1.59701	21.6779	-69.0696	23.3049	-0.0428706	8.42359	-9.65928	2.16477	3.17341	2.13346	-0.709816	-0.0995629	12.763	-4.89766	-8.07404	5.55989	-5.84898	-2.13384	1.69566	-0.0698011	0.0148068	-0.283248	6.27276	3.99022	0.880251	2.32902	0.032492	0.241807	-0.0509174
0.931021	23.2144	-17.6141	-1.64671	-0.0364121	0.912979	-3.48307	-29.2565	-32.8086	-1.70995	22.5284	-70.3109	23.6482	-0.0430759	7.05863	-10.2888	2.4124	3.99595	2.13766	-0.745629	-0.101072	12.8527	-5.02687	-7.64583	5.80267	-5.82199	-2.1256	1.75791	-0.0694267	0.0210748	-0.286802	6.47367	3.9762	0.844641	2.3858	0.0315064	0.244736	-0.0583505
0.936	25.5501	-18.3898	-0.704443	0.264841	1.69831	-3.24611	-29.5597	-33.736	-1.8203	23.3984	-71.62	23.9966	-0.0432713	5.52128	-10.8724	2.63597	4.89541	2.13	-0.777887	-0.102307	12.9726	-5.20948	-7.17215	6.0707	-5.78954	-2.11586	1.8291	-0.0689895	0.0282365	-0.290817	6.697	3.9561	0.803801	2.45081	0.0303829	0.248117	-0.066795
0.940979	28.1127	-19.0066	0.340134	0.611285	2.00469	-3.25627	-29.8638	-34.7058	-1.92279	24.2811	-72.9922	24.3462	-0.0434109	3.77268	-11.2875	2.81157	5.88621	2.10553	-0.80283	-0.103124	13.096	-5.39952	-6.61989	6.3568	-5.74309	-2.10046	1.90554	-0.0683524	0.0362703	-0.294682	6.9287	3.92721	0.756883	2.51952	0.0290794	0.251465	-0.0761253
0.945957	30.8831	-19.4883	1.41841	1.11506	2.64897	-3.11242	-30.1677	-35.6774	-2.01783	25.1734	-74.4183	24.6935	-0.0435611	1.82008	-11.5659	2.94934	6.96888	2.06381	-0.82112	-0.103492	13.2879	-5.62846	-6.04992	6.66761	-5.70338	-2.08784	1.99099	-0.0677901	0.0449713	-0.299382	7.18182	3.90148	0.708357	2.59747	0.0277591	0.255564	-0.0862013
0.950936	33.7381	-19.7788	2.50806	1.09229	2.89415	-3.11703	-30.3874	-36.657	-2.1023	26.0427	-75.889	25.0339	-0.0436781	-0.289895	-11.66	3.04102	8.12305	2.00239	-0.831098	-0.103276	13.4837	-5.87833	-5.46105	7.00012	-5.66525	-2.0765	2.08161	-0.0672625	0.0540663	-0.304593	7.45561	3.87687	0.657881	2.68032	0.0263943	0.260018	-0.0968098
0.955915	36.7531	-19.8668	3.6236	1.05612	3.00015	-3.05773	-30.5609	-37.6149	-2.17522	26.8926	-77.3925	25.3632	-0.0437863	-2.59455	-11.5458	3.08784	9.36515	1.91771	-0.831385	-0.102353	13.7089	-6.16713	-4.82326	7.35412	-5.6224	-2.06316	2.17968	-0.0666434	0.0639885	-0.310089	7.74167	3.84738	0.603073	2.76882	0.0249006	0.264719	-0.108224
0.960894	39.8429	-19.7097	4.68878	1.05177	2.95282	-2.93396	-30.6706	-38.5371	-2.2345	27.7086	-78.9149	25.6758	-0.0438908	-5.06812	-11.1987	3.08905	10.6876	1.80867	-0.820934	-0.100664	13.9973	-6.49638	-4.20091	7.72575	-5.59138	-2.05483	2.28432	-0.0661674	0.0742195	-0.316476	8.04331	3.82384	0.549134	2.86357	0.0234553	0.270078	-0.119962
0.965872	42.9398	-19.2521	5.65901	0.977826	2.69179	-2.70199	-30.6958	-39.3998	-2.27841	28.4739	-80.4401	25.9664	-0.0439932	-7.66777	-10.5694	3.0395	12.0815	1.6735	-0.79755	-0.098132	14.3455	-6.87467	-3.60515	8.11316	-5.5734	-2.05209	2.39513	-0.0658499	0.0846778	-0.323777	8.35904	3.80624	0.496571	2.96376	0.0220674	0.276059	-0.131914
0.970851	46.0417	-18.5106	6.54821	0.856367	2.33895	-2.38462	-30.6355	-40.1848	-2.30497	29.1772	-81.95	26.2292	-0.0441076	-10.3664	-9.64991	2.94631	13.5414	1.51063	-0.760729	-0.0946554	14.7332	-7.2953	-3.00071	8.51551	-5.55984	-2.05076	2.51178	-0.0655466	0.0956029	-0.331539	8.68141	3.78909	0.443023	3.06785	0.020643	0.282327	-0.144225
0.97583	49.0689	-17.4632	7.28523	0.795531	1.94872	-2.09636	-30.4809	-40.8976	-2.311	29.8042	-83.4249	26.4579	-0.0442358	-13.1341	-8.44686	2.81924	15.0589	1.32037	-0.710932	-0.090209	15.195	-7.74905	-2.46276	8.9274	-5.57091	-2.05913	2.63256	-0.0655346	0.106329	-0.340425	9.01239	3.78644	0.395103	3.17586	0.019402	0.289321	-0.156251
0.980809	122.651	-9.98471	17.0223	508.714	1022.01	-121.604	-83.5027	-53.1257	-1.82812	48.3569	-83.6708	26.3609	-0.11057	-22.5909	6.92482	1.62977	26.2487	2.20186	-0.636343	-0.155345	82.1647	5.11792	-18.017	15.7249	-20.2248	-6.80219	5.87873	-0.218396	0.141626	-0.913682	14.3214	14.7961	3.45378	8.26362	0.135416	0.878014	-0.183342
0.985787	115.231	-9.88372	16.1564	440.467	834.878	-99.2557	-76.0916	-52.0185	-1.88094	46.3535	-85.4111	26.5512	-0.0984167	-25.5109	6.26989	1.76773	26.0855	1.77082	-0.574335	-0.136576	72.0679	2.66496	-15.0142	14.7611	-17.7215	-5.99315	5.42759	-0.191806	0.146058	-0.822636	13.4732	12.8796	2.90011	7.47053	0.114945	0.783315	-0.187302
0.990766	108.955	-9.28599	15.2124	380.528	666.272	-79.5231	-69.4018	-51.0145	-1.91015	44.6334	-87.1642	26.6778	-0.0875127	-28.6698	6.09564	1.84536	26.3274	1.32303	-0.497963	-0.117919	63.1735	0.386497	-12.4114	13.9085	-15.5169	-5.28268	5.03044	-0.168393	0.149915	-0.742802	12.7137	11.186	2.41333	6.76526	0.0969143	0.699604	-0.190385
0.995745	103.77	-8.24317	14.2238	328.895	516.365	-62.3484	-63.4554	-50.0926	-1.91452	43.1767	-88.8928	26.7398	-0.0778636	-31.9528	6.40595	1.86972	26.9113	0.86455	-0.407911	-0.0995117	55.4439	-1.70009	-10.1534	13.1642	-13.5939	-4.66337	4.68641	-0.147908	0.153574	-0.673395	12.0333	9.70381	1.9888	6.14532	0.0811528	0.626315	-0.192886
1.00072	99.5556	-6.88857	13.1409	285.554	385.318	-47.6726	-58.2572	-49.2462	-1.89246	41.9596	-90.5593	26.7362	-0.0694623	-35.2625	7.08622	1.86087	27.76	0.404515	-0.30944	-0.0815373	48.8935	-3.56554	-8.32826	12.519	-11.973	-4.14378	4.39172	-0.130649	0.156135	-0.614969	11.4342	8.44774	1.63393	5.60936	0.0678984	0.563793	-0.193971
1.0057	96.2031	-5.34497	11.9695	250.277	272.678	-35.3277	-53.794	-48.457	-1.84303	40.9524	-92.1267	26.6677	-0.0622639	-38.5083	8.04474	1.83143	28.7959	-0.0490193	-0.206465	-0.0641547	43.4734	-5.1936	-6.93987	11.9624	-10.6459	-3.72128	4.14228	-0.116536	0.157361	-0.56705	10.9095	7.41187	1.34785	5.15266	0.0571076	0.511583	-0.19341
1.01068	93.6393	-3.77574	10.7927	222.61	177.6	-25.0619	-50.0349	-47.6903	-1.76621	40.1207	-93.5585	26.5363	-0.0562063	-41.6116	9.18382	1.79152	29.9419	-0.488657	-0.102732	-0.047495	39.0656	-6.57256	-5.89587	11.4836	-9.57467	-3.38108	3.9334	-0.105088	0.157702	-0.528001	10.4417	6.57007	1.12132	4.76709	0.0484436	0.46837	-0.191589
1.01566	91.7128	-2.25998	9.54263	202.188	99.4164	-16.7907	-46.9387	-46.9324	-1.66164	39.43	-94.8186	26.3446	-0.051219	-44.4961	10.4267	1.74654	31.1241	-0.905517	-0.00166888	-0.0317886	35.6304	-7.6828	-5.28169	11.0663	-8.76931	-3.12877	3.75831	-0.0965129	0.156138	-0.497988	10.0307	5.92909	0.959736	4.44738	0.0420738	0.434089	-0.187609
1.02064	90.2994	-0.910641	8.22621	188.463	37.1051	-10.3244	-44.4489	-46.1543	-1.52998	38.8426	-95.8726	26.0968	-0.0472174	-47.0974	11.6903	1.70076	32.2702	-1.29165	0.0934823	-0.0172286	33.0722	-8.51377	-5.08772	10.6956	-8.21146	-2.95837	3.61065	-0.0906297	0.1524	-0.476131	9.66706	5.47603	0.860171	4.18584	0.0378795	0.407917	-0.181244
1.02562	89.3426	0.130467	7.01508	180.732	-10.5936	-5.33016	-42.5061	-45.3146	-1.37289	38.3223	-96.6877	25.7983	-0.0441111	-49.3713	12.9001	1.65717	33.317	-1.64031	0.179989	-0.00397986	31.2415	-9.0741	-5.11039	10.3695	-7.83228	-2.84322	3.48889	-0.0865615	0.147984	-0.459964	9.33354	5.16309	0.803204	3.97515	0.0352094	0.388022	-0.173947
1.0306	88.7103	0.783255	6.02939	178.325	-44.739	-1.52858	-41.034	-44.3847	-1.192	37.8305	-97.2326	25.4553	-0.04181	-51.2702	13.9974	1.61608	34.2049	-1.94428	0.255562	0.00774728	30.057	-9.3798	-5.21053	10.092	-7.5842	-2.76585	3.39394	-0.0837371	0.144043	-0.448074	9.02681	4.9566	0.774712	3.81262	0.0336172	0.373382	-0.166941
1.03557	88.306	0.985136	5.18791	180.539	-66.6032	1.16087	-39.9601	-43.326	-0.990102	37.3336	-97.4785	25.075	-0.0402257	-52.7621	14.9441	1.57833	34.8845	-2.19822	0.318928	0.0177918	29.3907	-9.41812	-5.44528	9.83726	-7.4614	-2.72557	3.31463	-0.0821624	0.1395	-0.439758	8.73541	4.85229	0.776965	3.68683	0.0331323	0.363154	-0.159228
1.04055	88.0039	0.701044	4.56204	186.636	-77.2733	2.94889	-39.2076	-42.112	-0.770123	36.8001	-97.399	24.6649	-0.0392654	-53.8077	15.712	1.5428	35.3113	-2.39682	0.369132	0.0259739	29.1614	-9.2061	-5.71064	9.60714	-7.42499	-2.70856	3.2507	-0.0813917	0.135161	-0.433869	8.45838	4.8225	0.798709	3.59478	0.0333996	0.356472	-0.15172
1.04553	87.6906	-0.0945586	4.13469	195.814	-77.9549	3.97867	-38.6965	-40.7065	-0.536316	36.2005	-96.9704	24.2328	-0.0388422	-54.378	16.2837	1.50931	35.4508	-2.53664	0.405848	0.0321718	29.2672	-8.75356	-5.98271	9.39201	-7.4533	-2.70792	3.19716	-0.0812146	0.130933	-0.429565	8.19162	4.85147	0.835334	3.52986	0.0342546	0.352534	-0.144426
1.05051	87.2682	-1.39257	3.82131	207.276	-69.8339	4.30654	-38.351	-39.0925	-0.292351	35.5111	-96.1723	23.7859	-0.0388777	-54.451	16.6466	1.47801	35.2777	-2.61581	0.429149	0.0363192	29.6017	-8.06594	-6.31195	9.1741	-7.54227	-2.72375	3.14568	-0.0816564	0.125958	-0.42641	7.92975	4.93564	0.888537	3.48327	0.0357182	0.350714	-0.136576
1.05549	86.6208	-3.18509	3.67639	220.177	-54.0155	4.11555	-38.0971	-37.2487	-0.0431598	34.7116	-94.9879	23.3308	-0.0392883	-53.9985	16.7946	1.44801	34.7734	-2.63349	0.439381	0.0383785	30.0901	-7.17149	-6.59408	8.9591	-7.65508	-2.74303	3.09715	-0.0822927	0.121105	-0.423403	7.67467	5.04849	0.947145	3.45303	0.0374397	0.350244	-0.129149
1.06047	85.6499	-5.44567	3.67982	233.669	-31.5632	3.53509	-37.8685	-35.1629	0.206121	33.7881	-93.4042	22.8728	-0.0400035	-52.9982	16.7193	1.41834	33.9279	-2.5906	0.43705	0.038384	30.6536	-6.09518	-6.80544	8.74441	-7.77429	-2.76043	3.0491	-0.0829563	0.116422	-0.42	7.42715	5.17674	1.00679	3.43489	0.039268	0.350552	-0.122288
1.06545	84.2648	-8.12634	3.61985	246.962	-3.57548	2.47904	-37.6066	-32.8318	0.449902	32.7321	-91.4132	22.4154	-0.0409438	-51.4407	16.4213	1.3887	32.7429	-2.48974	0.423037	0.0364248	31.2117	-4.82997	-7.12645	8.50416	-7.93049	-2.79003	2.98953	-0.084144	0.109822	-0.4168	7.18728	5.34122	1.08052	3.41938	0.0415839	0.35165	-0.11405
1.07043	82.3976	-11.1832	3.67047	259.175	28.9729	1.27938	-37.263	-30.2632	0.682998	31.5424	-89.0111	21.9595	-0.042059	-49.3099	15.8843	1.35568	31.2238	-2.33505	0.397852	0.0326751	31.709	-3.44544	-7.3328	8.26449	-8.06271	-2.80867	2.92744	-0.0850665	0.103596	-0.412383	6.95931	5.4973	1.14716	3.40912	0.043725	0.352567	-0.106727
1.0754	80.0021	-14.5499	3.81185	269.552	65.0897	0.0629248	-36.8032	-27.4751	0.900081	30.2246	-86.2002	21.5037	-0.0432905	-46.6088	15.1015	1.31676	29.3879	-2.13211	0.362352	0.0273554	32.0905	-1.97964	-7.40996	8.02739	-8.15946	-2.81316	2.86222	-0.0856155	0.0978468	-0.406504	6.74609	5.63517	1.20341	3.40135	0.0455741	0.352933	-0.100469
1.08038	77.0579	-18.1395	3.84033	277.433	103.853	-1.29355	-36.2048	-24.4968	1.09607	28.7912	-82.989	21.0432	-0.0445797	-43.3555	14.0876	1.27142	27.2635	-1.88777	0.31807	0.0207133	32.3003	-0.432989	-7.5388	7.77248	-8.25591	-2.81905	2.78394	-0.0863248	0.0906042	-0.400001	6.54996	5.77868	1.26286	3.38843	0.047531	0.352942	-0.0934094
1.08536	73.5742	-21.8562	3.92196	282.175	144.441	-2.46555	-35.4622	-21.3717	1.26693	27.2625	-79.3915	20.5703	-0.0458878	-39.57	12.8386	1.2152	24.8824	-1.60998	0.266009	0.013067	32.3163	1.11125	-7.5204	7.52967	-8.30164	-2.8071	2.70347	-0.0865199	0.0841037	-0.391908	6.37704	5.88955	1.3068	3.37457	0.0490098	0.351919	-0.0877162
1.09034	69.5986	-25.5874	3.85959	283.371	186.062	-3.60048	-34.5862	-18.1505	1.40924	25.6654	-75.4287	20.0741	-0.0471675	-35.3011	11.3896	1.14831	22.2906	-1.30743	0.208287	0.00471649	32.1059	2.65094	-7.53822	7.28052	-8.33516	-2.79387	2.61212	-0.0867609	0.0764404	-0.383215	6.22941	5.99378	1.34944	3.3532	0.050432	0.35019	-0.0815402
1.09532	65.2068	-29.2016	3.81303	280.613	228.084	-4.39304	-33.601	-14.8976	1.52116	24.0334	-71.127	19.5408	-0.0483898	-30.5978	9.75946	1.06772	19.5347	-0.98943	0.146585	-0.0039911	31.6716	4.09661	-7.41074	7.05762	-8.31344	-2.76286	2.52212	-0.0864536	0.0698192	-0.373273	6.11479	6.05761	1.37371	3.32981	0.0512651	0.347294	-0.0769785
1.1003	60.5273	-32.558	3.75438	273.727	269.883	-4.80702	-32.5511	-11.6771	1.60149	22.4072	-66.5185	18.9543	-0.0495216	-25.539	8.00513	0.973204	16.6757	-0.665855	0.083494	-0.0127325	31.0081	5.40498	-7.15007	6.86624	-8.23807	-2.71529	2.4349	-0.0856163	0.0642909	-0.362312	6.03521	6.07999	1.37959	3.30355	0.0514921	0.343204	-0.0739978
1.10528	55.7145	-35.5144	3.49498	262.825	310.987	-4.9963	-31.5011	-8.5638	1.65099	20.8346	-61.64	18.2964	-0.0505334	-20.2216	6.19294	0.866117	13.7794	-0.346153	0.0217395	-0.0212214	30.1286	6.56935	-6.95188	6.69073	-8.15506	-2.67022	2.34405	-0.0848742	0.058037	-0.351657	5.99186	6.09136	1.38284	3.26973	0.0515853	0.338499	-0.070734
1.11026	50.9542	-37.9274	3.18815	247.97	351.063	-4.74878	-30.519	-5.63327	1.6718	19.3653	-56.5312	17.5474	-0.0514069	-14.7439	4.38804	0.746856	10.9116	-0.0396984	-0.0360591	-0.0291733	29.0609	7.51602	-6.65243	6.5614	-8.02869	-2.61351	2.26161	-0.0837107	0.0531155	-0.340825	5.99034	6.06377	1.36874	3.23453	0.0510904	0.332901	-0.0690982
1.11523	46.4612	-39.6664	2.82416	229.553	389.877	-4.06031	-29.6888	-2.96192	1.66747	18.0531	-51.2339	16.6868	-0.0521241	-9.2282	2.66596	0.617181	8.14369	0.244827	-0.0873134	-0.0363557	27.8415	8.21413	-6.2727	6.48362	-7.86683	-2.54831	2.19037	-0.0822025	0.0496107	-0.330275	6.03131	6.00059	1.33878	3.19898	0.0500476	0.326625	-0.0690409
1.12021	42.4418	-40.6427	2.23682	208.079	427.293	-3.09327	-29.0913	-0.612464	1.64154	16.9485	-45.7896	15.694	-0.0526732	-3.80055	1.09553	0.479811	5.5439	0.500051	-0.129846	-0.0425924	26.5046	8.67542	-6.00269	6.43987	-7.71643	-2.49343	2.12399	-0.0809664	0.0457493	-0.321275	6.11237	5.93392	1.30915	3.15906	0.0489461	0.320306	-0.068699
1.12519	39.1153	-40.7709	1.58805	184.205	463.333	-1.69059	-28.8037	1.35074	1.59919	16.0976	-40.2377	14.5489	-0.0530469	1.40615	-0.259249	0.337072	3.17799	0.719506	-0.161905	-0.0477408	25.1103	8.85673	-5.70061	6.45345	-7.54982	-2.43718	2.07337	-0.0795724	0.0433524	-0.313445	6.23346	5.84243	1.26817	3.12133	0.047435	0.313846	-0.0697061
1.13017	36.6587	-40.0179	0.890967	158.655	498.095	0.124918	-28.8797	2.88093	1.54529	15.5341	-34.6137	13.2321	-0.053245	6.2665	-1.35113	0.192053	1.10146	0.898753	-0.182475	-0.0517292	23.709	8.76163	-5.38914	6.52371	-7.37689	-2.38285	2.03985	-0.0781129	0.0423779	-0.307127	6.39056	5.73258	1.21857	3.08695	0.0456017	0.307508	-0.0718898
1.13515	35.1982	-38.3806	0.0825775	132.267	531.757	2.26578	-29.346	3.94561	1.48433	15.2763	-28.947	11.7256	-0.0532696	10.659	-2.1542	0.0484598	-0.641133	1.03519	-0.191406	-0.0545379	22.3611	8.41038	-5.1865	6.63838	-7.23066	-2.34286	2.02052	-0.0769857	0.0418096	-0.303188	6.57661	5.62718	1.17146	3.05446	0.0437859	0.301814	-0.0740705
1.14013	34.8026	-35.9406	-0.705437	105.859	564.558	4.71835	-30.1899	4.53199	1.42042	15.3218	-23.2597	10.0132	-0.0531416	14.4889	-2.66226	-0.0900913	-2.02387	1.12915	-0.189414	-0.0562425	21.1066	7.84304	-5.00764	6.79809	-7.09515	-2.30952	2.01793	-0.0759421	0.0424283	-0.301043	6.78343	5.51729	1.12165	3.02713	0.0418504	0.29669	-0.0769864
1.14511	35.4535	-32.8028	-1.5107	80.3279	596.763	7.31955	-31.3592	4.64294	1.35641	15.647	-17.5661	8.0808	-0.0528821	17.6767	-2.89744	-0.219381	-3.03868	1.18325	-0.17821	-0.0569696	19.9946	7.12627	-4.96408	6.98058	-7.00083	-2.29372	2.02577	-0.0753565	0.0429975	-0.301186	6.99834	5.42647	1.08079	3.00243	0.0401619	0.292548	-0.0793156
1.15009	37.0462	-29.145	-2.15981	56.4754	628.647	10.0059	-32.7491	4.30069	1.29406	16.2024	-11.8717	5.91666	-0.0525331	20.1803	-2.9076	-0.335542	-3.70217	1.20317	-0.160441	-0.0569272	19.0531	6.33679	-4.94921	7.17984	-6.92591	-2.28505	2.04446	-0.0749126	0.0442724	-0.302633	7.20874	5.34379	1.04279	2.98326	0.0385666	0.289187	-0.0818437
1.15506	39.3737	-25.1837	-2.55724	35.1006	660.453	12.6078	-34.2071	3.54458	1.23341	16.9132	-6.17412	3.51156	-0.0521438	21.9864	-2.76917	-0.434447	-4.05408	1.19723	-0.1397	-0.056381	18.306	5.57955	-4.95131	7.37492	-6.87024	-2.28167	2.06864	-0.0745931	0.0459173	-0.304795	7.39839	5.27426	1.00996	2.96917	0.0371667	0.286598	-0.084289
1.16004	42.1264	-21.176	-2.69287	16.9344	692.34	14.8207	-35.5306	2.43011	1.17266	17.6797	-0.465359	0.85834	-0.0517717	23.1133	-2.5827	-0.511817	-4.15705	1.17617	-0.120347	-0.0556461	17.7643	4.99399	-5.05618	7.52796	-6.85491	-2.29025	2.08625	-0.0746841	0.0464125	-0.307406	7.54734	5.23915	0.993288	2.95576	0.0363271	0.284921	-0.0852361
1.16502	0	0	0	0	0	0	0	0	0	0	0	0	0	0	0	0	0	0	0	0	0	0	0	0	0	0	0	0	0	0	0	0	0	0	0	0	0
