Coordinates
version=1
nRows=161
nColumns=38
inDegrees=no

Units are S.I. units (second, meters, Newtons, ...)
If the header above contains a line with 'inDegrees', this indicates whether rotational values are in degrees (yes) or radians (no).

endheader
time	pelvis_tilt	pelvis_list	pelvis_rotation	pelvis_tx	pelvis_ty	pelvis_tz	hip_flexion_r	hip_adduction_r	hip_rotation_r	knee_angle_r	ankle_angle_r	subtalar_angle_r	mtp_angle_r	hip_flexion_l	hip_adduction_l	hip_rotation_l	knee_angle_l	ankle_angle_l	subtalar_angle_l	mtp_angle_l	lumbar_extension	lumbar_bending	lumbar_rotation	arm_flex_r	arm_add_r	arm_rot_r	elbow_flex_r	pro_sup_r	wrist_flex_r	wrist_dev_r	arm_flex_l	arm_add_l	arm_rot_l	elbow_flex_l	pro_sup_l	wrist_flex_l	wrist_dev_l
0	-0.0205585	-0.187148	1.55592	0.0372445	0.92064	1.01329	0.200238	0.0411956	-0.115851	0.287571	0.283554	0	0	0.508357	-0.0420338	-0.13043	0.0366093	0.0292308	0	0	-0.0343523	0.0363389	-0.0783051	0.244516	-0.27987	1.12762	0.517305	0.761963	0	0	-0.0249772	-0.364497	0.674067	0.831684	0.958541	0	0
0.00997859	-0.0205039	-0.187634	1.55299	0.0362568	0.920292	1.01029	0.197365	0.0402886	-0.11275	0.287725	0.285262	0	0	0.506256	-0.0419011	-0.128798	0.0374321	0.0217055	0	0	-0.0333387	0.0363992	-0.0769509	0.244123	-0.279827	1.12819	0.51581	0.761256	0	0	-0.0250441	-0.363452	0.675632	0.829523	0.956429	0	0
0.0199572	-0.0204698	-0.188118	1.55008	0.0352659	0.919949	1.00729	0.194492	0.0393526	-0.109656	0.287887	0.286942	0	0	0.504163	-0.0417403	-0.127216	0.0382768	0.0141242	0	0	-0.0323275	0.0364371	-0.0756408	0.243745	-0.279759	1.12878	0.514286	0.76052	0	0	-0.0251198	-0.362419	0.67719	0.827366	0.954306	0	0
0.0299358	-0.020486	-0.188596	1.54723	0.0342671	0.919619	1.00429	0.191619	0.0383447	-0.106581	0.28807	0.288545	0	0	0.502093	-0.0415097	-0.125766	0.0391802	0.00641702	0	0	-0.031323	0.0364195	-0.074441	0.243401	-0.279627	1.12941	0.5127	0.759712	0	0	-0.0252139	-0.361418	0.67873	0.825221	0.952159	0	0
0.0399143	-0.0205826	-0.189065	1.54446	0.0332548	0.919314	1.00127	0.188748	0.0372193	-0.103546	0.288291	0.290008	0	0	0.500066	-0.041166	-0.12454	0.0401872	-0.00146914	0	0	-0.0303318	0.0363116	-0.0734229	0.243106	-0.279393	1.1301	0.511021	0.758787	0	0	-0.0253333	-0.360474	0.680242	0.823102	0.949988	0	0
0.0498929	-0.0207832	-0.189517	1.54182	0.0322239	0.919044	0.998243	0.185879	0.0359369	-0.100573	0.28857	0.291259	0	0	0.4981	-0.0406719	-0.123621	0.0413459	-0.00955221	0	0	-0.0293621	0.0360837	-0.0726497	0.242869	-0.279028	1.13086	0.509237	0.757712	0	0	-0.0254791	-0.359612	0.681718	0.821032	0.947806	0	0
0.0598715	-0.0211015	-0.189947	1.53934	0.0311696	0.91882	0.995194	0.183017	0.0344692	-0.0976839	0.288928	0.292227	0	0	0.496215	-0.0400026	-0.123073	0.0427028	-0.0178068	0	0	-0.0284231	0.0357163	-0.0721676	0.242693	-0.278513	1.13168	0.507356	0.756468	0	0	-0.0256464	-0.358858	0.683148	0.819036	0.945642	0	0
0.0698501	-0.0215391	-0.190348	1.53707	0.0300881	0.918652	0.992126	0.180165	0.0328026	-0.0949032	0.289384	0.292841	0	0	0.494424	-0.0391474	-0.122929	0.0442974	-0.0261652	0	0	-0.0275238	0.035202	-0.0720004	0.242569	-0.277847	1.13253	0.505405	0.755057	0	0	-0.0258246	-0.358232	0.684526	0.817145	0.943543	0	0
0.0798287	-0.0220859	-0.190716	1.53503	0.0289766	0.918547	0.989036	0.177331	0.0309375	-0.0922496	0.289958	0.293044	0	0	0.492731	-0.0381106	-0.123188	0.0461582	-0.0345262	0	0	-0.0266714	0.0345463	-0.0721466	0.242483	-0.277044	1.13338	0.503432	0.7535	0	0	-0.0259983	-0.357749	0.685845	0.815391	0.941567	0	0
0.0898073	-0.0227222	-0.191049	1.53321	0.027833	0.918511	0.985925	0.174523	0.0288875	-0.0897371	0.290665	0.292788	0	0	0.491133	-0.0369088	-0.123816	0.0482975	-0.0427678	0	0	-0.0258707	0.0337658	-0.0725797	0.242416	-0.276133	1.13421	0.501498	0.751836	0	0	-0.0261494	-0.357417	0.687096	0.813804	0.939777	0	0
0.0997859	-0.0234211	-0.191346	1.53162	0.0266561	0.918546	0.982792	0.17175	0.0266755	-0.0873726	0.291518	0.292042	0	0	0.489619	-0.0355684	-0.124755	0.0507083	-0.0507623	0	0	-0.0251228	0.0328859	-0.0732504	0.242348	-0.275151	1.13498	0.499671	0.75012	0	0	-0.0262578	-0.357234	0.688275	0.812412	0.938237	0	0
0.109764	-0.0241521	-0.191613	1.53023	0.0254452	0.91865	0.979639	0.169027	0.0243313	-0.0851555	0.292524	0.290791	0	0	0.488165	-0.0341218	-0.125928	0.0533632	-0.0583904	0	0	-0.0244246	0.0319379	-0.0740901	0.242254	-0.274148	1.13565	0.498022	0.748421	0	0	-0.0263035	-0.357194	0.689377	0.811237	0.937003	0	0
0.119743	-0.0248845	-0.191857	1.52902	0.0241998	0.918821	0.976465	0.166365	0.0218866	-0.083078	0.293689	0.289038	0	0	0.486744	-0.0326028	-0.12725	0.0562149	-0.0655529	0	0	-0.0237691	0.0309552	-0.0750159	0.242112	-0.273176	1.1362	0.496623	0.74682	0	0	-0.0262668	-0.357281	0.690399	0.810292	0.936127	0	0
0.129722	-0.0255894	-0.192086	1.52795	0.02292	0.919053	0.973272	0.163779	0.0193728	-0.0811256	0.295009	0.286799	0	0	0.485321	-0.0310443	-0.128637	0.0591991	-0.0721776	0	0	-0.0231455	0.0299708	-0.0759351	0.241898	-0.27229	1.13657	0.495537	0.745416	0	0	-0.0261293	-0.357475	0.691342	0.809583	0.935647	0	0
0.1397	-0.026243	-0.192315	1.52697	0.0216059	0.919337	0.970062	0.161284	0.0168178	-0.0792792	0.296482	0.284107	0	0	0.483862	-0.0294747	-0.130014	0.0622389	-0.0782233	0	0	-0.0225402	0.0290147	-0.0767518	0.241589	-0.271541	1.13672	0.494822	0.744325	0	0	-0.0258736	-0.35775	0.692213	0.809102	0.93559	0	0
0.149679	-0.0268307	-0.192554	1.52603	0.020258	0.919665	0.966834	0.158892	0.0142409	-0.0775148	0.298098	0.281002	0	0	0.482326	-0.0279132	-0.131326	0.0652497	-0.0836847	0	0	-0.0219399	0.0281085	-0.0773854	0.241179	-0.270967	1.13664	0.494502	0.74361	0	0	-0.0254963	-0.358082	0.693007	0.808841	0.935969	0	0
0.159657	-0.0273464	-0.192813	1.52508	0.0188774	0.920025	0.96359	0.15661	0.0116537	-0.0758073	0.29985	0.277533	0	0	0.480679	-0.0263704	-0.132536	0.068147	-0.0885848	0	0	-0.0213308	0.0272658	-0.0777734	0.240681	-0.270587	1.13637	0.494571	0.743294	0	0	-0.0250045	-0.358444	0.693712	0.808781	0.936779	0	0
0.169636	-0.0277925	-0.1931	1.52406	0.0174653	0.920408	0.96033	0.154444	0.00905913	-0.0741326	0.301727	0.273753	0	0	0.478888	-0.0248476	-0.133628	0.0708534	-0.0929692	0	0	-0.020701	0.026492	-0.0778736	0.240115	-0.270407	1.13596	0.494998	0.743369	0	0	-0.0244128	-0.358817	0.694317	0.8089	0.937999	0	0
0.179615	-0.0281786	-0.193418	1.52295	0.0160235	0.920805	0.957054	0.152396	0.00645323	-0.0724695	0.303725	0.269716	0	0	0.476929	-0.0233377	-0.134604	0.0733054	-0.0968968	0	0	-0.020041	0.0257848	-0.0776662	0.239508	-0.270415	1.13548	0.495735	0.743801	0	0	-0.0237416	-0.359181	0.694813	0.809168	0.939587	0	0
0.189593	-0.0285202	-0.19377	1.52171	0.0145539	0.921205	0.953761	0.150467	0.00382576	-0.0708022	0.305839	0.265473	0	0	0.474785	-0.0218264	-0.13548	0.0754579	-0.100432	0	0	-0.0193455	0.0251348	-0.0771552	0.238894	-0.270586	1.13498	0.496714	0.74454	0	0	-0.0230154	-0.359528	0.695197	0.809554	0.941483	0	0
0.199572	-0.0288369	-0.19415	1.52034	0.013059	0.921603	0.950453	0.14865	0.00116219	-0.0691207	0.308071	0.261069	0	0	0.472451	-0.0202933	-0.136278	0.0772882	-0.103634	0	0	-0.0186139	0.0245273	-0.0763685	0.238307	-0.270884	1.13452	0.497859	0.745522	0	0	-0.0222617	-0.359851	0.695469	0.810024	0.943607	0	0
0.20955	-0.0291507	-0.194551	1.51882	0.0115412	0.921991	0.947128	0.146939	-0.0015547	-0.067422	0.310427	0.256543	0	0	0.469925	-0.0187142	-0.137023	0.0787959	-0.106552	0	0	-0.0178513	0.0239436	-0.0753544	0.23778	-0.271261	1.13416	0.49909	0.746676	0	0	-0.0215089	-0.360154	0.695635	0.810545	0.945869	0	0
0.219529	-0.0294836	-0.194958	1.51717	0.0100034	0.922367	0.943786	0.145322	-0.00434293	-0.0657089	0.312919	0.251926	0	0	0.467215	-0.0170622	-0.13774	0.080002	-0.109223	0	0	-0.0170679	0.023363	-0.0741788	0.237345	-0.271667	1.13391	0.500327	0.74793	0	0	-0.0207849	-0.360445	0.695705	0.811087	0.948171	0	0
0.229507	-0.0298565	-0.195355	1.51542	0.00844796	0.922727	0.940427	0.143785	-0.00721968	-0.06399	0.315562	0.247238	0	0	0.464332	-0.0153106	-0.138444	0.0809458	-0.111661	0	0	-0.0162785	0.0227643	-0.0729193	0.237025	-0.272047	1.13379	0.501499	0.749218	0	0	-0.0201162	-0.360736	0.69569	0.811623	0.950419	0	0
0.239486	-0.0302876	-0.195721	1.5136	0.00687747	0.923072	0.937051	0.142313	-0.0102	-0.0622778	0.318375	0.242495	0	0	0.461292	-0.0134335	-0.139141	0.0816806	-0.113865	0	0	-0.0155011	0.0221276	-0.0716599	0.236839	-0.27235	1.13379	0.502542	0.75048	0	0	-0.0195262	-0.361043	0.695606	0.812131	0.95252	0	0
0.249465	-0.0307914	-0.196036	1.51175	0.00529392	0.923403	0.933656	0.140891	-0.0132961	-0.0605875	0.32138	0.237703	0	0	0.458111	-0.0114085	-0.13983	0.0822675	-0.115815	0	0	-0.014755	0.0214353	-0.0704842	0.236796	-0.272531	1.13389	0.503411	0.751668	0	0	-0.0190342	-0.361383	0.695467	0.812595	0.954392	0	0
0.259443	-0.0313784	-0.19628	1.50992	0.00369883	0.923721	0.930243	0.139504	-0.0165168	-0.0589347	0.324598	0.232865	0	0	0.454805	-0.00921688	-0.140501	0.0827695	-0.117478	0	0	-0.0140591	0.0206732	-0.0694688	0.236898	-0.272551	1.13404	0.504076	0.752748	0	0	-0.0186545	-0.361773	0.695292	0.813004	0.955968	0	0
0.269422	-0.0320551	-0.196433	1.50816	0.00209317	0.924031	0.926812	0.138139	-0.0198677	-0.0573333	0.32805	0.227978	0	0	0.451388	-0.00684527	-0.141138	0.083245	-0.118811	0	0	-0.0134302	0.0198309	-0.0686767	0.237136	-0.272387	1.13421	0.504522	0.753699	0	0	-0.0183954	-0.362224	0.6951	0.81335	0.957191	0	0
0.2794	-0.032826	-0.196479	1.50648	0.000477478	0.924335	0.923362	0.136785	-0.0233528	-0.0557934	0.331755	0.22304	0	0	0.447866	-0.00428429	-0.141727	0.0837405	-0.119771	0	0	-0.0128837	0.0189003	-0.0681609	0.237506	-0.27202	1.13435	0.504747	0.754508	0	0	-0.0182698	-0.362748	0.694885	0.813639	0.958058	0	0
0.289379	-0.0336929	-0.196406	1.50494	-0.0011482	0.924637	0.919892	0.135435	-0.0269746	-0.0543205	0.335729	0.218046	0	0	0.44424	-0.00152963	-0.142256	0.084287	-0.120315	0	0	-0.0124306	0.0178764	-0.0679563	0.237998	-0.271444	1.13446	0.504757	0.755165	0	0	-0.0182907	-0.363347	0.694631	0.813878	0.958596	0	0
0.299358	-0.0346562	-0.196205	1.50354	-0.00278418	0.92494	0.916404	0.134086	-0.0307342	-0.0529148	0.339984	0.212991	0	0	0.440505	0.00141817	-0.14272	0.084896	-0.12041	0	0	-0.012076	0.0167569	-0.0680771	0.238603	-0.270663	1.13453	0.50457	0.755667	0	0	-0.0184681	-0.364021	0.694317	0.814083	0.958854	0	0
0.309336	-0.0357156	-0.195873	1.50228	-0.00443106	0.925248	0.912897	0.132742	-0.0346324	-0.0515702	0.34453	0.207869	0	0	0.43665	0.00455448	-0.143122	0.0855577	-0.120031	0	0	-0.0118187	0.0155414	-0.0685144	0.23931	-0.26969	1.13458	0.504213	0.756016	0	0	-0.0188087	-0.364761	0.693919	0.814269	0.958896	0	0
0.319315	-0.0368697	-0.195417	1.50115	-0.00608953	0.925561	0.909372	0.131415	-0.0386694	-0.0502761	0.349374	0.202675	0	0	0.432658	0.00787052	-0.143473	0.0862414	-0.119173	0	0	-0.0116502	0.0142319	-0.0692383	0.240105	-0.26855	1.1346	0.503718	0.756222	0	0	-0.0193151	-0.365557	0.693416	0.814451	0.958793	0	0
0.329293	-0.038117	-0.194846	1.50013	-0.00776025	0.925879	0.905828	0.130123	-0.0428444	-0.0490177	0.35452	0.197403	0	0	0.428511	0.0113543	-0.143791	0.0868974	-0.117842	0	0	-0.011555	0.012832	-0.0701994	0.240975	-0.267272	1.13465	0.503121	0.756299	0	0	-0.0199855	-0.366392	0.692793	0.814645	0.958619	0	0
0.339272	-0.0394557	-0.194177	1.49919	-0.00944368	0.926203	0.902268	0.128895	-0.0471566	-0.0477784	0.359972	0.192044	0	0	0.424189	0.0149917	-0.1441	0.0874594	-0.116064	0	0	-0.0115114	0.0113465	-0.0713331	0.241906	-0.265893	1.13474	0.502463	0.756264	0	0	-0.0208138	-0.367247	0.69204	0.814861	0.958441	0	0
0.349251	-0.0408841	-0.193434	1.49827	-0.01114	0.926531	0.898692	0.127766	-0.0516045	-0.0465425	0.36573	0.186589	0	0	0.419672	0.0187675	-0.144424	0.0878495	-0.113881	0	0	-0.011493	0.00978084	-0.0725647	0.242884	-0.264451	1.13492	0.501781	0.756141	0	0	-0.0217896	-0.368101	0.691154	0.815108	0.958323	0	0
0.359229	-0.0424001	-0.19264	1.49734	-0.012849	0.92686	0.895103	0.126775	-0.0561863	-0.045298	0.371798	0.181022	0	0	0.414943	0.0226659	-0.144784	0.0879833	-0.111347	0	0	-0.0114702	0.0081412	-0.0738147	0.243894	-0.262982	1.13521	0.501114	0.755957	0	0	-0.022898	-0.368932	0.690145	0.815387	0.95831	0	0
0.369208	-0.0440007	-0.191825	1.49634	-0.01457	0.927186	0.891501	0.125967	-0.0608986	-0.04404	0.378177	0.175325	0	0	0.409987	0.0266715	-0.145197	0.0877758	-0.10853	0	0	-0.011412	0.00643461	-0.0750045	0.244922	-0.261523	1.13563	0.500497	0.755743	0	0	-0.0241194	-0.369722	0.689033	0.815696	0.958434	0	0
0.379186	-0.045681	-0.191018	1.49523	-0.0163022	0.927507	0.887891	0.125389	-0.0657366	-0.0427736	0.384872	0.16947	0	0	0.404798	0.0307687	-0.145669	0.0871477	-0.105502	0	0	-0.0112882	0.0046695	-0.0760617	0.245952	-0.260108	1.13618	0.499964	0.75554	0	0	-0.0254291	-0.370452	0.687852	0.816025	0.958707	0	0
0.389165	-0.0474334	-0.190246	1.49399	-0.0180444	0.927817	0.884274	0.125085	-0.0706928	-0.0415166	0.391883	0.163429	0	0	0.399373	0.0349421	-0.146193	0.0860311	-0.102341	0	0	-0.0110709	0.00285631	-0.0769247	0.246966	-0.258763	1.13686	0.499545	0.755392	0	0	-0.0267968	-0.371108	0.68665	0.816359	0.95912	0	0
0.399143	-0.0492465	-0.189536	1.49258	-0.0197951	0.928114	0.880654	0.125097	-0.0757566	-0.0403006	0.399212	0.157167	0	0	0.39372	0.0391754	-0.146749	0.0843747	-0.0991199	0	0	-0.0107364	0.00100819	-0.077546	0.247944	-0.257514	1.1376	0.499268	0.755356	0	0	-0.028186	-0.371682	0.685492	0.816677	0.959642	0	0
0.409122	-0.0511086	-0.188908	1.491	-0.0215528	0.928394	0.877034	0.125456	-0.0809186	-0.0391728	0.406859	0.150644	0	0	0.387848	0.0434552	-0.147304	0.0821456	-0.0959105	0	0	-0.0102706	-0.00086208	-0.0779088	0.248878	-0.25637	1.13838	0.499146	0.755467	0	0	-0.0295725	-0.372168	0.684418	0.816962	0.960254	0	0
0.419101	-0.0530035	-0.188377	1.48927	-0.0233156	0.928655	0.873419	0.126182	-0.0861663	-0.0381937	0.414823	0.143824	0	0	0.381776	0.0477672	-0.147813	0.0793344	-0.0927738	0	0	-0.00966724	-0.00273871	-0.0780233	0.249769	-0.255329	1.13919	0.499178	0.755747	0	0	-0.0309373	-0.372568	0.683462	0.817198	0.96094	0	0
0.429079	-0.0549112	-0.187951	1.48741	-0.0250818	0.928894	0.869811	0.127286	-0.0914844	-0.0374342	0.423098	0.136668	0	0	0.375529	0.052095	-0.148224	0.0759566	-0.0897596	0	0	-0.00892765	-0.00460267	-0.0779228	0.250623	-0.254382	1.14001	0.499353	0.756203	0	0	-0.0322632	-0.372888	0.68265	0.817368	0.961684	0	0
0.439058	-0.0568087	-0.187634	1.48546	-0.0268495	0.929109	0.866216	0.128765	-0.096856	-0.0369714	0.431675	0.129145	0	0	0.369136	0.0564212	-0.148478	0.072052	-0.0869037	0	0	-0.00806189	-0.00643338	-0.0776602	0.251446	-0.25351	1.14079	0.499658	0.756835	0	0	-0.0335348	-0.373138	0.682008	0.817457	0.962466	0	0
0.449036	-0.058671	-0.187424	1.48347	-0.028617	0.929302	0.862638	0.130605	-0.102263	-0.0368828	0.440542	0.121227	0	0	0.362635	0.0607265	-0.148518	0.0676831	-0.0842265	0	0	-0.00708818	-0.00820921	-0.0773033	0.252251	-0.252693	1.14151	0.500074	0.75764	0	0	-0.0347375	-0.373333	0.681557	0.817453	0.963267	0	0
0.459015	-0.0604718	-0.187311	1.4815	-0.0303825	0.929473	0.859082	0.132781	-0.107688	-0.0372398	0.449684	0.112896	0	0	0.356065	0.0649904	-0.14829	0.0629333	-0.0817331	0	0	-0.00603184	-0.00990811	-0.0769304	0.253048	-0.251905	1.14215	0.500581	0.758613	0	0	-0.0358588	-0.373492	0.681308	0.817345	0.964067	0	0
0.468994	-0.0621844	-0.187284	1.47962	-0.0321438	0.929622	0.855551	0.135262	-0.113109	-0.0381011	0.459085	0.104146	0	0	0.34947	0.0691901	-0.147753	0.057903	-0.0794131	0	0	-0.00492383	-0.0115084	-0.0766246	0.253851	-0.251119	1.14265	0.501157	0.759747	0	0	-0.0368878	-0.373637	0.681269	0.817128	0.964847	0	0
0.478972	-0.0637839	-0.187326	1.47789	-0.0338988	0.929752	0.852052	0.138009	-0.118509	-0.039506	0.468729	0.0949819	0	0	0.342894	0.073303	-0.146879	0.0527045	-0.0772437	0	0	-0.00379932	-0.0129907	-0.0764679	0.254675	-0.250306	1.14299	0.501782	0.76103	0	0	-0.0378171	-0.373789	0.681434	0.8168	0.965589	0	0
0.488951	-0.0652483	-0.187418	1.47636	-0.0356449	0.929866	0.848588	0.140984	-0.123869	-0.0414691	0.478602	0.0854204	0	0	0.336381	0.0773061	-0.145656	0.0474564	-0.0751916	0	0	-0.00269572	-0.0143387	-0.0765361	0.255536	-0.24944	1.14316	0.502437	0.762451	0	0	-0.0386431	-0.373972	0.681785	0.816369	0.966279	0	0
0.498929	-0.0665593	-0.187539	1.47507	-0.037379	0.929966	0.845165	0.14415	-0.129169	-0.0439752	0.488695	0.0754896	0	0	0.329976	0.0811775	-0.144093	0.0422782	-0.0732161	0	0	-0.00165057	-0.0155401	-0.0768931	0.25645	-0.248497	1.14314	0.503103	0.763993	0	0	-0.0393665	-0.37421	0.682295	0.815844	0.966905	0	0
0.508908	-0.0677033	-0.18767	1.47407	-0.0390973	0.930056	0.841787	0.147476	-0.134391	-0.0469769	0.499005	0.065227	0	0	0.323719	0.0848966	-0.142215	0.0372854	-0.0712721	0	0	-0.000699604	-0.0165866	-0.0775865	0.257435	-0.247456	1.14293	0.503767	0.765633	0	0	-0.0399919	-0.374524	0.682924	0.815244	0.967455	0	0
0.518887	-0.0686715	-0.18779	1.47335	-0.0407957	0.930138	0.838459	0.150941	-0.139516	-0.0503937	0.509535	0.054677	0	0	0.317645	0.0884446	-0.140068	0.0325837	-0.0693138	0	0	0.000124993	-0.0174747	-0.0786445	0.258508	-0.246302	1.14256	0.504419	0.767343	0	0	-0.0405276	-0.374934	0.683624	0.814591	0.967921	0	0
0.528865	-0.0694607	-0.187881	1.47292	-0.0424695	0.930216	0.835186	0.154533	-0.144523	-0.0541137	0.520299	0.043888	0	0	0.311787	0.0918055	-0.137712	0.0282645	-0.0672976	0	0	0.000795876	-0.0182053	-0.0800733	0.259683	-0.245024	1.14205	0.505052	0.76909	0	0	-0.0409851	-0.375458	0.684342	0.81391	0.968294	0	0
0.538844	-0.070073	-0.187925	1.47275	-0.0441133	0.930291	0.831971	0.158253	-0.149391	-0.0579974	0.531317	0.032909	0	0	0.306167	0.0949666	-0.135219	0.0244008	-0.0651859	0	0	0.00129078	-0.0187839	-0.0818568	0.260972	-0.24362	1.14142	0.505668	0.770853	0	0	-0.041379	-0.376107	0.685018	0.813231	0.968575	0	0
0.548822	-0.070515	-0.187909	1.47279	-0.0457219	0.930367	0.828817	0.162112	-0.154097	-0.0618833	0.542619	0.0217872	0	0	0.300801	0.0979184	-0.132668	0.0210451	-0.0629483	0	0	0.00159327	-0.0192198	-0.0839567	0.262378	-0.242094	1.14071	0.506278	0.772621	0	0	-0.0417246	-0.376892	0.685593	0.812587	0.968768	0	0
0.558801	-0.0707975	-0.187822	1.47301	-0.0472894	0.930445	0.825729	0.166134	-0.158616	-0.0655959	0.554242	0.0105664	0	0	0.295698	0.100655	-0.130142	0.018228	-0.0605633	0	0	0.00169291	-0.0195252	-0.086315	0.263903	-0.240459	1.13992	0.506897	0.774389	0	0	-0.042037	-0.377816	0.686011	0.812009	0.968883	0	0
0.568779	-0.0709347	-0.187653	1.47333	-0.0488105	0.930527	0.822707	0.170351	-0.162926	-0.0689542	0.566227	-0.000714067	0	0	0.290854	0.103174	-0.127722	0.0159585	-0.0580189	0	0	0.0015851	-0.0197149	-0.0888586	0.26554	-0.238732	1.13909	0.507548	0.776153	0	0	-0.0423308	-0.378883	0.686224	0.811527	0.96893	0	0
0.578758	-0.0709432	-0.187397	1.47368	-0.0502801	0.930613	0.819753	0.174801	-0.167002	-0.0717827	0.578618	-0.0120177	0	0	0.286262	0.105475	-0.125486	0.014225	-0.0553128	0	0	0.00127053	-0.019806	-0.0915039	0.267279	-0.236938	1.13821	0.508254	0.777915	0	0	-0.0426192	-0.380087	0.686189	0.811171	0.968924	0	0
0.588737	-0.0708419	-0.187049	1.47398	-0.0516936	0.930704	0.816868	0.179526	-0.170823	-0.0739217	0.591457	-0.0233077	0	0	0.281904	0.107565	-0.123499	0.0129974	-0.0524513	0	0	0.000754463	-0.0198166	-0.0941637	0.269107	-0.235103	1.1373	0.509042	0.77968	0	0	-0.042914	-0.381422	0.685876	0.810968	0.968879	0	0
0.598715	-0.0706509	-0.186607	1.47417	-0.0530477	0.9308	0.814053	0.184568	-0.174373	-0.0752374	0.604785	-0.0345424	0	0	0.277756	0.109453	-0.121816	0.0122301	-0.0494484	0	0	4.60384e-05	-0.0197662	-0.0967527	0.271005	-0.233255	1.13638	0.50994	0.781456	0	0	-0.0432255	-0.38288	0.685262	0.810943	0.968816	0	0
0.608694	-0.0703914	-0.18607	1.4742	-0.0543398	0.9309	0.811306	0.189967	-0.17764	-0.0756318	0.618633	-0.0456689	0	0	0.273791	0.111151	-0.120476	0.0118657	-0.0463244	0	0	-0.000842473	-0.0196753	-0.0991941	0.272956	-0.231424	1.13542	0.51097	0.783258	0	0	-0.043563	-0.384449	0.684334	0.811116	0.968752	0	0
0.618672	-0.0700851	-0.185442	1.474	-0.0555689	0.931003	0.808626	0.195756	-0.180623	-0.07505	0.633026	-0.0566161	0	0	0.269979	0.112678	-0.119501	0.011839	-0.0431036	0	0	-0.00189624	-0.0195653	-0.101425	0.274939	-0.229636	1.13445	0.512153	0.785103	0	0	-0.0439346	-0.386117	0.683086	0.811507	0.968708	0	0
0.628651	-0.0697539	-0.184725	1.47355	-0.0567352	0.931108	0.806013	0.201965	-0.183329	-0.0734852	0.647973	-0.0672881	0	0	0.266289	0.114057	-0.118897	0.0120807	-0.0398132	0	0	-0.00309834	-0.0194581	-0.1034	0.276934	-0.227915	1.13345	0.513501	0.787009	0	0	-0.0443482	-0.387872	0.681517	0.812134	0.968704	0	0
0.63863	-0.0694192	-0.183928	1.47283	-0.0578404	0.931213	0.803463	0.208613	-0.185777	-0.0709817	0.663469	-0.0775582	0	0	0.262692	0.115313	-0.118648	0.0125216	-0.0364812	0	0	-0.00443025	-0.0193761	-0.105097	0.278921	-0.22628	1.13243	0.515022	0.788995	0	0	-0.0448108	-0.389704	0.679636	0.81301	0.96876	0	0
0.648608	-0.0691015	-0.18306	1.47186	-0.0588876	0.931316	0.800975	0.21571	-0.187994	-0.0676337	0.679489	-0.0872662	0	0	0.259165	0.116475	-0.118727	0.0130956	-0.0331357	0	0	-0.00587206	-0.0193413	-0.106512	0.280883	-0.224745	1.13139	0.516714	0.791069	0	0	-0.0453284	-0.391602	0.677453	0.814147	0.968893	0	0
0.658587	-0.0688197	-0.182133	1.47067	-0.0598811	0.931414	0.798547	0.223258	-0.190022	-0.0635817	0.695987	-0.0962193	0	0	0.25569	0.117576	-0.119086	0.0137434	-0.0298027	0	0	-0.00740259	-0.0193752	-0.107667	0.282803	-0.223319	1.13032	0.518567	0.793235	0	0	-0.0459069	-0.393559	0.674985	0.815554	0.96912	0	0
0.668565	-0.0685912	-0.181165	1.46928	-0.0608261	0.931505	0.796177	0.231254	-0.191909	-0.0590056	0.712895	-0.104197	0	0	0.252257	0.118649	-0.119672	0.014417	-0.0265045	0	0	-0.00899933	-0.0194983	-0.1086	0.284662	-0.222006	1.12923	0.520569	0.795519	0	0	-0.0465527	-0.395569	0.672244	0.81724	0.969465	0	0
0.678544	-0.0684295	-0.180173	1.46778	-0.061729	0.931585	0.793864	0.239683	-0.193709	-0.0541161	0.730118	-0.110958	0	0	0.248867	0.119723	-0.12042	0.0150791	-0.0232602	0	0	-0.0106401	-0.0197278	-0.109365	0.286435	-0.220808	1.12807	0.522707	0.797962	0	0	-0.0472689	-0.397629	0.669244	0.819205	0.969958	0	0
0.688522	-0.0683426	-0.179179	1.46623	-0.0625964	0.931653	0.791607	0.248522	-0.195477	-0.0491432	0.747536	-0.116251	0	0	0.245528	0.120826	-0.121255	0.0157043	-0.0200863	0	0	-0.0123037	-0.0200753	-0.110025	0.288098	-0.219726	1.12681	0.524967	0.800602	0	0	-0.0480534	-0.399733	0.666011	0.821446	0.970625	0	0
0.698501	-0.0683323	-0.178204	1.46471	-0.0634352	0.931707	0.789404	0.257739	-0.197264	-0.0443242	0.765	-0.119837	0	0	0.24225	0.121979	-0.122102	0.0162785	-0.016996	0	0	-0.0139705	-0.0205462	-0.110648	0.289623	-0.21876	1.1254	0.527333	0.803468	0	0	-0.0488979	-0.401879	0.662576	0.823946	0.971493	0	0
0.70848	-0.0683936	-0.177268	1.46332	-0.0642521	0.931745	0.787253	0.267293	-0.199116	-0.0398903	0.782338	-0.121499	0	0	0.239053	0.123194	-0.122881	0.0167986	-0.0139991	0	0	-0.0156228	-0.0211381	-0.111301	0.29098	-0.217908	1.1238	0.529785	0.806572	0	0	-0.0497881	-0.40406	0.658983	0.826681	0.972577	0	0
0.718458	-0.0685142	-0.17639	1.46212	-0.0650532	0.931768	0.785154	0.277133	-0.201066	-0.0360544	0.799352	-0.121067	0	0	0.235954	0.124476	-0.123522	0.0172717	-0.0111025	0	0	-0.0172463	-0.0218408	-0.112045	0.292144	-0.217169	1.12195	0.532306	0.809907	0	0	-0.0507032	-0.406268	0.655282	0.829613	0.973887	0	0
0.728437	-0.0686752	-0.175585	1.4612	-0.0658434	0.931775	0.783104	0.287201	-0.203132	-0.0330006	0.815828	-0.118431	0	0	0.232972	0.125818	-0.123961	0.0177122	-0.00831058	0	0	-0.0188303	-0.0226351	-0.112931	0.293087	-0.216544	1.11983	0.534874	0.813442	0	0	-0.0516168	-0.408493	0.651537	0.832692	0.97542	0	0
0.738415	-0.0688513	-0.174861	1.46061	-0.0666267	0.931769	0.781102	0.297432	-0.205317	-0.0308758	0.831538	-0.113556	0	0	0.230121	0.127203	-0.12415	0.0181401	-0.0056251	0	0	-0.0203689	-0.023494	-0.113995	0.293789	-0.216031	1.11742	0.537466	0.817119	0	0	-0.0524973	-0.410718	0.647817	0.835858	0.977155	0	0
0.748394	-0.0690122	-0.174223	1.46039	-0.0674053	0.931752	0.779143	0.307751	-0.207603	-0.0297846	0.846249	-0.106486	0	0	0.227408	0.128607	-0.124055	0.0185777	-0.00304632	0	0	-0.0218616	-0.0243833	-0.115259	0.294233	-0.215632	1.1147	0.540055	0.820849	0	0	-0.0533095	-0.412924	0.644204	0.839038	0.979056	0	0
0.758373	-0.0691258	-0.173665	1.46057	-0.0681797	0.931729	0.777225	0.31808	-0.209959	-0.0297857	0.859728	-0.097348	0	0	0.224831	0.129997	-0.123662	0.0190475	-0.000572573	0	0	-0.0233121	-0.0252649	-0.116727	0.294414	-0.215343	1.1117	0.542611	0.824524	0	0	-0.0540199	-0.415088	0.640775	0.842155	0.981072	0	0
0.768351	-0.0691618	-0.173179	1.46115	-0.0689488	0.931703	0.775343	0.328342	-0.212338	-0.0308926	0.871757	-0.086342	0	0	0.222385	0.131338	-0.122978	0.0195714	0.00179966	0	0	-0.0247275	-0.0261006	-0.118389	0.294333	-0.215162	1.10846	0.545102	0.828023	0	0	-0.0546018	-0.417183	0.637602	0.845133	0.98314	0	0
0.77833	-0.0690929	-0.172748	1.46209	-0.0697101	0.931678	0.773493	0.338461	-0.214686	-0.033078	0.882136	-0.0737315	0	0	0.220053	0.132597	-0.12203	0.020168	0.00407571	0	0	-0.0261182	-0.0268537	-0.120225	0.294005	-0.215083	1.10503	0.547493	0.831225	0	0	-0.0550376	-0.419182	0.634739	0.8479	0.985194	0	0
0.788308	-0.0688965	-0.172351	1.46336	-0.0704594	0.93166	0.771668	0.348364	-0.216937	-0.03628	0.890691	-0.0598287	0	0	0.217815	0.133739	-0.120861	0.0208525	0.00626289	0	0	-0.0274967	-0.0274911	-0.122204	0.293453	-0.215096	1.1015	0.549744	0.83401	0	0	-0.0553201	-0.421057	0.632227	0.850391	0.987162	0	0
0.798287	-0.0685564	-0.171966	1.4649	-0.0711918	0.931651	0.769864	0.35799	-0.219026	-0.0404104	0.897283	-0.0449753	0	0	0.215645	0.134737	-0.11953	0.0216367	0.00837153	0	0	-0.0288772	-0.0279859	-0.124286	0.292705	-0.215192	1.09793	0.551826	0.836314	0	0	-0.055452	-0.422779	0.630085	0.852556	0.988991	0	0
0.808266	-0.0680632	-0.171568	1.46664	-0.0719019	0.931655	0.768075	0.367284	-0.220889	-0.0453632	0.901808	-0.0295236	0	0	0.213518	0.135565	-0.118103	0.0225293	0.0104151	0	0	-0.030274	-0.0283188	-0.126426	0.291789	-0.215361	1.09437	0.553714	0.83811	0	0	-0.0554453	-0.424325	0.628316	0.85436	0.990637	0	0
0.818244	-0.0674144	-0.171135	1.46852	-0.072584	0.931674	0.766296	0.376209	-0.222463	-0.0510235	0.904202	-0.013818	0	0	0.211408	0.136208	-0.116652	0.0235364	0.0124109	0	0	-0.0317	-0.0284785	-0.128577	0.29074	-0.215594	1.09088	0.555385	0.839402	0	0	-0.0553209	-0.425674	0.626904	0.855788	0.992066	0	0
0.828223	-0.0666146	-0.170644	1.47045	-0.0732328	0.931708	0.764524	0.384737	-0.223697	-0.0572748	0.904444	0.00182151	0	0	0.209293	0.136656	-0.115246	0.0246625	0.01438	0	0	-0.0331658	-0.0284629	-0.130694	0.289598	-0.215879	1.08751	0.55682	0.840214	0	0	-0.0551084	-0.426812	0.625819	0.856843	0.993255	0	0
0.838201	-0.0656745	-0.170082	1.47237	-0.0738433	0.931757	0.762756	0.392859	-0.224547	-0.0640051	0.902547	0.0171119	0	0	0.207158	0.136907	-0.113952	0.0259115	0.0163477	0	0	-0.0346789	-0.0282785	-0.132738	0.288404	-0.216203	1.08432	0.558002	0.840586	0	0	-0.0548438	-0.427734	0.625016	0.857551	0.994191	0	0
0.84818	-0.0646103	-0.169438	1.47422	-0.0744113	0.931819	0.76099	0.400577	-0.224982	-0.0711109	0.898563	0.0318156	0	0	0.204994	0.136967	-0.112827	0.0272868	0.0183424	0	0	-0.0362432	-0.0279399	-0.134677	0.2872	-0.216552	1.08135	0.558918	0.840568	0	0	-0.0545672	-0.42844	0.624443	0.857952	0.994874	0	0
0.858158	-0.0634422	-0.168705	1.47595	-0.0749337	0.931892	0.759225	0.407909	-0.224982	-0.0784991	0.892577	0.0457442	0	0	0.202797	0.136846	-0.111916	0.0287914	0.0203947	0	0	-0.037859	-0.0274687	-0.136487	0.286029	-0.216912	1.07866	0.559554	0.840213	0	0	-0.0543201	-0.428938	0.62404	0.858107	0.995317	0	0
0.868137	-0.0621936	-0.167886	1.47751	-0.0754081	0.931972	0.757461	0.414881	-0.22454	-0.0860872	0.884698	0.0587571	0	0	0.200572	0.136561	-0.11125	0.0304277	0.0225357	0	0	-0.0395237	-0.0268919	-0.138152	0.284929	-0.21727	1.07628	0.559903	0.839577	0	0	-0.0541423	-0.429245	0.623747	0.858083	0.995546	0	0
0.878116	-0.0608889	-0.166986	1.4789	-0.0758334	0.932056	0.7557	0.421528	-0.223661	-0.093802	0.875058	0.0707573	0	0	0.198327	0.136132	-0.110845	0.0321964	0.0247947	0	0	-0.0412322	-0.0262399	-0.139664	0.283934	-0.217612	1.07425	0.559959	0.83871	0	0	-0.0540696	-0.429379	0.623511	0.857955	0.995594	0	0
0.888094	-0.0595533	-0.166012	1.48008	-0.0762092	0.93214	0.753944	0.427889	-0.222356	-0.101577	0.863801	0.0816845	0	0	0.196071	0.135583	-0.110703	0.0340954	0.0271974	0	0	-0.0429775	-0.0255446	-0.141021	0.283069	-0.217928	1.07258	0.559722	0.837658	0	0	-0.0541309	-0.429367	0.623284	0.857795	0.995501	0	0
0.898073	-0.0582105	-0.164977	1.48107	-0.0765359	0.932221	0.752194	0.434004	-0.220647	-0.109351	0.851085	0.0915065	0	0	0.193817	0.134938	-0.110813	0.0361196	0.0297632	0	0	-0.0447519	-0.0248373	-0.142227	0.282354	-0.218208	1.07129	0.559195	0.836457	0	0	-0.0543469	-0.429233	0.623035	0.857669	0.99531	0	0
0.908051	-0.0568828	-0.16389	1.48186	-0.0768149	0.932296	0.750453	0.439909	-0.218562	-0.117064	0.837067	0.100211	0	0	0.191571	0.13422	-0.111152	0.0382591	0.0325041	0	0	-0.0465476	-0.0241468	-0.143289	0.281799	-0.218445	1.07036	0.558385	0.835136	0	0	-0.0547294	-0.429004	0.622746	0.85763	0.995063	0	0
0.91803	-0.0555899	-0.162761	1.48246	-0.0770477	0.932362	0.748723	0.445638	-0.21613	-0.124658	0.821906	0.107799	0	0	0.189338	0.133455	-0.111688	0.0404992	0.0354235	0	0	-0.0483575	-0.023498	-0.144221	0.281407	-0.218635	1.06977	0.557306	0.833717	0	0	-0.0552804	-0.428702	0.622418	0.857712	0.994797	0	0
0.928009	-0.0543483	-0.161599	1.48289	-0.0772365	0.93242	0.747003	0.451215	-0.213387	-0.132075	0.805754	0.114278	0	0	0.187116	0.132663	-0.112384	0.0428204	0.038516	0	0	-0.0501751	-0.02291	-0.145036	0.281176	-0.218773	1.06952	0.555971	0.832196	0	0	-0.0559949	-0.428348	0.622064	0.857931	0.994536	0	0
0.937987	-0.0531721	-0.160406	1.48317	-0.0773837	0.932468	0.745295	0.456658	-0.210368	-0.13926	0.788758	0.119664	0	0	0.184898	0.131868	-0.113203	0.0451984	0.0417676	0	0	-0.0519952	-0.0223967	-0.145754	0.281103	-0.218858	1.0696	0.554395	0.830553	0	0	-0.056862	-0.427956	0.621714	0.858282	0.994295	0	0
0.947966	-0.0520722	-0.159183	1.48332	-0.0774917	0.932508	0.743596	0.461974	-0.20711	-0.146158	0.771049	0.123976	0	0	0.182668	0.131087	-0.114108	0.0476044	0.0451565	0	0	-0.053814	-0.0219656	-0.146393	0.281179	-0.21889	1.06999	0.5526	0.828763	0	0	-0.0578654	-0.427534	0.621406	0.858736	0.994073	0	0
0.957944	-0.0510572	-0.157926	1.48333	-0.0775633	0.93254	0.741906	0.467162	-0.203649	-0.152721	0.75275	0.127237	0	0	0.180406	0.130338	-0.115064	0.0500061	0.048655	0	0	-0.0556295	-0.0216188	-0.146971	0.281394	-0.218873	1.07067	0.550608	0.826801	0	0	-0.0589851	-0.427084	0.621188	0.859247	0.99386	0	0
0.967923	-0.0501331	-0.15663	1.48322	-0.0776009	0.932566	0.74022	0.47221	-0.20002	-0.158911	0.733967	0.129483	0	0	0.178085	0.129637	-0.116044	0.0523691	0.0522312	0	0	-0.0574408	-0.0213531	-0.147506	0.281735	-0.218811	1.07164	0.548446	0.824647	0	0	-0.0601984	-0.4266	0.62111	0.859755	0.993632	0	0
0.977901	-0.0493045	-0.155285	1.48301	-0.0776074	0.932589	0.738536	0.477101	-0.196258	-0.164697	0.714789	0.130758	0	0	0.175677	0.128999	-0.117025	0.054657	0.0558493	0	0	-0.0592475	-0.0211619	-0.14801	0.282187	-0.218713	1.07286	0.546149	0.822292	0	0	-0.0614812	-0.426074	0.621224	0.860187	0.993355	0	0
0.98788	-0.0485748	-0.153882	1.48268	-0.0775854	0.93261	0.736849	0.481814	-0.192395	-0.170062	0.695292	0.131119	0	0	0.17315	0.128435	-0.11799	0.0568322	0.0594714	0	0	-0.061049	-0.0210364	-0.148492	0.282732	-0.218589	1.07433	0.543749	0.819739	0	0	-0.062809	-0.425492	0.621581	0.860469	0.99299	0	0
0.997859	-0.0479457	-0.152414	1.48224	-0.0775376	0.932631	0.735154	0.486321	-0.18846	-0.175	0.675531	0.130637	0	0	0.170475	0.127956	-0.118926	0.0588573	0.0630589	0	0	-0.0628436	-0.0209666	-0.148958	0.283353	-0.218453	1.07602	0.541287	0.817009	0	0	-0.0641573	-0.424839	0.622221	0.860527	0.992493	0	0
1.00784	-0.0474172	-0.150876	1.4817	-0.0774666	0.932653	0.73345	0.490596	-0.184476	-0.179522	0.655549	0.129393	0	0	0.167627	0.12757	-0.119824	0.0606966	0.0665735	0	0	-0.0646278	-0.0209414	-0.149407	0.284029	-0.218319	1.07789	0.538802	0.814138	0	0	-0.0655025	-0.424098	0.623178	0.860298	0.991822	0	0
1.01782	-0.0469869	-0.149267	1.48105	-0.0773754	0.932678	0.731731	0.494611	-0.180463	-0.183644	0.63537	0.12748	0	0	0.164586	0.127281	-0.120674	0.0623175	0.0699792	0	0	-0.0663952	-0.0209499	-0.149838	0.284737	-0.218202	1.07991	0.536335	0.811182	0	0	-0.0668218	-0.423257	0.624474	0.85973	0.990941	0	0
1.02779	-0.0466508	-0.147594	1.48031	-0.0772666	0.932705	0.729997	0.498347	-0.176432	-0.187394	0.615005	0.124994	0	0	0.161344	0.12709	-0.121467	0.0636913	0.0732411	0	0	-0.0681351	-0.0209824	-0.150243	0.28545	-0.218121	1.08202	0.533926	0.808215	0	0	-0.0680937	-0.422305	0.626116	0.858792	0.989825	0	0
1.03777	-0.0464034	-0.145872	1.4795	-0.077143	0.932733	0.728246	0.501787	-0.172391	-0.190794	0.594456	0.122035	0	0	0.157905	0.126994	-0.122189	0.0647945	0.0763271	0	0	-0.0698321	-0.0210316	-0.15061	0.286135	-0.218091	1.08414	0.531619	0.805342	0	0	-0.0692979	-0.421238	0.628097	0.857476	0.988466	0	0
1.04775	-0.0462374	-0.144125	1.47863	-0.0770077	0.932761	0.726481	0.504928	-0.168339	-0.193867	0.573717	0.1187	0	0	0.154287	0.126989	-0.122824	0.0656109	0.0792089	0	0	-0.0714659	-0.0210923	-0.150927	0.286751	-0.218132	1.08617	0.529461	0.802698	0	0	-0.0704146	-0.420056	0.630394	0.855796	0.986874	0	0
1.05773	-0.0461396	-0.142383	1.47775	-0.0768631	0.932787	0.724702	0.507768	-0.164268	-0.196625	0.552776	0.115075	0	0	0.150518	0.12706	-0.123352	0.0661355	0.0818676	0	0	-0.0730116	-0.0211561	-0.151186	0.287269	-0.218253	1.08805	0.527476	0.800349	0	0	-0.0714286	-0.418769	0.632975	0.853787	0.985056	0	0
1.06771	-0.0460945	-0.140681	1.47688	-0.0767119	0.932808	0.722913	0.510318	-0.160163	-0.19907	0.53162	0.111236	0	0	0.146644	0.127188	-0.123752	0.0663739	0.0842919	0	0	-0.0744397	-0.0212156	-0.151389	0.287668	-0.218459	1.08977	0.525676	0.798313	0	0	-0.0723313	-0.417392	0.635795	0.851503	0.983023	0	0
1.07769	-0.0460856	-0.139062	1.47608	-0.0765561	0.932822	0.72112	0.512596	-0.156008	-0.201182	0.510242	0.10725	0	0	0.142719	0.127353	-0.124001	0.0663426	0.0864791	0	0	-0.0757181	-0.0212643	-0.15154	0.287932	-0.218745	1.09129	0.524058	0.796582	0	0	-0.07312	-0.415944	0.638793	0.849013	0.980799	0	0
1.08767	-0.0460961	-0.137569	1.47539	-0.0763978	0.932826	0.719327	0.514627	-0.151785	-0.202925	0.488646	0.103172	0	0	0.138806	0.127533	-0.124074	0.0660685	0.0884356	0	0	-0.0768142	-0.0212964	-0.151651	0.288048	-0.219105	1.09261	0.522616	0.795132	0	0	-0.0737971	-0.414451	0.641902	0.846395	0.978418	0	0
1.09764	-0.0461101	-0.136243	1.47486	-0.0762382	0.932817	0.717539	0.516444	-0.147482	-0.204246	0.466848	0.099049	0	0	0.13497	0.127704	-0.123952	0.0655882	0.0901772	0	0	-0.0776982	-0.0213075	-0.151734	0.288004	-0.219528	1.09373	0.521338	0.793928	0	0	-0.0743687	-0.412939	0.645051	0.843733	0.975923	0	0
1.10762	-0.0461135	-0.135121	1.47452	-0.0760784	0.932792	0.715762	0.518081	-0.143088	-0.20508	0.444885	0.0949191	0	0	0.131278	0.127846	-0.123619	0.0649458	0.0917282	0	0	-0.0783453	-0.0212945	-0.151806	0.287791	-0.22	1.09463	0.52021	0.792935	0	0	-0.0748436	-0.411435	0.648171	0.841101	0.973369	0	0
1.1176	-0.0460953	-0.134232	1.47442	-0.075919	0.932749	0.713999	0.519574	-0.138605	-0.205356	0.422811	0.0908158	0	0	0.127787	0.127942	-0.123065	0.0641912	0.0931206	0	0	-0.0787387	-0.0212558	-0.151881	0.287401	-0.220507	1.09529	0.519218	0.792115	0	0	-0.075231	-0.409964	0.651205	0.838568	0.97081	0	0
1.12758	-0.0460486	-0.133594	1.47458	-0.0757598	0.932687	0.712254	0.520957	-0.134046	-0.205012	0.400707	0.0867697	0	0	0.124547	0.127979	-0.122288	0.0633767	0.0943918	0	0	-0.0788713	-0.0211922	-0.151971	0.286832	-0.221033	1.09568	0.518348	0.791432	0	0	-0.0755398	-0.408549	0.654107	0.836181	0.968306	0	0
1.13756	-0.045971	-0.133214	1.47501	-0.0756004	0.932605	0.710529	0.522261	-0.129435	-0.204003	0.378676	0.0828103	0	0	0.121593	0.127952	-0.121295	0.0625554	0.0955826	0	0	-0.0787469	-0.0211071	-0.152089	0.286083	-0.221565	1.09579	0.51759	0.790852	0	0	-0.0757779	-0.407208	0.656848	0.833971	0.965917	0	0
1.14754	-0.0458644	-0.133085	1.4757	-0.07544	0.932502	0.708823	0.523514	-0.124811	-0.20231	0.356842	0.0789658	0	0	0.118944	0.127861	-0.1201	0.0617776	0.0967349	0	0	-0.0783816	-0.0210057	-0.152242	0.285159	-0.222089	1.09561	0.516934	0.790343	0	0	-0.0759503	-0.405956	0.65942	0.831946	0.963702	0	0
1.15752	-0.0457345	-0.133189	1.47666	-0.0752773	0.93238	0.707137	0.524738	-0.120225	-0.199955	0.335351	0.075264	0	0	0.116604	0.127711	-0.118721	0.0610894	0.0978895	0	0	-0.0778028	-0.0208955	-0.152432	0.28407	-0.222592	1.0951	0.516372	0.789872	0	0	-0.0760591	-0.404801	0.661833	0.830093	0.961727	0	0
1.16749	-0.045591	-0.133497	1.47785	-0.075111	0.932238	0.705468	0.525952	-0.115735	-0.196998	0.314366	0.071733	0	0	0.114562	0.127515	-0.117185	0.0605309	0.0990843	0	0	-0.0770483	-0.0207866	-0.152658	0.282832	-0.223067	1.09428	0.5159	0.78941	0	0	-0.0761046	-0.403748	0.664111	0.82838	0.96006	0	0
1.17747	-0.0454461	-0.133972	1.47925	-0.0749394	0.932079	0.703816	0.527174	-0.11141	-0.193546	0.294061	0.0684005	0	0	0.112792	0.127287	-0.115522	0.0601351	0.100352	0	0	-0.0761643	-0.0206905	-0.152916	0.281466	-0.223506	1.09315	0.515514	0.788929	0	0	-0.0760846	-0.402798	0.666289	0.826764	0.958777	0	0
1.18745	-0.0453128	-0.134568	1.48083	-0.0747609	0.931904	0.702176	0.528415	-0.107314	-0.189741	0.274612	0.065292	0	0	0.111261	0.127045	-0.113762	0.0599269	0.101722	0	0	-0.0752036	-0.0206193	-0.153191	0.27999	-0.223908	1.09169	0.515218	0.788411	0	0	-0.075989	-0.401949	0.668421	0.825189	0.957943	0	0
1.19743	-0.0452044	-0.13524	1.48254	-0.0745738	0.931715	0.700548	0.529689	-0.103512	-0.185753	0.256191	0.0624316	0	0	0.109924	0.126806	-0.111939	0.0599238	0.103213	0	0	-0.0742218	-0.0205857	-0.153462	0.278428	-0.224275	1.08992	0.515021	0.787851	0	0	-0.0758056	-0.401198	0.670564	0.823598	0.957623	0	0
1.20741	-0.0451334	-0.135942	1.48435	-0.0743766	0.931515	0.698928	0.531004	-0.10006	-0.181766	0.238957	0.0598397	0	0	0.108738	0.126588	-0.110085	0.0601355	0.104842	0	0	-0.0732751	-0.020602	-0.153705	0.276799	-0.224614	1.08783	0.514933	0.787249	0	0	-0.0755211	-0.400541	0.67277	0.821939	0.957879	0	0
1.21739	-0.0451101	-0.136628	1.48622	-0.0741677	0.931304	0.697315	0.532366	-0.0969981	-0.17796	0.223043	0.0575322	0	0	0.107654	0.126405	-0.108229	0.0605646	0.106617	0	0	-0.0724171	-0.0206793	-0.153892	0.275128	-0.224933	1.08543	0.514965	0.786612	0	0	-0.0751237	-0.399973	0.675081	0.820172	0.958764	0	0
1.22737	-0.0451421	-0.137261	1.48812	-0.0739457	0.931085	0.695707	0.533777	-0.094355	-0.174493	0.208549	0.0555179	0	0	0.106628	0.126268	-0.106396	0.0612081	0.108542	0	0	-0.0716963	-0.0208261	-0.153996	0.273437	-0.22524	1.08274	0.515129	0.785951	0	0	-0.0746045	-0.39949	0.677519	0.818274	0.960318	0	0
1.23734	-0.0452329	-0.137807	1.49002	-0.0737096	0.93086	0.694104	0.535229	-0.0921401	-0.171489	0.195536	0.0537975	0	0	0.105622	0.126182	-0.104608	0.062058	0.110614	0	0	-0.0711534	-0.0210477	-0.153988	0.271748	-0.225547	1.07978	0.515432	0.785282	0	0	-0.073958	-0.399089	0.680086	0.816242	0.962563	0	0
1.24732	-0.0453819	-0.138241	1.4919	-0.0734583	0.93063	0.692504	0.536709	-0.0903456	-0.169023	0.184015	0.052362	0	0	0.104601	0.126147	-0.102881	0.0631034	0.11283	0	0	-0.0708195	-0.0213449	-0.153845	0.270083	-0.225865	1.07659	0.515882	0.784624	0	0	-0.0731834	-0.398768	0.682763	0.814093	0.965493	0	0
1.2573	-0.0455845	-0.138548	1.49374	-0.0731911	0.930396	0.690908	0.538195	-0.0889482	-0.167118	0.173955	0.051193	0	0	0.10354	0.126159	-0.101225	0.0643318	0.115182	0	0	-0.0707148	-0.0217137	-0.153548	0.268462	-0.226202	1.07321	0.516479	0.784001	0	0	-0.0722856	-0.398525	0.68551	0.811865	0.969072	0	0
1.26728	-0.0458326	-0.138719	1.49553	-0.0729076	0.930161	0.689314	0.539656	-0.0879116	-0.165745	0.165275	0.0502632	0	0	0.102424	0.126209	-0.0996439	0.065731	0.117661	0	0	-0.0708472	-0.0221451	-0.153087	0.266905	-0.226566	1.06969	0.517218	0.783434	0	0	-0.0712755	-0.398359	0.688269	0.809611	0.973231	0	0
1.27726	-0.0461152	-0.138755	1.49728	-0.0726077	0.929926	0.687721	0.541057	-0.0871904	-0.164829	0.15786	0.0495394	0	0	0.101246	0.126283	-0.0981355	0.0672905	0.12026	0	0	-0.0712128	-0.0226248	-0.152467	0.265433	-0.226962	1.0661	0.518085	0.782942	0	0	-0.0701709	-0.398268	0.690967	0.807399	0.977863	0	0
1.28724	-0.0464197	-0.138664	1.49899	-0.0722915	0.92969	0.686128	0.54236	-0.0867346	-0.164264	0.151563	0.0489843	0	0	0.100009	0.126367	-0.096693	0.0690023	0.12297	0	0	-0.0717956	-0.0231341	-0.151704	0.264072	-0.227388	1.06252	0.519056	0.782535	0	0	-0.068996	-0.398251	0.693528	0.805297	0.982828	0	0
1.29722	-0.0467328	-0.138463	1.50066	-0.0719591	0.929456	0.684533	0.543524	-0.0864929	-0.16392	0.146222	0.0485605	0	0	0.0987229	0.126442	-0.0953044	0.0708621	0.125786	0	0	-0.0725695	-0.0236502	-0.150829	0.26285	-0.227836	1.05906	0.520095	0.78221	0	0	-0.0677803	-0.398305	0.695878	0.803371	0.987957	0	0
1.30719	-0.0470412	-0.13817	1.50233	-0.071611	0.929223	0.682935	0.544513	-0.0864172	-0.163667	0.141666	0.0482329	0	0	0.0974064	0.126493	-0.0939545	0.0728685	0.128703	0	0	-0.0734994	-0.0241477	-0.149889	0.261798	-0.228296	1.05585	0.521154	0.781944	0	0	-0.0665562	-0.398423	0.697953	0.801675	0.99306	0	0
1.31717	-0.0473314	-0.137812	1.504	-0.0712477	0.928992	0.681331	0.545296	-0.0864638	-0.163381	0.137731	0.0479718	0	0	0.0960825	0.126502	-0.0926269	0.0750244	0.13172	0	0	-0.0745453	-0.0245992	-0.148927	0.260934	-0.228759	1.05294	0.522198	0.78174	0	0	-0.0653485	-0.398598	0.699712	0.800242	0.997991	0	0
1.32715	-0.0475925	-0.137413	1.50569	-0.0708699	0.928763	0.679717	0.545851	-0.0865976	-0.162963	0.134269	0.0477565	0	0	0.0947767	0.126454	-0.0913051	0.0773317	0.134833	0	0	-0.0756645	-0.0249784	-0.147992	0.260267	-0.229217	1.05041	0.523195	0.781619	0	0	-0.0641799	-0.398816	0.701133	0.799084	1.00262	0	0
1.33713	-0.0478174	-0.137002	1.50743	-0.0704782	0.928535	0.678091	0.546166	-0.0867942	-0.162344	0.131163	0.0475774	0	0	0.0935137	0.12634	-0.0899719	0.0797894	0.138035	0	0	-0.0768123	-0.0252622	-0.147134	0.259802	-0.229661	1.04829	0.524112	0.781613	0	0	-0.063073	-0.399067	0.702213	0.798197	1.00682	0	0
1.34711	-0.048003	-0.136606	1.50923	-0.0700729	0.928307	0.676449	0.546241	-0.08704	-0.161495	0.128323	0.0474357	0	0	0.0923155	0.126152	-0.0886092	0.082392	0.141315	0	0	-0.0779455	-0.0254325	-0.146404	0.259545	-0.230078	1.04661	0.524915	0.781743	0	0	-0.0620468	-0.399335	0.702974	0.797554	1.01047	0	0
1.35709	-0.0481502	-0.136248	1.5111	-0.0696543	0.928079	0.674788	0.546087	-0.0873318	-0.16042	0.125696	0.0473415	0	0	0.0911986	0.125892	-0.0871992	0.0851285	0.144661	0	0	-0.0790233	-0.0254771	-0.145848	0.259493	-0.230457	1.04539	0.525569	0.782019	0	0	-0.0611161	-0.39961	0.703458	0.797119	1.01349	0	0
1.36707	-0.0482631	-0.135949	1.51306	-0.0692224	0.92785	0.673104	0.545721	-0.0876741	-0.159162	0.123259	0.0473114	0	0	0.0901728	0.125562	-0.0857253	0.0879806	0.148057	0	0	-0.0800101	-0.0253913	-0.145498	0.259637	-0.230788	1.04464	0.526045	0.78243	0	0	-0.0602906	-0.399879	0.703718	0.796846	1.01582	0	0
1.37704	-0.0483486	-0.135725	1.5151	-0.0687771	0.927619	0.671393	0.545169	-0.0880768	-0.157784	0.121015	0.0473644	0	0	0.0892394	0.125169	-0.0841729	0.0909224	0.151487	0	0	-0.0808764	-0.0251777	-0.145373	0.259962	-0.231064	1.04435	0.526322	0.782947	0	0	-0.0595752	-0.400133	0.70381	0.796692	1.01743	0	0
1.38702	-0.0484152	-0.13559	1.51722	-0.0683179	0.927384	0.669653	0.544458	-0.0885515	-0.156369	0.118991	0.0475184	0	0	0.0883918	0.124723	-0.0825302	0.09392	0.154933	0	0	-0.0815994	-0.0248463	-0.145474	0.26044	-0.231283	1.04448	0.526389	0.78353	0	0	-0.0589715	-0.400365	0.703787	0.796619	1.01831	0	0
1.397	-0.0484723	-0.135553	1.51942	-0.0678442	0.927144	0.667881	0.543617	-0.0891091	-0.155005	0.117223	0.0477856	0	0	0.087616	0.124235	-0.0807886	0.0969328	0.158376	0	0	-0.0821628	-0.0244129	-0.145781	0.261038	-0.23145	1.04499	0.526244	0.784128	0	0	-0.0584783	-0.400572	0.703684	0.796607	1.0185	0	0
1.40698	-0.0485287	-0.135617	1.52169	-0.0673551	0.926899	0.666073	0.542676	-0.0897559	-0.153773	0.115752	0.0481693	0	0	0.0868924	0.123717	-0.0789433	0.0999155	0.161796	0	0	-0.0825564	-0.0238979	-0.146261	0.261715	-0.231573	1.04581	0.525897	0.784687	0	0	-0.0580929	-0.400751	0.703522	0.796652	1.01805	0	0
1.41696	-0.0485917	-0.135788	1.52401	-0.0668494	0.926647	0.664227	0.541661	-0.0904922	-0.152743	0.114613	0.0486605	0	0	0.0861977	0.123178	-0.0769928	0.10282	0.165174	0	0	-0.0827742	-0.0233245	-0.146862	0.262423	-0.231663	1.04686	0.525367	0.785155	0	0	-0.0578109	-0.400905	0.703303	0.796767	1.01702	0	0
1.42694	-0.0486667	-0.136066	1.52636	-0.0663258	0.926387	0.662341	0.540596	-0.0913098	-0.151965	0.113833	0.0492367	0	0	0.0855076	0.122626	-0.074939	0.105596	0.168491	0	0	-0.0828145	-0.022716	-0.147521	0.263111	-0.231739	1.04806	0.524684	0.785484	0	0	-0.0576263	-0.401034	0.703013	0.796979	1.01546	0	0
1.43692	-0.0487555	-0.136452	1.52872	-0.0657829	0.926119	0.660415	0.539501	-0.0921917	-0.151465	0.11342	0.04986	0	0	0.0847989	0.122065	-0.0727873	0.1082	0.171729	0	0	-0.0826779	-0.0220936	-0.148166	0.263729	-0.231818	1.04932	0.523884	0.785635	0	0	-0.0575319	-0.401143	0.702626	0.797328	1.01345	0	0
1.4469	-0.0488553	-0.136948	1.53105	-0.0652189	0.925842	0.658446	0.538391	-0.0931106	-0.151245	0.113362	0.0504767	0	0	0.0840541	0.121493	-0.0705482	0.110597	0.174877	0	0	-0.0823673	-0.0214724	-0.14873	0.264232	-0.231921	1.05054	0.523003	0.785582	0	0	-0.0575202	-0.401232	0.702112	0.797852	1.01103	0	0
1.45687	-0.048959	-0.137555	1.53334	-0.064632	0.925556	0.656435	0.537278	-0.0940306	-0.151285	0.113628	0.0510198	0	0	0.083261	0.120904	-0.0682362	0.112761	0.177929	0	0	-0.0818872	-0.0208609	-0.149148	0.264586	-0.232062	1.05166	0.522075	0.785316	0	0	-0.0575823	-0.401304	0.701446	0.798585	1.00823	0	0
1.46685	-0.049056	-0.138272	1.53557	-0.0640204	0.925262	0.654382	0.536172	-0.0949097	-0.151548	0.114168	0.0514121	0	0	0.082414	0.120285	-0.065868	0.11468	0.180879	0	0	-0.0812434	-0.0202608	-0.149363	0.264762	-0.232255	1.05261	0.521135	0.784838	0	0	-0.0577077	-0.401358	0.700611	0.799549	1.00506	0	0
1.47683	-0.0491325	-0.1391	1.53771	-0.0633823	0.92496	0.652288	0.53508	-0.0957025	-0.151987	0.114923	0.0515704	0	0	0.0815143	0.11962	-0.0634623	0.116354	0.183727	0	0	-0.0804442	-0.0196664	-0.149332	0.264747	-0.23251	1.05336	0.520212	0.784161	0	0	-0.0578845	-0.401388	0.699605	0.800746	1.00155	0	0
1.48681	-0.0491732	-0.140038	1.53973	-0.062716	0.924652	0.650155	0.534009	-0.0963634	-0.152548	0.115826	0.0514113	0	0	0.0805687	0.118892	-0.0610389	0.117793	0.186471	0	0	-0.0794998	-0.0190659	-0.149024	0.264538	-0.232832	1.05388	0.519327	0.78331	0	0	-0.0580997	-0.401389	0.698444	0.802159	0.997705	0	0
1.49679	-0.0491622	-0.141084	1.54163	-0.0620201	0.924341	0.647986	0.532968	-0.0968509	-0.153184	0.116811	0.050857	0	0	0.0795885	0.118083	-0.0586176	0.119019	0.189114	0	0	-0.078423	-0.0184433	-0.148427	0.264146	-0.233221	1.05417	0.518497	0.782318	0	0	-0.0583397	-0.401351	0.697157	0.803746	0.993553	0	0
1.50677	-0.0490853	-0.142232	1.5434	-0.0612936	0.924028	0.645784	0.531963	-0.0971308	-0.153851	0.11782	0.049842	0	0	0.0785879	0.117173	-0.0562174	0.120064	0.191656	0	0	-0.0772297	-0.0177804	-0.147542	0.26359	-0.233671	1.05422	0.51773	0.781221	0	0	-0.0585913	-0.401265	0.695791	0.80545	0.989122	0	0
1.51675	-0.0489316	-0.143476	1.54502	-0.0605363	0.923717	0.643552	0.531004	-0.0971801	-0.15452	0.118806	0.0483194	0	0	0.0775816	0.116151	-0.0538556	0.120962	0.194101	0	0	-0.0759381	-0.01706	-0.146384	0.262901	-0.234174	1.05408	0.517026	0.78006	0	0	-0.058843	-0.401119	0.694398	0.807204	0.984452	0	0
1.52672	-0.0486946	-0.144805	1.5465	-0.0597488	0.92341	0.641295	0.530098	-0.0969892	-0.155174	0.11974	0.0462661	0	0	0.0765829	0.115009	-0.0515456	0.121753	0.196451	0	0	-0.0745688	-0.0162681	-0.144982	0.262111	-0.234718	1.05377	0.51638	0.778871	0	0	-0.0590861	-0.400906	0.69303	0.808938	0.97959	0	0
1.5367	-0.0483734	-0.146206	1.54784	-0.0589324	0.923109	0.639017	0.529249	-0.0965634	-0.155806	0.120606	0.0436869	0	0	0.0756021	0.113746	-0.0492964	0.122471	0.198709	0	0	-0.073143	-0.0153961	-0.143372	0.261258	-0.235291	1.05333	0.515782	0.777681	0	0	-0.059316	-0.400622	0.691731	0.810591	0.974585	0	0
1.54668	-0.0479732	-0.147666	1.54905	-0.0580898	0.922817	0.636722	0.528462	-0.0959224	-0.156423	0.121404	0.0406162	0	0	0.0746451	0.112369	-0.0471117	0.12315	0.200881	0	0	-0.0716818	-0.0144428	-0.141597	0.260376	-0.235878	1.05283	0.51522	0.776508	0	0	-0.0595325	-0.400265	0.69053	0.812118	0.969487	0	0
1.55666	-0.0475048	-0.149168	1.55015	-0.0572245	0.922534	0.634414	0.527734	-0.0950984	-0.157033	0.122148	0.0371161	0	0	0.0737133	0.110893	-0.0449894	0.123814	0.202975	0	0	-0.0702035	-0.0134144	-0.139703	0.259493	-0.236467	1.05229	0.514679	0.775359	0	0	-0.0597395	-0.399841	0.689432	0.813499	0.964346	0	0
1.56664	-0.0469834	-0.150699	1.55116	-0.0563411	0.92226	0.632098	0.527058	-0.0941329	-0.157645	0.122853	0.0332723	0	0	0.072804	0.109339	-0.0429218	0.124479	0.205003	0	0	-0.0687222	-0.012324	-0.137731	0.258632	-0.237051	1.05176	0.514146	0.774227	0	0	-0.059945	-0.399361	0.688421	0.814739	0.959212	0	0
1.57662	-0.0464257	-0.152246	1.5521	-0.0554447	0.921993	0.629775	0.526422	-0.0930706	-0.158267	0.123538	0.0291842	0	0	0.0719115	0.107731	-0.0408967	0.125154	0.206981	0	0	-0.0672462	-0.0111886	-0.135715	0.257798	-0.237624	1.05125	0.513613	0.773109	0	0	-0.0601523	-0.398838	0.687478	0.815864	0.954102	0	0
1.5866	-0.0458476	-0.1538	1.553	-0.0545407	0.92173	0.62745	0.525812	-0.0919541	-0.158898	0.124215	0.0249534	0	0	0.0710291	0.106091	-0.0388987	0.125838	0.208927	0	0	-0.0657776	-0.0100268	-0.133678	0.256987	-0.238189	1.05077	0.513078	0.771999	0	0	-0.0603618	-0.39829	0.686579	0.816913	0.949015	0	0
1.59657	-0.0452624	-0.155355	1.55389	-0.0536337	0.92147	0.625124	0.525212	-0.0908179	-0.159535	0.124892	0.0206681	0	0	0.0701503	0.10444	-0.0369121	0.126527	0.210859	0	0	-0.0643135	-0.00885494	-0.131636	0.256187	-0.238751	1.05029	0.512543	0.770893	0	0	-0.0605727	-0.397732	0.685697	0.817931	0.943939	0	0
