Coordinates
version=1
nRows=192
nColumns=38
inDegrees=no

Units are S.I. units (second, meters, Newtons, ...)
If the header above contains a line with 'inDegrees', this indicates whether rotational values are in degrees (yes) or radians (no).

endheader
time	pelvis_tilt_moment	pelvis_list_moment	pelvis_rotation_moment	pelvis_tx_force	pelvis_ty_force	pelvis_tz_force	hip_flexion_r_moment	hip_adduction_r_moment	hip_rotation_r_moment	knee_angle_r_moment	ankle_angle_r_moment	subtalar_angle_r_moment	mtp_angle_r_moment	hip_flexion_l_moment	hip_adduction_l_moment	hip_rotation_l_moment	knee_angle_l_moment	ankle_angle_l_moment	subtalar_angle_l_moment	mtp_angle_l_moment	lumbar_extension_moment	lumbar_bending_moment	lumbar_rotation_moment	arm_flex_r_moment	arm_add_r_moment	arm_rot_r_moment	elbow_flex_r_moment	pro_sup_r_moment	wrist_flex_r_moment	wrist_dev_r_moment	arm_flex_l_moment	arm_add_l_moment	arm_rot_l_moment	elbow_flex_l_moment	pro_sup_l_moment	wrist_flex_l_moment	wrist_dev_l_moment
2.02	0	0	0	0	0	0	0	0	0	0	0	0	0	0	0	0	0	0	0	0	0	0	0	0	0	0	0	0	0	0	0	0	0	0	0	0	0
2.02998	34.7815	19.7074	24.4394	17.1096	624.002	10.4331	16.0397	-7.25142	0.777172	-7.17262	-0.907823	-0.124882	0.0307268	-47.2582	4.12956	0.598333	16.4647	-6.49138	-0.0579573	0.0281061	-27.2814	-13.7437	4.7688	0.391151	-0.105092	0.00398506	-0.326709	-0.00337979	-0.0412757	-0.0256139	-0.662608	-2.4848	-0.296095	-0.731352	-0.0398969	-0.0732745	-0.0760723
2.03997	39.2391	20.519	32.0838	9.84351	609.714	16.0334	17.1383	-7.76663	0.596339	-7.47473	-0.973419	-0.178461	0.0347173	-54.5183	4.56068	0.485189	19.523	-5.35764	-0.115662	0.0339667	-20.6105	-16.9381	10.0983	1.60708	1.00856	0.175104	0.146333	0.0217	0.0115009	0.0147989	-0.553636	-3.27515	-0.438197	-0.614712	-0.0490848	-0.0512565	-0.11701
2.04995	43.5248	22.1916	39.5495	8.75606	595.338	18.1066	19.6179	-8.12756	0.308621	-7.9563	-1.06496	-0.23291	0.0405056	-62.0229	5.40061	0.5252	22.8542	-4.4637	-0.0389456	0.0419863	-15.3669	-20.3677	14.6212	2.64845	1.82104	0.306136	0.532319	0.0419471	0.0536591	0.0444571	-0.528036	-3.86646	-0.548816	-0.5349	-0.0571235	-0.0350738	-0.147228
2.05993	48.1472	21.8793	45.7173	18.8797	584.285	14.3428	23.6835	-7.70658	0.114008	-8.47305	-1.18019	-0.243806	0.0473407	-67.8226	5.86379	0.796744	25.5508	-3.76442	0.162812	0.0514169	-15.3297	-23.133	17.6452	3.10778	2.14659	0.372783	0.656919	0.0511625	0.0635259	0.0606057	-0.766871	-4.18851	-0.614695	-0.601736	-0.0655135	-0.0407799	-0.16182
2.06992	48.4068	20.4625	48.9797	26.239	563.874	7.73005	27.4312	-7.60919	-0.190402	-9.04866	-1.312	-0.277696	0.0552381	-70.1232	5.62194	1.13757	26.9042	-3.22801	0.475304	0.060493	-14.7119	-24.6618	19.3542	3.40107	2.1099	0.387552	0.727119	0.0553015	0.0687537	0.0627202	-0.987697	-4.1486	-0.625947	-0.64142	-0.0690755	-0.0441005	-0.161255
2.0799	44.2344	14.615	49.1968	46.0206	543.14	-2.45723	32.8235	-6.29258	-0.54271	-9.79761	-1.47186	-0.268563	0.0644153	-67.1092	4.89219	1.53109	26.3865	-2.92618	0.906063	0.0687205	-19.188	-25.4309	20.4495	3.12966	1.7771	0.368446	0.545855	0.0511053	0.0421709	0.0604118	-1.59166	-3.98728	-0.618259	-0.870548	-0.0759843	-0.0734936	-0.152238
2.08988	32.7442	5.00072	45.4864	65.9965	511.678	-13.0779	38.3278	-4.41167	-1.17383	-10.7606	-1.65167	-0.257922	0.0745891	-58.4111	3.20612	1.81927	23.9637	-2.90387	1.40199	0.0743946	-23.7561	-24.9972	21.2181	2.69261	1.2848	0.330494	0.305606	0.0443167	0.0091914	0.0541885	-2.31146	-3.65845	-0.588401	-1.13185	-0.0819965	-0.10703	-0.136875
2.09986	18.8575	-8.19884	38.9201	75.916	464.789	-21.824	41.7811	-1.97621	-1.81782	-11.4429	-1.80941	-0.199524	0.0823077	-46.0918	-0.474317	2.0448	20.4193	-3.23458	1.87527	0.0762613	-27.8978	-22.8275	20.7578	2.07711	0.608078	0.260744	0.0221012	0.0336694	-0.0268575	0.0406349	-2.93622	-3.10631	-0.522075	-1.35221	-0.0836818	-0.136775	-0.113082
2.10985	2.80944	-23.9895	30.6353	74.659	403.127	-24.7446	43.6699	1.12027	-2.44902	-12.045	-1.94466	-0.0824934	0.0873812	-31.3146	-6.04469	2.20802	16.3046	-3.96278	2.24947	0.073122	-30.664	-19.8817	19.5851	1.42987	-0.0665482	0.183336	-0.243467	0.0224468	-0.0589038	0.0249956	-3.42592	-2.49051	-0.441713	-1.51321	-0.0822585	-0.159299	-0.0872008
2.11983	-16.5648	-40.5431	21.5008	62.4158	328.864	-19.7917	45.1232	4.74911	-3.13321	-12.9252	-2.05223	0.0762754	0.0902243	-15.1955	-12.7611	2.26006	12.1548	-5.06869	2.44939	0.0633987	-30.5824	-17.0458	18.4726	0.948068	-0.542634	0.126236	-0.410745	0.0148543	-0.0775106	0.013111	-3.75695	-1.97407	-0.372382	-1.59368	-0.0791755	-0.170194	-0.0663276
2.12981	-35.4978	-56.9039	12.644	46.2195	252.128	-9.26393	47.5135	9.56059	-3.74887	-14.0592	-2.0803	0.296245	0.0892486	0.200667	-19.6957	2.31926	8.79727	-6.51712	2.43273	0.0463158	-31.348	-14.8357	16.8032	0.303049	-0.956789	0.0696495	-0.631201	0.00563688	-0.102024	0.00195269	-4.08597	-1.57776	-0.310403	-1.69909	-0.0766545	-0.184538	-0.0473594
2.1398	-59.6348	-73.0384	2.82918	18.1245	167.751	9.78418	50.8245	15.1833	-4.71752	-15.9461	-2.0599	0.533779	0.086191	14.75	-26.5077	2.22154	6.55053	-8.2213	2.16091	0.0228878	-26.6038	-12.3818	16.2907	0.111223	-0.944776	0.0687304	-0.626708	0.00587643	-0.0972468	0.00247362	-4.1706	-1.42858	-0.287128	-1.66472	-0.0730517	-0.177478	-0.0429981
2.14978	-81.2602	-86.3335	-5.80474	-1.10433	96.3564	27.0391	57.5046	21.7281	-5.73801	-18.2368	-1.85285	0.791153	0.0774349	26.6352	-30.6091	2.13566	6.03747	-10.2374	1.75051	-0.00164302	-26.4217	-10.7202	15.6842	-0.486563	-0.823626	0.080821	-0.796822	0.00246634	-0.115047	0.0101873	-4.47928	-1.58405	-0.298053	-1.78659	-0.0752535	-0.191204	-0.0463422
2.15976	-102.69	-90.3115	-12.4744	-34.3505	21.4974	42.0708	63.669	25.733	-6.52432	-20.4545	-1.49223	0.980817	0.063365	35.3362	-30.7453	1.72834	7.4715	-12.4809	1.26733	-0.0234659	-20.9391	-9.58954	15.0875	-0.699332	-0.448334	0.116969	-0.768178	0.00528948	-0.106044	0.0202171	-4.43612	-1.84789	-0.319943	-1.73584	-0.0733914	-0.180792	-0.0561316
2.16975	-119.642	-90.4214	-18.2043	-70.4316	-45.5916	52.4808	69.6099	28.9181	-7.16807	-22.3231	-0.918222	1.14071	0.0414486	40.5475	-28.399	1.20064	10.6171	-14.8382	0.72978	-0.0388524	-16.1921	-7.45097	13.5584	-1.07797	-0.0991879	0.141169	-0.785892	0.00528794	-0.101155	0.02873	-4.25035	-2.12383	-0.335726	-1.66028	-0.069595	-0.16885	-0.0662679
2.17973	-130.77	-86.0927	-22.8168	-111.121	-105.586	56.5397	73.7048	30.3897	-7.50701	-23.5716	-0.171891	1.23074	0.0129122	42.3742	-23.4573	0.471489	15.2692	-17.1563	0.179505	-0.0463574	-11.374	-4.13047	10.9782	-1.52822	0.153674	0.143944	-0.814395	0.00265965	-0.0959171	0.0323999	-3.8482	-2.30259	-0.33197	-1.51908	-0.0620795	-0.150537	-0.0733558
2.18971	-132.455	-78.4441	-26.2898	-146.676	-151.186	50.0512	75.9356	29.9424	-7.29655	-23.9945	0.75663	1.21205	-0.0220245	41.1329	-16.4899	-0.350212	20.9362	-19.2764	-0.375579	-0.0456424	-11.0716	0.7451	6.78296	-2.39923	0.100599	0.0987705	-1.02388	-0.00882053	-0.112663	0.0275098	-3.41299	-2.32452	-0.297517	-1.43033	-0.0530743	-0.143527	-0.0720735
2.19969	-129.044	-67.9052	-28.2344	-179.859	-189.562	38.7725	74.8389	27.221	-6.54971	-23.7854	1.71492	1.05069	-0.0576464	39.2948	-8.05209	-1.4769	26.7338	-20.9855	-0.939014	-0.0391293	-10.9568	5.73613	2.70238	-3.13014	0.0164327	0.0506601	-1.19321	-0.0197107	-0.125338	0.0215789	-2.868	-2.3073	-0.26094	-1.30408	-0.0433151	-0.132857	-0.0705999
2.20968	-122.904	-54.9488	-28.8937	-202.44	-216.114	22.915	72.0552	22.6085	-5.39998	-23.5216	2.65734	0.74239	-0.0906216	38.2518	1.72641	-2.90743	31.9248	-22.1588	-1.4947	-0.0292245	-12.6891	10.2529	-0.821354	-3.78617	-0.0796233	0.00691408	-1.36756	-0.0302585	-0.140786	0.0171113	-2.37385	-2.3371	-0.235778	-1.21325	-0.0358958	-0.127429	-0.0709108
2.21966	-116.9	-41.9249	-28.1402	-219.339	-235.274	9.22949	67.4391	17.298	-4.07337	-23.6047	3.48005	0.341809	-0.117323	38.3028	11.2749	-4.50472	36.2553	-22.7404	-2.07614	-0.0180425	-13.1551	13.2531	-3.07076	-4.0415	-0.0662689	-0.013906	-1.41122	-0.0353139	-0.142224	0.0156571	-1.8557	-2.43101	-0.229352	-1.0861	-0.0299783	-0.115788	-0.0753954
2.22964	-110.295	-30.2175	-26.7863	-225.677	-241.287	-3.9076	62.7893	12.189	-2.848	-24.39	4.16949	-0.0893084	-0.136699	38.8166	19.9722	-6.0348	39.6301	-22.7653	-2.6947	-0.00667083	-15.2381	15.2753	-4.61359	-4.19113	-0.0868611	-0.0317656	-1.45267	-0.039566	-0.145625	0.0141548	-1.44971	-2.54524	-0.231517	-1.00511	-0.0266966	-0.109823	-0.080051
2.23963	-99.3985	-19.74	-25.1979	-207.006	-222.122	-21.9469	60.7343	7.49064	-1.98689	-25.9679	4.7546	-0.490631	-0.149425	39.3261	27.9342	-7.3436	41.8658	-22.3015	-3.34484	0.00426828	-26.3694	17.1553	-6.19263	-4.81657	-0.334938	-0.0724044	-1.76299	-0.0518578	-0.186257	0.011122	-1.46115	-2.72768	-0.241992	-1.17072	-0.0308301	-0.138434	-0.0816676
2.24961	-89.3892	-11.4463	-22.813	-190.336	-198.894	-32.1133	57.0673	4.03064	-1.47548	-27.837	5.00621	-0.78781	-0.150444	39.7098	33.8928	-8.35918	43.2213	-21.4019	-4.0437	0.0138996	-34.1956	16.7304	-6.84128	-4.92457	-0.52666	-0.101741	-1.88598	-0.0578565	-0.204848	0.00519503	-1.37567	-2.85377	-0.252086	-1.24232	-0.033723	-0.152457	-0.0822311
2.25959	-79.3954	-5.03209	-20.3448	-170.306	-167.465	-39.6733	52.9286	1.36904	-1.31266	-29.8303	4.96669	-0.968045	-0.141691	40.0352	38.2141	-9.03168	43.577	-20.1258	-4.76682	0.0218586	-41.5844	15.2478	-7.03938	-4.81801	-0.762518	-0.133383	-1.94759	-0.0619334	-0.216925	-0.00404703	-1.29902	-2.90949	-0.257192	-1.2959	-0.0365863	-0.163248	-0.0802165
2.26958	-69.7367	-0.646226	-18.1333	-149.403	-130.494	-44.5022	48.1104	-0.312489	-1.46318	-31.6093	4.68503	-1.02872	-0.126303	40.2061	40.9894	-9.36119	43.0456	-18.5276	-5.49387	0.0281129	-47.7035	12.9963	-6.87182	-4.48954	-1.02555	-0.166135	-1.93296	-0.0637248	-0.220015	-0.0162417	-1.19134	-2.88024	-0.255119	-1.30972	-0.0385406	-0.167884	-0.0758241
2.27956	-61.0026	1.73256	-16.4367	-129.498	-90.4864	-46.1515	42.6001	-0.877995	-1.87007	-32.9698	4.23002	-0.986838	-0.107533	40.2375	42.4803	-9.39324	41.772	-16.6576	-6.19908	0.03279	-51.7468	10.2045	-6.37706	-3.93262	-1.27563	-0.195677	-1.82663	-0.0626629	-0.211649	-0.0300561	-1.01273	-2.77602	-0.247012	-1.2638	-0.038963	-0.163667	-0.0701873
2.28954	-53.8211	2.23484	-15.1988	-113.255	-49.9383	-44.5152	36.2912	-0.597994	-2.33332	-33.8473	3.66013	-0.878977	-0.0874776	40.2031	42.8101	-9.18116	39.9015	-14.5603	-6.86477	0.0360823	-52.7031	7.06429	-5.49175	-3.12415	-1.45003	-0.214091	-1.60512	-0.0577082	-0.188394	-0.0432349	-0.723736	-2.62233	-0.236791	-1.13606	-0.037383	-0.147454	-0.0652775
2.29952	-48.843	0.380531	-14.6378	-103.659	-11.0068	-38.9414	29.1644	0.459194	-2.74471	-34.245	3.01313	-0.731588	-0.0672368	40.0995	41.8701	-8.76397	37.6122	-12.2823	-7.48321	0.0382561	-49.5248	3.84273	-4.04915	-2.0427	-1.46995	-0.210387	-1.24488	-0.0475807	-0.14683	-0.0525558	-0.297522	-2.4613	-0.23137	-0.90876	-0.0336414	-0.116514	-0.0639492
2.30951	-44.5819	-3.07453	-14.9423	-94.212	30.2726	-32.6972	22.6207	1.76546	-3.11072	-34.2564	2.36178	-0.566063	-0.0483982	39.7854	40.0045	-8.18271	35.0238	-9.88363	-8.0355	0.039613	-45.6208	1.3986	-2.40158	-0.995494	-1.39855	-0.19308	-0.880625	-0.036514	-0.104243	-0.0570517	0.127903	-2.34771	-0.234671	-0.678195	-0.0301456	-0.0848571	-0.0662161
2.31949	-38.7439	-7.14774	-15.6986	-75.4773	78.8601	-27.816	18.2835	2.9611	-3.52499	-33.9148	1.77577	-0.391769	-0.0324584	39.1713	37.624	-7.496	32.2533	-7.43127	-8.50232	0.0404009	-45.8557	-0.0130408	-0.878864	-0.325347	-1.32412	-0.173706	-0.678977	-0.0296029	-0.0828335	-0.0567009	0.340529	-2.36366	-0.253202	-0.580787	-0.0307393	-0.0718228	-0.0712872
2.32947	-34.4023	-12.5295	-17.5106	-64.5781	122.997	-23.2353	14.1318	4.18573	-3.82508	-33.1073	1.21184	-0.223151	-0.0181149	37.6872	34.4658	-6.70798	29.6783	-4.99316	-8.87855	0.040695	-42.9806	-0.238653	0.846794	0.404632	-1.13741	-0.138696	-0.414921	-0.0202269	-0.0518339	-0.0518164	0.647801	-2.39237	-0.276238	-0.421415	-0.0295582	-0.0497893	-0.0804043
2.33946	-29.8942	-18.1058	-20.0502	-54.7023	166.229	-21.1277	11.3458	5.20687	-4.10859	-31.8814	0.716977	-0.0631055	-0.00615608	35.1281	31.1065	-5.85918	27.4102	-2.63238	-9.14224	0.0406315	-40.6258	0.924734	2.39357	0.930641	-0.944612	-0.102646	-0.216962	-0.0126951	-0.0281041	-0.0441837	0.89859	-2.46644	-0.303787	-0.299096	-0.0290451	-0.0328799	-0.0916225
2.34944	-24.6503	-22.949	-22.7271	-41.3423	209.991	-21.6483	10.54	5.97438	-4.42941	-30.3344	0.327643	0.0841002	0.00282499	31.7316	28.0539	-4.98944	25.4527	-0.386752	-9.28051	0.0402538	-41.0439	3.11451	3.4839	1.1155	-0.826386	-0.0773597	-0.158628	-0.00961808	-0.0214657	-0.0363911	0.995416	-2.60115	-0.334076	-0.274529	-0.030679	-0.0295497	-0.102728
2.35942	-16.2144	-26.6799	-24.8294	-19.16	256.987	-22.4679	11.4382	6.66876	-4.7623	-28.6084	0.0496566	0.213746	0.00893538	28.0682	25.4344	-4.11549	23.8112	1.7252	-9.29704	0.0398283	-47.5564	5.43244	4.02093	0.834694	-0.841555	-0.07076	-0.322829	-0.0134583	-0.0440396	-0.0300988	0.793032	-2.84599	-0.370879	-0.433569	-0.037259	-0.051652	-0.111895
2.36941	-10.279	-29.275	-26.3309	-5.9122	294.478	-25.7725	11.1804	6.94622	-4.73277	-26.4829	-0.162438	0.293447	0.0132396	24.6855	23.5217	-3.33687	22.5782	3.71403	-9.19951	0.0393101	-50.9459	7.8615	4.64171	0.663842	-0.838325	-0.0616408	-0.418086	-0.0152179	-0.0560673	-0.024821	0.659597	-3.07269	-0.405074	-0.534371	-0.0418815	-0.0643494	-0.121993
2.37939	-5.98111	-30.1946	-26.5514	3.46208	322.745	-30.542	9.87263	6.62172	-4.28084	-24.1311	-0.290395	0.312906	0.0154717	22.2975	22.5086	-2.68536	21.5962	5.61654	-9.00386	0.0387207	-53.141	9.7689	5.28915	0.545163	-0.831723	-0.0524096	-0.485803	-0.0160697	-0.0640451	-0.0207785	0.53011	-3.29885	-0.438139	-0.618861	-0.0459901	-0.0738694	-0.131775
2.38937	-2.07737	-29.2095	-25.4186	10.682	341.567	-35.8757	7.53406	5.72587	-3.44714	-21.558	-0.340359	0.277592	0.0158303	20.7318	22.2586	-2.15022	20.9018	7.47732	-8.73348	0.0380623	-55.1498	10.8904	5.70247	0.427091	-0.872727	-0.0516166	-0.554886	-0.0173739	-0.0721218	-0.0200039	0.383333	-3.48212	-0.462595	-0.703311	-0.0495963	-0.0831284	-0.13825
2.39935	-0.0964404	-26.8392	-23.4716	11.8194	346.744	-43.0966	4.32971	4.28717	-2.35838	-18.6845	-0.315769	0.19901	0.0143428	19.4133	22.586	-1.75222	20.5611	9.35519	-8.41435	0.0371388	-54.5099	11.707	5.93841	0.431663	-0.936072	-0.055929	-0.555688	-0.0172488	-0.070533	-0.0222377	0.338129	-3.55333	-0.471751	-0.71708	-0.0503087	-0.0826161	-0.141517
2.40934	2.79578	-22.6758	-20.5103	15.6019	344.764	-49.1785	0.38738	2.54803	-1.06813	-15.6501	-0.243947	0.090276	0.0118702	19.2615	23.6646	-1.48168	20.297	11.3137	-8.05617	0.0362322	-55.7639	11.6447	5.86224	0.324281	-1.04847	-0.0692144	-0.615905	-0.0191421	-0.0774019	-0.0266411	0.194891	-3.61531	-0.475757	-0.782782	-0.0521837	-0.0895126	-0.141086
2.41932	6.49783	-17.8415	-17.2129	20.1734	335.676	-52.9639	-4.20137	0.985934	0.224409	-12.3573	-0.144187	-0.0236707	0.00859653	19.8358	25.0809	-1.31077	20.1661	13.4092	-7.68228	0.0354049	-58.043	10.9146	5.70275	0.162404	-1.1488	-0.0821694	-0.704525	-0.0216587	-0.0886465	-0.0308189	-0.0143656	-3.69446	-0.480324	-0.880186	-0.0550537	-0.100799	-0.139339
2.4293	8.75998	-13.0969	-14.1221	18.1605	318.254	-57.8886	-9.23257	-0.302981	1.32488	-8.70665	-0.0161687	-0.127585	0.00420883	19.8974	26.8432	-1.30749	20.2944	15.6829	-7.3031	0.0345955	-57.3731	10.2894	5.79315	0.16178	-1.15458	-0.0821623	-0.703063	-0.0210715	-0.0876212	-0.0325002	-0.10039	-3.75696	-0.486004	-0.900698	-0.0559125	-0.10125	-0.139942
2.43929	12.8833	-8.62487	-11.4374	20.5288	299.06	-58.5014	-14.7212	-0.627215	2.16646	-4.87685	0.10136	-0.200313	-0.000490696	21.1359	28.8041	-1.37304	20.3053	18.1991	-6.93589	0.0341799	-59.4307	9.06547	5.78727	0.00935962	-1.14998	-0.0817387	-0.780013	-0.0223827	-0.0978936	-0.0330124	-0.327446	-3.88964	-0.498258	-1.00037	-0.0594053	-0.112669	-0.139913
2.44927	16.0077	-5.84486	-9.88631	16.5198	270.226	-59.2516	-20.4206	0.129342	2.60097	-0.667542	0.218081	-0.230671	-0.00617573	21.7698	30.6708	-1.54652	20.4857	20.9977	-6.60288	0.0336127	-58.4382	8.28539	6.0707	0.00493885	-1.03251	-0.0653726	-0.768224	-0.0205311	-0.0961054	-0.0295926	-0.423765	-4.0002	-0.512162	-1.02077	-0.0608107	-0.113275	-0.142757
2.45925	17.7106	-5.05041	-10.0195	1.52635	229.459	-64.8397	-26.33	1.90157	2.59606	3.97511	0.328601	-0.218627	-0.012917	20.696	32.4808	-1.91185	20.9437	24.1086	-6.31926	0.0327323	-52.1125	8.90169	6.52	0.220149	-0.823113	-0.0362197	-0.617414	-0.0147407	-0.0745583	-0.022953	-0.249546	-3.99207	-0.516823	-0.891275	-0.0572857	-0.0941602	-0.147954
2.46924	23.5421	-4.29789	-11.1859	-1.81731	197.544	-65.2552	-32.853	4.9995	2.41	8.58209	0.360277	-0.164455	-0.0186036	21.7693	34.726	-2.30581	20.9014	27.5722	-6.08958	0.032724	-52.0363	9.34651	6.26634	0.0199813	-0.741327	-0.0278482	-0.673031	-0.0156522	-0.0809866	-0.0190384	-0.353133	-4.05211	-0.521186	-0.932918	-0.0581624	-0.0994143	-0.148449
2.47922	29.6557	-5.01317	-13.2237	-6.66461	164.644	-63.9223	-39.8363	9.13452	2.07114	13.3189	0.315467	-0.0740535	-0.0233247	22.9627	36.8997	-2.72742	20.7619	31.4065	-5.94234	0.0327381	-51.007	9.8361	6.05529	-0.156305	-0.599549	-0.0120958	-0.705881	-0.0156279	-0.0842788	-0.0129729	-0.415465	-4.123	-0.527686	-0.952035	-0.0584736	-0.101744	-0.150263
2.4892	36.4473	-6.82456	-16.0113	-12.7023	131.89	-61.483	-47.3698	14.0701	1.67024	18.1367	0.177489	0.0447024	-0.0264543	24.1306	39.0518	-3.1816	20.5674	35.6041	-5.88622	0.0329411	-49.2293	10.4017	5.80979	-0.325053	-0.421256	0.00761371	-0.72448	-0.0151274	-0.0855172	-0.00558715	-0.441406	-4.18894	-0.533698	-0.952477	-0.0581414	-0.101826	-0.152535
2.49919	44.2528	-9.4665	-19.4682	-19.2708	100.793	-57.7641	-55.5467	19.4286	1.29885	22.9741	-0.0667442	0.176148	-0.0271782	25.254	41.0369	-3.62938	20.3618	40.1486	-5.92805	0.0333835	-47.0329	10.9762	5.54126	-0.485956	-0.217882	0.0300033	-0.733485	-0.0143232	-0.0854717	0.00270803	-0.440389	-4.2517	-0.539443	-0.940417	-0.0574015	-0.100499	-0.155079
2.50917	52.8902	-12.6136	-23.4028	-25.6155	71.2742	-52.8286	-64.0945	24.81	0.975854	27.6974	-0.417588	0.306864	-0.0248023	26.2667	42.8104	-4.04675	20.2245	45.009	-6.06324	0.0340356	-44.6099	11.4693	5.27928	-0.629898	-0.00014572	0.0540459	-0.73335	-0.0132431	-0.0843717	0.0114837	-0.420696	-4.30673	-0.544574	-0.919228	-0.0563967	-0.0981763	-0.157581
2.51915	63.8393	-15.8857	-27.997	-28.9285	48.4357	-46.5494	-74.4023	30.2541	0.765261	33.3187	-2.04483	0.482437	-0.0186021	27.3746	44.4519	-4.40203	20.1772	50.1389	-6.27602	0.0349238	-42.4932	11.7128	4.97564	-0.771883	0.205748	0.0760872	-0.736581	-0.0123773	-0.0840047	0.0196046	-0.407909	-4.34936	-0.547652	-0.901847	-0.0554407	-0.0965543	-0.159082
2.52913	74.0519	-18.4513	-32.6784	-28.5605	26.1113	-38.8677	-83.7228	34.6024	0.521726	38.0842	-3.15686	0.585474	-0.00822649	28.9157	45.8757	-4.63117	20.2392	55.4755	-6.54909	0.0361317	-41.3616	11.7347	4.56308	-0.949703	0.369526	0.0919868	-0.764725	-0.0125018	-0.0872609	0.0260793	-0.437553	-4.37739	-0.547422	-0.907421	-0.0549771	-0.0982206	-0.158679
2.53912	83.2656	-19.2125	-37.1491	-21.2883	5.9084	-29.3154	-91.9548	37.4754	0.254361	42.0578	-4.06003	0.619437	0.00555727	31.4496	47.3408	-4.70915	20.36	60.9345	-6.85204	0.0377937	-42.3587	11.3319	3.84598	-1.23666	0.448265	0.0946409	-0.855918	-0.0149924	-0.0992209	0.029071	-0.570626	-4.39336	-0.541345	-0.968759	-0.0557103	-0.107602	-0.154523
2.5491	89.2918	-20.6883	-41.5506	-17.3606	-21.2511	-22.7953	-98.6708	39.1734	-0.0624435	45.2052	-4.64187	0.597245	0.021136	33.2558	48.222	-4.78807	20.896	66.4045	-7.16876	0.0394339	-40.3216	11.2347	3.41099	-1.33763	0.562098	0.104161	-0.852802	-0.0147223	-0.0983455	0.033124	-0.550578	-4.33532	-0.530922	-0.941971	-0.0538517	-0.105104	-0.151789
2.55908	91.4987	-22.6916	-45.7944	-14.763	-55.0382	-19.7702	-103.308	39.8907	-0.380305	47.2856	-4.86446	0.541828	0.0368204	34.8184	48.7627	-4.94608	21.8014	71.7555	-7.463	0.0415081	-36.0578	11.733	2.82202	-1.38123	0.623772	0.106522	-0.808299	-0.0140519	-0.0909289	0.0351994	-0.422375	-4.1607	-0.506341	-0.854834	-0.0492602	-0.0948947	-0.147168
2.56907	89.6968	-24.0544	-49.2055	-10.6211	-94.3678	-19.4789	-105.381	39.5328	-0.604696	48.0429	-4.7662	0.480747	0.0512014	36.606	49.4388	-5.2219	23.012	76.8478	-7.68748	0.0442388	-31.1862	12.5749	1.8364	-1.4899	0.595694	0.0949509	-0.780944	-0.0148542	-0.0847613	0.0339214	-0.283056	-3.89147	-0.466579	-0.759065	-0.0431903	-0.0839465	-0.138745
2.57905	85.2989	-20.9561	-50.9049	11.5424	-129.844	-12.8378	-103.691	37.8173	-0.655372	47.0148	-4.44038	0.441794	0.0631052	41.3275	51.0654	-5.36439	24.1226	81.5455	-7.8019	0.0482742	-34.1529	12.8033	-0.585275	-2.18585	0.279729	0.0354332	-1.04059	-0.0259134	-0.116521	0.0217825	-0.580073	-3.6257	-0.407537	-0.899813	-0.0419044	-0.105565	-0.117395
2.58903	75.9937	-17.0901	-50.2293	32.8352	-174.913	-7.11503	-98.6164	34.9423	-0.517767	44.4728	-4.04697	0.443124	0.0716156	45.7645	52.6734	-5.60002	25.691	85.6653	-7.78119	0.0525829	-36.3185	12.4951	-2.71479	-2.83992	0.0380754	-0.0127495	-1.27566	-0.0354546	-0.145315	0.0123266	-0.898677	-3.39292	-0.354767	-1.03588	-0.0409972	-0.125899	-0.0977562
2.59902	61.6572	-12.409	-47.623	47.0573	-233.346	-8.06014	-90.4498	30.7487	-0.296447	40.6665	-3.75298	0.45976	0.0762045	48.4889	54.245	-6.26596	27.8633	89.0011	-7.59485	0.0574863	-35.0848	12.38	-4.91499	-3.39983	-0.196882	-0.0606966	-1.44106	-0.043398	-0.163808	0.00265642	-1.08468	-3.04216	-0.288484	-1.08942	-0.0367947	-0.135393	-0.0768669
2.609	43.0445	-6.82755	-42.8385	54.3158	-305.745	-14.1061	-79.5236	24.9906	0.0202942	35.7562	-3.71825	0.44458	0.0765541	49.7109	55.7466	-7.15442	30.5966	91.428	-7.22465	0.0612255	-31.2734	11.9433	-6.65257	-3.79186	-0.359055	-0.095544	-1.52243	-0.0482167	-0.171403	-0.0043262	-1.19323	-2.64612	-0.22235	-1.08119	-0.031162	-0.13609	-0.0575949
2.61898	21.0083	1.33468	-36.082	65.4764	-385.655	-21.7274	-65.8738	17.2164	0.45084	29.8558	-4.05805	0.32171	0.0726028	51.6704	57.8308	-7.98266	33.4804	92.8343	-6.68393	0.0633823	-29.6873	11.3476	-8.11114	-4.28832	-0.535795	-0.128741	-1.66757	-0.0541352	-0.188407	-0.0103127	-1.50332	-2.29156	-0.162544	-1.15928	-0.0285256	-0.147659	-0.0376157
2.62896	-3.9475	11.4957	-27.9782	76.9391	-473.356	-33.6449	-50.5715	7.27543	0.927894	23.4936	-4.81527	-0.0201209	0.0641101	54.148	60.2249	-8.70246	36.3675	93.0818	-6.01212	0.0636684	-28.8395	10.8849	-8.93169	-4.7718	-0.680503	-0.15104	-1.822	-0.0591583	-0.207679	-0.013115	-1.93943	-1.97115	-0.113074	-1.28093	-0.0280989	-0.164153	-0.019586
2.63895	-33.2498	26.6335	-18.9149	72.6228	-576.176	-64.4274	-35.214	-6.04459	1.14855	17.3876	-5.91827	-0.747501	0.0507593	53.7723	63.5666	-10.0641	39.1544	91.9464	-5.20665	0.063197	-21.3771	10.6702	-10.3786	-4.98947	-0.972619	-0.197231	-1.8203	-0.0621598	-0.20404	-0.0241861	-2.01113	-1.26319	-0.0143048	-1.19891	-0.0188048	-0.154608	0.00698808
2.64893	-62.7823	44.6866	-10.0846	77.5823	-672.555	-93.9084	-20.0863	-20.2463	1.32301	11.8718	-7.27395	-1.83147	0.0315158	56.5168	67.6213	-11.2402	41.1617	89.4947	-4.42524	0.0603475	-19.2973	10.7764	-12.4579	-5.56699	-1.52618	-0.279648	-2.01045	-0.0719544	-0.225838	-0.0437289	-2.43203	-0.505487	0.100049	-1.28924	-0.0131407	-0.168053	0.0428128
2.65891	-91.5936	60.1391	-2.42317	70.1764	-768.701	-128.211	-7.07277	-33.1869	1.3571	8.01284	-8.77756	-3.21757	0.00712948	58.8926	70.7591	-12.3129	42.5751	85.6154	-3.74599	0.0549375	-13.7205	11.3981	-13.9489	-5.8837	-2.05494	-0.352886	-2.08056	-0.0779676	-0.231483	-0.0619705	-2.68455	0.344144	0.217048	-1.27806	-0.0048244	-0.167326	0.0760128
2.6689	-116.892	74.1618	4.41272	68.6989	-844.234	-152.042	3.83137	-43.6161	1.36207	5.78126	-10.3398	-4.75045	-0.0185698	64.5191	73.3596	-12.9053	42.8313	80.4399	-3.2813	0.0452879	-13.7196	11.3534	-15.2899	-6.3704	-2.68918	-0.43733	-2.2787	-0.0872168	-0.25553	-0.0835364	-3.25429	1.07599	0.322052	-1.42601	-0.00203602	-0.186512	0.110754
2.67888	-139.653	81.5827	9.81845	53.6639	-904.735	-171.195	12.6721	-50.2537	1.13025	5.31918	-11.882	-6.21683	-0.0408781	69.445	73.7555	-12.9646	42.1083	73.9925	-3.06437	0.0312548	-10.2078	10.9317	-15.3404	-6.4088	-3.11532	-0.485119	-2.28871	-0.0890186	-0.255682	-0.0978341	-3.58354	1.70663	0.399519	-1.44828	0.00174563	-0.187264	0.134079
2.68886	-157.775	81.3884	13.9774	34.7697	-930.358	-173.959	20.01	-51.9974	0.638722	6.30894	-13.3223	-7.34978	-0.0566508	75.0425	71.4968	-12.1791	40.0196	66.5213	-3.13715	0.0126479	-8.15203	9.38358	-13.738	-6.17043	-3.2538	-0.483502	-2.22095	-0.0849705	-0.248023	-0.10098	-3.92871	1.94439	0.414092	-1.4909	0.000130723	-0.187837	0.140196
2.69885	-170.45	72.8226	16.0295	1.45922	-916.27	-164.326	25.8293	-48.027	-0.33132	8.99983	-14.632	-7.89953	-0.064077	77.9607	66.2565	-10.738	36.4929	58.1985	-3.4142	-0.00743404	-3.26832	7.35721	-10.9076	-5.5115	-3.05336	-0.431039	-1.97034	-0.073084	-0.216596	-0.092914	-3.9505	1.84316	0.373882	-1.40714	-0.00179256	-0.169739	0.12669
2.70883	-175.148	57.0095	14.7867	-44.9123	-842.09	-140.733	29.5889	-37.7738	-1.8778	13.6262	-15.8454	-7.68272	-0.0619755	77.3721	58.2047	-8.86872	31.1577	49.3185	-3.78414	-0.0245999	2.57705	5.73047	-7.94657	-4.70413	-2.66156	-0.355952	-1.64334	-0.0584371	-0.173062	-0.0798783	-3.65434	1.3759	0.288064	-1.23882	-0.00364084	-0.139487	0.0962845
2.71881	-168.446	37.0806	12.654	-79.0535	-673.173	-78.0799	31.3629	-21.5934	-3.75794	19.4909	-16.973	-6.66798	-0.0501104	78.0848	48.0872	-6.44658	23.2138	40.4971	-4.16874	-0.0401731	-4.10522	1.20047	-4.51226	-4.2862	-2.02228	-0.249667	-1.56965	-0.0477131	-0.164658	-0.0589154	-3.79701	-0.0571901	0.0912984	-1.39147	-0.0210447	-0.148297	0.0430955
2.72879	-149.719	13.4071	9.02996	-107.482	-391.693	21.5856	30.0381	-0.042018	-5.8821	26.4681	-18.0842	-4.96092	-0.0277614	78.4595	36.4398	-3.62918	12.4076	32.0705	-4.4035	-0.0509935	-21.1811	-5.81392	-0.517187	-4.15589	-1.04605	-0.100589	-1.685	-0.0389831	-0.181207	-0.0270962	-4.16426	-2.58296	-0.233981	-1.78882	-0.052545	-0.185699	-0.0413442
2.73878	-119.591	-14.6565	2.34925	-141.268	16.2781	154.619	24.7893	26.6034	-8.21032	34.4581	-19.2327	-2.76744	0.00519405	76.3546	23.205	-0.402619	-1.42665	24.2509	-4.39387	-0.051279	-44.1865	-14.3454	3.86722	-4.16051	0.335429	0.0979863	-1.87908	-0.0297002	-0.205238	0.0170168	-4.41133	-6.2269	-0.69183	-2.28594	-0.0936921	-0.232475	-0.163839
2.74876	-78.9624	-46.7708	-7.54499	-180.969	572.907	325.549	15.5583	57.749	-10.6119	42.9706	-20.4079	-0.396687	0.0488013	71.6649	8.37916	3.2987	-18.6133	17.2272	-4.14947	-0.0361385	-73.1709	-24.9534	8.6132	-4.29654	2.16789	0.350834	-2.14627	-0.0194682	-0.234738	0.0738654	-4.48023	-11.1501	-1.30034	-2.87583	-0.145075	-0.28659	-0.330276
2.75874	-28.7656	-82.6558	-20.7185	-226.722	1294.66	539.22	2.57583	92.7681	-12.9562	51.5041	-21.5318	1.76702	0.103132	64.0969	-8.34084	7.57824	-39.2171	11.0786	-3.75184	-0.00136526	-107.934	-38.3921	13.6231	-4.54165	4.4718	0.658914	-2.47357	-0.00789183	-0.266967	0.142609	-4.31285	-17.4501	-2.0694	-3.54323	-0.206662	-0.345122	-0.543985
2.76873	39.3988	-116.263	-34.2281	-197.556	2234.67	839.701	-9.78542	129.327	-15.1319	57.6221	-22.3209	3.24611	0.166552	65.9078	-26.1919	12.4663	-63.919	6.32352	-3.41634	0.043133	-184.494	-59.2654	16.9343	-6.72597	6.51866	0.915602	-3.90521	-0.026879	-0.446434	0.202345	-5.82738	-25.7281	-3.0317	-5.33241	-0.309156	-0.547757	-0.783721
2.77871	-104.87	-14.9369	4.94146	-12.1878	-31.6096	19.5238	48.0799	33.2065	-12.2485	40.4083	-13.1706	0.570686	0.0345857	47.4764	23.787	-1.79828	-29.9757	6.1918	-1.70966	-0.0758111	-33.9738	10.0183	5.62573	1.01048	-0.928678	-0.0564301	-0.148524	-0.00514406	-0.0086175	-0.0296746	0.719191	-3.09458	-0.42448	-0.317864	-0.0352899	-0.0217721	-0.133665
2.78869	-91.461	-10.6305	6.27851	-11.8686	-25.4356	18.3246	49.7114	33.6656	-12.3178	40.329	-10.4764	-0.118017	0.0367715	40.4911	22.3084	-2.17327	-34.2612	4.40093	-1.18023	-0.0648147	-40.2666	10.95	4.68738	0.35302	-1.0023	-0.0725101	-0.425953	-0.0139876	-0.0467246	-0.0268139	0.286857	-3.01951	-0.405442	-0.537531	-0.039431	-0.0551068	-0.122648
2.79868	-78.2372	-7.02483	7.24203	-11.7533	-20.0712	16.7567	50.1435	33.7765	-12.1832	40.0421	-7.81413	-0.936709	0.0379832	33.5587	20.9311	-2.76603	-37.0569	3.44111	-0.800058	-0.0519922	-44.8857	12.1066	3.89483	-0.195685	-1.00099	-0.0785429	-0.643602	-0.0208603	-0.0765563	-0.0216912	-0.0178543	-2.97288	-0.392399	-0.700207	-0.0423151	-0.0807887	-0.115246
2.80866	-65.5517	-4.31128	7.93162	-11.7532	-15.8249	15.509	49.3387	33.6028	-11.8653	39.5988	-5.19832	-1.85845	0.038149	27.367	19.5113	-3.48293	-38.3777	3.07685	-0.539486	-0.039938	-48.3173	13.0821	3.39261	-0.652976	-0.940491	-0.0747421	-0.817239	-0.0258804	-0.100527	-0.014657	-0.278924	-2.95822	-0.38636	-0.834815	-0.0449563	-0.102028	-0.110681
2.81864	-54.0731	-2.12542	8.89879	-11.7901	-13.1531	15.1829	47.2146	32.9626	-11.3486	39.0314	-2.62791	-2.86121	0.0373462	22.3466	18.104	-4.28241	-38.3319	3.06429	-0.359992	-0.0301342	-50.5816	13.3122	3.30702	-0.980512	-0.810498	-0.0588618	-0.936777	-0.0284401	-0.117696	-0.00582254	-0.515711	-2.98723	-0.389491	-0.944175	-0.047764	-0.118708	-0.109007
2.82862	-46.1603	-1.16169	10.162	-12.0768	-12.6078	16.3212	43.78	31.9426	-10.6316	38.4143	-0.118559	-3.90603	0.0361142	18.402	16.5061	-5.03336	-37.1947	3.16955	-0.234994	-0.0226074	-48.8316	12.6558	3.92041	-0.834298	-0.519046	-0.0188598	-0.853346	-0.0241475	-0.108876	0.00563849	-0.418909	-3.05432	-0.406413	-0.890782	-0.0477014	-0.112754	-0.114492
2.83861	-42.7994	-1.3467	11.79	-12.6695	-14.3599	19.2667	38.9346	30.4139	-9.69276	37.7696	2.33278	-4.95648	0.0346599	15.9158	14.5899	-5.61384	-35.1915	3.2362	-0.149258	-0.0175618	-42.6181	10.9116	5.27058	-0.166667	-0.0709753	0.0449921	-0.547898	-0.0124016	-0.0715066	0.0189358	0.0344365	-3.15233	-0.436508	-0.659611	-0.0444216	-0.0817905	-0.127054
2.84859	-36.8059	0.257065	13.5998	-12.9266	-15.4584	22.7268	33.2903	28.33	-8.64078	37.0882	4.76297	-5.95653	0.0323367	14.3805	12.6947	-5.80986	-32.3248	3.13952	-0.0892672	-0.0143271	-40.604	8.39372	5.93367	0.0417107	0.138638	0.0753816	-0.453324	-0.00760587	-0.0609832	0.02498	0.0435699	-3.2022	-0.448892	-0.620103	-0.0448027	-0.0753377	-0.129577
2.85857	-27.7571	3.79918	15.3389	-12.6454	-15.5923	25.6496	28.2688	25.9443	-7.61859	36.2452	7.17449	-6.83798	0.0293082	12.2823	10.9018	-5.52156	-28.804	2.76777	-0.0404609	-0.0109275	-42.9326	5.69888	5.47306	-0.256255	0.0540826	0.0610631	-0.583207	-0.0112287	-0.0784083	0.0214875	-0.324693	-3.15611	-0.434109	-0.756871	-0.0475265	-0.0924692	-0.120268
2.86856	-19.1386	6.95194	15.9368	-11.8595	-15.5566	27.5167	24.3905	23.7784	-6.71741	35.2865	9.53858	-7.55403	0.0262761	9.51533	8.91382	-4.77636	-24.9643	2.13203	-0.00529372	-0.00682745	-45.5314	3.75326	4.4755	-0.646319	-0.166473	0.0255991	-0.747903	-0.0172975	-0.0989883	0.0129173	-0.672108	-3.03156	-0.404493	-0.893977	-0.0489221	-0.11017	-0.107512
2.87854	-13.5507	9.21007	15.6627	-11.0608	-15.8024	28.1679	21.309	21.6907	-5.92006	34.2622	11.8472	-8.11101	0.0237709	6.60613	6.79351	-3.79484	-21.1425	1.33809	0.0168092	-0.0026145	-45.6324	2.46431	3.4239	-0.81417	-0.390278	-0.0116286	-0.808864	-0.0210901	-0.105114	0.00240766	-0.751173	-2.85322	-0.370081	-0.915234	-0.0468951	-0.112818	-0.0966468
2.88852	-9.75787	10.3036	14.2488	-9.84351	-16.0869	27.3742	18.955	19.9528	-5.2554	33.2181	14.1119	-8.51252	0.0218262	3.47853	4.50729	-2.64492	-16.8464	0.070877	0.0443648	0.00139511	-44.344	2.02293	2.35609	-0.855018	-0.641577	-0.052485	-0.811839	-0.0238064	-0.10295	-0.00967473	-0.665749	-2.62871	-0.331662	-0.867293	-0.0427207	-0.106567	-0.0869232
2.89851	-7.49633	10.3333	11.9827	-8.98513	-15.8076	25.4537	17.0903	18.6827	-4.72123	32.2866	16.3611	-8.78023	0.0202622	1.02696	2.10172	-1.35946	-14.5651	-0.0233514	-0.0202986	0.00448063	-42.1019	2.3965	1.27707	-0.766848	-0.913783	-0.0964403	-0.760605	-0.0255621	-0.0936199	-0.0229757	-0.424002	-2.34212	-0.287636	-0.755414	-0.0365659	-0.0926101	-0.0774522
2.90849	-5.73933	9.82518	9.19255	-8.15103	-15.2307	22.8709	15.5126	17.7977	-4.28905	31.4838	18.6203	-8.94241	0.0193036	-1.46533	-0.31649	-0.100918	-12.3032	-0.0759263	-0.0931995	0.00642092	-39.5989	3.2618	0.0905464	-0.630705	-1.22623	-0.146571	-0.69035	-0.0273408	-0.0814917	-0.0381442	-0.103799	-2.01586	-0.238562	-0.614037	-0.0292841	-0.0751272	-0.0675085
2.91847	-7.0921	8.18841	5.92548	-8.35207	-14.1639	18.7404	13.3489	17.1303	-3.91445	30.8462	20.9023	-9.03792	0.0195248	-3.45955	-2.73205	0.917644	-10.0469	-0.0602042	-0.16947	0.00630118	-33.5175	4.60138	-0.708762	-0.0546445	-1.4677	-0.186158	-0.433151	-0.0237528	-0.0451622	-0.0535869	0.596872	-1.63988	-0.190873	-0.299175	-0.0179674	-0.0347005	-0.0618097
2.92846	-7.83172	6.83835	2.90842	-8.18946	-13.0744	15.0561	11.8773	16.8932	-3.65383	30.2908	23.2829	-9.0644	0.0201036	-5.64042	-4.93777	1.80989	-7.85011	-0.00309113	-0.245218	0.00464111	-29.0314	5.84307	-1.86308	0.362486	-1.81001	-0.241106	-0.249103	-0.0229242	-0.0180663	-0.0724132	1.1711	-1.22523	-0.133443	-0.0427985	-0.00743725	-0.00212489	-0.0518892
2.93844	-11.1506	5.25909	-0.189117	-8.58892	-12.4887	11.026	10.3718	16.8647	-3.44096	29.819	25.7834	-9.05463	0.021405	-7.43737	-6.85395	2.4028	-5.68257	0.0987165	-0.311556	0.00132283	-22.4632	7.3196	-2.95744	1.00402	-2.13268	-0.294266	0.0339054	-0.0194623	0.0221608	-0.0926875	1.95369	-0.7644	-0.0724794	0.311053	0.00570652	0.0434405	-0.0429875
2.94842	1.67995	5.80676	-0.60838	-4.48187	-13.3531	14.7707	11.4732	18.4821	-3.40222	29.3435	28.5939	-8.95928	0.0188078	-11.4249	-8.9426	3.14093	-3.53351	0.214755	-0.390501	-0.00316195	-33.611	6.56802	-5.68079	-0.160929	-2.9076	-0.41161	-0.494516	-0.0403892	-0.043847	-0.117196	1.12165	-0.436442	0.00310834	-0.0890388	0.00132366	-0.0116211	-0.0129854
2.9584	8.06894	5.81657	-1.21727	2.5047	-18.6213	16.8988	13.2252	20.0111	-3.34174	28.5439	31.6126	-8.87935	0.016494	-13.8451	-10.2655	3.42948	-1.61913	0.393389	-0.447066	-0.0096502	-40.7154	6.4116	-7.99384	-0.922566	-3.55885	-0.511521	-0.838299	-0.0556741	-0.0855929	-0.139605	0.664487	-0.0936969	0.0728035	-0.317273	0.000851941	-0.0438806	0.0111019
2.96839	11.434	5.9182	-0.900758	6.81154	-22.7151	15.8559	14.4829	21.0479	-3.29947	27.5893	34.8017	-8.85784	0.0160858	-16.1125	-10.7981	3.32585	0.433676	0.581316	-0.470847	-0.0171102	-44.2357	6.12196	-9.2676	-1.28869	-4.02436	-0.579344	-1.01368	-0.06422	-0.106225	-0.156248	0.419449	0.183933	0.121728	-0.428688	0.00149916	-0.0591146	0.0268314
2.97837	14.8677	5.98603	0.135725	9.69238	-26.5244	14.7358	16.3334	22.3921	-3.34407	26.5369	38.1942	-8.87892	0.016675	-19.1295	-10.6718	3.08181	2.66639	0.730098	-0.459648	-0.0242614	-47.7136	5.68334	-9.91901	-1.70321	-4.38109	-0.626516	-1.2061	-0.0715757	-0.129357	-0.166679	0.0423956	0.34358	0.150725	-0.586765	-0.000383553	-0.0792147	0.037551
2.98835	15.9496	5.48808	1.10822	11.1865	-30.4717	14.6268	17.6797	24.0249	-3.48632	25.3299	41.7798	-8.97538	0.0181953	-22.1138	-10.2481	2.67585	5.00587	0.836777	-0.421666	-0.030589	-47.7469	5.14459	-9.88607	-1.70441	-4.5639	-0.647538	-1.22183	-0.0726532	-0.130446	-0.17311	-0.0420907	0.469674	0.165965	-0.603942	-2.43064e-05	-0.080124	0.0417809
2.99834	15.554	5.12212	2.19965	12.4795	-35.2874	15.3947	19.4692	26.0439	-3.74687	23.9124	45.5777	-9.14983	0.0202876	-25.5322	-9.33011	2.22362	7.42585	0.863909	-0.349604	-0.0350949	-46.1656	4.44729	-9.49686	-1.56031	-4.64846	-0.653531	-1.17111	-0.0709362	-0.123274	-0.176679	-0.046756	0.564855	0.173219	-0.574679	0.000819128	-0.0743044	0.0430504
3.00832	17.1047	6.07351	4.31235	14.1262	-40.9609	15.8611	22.3819	28.4572	-3.98662	22.4352	49.6083	-9.40223	0.0221527	-30.3365	-7.54275	1.80201	10.0451	0.78174	-0.229298	-0.0371923	-46.6217	3.52316	-9.21546	-1.75587	-4.76816	-0.662749	-1.25758	-0.0727656	-0.133468	-0.178549	-0.364052	0.615049	0.178919	-0.677612	-0.00149892	-0.0854135	0.046402
3.0183	16.9161	7.20203	6.42311	15.528	-47.1158	17.073	24.4552	30.8065	-4.28133	20.8239	53.8065	-9.77888	0.0246789	-35.0574	-5.58658	1.27719	12.7631	0.611117	-0.0905332	-0.0365263	-43.8472	2.50323	-8.39313	-1.53014	-4.71729	-0.648084	-1.16609	-0.0685345	-0.121752	-0.177134	-0.362497	0.644981	0.173814	-0.633137	-0.00126545	-0.0769706	0.0443378
3.02829	16.0541	9.16421	9.38088	16.8451	-53.8056	18.8444	26.2483	32.9476	-4.64771	19.1512	58.15	-10.2779	0.0278815	-40.1504	-3.38879	0.710402	15.6361	0.333189	0.0599968	-0.0324034	-39.2562	0.872106	-6.96399	-1.09407	-4.50067	-0.60811	-0.986335	-0.0601955	-0.0997595	-0.170711	-0.273876	0.592443	0.151994	-0.537668	-0.00123647	-0.0609462	0.0373419
3.03827	16.8994	12.3794	13.6491	18.3878	-61.0275	20.2408	28.1495	35.0096	-4.9828	17.6452	62.6136	-10.8725	0.031153	-46.205	-0.95741	0.192186	18.7579	-0.0505954	0.214018	-0.024831	-35.3347	-1.31724	-5.3741	-0.795839	-4.24346	-0.560563	-0.862821	-0.0525943	-0.0853359	-0.161386	-0.359334	0.471421	0.122078	-0.51082	-0.0034788	-0.0532759	0.0298462
3.04825	20.3712	16.5995	18.8871	20.0194	-68.3975	21.1458	29.8616	37.131	-5.20868	16.4847	67.1452	-11.5326	0.0341545	-53.1761	1.49404	-0.229286	22.1068	-0.514743	0.359802	-0.014431	-32.7487	-3.68231	-4.0257	-0.718232	-4.02794	-0.519298	-0.8277	-0.0476594	-0.0819809	-0.152124	-0.617562	0.333778	0.0944726	-0.560873	-0.00727632	-0.055748	0.0245623
3.05823	26.7922	21.5216	24.8294	21.121	-75.4143	21.6509	31.1982	39.3175	-5.28765	15.7683	71.6848	-12.2288	0.0368264	-60.9977	3.7799	-0.502941	25.6557	-1.03036	0.493677	-0.00209929	-31.6832	-5.97194	-3.14436	-0.888357	-3.89805	-0.491947	-0.88993	-0.0462385	-0.0904187	-0.14472	-1.0285	0.213428	0.0754309	-0.683457	-0.0119668	-0.0681612	0.0228931
3.06822	35.8773	26.821	31.2481	21.4089	-81.8813	21.8974	32.3771	41.6478	-5.19719	15.4965	76.176	-12.9285	0.0391247	-69.4606	5.93825	-0.580115	29.29	-1.56768	0.625858	0.0110975	-32.4098	-8.07934	-2.81043	-1.36196	-3.88077	-0.482234	-1.07082	-0.0491176	-0.113088	-0.139731	-1.63092	0.1225	0.0675272	-0.894834	-0.0176892	-0.0926309	0.0256505
3.0782	43.7772	33.1582	37.5416	21.4773	-87.9143	22.239	33.095	43.2211	-5.15551	15.3508	80.5443	-13.6583	0.0420055	-78.1811	7.98746	-0.494501	33.2822	-2.70518	0.821463	0.0243635	-30.7475	-10.0611	-2.36479	-1.62256	-3.74985	-0.458934	-1.149	-0.0485984	-0.122717	-0.132919	-2.0405	0.0321619	0.0572475	-1.01344	-0.0213237	-0.104866	0.0262977
3.08818	47.6425	39.5659	43.2814	21.5171	-94.5472	23.4847	34.243	44.0995	-5.23422	15.2534	84.7027	-14.3848	0.046243	-84.7324	10.1591	-0.316526	36.1546	-3.27974	0.959929	0.0371772	-27.7537	-12.5039	-1.18534	-1.8218	-3.44989	-0.406898	-1.19529	-0.0450336	-0.128739	-0.119117	-2.51221	-0.201709	0.0226915	-1.14119	-0.0269521	-0.116539	0.0205513
3.09817	48.7356	45.0526	48.4143	21.4132	-101.868	25.9406	36.0162	44.6481	-5.34318	15.4534	88.5713	-15.043	0.0513276	-89.0112	12.1383	0.0355414	37.8768	-3.52624	1.07985	0.0485251	-25.328	-15.321	0.585569	-2.26911	-3.07703	-0.336846	-1.33746	-0.0422354	-0.147025	-0.0986601	-3.32679	-0.56882	-0.0313118	-1.39501	-0.0369367	-0.142725	0.0115989
3.10815	46.5231	48.1816	51.9838	21.3322	-109.676	29.36	38.1506	44.8241	-5.51967	15.9991	92.0379	-15.5836	0.057487	-90.265	13.172	0.528885	38.1601	-3.4817	1.17774	0.0580763	-23.5762	-17.9297	2.7461	-2.9264	-2.70014	-0.259382	-1.5626	-0.0407253	-0.175699	-0.074364	-4.40698	-0.996694	-0.0950589	-1.74707	-0.0499189	-0.180495	0.00128879
3.11813	36.6035	41.8487	50.927	22.2549	-118.614	33.693	40.7214	45.9798	-6.31594	16.4656	94.9488	-15.9332	0.0661361	-86.6644	11.0181	0.987927	36.4228	-3.24371	1.19818	0.0661186	-20.5155	-18.2975	6.85153	-3.48919	-2.11704	-0.132496	-1.74752	-0.0344918	-0.200171	-0.0351575	-5.62344	-1.59503	-0.202248	-2.12754	-0.0668094	-0.219746	-0.0226012
3.12812	25.4455	32.2831	47.6983	23.0305	-126.187	37.3985	42.2468	46.8222	-7.19711	17.5712	97.2242	-16.0416	0.0744255	-80	7.15	1.42627	33.3344	-3.03958	1.21981	0.072085	-19.0329	-17.5891	10.2687	-4.12732	-1.73402	-0.0366219	-1.9709	-0.0316743	-0.228683	-0.00310756	-6.77504	-2.06332	-0.287882	-2.50124	-0.0818287	-0.259765	-0.041463
3.1381	13.6056	20.1146	42.4313	22.8537	-131.278	38.7719	42.6911	47.1857	-8.02627	19.2366	98.7284	-15.8583	0.0820082	-70.691	1.70957	1.77906	29.2172	-3.07537	1.27131	0.0757144	-19.2462	-15.7088	12.4659	-4.77511	-1.65005	0.00928137	-2.20964	-0.0331068	-0.257853	0.0159049	-7.72499	-2.29736	-0.334621	-2.81994	-0.0925908	-0.29521	-0.0512803
3.14808	1.82813	6.82769	36.4701	20.4727	-133.204	37.2087	42.6525	46.8065	-8.73862	21.2651	99.3393	-15.3732	0.0887976	-59.7085	-4.67618	2.01918	24.6406	-3.53627	1.40392	0.076467	-21.2108	-13.556	13.6326	-5.45584	-1.82706	0.0116631	-2.47786	-0.0384472	-0.289905	0.0232493	-8.56359	-2.34299	-0.348697	-3.11514	-0.10046	-0.329409	-0.0526374
3.15806	-9.29162	-5.84423	30.9411	14.0849	-131.552	32.1243	42.7678	45.3727	-9.25875	23.4339	98.9331	-14.5976	0.094747	-48.126	-11.221	2.15531	20.2251	-4.54502	1.67769	0.0735275	-24.77	-11.8243	13.9272	-6.21135	-2.22719	-0.0230622	-2.79218	-0.047432	-0.327134	0.0204467	-9.38811	-2.23967	-0.335161	-3.41834	-0.106638	-0.365632	-0.0459102
3.16805	-22.3627	-19.1194	24.7554	5.31852	-128.392	27.7008	43.8816	43.8827	-9.81692	25.1616	97.3728	-13.5285	0.100127	-35.954	-17.9277	2.14591	16.258	-6.11002	2.10108	0.0659871	-28.3284	-10.3949	14.0261	-6.88894	-2.6481	-0.06367	-3.07999	-0.0561747	-0.360795	0.0149905	-10.1152	-2.12668	-0.318801	-3.68862	-0.111818	-0.397706	-0.0388985
3.17803	-39.0785	-31.5291	17.5664	-1.60847	-126.661	25.7417	47.3148	42.861	-10.4603	25.9781	94.5616	-12.1897	0.104111	-23.587	-23.5529	2.01266	13.1142	-8.15606	2.70003	0.052565	-31.3625	-9.61308	14.094	-7.45121	-2.9806	-0.095746	-3.31948	-0.0632708	-0.388375	0.0103543	-10.7125	-2.08979	-0.311575	-3.91455	-0.11646	-0.423934	-0.0349343
3.18801	-56.0889	-41.8353	9.88776	-7.47749	-125.352	24.2208	52.5457	42.3251	-11.0894	25.8953	90.4056	-10.6051	0.104396	-13.1568	-27.281	1.84225	11.651	-10.6075	3.47642	0.0341673	-34.0502	-8.74404	13.5673	-7.80575	-3.28856	-0.134579	-3.47183	-0.0692816	-0.404494	0.00214223	-10.9536	-2.04854	-0.299851	-4.02272	-0.117634	-0.436525	-0.0319574
3.198	-70.5268	-48.2854	2.55834	-13.5556	-123.316	21.7464	58.6344	41.7403	-11.6346	25.0825	84.8324	-8.84287	0.0998511	-5.68219	-28.26	1.64134	12.1955	-13.3776	4.4018	0.0146545	-36.6752	-7.70914	12.0941	-7.94157	-3.6052	-0.188826	-3.53248	-0.0749274	-0.408496	-0.0119698	-10.76	-1.9632	-0.27559	-3.99141	-0.114175	-0.433617	-0.0280663
3.20798	-79.0167	-50.7484	-3.70007	-20.9829	-120.054	18.013	64.8834	40.9357	-11.8027	23.9685	77.9277	-7.00131	0.0877865	-1.06296	-26.6582	1.4688	14.3644	-16.2718	5.37384	-0.00272851	-41.9982	-6.50024	8.89865	-8.26828	-4.13845	-0.290135	-3.66992	-0.0866388	-0.420899	-0.0373219	-10.4257	-1.73542	-0.215734	-3.95144	-0.107373	-0.433066	-0.0146716
3.21796	-85.9991	-48.5597	-9.26789	-28.1863	-116.541	13.0729	70.1244	38.4528	-11.6023	22.2591	69.7975	-5.24725	0.0704425	2.44174	-22.6546	1.07673	17.4502	-19.0489	6.24352	-0.0150986	-45.4251	-4.8812	5.0795	-8.16957	-4.56992	-0.391126	-3.62491	-0.0947168	-0.41027	-0.0656684	-9.50052	-1.4847	-0.150668	-3.69939	-0.0948412	-0.407576	-0.00343316
3.22795	-90.1145	-43.8642	-13.2765	-34.9997	-112.829	8.49521	74.2434	34.7113	-11.139	20.0067	60.8022	-3.70523	0.04754	5.0891	-16.9044	0.500241	21.0853	-21.4568	6.87801	-0.0217888	-48.5697	-3.212	1.62118	-7.95306	-4.81527	-0.4673	-3.52896	-0.100379	-0.394322	-0.0873588	-8.44866	-1.37632	-0.107754	-3.41248	-0.0829066	-0.378404	0.00107387
3.23793	-92.6023	-37.7201	-15.9712	-40.4804	-109.557	4.1969	76.4446	29.7999	-10.4239	16.9816	51.3637	-2.4647	0.0205224	7.51744	-10.1578	-0.318849	24.942	-23.2997	7.1495	-0.0225361	-49.8754	-1.44198	-1.13419	-7.3848	-4.83378	-0.510757	-3.29105	-0.100595	-0.362188	-0.102066	-7.1288	-1.37444	-0.0880273	-3.01878	-0.0703006	-0.335887	-0.00232575
3.24791	-92.2007	-31.4382	-18.0971	-45.0432	-106.599	0.125379	76.5159	24.6183	-9.44795	13.2041	42.0189	-1.55943	-0.0101455	9.77025	-3.23198	-1.26028	28.6951	-24.4386	6.97341	-0.0182889	-50.946	0.71635	-3.89586	-6.71822	-4.85096	-0.554989	-3.01709	-0.100162	-0.326363	-0.117006	-5.71716	-1.31672	-0.0627139	-2.58972	-0.0566799	-0.2899	-0.00448073
3.25789	-91.9173	-25.0835	-19.6288	-48.2418	-103.676	-3.30451	74.6244	19.1808	-8.25953	8.33717	33.23	-0.99251	-0.040505	12.7499	3.506	-2.34757	31.8964	-24.8078	6.3232	-0.0103033	-49.8862	2.59002	-6.1485	-5.7741	-4.77197	-0.583183	-2.63357	-0.0956366	-0.278064	-0.129731	-4.17095	-1.23323	-0.0411842	-2.08472	-0.0420885	-0.233712	-0.00802757
3.26788	-90.3291	-19.9151	-20.8939	-50.5047	-100.824	-6.32157	71.5632	14.321	-7.00437	2.54262	25.4549	-0.707305	-0.0691095	16.0853	9.61636	-3.41335	34.3567	-24.4083	5.2294	-0.00069377	-49.1566	4.37028	-8.00255	-4.94215	-4.70261	-0.606516	-2.30065	-0.0916724	-0.237038	-0.139977	-2.85199	-1.12928	-0.0200316	-1.65393	-0.0296811	-0.186509	-0.00991228
3.27786	-87.5346	-16.1236	-21.9207	-51.7224	-97.6371	-8.33863	67.4808	10.4833	-5.80942	-4.00213	18.9483	-0.621197	-0.0927527	19.6169	14.8493	-4.3633	35.9881	-23.3243	3.77149	0.00931452	-48.6824	5.65692	-9.42342	-4.20751	-4.64077	-0.624573	-2.01527	-0.0880227	-0.203029	-0.148118	-1.77545	-1.00452	0.000756711	-1.29966	-0.0196211	-0.148256	-0.00979754
3.28784	-79.3608	-14.4034	-22.5399	-52.8911	-93.2731	-9.58601	63.2939	8.15382	-4.86676	-10.5329	13.8507	-0.645501	-0.110213	22.5317	19.0236	-5.09091	36.806	-21.6395	2.05909	0.017634	-53.4745	6.55126	-10.544	-4.24321	-4.73369	-0.652575	-2.06156	-0.0928138	-0.211613	-0.152481	-1.5709	-0.9308	0.0193222	-1.29453	-0.0182047	-0.154106	-0.00412672
3.29783	-72.1201	-12.7357	-22.5904	-52.4416	-88.2053	-9.41625	57.9196	6.68657	-4.05728	-17.0825	10.0035	-0.717097	-0.116227	25.8357	22.5291	-5.64801	36.6831	-19.5284	0.243321	0.0250044	-56.2115	6.11459	-11.1458	-4.0488	-4.74843	-0.666584	-2.02188	-0.0938057	-0.210596	-0.155975	-1.34261	-0.8257	0.0363376	-1.24612	-0.0166143	-0.152831	0.00193903
3.30781	-67.3711	-11.4211	-22.0074	-49.6938	-82.3339	-7.98764	51.4117	5.6575	-3.33444	-23.3503	7.25217	-0.793067	-0.110465	29.8188	25.1784	-6.0427	35.6104	-17.1155	-1.55523	0.0311614	-55.5813	4.43144	-10.9422	-3.45174	-4.59584	-0.653179	-1.8212	-0.0882263	-0.190628	-0.156251	-0.941428	-0.722177	0.0429293	-1.08963	-0.01395	-0.13576	0.00463754
3.31779	-65.8801	-10.8579	-20.9174	-44.6024	-75.4984	-5.38127	44.0233	4.98554	-2.70034	-29.0387	5.42388	-0.8438	-0.0960618	34.3332	26.943	-6.29423	33.7714	-14.5238	-3.23659	0.0361739	-50.8649	1.75282	-9.82	-2.37663	-4.22669	-0.60514	-1.42224	-0.0747461	-0.146811	-0.151775	-0.274825	-0.642537	0.0339582	-0.787587	-0.00957007	-0.0980069	0.00153396
3.32778	-65.135	-10.7734	-19.5867	-38.4486	-67.5792	-2.85847	36.7221	4.69582	-2.26427	-33.6547	4.34904	-0.84892	-0.0781764	38.5421	28.1251	-6.40133	31.4817	-11.8455	-4.72568	0.0395937	-45.1974	-1.23325	-8.30857	-1.28621	-3.79289	-0.544075	-1.01095	-0.0597364	-0.101599	-0.144255	0.32675	-0.578805	0.0190621	-0.492368	-0.00593171	-0.0600063	-0.00291944
3.33776	-60.7621	-10.8997	-17.8582	-32.2902	-58.4351	-1.2058	30.5661	4.84148	-2.14975	-36.6283	3.83641	-0.79341	-0.061398	41.577	28.9275	-6.38072	29.0583	-9.13665	-5.98732	0.040708	-43.87	-4.15067	-6.86973	-0.853812	-3.49294	-0.495647	-0.873212	-0.052255	-0.090595	-0.134771	0.283566	-0.567312	0.00422283	-0.464442	-0.00841234	-0.0560306	-0.0031694
3.34774	-52.1744	-10.8349	-15.8033	-26.824	-48.2336	-0.382389	25.576	5.36956	-2.31396	-37.8359	3.64811	-0.679977	-0.0472439	43.0172	29.5836	-6.26374	26.7826	-6.47056	-7.00491	0.039947	-47.0468	-6.74579	-5.69685	-1.06637	-3.34937	-0.465296	-1.00419	-0.0527228	-0.112962	-0.124799	-0.35042	-0.599957	-0.00766041	-0.689572	-0.0163477	-0.084689	0.0011983
3.35772	-45.5034	-10.6427	-14.0266	-21.437	-38.0195	-0.228313	20.9979	5.99299	-2.52286	-37.8872	3.54781	-0.538085	-0.0346336	43.6113	30.1761	-6.09149	24.6412	-3.92143	-7.78372	0.0386241	-47.6743	-8.71369	-4.52509	-1.0434	-3.13437	-0.427251	-1.02067	-0.0499629	-0.120031	-0.114628	-0.703659	-0.614578	-0.019817	-0.79337	-0.0211747	-0.097586	0.00284943
3.36771	-40.7439	-11.0758	-13.0964	-16.9739	-28.1959	-0.242187	17.0746	6.65168	-2.80908	-36.9291	3.39589	-0.379374	-0.0239895	43.0901	30.2621	-5.83945	22.7584	-1.50855	-8.36443	0.0368254	-45.7546	-9.65575	-3.35873	-0.804392	-2.84695	-0.381053	-0.926297	-0.0441574	-0.11191	-0.103687	-0.759569	-0.626084	-0.0343652	-0.773458	-0.0228099	-0.0945506	0.000691379
3.37769	-37.5273	-12.4176	-13.3242	-13.6537	-19.9743	0.0136876	14.3456	7.2458	-3.20553	-35.0771	3.12531	-0.217881	-0.0160003	41.3966	29.6281	-5.48856	21.1672	0.766849	-8.78447	0.0343772	-42.4881	-9.29568	-2.27296	-0.523531	-2.52268	-0.330745	-0.791607	-0.0374434	-0.097137	-0.0914587	-0.652587	-0.667938	-0.0533273	-0.692836	-0.0226704	-0.0838065	-0.00517102
3.38767	-31.2367	-14.0711	-13.8486	-10.6132	-13.441	0.685903	13.3215	7.76893	-3.73606	-32.2935	2.72438	-0.0619077	-0.011378	38.2616	28.453	-5.04451	20.0205	2.91535	-9.0667	0.0308464	-43.5299	-8.24846	-1.52473	-0.788553	-2.35479	-0.300169	-0.887842	-0.0380452	-0.110681	-0.079765	-0.99579	-0.779869	-0.0728719	-0.820805	-0.0270225	-0.100314	-0.00853799
3.39766	-25.843	-15.9045	-14.7572	-8.71737	-9.85803	1.49105	13.0774	8.07192	-4.21436	-29.0246	2.1768	0.0643576	-0.00869333	34.2931	27.0052	-4.54872	19.2788	4.91578	-9.22025	0.0271061	-44.0916	-6.50676	-0.790874	-1.05444	-2.17164	-0.267389	-0.973483	-0.0384218	-0.121746	-0.067305	-1.26948	-0.948886	-0.0996688	-0.927821	-0.0309223	-0.113872	-0.0152478
3.40764	-21.9561	-17.6414	-15.4441	-7.90513	-8.71081	1.80843	12.4186	8.07248	-4.3942	-25.5947	1.51539	0.141265	-0.00667011	30.9909	25.664	-4.07965	18.7086	6.78782	-9.25473	0.0237062	-43.9204	-4.72139	0.243436	-1.26829	-1.93895	-0.224638	-1.03371	-0.0373704	-0.129041	-0.0527405	-1.50956	-1.19901	-0.139838	-1.01883	-0.0352059	-0.124341	-0.0264031
3.41762	-20.6945	-19.0148	-15.3191	-7.54773	-8.66408	1.65477	10.754	7.65044	-4.17799	-21.6699	0.46313	0.142227	-0.00499856	28.6808	24.6391	-3.70073	18.2642	8.54844	-9.18422	0.0211349	-41.6138	-3.31045	1.76273	-1.25203	-1.58883	-0.162262	-0.992711	-0.0322397	-0.123087	-0.0351656	-1.56768	-1.54772	-0.198909	-1.02727	-0.0387735	-0.122681	-0.0444849
3.42761	-20.4825	-19.746	-14.3186	-6.91027	-8.53448	1.58369	9.10961	6.59617	-3.54844	-19.685	0.394479	0.128364	-0.00415847	27.4448	24.0304	-3.40283	17.9274	10.2505	-9.0268	0.0190935	-39.4663	-2.53876	3.50374	-1.17868	-1.19392	-0.0922463	-0.936546	-0.0261202	-0.115692	-0.0162381	-1.61133	-1.96373	-0.268701	-1.03348	-0.04316	-0.120326	-0.0652491
3.43759	-22.5964	-20.3617	-12.4311	-6.67163	-8.71231	1.65277	7.37568	5.00202	-2.678	-17.8143	0.393749	0.0707501	-0.0048354	26.1704	23.5758	-3.16938	17.8571	11.9299	-8.80595	0.0173321	-34.8711	-2.21786	5.62349	-0.794053	-0.678918	-0.00428507	-0.746781	-0.0153352	-0.0913477	0.00476583	-1.3766	-2.4317	-0.351774	-0.919494	-0.0456663	-0.101676	-0.0918029
3.44757	-22.1471	-19.5544	-9.8902	-5.89352	-8.54189	1.75742	4.9643	3.18804	-1.53673	-15.9263	0.427885	-0.019302	-0.00628693	25.2289	23.523	-2.97443	17.9776	13.6287	-8.5239	0.0163735	-32.9646	-2.45038	7.03562	-0.61517	-0.366371	0.0510835	-0.66248	-0.00926294	-0.0804523	0.0180777	-1.31252	-2.79533	-0.412491	-0.888105	-0.0487998	-0.0945448	-0.110012
3.45756	-23.3931	-18.7171	-7.47366	-5.7816	-9.13854	1.78798	2.67845	1.12987	-0.376381	-13.9996	0.512098	-0.128168	-0.00907192	23.4455	23.3693	-2.84673	18.4109	15.3784	-8.20858	0.0163556	-28.3327	-2.39365	8.25922	-0.106779	-0.00887657	0.108108	-0.428991	0.000418032	-0.0499913	0.0293175	-0.833217	-3.10127	-0.468258	-0.689378	-0.0474481	-0.0664281	-0.130182
3.46754	-20.5985	-16.8014	-4.89553	-5.17573	-9.34434	1.84037	-0.419802	-0.738552	0.874108	-11.9233	0.60107	-0.24298	-0.0121711	22.0315	23.6422	-2.75331	18.9696	17.2571	-7.84926	0.0167666	-27.8097	-2.72436	8.86283	0.0436542	0.120055	0.1311	-0.370872	0.00358832	-0.0421974	0.0338902	-0.708133	-3.32295	-0.503504	-0.64976	-0.0487373	-0.0596521	-0.141149
3.47752	-14.501	-13.8076	-2.10907	-4.19589	-9.22156	1.96374	-4.19735	-2.3839	2.13199	-9.65761	0.68786	-0.352763	-0.0154603	20.9584	24.4657	-2.6919	19.6145	19.3103	-7.4477	0.0173643	-30.7856	-3.49815	9.06842	-0.113611	0.0821434	0.130032	-0.463592	0.00157522	-0.0540223	0.0340156	-0.916741	-3.50109	-0.525675	-0.755475	-0.0528403	-0.0719474	-0.14521
3.4875	-8.74985	-11.1782	0.215335	-3.38283	-9.87644	1.95579	-7.93002	-3.60921	3.13878	-7.17948	0.779095	-0.436671	-0.0193549	19.6517	25.4222	-2.66452	20.3051	21.5613	-7.02578	0.0183515	-33.1605	-4.12162	9.3554	-0.185463	0.074205	0.13325	-0.51893	0.000745045	-0.0610625	0.0347345	-1.0354	-3.68563	-0.550585	-0.824505	-0.0562313	-0.0794924	-0.150831
3.49749	0.197251	-7.27313	2.34472	-0.342451	-11.1826	0.811099	-12.0409	-4.23387	3.94668	-4.62268	0.864796	-0.488252	-0.0236483	19.702	27.2861	-2.63873	20.7217	24.0721	-6.57249	0.0191466	-40.6087	-5.05929	9.04383	-0.75378	-0.205069	0.0980796	-0.812109	-0.00822474	-0.0988378	0.0284695	-1.70344	-3.77138	-0.551242	-1.12337	-0.0638179	-0.11701	-0.144676
3.50747	3.914	-4.9439	3.89571	8.30134	-19.525	3.1004	-14.351	-3.77584	4.16284	-2.25622	0.971475	-0.472328	-0.0290888	21.6204	29.3144	-2.57743	20.5112	26.864	-6.13073	0.0197651	-46.7532	-6.28086	8.89774	-1.19366	-0.386372	0.0759797	-1.04372	-0.0148072	-0.128975	0.0245038	-2.25982	-3.88358	-0.557743	-1.36955	-0.0705502	-0.147452	-0.140843
3.51745	6.41948	-4.41827	4.20141	12.342	-26.4381	6.22619	-16.3381	-2.19021	3.83139	0.434925	1.04754	-0.394022	-0.0346529	21.6333	30.8841	-2.57883	20.4443	29.8524	-5.71775	0.0209676	-48.8399	-6.79559	8.93575	-1.26289	-0.376227	0.0778261	-1.08945	-0.0156557	-0.134576	0.0246097	-2.33684	-4.04064	-0.576414	-1.42075	-0.0729406	-0.153058	-0.144894
3.52744	9.32879	-4.22992	3.59512	13.644	-31.1425	6.11832	-18.856	0.312204	3.23369	3.46588	1.04738	-0.268715	-0.0388412	20.5887	32.9224	-2.73495	20.3965	33.0317	-5.32151	0.022664	-49.0229	-6.38966	8.70307	-1.19044	-0.368413	0.0757052	-1.05894	-0.0151858	-0.129477	0.0230134	-2.1595	-4.12769	-0.586233	-1.37076	-0.0719633	-0.146407	-0.149131
3.53742	11.8754	-4.87195	2.01086	13.4869	-35.6826	4.78137	-21.8232	3.76745	2.45805	6.74468	0.951453	-0.103554	-0.0408616	19.2585	35.2375	-3.01451	20.1466	36.4162	-4.96915	0.0245179	-47.3679	-5.22802	8.19525	-1.0143	-0.349503	0.0713488	-0.965479	-0.0136353	-0.11545	0.0204272	-1.76804	-4.1544	-0.58777	-1.23478	-0.0680051	-0.129453	-0.153313
3.5474	16.0121	-6.22285	-0.620846	13.2757	-40.513	4.43704	-25.8612	8.30249	1.70831	10.2082	0.745254	0.0883659	-0.0401645	19.2509	37.8769	-3.28125	19.4887	40.03	-4.68131	0.0262118	-47.4155	-3.75564	7.33189	-1.12686	-0.449632	0.0497228	-0.992678	-0.0161901	-0.116409	0.0153521	-1.65488	-4.12271	-0.575211	-1.20973	-0.0656676	-0.126982	-0.151534
3.55739	22.3449	-7.61766	-3.76829	13.3575	-44.8583	4.89022	-31.0998	13.464	1.08458	13.776	0.440598	0.287961	-0.0367392	20.7144	40.9347	-3.44564	18.4343	43.8607	-4.47004	0.0275238	-50.0518	-2.42523	6.31427	-1.58739	-0.667852	0.0135226	-1.17553	-0.0232962	-0.137393	0.00867464	-1.95965	-4.06193	-0.552871	-1.34721	-0.0667246	-0.145048	-0.143564
3.56737	27.764	-10.0508	-7.15663	12.5362	-49.4794	4.96086	-36.7621	18.5523	0.461988	17.4578	0.0462455	0.471449	-0.0303215	21.3622	43.6599	-3.659	17.2419	47.8394	-4.36292	0.0288396	-49.3331	-0.868021	5.63088	-1.71245	-0.716735	0.000438767	-1.19879	-0.025216	-0.138114	0.0062365	-1.88765	-4.02443	-0.541072	-1.32737	-0.0645816	-0.143193	-0.141816
3.57735	31.8028	-13.0207	-11.0589	11.4266	-55.0107	4.98214	-42.845	23.0958	-0.148244	21.1868	-0.427115	0.608926	-0.0207081	21.3975	45.9802	-3.99539	15.925	51.9377	-4.36286	0.0304029	-45.1293	1.12102	4.82873	-1.52602	-0.673998	-0.00434544	-1.06754	-0.0231817	-0.118577	0.00421635	-1.38824	-3.93157	-0.525508	-1.13361	-0.0577167	-0.11993	-0.142782
3.58733	268.588	114.699	-70.4946	-873.286	1678.49	-1018.4	-204.21	-25.5136	5.92717	52.9387	-4.69077	-0.533394	0.0763371	-83.7148	101.313	-11.8575	25.5673	50.9381	-2.0176	0.116494	-62.6884	94.311	-5.60703	-23.7451	-20.2845	-2.17997	-9.85692	-0.32834	-1.01929	-0.429884	-23.677	3.86565	0.712737	-8.45791	-0.126293	-0.907976	0.210415
3.59732	201.323	70.4312	-62.7733	-549.421	1148.08	-674.386	-162.177	-4.39666	2.47132	48.6119	-4.0475	-0.0856823	0.0615614	-42.3452	84.7476	-9.27494	18.2059	57.6141	-3.88036	0.0938125	-62.9407	66.3109	-4.46339	-16.7928	-14.2945	-1.54909	-7.15441	-0.239312	-0.743984	-0.306648	-16.2958	1.30438	0.332404	-6.13366	-0.102744	-0.663144	0.101808
3.6073	147.188	34.279	-55.7195	-300.766	706.357	-403.364	-130.01	11.5189	0.262722	44.9474	-3.62368	0.206059	0.05379	-9.76497	71.6023	-7.0201	12.2176	64.4699	-6.29665	0.0751715	-58.8221	44.9266	-3.48771	-11.0183	-9.46653	-1.03887	-4.86579	-0.164659	-0.507043	-0.207483	-10.1381	-0.535855	0.0495657	-4.13516	-0.0790749	-0.449895	0.0177815
3.61728	105.582	6.82235	-50.3783	-116.61	356.297	-202.079	-107.283	22.8184	-1.01631	42.1609	-3.38015	0.381164	0.0510065	15.6204	62.1481	-5.22527	7.43838	71.2239	-8.99417	0.0615064	-52.7401	29.8328	-3.39368	-6.55832	-5.92658	-0.674136	-3.06676	-0.108078	-0.318122	-0.138399	-5.27823	-1.63648	-0.123924	-2.51819	-0.0557852	-0.276437	-0.0368565
3.62727	74.4902	-13.7948	-47.297	9.50186	89.9295	-63.866	-92.5854	30.5651	-1.6394	40.3274	-3.2705	0.493624	0.0509897	34.049	55.7106	-4.02626	3.88365	77.6792	-11.7649	0.0526231	-43.7741	20.4285	-4.20331	-3.22978	-3.5208	-0.438839	-1.67566	-0.0670067	-0.167631	-0.0962815	-1.47474	-2.07816	-0.199385	-1.20158	-0.0315819	-0.133409	-0.0663218
3.63725	53.5874	-25.9941	-46.5118	106.464	-92.282	27.3516	-83.3187	35.558	-1.70811	38.9738	-3.24932	0.596393	0.052165	49.3689	52.6107	-3.16855	1.076	83.7087	-14.4246	0.0491685	-40.6299	15.8966	-6.89428	-1.38542	-2.41742	-0.368899	-0.913891	-0.0498447	-0.0866177	-0.0887245	0.908972	-1.97704	-0.174539	-0.406355	-0.0120745	-0.051848	-0.0635719
3.64723	41.8063	-34.0712	-45.3975	169.377	-213.64	86.6671	-78.0819	38.8499	-1.28038	37.9747	-3.28628	0.722639	0.0532801	59.6326	51.2514	-2.39161	-0.446214	89.28	-16.8201	0.0467984	-39.8643	12.7021	-8.08408	-0.349579	-1.65085	-0.309495	-0.492491	-0.0393065	-0.0440223	-0.0789776	2.16497	-2.02182	-0.174903	0.00288978	-0.00327623	-0.0113907	-0.0639977
3.65722	36.0927	-38.2062	-43.3083	209.427	-288.224	122.628	-74.8287	40.4781	-0.527382	36.9508	-3.34569	0.864146	0.054123	66.1615	51.3433	-1.55904	-0.887862	94.3252	-18.8526	0.0451733	-42.0838	10.0689	-7.74528	0.0490766	-1.06967	-0.244945	-0.35154	-0.0333813	-0.0342565	-0.0640266	2.46571	-2.28685	-0.211283	0.0748653	-0.0049812	-0.00725608	-0.0703333
3.6672	30.838	-40.5459	-40.7231	221.445	-337.299	136.76	-72.5106	40.3895	0.151854	35.7676	-3.36639	0.962842	0.0542449	68.5224	51.4234	-1.04763	-0.335675	98.7666	-20.5271	0.0447331	-40.144	7.66471	-6.84838	0.285021	-0.591923	-0.179395	-0.231115	-0.026537	-0.0226797	-0.0485561	2.54421	-2.47393	-0.243062	0.128361	-0.00631827	-0.000714713	-0.0773443
3.67718	23.7615	-41.2132	-38.0992	217.336	-368.733	132.538	-69.6588	38.3237	0.624196	34.0657	-3.32786	0.995698	0.0540257	68.2305	51.5125	-0.880096	0.962291	102.544	-21.8268	0.0455479	-34.9548	6.30727	-6.06125	0.369809	-0.306476	-0.133519	-0.134817	-0.0208137	-0.0100824	-0.0374919	2.52762	-2.49046	-0.252646	0.188713	-0.00540248	0.00915313	-0.0806098
3.68716	16.2764	-37.8972	-35.2567	221.703	-377.813	120.645	-64.9475	34.0881	1.04736	31.4595	-3.24945	0.982795	0.0542873	68.751	52.7195	-0.627719	2.57639	105.62	-22.7229	0.0472098	-35.4151	6.48248	-5.50105	-0.10179	-0.349226	-0.127106	-0.310502	-0.0239673	-0.0309911	-0.0327862	1.8971	-2.5348	-0.257364	-0.0177442	-0.0104857	-0.0142374	-0.078574
3.69715	5.58109	-33.6334	-32.8629	218.03	-381.257	99.3754	-59.0837	27.9241	1.19858	28.2342	-3.09541	0.885733	0.0542874	67.9653	53.0877	-0.624411	4.68202	107.852	-23.2626	0.0502116	-32.5792	7.42985	-5.57434	-0.563979	-0.543482	-0.145046	-0.446841	-0.0276054	-0.0440143	-0.0347207	1.41613	-2.35346	-0.228975	-0.139201	-0.0107907	-0.0265837	-0.0702957
3.70713	-8.39616	-28.5	-31.2592	210.07	-380.278	70.0491	-52.177	20.1877	1.09585	24.4864	-2.86032	0.711463	0.0535875	66.5144	52.8105	-0.920069	7.07777	109.113	-23.4497	0.0548534	-26.8586	9.51447	-6.70568	-1.03084	-0.957136	-0.201572	-0.552372	-0.0331011	-0.0501916	-0.0468158	1.12999	-1.8782	-0.154555	-0.167314	-0.00519741	-0.0278783	-0.0523029
3.71711	-25.3295	-22.8506	-30.9873	195.59	-376.372	33.341	-44.9598	11.5893	0.70453	20.5183	-2.53016	0.464132	0.0512033	64.2873	51.8478	-1.64239	9.57776	109.258	-23.281	0.0615617	-17.074	12.7211	-9.44737	-1.43511	-1.63875	-0.310155	-0.58683	-0.0405018	-0.0437995	-0.0733489	1.19569	-0.989309	-0.0142858	-0.0371446	0.00931332	-0.0106753	-0.0202262
3.7271	-41.5574	-14.0236	-31.18	198.428	-353.246	1.22352	-37.3917	2.82312	0.324259	16.3176	-2.10912	0.192603	0.0460192	65.4714	52.1321	-2.33657	11.5196	108.252	-22.742	0.0690484	-14.895	16.977	-13.2741	-2.3582	-2.7163	-0.480635	-0.897685	-0.0587909	-0.0727446	-0.112905	0.740362	-0.0408857	0.151674	-0.161652	0.0192733	-0.0274242	0.0241223
3.73708	-56.5917	-5.50603	-31.1147	195.787	-324.738	-28.0832	-31.3618	-5.13452	-0.0345358	12.6621	-1.58874	-0.0963541	0.0364074	66.767	52.3264	-3.04059	13.251	105.947	-21.8143	0.0750745	-12.3441	20.3265	-16.3137	-3.17224	-3.60716	-0.619258	-1.16362	-0.0736943	-0.0969442	-0.144964	0.29111	0.758635	0.290264	-0.276148	0.0274307	-0.0417307	0.0609787
3.74706	-69.1483	1.09836	-30.9194	188.002	-288.234	-51.3537	-27.685	-10.869	-0.298769	10.0397	-1.00119	-0.355522	0.021881	68.8803	52.3062	-3.63346	14.5644	102.229	-20.5195	0.0791332	-10.2082	22.5854	-18.1927	-3.88846	-4.2675	-0.71592	-1.39982	-0.0847923	-0.118959	-0.166754	-0.22945	1.33324	0.388297	-0.413306	0.0319486	-0.0572441	0.0874361
3.75705	-79.7061	4.29885	-30.5378	170.488	-245.933	-68.6889	-26.5267	-13.5764	-0.462187	8.62349	-0.4218	-0.543453	0.004451	71.3228	51.6316	-4.12208	15.3616	97.0017	-18.8863	0.0807751	-6.37942	23.4647	-18.8484	-4.37178	-4.64386	-0.763213	-1.53435	-0.0897496	-0.129325	-0.177431	-0.666583	1.72623	0.448522	-0.49718	0.0348529	-0.0640175	0.102801
3.76703	-86.8966	5.3342	-29.1344	155.043	-190.016	-74.663	-26.688	-13.61	-0.429165	7.70631	0.0822391	-0.642073	-0.0125147	75.399	50.7217	-4.30639	15.4695	90.3162	-16.9633	0.0780297	-6.39041	22.7415	-17.9361	-4.86533	-4.80114	-0.765117	-1.72471	-0.0925146	-0.150194	-0.17635	-1.43177	1.7786	0.451472	-0.720633	0.029641	-0.0864706	0.106227
3.77701	-89.5423	4.79696	-26.0913	146.112	-118.393	-67.4801	-27.2722	-11.6201	-0.229744	6.72393	0.470002	-0.666362	-0.0262383	80.7532	49.4808	-4.12862	14.9564	82.2885	-14.8138	0.0691861	-12.3011	20.0806	-15.0364	-5.4119	-4.70227	-0.712197	-2.01456	-0.0935054	-0.188588	-0.1605	-2.66885	1.37105	0.378827	-1.15392	0.0130671	-0.133397	0.0944754
3.78699	-89.7985	1.25405	-22.453	129.654	-43.585	-56.1607	-28.0269	-7.87851	-0.119618	5.80001	0.702826	-0.629977	-0.0348687	84.1509	46.9217	-3.80516	14.0957	73.0366	-12.5136	0.0554897	-16.2366	16.1182	-10.8821	-5.62696	-4.30875	-0.608506	-2.17013	-0.0876383	-0.212077	-0.133382	-3.72428	0.783872	0.266629	-1.50278	-0.00467703	-0.168344	0.0709021
3.79698	-85.0479	-3.54134	-18.0049	113.619	38.2827	-38.762	-29.0255	-2.79215	-0.0360896	5.05294	0.755936	-0.533621	-0.0378798	85.7901	43.5515	-3.37451	12.8639	62.9584	-10.1822	0.0362568	-21.9592	10.9424	-5.73086	-5.70575	-3.73456	-0.47152	-2.30651	-0.0790119	-0.236213	-0.0981761	-4.8295	-0.0336359	0.114395	-1.88659	-0.0266718	-0.207249	0.0381896
3.80696	-76.9688	-8.81914	-13.5802	92.1002	116.714	-23.0987	-29.6565	2.65318	-0.095841	4.53654	0.660543	-0.402001	-0.0359897	83.6779	39.4453	-2.93674	11.3811	52.472	-7.92751	0.0134464	-25.4314	5.75333	-0.549058	-5.50716	-3.05286	-0.322123	-2.31837	-0.0669416	-0.245337	-0.0609816	-5.59435	-0.850781	-0.0419921	-2.14112	-0.0458798	-0.23083	0.00221854
3.81694	-67.4858	-13.4729	-10.201	65.1232	187.943	-13.8945	-29.6021	7.58141	-0.317568	4.20355	0.456393	-0.254464	-0.0302373	77.9419	34.9218	-2.52193	9.48696	42.1057	-5.87692	-0.0102309	-25.4029	1.80882	3.53086	-5.07436	-2.45127	-0.197094	-2.19898	-0.0540149	-0.236362	-0.0311274	-5.85561	-1.4428	-0.162909	-2.2024	-0.0575393	-0.232416	-0.0280639
3.82693	-57.4121	-17.0517	-8.01764	36.1241	253.081	-10.6345	-29.0681	11.6619	-0.628163	4.03629	0.179917	-0.102621	-0.0218945	69.9528	30.2863	-2.09861	6.95578	32.4236	-4.13877	-0.0325332	-23.0952	-0.635463	6.31131	-4.52721	-2.00517	-0.107904	-2.00326	-0.0422866	-0.215824	-0.0109506	-5.72415	-1.79478	-0.242759	-2.11878	-0.0623499	-0.218152	-0.0503597
3.83691	-43.4286	-18.9452	-5.42132	26.8444	326.544	1.24706	-28.0557	15.1005	-0.84024	3.72932	-0.131149	0.0466397	-0.0122457	64.0364	26.005	-1.62785	3.49155	24.0436	-2.7978	-0.0548898	-29.2786	-3.4393	8.30832	-4.39767	-1.85319	-0.0657439	-2.05775	-0.0399943	-0.228792	-0.000377124	-6.07494	-2.20743	-0.315147	-2.28677	-0.0730951	-0.237614	-0.064643
3.84689	-28.3054	-20.2932	-3.34508	24.6062	395.939	11.3995	-26.975	17.7557	-0.975765	3.4989	-0.449633	0.181238	-0.00237309	58.1906	22.5747	-1.35009	-0.481057	17.1373	-1.80012	-0.0734632	-37.0074	-4.95607	9.72773	-4.35522	-1.83608	-0.0477051	-2.15688	-0.0409643	-0.246965	0.00547515	-6.39284	-2.57917	-0.376261	-2.47178	-0.0831443	-0.261059	-0.0762653
3.85688	-15.5217	-21.2423	-3.03978	17.083	450.276	11.0542	-25.7443	19.3846	-1.12843	3.45093	-0.737838	0.290575	0.00659313	50.5966	20.0412	-1.35202	-4.47146	11.6583	-1.0812	-0.0829377	-39.7838	-3.68147	10.1559	-4.11895	-1.8963	-0.0513928	-2.11427	-0.0407386	-0.243919	0.00560337	-6.1668	-2.697	-0.400536	-2.43809	-0.0843865	-0.258942	-0.0840534
3.86686	-1.5446	-22.3733	-3.28404	24.8833	504.017	16.0152	-23.7324	20.5881	-1.23553	3.17329	-0.978986	0.386556	0.0142178	44.7416	17.7208	-1.50181	-8.27594	7.64154	-0.629897	-0.0841691	-47.8153	-1.96257	9.97712	-4.16698	-2.18897	-0.0921074	-2.23344	-0.0471981	-0.261817	-0.00160658	-6.21425	-2.81027	-0.414284	-2.55451	-0.0885429	-0.277421	-0.086216
3.87684	10.7773	-24.2545	-5.17046	30.7413	544.35	17.8915	-21.3499	21.4688	-1.36063	2.93162	-1.173	0.472931	0.0202447	37.8056	15.3519	-1.71412	-11.1038	4.76864	-0.35423	-0.07517	-53.0783	1.20949	9.25928	-4.10587	-2.50906	-0.143102	-2.27066	-0.0527819	-0.267394	-0.0116855	-5.9547	-2.7896	-0.408551	-2.54669	-0.0877651	-0.281227	-0.0866213
3.88683	20.1428	-26.7528	-8.89834	29.8359	568.262	15.4219	-18.7136	22.2051	-1.54119	2.77744	-1.31545	0.553445	0.0244512	29.3201	12.7907	-1.86489	-12.5571	2.77193	-0.190941	-0.0576752	-53.3938	5.74823	8.01329	-3.83173	-2.79545	-0.196504	-2.16094	-0.0552511	-0.251821	-0.023717	-5.25671	-2.59264	-0.379353	-2.34425	-0.0800217	-0.260932	-0.0854177
3.89681	29.5934	-29.9527	-13.0902	23.8065	594.762	14.6477	-15.7991	23.4136	-1.78366	2.6254	-1.41537	0.642146	0.0269474	20.03	9.73585	-1.8325	-15.4312	1.28054	-0.174082	-0.0364873	-52.7332	10.4212	6.63965	-3.53757	-3.07325	-0.250496	-2.02806	-0.0571804	-0.232574	-0.036285	-4.49508	-2.35525	-0.344088	-2.10857	-0.0708976	-0.236294	-0.0833746
3.90679	31.9136	-33.8785	-19.5367	15.029	583.352	9.7602	-13.303	24.7083	-2.06508	2.67384	-1.478	0.726266	0.0279446	11.1239	7.17519	-1.75059	-12.2891	0.562563	-0.0506878	-0.0138559	-45.3602	15.5803	5.27569	-2.9569	-3.16606	-0.280769	-1.704	-0.0527837	-0.186927	-0.0452495	-3.31019	-2.00511	-0.298982	-1.65821	-0.0554516	-0.183422	-0.0831647
3.91677	34.3054	-37.4687	-25.1888	13.8175	576.57	11.0956	-10.7445	26.2236	-2.3605	2.55361	-1.50719	0.805263	0.0279493	4.77351	4.79609	-1.57383	-9.55054	-0.00454884	0.0474295	0.00414175	-42.1241	19.1352	4.02873	-2.62631	-3.33997	-0.319693	-1.52567	-0.0520559	-0.161214	-0.0556389	-2.55533	-1.72002	-0.258378	-1.38401	-0.045107	-0.152145	-0.0796557
3.92676	0	0	0	0	0	0	0	0	0	0	0	0	0	0	0	0	0	0	0	0	0	0	0	0	0	0	0	0	0	0	0	0	0	0	0	0	0
