Coordinates
version=1
nRows=222
nColumns=38
inDegrees=no

Units are S.I. units (second, meters, Newtons, ...)
If the header above contains a line with 'inDegrees', this indicates whether rotational values are in degrees (yes) or radians (no).

endheader
time	pelvis_tilt	pelvis_list	pelvis_rotation	pelvis_tx	pelvis_ty	pelvis_tz	hip_flexion_r	hip_adduction_r	hip_rotation_r	knee_angle_r	ankle_angle_r	subtalar_angle_r	mtp_angle_r	hip_flexion_l	hip_adduction_l	hip_rotation_l	knee_angle_l	ankle_angle_l	subtalar_angle_l	mtp_angle_l	lumbar_extension	lumbar_bending	lumbar_rotation	arm_flex_r	arm_add_r	arm_rot_r	elbow_flex_r	pro_sup_r	wrist_flex_r	wrist_dev_r	arm_flex_l	arm_add_l	arm_rot_l	elbow_flex_l	pro_sup_l	wrist_flex_l	wrist_dev_l
2.23	2.68984	-0.0965438	-3.07276	-1.08341	-0.996962	0.234647	-0.0306421	-0.112632	-0.191898	0.397476	0.0103198	0	0	0.0297327	0.00468038	0.0342174	1.29467	-0.171302	0	0	-0.96442	0.0390266	-0.182726	0.850228	-0.431403	-0.0741704	1.17818	0.770348	0	0	0.962726	0.209818	-0.00888164	1.13203	0.770111	0	0
2.23999	2.69402	-0.095281	-3.07577	-1.07339	-0.998425	0.235176	-0.0346744	-0.111564	-0.198164	0.40218	0.0170593	0	0	0.0529375	0.0051073	0.0251946	1.28711	-0.160842	0	0	-0.961288	0.0356987	-0.171018	0.850148	-0.433484	-0.0745296	1.17789	0.770321	0	0	0.962379	0.211532	-0.00850799	1.13182	0.770105	0	0
2.24997	2.69834	-0.0939907	-3.07874	-1.06337	-0.999874	0.235714	-0.0386022	-0.110468	-0.204353	0.406801	0.0238217	0	0	0.0762499	0.00554593	0.0162068	1.27929	-0.1504	0	0	-0.958064	0.0324357	-0.159453	0.850067	-0.435564	-0.0748887	1.1776	0.770293	0	0	0.962031	0.213246	-0.0081343	1.13161	0.7701	0	0
2.25996	2.70288	-0.0926127	-3.08164	-1.05335	-1.00129	0.236276	-0.0423665	-0.109294	-0.210354	0.411254	0.0306442	0	0	0.0996278	0.00600064	0.0073037	1.27066	-0.140013	0	0	-0.954674	0.0293468	-0.148169	0.849987	-0.437645	-0.075248	1.17731	0.770266	0	0	0.961683	0.21496	-0.00776057	1.1314	0.770095	0	0
2.26995	2.70766	-0.0910526	-3.08447	-1.04333	-1.00265	0.236879	-0.0459425	-0.107976	-0.216051	0.415519	0.0375728	0	0	0.122878	0.00646198	-0.00145385	1.26052	-0.129755	0	0	-0.951101	0.0265648	-0.137251	0.849906	-0.439727	-0.0756072	1.17702	0.770238	0	0	0.961335	0.216675	-0.00738681	1.13118	0.77009	0	0
2.27993	2.71268	-0.0891926	-3.08723	-1.03329	-1.00392	0.237544	-0.0493292	-0.106434	-0.221316	0.41962	0.0446614	0	0	0.145722	0.00689543	-0.0100027	1.24809	-0.11975	0	0	-0.94736	0.0242286	-0.126712	0.849825	-0.441808	-0.0759665	1.17673	0.770211	0	0	0.960987	0.21839	-0.00701301	1.13097	0.770085	0	0
2.28992	2.71789	-0.0869005	-3.08991	-1.02324	-1.00508	0.23829	-0.0525405	-0.104568	-0.226011	0.423608	0.0519661	0	0	0.16785	0.00723668	-0.0182749	1.23267	-0.110166	0	0	-0.943483	0.0224741	-0.116509	0.849744	-0.443889	-0.0763258	1.17643	0.770183	0	0	0.960639	0.220105	-0.00663917	1.13076	0.77008	0	0
2.2999	2.72323	-0.0840445	-3.09252	-1.01316	-1.00609	0.239133	-0.0555988	-0.102267	-0.230002	0.427546	0.0595404	0	0	0.188965	0.0073909	-0.0262053	1.21366	-0.101216	0	0	-0.93949	0.0214241	-0.106554	0.849663	-0.445971	-0.0766851	1.17614	0.770156	0	0	0.96029	0.22182	-0.0062653	1.13055	0.770074	0	0
2.30989	2.72866	-0.0804936	-3.09505	-1.00304	-1.00694	0.240086	-0.0585301	-0.0994048	-0.23316	0.431492	0.0674243	0	0	0.208788	0.00724948	-0.0337039	1.19057	-0.0931597	0	0	-0.935426	0.021189	-0.0967355	0.849582	-0.448053	-0.0770444	1.17585	0.770128	0	0	0.959942	0.223535	-0.0058914	1.13034	0.770069	0	0
2.31988	2.73415	-0.0761549	-3.09749	-0.992875	-1.00759	0.241158	-0.0613604	-0.095879	-0.235385	0.435486	0.0756726	0	0	0.227137	0.00667897	-0.0407561	1.16316	-0.0862218	0	0	-0.931201	0.0218337	-0.086934	0.8495	-0.450135	-0.0774038	1.17556	0.770101	0	0	0.959593	0.22525	-0.00551746	1.13013	0.770064	0	0
2.32986	2.73972	-0.0709804	-3.09981	-0.982642	-1.00802	0.242352	-0.0641139	-0.0916242	-0.236605	0.439538	0.0843607	0	0	0.243945	0.00553584	-0.0474382	1.1314	-0.0805579	0	0	-0.926565	0.0233673	-0.0770312	0.849419	-0.452217	-0.0777632	1.17527	0.770073	0	0	0.959243	0.226965	-0.00514349	1.12991	0.770059	0	0
2.33985	2.74538	-0.064933	-3.10201	-0.972329	-1.00823	0.243668	-0.0668111	-0.0865814	-0.236763	0.443659	0.0935437	0	0	0.259175	0.00369279	-0.0537866	1.09539	-0.0762976	0	0	-0.921338	0.0257848	-0.0669357	0.849336	-0.454299	-0.0781226	1.17498	0.770046	0	0	0.958894	0.22868	-0.00476949	1.1297	0.770054	0	0
2.34984	2.75114	-0.0579825	-3.10406	-0.961923	-1.00818	0.245102	-0.0694689	-0.0806914	-0.235829	0.447869	0.103259	0	0	0.272815	0.00103638	-0.0597859	1.05531	-0.0735316	0	0	-0.91543	0.0290846	-0.05659	0.849254	-0.456381	-0.0784821	1.17468	0.770018	0	0	0.958544	0.230395	-0.00439545	1.12949	0.770049	0	0
2.35982	2.75698	-0.0501057	-3.10593	-0.951414	-1.00788	0.246647	-0.0721	-0.0738929	-0.233802	0.452202	0.113528	0	0	0.284873	-0.0025321	-0.0653649	1.01141	-0.0722956	0	0	-0.908852	0.0332788	-0.0459754	0.849171	-0.458463	-0.0788415	1.17439	0.769991	0	0	0.958193	0.23211	-0.00402138	1.12928	0.770044	0	0
2.36981	2.76289	-0.0412853	-3.10758	-0.940794	-1.00732	0.248292	-0.0747139	-0.0661232	-0.230706	0.456705	0.124347	0	0	0.295376	-0.00709373	-0.0703988	0.964007	-0.0725637	0	0	-0.901737	0.0383973	-0.0351155	0.849088	-0.460546	-0.079201	1.1741	0.769964	0	0	0.957842	0.233826	-0.00364728	1.12907	0.770039	0	0
2.3798	2.76887	-0.03157	-3.10895	-0.930057	-1.0065	0.250024	-0.0773166	-0.0573819	-0.22662	0.461399	0.135748	0	0	0.304492	-0.0126953	-0.0748488	0.913657	-0.0741902	0	0	-0.89402	0.0444322	-0.0240678	0.849004	-0.462628	-0.0795605	1.17381	0.769936	0	0	0.957491	0.235541	-0.00327315	1.12885	0.770034	0	0
2.38978	2.77493	-0.0210298	-3.10997	-0.919201	-1.00543	0.251829	-0.0799115	-0.0476945	-0.221648	0.466315	0.14772	0	0	0.312379	-0.0193355	-0.0786394	0.860948	-0.0769517	0	0	-0.885793	0.0513625	-0.0129337	0.84892	-0.46471	-0.07992	1.17351	0.769909	0	0	0.957139	0.237256	-0.00289899	1.12864	0.770029	0	0
2.39977	2.78103	-0.00974789	-3.11059	-0.908227	-1.00412	0.253692	-0.0825	-0.0371085	-0.215917	0.471522	0.160218	0	0	0.319168	-0.0269733	-0.0816637	0.806477	-0.0805576	0	0	-0.877313	0.0591618	-0.00185148	0.848836	-0.466793	-0.0802796	1.17322	0.769882	0	0	0.956787	0.238971	-0.0025248	1.12843	0.770024	0	0
2.40975	2.78713	0.00213069	-3.11078	-0.897138	-1.00259	0.255598	-0.0850819	-0.0257481	-0.209595	0.47709	0.173203	0	0	0.325057	-0.0355065	-0.0838961	0.751015	-0.0846299	0	0	-0.86871	0.0677497	0.00901362	0.848751	-0.468875	-0.0806391	1.17293	0.769855	0	0	0.956434	0.240686	-0.00215059	1.12822	0.77002	0	0
2.41974	2.79324	0.0143835	-3.11052	-0.885939	-1.00087	0.257529	-0.0876558	-0.0138358	-0.202885	0.48307	0.186651	0	0	0.330306	-0.0447549	-0.0854247	0.695495	-0.0887191	0	0	-0.859962	0.0769596	0.0194769	0.848665	-0.470958	-0.0809986	1.17264	0.769827	0	0	0.95608	0.242401	-0.00177634	1.128	0.770015	0	0
2.42973	2.79929	0.0267738	-3.10984	-0.874635	-0.998964	0.259471	-0.0902196	-0.0016216	-0.19599	0.489581	0.200467	0	0	0.335062	-0.0544942	-0.0863267	0.640772	-0.0923711	0	0	-0.851309	0.0865916	0.0293491	0.848579	-0.473041	-0.0813582	1.17234	0.7698	0	0	0.955726	0.244116	-0.00140207	1.12779	0.77001	0	0
2.43971	2.80522	0.0390339	-3.10879	-0.863233	-0.996922	0.261408	-0.0927709	0.0105952	-0.18912	0.496747	0.214567	0	0	0.339474	-0.0644634	-0.0867605	0.587772	-0.0951488	0	0	-0.842898	0.0964074	0.0384394	0.848492	-0.475123	-0.0817178	1.17205	0.769773	0	0	0.955371	0.245831	-0.00102773	1.12758	0.770005	0	0
2.4497	2.81094	0.0508939	-3.10741	-0.851736	-0.994771	0.263326	-0.0953069	0.0224891	-0.182465	0.504729	0.22884	0	0	0.343625	-0.0743822	-0.0869306	0.537393	-0.096693	0	0	-0.834885	0.106148	0.0465693	0.848404	-0.477206	-0.0820774	1.17176	0.769746	0	0	0.955016	0.247546	-0.000653336	1.12736	0.770001	0	0
2.45969	2.81636	0.0621714	-3.10578	-0.840149	-0.992546	0.265212	-0.0978248	0.0338139	-0.176135	0.513731	0.243156	0	0	0.3475	-0.0840491	-0.0870137	0.490423	-0.0967711	0	0	-0.827492	0.115622	0.0536119	0.848316	-0.479289	-0.0824371	1.17146	0.769719	0	0	0.954659	0.249261	-0.000278876	1.12715	0.769996	0	0
2.46967	2.82141	0.07268	-3.10396	-0.828472	-0.990283	0.267055	-0.100322	0.044315	-0.170204	0.523858	0.257374	0	0	0.351123	-0.0932586	-0.0872485	0.447651	-0.0952962	0	0	-0.820772	0.12461	0.0594775	0.848227	-0.481372	-0.0827968	1.17117	0.769692	0	0	0.954302	0.250976	9.5644e-05	1.12694	0.769991	0	0
2.47966	2.82604	0.0822668	-3.10206	-0.816702	-0.988019	0.268842	-0.102796	0.0537693	-0.164688	0.535203	0.271288	0	0	0.354453	-0.101835	-0.0878527	0.409712	-0.0923703	0	0	-0.814781	0.132906	0.0641295	0.848137	-0.483456	-0.0831565	1.17088	0.769665	0	0	0.953943	0.252691	0.000470223	1.12672	0.769987	0	0
2.48964	2.83027	0.0908041	-3.10017	-0.804833	-0.985791	0.270564	-0.105245	0.0619675	-0.159556	0.547744	0.284715	0	0	0.357474	-0.10962	-0.0890397	0.377124	-0.0882875	0	0	-0.809403	0.140295	0.0675601	0.848046	-0.485539	-0.0835162	1.17058	0.769638	0	0	0.953584	0.254405	0.00084486	1.12651	0.769982	0	0
2.49963	2.83411	0.0982064	-3.09843	-0.792858	-0.983636	0.272212	-0.107669	0.0687359	-0.154727	0.56146	0.297427	0	0	0.360088	-0.116499	-0.0909766	0.350167	-0.0835302	0	0	-0.804524	0.146581	0.0698019	0.847954	-0.487622	-0.083876	1.17029	0.769611	0	0	0.953223	0.25612	0.00121955	1.12629	0.769978	0	0
2.50962	2.83757	0.104434	-3.09697	-0.780768	-0.981587	0.273778	-0.110068	0.0739479	-0.150095	0.576355	0.309158	0	0	0.362108	-0.122402	-0.0937596	0.328837	-0.0787532	0	0	-0.800061	0.151609	0.0709218	0.847861	-0.489706	-0.0842358	1.16999	0.769584	0	0	0.952861	0.257834	0.0015943	1.12608	0.769973	0	0
2.5196	2.84061	0.10949	-3.09588	-0.768552	-0.979677	0.275255	-0.112442	0.0775248	-0.145561	0.592495	0.319581	0	0	0.363228	-0.127299	-0.0974041	0.312806	-0.0747524	0	0	-0.79602	0.155271	0.0710128	0.847767	-0.491789	-0.0845956	1.1697	0.769558	0	0	0.952498	0.259549	0.0019691	1.12586	0.769969	0	0
2.52959	2.84327	0.11335	-3.0953	-0.756201	-0.977938	0.276639	-0.114796	0.0793533	-0.141122	0.609766	0.328413	0	0	0.363235	-0.131127	-0.101919	0.301587	-0.0723736	0	0	-0.792193	0.157415	0.0701406	0.847672	-0.493872	-0.0849554	1.1694	0.769531	0	0	0.952134	0.261263	0.00234396	1.12565	0.769964	0	0
2.53958	2.84563	0.115961	-3.0954	-0.74371	-0.976395	0.277925	-0.117134	0.0792849	-0.13689	0.628025	0.335342	0	0	0.36196	-0.133786	-0.107333	0.294561	-0.0724152	0	0	-0.788316	0.157864	0.0683504	0.847575	-0.495956	-0.0853153	1.16911	0.769504	0	0	0.951768	0.262977	0.00271886	1.12543	0.76996	0	0
2.54956	2.84764	0.117269	-3.09623	-0.731073	-0.975072	0.279111	-0.119465	0.0772085	-0.133049	0.647292	0.33996	0	0	0.359192	-0.135188	-0.113674	0.291007	-0.0755299	0	0	-0.784373	0.156508	0.0656975	0.847477	-0.498039	-0.0856751	1.16881	0.769477	0	0	0.951401	0.26469	0.00309382	1.12522	0.769956	0	0
2.55955	2.84913	0.117255	-3.09775	-0.718294	-0.973991	0.280195	-0.121797	0.0730996	-0.12981	0.667767	0.341782	0	0	0.354688	-0.13529	-0.120932	0.290152	-0.0821332	0	0	-0.780628	0.153345	0.062245	0.847378	-0.500122	-0.086035	1.16852	0.769451	0	0	0.951033	0.266403	0.00346882	1.125	0.769952	0	0
2.56954	2.84995	0.11591	-3.09984	-0.705379	-0.973165	0.28118	-0.124145	0.0669768	-0.127414	0.689602	0.340324	0	0	0.348286	-0.134065	-0.129043	0.291239	-0.0923056	0	0	-0.777307	0.14843	0.0580199	0.847277	-0.502205	-0.0863948	1.16822	0.769424	0	0	0.950662	0.268116	0.00384387	1.12478	0.769947	0	0
2.57952	2.84992	0.113241	-3.10238	-0.692338	-0.972607	0.28207	-0.126523	0.0588941	-0.126112	0.712923	0.335101	0	0	0.339871	-0.131506	-0.137864	0.293582	-0.105709	0	0	-0.774638	0.141863	0.053029	0.847175	-0.504288	-0.0867546	1.16792	0.769398	0	0	0.950291	0.269829	0.00421896	1.12457	0.769943	0	0
2.58951	2.84891	0.109273	-3.10523	-0.67919	-0.97232	0.282867	-0.128948	0.0489399	-0.126115	0.737778	0.325673	0	0	0.32938	-0.127626	-0.147124	0.296623	-0.121567	0	0	-0.772792	0.133776	0.0472658	0.847071	-0.50637	-0.0871145	1.16763	0.769372	0	0	0.949917	0.271541	0.0045941	1.12435	0.769939	0	0
2.59949	2.84676	0.104083	-3.10824	-0.665954	-0.972304	0.283581	-0.131436	0.0372703	-0.127545	0.764209	0.311664	0	0	0.316742	-0.122489	-0.156423	0.299953	-0.138805	0	0	-0.771977	0.124365	0.0407378	0.846966	-0.508453	-0.0874743	1.16733	0.769345	0	0	0.949542	0.273253	0.00496928	1.12413	0.769935	0	0
2.60948	2.84339	0.0977596	-3.11131	-0.652655	-0.972554	0.284218	-0.134004	0.0240615	-0.130401	0.792034	0.292858	0	0	0.302012	-0.116167	-0.165385	0.303381	-0.156285	0	0	-0.772213	0.113814	0.0334502	0.846858	-0.510535	-0.0878341	1.16703	0.769319	0	0	0.949165	0.274964	0.0053445	1.12391	0.769931	0	0
2.61947	2.83874	0.0904365	-3.11433	-0.639321	-0.973057	0.284788	-0.136662	0.00953851	-0.134541	0.821067	0.269207	0	0	0.285219	-0.108772	-0.173701	0.306801	-0.172946	0	0	-0.773585	0.102344	0.025441	0.84675	-0.512617	-0.0881939	1.16673	0.769293	0	0	0.948786	0.276674	0.00571976	1.1237	0.769927	0	0
2.62945	2.83268	0.0822976	-3.11723	-0.625982	-0.973798	0.285304	-0.139414	-0.00601266	-0.139654	0.851128	0.240905	0	0	0.266364	-0.100453	-0.181135	0.310141	-0.187838	0	0	-0.77625	0.0902212	0.0167838	0.846639	-0.514698	-0.0885537	1.16643	0.769266	0	0	0.948404	0.278385	0.00609506	1.12348	0.769923	0	0
2.63944	2.82508	0.0735769	-3.11994	-0.612667	-0.974755	0.285777	-0.142249	-0.0222437	-0.145279	0.882065	0.208446	0	0	0.245399	-0.0914057	-0.187545	0.313318	-0.200186	0	0	-0.780471	0.0777594	0.00758853	0.846526	-0.516779	-0.0889134	1.16613	0.76924	0	0	0.948021	0.280094	0.00647043	1.12326	0.76992	0	0
2.64943	2.81591	0.0644926	-3.12247	-0.599406	-0.975904	0.28622	-0.145136	-0.0388119	-0.150834	0.913534	0.172695	0	0	0.222386	-0.0818092	-0.192921	0.316318	-0.209479	0	0	-0.786331	0.0652178	-0.00202317	0.846411	-0.518861	-0.0892732	1.16583	0.769214	0	0	0.947636	0.281803	0.00684588	1.12304	0.769916	0	0
2.65941	2.80509	0.0552969	-3.12481	-0.586226	-0.977216	0.286647	-0.14802	-0.0553445	-0.155708	0.94528	0.134875	0	0	0.197314	-0.0718784	-0.197338	0.319073	-0.215505	0	0	-0.794055	0.0528796	-0.0118908	0.846294	-0.520942	-0.089633	1.16553	0.769188	0	0	0.947248	0.283512	0.00722139	1.12282	0.769912	0	0
2.6694	2.79273	0.0461705	-3.12706	-0.573147	-0.978663	0.287072	-0.150806	-0.0715283	-0.159339	0.976819	0.0965681	0	0	0.170385	-0.061773	-0.20098	0.321628	-0.2183	0	0	-0.803564	0.0409175	-0.0218502	0.846175	-0.523022	-0.0899928	1.16523	0.769162	0	0	0.946858	0.28522	0.00759697	1.12259	0.769909	0	0
2.67939	2.77894	0.03728	-3.12926	-0.560188	-0.980213	0.287505	-0.153359	-0.0870916	-0.161341	1.00774	0.0595746	0	0	0.141817	-0.0516509	-0.20409	0.324015	-0.218076	0	0	-0.81481	0.0294928	-0.0317272	0.846054	-0.525103	-0.0903526	1.16493	0.769136	0	0	0.946466	0.286928	0.00797261	1.12237	0.769905	0	0
2.68937	2.7639	0.0287856	-3.13144	-0.547357	-0.981837	0.287957	-0.155491	-0.101793	-0.161567	1.03772	0.0257167	0	0	0.111873	-0.0416851	-0.206901	0.326257	-0.215164	0	0	-0.827753	0.0187864	-0.0413492	0.84593	-0.527183	-0.0907123	1.16463	0.769111	0	0	0.94607	0.288635	0.00834832	1.12215	0.769901	0	0
2.69936	2.74791	0.0207933	-3.13359	-0.534659	-0.983505	0.288434	-0.156956	-0.115463	-0.160112	1.06635	-0.00343762	0	0	0.0809887	-0.0320147	-0.209568	0.328439	-0.209953	0	0	-0.842136	0.00894458	-0.0505764	0.845803	-0.529263	-0.0910721	1.16432	0.769085	0	0	0.945673	0.290341	0.00872409	1.12193	0.769898	0	0
2.70934	2.73145	0.013338	-3.13567	-0.522089	-0.985187	0.28894	-0.157453	-0.128026	-0.157265	1.09314	-0.0268317	0	0	0.0497828	-0.0227236	-0.212149	0.330732	-0.202831	0	0	-0.857479	5.42995e-05	-0.0593247	0.845675	-0.531342	-0.0914318	1.16402	0.769059	0	0	0.945272	0.292047	0.00909991	1.1217	0.769895	0	0
2.71933	2.71512	0.00643171	-3.13763	-0.509639	-0.986858	0.289474	-0.156622	-0.13944	-0.153407	1.11749	-0.0439769	0	0	0.0190264	-0.0138896	-0.214586	0.333352	-0.194173	0	0	-0.873089	-0.00781174	-0.0675641	0.845543	-0.533421	-0.0917915	1.16372	0.769034	0	0	0.944868	0.293751	0.0094758	1.12148	0.769891	0	0
2.72932	2.69958	6.16567e-05	-3.1394	-0.497293	-0.988493	0.29003	-0.154067	-0.149688	-0.148962	1.13886	-0.0549422	0	0	-0.0104546	-0.00558546	-0.216752	0.336521	-0.184325	0	0	-0.888227	-0.0145931	-0.0753048	0.845409	-0.5355	-0.0921511	1.16341	0.769008	0	0	0.944462	0.295455	0.00985173	1.12125	0.769888	0	0
2.7393	2.6855	-0.00580509	-3.14086	-0.485034	-0.99007	0.290599	-0.149378	-0.158778	-0.144359	1.15674	-0.0601896	0	0	-0.0378327	0.00212611	-0.218486	0.340439	-0.173596	0	0	-0.902129	-0.0202523	-0.0825836	0.845271	-0.537578	-0.0925107	1.16311	0.768982	0	0	0.944052	0.297158	0.0102277	1.12103	0.769885	0	0
2.74929	2.67348	-0.0112057	-3.1419	-0.472843	-0.991571	0.291167	-0.142176	-0.166714	-0.139989	1.17078	-0.0604638	0	0	-0.0624106	0.00918221	-0.219631	0.345221	-0.162241	0	0	-0.914225	-0.0247789	-0.0894655	0.845131	-0.539655	-0.0928703	1.1628	0.768957	0	0	0.943639	0.29886	0.0106038	1.1208	0.769881	0	0
2.75928	2.66396	-0.0161827	-3.14244	-0.4607	-0.99298	0.291716	-0.132179	-0.173521	-0.136195	1.18075	-0.056667	0	0	-0.0836852	0.0155389	-0.220051	0.350879	-0.150458	0	0	-0.924125	-0.0282015	-0.096035	0.844988	-0.541732	-0.0932298	1.16249	0.768932	0	0	0.943223	0.300561	0.0109798	1.12057	0.769878	0	0
2.76926	2.65721	-0.0207907	-3.14239	-0.448587	-0.994287	0.292227	-0.119293	-0.17926	-0.133268	1.18651	-0.0497545	0	0	-0.101431	0.021191	-0.219647	0.357308	-0.138387	0	0	-0.931631	-0.0305977	-0.102391	0.844841	-0.543808	-0.0935893	1.16219	0.768907	0	0	0.942804	0.302261	0.011356	1.12034	0.769875	0	0
2.77925	2.65319	-0.0251137	-3.14172	-0.436486	-0.995482	0.292677	-0.103726	-0.183996	-0.131386	1.18794	-0.0406865	0	0	-0.115775	0.026184	-0.218361	0.36431	-0.126113	0	0	-0.936787	-0.0321007	-0.108646	0.844691	-0.545883	-0.0939487	1.16188	0.768881	0	0	0.942381	0.30396	0.0117321	1.12012	0.769872	0	0
2.78923	2.65167	-0.0292718	-3.14041	-0.42438	-0.996562	0.293046	-0.0859705	-0.187816	-0.130644	1.18488	-0.030339	0	0	-0.127069	0.0306098	-0.216159	0.371727	-0.113674	0	0	-0.939793	-0.0328827	-0.114914	0.844538	-0.547958	-0.094308	1.16157	0.768856	0	0	0.941954	0.305657	0.0121083	1.11989	0.769869	0	0
2.79922	2.65229	-0.0334046	-3.13848	-0.412256	-0.997526	0.293314	-0.0666539	-0.190836	-0.131072	1.17721	-0.0194686	0	0	-0.135777	0.0345973	-0.213028	0.379438	-0.101069	0	0	-0.940927	-0.0331431	-0.121301	0.844381	-0.550031	-0.0946673	1.16126	0.768831	0	0	0.941524	0.307354	0.0124846	1.11965	0.769867	0	0
2.80921	2.65464	-0.0376575	-3.13597	-0.400097	-0.998377	0.293461	-0.0464309	-0.193211	-0.13265	1.16483	-0.00870126	0	0	-0.1424	0.0383028	-0.208971	0.387348	-0.0882681	0	0	-0.940478	-0.0330973	-0.127897	0.844221	-0.552104	-0.0950264	1.16095	0.768806	0	0	0.94109	0.309049	0.0128608	1.11942	0.769864	0	0
2.81919	2.65836	-0.0421702	-3.13296	-0.387892	-0.99912	0.293473	-0.025905	-0.195117	-0.135318	1.14776	0.00146812	0	0	-0.147419	0.0419017	-0.204011	0.395374	-0.0752291	0	0	-0.938713	-0.0329682	-0.134773	0.844057	-0.554177	-0.0953855	1.16063	0.768781	0	0	0.940652	0.310743	0.0132372	1.11919	0.769861	0	0
2.82918	2.66311	-0.0470715	-3.12957	-0.375628	-0.999763	0.293338	-0.00558489	-0.196754	-0.138973	1.12605	0.0106647	0	0	-0.151268	0.0455812	-0.198189	0.403431	-0.0619089	0	0	-0.935858	-0.0329795	-0.14198	0.84389	-0.556248	-0.0957446	1.16032	0.768757	0	0	0.940209	0.312435	0.0136135	1.11896	0.769858	0	0
2.83917	2.66863	-0.0524764	-3.12591	-0.363293	-1.00032	0.293047	0.0141361	-0.19832	-0.143488	1.09985	0.0186215	0	0	-0.154314	0.0495293	-0.191559	0.411435	-0.0482724	0	0	-0.932085	-0.033346	-0.149553	0.843718	-0.558318	-0.0961035	1.16001	0.768732	0	0	0.939763	0.314126	0.0139899	1.11872	0.769856	0	0
2.84915	2.6747	-0.0584845	-3.12213	-0.350876	-1.00077	0.292599	0.0329669	-0.200003	-0.148695	1.06935	0.0251543	0	0	-0.15685	0.0539286	-0.184169	0.419304	-0.0343079	0	0	-0.92755	-0.0342667	-0.157508	0.843542	-0.560388	-0.0964624	1.15969	0.768707	0	0	0.939313	0.315816	0.0143664	1.11849	0.769853	0	0
2.85914	2.68123	-0.0651705	-3.11832	-0.338367	-1.00111	0.291993	0.0507831	-0.201993	-0.154509	1.03487	0.0302091	0	0	-0.159102	0.05893	-0.176079	0.426908	-0.0199684	0	0	-0.922223	-0.0358954	-0.165835	0.843363	-0.562456	-0.0968212	1.15938	0.768683	0	0	0.938858	0.317505	0.0147429	1.11825	0.769851	0	0
2.86913	2.68815	-0.0725877	-3.11458	-0.325759	-1.00132	0.291233	0.0675144	-0.204437	-0.16081	0.99671	0.0337776	0	0	-0.161231	0.0646573	-0.167319	0.434146	-0.00524443	0	0	-0.916121	-0.0383495	-0.174522	0.843179	-0.564524	-0.0971799	1.15906	0.768658	0	0	0.938398	0.319192	0.0151195	1.11801	0.769848	0	0
2.87911	2.69539	-0.0807761	-3.11098	-0.313047	-1.00139	0.290326	0.0831178	-0.207444	-0.167434	0.955168	0.0358765	0	0	-0.163347	0.0712138	-0.157881	0.440974	0.00983825	0	0	-0.909339	-0.041725	-0.183554	0.84299	-0.566591	-0.0975386	1.15874	0.768634	0	0	0.937934	0.320877	0.0154961	1.11777	0.769846	0	0
2.8891	2.70288	-0.0897692	-3.10763	-0.300226	-1.00132	0.289281	0.0975382	-0.211085	-0.174132	0.910474	0.0365355	0	0	-0.165516	0.0786951	-0.147706	0.447433	0.0252	0	0	-0.902133	-0.0461115	-0.192923	0.842797	-0.568657	-0.0978971	1.15842	0.768609	0	0	0.937465	0.322561	0.0158727	1.11753	0.769844	0	0
2.89908	2.71056	-0.099588	-3.10458	-0.287296	-1.00111	0.28811	0.110791	-0.215418	-0.180667	0.862945	0.0358448	0	0	-0.167771	0.0871705	-0.136733	0.453583	0.0407737	0	0	-0.894698	-0.0515788	-0.202603	0.8426	-0.570721	-0.0982556	1.1581	0.768585	0	0	0.936991	0.324244	0.0162495	1.11729	0.769841	0	0
2.90907	2.71836	-0.110234	-3.10188	-0.274258	-1.00076	0.286826	0.12293	-0.22048	-0.186807	0.812963	0.0339506	0	0	-0.170122	0.0966748	-0.124899	0.459517	0.0564835	0	0	-0.88721	-0.0581689	-0.212555	0.842397	-0.572785	-0.0986139	1.15778	0.768561	0	0	0.936511	0.325924	0.0166262	1.11705	0.769839	0	0
2.91906	2.72631	-0.121673	-3.09953	-0.261116	-1.00025	0.285443	0.13412	-0.226295	-0.192417	0.761065	0.0310966	0	0	-0.172562	0.107188	-0.112194	0.465261	0.0723061	0	0	-0.879703	-0.0658626	-0.222713	0.84219	-0.574847	-0.0989722	1.15746	0.768537	0	0	0.936027	0.327603	0.017003	1.1168	0.769837	0	0
2.92904	2.73436	-0.133837	-3.09751	-0.247874	-0.999606	0.283976	0.144506	-0.232836	-0.197353	0.707803	0.0275694	0	0	-0.175075	0.11864	-0.0986269	0.470901	0.0881886	0	0	-0.87226	-0.0746023	-0.233005	0.841978	-0.576908	-0.0993303	1.15713	0.768513	0	0	0.935537	0.32928	0.0173799	1.11656	0.769835	0	0
2.93903	2.74252	-0.146619	-3.09578	-0.23454	-0.998821	0.282442	0.154292	-0.24005	-0.201536	0.65384	0.0237145	0	0	-0.17764	0.130909	-0.0842615	0.47648	0.10412	0	0	-0.864876	-0.0842779	-0.243334	0.84176	-0.578968	-0.0996882	1.15681	0.768489	0	0	0.935042	0.330955	0.0177567	1.11631	0.769833	0	0
2.94902	2.75083	-0.159874	-3.09423	-0.221121	-0.997906	0.280857	0.163738	-0.247858	-0.204987	0.599947	0.0199178	0	0	-0.180232	0.143811	-0.0692287	0.481986	0.120132	0	0	-0.85745	-0.0947151	-0.253578	0.841537	-0.581026	-0.100046	1.15648	0.768465	0	0	0.934541	0.332628	0.0181336	1.11606	0.769831	0	0
2.959	2.75934	-0.17342	-3.09272	-0.207627	-0.996871	0.27924	0.173135	-0.256152	-0.207822	0.546987	0.0165711	0	0	-0.182828	0.157107	-0.0537221	0.487353	0.13629	0	0	-0.849788	-0.105679	-0.263603	0.841309	-0.583083	-0.100404	1.15615	0.768441	0	0	0.934035	0.334299	0.0185105	1.11581	0.769829	0	0
2.96899	2.76807	-0.187071	-3.09113	-0.194067	-0.99573	0.277607	0.18267	-0.264796	-0.210148	0.495768	0.0140031	0	0	-0.185409	0.170544	-0.0379225	0.492615	0.152599	0	0	-0.841824	-0.116926	-0.273294	0.841075	-0.585138	-0.100761	1.15583	0.768418	0	0	0.933522	0.335968	0.0188874	1.11556	0.769828	0	0
2.97898	2.77695	-0.20065	-3.08938	-0.180451	-0.994499	0.275977	0.192422	-0.273657	-0.212041	0.447035	0.0124456	0	0	-0.187955	0.183901	-0.0219544	0.497904	0.169011	0	0	-0.833615	-0.128238	-0.282558	0.840836	-0.587192	-0.101119	1.15549	0.768394	0	0	0.933004	0.337634	0.0192644	1.11531	0.769826	0	0
2.98896	2.78584	-0.214009	-3.08744	-0.166789	-0.993195	0.274367	0.202332	-0.282608	-0.213516	0.401427	0.0120065	0	0	-0.190452	0.197007	-0.00584729	0.503481	0.185412	0	0	-0.825382	-0.139444	-0.291336	0.84059	-0.589244	-0.101476	1.15516	0.768371	0	0	0.932479	0.339298	0.0196414	1.11505	0.769824	0	0
2.99895	2.79464	-0.227031	-3.0853	-0.15309	-0.99184	0.272795	0.212341	-0.291548	-0.214606	0.359584	0.0126705	0	0	-0.192888	0.209709	0.010385	0.509551	0.201714	0	0	-0.817258	-0.15039	-0.299564	0.840339	-0.591295	-0.101833	1.15483	0.768347	0	0	0.931948	0.34096	0.0200183	1.1148	0.769823	0	0
3.00893	2.80315	-0.239611	-3.08296	-0.139359	-0.990452	0.271279	0.22224	-0.300372	-0.215301	0.322008	0.014284	0	0	-0.195254	0.221892	0.0268002	0.516446	0.217747	0	0	-0.80954	-0.160956	-0.30723	0.840082	-0.593344	-0.10219	1.15449	0.768324	0	0	0.93141	0.34262	0.0203953	1.11454	0.769821	0	0
3.01892	2.81131	-0.251661	-3.08038	-0.125601	-0.989056	0.269836	0.231902	-0.308997	-0.215675	0.289211	0.0166031	0	0	-0.197542	0.233421	0.0433816	0.524306	0.233412	0	0	-0.802304	-0.170999	-0.314307	0.839818	-0.59539	-0.102546	1.15416	0.768301	0	0	0.930866	0.344277	0.0207723	1.11428	0.76982	0	0
3.02891	2.81906	-0.26309	-3.07745	-0.111816	-0.987671	0.268483	0.241179	-0.317334	-0.215844	0.261611	0.0193054	0	0	-0.199748	0.244131	0.0600426	0.533212	0.248613	0	0	-0.795522	-0.180341	-0.320779	0.839548	-0.597435	-0.102903	1.15382	0.768278	0	0	0.930316	0.345931	0.0211493	1.11402	0.769818	0	0
3.03889	2.8264	-0.273815	-3.07404	-0.0980023	-0.986319	0.267235	0.249893	-0.325293	-0.215942	0.239478	0.0220026	0	0	-0.201869	0.253839	0.0766474	0.543192	0.263244	0	0	-0.789084	-0.188788	-0.326646	0.839271	-0.599479	-0.103259	1.15348	0.768255	0	0	0.929758	0.347583	0.0215263	1.11376	0.769817	0	0
3.04888	2.83344	-0.283742	-3.06991	-0.0841582	-0.985017	0.266106	0.257938	-0.332774	-0.2162	0.222954	0.0242604	0	0	-0.203902	0.262293	0.0929014	0.554081	0.277249	0	0	-0.78266	-0.196089	-0.331898	0.838988	-0.60152	-0.103615	1.15314	0.768232	0	0	0.929193	0.349232	0.0219033	1.11349	0.769815	0	0
3.05887	2.84015	-0.292752	-3.06491	-0.0702805	-0.983782	0.265109	0.265035	-0.339615	-0.216802	0.211867	0.0255992	0	0	-0.205848	0.269255	0.108527	0.565899	0.290432	0	0	-0.776136	-0.202014	-0.336599	0.838698	-0.60356	-0.103971	1.15279	0.768209	0	0	0.928621	0.350879	0.0222804	1.11323	0.769814	0	0
3.06885	2.84643	-0.30075	-3.059	-0.0563682	-0.982627	0.264252	0.270841	-0.345662	-0.21783	0.205799	0.025528	0	0	-0.207705	0.274558	0.123313	0.578773	0.302515	0	0	-0.76953	-0.206411	-0.34083	0.838401	-0.605597	-0.104327	1.15245	0.768186	0	0	0.928042	0.352523	0.0226575	1.11296	0.769813	0	0
3.07884	2.85213	-0.307653	-3.05224	-0.0424231	-0.981563	0.263542	0.275008	-0.35076	-0.219287	0.204142	0.0235867	0	0	-0.209476	0.278085	0.137053	0.592875	0.313159	0	0	-0.762939	-0.209197	-0.344651	0.838097	-0.607633	-0.104683	1.1521	0.768164	0	0	0.927455	0.354164	0.0230346	1.11269	0.769812	0	0
3.08883	2.85703	-0.313379	-3.04477	-0.0284513	-0.980596	0.262981	0.277186	-0.354748	-0.221085	0.206135	0.0193651	0	0	-0.211163	0.279764	0.149528	0.608449	0.321948	0	0	-0.756568	-0.210352	-0.348097	0.837786	-0.609667	-0.105038	1.15175	0.768141	0	0	0.92686	0.355802	0.0234117	1.11242	0.769811	0	0
3.09881	2.861	-0.317815	-3.03671	-0.0144648	-0.979731	0.26257	0.277201	-0.357446	-0.223252	0.210981	0.0125213	0	0	-0.212769	0.279456	0.160274	0.625497	0.328505	0	0	-0.750441	-0.209844	-0.351116	0.837467	-0.611698	-0.105393	1.1514	0.768118	0	0	0.926257	0.357437	0.0237888	1.11215	0.76981	0	0
3.1088	2.86385	-0.320826	-3.02824	-0.000481805	-0.978968	0.262306	0.274892	-0.358645	-0.225806	0.217846	0.00277752	0	0	-0.2143	0.277004	0.168729	0.644075	0.332391	0	0	-0.744669	-0.207642	-0.353627	0.83714	-0.613727	-0.105748	1.15105	0.768096	0	0	0.925647	0.359069	0.0241659	1.11187	0.769809	0	0
3.11878	2.86535	-0.3223	-3.0196	0.0134718	-0.978308	0.262185	0.270109	-0.358165	-0.228703	0.225897	-0.0100292	0	0	-0.215764	0.272314	0.174398	0.664313	0.333118	0	0	-0.739478	-0.203767	-0.355524	0.836806	-0.615754	-0.106102	1.1507	0.768074	0	0	0.925028	0.360698	0.024543	1.11159	0.769808	0	0
3.12877	2.86513	-0.322192	-3.01114	0.027362	-0.97775	0.262201	0.262638	-0.355886	-0.231753	0.234333	-0.0258154	0	0	-0.217171	0.265442	0.177045	0.686531	0.33012	0	0	-0.73534	-0.198333	-0.356708	0.836464	-0.617778	-0.106457	1.15034	0.768052	0	0	0.924401	0.362323	0.0249201	1.11131	0.769807	0	0
3.13876	2.86294	-0.320505	-3.00314	0.0411458	-0.977301	0.262344	0.252461	-0.351775	-0.234868	0.242654	-0.0440495	0	0	-0.218533	0.25646	0.176491	0.710829	0.322896	0	0	-0.732568	-0.191482	-0.35704	0.836113	-0.6198	-0.106811	1.14998	0.768029	0	0	0.923765	0.363945	0.0252972	1.11103	0.769806	0	0
3.14874	2.85866	-0.317261	-2.99579	0.0547709	-0.976969	0.262606	0.239714	-0.345845	-0.238079	0.250715	-0.0637266	0	0	-0.219865	0.245415	0.172552	0.737112	0.311029	0	0	-0.731311	-0.18333	-0.356393	0.835755	-0.62182	-0.107165	1.14962	0.768007	0	0	0.92312	0.365564	0.0256743	1.11075	0.769805	0	0
3.15873	2.85206	-0.312584	-2.98933	0.0681747	-0.97678	0.262973	0.224406	-0.338181	-0.241252	0.25847	-0.0836269	0	0	-0.221185	0.232531	0.165348	0.765497	0.29413	0	0	-0.731967	-0.174089	-0.354746	0.835388	-0.623836	-0.107518	1.14926	0.767986	0	0	0.922467	0.367179	0.0260513	1.11046	0.769805	0	0
3.16872	2.84302	-0.306671	-2.98394	0.0812829	-0.976774	0.26343	0.206633	-0.328952	-0.244288	0.266003	-0.102497	0	0	-0.222512	0.218094	0.15519	0.795932	0.27199	0	0	-0.734809	-0.16402	-0.352103	0.835012	-0.62585	-0.107872	1.1489	0.767964	0	0	0.921804	0.368791	0.0264284	1.11017	0.769804	0	0
3.1787	2.83153	-0.299727	-2.97967	0.0940091	-0.977015	0.263961	0.18654	-0.318328	-0.247149	0.273396	-0.119182	0	0	-0.223867	0.202377	0.142484	0.828202	0.244627	0	0	-0.739973	-0.153373	-0.348499	0.834628	-0.627862	-0.108224	1.14853	0.767942	0	0	0.921133	0.370398	0.0268053	1.10988	0.769803	0	0
3.18869	2.81768	-0.291914	-2.97652	0.106253	-0.977596	0.264545	0.164334	-0.306448	-0.24993	0.2807	-0.13276	0	0	-0.225267	0.185584	0.127672	0.861879	0.212355	0	0	-0.747397	-0.142343	-0.343991	0.834234	-0.62987	-0.108577	1.14816	0.76792	0	0	0.920452	0.372002	0.0271823	1.10959	0.769803	0	0
3.19867	2.80154	-0.283423	-2.97442	0.1179	-0.978644	0.265158	0.140104	-0.293469	-0.252723	0.287828	-0.142699	0	0	-0.226728	0.167978	0.111347	0.896609	0.175814	0	0	-0.757097	-0.131139	-0.338686	0.833832	-0.631876	-0.108929	1.14779	0.767899	0	0	0.919761	0.373602	0.0275592	1.10929	0.769802	0	0
3.20866	2.7833	-0.274451	-2.97323	0.128818	-0.980316	0.265778	0.114011	-0.279594	-0.255726	0.294705	-0.14885	0	0	-0.228256	0.14984	0.0942104	0.931892	0.136057	0	0	-0.768919	-0.119959	-0.332691	0.83342	-0.633878	-0.109281	1.14742	0.767877	0	0	0.91906	0.375198	0.0279361	1.10899	0.769802	0	0
3.21865	2.76326	-0.265188	-2.97275	0.138865	-0.982807	0.266379	0.0863105	-0.265062	-0.259237	0.301317	-0.15136	0	0	-0.229842	0.131455	0.0769658	0.96711	0.0945423	0	0	-0.782528	-0.108969	-0.326113	0.832999	-0.635877	-0.109633	1.14704	0.767856	0	0	0.91835	0.37679	0.0283129	1.10869	0.769802	0	0
3.22863	2.74218	-0.255952	-2.97293	0.148814	-0.985108	0.26695	0.057151	-0.250138	-0.263493	0.307661	-0.1506	0	0	-0.231535	0.113134	0.0602609	1.00175	0.0530425	0	0	-0.797815	-0.0981762	-0.319063	0.832576	-0.637871	-0.109983	1.14667	0.767835	0	0	0.917638	0.378377	0.0286882	1.10839	0.769801	0	0
3.23862	2.72023	-0.246971	-2.9737	0.15867	-0.987247	0.267479	0.026625	-0.235138	-0.26853	0.313586	-0.147058	0	0	-0.233281	0.0953134	0.0446155	1.03556	0.013483	0	0	-0.814759	-0.0878283	-0.311728	0.832151	-0.63986	-0.11033	1.14629	0.767814	0	0	0.916923	0.379959	0.0290621	1.10808	0.769801	0	0
3.24861	2.69767	-0.238449	-2.97502	0.168449	-0.989242	0.267957	-0.00508126	-0.220381	-0.274255	0.318999	-0.141256	0	0	-0.234988	0.0784153	0.0303594	1.06823	-0.0223075	0	0	-0.833214	-0.0781715	-0.30425	0.831724	-0.641844	-0.110676	1.14591	0.767793	0	0	0.916205	0.381536	0.0294345	1.10778	0.7698	0	0
3.25859	2.67469	-0.230576	-2.97691	0.178147	-0.991109	0.268378	-0.0377848	-0.206182	-0.280463	0.323811	-0.133699	0	0	-0.236519	0.0628635	0.0176544	1.09959	-0.0529471	0	0	-0.853134	-0.069466	-0.296751	0.831294	-0.643823	-0.11102	1.14553	0.767772	0	0	0.915485	0.383107	0.0298054	1.10747	0.7698	0	0
3.26858	2.65163	-0.223473	-2.97941	0.187774	-0.992854	0.268741	-0.0711223	-0.192834	-0.286943	0.328068	-0.124846	0	0	-0.237685	0.0490144	0.00652581	1.12935	-0.0776833	0	0	-0.874257	-0.0619256	-0.289287	0.830862	-0.645796	-0.111362	1.14514	0.767752	0	0	0.914762	0.384673	0.0301747	1.10716	0.769799	0	0
3.27857	2.62893	-0.217164	-2.98253	0.197355	-0.99447	0.269054	-0.104547	-0.180584	-0.293522	0.331938	-0.115108	0	0	-0.23824	0.0371171	-0.00310927	1.15711	-0.096398	0	0	-0.896084	-0.0556822	-0.281857	0.830428	-0.647763	-0.111702	1.14476	0.767731	0	0	0.914036	0.386233	0.0305424	1.10684	0.769799	0	0
3.28855	2.60719	-0.211579	-2.98621	0.206933	-0.995941	0.269338	-0.137348	-0.169605	-0.300086	0.33568	-0.104844	0	0	-0.237875	0.0272955	-0.0114225	1.18237	-0.109413	0	0	-0.917885	-0.0507753	-0.274414	0.82999	-0.649726	-0.11204	1.14438	0.767711	0	0	0.913307	0.387787	0.0309084	1.10653	0.769798	0	0
3.29854	2.5871	-0.206552	-2.99034	0.216575	-0.997236	0.269623	-0.168665	-0.15998	-0.306614	0.339643	-0.094356	0	0	-0.236228	0.0195228	-0.0186659	1.20458	-0.117248	0	0	-0.938679	-0.0471386	-0.266881	0.829549	-0.651683	-0.112377	1.14399	0.767691	0	0	0.912573	0.389334	0.0312727	1.10621	0.769797	0	0
3.30852	2.56928	-0.201915	-2.99482	0.22631	-0.998333	0.269927	-0.197729	-0.151733	-0.313107	0.344087	-0.0838745	0	0	-0.232891	0.0137192	-0.025115	1.22337	-0.120558	0	0	-0.957722	-0.044678	-0.259204	0.829104	-0.653635	-0.112711	1.1436	0.767671	0	0	0.911834	0.390875	0.0316353	1.10589	0.769797	0	0
3.31851	2.55421	-0.197522	-2.99955	0.23615	-0.999223	0.270253	-0.223892	-0.144845	-0.319556	0.349182	-0.0735575	0	0	-0.227434	0.00976182	-0.0310484	1.23858	-0.120035	0	0	-0.974474	-0.0432875	-0.25135	0.828655	-0.655581	-0.113044	1.14321	0.767652	0	0	0.911091	0.39241	0.0319962	1.10556	0.769796	0	0
3.3285	2.54222	-0.193244	-3.00445	0.246088	-0.999892	0.270606	-0.246674	-0.139246	-0.325923	0.354977	-0.0634892	0	0	-0.219454	0.00747936	-0.0367238	1.25019	-0.11634	0	0	-0.988585	-0.0428419	-0.243314	0.8282	-0.657523	-0.113375	1.14282	0.767632	0	0	0.910341	0.393939	0.0323557	1.10524	0.769795	0	0
3.33848	2.53345	-0.189037	-3.00941	0.256106	-1.00034	0.270984	-0.265801	-0.134796	-0.332122	0.361388	-0.0536928	0	0	-0.208623	0.00664403	-0.0423541	1.25827	-0.110088	0	0	-0.99985	-0.0431608	-0.23511	0.827738	-0.659465	-0.113706	1.14242	0.767613	0	0	0.909585	0.395468	0.0327153	1.10491	0.769794	0	0
3.34847	2.52789	-0.18484	-3.01434	0.266192	-1.00057	0.271391	-0.281317	-0.131321	-0.338026	0.368194	-0.0441466	0	0	-0.194819	0.00700623	-0.0480963	1.26297	-0.101837	0	0	-1.00827	-0.0440487	-0.226773	0.827267	-0.661409	-0.114037	1.14202	0.767593	0	0	0.908822	0.396997	0.0330756	1.10458	0.769794	0	0
3.35846	2.52536	-0.180616	-3.01913	0.276344	-1.00062	0.271829	-0.293533	-0.128615	-0.343511	0.375138	-0.0347974	0	0	-0.178234	0.00830407	-0.0540609	1.26431	-0.0920898	0	0	-1.01398	-0.0452946	-0.21834	0.826786	-0.663356	-0.114368	1.14162	0.767574	0	0	0.908052	0.398529	0.0334366	1.10425	0.769793	0	0
3.36844	2.52551	-0.176334	-3.02374	0.286572	-1.00051	0.272302	-0.302912	-0.12646	-0.348491	0.382012	-0.0255731	0	0	-0.159303	0.0102753	-0.0603261	1.2622	-0.0812973	0	0	-1.01726	-0.0466904	-0.209841	0.826296	-0.665306	-0.114699	1.14121	0.767554	0	0	0.907275	0.400063	0.0337981	1.10391	0.769793	0	0
3.37843	2.52797	-0.171961	-3.02811	0.296888	-1.00028	0.272815	-0.309973	-0.124641	-0.352908	0.388668	-0.0163925	0	0	-0.138607	0.0126659	-0.066948	1.25651	-0.069878	0	0	-1.0184	-0.0480486	-0.201289	0.8258	-0.667256	-0.11503	1.1408	0.767535	0	0	0.906492	0.401597	0.0341594	1.10358	0.769793	0	0
3.38842	2.53235	-0.16746	-3.03225	0.307308	-0.99995	0.273368	-0.31523	-0.12295	-0.356712	0.395001	-0.00717538	0	0	-0.116769	0.0152345	-0.073962	1.24707	-0.0582278	0	0	-1.01769	-0.0492067	-0.192684	0.825301	-0.669203	-0.115359	1.14039	0.767515	0	0	0.905704	0.40313	0.0345198	1.10324	0.769792	0	0
3.3984	2.53826	-0.16277	-3.03613	0.317848	-0.999562	0.27396	-0.319155	-0.121192	-0.359847	0.400937	0.00215052	0	0	-0.0943842	0.0177539	-0.0813815	1.23369	-0.0467217	0	0	-1.0154	-0.0500217	-0.184024	0.824799	-0.671144	-0.115686	1.13998	0.767496	0	0	0.904912	0.40466	0.0348791	1.1029	0.769792	0	0
3.40839	2.54538	-0.157822	-3.0398	0.328518	-0.999139	0.274589	-0.32215	-0.119181	-0.362235	0.406423	0.0116456	0	0	-0.071992	0.020016	-0.089198	1.21624	-0.0357077	0	0	-1.01176	-0.0503763	-0.175298	0.824297	-0.673081	-0.116012	1.13957	0.767478	0	0	0.904116	0.406187	0.0352372	1.10256	0.769792	0	0
3.41837	2.55341	-0.152531	-3.04326	0.33933	-0.998708	0.275246	-0.324544	-0.116742	-0.363777	0.411432	0.0213562	0	0	-0.0500627	0.0218344	-0.0973738	1.19458	-0.0255029	0	0	-1.00698	-0.0501752	-0.166481	0.823794	-0.675012	-0.116336	1.13916	0.767459	0	0	0.903316	0.407711	0.0355941	1.10222	0.769792	0	0
3.42836	2.56211	-0.146804	-3.04654	0.35028	-0.998298	0.275921	-0.326585	-0.1137	-0.364359	0.41597	0.0313114	0	0	-0.0290047	0.0230426	-0.105824	1.16861	-0.0163885	0	0	-1.00131	-0.0493306	-0.157539	0.823291	-0.676938	-0.116658	1.13875	0.76744	0	0	0.902512	0.409233	0.0359498	1.10188	0.769792	0	0
3.43835	2.57122	-0.14053	-3.04968	0.36135	-0.997933	0.276602	-0.328451	-0.109873	-0.363855	0.420077	0.0415172	0	0	-0.00917793	0.0234909	-0.114397	1.13822	-0.00861382	0	0	-0.995014	-0.0477448	-0.148427	0.822789	-0.678859	-0.116979	1.13834	0.767422	0	0	0.901705	0.410752	0.0363041	1.10154	0.769791	0	0
3.44833	2.5806	-0.133614	-3.05267	0.372534	-0.997622	0.277281	-0.330267	-0.105119	-0.362156	0.423785	0.0520034	0	0	0.00920723	0.0230378	-0.122991	1.10347	-0.00232458	0	0	-0.988232	-0.0453478	-0.139094	0.822287	-0.680774	-0.117298	1.13794	0.767404	0	0	0.900895	0.412268	0.036657	1.1012	0.769791	0	0
3.45832	2.59007	-0.125939	-3.05552	0.383808	-0.99738	0.277943	-0.332103	-0.0992791	-0.359153	0.427169	0.0627616	0	0	0.0259527	0.0215608	-0.131401	1.06438	0.00236789	0	0	-0.981218	-0.0420413	-0.129492	0.821787	-0.682684	-0.117614	1.13753	0.767386	0	0	0.90008	0.413781	0.0370083	1.10086	0.769791	0	0
3.46831	2.59952	-0.117398	-3.05821	0.39515	-0.997208	0.27858	-0.333995	-0.092229	-0.354761	0.430308	0.0737944	0	0	0.0409683	0.0189487	-0.139433	1.02113	0.00543596	0	0	-0.974138	-0.0377319	-0.119578	0.821286	-0.684588	-0.117929	1.13713	0.767368	0	0	0.899261	0.415291	0.037358	1.10052	0.769791	0	0
3.47829	2.60888	-0.107912	-3.06071	0.406551	-0.997098	0.279183	-0.335956	-0.0838817	-0.348923	0.433284	0.0851044	0	0	0.0542576	0.0151166	-0.146898	0.973997	0.00693795	0	0	-0.967089	-0.0323455	-0.109321	0.820786	-0.686486	-0.118241	1.13674	0.767351	0	0	0.898438	0.416798	0.037706	1.10019	0.769791	0	0
3.48828	2.61811	-0.0974334	-3.06298	0.418002	-0.997034	0.279744	-0.337981	-0.0741994	-0.34162	0.43618	0.0966872	0	0	0.0659	0.0100158	-0.153597	0.923401	0.00701608	0	0	-0.960119	-0.0258338	-0.0987143	0.820285	-0.688378	-0.118552	1.13634	0.767334	0	0	0.89761	0.418302	0.0380523	1.09985	0.769791	0	0
3.49827	2.62718	-0.0859494	-3.06498	0.429495	-0.996993	0.280253	-0.340056	-0.0631953	-0.332881	0.439098	0.108521	0	0	0.0760159	0.00364243	-0.159317	0.869831	0.00588649	0	0	-0.953274	-0.0181743	-0.0877825	0.819783	-0.690265	-0.11886	1.13594	0.767317	0	0	0.896779	0.419803	0.038397	1.09951	0.769791	0	0
3.50825	2.63604	-0.0734818	-3.06669	0.441023	-0.996951	0.28071	-0.34216	-0.0509356	-0.322786	0.442173	0.120561	0	0	0.0847436	-0.00395644	-0.16382	0.81384	0.00382846	0	0	-0.946623	-0.00936981	-0.0765959	0.819277	-0.692148	-0.119167	1.13555	0.7673	0	0	0.895943	0.421303	0.0387408	1.09917	0.769792	0	0
3.51824	2.64473	-0.0601265	-3.06813	0.452592	-0.996869	0.281115	-0.344276	-0.0375803	-0.311486	0.445464	0.132792	0	0	0.092342	-0.0126536	-0.166971	0.756175	0.00121543	0	0	-0.940109	0.000492764	-0.065288	0.818765	-0.694032	-0.119474	1.13515	0.767283	0	0	0.895103	0.422803	0.0390851	1.09883	0.769792	0	0
3.52822	2.65323	-0.0460549	-3.06932	0.4642	-0.99671	0.281466	-0.346383	-0.023357	-0.299192	0.449084	0.14516	0	0	0.0990284	-0.0222663	-0.168638	0.697603	-0.0015566	0	0	-0.933743	0.0112669	-0.0540205	0.818241	-0.695922	-0.119781	1.13475	0.767266	0	0	0.894259	0.424308	0.0394309	1.09849	0.769792	0	0
3.53821	2.66144	-0.0314981	-3.07027	0.475836	-0.996446	0.281755	-0.348453	-0.00853888	-0.286166	0.453243	0.157574	0	0	0.104923	-0.0325826	-0.168685	0.638858	-0.00410893	0	0	-0.927668	0.0227739	-0.0429691	0.817706	-0.697815	-0.12009	1.13434	0.767249	0	0	0.893411	0.425816	0.0397783	1.09815	0.769793	0	0
3.5482	2.66929	-0.0167505	-3.07101	0.487491	-0.996046	0.281983	-0.350463	0.00652211	-0.272728	0.458122	0.169963	0	0	0.110172	-0.0433331	-0.167107	0.580784	-0.00607485	0	0	-0.921965	0.0347533	-0.032349	0.81716	-0.699714	-0.1204	1.13392	0.767233	0	0	0.892559	0.427329	0.0401274	1.0978	0.769794	0	0
3.55818	2.67673	-0.00216942	-3.07158	0.499163	-0.995476	0.282152	-0.352392	0.0213975	-0.259245	0.463883	0.182267	0	0	0.11492	-0.054191	-0.164047	0.524282	-0.00714641	0	0	-0.916655	0.0468691	-0.0224091	0.816604	-0.701618	-0.120711	1.1335	0.767216	0	0	0.891702	0.428846	0.0404783	1.09746	0.769795	0	0
3.56817	2.68371	0.0119302	-3.07207	0.510865	-0.994697	0.282256	-0.354222	0.0357215	-0.245992	0.470616	0.19448	0	0	0.119327	-0.0648962	-0.159782	0.47031	-0.00711248	0	0	-0.911678	0.0588196	-0.0133736	0.816037	-0.703528	-0.121023	1.13308	0.767199	0	0	0.890842	0.430369	0.0408311	1.09711	0.769796	0	0
3.57816	2.69022	0.0252814	-3.07256	0.522607	-0.993677	0.282299	-0.355938	0.0491965	-0.233156	0.478349	0.206575	0	0	0.123553	-0.0752556	-0.154713	0.419837	-0.00588642	0	0	-0.906921	0.0703377	-0.00540853	0.81546	-0.705442	-0.121336	1.13265	0.767182	0	0	0.889978	0.431896	0.0411857	1.09676	0.769797	0	0
3.58814	2.69614	0.0376328	-3.07312	0.534388	-0.99239	0.282278	-0.357512	0.0615528	-0.220891	0.487164	0.218435	0	0	0.127658	-0.0850912	-0.149309	0.373685	-0.00356612	0	0	-0.902356	0.0811741	0.0013789	0.814875	-0.707362	-0.12165	1.13222	0.767165	0	0	0.88911	0.43343	0.0415422	1.09641	0.769799	0	0
3.59813	2.70142	0.0487503	-3.07384	0.546209	-0.990816	0.282189	-0.358928	0.0725403	-0.209342	0.497092	0.229913	0	0	0.131678	-0.0942251	-0.144105	0.332583	-0.000418478	0	0	-0.8979	0.0910846	0.00691837	0.81428	-0.709287	-0.121965	1.13178	0.767147	0	0	0.888238	0.43497	0.0419009	1.09606	0.769801	0	0
3.60811	2.70642	0.0586151	-3.07468	0.55855	-0.989103	0.282204	-0.360282	0.0818886	-0.19863	0.508155	0.240839	0	0	0.135488	-0.102467	-0.139654	0.297141	0.00313035	0	0	-0.893548	0.0996817	0.0111821	0.813681	-0.711206	-0.12228	1.13134	0.767131	0	0	0.887361	0.436504	0.0422589	1.09571	0.769803	0	0
3.6181	2.71106	0.06712	-3.07568	0.571274	-0.987353	0.282306	-0.361575	0.0894396	-0.188824	0.520495	0.250951	0	0	0.138896	-0.109674	-0.136419	0.267616	0.00651347	0	0	-0.889401	0.106788	0.0141807	0.813076	-0.713119	-0.122593	1.1309	0.767114	0	0	0.886479	0.438032	0.0426164	1.09536	0.769804	0	0
3.62809	2.71524	0.0742096	-3.07689	0.584264	-0.985651	0.282482	-0.362808	0.095094	-0.179945	0.534258	0.259954	0	0	0.141636	-0.115745	-0.134701	0.24399	0.00904034	0	0	-0.885564	0.112274	0.0159496	0.812466	-0.715027	-0.122906	1.13046	0.767097	0	0	0.885593	0.439554	0.0429733	1.095	0.769806	0	0
3.63807	2.71883	0.0798644	-3.07836	0.597426	-0.98406	0.282718	-0.363985	0.0987913	-0.171991	0.549642	0.267496	0	0	0.143345	-0.120608	-0.134579	0.225926	0.00991486	0	0	-0.882202	0.116052	0.0165475	0.811852	-0.716931	-0.123219	1.13002	0.767081	0	0	0.884702	0.441071	0.0433298	1.09465	0.769808	0	0
3.64806	2.72176	0.0840446	-3.08015	0.610687	-0.98263	0.283002	-0.365112	0.100444	-0.165007	0.566708	0.27323	0	0	0.143723	-0.124167	-0.135955	0.212902	0.00831471	0	0	-0.879345	0.118007	0.0160233	0.811233	-0.71883	-0.12353	1.12958	0.767064	0	0	0.883807	0.442582	0.0436857	1.09429	0.76981	0	0
3.65805	2.72392	0.0867146	-3.0823	0.623993	-0.981394	0.283325	-0.366195	0.0999747	-0.159084	0.585591	0.276739	0	0	0.142457	-0.126332	-0.13857	0.204233	0.00347189	0	0	-0.877118	0.11806	0.0144361	0.810609	-0.720723	-0.123841	1.12914	0.767048	0	0	0.882907	0.444088	0.0440411	1.09394	0.769812	0	0
3.66803	2.72514	0.0878553	-3.08478	0.637304	-0.980379	0.283679	-0.367245	0.0973384	-0.154355	0.606448	0.277572	0	0	0.13928	-0.127035	-0.142068	0.199147	-0.00520606	0	0	-0.875696	0.1162	0.0118422	0.809981	-0.722613	-0.124152	1.1287	0.767032	0	0	0.882003	0.445589	0.0443961	1.09358	0.769814	0	0
3.67802	2.72535	0.0874304	-3.0876	0.650593	-0.979602	0.284059	-0.368274	0.0924815	-0.151009	0.629269	0.275276	0	0	0.134073	-0.126194	-0.146128	0.196863	-0.0179911	0	0	-0.875113	0.112421	0.00827001	0.809348	-0.724497	-0.124462	1.12825	0.767015	0	0	0.881094	0.447084	0.0447505	1.09322	0.769816	0	0
3.68801	2.72444	0.0854331	-3.09066	0.663839	-0.979072	0.284463	-0.369296	0.0853905	-0.149243	0.654064	0.269374	0	0	0.12676	-0.123758	-0.150453	0.19664	-0.0347102	0	0	-0.875469	0.106785	0.00375184	0.808711	-0.726377	-0.124771	1.12781	0.766999	0	0	0.880182	0.448575	0.0451045	1.09286	0.769819	0	0
3.69799	2.7224	0.0818628	-3.09395	0.677026	-0.978795	0.284891	-0.370327	0.0760613	-0.149232	0.680634	0.259435	0	0	0.117408	-0.119688	-0.154778	0.197875	-0.0546631	0	0	-0.876694	0.0993587	-0.00169627	0.80807	-0.728253	-0.125079	1.12736	0.766984	0	0	0.879266	0.450061	0.0454581	1.0925	0.769821	0	0
3.70798	2.71918	0.0767712	-3.09739	0.690139	-0.97877	0.285347	-0.371386	0.0645564	-0.151068	0.70878	0.245083	0	0	0.106074	-0.113999	-0.158818	0.200112	-0.0767118	0	0	-0.878774	0.09028	-0.0080372	0.807424	-0.730125	-0.125387	1.12692	0.766968	0	0	0.878346	0.451542	0.0458111	1.09214	0.769823	0	0
3.71796	2.71472	0.0702911	-3.10092	0.703164	-0.978993	0.285838	-0.37249	0.0510453	-0.154696	0.738318	0.226066	0	0	0.0927933	-0.10679	-0.162321	0.203043	-0.099546	0	0	-0.88177	0.0797807	-0.0152035	0.806775	-0.731992	-0.125695	1.12647	0.766952	0	0	0.877422	0.453018	0.0461638	1.09178	0.769825	0	0
3.72795	2.70893	0.0626189	-3.10444	0.716083	-0.979455	0.286371	-0.373656	0.0357845	-0.159885	0.769037	0.202328	0	0	0.0775881	-0.0982225	-0.165151	0.206475	-0.12185	0	0	-0.885781	0.0681563	-0.0231056	0.806122	-0.733855	-0.126002	1.12603	0.766937	0	0	0.876494	0.45449	0.0465159	1.09141	0.769828	0	0
3.73794	2.70179	0.0539769	-3.10793	0.72888	-0.980144	0.286959	-0.374894	0.0190699	-0.166238	0.800638	0.174079	0	0	0.0605052	-0.0884766	-0.167325	0.210289	-0.142357	0	0	-0.890871	0.0557067	-0.031645	0.805465	-0.735714	-0.126308	1.12558	0.766922	0	0	0.875563	0.455957	0.0468677	1.09105	0.76983	0	0
3.74792	2.69323	0.044605	-3.11138	0.741535	-0.981046	0.287613	-0.376208	0.00122498	-0.173225	0.832794	0.141845	0	0	0.0415746	-0.0777417	-0.168987	0.214386	-0.159947	0	0	-0.897135	0.0427244	-0.0407119	0.804804	-0.737569	-0.126614	1.12513	0.766906	0	0	0.874629	0.45742	0.047219	1.09069	0.769833	0	0
3.75791	2.68323	0.0347522	-3.11482	0.754027	-0.982142	0.288347	-0.377586	-0.017407	-0.18022	0.865153	0.106513	0	0	0.020813	-0.0662172	-0.170341	0.218664	-0.173796	0	0	-0.904671	0.0294849	-0.0501847	0.80414	-0.73942	-0.126919	1.12468	0.766891	0	0	0.873691	0.458878	0.0475699	1.09032	0.769835	0	0
3.7679	2.67174	0.0246918	-3.1183	0.766336	-0.983413	0.289176	-0.378997	-0.0364515	-0.186585	0.897407	0.0693366	0	0	-0.00180795	-0.0541324	-0.171562	0.222985	-0.183476	0	0	-0.913643	0.0162734	-0.0599217	0.803472	-0.741267	-0.127223	1.12423	0.766876	0	0	0.87275	0.460333	0.0479204	1.08996	0.769838	0	0
3.77788	2.65868	0.0147433	-3.12183	0.778445	-0.984835	0.290112	-0.380381	-0.0554846	-0.191779	0.929386	0.0318882	0	0	-0.0263947	-0.0417759	-0.172762	0.227126	-0.188943	0	0	-0.924378	0.00343381	-0.0697556	0.802801	-0.743111	-0.127528	1.12379	0.766861	0	0	0.871806	0.461783	0.0482705	1.08959	0.76984	0	0
3.78787	2.64408	0.00518968	-3.1254	0.79034	-0.986383	0.291166	-0.381645	-0.0741046	-0.195421	0.960799	-0.00408268	0	0	-0.0528936	-0.0294326	-0.174042	0.230943	-0.190453	0	0	-0.936974	-0.00872342	-0.079515	0.802127	-0.744951	-0.127831	1.12334	0.766846	0	0	0.870859	0.463229	0.0486202	1.08922	0.769843	0	0
3.79786	2.62813	-0.00376144	-3.12901	0.802015	-0.988031	0.292347	-0.382648	-0.0919688	-0.19734	0.991225	-0.0368863	0	0	-0.0810545	-0.0173468	-0.175472	0.234401	-0.18846	0	0	-0.951278	-0.0199455	-0.0890453	0.80145	-0.746787	-0.128135	1.12289	0.766832	0	0	0.869908	0.464671	0.0489695	1.08886	0.769846	0	0
3.80784	2.61108	-0.0119367	-3.13254	0.813466	-0.98975	0.293658	-0.383201	-0.108761	-0.197586	1.02031	-0.0651508	0	0	-0.110562	-0.00575449	-0.177005	0.237497	-0.183508	0	0	-0.967171	-0.0299664	-0.0982299	0.800769	-0.74862	-0.128437	1.12244	0.766817	0	0	0.868956	0.46611	0.0493184	1.08849	0.769848	0	0
3.81783	2.59334	-0.0192384	-3.13586	0.824699	-0.99151	0.295098	-0.383055	-0.124192	-0.196319	1.04751	-0.0879588	0	0	-0.140852	0.00515011	-0.17845	0.240365	-0.176164	0	0	-0.984215	-0.0385679	-0.106996	0.800086	-0.75045	-0.128739	1.12199	0.766803	0	0	0.868	0.467544	0.049667	1.08812	0.769851	0	0
3.82781	2.57546	-0.0256084	-3.13878	0.835723	-0.993282	0.29666	-0.381906	-0.137989	-0.193778	1.07228	-0.104978	0	0	-0.171233	0.0151816	-0.179538	0.243206	-0.166971	0	0	-1.00188	-0.0455517	-0.115301	0.7994	-0.752276	-0.129041	1.12153	0.766788	0	0	0.867042	0.468975	0.0500151	1.08775	0.769854	0	0
3.8378	2.55807	-0.0310709	-3.14113	0.846556	-0.995035	0.298332	-0.379396	-0.149953	-0.190233	1.09399	-0.116359	0	0	-0.20086	0.024214	-0.179997	0.246308	-0.156426	0	0	-1.01942	-0.0508102	-0.123126	0.798711	-0.754099	-0.129343	1.12108	0.766774	0	0	0.866081	0.470403	0.050363	1.08738	0.769857	0	0
3.84779	2.54186	-0.0357053	-3.14275	0.857214	-0.996736	0.300094	-0.375128	-0.159964	-0.185974	1.11211	-0.122607	0	0	-0.22886	0.0321741	-0.179574	0.249958	-0.144961	0	0	-1.03609	-0.0543172	-0.130469	0.798019	-0.755919	-0.129644	1.12063	0.76676	0	0	0.865117	0.471827	0.0507105	1.08701	0.76986	0	0
3.85777	2.52742	-0.0396046	-3.14349	0.867721	-0.998356	0.301921	-0.368697	-0.167955	-0.181295	1.1263	-0.124486	0	0	-0.254494	0.0390086	-0.178073	0.254335	-0.13293	0	0	-1.05134	-0.0561061	-0.137371	0.797325	-0.757736	-0.129944	1.12018	0.766746	0	0	0.864151	0.473249	0.0510577	1.08664	0.769863	0	0
3.86776	2.51529	-0.0429161	-3.14328	0.878097	-0.999865	0.303786	-0.359733	-0.174006	-0.176515	1.13632	-0.122813	0	0	-0.277106	0.0447495	-0.17537	0.259559	-0.120611	0	0	-1.06465	-0.0563107	-0.143887	0.796628	-0.759551	-0.130244	1.11973	0.766732	0	0	0.863183	0.474667	0.0514046	1.08627	0.769866	0	0
3.87775	2.50585	-0.0457982	-3.14214	0.888366	-1.00124	0.305656	-0.347969	-0.178294	-0.171941	1.14211	-0.118431	0	0	-0.296285	0.049486	-0.17142	0.265609	-0.108199	0	0	-1.07568	-0.0551389	-0.150104	0.795929	-0.761362	-0.130544	1.11927	0.766718	0	0	0.862212	0.476081	0.0517512	1.08589	0.769869	0	0
3.88773	2.49927	-0.0484051	-3.1401	0.898548	-1.00244	0.307498	-0.333332	-0.181081	-0.167861	1.14369	-0.112138	0	0	-0.311931	0.0533553	-0.166255	0.272322	-0.0958171	0	0	-1.08434	-0.052846	-0.156138	0.795227	-0.763171	-0.130844	1.11882	0.766704	0	0	0.861239	0.477493	0.0520975	1.08552	0.769872	0	0
3.89772	2.49544	-0.0508913	-3.13727	0.908666	-1.00347	0.309281	-0.316061	-0.182664	-0.164514	1.14108	-0.10464	0	0	-0.32426	0.0565327	-0.159956	0.279481	-0.0835158	0	0	-1.09069	-0.0497126	-0.162119	0.794523	-0.764977	-0.131143	1.11837	0.76669	0	0	0.860264	0.478902	0.0524435	1.08515	0.769875	0	0
3.9077	2.49407	-0.0534131	-3.13374	0.91874	-1.00429	0.310972	-0.296646	-0.183346	-0.162073	1.13426	-0.0965427	0	0	-0.333674	0.059214	-0.152616	0.286915	-0.0712888	0	0	-1.09494	-0.0460246	-0.168183	0.793817	-0.766781	-0.131441	1.11792	0.766677	0	0	0.859287	0.480309	0.0527892	1.08478	0.769878	0	0
3.91769	2.49479	-0.056122	-3.12963	0.92879	-1.0049	0.312545	-0.275703	-0.183427	-0.160651	1.12318	-0.0883594	0	0	-0.340664	0.0616007	-0.144331	0.294497	-0.0590843	0	0	-1.09738	-0.0420611	-0.174451	0.793108	-0.768582	-0.13174	1.11746	0.766663	0	0	0.858308	0.481712	0.0531347	1.0844	0.769882	0	0
3.92768	2.4972	-0.0591546	-3.12504	0.938836	-1.00529	0.313975	-0.253861	-0.183205	-0.16033	1.10781	-0.0805017	0	0	-0.345734	0.0638866	-0.1352	0.302126	-0.0468183	0	0	-1.09826	-0.0380839	-0.181028	0.792398	-0.770381	-0.132038	1.11701	0.76665	0	0	0.857327	0.483113	0.0534798	1.08403	0.769885	0	0
3.93766	2.50095	-0.062627	-3.1201	0.948899	-1.00545	0.315243	-0.231691	-0.182962	-0.161155	1.08818	-0.0732873	0	0	-0.349358	0.0662498	-0.125329	0.309705	-0.0343924	0	0	-1.09778	-0.0343285	-0.18799	0.791685	-0.772177	-0.132335	1.11655	0.766637	0	0	0.856344	0.484511	0.0538247	1.08365	0.769888	0	0
3.94765	2.50574	-0.0666341	-3.11491	0.958999	-1.00539	0.316335	-0.209664	-0.182952	-0.163144	1.06436	-0.0669505	0	0	-0.351954	0.0688469	-0.114827	0.317125	-0.0217105	0	0	-1.09607	-0.0309988	-0.195385	0.79097	-0.773971	-0.132633	1.1161	0.766623	0	0	0.85536	0.485906	0.0541694	1.08328	0.769892	0	0
3.95764	2.51136	-0.0712469	-3.10958	0.969154	-1.0051	0.317242	-0.188146	-0.183391	-0.166285	1.03647	-0.0616579	0	0	-0.353869	0.0718127	-0.103802	0.324267	-0.00869778	0	0	-1.09322	-0.0282626	-0.203237	0.790254	-0.775763	-0.13293	1.11564	0.76661	0	0	0.854373	0.487299	0.0545137	1.0829	0.769895	0	0
3.96762	2.51766	-0.0765206	-3.10418	0.979383	-1.0046	0.31796	-0.167392	-0.184458	-0.170541	1.00466	-0.0575139	0	0	-0.355379	0.0752574	-0.0923552	0.331007	0.00469793	0	0	-1.08924	-0.0262523	-0.211544	0.789536	-0.777552	-0.133226	1.11519	0.766597	0	0	0.853385	0.48869	0.0548578	1.08253	0.769899	0	0
3.97761	2.52453	-0.0824993	-3.09878	0.989699	-1.00389	0.318489	-0.147569	-0.186287	-0.175841	0.969118	-0.0545774	0	0	-0.356689	0.0792724	-0.080566	0.337233	0.0185	0	0	-1.08416	-0.0250712	-0.220286	0.788816	-0.77934	-0.133523	1.11473	0.766584	0	0	0.852396	0.490078	0.0552017	1.08215	0.769903	0	0
3.9876	2.53192	-0.0892192	-3.09344	1.00012	-1.00299	0.318831	-0.128785	-0.188977	-0.182048	0.930046	-0.0528897	0	0	-0.357947	0.0839442	-0.0684749	0.34287	0.032688	0	0	-1.078	-0.0248044	-0.229437	0.788095	-0.781125	-0.133819	1.11428	0.766571	0	0	0.851405	0.491464	0.0555453	1.08178	0.769906	0	0
3.99758	2.53983	-0.0967147	-3.08819	1.01064	-1.0019	0.318993	-0.111036	-0.192614	-0.18905	0.887761	-0.0524438	0	0	-0.359247	0.0893404	-0.0561027	0.347846	0.0472571	0	0	-1.0707	-0.02551	-0.238952	0.787372	-0.782908	-0.134115	1.11382	0.766559	0	0	0.850412	0.492848	0.0558887	1.0814	0.76991	0	0
4.00757	2.54819	-0.105012	-3.08307	1.02128	-1.00064	0.318985	-0.0943459	-0.197244	-0.196641	0.84252	-0.0532294	0	0	-0.360646	0.0955345	-0.0434006	0.352192	0.0621226	0	0	-1.0624	-0.0272427	-0.248802	0.786648	-0.784689	-0.13441	1.11337	0.766546	0	0	0.849419	0.49423	0.0562319	1.08102	0.769914	0	0
4.01755	2.55687	-0.114134	-3.07822	1.03204	-0.999227	0.318818	-0.0788288	-0.202875	-0.204478	0.794478	-0.0552392	0	0	-0.362171	0.10263	-0.030232	0.356094	0.077109	0	0	-1.05357	-0.0300868	-0.258986	0.785922	-0.786469	-0.134706	1.11291	0.766533	0	0	0.848424	0.49561	0.0565748	1.08065	0.769917	0	0
4.02754	2.56578	-0.124096	-3.07371	1.04291	-0.997682	0.318503	-0.0644687	-0.209517	-0.212283	0.743988	-0.0583685	0	0	-0.363825	0.110696	-0.0164822	0.3597	0.092109	0	0	-1.04451	-0.0341025	-0.269466	0.785195	-0.788246	-0.135001	1.11246	0.766521	0	0	0.847428	0.496988	0.0569176	1.08027	0.769921	0	0
4.03753	2.5749	-0.13487	-3.06959	1.0539	-0.996022	0.318056	-0.0511469	-0.217145	-0.219863	0.691584	-0.062411	0	0	-0.3656	0.119736	-0.00208923	0.363116	0.107072	0	0	-1.03539	-0.0392859	-0.280167	0.784466	-0.790022	-0.135296	1.112	0.766508	0	0	0.84643	0.498364	0.0572601	1.07989	0.769925	0	0
4.04751	2.58418	-0.146385	-3.06583	1.06499	-0.994258	0.317491	-0.0386868	-0.22569	-0.227087	0.637938	-0.0670824	0	0	-0.367478	0.129681	0.0129553	0.366428	0.121984	0	0	-1.0263	-0.0455686	-0.290995	0.783736	-0.791797	-0.13559	1.11154	0.766496	0	0	0.845432	0.499738	0.0576025	1.07952	0.769929	0	0
4.0575	2.59355	-0.15853	-3.06244	1.07618	-0.992403	0.316826	-0.0269939	-0.235018	-0.233759	0.583713	-0.072085	0	0	-0.369437	0.140427	0.028665	0.369842	0.136783	0	0	-1.01743	-0.0528608	-0.30185	0.783005	-0.79357	-0.135885	1.11109	0.766483	0	0	0.844432	0.501111	0.0579447	1.07914	0.769933	0	0
4.06749	2.60293	-0.171174	-3.05939	1.08747	-0.990472	0.316078	-0.0159691	-0.24497	-0.239686	0.529645	-0.0771046	0	0	-0.371455	0.151834	0.0450237	0.373561	0.151423	0	0	-1.00892	-0.0610423	-0.312615	0.782273	-0.795341	-0.136179	1.11063	0.766471	0	0	0.843431	0.502482	0.0582867	1.07876	0.769937	0	0
4.07747	2.61222	-0.184162	-3.05664	1.09885	-0.988483	0.315265	-0.00552487	-0.25536	-0.244682	0.476529	-0.0818425	0	0	-0.373509	0.163728	0.0619778	0.377781	0.165873	0	0	-1.00091	-0.0699521	-0.323155	0.78154	-0.797111	-0.136473	1.11018	0.766459	0	0	0.842429	0.503852	0.0586285	1.07838	0.769941	0	0
4.08746	2.6214	-0.197306	-3.05411	1.11031	-0.986452	0.314408	0.00448514	-0.265994	-0.248663	0.425268	-0.0860184	0	0	-0.375581	0.175877	0.0793908	0.38259	0.180161	0	0	-0.993365	-0.0793615	-0.333321	0.780806	-0.79888	-0.136767	1.10972	0.766446	0	0	0.841427	0.50522	0.0589702	1.07801	0.769945	0	0
4.09745	2.63046	-0.210406	-3.05165	1.12185	-0.984402	0.313527	0.0141674	-0.276662	-0.251562	0.376756	-0.0894317	0	0	-0.377656	0.188014	0.0970853	0.388062	0.19432	0	0	-0.986243	-0.0889973	-0.34297	0.780071	-0.800647	-0.13706	1.10926	0.766434	0	0	0.840423	0.506586	0.0593118	1.07763	0.769949	0	0
4.10743	2.63935	-0.223254	-3.04915	1.13347	-0.982353	0.312642	0.0235572	-0.287144	-0.253291	0.331808	-0.0919965	0	0	-0.379719	0.199866	0.114878	0.394286	0.208369	0	0	-0.979488	-0.0985687	-0.351978	0.779335	-0.802413	-0.137354	1.10881	0.766422	0	0	0.839419	0.507952	0.0596532	1.07725	0.769953	0	0
4.11742	2.64811	-0.235638	-3.04642	1.14518	-0.980329	0.311774	0.0327213	-0.297234	-0.253872	0.291214	-0.0937295	0	0	-0.381762	0.21113	0.132513	0.401232	0.222372	0	0	-0.972904	-0.107746	-0.360217	0.778597	-0.804178	-0.137647	1.10835	0.76641	0	0	0.838413	0.509316	0.0599944	1.07687	0.769957	0	0
4.1274	2.65664	-0.247343	-3.04342	1.15696	-0.978355	0.310941	0.0415217	-0.306713	-0.25329	0.255504	-0.0947876	0	0	-0.383778	0.221566	0.149835	0.409072	0.236249	0	0	-0.966554	-0.116243	-0.367641	0.777859	-0.805942	-0.13794	1.10789	0.766398	0	0	0.837407	0.510678	0.0603355	1.07649	0.769962	0	0
4.13739	2.66483	-0.258205	-3.0401	1.16884	-0.976456	0.310161	0.0497773	-0.315414	-0.251569	0.225045	-0.0954412	0	0	-0.385761	0.230999	0.166758	0.417979	0.249898	0	0	-0.960498	-0.123832	-0.374218	0.777121	-0.807704	-0.138233	1.10744	0.766387	0	0	0.836401	0.51204	0.0606765	1.07611	0.769966	0	0
4.14738	2.67258	-0.268099	-3.03646	1.1808	-0.974656	0.309447	0.0572696	-0.323211	-0.248812	0.200027	-0.0960579	0	0	-0.387709	0.239299	0.183228	0.428125	0.263178	0	0	-0.954794	-0.130325	-0.37994	0.776381	-0.809466	-0.138526	1.10698	0.766375	0	0	0.835393	0.5134	0.0610173	1.07574	0.76997	0	0
4.15736	2.67985	-0.276921	-3.03243	1.19286	-0.972982	0.308812	0.0638364	-0.330009	-0.245286	0.180512	-0.0970834	0	0	-0.38962	0.246328	0.199115	0.439554	0.275963	0	0	-0.949374	-0.135539	-0.3848	0.775641	-0.811226	-0.138818	1.10652	0.766363	0	0	0.834385	0.514759	0.061358	1.07536	0.769975	0	0
4.16735	2.68659	-0.284581	-3.02797	1.20501	-0.971458	0.308263	0.0692774	-0.335716	-0.241314	0.166356	-0.099046	0	0	-0.391495	0.251954	0.214247	0.452335	0.288065	0	0	-0.9442	-0.139308	-0.388826	0.7749	-0.812985	-0.139111	1.10607	0.766351	0	0	0.833376	0.516117	0.0616985	1.07498	0.769979	0	0
4.17734	2.69277	-0.291	-3.02303	1.21725	-0.970106	0.307801	0.0734308	-0.340249	-0.237267	0.157249	-0.102531	0	0	-0.393333	0.25603	0.228341	0.466451	0.299274	0	0	-0.939166	-0.141481	-0.392044	0.774159	-0.814743	-0.139403	1.10561	0.76634	0	0	0.832367	0.517474	0.0620389	1.0746	0.769984	0	0
4.18732	2.69822	-0.296093	-3.01766	1.22959	-0.968948	0.307426	0.0760246	-0.343497	-0.233405	0.152641	-0.108147	0	0	-0.395135	0.258454	0.241145	0.482075	0.309231	0	0	-0.934397	-0.141965	-0.394535	0.773417	-0.816501	-0.139695	1.10515	0.766328	0	0	0.831358	0.51883	0.0623793	1.07422	0.769988	0	0
4.19731	2.70276	-0.299809	-3.012	1.24201	-0.968005	0.307131	0.0767906	-0.345373	-0.229847	0.151834	-0.116455	0	0	-0.396904	0.259181	0.252424	0.499416	0.317502	0	0	-0.930104	-0.14075	-0.396368	0.772674	-0.818257	-0.139987	1.1047	0.766317	0	0	0.830348	0.520185	0.0627194	1.07384	0.769993	0	0
4.2073	2.70623	-0.302098	-3.00617	1.2545	-0.967292	0.306904	0.0755635	-0.345804	-0.226693	0.154085	-0.12789	0	0	-0.39864	0.258133	0.261826	0.518564	0.323635	0	0	-0.926423	-0.137848	-0.397569	0.771931	-0.820013	-0.140279	1.10424	0.766305	0	0	0.829337	0.521539	0.0630595	1.07346	0.769997	0	0
4.21728	2.70849	-0.302896	-3.00028	1.26706	-0.966823	0.306731	0.0722853	-0.344707	-0.224084	0.158678	-0.142668	0	0	-0.400346	0.255178	0.26885	0.539493	0.327163	0	0	-0.923412	-0.133265	-0.398123	0.771188	-0.821767	-0.140571	1.10378	0.766294	0	0	0.828326	0.522893	0.0633995	1.07308	0.770002	0	0
4.22727	2.70936	-0.302143	-2.99452	1.27965	-0.966607	0.306595	0.0668649	-0.342004	-0.222076	0.164907	-0.160677	0	0	-0.402022	0.250233	0.273051	0.562294	0.32754	0	0	-0.921287	-0.127047	-0.398025	0.770444	-0.823521	-0.140863	1.10333	0.766282	0	0	0.827315	0.524245	0.0637393	1.0727	0.770006	0	0
4.23725	2.70868	-0.299822	-2.98907	1.29226	-0.966648	0.306475	0.0593099	-0.337667	-0.220729	0.172238	-0.181335	0	0	-0.403672	0.243239	0.274034	0.586956	0.32424	0	0	-0.920202	-0.119286	-0.397233	0.7697	-0.825275	-0.141154	1.10287	0.766271	0	0	0.826304	0.525597	0.0640791	1.07232	0.770011	0	0
4.24724	2.70624	-0.295978	-2.98414	1.30486	-0.966945	0.306353	0.0495975	-0.331712	-0.219979	0.180286	-0.203622	0	0	-0.405297	0.234239	0.271592	0.613556	0.316725	0	0	-0.920439	-0.110146	-0.395731	0.768955	-0.827028	-0.141446	1.10241	0.76626	0	0	0.825292	0.526949	0.0644188	1.07194	0.770016	0	0
4.25723	2.70191	-0.290734	-2.97992	1.31742	-0.967493	0.306206	0.0377549	-0.324231	-0.219691	0.188834	-0.226306	0	0	-0.406899	0.223354	0.265699	0.642096	0.304541	0	0	-0.922243	-0.0998638	-0.393497	0.76821	-0.82878	-0.141737	1.10196	0.766248	0	0	0.82428	0.528299	0.0647585	1.07157	0.77002	0	0
4.26721	2.6957	-0.284197	-2.97648	1.32991	-0.96828	0.306016	0.023992	-0.315301	-0.219923	0.197887	-0.248112	0	0	-0.408479	0.210609	0.256285	0.672266	0.287418	0	0	-0.925597	-0.0886387	-0.390502	0.767465	-0.830532	-0.142029	1.1015	0.766237	0	0	0.823268	0.52965	0.0650981	1.07119	0.770025	0	0
4.2772	2.68753	-0.27649	-2.97394	1.34228	-0.969292	0.305764	0.00837082	-0.304983	-0.220625	0.207343	-0.26785	0	0	-0.410038	0.196099	0.243465	0.703904	0.265213	0	0	-0.930679	-0.0766887	-0.386777	0.76672	-0.832283	-0.14232	1.10104	0.766226	0	0	0.822255	0.530999	0.0654376	1.07081	0.77003	0	0
4.28719	2.67731	-0.267783	-2.97241	1.35452	-0.970509	0.305436	-0.0091548	-0.293374	-0.22165	0.216972	-0.284515	0	0	-0.411578	0.180024	0.227616	0.736899	0.238022	0	0	-0.937771	-0.064281	-0.382379	0.765974	-0.834034	-0.142611	1.10059	0.766215	0	0	0.821243	0.532349	0.065777	1.07043	0.770035	0	0
4.29717	2.6651	-0.25825	-2.97186	1.36659	-0.97191	0.305019	-0.0285529	-0.280602	-0.222993	0.226567	-0.297385	0	0	-0.4131	0.162569	0.20926	0.77092	0.206288	0	0	-0.946959	-0.0516489	-0.377342	0.765228	-0.835784	-0.142902	1.10013	0.766204	0	0	0.82023	0.533697	0.0661164	1.07005	0.770039	0	0
4.30716	2.65098	-0.248088	-2.9722	1.37848	-0.973473	0.304505	-0.0497918	-0.266845	-0.224742	0.235928	-0.306105	0	0	-0.414602	0.143966	0.189093	0.805583	0.17083	0	0	-0.95829	-0.0390002	-0.371723	0.764482	-0.837534	-0.143193	1.09967	0.766192	0	0	0.819216	0.535046	0.0664558	1.06967	0.770044	0	0
4.31714	2.63516	-0.237507	-2.97322	1.39014	-0.975174	0.303891	-0.0727184	-0.252336	-0.227112	0.244931	-0.310658	0	0	-0.416085	0.124465	0.167906	0.840316	0.132894	0	0	-0.971586	-0.026499	-0.365587	0.763736	-0.839284	-0.143484	1.09922	0.766181	0	0	0.818203	0.536394	0.0667951	1.06929	0.770049	0	0
4.32713	2.6179	-0.226738	-2.97471	1.40159	-0.976988	0.303177	-0.0971776	-0.237346	-0.230293	0.253452	-0.311323	0	0	-0.417546	0.104378	0.146518	0.874568	0.094089	0	0	-0.98665	-0.014293	-0.359038	0.762989	-0.841033	-0.143775	1.09876	0.76617	0	0	0.81719	0.537741	0.0671343	1.06891	0.770054	0	0
4.33712	2.59947	-0.216004	-2.97646	1.41281	-0.978896	0.302367	-0.122965	-0.22215	-0.234391	0.261402	-0.308581	0	0	-0.418983	0.084038	0.125647	0.907772	0.0562813	0	0	-1.00318	-0.00250372	-0.352189	0.762242	-0.842782	-0.144066	1.0983	0.766159	0	0	0.816176	0.539088	0.0674735	1.06853	0.770059	0	0
4.3471	2.58009	-0.205512	-2.97834	1.4238	-0.980875	0.30147	-0.149937	-0.207011	-0.239385	0.268681	-0.303037	0	0	-0.420391	0.0638235	0.105855	0.939557	0.0213134	0	0	-1.02103	0.00873773	-0.345179	0.761496	-0.84453	-0.144357	1.09785	0.766148	0	0	0.815162	0.540435	0.0678126	1.06815	0.770064	0	0
4.35709	2.55989	-0.195453	-2.98036	1.43458	-0.982909	0.300495	-0.177977	-0.192192	-0.245127	0.275219	-0.295337	0	0	-0.421766	0.0441493	0.0875427	0.969711	-0.00935542	0	0	-1.04016	0.0192802	-0.338147	0.760749	-0.846279	-0.144648	1.09739	0.766137	0	0	0.814149	0.541782	0.0681517	1.06777	0.770069	0	0
4.36708	2.53907	-0.185966	-2.9825	1.44515	-0.984982	0.299456	-0.206852	-0.177922	-0.251432	0.281076	-0.28609	0	0	-0.423101	0.0253657	0.0709354	0.998002	-0.0349532	0	0	-1.06039	0.0290138	-0.33118	0.760002	-0.848027	-0.144939	1.09693	0.766126	0	0	0.813135	0.543128	0.0684908	1.06739	0.770074	0	0
4.37706	2.51789	-0.177113	-2.98477	1.45555	-0.987082	0.298365	-0.236229	-0.164362	-0.258136	0.286428	-0.27582	0	0	-0.424388	0.00769937	0.0560908	1.02417	-0.0554567	0	0	-1.08135	0.0379053	-0.324319	0.759255	-0.849774	-0.145229	1.09648	0.766115	0	0	0.812121	0.544474	0.0688298	1.06701	0.770079	0	0
4.38705	2.49659	-0.168896	-2.98716	1.4658	-0.9892	0.297237	-0.265778	-0.151596	-0.265102	0.291472	-0.264957	0	0	-0.425621	-0.00874155	0.042926	1.04809	-0.0714106	0	0	-1.10268	0.0459807	-0.317578	0.758508	-0.851522	-0.14552	1.09602	0.766104	0	0	0.811107	0.54582	0.0691687	1.06663	0.770084	0	0
4.39704	2.47542	-0.161246	-2.98963	1.47594	-0.991329	0.296081	-0.295169	-0.139615	-0.272249	0.29643	-0.253824	0	0	-0.426794	-0.024002	0.031222	1.0697	-0.0836322	0	0	-1.12391	0.0533395	-0.310937	0.757761	-0.853269	-0.145811	1.09556	0.766094	0	0	0.810094	0.547165	0.0695077	1.06626	0.770089	0	0
4.40702	2.45451	-0.154051	-2.99218	1.48599	-0.993464	0.294909	-0.324207	-0.128333	-0.279534	0.301455	-0.242632	0	0	-0.427903	-0.0382275	0.0206738	1.08924	-0.0930687	0	0	-1.14483	0.0601175	-0.304383	0.757014	-0.855016	-0.146101	1.09511	0.766083	0	0	0.80908	0.548511	0.0698465	1.06588	0.770094	0	0
4.41701	2.43389	-0.147178	-2.9948	1.49599	-0.995601	0.293727	-0.352835	-0.1176	-0.286932	0.306628	-0.231484	0	0	-0.42895	-0.0516536	0.0109276	1.10716	-0.100657	0	0	-1.16537	0.0664735	-0.297897	0.756267	-0.856762	-0.146392	1.09465	0.766072	0	0	0.808066	0.549856	0.0701854	1.0655	0.770099	0	0
4.42699	2.4135	-0.140489	-2.99748	1.50596	-0.99774	0.292541	-0.38112	-0.107218	-0.294414	0.311959	-0.220404	0	0	-0.429943	-0.0645801	0.00163167	1.12404	-0.107221	0	0	-1.18563	0.0725753	-0.291455	0.75552	-0.858509	-0.146683	1.0942	0.766061	0	0	0.807053	0.551201	0.0705242	1.06512	0.770104	0	0
4.43698	2.39324	-0.133869	-3.00018	1.51591	-0.999879	0.291354	-0.409212	-0.096982	-0.301942	0.317393	-0.209363	0	0	-0.430902	-0.077313	-0.00751363	1.14048	-0.113395	0	0	-1.20572	0.0785741	-0.28503	0.754773	-0.860255	-0.146973	1.09374	0.76605	0	0	0.806039	0.552546	0.070863	1.06474	0.770109	0	0
