Coordinates
version=1
nRows=174
nColumns=38
inDegrees=no

Units are S.I. units (second, meters, Newtons, ...)
If the header above contains a line with 'inDegrees', this indicates whether rotational values are in degrees (yes) or radians (no).

endheader
time	pelvis_tilt	pelvis_list	pelvis_rotation	pelvis_tx	pelvis_ty	pelvis_tz	hip_flexion_r	hip_adduction_r	hip_rotation_r	knee_angle_r	ankle_angle_r	subtalar_angle_r	mtp_angle_r	hip_flexion_l	hip_adduction_l	hip_rotation_l	knee_angle_l	ankle_angle_l	subtalar_angle_l	mtp_angle_l	lumbar_extension	lumbar_bending	lumbar_rotation	arm_flex_r	arm_add_r	arm_rot_r	elbow_flex_r	pro_sup_r	wrist_flex_r	wrist_dev_r	arm_flex_l	arm_add_l	arm_rot_l	elbow_flex_l	pro_sup_l	wrist_flex_l	wrist_dev_l
0	-0.0267781	-0.105819	1.47881	0.137756	0.96664	2.32387	0.113209	0.0523841	-0.0931951	0.195486	0.245457	0	0	0.584116	-0.0367288	-0.120213	0.764125	0.0649274	0	0	-0.0799709	-0.110824	0.150015	0.0982111	-0.394024	0.637694	0.839135	1.17539	0	0	-0.0195954	-0.265338	1.05642	0.413226	0.37743	0	0
0.00665493	-0.0273752	-0.103734	1.47548	0.137776	0.965658	2.31594	0.100029	0.0509475	-0.0908385	0.191883	0.251578	0	0	0.582865	-0.0363589	-0.126566	0.724759	0.0581931	0	0	-0.0823687	-0.111831	0.154406	0.101809	-0.396032	0.634315	0.843931	1.17806	0	0	-0.0241306	-0.262046	1.06853	0.406576	0.363265	0	0
0.0133099	-0.0279695	-0.101652	1.47216	0.137794	0.964673	2.30801	0.0868643	0.0495086	-0.0884918	0.188309	0.257707	0	0	0.581603	-0.0359823	-0.132911	0.685416	0.0514517	0	0	-0.0847595	-0.112833	0.158789	0.105398	-0.398036	0.63094	0.848716	1.18072	0	0	-0.0286522	-0.258753	1.08069	0.399914	0.349058	0	0
0.0199648	-0.0285575	-0.0995825	1.46886	0.137807	0.96368	2.30008	0.0737422	0.0480626	-0.0861714	0.184816	0.263856	0	0	0.580312	-0.0355865	-0.139228	0.646148	0.0446992	0	0	-0.0871309	-0.113824	0.16315	0.108962	-0.400029	0.627576	0.853469	1.18336	0	0	-0.0331389	-0.255454	1.09297	0.393223	0.334746	0	0
0.0266197	-0.0291361	-0.0975333	1.46561	0.137812	0.962673	2.29214	0.0606971	0.0466015	-0.0838976	0.18147	0.270037	0	0	0.578975	-0.0351541	-0.145489	0.607041	0.0379415	0	0	-0.0894667	-0.114795	0.167469	0.11248	-0.402001	0.624232	0.858164	1.18598	0	0	-0.0375658	-0.252148	1.10545	0.386484	0.320257	0	0
0.0332746	-0.0297046	-0.0955141	1.46242	0.137805	0.961647	2.28418	0.0477673	0.0451145	-0.0816918	0.178346	0.276264	0	0	0.577578	-0.0346637	-0.151654	0.568221	0.0311982	0	0	-0.0917486	-0.115741	0.171724	0.115928	-0.403939	0.62092	0.862772	1.18855	0	0	-0.0419085	-0.248835	1.1182	0.379682	0.305523	0	0
0.0399296	-0.0302647	-0.093534	1.45931	0.137781	0.960596	2.2762	0.0349918	0.0435869	-0.0795746	0.175525	0.282543	0	0	0.576111	-0.0340913	-0.157673	0.529849	0.0245044	0	0	-0.0939569	-0.116661	0.175892	0.119283	-0.40583	0.617654	0.86726	1.19106	0	0	-0.0461448	-0.245517	1.13131	0.372805	0.290485	0	0
0.0465845	-0.0308219	-0.0916003	1.45631	0.137737	0.959515	2.26818	0.0224082	0.0420005	-0.0775643	0.173088	0.288879	0	0	0.57457	-0.0334114	-0.163487	0.492121	0.0179092	0	0	-0.0960722	-0.117556	0.179947	0.122518	-0.407654	0.614447	0.871597	1.19348	0	0	-0.050257	-0.242198	1.14482	0.365847	0.275104	0	0
0.0532394	-0.0313858	-0.0897185	1.45342	0.137671	0.958401	2.26014	0.0100511	0.0403333	-0.0756756	0.171113	0.295266	0	0	0.572957	-0.0325981	-0.169034	0.455263	0.0114734	0	0	-0.0980752	-0.118432	0.183864	0.125609	-0.409395	0.611318	0.875748	1.19581	0	0	-0.0542319	-0.238887	1.15878	0.358809	0.25936	0	0
0.0598944	-0.0319698	-0.0878917	1.45067	0.137578	0.957251	2.25204	-0.00204909	0.0385597	-0.0739194	0.169675	0.301691	0	0	0.571282	-0.0316265	-0.17425	0.419527	0.00526509	0	0	-0.0999478	-0.119302	0.187618	0.128532	-0.411032	0.608282	0.879683	1.19803	0	0	-0.058062	-0.235596	1.17318	0.351703	0.243258	0	0
0.0665493	-0.0325915	-0.0861207	1.44806	0.137457	0.956066	2.2439	-0.0138661	0.0366503	-0.0723022	0.168843	0.308133	0	0	0.569556	-0.0304735	-0.179072	0.385179	-0.000645456	0	0	-0.101673	-0.120182	0.191186	0.131265	-0.412543	0.605356	0.883368	1.20012	0	0	-0.0617447	-0.23234	1.18803	0.344544	0.226826	0	0
0.0732042	-0.0332724	-0.0844043	1.4456	0.137308	0.954847	2.2357	-0.025378	0.0345726	-0.0708266	0.16868	0.314559	0	0	0.567797	-0.0291188	-0.183451	0.352495	-0.00619134	0	0	-0.103236	-0.121094	0.194547	0.133789	-0.413905	0.602557	0.886775	1.20208	0	0	-0.0652821	-0.229138	1.20327	0.337357	0.21012	0	0
0.0798592	-0.034037	-0.0827392	1.44329	0.137128	0.953595	2.22743	-0.0365661	0.0322912	-0.0694915	0.169244	0.320928	0	0	0.566024	-0.0275454	-0.187346	0.321753	-0.0113147	0	0	-0.104622	-0.122064	0.197681	0.136083	-0.415097	0.599903	0.889875	1.20389	0	0	-0.0686802	-0.226012	1.21886	0.330174	0.193218	0	0
0.0865141	-0.0349127	-0.0811205	1.44114	0.136917	0.952314	2.21908	-0.0474144	0.0297684	-0.0682936	0.170585	0.327185	0	0	0.564258	-0.02574	-0.190738	0.293216	-0.0159719	0	0	-0.105818	-0.123123	0.200571	0.138132	-0.416096	0.59741	0.892643	1.20556	0	0	-0.0719482	-0.222986	1.23472	0.323032	0.176222	0	0
0.093169	-0.0359288	-0.0795426	1.43913	0.136678	0.951009	2.21066	-0.0579082	0.0269649	-0.0672274	0.172753	0.333266	0	0	0.562518	-0.0236926	-0.19363	0.267131	-0.0201377	0	0	-0.106814	-0.124302	0.203203	0.139921	-0.416879	0.595094	0.895056	1.20707	0	0	-0.0750968	-0.220086	1.25073	0.315972	0.159252	0	0
0.0998239	-0.0371156	-0.0779994	1.43727	0.136409	0.949687	2.20214	-0.0680326	0.0238406	-0.0662869	0.175791	0.339095	0	0	0.560822	-0.0213967	-0.196044	0.243717	-0.0238086	0	0	-0.107597	-0.125636	0.205566	0.141436	-0.417426	0.592969	0.897094	1.20843	0	0	-0.0781379	-0.217339	1.26679	0.309038	0.142444	0	0
0.106479	-0.0385033	-0.0764849	1.43555	0.136112	0.948353	2.19354	-0.0777715	0.0203556	-0.0654663	0.179741	0.344583	0	0	0.559185	-0.0188481	-0.198027	0.223158	-0.0270043	0	0	-0.108158	-0.127157	0.207653	0.142665	-0.41772	0.591048	0.898741	1.20963	0	0	-0.0810826	-0.214772	1.28276	0.302278	0.125944	0	0
0.113134	-0.0401216	-0.0749941	1.43395	0.13579	0.947016	2.18484	-0.0871054	0.0164709	-0.0647607	0.184645	0.349629	0	0	0.55762	-0.0160446	-0.199644	0.205594	-0.0297673	0	0	-0.108488	-0.128899	0.209459	0.143598	-0.417745	0.589342	0.899986	1.21067	0	0	-0.0839406	-0.212411	1.29853	0.295736	0.1099	0	0
0.119789	-0.041998	-0.0735239	1.43247	0.135442	0.945681	2.17604	-0.09601	0.0121496	-0.0641671	0.190545	0.354119	0	0	0.556136	-0.0129853	-0.200972	0.191118	-0.0321611	0	0	-0.108575	-0.130892	0.210983	0.144224	-0.417489	0.587861	0.90082	1.21155	0	0	-0.0867192	-0.210281	1.31396	0.289455	0.0944617	0	0
0.126444	-0.0441577	-0.0720736	1.43109	0.13507	0.944358	2.16713	-0.104455	0.00735819	-0.0636841	0.197484	0.357924	0	0	0.554739	-0.00966988	-0.202094	0.179775	-0.0342661	0	0	-0.108411	-0.133161	0.212225	0.144535	-0.416944	0.586611	0.901241	1.21229	0	0	-0.0894233	-0.208402	1.32891	0.283477	0.0797774	0	0
0.133099	-0.0466222	-0.0706461	1.42981	0.134676	0.943052	2.15813	-0.112401	0.0020671	-0.0633128	0.205507	0.360902	0	0	0.553432	-0.00609802	-0.203093	0.171557	-0.0361747	0	0	-0.107983	-0.135728	0.213191	0.144524	-0.416105	0.585599	0.901249	1.21287	0	0	-0.0920544	-0.206796	1.34326	0.27784	0.065987	0	0
0.139754	-0.0494091	-0.0692487	1.42861	0.134261	0.941772	2.14903	-0.119801	-0.00374803	-0.0630561	0.214661	0.362897	0	0	0.552219	-0.00226889	-0.204046	0.166405	-0.037984	0	0	-0.107279	-0.138608	0.213884	0.144186	-0.414973	0.584829	0.90085	1.21331	0	0	-0.0946094	-0.205477	1.35687	0.272578	0.053214	0	0
0.146408	-0.0525319	-0.0678924	1.42749	0.133824	0.940524	2.13982	-0.126597	-0.0101062	-0.0629177	0.224996	0.36374	0	0	0.5511	0.00181927	-0.205014	0.164209	-0.0397884	0	0	-0.106286	-0.141813	0.214313	0.143517	-0.413552	0.584304	0.900051	1.2136	0	0	-0.0970803	-0.204456	1.36966	0.267716	0.041554	0	0
0.153063	-0.056	-0.066592	1.42643	0.133368	0.939314	2.13052	-0.132725	-0.0170203	-0.0629009	0.236561	0.363248	0	0	0.550077	0.00616944	-0.206046	0.164818	-0.0416707	0	0	-0.10499	-0.145345	0.214486	0.142515	-0.411851	0.584025	0.898866	1.21376	0	0	-0.0994536	-0.203739	1.38152	0.263274	0.0310701	0	0
0.159718	-0.0598186	-0.0653652	1.42543	0.13289	0.938149	2.12113	-0.138111	-0.0244973	-0.0630069	0.249407	0.361224	0	0	0.549148	0.010786	-0.207169	0.168037	-0.0436945	0	0	-0.103381	-0.149206	0.21441	0.141182	-0.409881	0.583992	0.897308	1.21378	0	0	-0.10171	-0.203328	1.39241	0.259264	0.0217847	0	0
0.166373	-0.063989	-0.0642326	1.4245	0.132392	0.937033	2.11166	-0.142674	-0.0325374	-0.0632338	0.263581	0.357465	0	0	0.548313	0.0156747	-0.208395	0.17364	-0.0458959	0	0	-0.101446	-0.153388	0.214097	0.13952	-0.407659	0.584204	0.895395	1.21366	0	0	-0.103824	-0.203219	1.40228	0.255688	0.0136688	0	0
0.173028	-0.0685085	-0.0632174	1.42362	0.131873	0.935973	2.10211	-0.146331	-0.0411338	-0.0635745	0.279131	0.351761	0	0	0.54757	0.0208424	-0.209719	0.181378	-0.0482783	0	0	-0.0991768	-0.157884	0.213556	0.137534	-0.405202	0.584654	0.893146	1.21341	0	0	-0.105761	-0.203403	1.41114	0.25254	0.00665102	0	0
0.179683	-0.0733692	-0.0623443	1.42279	0.131331	0.934973	2.0925	-0.148991	-0.0502707	-0.064016	0.296094	0.343901	0	0	0.546921	0.0262954	-0.211122	0.190982	-0.0508079	0	0	-0.096568	-0.162676	0.2128	0.135228	-0.402533	0.585334	0.890584	1.21302	0	0	-0.107484	-0.203868	1.41903	0.249806	0.000632834	0	0
0.186338	-0.0785584	-0.0616389	1.42203	0.130766	0.934038	2.08283	-0.150566	-0.059923	-0.0645376	0.314502	0.333679	0	0	0.546363	0.0320382	-0.212575	0.202174	-0.0534129	0	0	-0.0936175	-0.167746	0.211843	0.132609	-0.399675	0.58623	0.887732	1.21249	0	0	-0.108948	-0.204597	1.42599	0.247467	-0.00449715	0	0
0.192993	-0.0840575	-0.0611254	1.42135	0.130177	0.933171	2.07312	-0.150969	-0.0700555	-0.0651098	0.334373	0.320904	0	0	0.545893	0.038073	-0.214045	0.214674	-0.0559847	0	0	-0.0903286	-0.173068	0.210699	0.129685	-0.396655	0.587326	0.884616	1.21184	0	0	-0.110106	-0.205573	1.43208	0.245501	-0.0088516	0	0
0.199648	-0.0898427	-0.0608259	1.42074	0.129563	0.932378	2.06338	-0.150122	-0.0806225	-0.0656943	0.355713	0.305408	0	0	0.545504	0.0443978	-0.215498	0.228206	-0.0583828	0	0	-0.0867107	-0.178611	0.20938	0.126466	-0.393499	0.588606	0.881261	1.21104	0	0	-0.11091	-0.206778	1.43735	0.243889	-0.0125344	0	0
0.206303	-0.0958834	-0.0607587	1.42022	0.128923	0.931662	2.05363	-0.147953	-0.0915666	-0.0662435	0.378512	0.287056	0	0	0.545183	0.0510055	-0.216903	0.242502	-0.0604432	0	0	-0.08278	-0.18434	0.207898	0.122966	-0.390235	0.590052	0.877691	1.21011	0	0	-0.111315	-0.208196	1.44187	0.242615	-0.0156319	0	0
0.212958	-0.102143	-0.0609377	1.4198	0.128257	0.931027	2.04387	-0.144404	-0.102819	-0.0667016	0.402744	0.265762	0	0	0.54491	0.0578819	-0.218235	0.257306	-0.0619883	0	0	-0.0785604	-0.190214	0.206263	0.119202	-0.38689	0.59165	0.873929	1.20904	0	0	-0.111275	-0.209809	1.44565	0.241669	-0.0182062	0	0
0.219613	-0.108576	-0.0613709	1.41949	0.127565	0.930477	2.03412	-0.13943	-0.114297	-0.0670062	0.428364	0.241498	0	0	0.544657	0.0650052	-0.219476	0.272379	-0.0628398	0	0	-0.0740834	-0.196187	0.204485	0.115194	-0.383493	0.593385	0.869999	1.20783	0	0	-0.110751	-0.211607	1.44871	0.241049	-0.0202885	0	0
0.226268	-0.115134	-0.0620606	1.41932	0.126848	0.930017	2.0244	-0.133002	-0.125911	-0.0670904	0.455312	0.214308	0	0	0.544386	0.0723452	-0.220615	0.287493	-0.0628314	0	0	-0.0693881	-0.202206	0.202571	0.110964	-0.380069	0.595244	0.865921	1.20648	0	0	-0.10971	-0.213579	1.45101	0.240766	-0.0218742	0	0
0.232923	-0.121758	-0.0630027	1.41928	0.126108	0.929649	2.01471	-0.125108	-0.137557	-0.0668854	0.483508	0.184321	0	0	0.54405	0.0798639	-0.221648	0.302441	-0.0618219	0	0	-0.0645209	-0.208215	0.200528	0.106537	-0.376644	0.597217	0.861714	1.20499	0	0	-0.108125	-0.215719	1.45251	0.240841	-0.0229192	0	0
0.239577	-0.128387	-0.0641868	1.4194	0.125346	0.929379	2.00507	-0.115752	-0.149124	-0.0663241	0.51286	0.151761	0	0	0.543589	0.0875152	-0.222577	0.317028	-0.0597049	0	0	-0.0595348	-0.214154	0.198361	0.10194	-0.373244	0.599294	0.857397	1.20335	0	0	-0.105979	-0.218025	1.45311	0.24131	-0.0233362	0	0
0.246232	-0.134955	-0.0655968	1.41968	0.124565	0.929208	1.99549	-0.104955	-0.160498	-0.0653444	0.543259	0.116951	0	0	0.542939	0.0952473	-0.223408	0.331075	-0.0564173	0	0	-0.0544882	-0.219961	0.196073	0.0972027	-0.369891	0.601468	0.852985	1.20158	0	0	-0.103262	-0.220501	1.45267	0.242222	-0.0229931	0	0
0.252887	-0.141393	-0.0672113	1.42015	0.123768	0.929139	1.98598	-0.0927555	-0.171559	-0.0638927	0.574585	0.0803195	0	0	0.542027	0.103003	-0.224143	0.344422	-0.051943	0	0	-0.0494429	-0.225574	0.193667	0.0923548	-0.366607	0.603737	0.848492	1.19967	0	0	-0.0999794	-0.223154	1.45102	0.243641	-0.0217121	0	0
0.259542	-0.147633	-0.0690048	1.42079	0.122959	0.929177	1.97656	-0.079203	-0.182192	-0.0619279	0.606707	0.0423937	0	0	0.540776	0.110724	-0.224786	0.35692	-0.046313	0	0	-0.0444629	-0.230931	0.191144	0.0874282	-0.363409	0.6061	0.84393	1.19761	0	0	-0.0961449	-0.225997	1.44795	0.245649	-0.0192702	0	0
0.266197	-0.153606	-0.0709483	1.42164	0.122142	0.929321	1.96722	-0.0643621	-0.192282	-0.059423	0.639488	0.00379378	0	0	0.539108	0.118349	-0.225333	0.368441	-0.0396031	0	0	-0.0396129	-0.235973	0.188505	0.0824552	-0.360314	0.608558	0.839308	1.19542	0	0	-0.0917858	-0.229047	1.4432	0.248338	-0.0154017	0	0
0.272852	-0.15925	-0.0730102	1.42268	0.121321	0.929575	1.95798	-0.0483091	-0.201725	-0.0563684	0.67278	-0.0347829	0	0	0.536946	0.125818	-0.225776	0.378875	-0.0319274	0	0	-0.0349565	-0.240644	0.185745	0.0774686	-0.357337	0.611117	0.834636	1.19308	0	0	-0.0869422	-0.232324	1.4365	0.251816	-0.00980335	0	0
0.279507	-0.164504	-0.0751589	1.42392	0.1205	0.929937	1.94884	-0.0311264	-0.210427	-0.0527713	0.706432	-0.0725947	0	0	0.534221	0.133075	-0.226098	0.388128	-0.0234286	0	0	-0.0305528	-0.244898	0.182864	0.0725012	-0.354487	0.613785	0.829918	1.1906	0	0	-0.0816663	-0.235852	1.42754	0.256201	-0.00214148	0	0
0.286162	-0.169318	-0.0773627	1.42537	0.119684	0.930408	1.93981	-0.0129048	-0.218309	-0.0486568	0.74029	-0.108872	0	0	0.530871	0.140069	-0.226276	0.396132	-0.0142703	0	0	-0.0264565	-0.248692	0.179856	0.0675852	-0.351773	0.616575	0.82516	1.18797	0	0	-0.0760222	-0.239657	1.416	0.26162	0.0079367	0	0
0.292817	-0.173645	-0.0795918	1.42702	0.118878	0.930987	1.93089	0.00626123	-0.225305	-0.0440665	0.774191	-0.142862	0	0	0.526845	0.146751	-0.22628	0.402837	-0.00462608	0	0	-0.0227148	-0.251994	0.176714	0.062752	-0.349199	0.619501	0.820366	1.18518	0	0	-0.0700837	-0.243765	1.40155	0.2682	0.0207882	0	0
0.299472	-0.177449	-0.0818177	1.42888	0.118086	0.931669	1.92208	0.0262716	-0.231367	-0.0390573	0.807971	-0.173846	0	0	0.522105	0.153079	-0.226074	0.408216	0.00532805	0	0	-0.0193688	-0.254776	0.173434	0.0580309	-0.34677	0.622577	0.815538	1.18224	0	0	-0.0639321	-0.248199	1.38389	0.276067	0.0367545	0	0
0.306127	-0.180701	-0.0840132	1.43093	0.117312	0.932453	1.91338	0.047021	-0.236462	-0.0336996	0.841457	-0.201175	0	0	0.516624	0.159019	-0.22562	0.412263	0.0154207	0	0	-0.0164529	-0.25702	0.170006	0.053449	-0.344485	0.62582	0.81068	1.17914	0	0	-0.057652	-0.252976	1.36276	0.285335	0.0561362	0	0
0.312782	-0.183377	-0.0861534	1.43317	0.11656	0.933334	1.9048	0.0684002	-0.240571	-0.0280741	0.874468	-0.224299	0	0	0.510389	0.164538	-0.224876	0.414993	0.0254921	0	0	-0.0139946	-0.258714	0.166423	0.0490298	-0.342343	0.629241	0.805796	1.17587	0	0	-0.0513265	-0.258106	1.33796	0.296094	0.0791619	0	0
0.319437	-0.185464	-0.0882153	1.43559	0.115833	0.934307	1.89633	0.0902963	-0.243691	-0.0222689	0.906821	-0.242789	0	0	0.503397	0.169611	-0.2238	0.41644	0.0353992	0	0	-0.0120141	-0.259849	0.162678	0.044792	-0.340344	0.632849	0.800892	1.17245	0	0	-0.0450311	-0.263583	1.30941	0.308399	0.10595	0	0
0.326092	-0.186952	-0.0901785	1.4382	0.115133	0.935366	1.88797	0.112593	-0.245831	-0.0163762	0.938321	-0.256357	0	0	0.495657	0.174217	-0.222352	0.416653	0.0450185	0	0	-0.0105247	-0.260424	0.158766	0.0407477	-0.338484	0.636646	0.795973	1.16887	0	0	-0.0388255	-0.269382	1.27718	0.322258	0.136466	0	0
0.332746	-0.187836	-0.0920243	1.44098	0.114463	0.936504	1.87972	0.135171	-0.247009	-0.0104903	0.96877	-0.264866	0	0	0.487184	0.178339	-0.220495	0.415694	0.0542479	0	0	-0.00953249	-0.260438	0.154686	0.0369005	-0.33676	0.64062	0.79105	1.16517	0	0	-0.0327443	-0.275454	1.24154	0.337606	0.170475	0	0
0.339401	-0.188116	-0.0937367	1.44394	0.113824	0.937717	1.87157	0.157909	-0.247252	-0.00470425	0.997964	-0.268332	0	0	0.478003	0.181961	-0.218196	0.413638	0.0630071	0	0	-0.00903661	-0.25989	0.150447	0.033243	-0.33517	0.644744	0.786134	1.16136	0	0	-0.0267863	-0.281718	1.20301	0.354294	0.207495	0	0
0.346056	-0.187795	-0.0953047	1.44706	0.113217	0.938995	1.86352	0.18069	-0.246592	0.000893836	1.0257	-0.266928	0	0	0.468148	0.18507	-0.215429	0.410565	0.0712397	0	0	-0.00902489	-0.258778	0.146069	0.0297535	-0.333714	0.648972	0.78124	1.15749	0	0	-0.0209049	-0.288059	1.1624	0.372074	0.246765	0	0
0.352711	-0.18688	-0.0967214	1.45035	0.112641	0.940333	1.85556	0.203402	-0.245071	0.0062219	1.05177	-0.26096	0	0	0.457658	0.187656	-0.21218	0.406562	0.0789123	0	0	-0.00947845	-0.257106	0.14157	0.0264094	-0.332389	0.65326	0.776381	1.15358	0	0	-0.0150542	-0.294376	1.12047	0.390715	0.287577	0	0
0.359366	-0.185385	-0.0979835	1.4538	0.112097	0.941721	1.84769	0.225935	-0.242735	0.0112045	1.076	-0.250849	0	0	0.446578	0.189715	-0.208443	0.401715	0.0860111	0	0	-0.0103725	-0.254884	0.13697	0.0231864	-0.331192	0.657565	0.77157	1.14966	0	0	-0.00918524	-0.300577	1.07791	0.409999	0.329267	0	0
0.366021	-0.183329	-0.0990904	1.45742	0.111584	0.943152	1.8399	0.24819	-0.23964	0.015773	1.09819	-0.237105	0	0	0.434956	0.191244	-0.204223	0.396112	0.0925392	0	0	-0.0116779	-0.252124	0.132284	0.0200595	-0.330117	0.661841	0.766819	1.14575	0	0	-0.00324911	-0.306587	1.03536	0.429727	0.371232	0	0
0.372676	-0.180737	-0.100043	1.4612	0.111101	0.944617	1.83218	0.270072	-0.235848	0.0198651	1.11817	-0.220297	0	0	0.422839	0.192248	-0.199535	0.389836	0.0985124	0	0	-0.013363	-0.248846	0.127527	0.0170046	-0.329158	0.666051	0.762138	1.14186	0	0	0.00279965	-0.312346	0.993386	0.449725	0.412945	0	0
0.379331	-0.177638	-0.100845	1.46513	0.110648	0.946106	1.82452	0.291491	-0.231426	0.0234245	1.13581	-0.201031	0	0	0.410274	0.192735	-0.194405	0.382964	0.103957	0	0	-0.0153944	-0.245074	0.122708	0.0139991	-0.328309	0.670156	0.757536	1.13801	0	0	0.00900169	-0.317808	0.952442	0.469842	0.453957	0	0
0.385986	-0.174066	-0.101499	1.46924	0.110222	0.94761	1.81693	0.312368	-0.22645	0.0264002	1.15096	-0.179919	0	0	0.397304	0.19272	-0.188865	0.375567	0.108906	0	0	-0.0177383	-0.240839	0.117835	0.0110229	-0.327559	0.674125	0.753021	1.1342	0	0	0.0153911	-0.322945	0.912913	0.489955	0.493904	0	0
0.392641	-0.17006	-0.102009	1.4735	0.109824	0.949119	1.80939	0.332627	-0.220999	0.0287457	1.16351	-0.157557	0	0	0.38397	0.192222	-0.182953	0.367709	0.113396	0	0	-0.0203614	-0.236174	0.112908	0.00805945	-0.3269	0.677931	0.7486	1.13044	0	0	0.0219939	-0.327741	0.875093	0.509962	0.532498	0	0
0.399296	-0.165664	-0.102378	1.47794	0.109452	0.950624	1.8019	0.352203	-0.215159	0.0304182	1.17336	-0.134505	0	0	0.370309	0.191269	-0.176715	0.359444	0.11747	0	0	-0.0232315	-0.231121	0.107923	0.00509607	-0.326319	0.681554	0.744274	1.12674	0	0	0.0288263	-0.332195	0.839193	0.529787	0.569534	0	0
0.405951	-0.160925	-0.102609	1.48255	0.109103	0.952115	1.79445	0.371035	-0.209021	0.0313781	1.18046	-0.111276	0	0	0.356353	0.189889	-0.170197	0.350821	0.121169	0	0	-0.0263183	-0.225722	0.102872	0.0021243	-0.325807	0.684981	0.740048	1.12309	0	0	0.0358963	-0.336313	0.805351	0.549371	0.604873	0	0
0.412606	-0.155894	-0.102705	1.48733	0.108776	0.953583	1.78704	0.389072	-0.202678	0.0315876	1.18473	-0.0883182	0	0	0.342132	0.188121	-0.163448	0.341882	0.124534	0	0	-0.0295929	-0.220025	0.0977426	-0.000860129	-0.325352	0.688206	0.73592	1.11949	0	0	0.0432036	-0.340114	0.773642	0.568677	0.638431	0	0
0.419261	-0.150622	-0.102667	1.49228	0.108471	0.955017	1.77965	0.406266	-0.196225	0.0310107	1.18616	-0.0660147	0	0	0.32767	0.186002	-0.156515	0.332665	0.127609	0	0	-0.0330289	-0.214082	0.0925181	-0.00385703	-0.32494	0.691232	0.731889	1.11594	0	0	0.0507397	-0.343622	0.744089	0.587677	0.670174	0	0
0.425915	-0.145165	-0.102498	1.49741	0.108185	0.956409	1.77229	0.422579	-0.189756	0.0296123	1.18473	-0.0446776	0	0	0.312992	0.183577	-0.149445	0.323203	0.130435	0	0	-0.0366016	-0.207943	0.0871785	-0.00686164	-0.324562	0.694065	0.727951	1.11245	0	0	0.0584884	-0.346867	0.716665	0.60636	0.700113	0	0
0.43257	-0.139579	-0.102198	1.50272	0.107916	0.957749	1.76494	0.437976	-0.183365	0.0273585	1.18044	-0.0245502	0	0	0.298119	0.180892	-0.142282	0.313531	0.133054	0	0	-0.0402887	-0.201663	0.0817006	-0.00986463	-0.324204	0.696725	0.724101	1.109	0	0	0.0664261	-0.349885	0.691305	0.624722	0.728288	0	0
0.439225	-0.133917	-0.101769	1.50819	0.107665	0.959028	1.7576	0.45243	-0.177142	0.0242159	1.1733	-0.00581067	0	0	0.283071	0.177993	-0.135064	0.303679	0.135508	0	0	-0.0440695	-0.195295	0.0760594	-0.0128523	-0.323856	0.699234	0.720331	1.10558	0	0	0.0745225	-0.352711	0.667912	0.642769	0.754773	0	0
0.44588	-0.128236	-0.101211	1.51383	0.10743	0.960237	1.75028	0.465918	-0.17117	0.0201526	1.16336	0.0114214	0	0	0.267869	0.174926	-0.127827	0.293685	0.13784	0	0	-0.0479251	-0.188892	0.0702286	-0.0158071	-0.323506	0.701626	0.716631	1.1022	0	0	0.0827416	-0.355384	0.646362	0.660509	0.779661	0	0
0.452535	-0.122586	-0.100525	1.51963	0.10721	0.961368	1.74295	0.478422	-0.165524	0.0151385	1.15065	0.0270776	0	0	0.252535	0.171738	-0.120601	0.283587	0.140093	0	0	-0.0518378	-0.182504	0.0641826	-0.0187087	-0.323145	0.703938	0.71299	1.09884	0	0	0.0910443	-0.357943	0.62652	0.677957	0.803057	0	0
0.45919	-0.117017	-0.0997149	1.52557	0.107006	0.962413	1.73562	0.489933	-0.160271	0.00914629	1.13524	0.0411317	0	0	0.237095	0.168473	-0.113414	0.273429	0.14231	0	0	-0.0557911	-0.176181	0.0578986	-0.0215357	-0.322763	0.70621	0.709397	1.09549	0	0	0.09939	-0.360423	0.608241	0.695126	0.825071	0	0
0.465845	-0.111576	-0.098783	1.53165	0.106817	0.963365	1.72829	0.500444	-0.155464	0.00215266	1.1172	0.0535913	0	0	0.221574	0.165169	-0.106288	0.263261	0.144539	0	0	-0.0597692	-0.169969	0.0513589	-0.024267	-0.322352	0.708482	0.705838	1.09215	0	0	0.107739	-0.362861	0.59138	0.712027	0.845812	0	0
0.4725	-0.106303	-0.0977339	1.53785	0.106645	0.964216	1.72095	0.509955	-0.151145	-0.00585994	1.0966	0.0644886	0	0	0.206003	0.161862	-0.09924	0.25314	0.146823	0	0	-0.0637576	-0.163908	0.0445533	-0.026884	-0.321905	0.71079	0.702303	1.0888	0	0	0.116056	-0.365287	0.5758	0.72867	0.865389	0	0
0.479155	-0.101233	-0.0965736	1.54415	0.10649	0.96496	1.71359	0.518471	-0.14734	-0.0149015	1.07353	0.0738736	0	0	0.190417	0.158584	-0.0922874	0.243129	0.149211	0	0	-0.0677426	-0.158036	0.0374834	-0.0293739	-0.321414	0.713161	0.698783	1.08544	0	0	0.124312	-0.367728	0.561373	0.745059	0.883902	0	0
0.48581	-0.0963977	-0.0953093	1.55052	0.106354	0.965592	1.70622	0.526005	-0.14406	-0.0249725	1.04811	0.0818067	0	0	0.174854	0.155359	-0.0854432	0.233298	0.15175	0	0	-0.0717119	-0.152389	0.0301665	-0.0317332	-0.320877	0.715608	0.695272	1.08207	0	0	0.132488	-0.370206	0.547992	0.76119	0.901447	0	0
0.492465	-0.0918196	-0.0939498	1.55695	0.106237	0.966106	1.69883	0.532574	-0.141303	-0.0360609	1.02043	0.0883543	0	0	0.159354	0.152204	-0.0787197	0.22372	0.154486	0	0	-0.0756547	-0.146995	0.0226361	-0.0339675	-0.320291	0.718123	0.69177	1.07867	0	0	0.140577	-0.372734	0.535573	0.777055	0.91811	0	0
0.49912	-0.0875165	-0.0925056	1.56339	0.106143	0.966499	1.69142	0.538202	-0.139047	-0.0481402	0.990629	0.0935846	0	0	0.143961	0.149134	-0.072129	0.214475	0.157464	0	0	-0.0795601	-0.141879	0.014937	-0.0360887	-0.319652	0.720693	0.688278	1.07525	0	0	0.148581	-0.375323	0.524045	0.792635	0.933966	0	0
0.505775	-0.0835004	-0.0909886	1.56983	0.106072	0.966767	1.68399	0.542918	-0.137259	-0.0611659	0.958833	0.0975661	0	0	0.128722	0.146156	-0.0656832	0.205642	0.160727	0	0	-0.0834169	-0.137062	0.00712197	-0.0381117	-0.31896	0.723296	0.684796	1.07182	0	0	0.156503	-0.377975	0.513353	0.807911	0.949081	0	0
0.51243	-0.0797777	-0.0894124	1.57623	0.106028	0.966907	1.67654	0.546759	-0.135891	-0.0750729	0.92519	0.100366	0	0	0.113683	0.143271	-0.0593956	0.197302	0.16431	0	0	-0.0872129	-0.132559	-0.000751578	-0.0400519	-0.318213	0.725912	0.681326	1.06838	0	0	0.16435	-0.380692	0.503451	0.822856	0.963509	0	0
0.519085	-0.0763495	-0.0877919	1.58254	0.106014	0.966919	1.66906	0.549768	-0.134883	-0.0897735	0.889855	0.102049	0	0	0.098893	0.140477	-0.0532811	0.189532	0.168248	0	0	-0.0909347	-0.12838	-0.00862413	-0.0419235	-0.31741	0.728523	0.677863	1.06493	0	0	0.172127	-0.383471	0.4943	0.837441	0.977297	0	0
0.525739	-0.0732126	-0.0861431	1.58875	0.106034	0.966802	1.66154	0.551991	-0.134163	-0.105154	0.852998	0.102683	0	0	0.0843969	0.137768	-0.0473565	0.182405	0.172563	0	0	-0.0945673	-0.124531	-0.016436	-0.0437387	-0.31655	0.731117	0.674402	1.06148	0	0	0.179837	-0.386307	0.485864	0.851636	0.990481	0	0
0.532394	-0.0703589	-0.0844824	1.5948	0.106092	0.966557	1.654	0.553483	-0.133652	-0.121076	0.814799	0.102334	0	0	0.0702384	0.135133	-0.0416405	0.175988	0.177274	0	0	-0.0980943	-0.121011	-0.0241288	-0.0455069	-0.315631	0.733688	0.670935	1.05802	0	0	0.187479	-0.38919	0.478108	0.865409	1.00309	0	0
0.539049	-0.0677766	-0.0828268	1.60067	0.106191	0.966185	1.64643	0.554298	-0.133265	-0.13737	0.775452	0.101072	0	0	0.0564566	0.13256	-0.0361541	0.170337	0.182387	0	0	-0.101498	-0.117817	-0.0316469	-0.0472345	-0.314652	0.736238	0.667449	1.05456	0	0	0.195047	-0.39211	0.471	0.878728	1.01515	0	0
0.545704	-0.0654504	-0.0811927	1.60631	0.106337	0.965689	1.63882	0.554498	-0.132911	-0.153844	0.735163	0.0989687	0	0	0.0430853	0.130033	-0.0309197	0.165499	0.187902	0	0	-0.104761	-0.114941	-0.038938	-0.0489252	-0.313613	0.738775	0.663931	1.05108	0	0	0.20253	-0.395055	0.464508	0.891562	1.02667	0	0
0.552359	-0.063362	-0.0795958	1.61169	0.106533	0.965073	1.63117	0.554145	-0.132501	-0.170277	0.69415	0.0961029	0	0	0.030151	0.127536	-0.0259608	0.161508	0.193807	0	0	-0.107863	-0.112371	-0.045954	-0.0505805	-0.312514	0.741314	0.660365	1.04759	0	0	0.209912	-0.398012	0.458596	0.903879	1.03767	0	0
0.559014	-0.0614901	-0.0780502	1.61678	0.106783	0.964342	1.62349	0.5533	-0.131948	-0.18643	0.652643	0.0925566	0	0	0.0176727	0.125052	-0.0213013	0.158385	0.200078	0	0	-0.110786	-0.110091	-0.0526518	-0.0522	-0.311354	0.743875	0.656733	1.04408	0	0	0.21717	-0.400965	0.45323	0.91565	1.04816	0	0
0.565669	-0.0598118	-0.076568	1.62155	0.107092	0.9635	1.61575	0.552027	-0.13117	-0.202044	0.610885	0.0884164	0	0	0.00566009	0.122562	-0.0169639	0.156139	0.206683	0	0	-0.113513	-0.108081	-0.0589933	-0.0537822	-0.310137	0.746482	0.65302	1.04053	0	0	0.224278	-0.403897	0.448373	0.926848	1.05814	0	0
0.572324	-0.058302	-0.0751586	1.62597	0.107462	0.962555	1.60797	0.550387	-0.130094	-0.216854	0.569132	0.0837717	0	0	-0.00588612	0.120047	-0.0129698	0.154764	0.213577	0	0	-0.116026	-0.106319	-0.0649461	-0.0553253	-0.308865	0.749161	0.649209	1.03695	0	0	0.231204	-0.40679	0.443987	0.937448	1.06762	0	0
0.578979	-0.0569342	-0.0738284	1.63001	0.107897	0.961515	1.60014	0.548438	-0.128658	-0.230594	0.52765	0.0787134	0	0	-0.0169748	0.117489	-0.00933699	0.154245	0.220708	0	0	-0.118311	-0.104778	-0.0704837	-0.0568276	-0.307543	0.751939	0.645286	1.03331	0	0	0.23791	-0.409625	0.440032	0.947427	1.0766	0	0
0.585634	-0.0556809	-0.0725801	1.63367	0.108398	0.960386	1.59224	0.546233	-0.126815	-0.243011	0.486715	0.073331	0	0	-0.0276238	0.114869	-0.00607912	0.154556	0.22801	0	0	-0.120355	-0.10343	-0.0755855	-0.0582883	-0.306176	0.754842	0.641238	1.0296	0	0	0.244356	-0.412382	0.436468	0.956764	1.08509	0	0
0.592289	-0.0545134	-0.0714125	1.63692	0.108965	0.959179	1.58428	0.543825	-0.124533	-0.253877	0.446614	0.06771	0	0	-0.0378591	0.112167	-0.00320477	0.155661	0.235412	0	0	-0.12215	-0.102241	-0.0802372	-0.0597079	-0.304775	0.757895	0.637058	1.02583	0	0	0.2505	-0.415038	0.433255	0.965442	1.0931	0	0
0.598944	-0.0534026	-0.0703207	1.63976	0.109599	0.957902	1.57626	0.541258	-0.121796	-0.262999	0.407643	0.0619293	0	0	-0.0477136	0.109365	-0.000716571	0.157521	0.242832	0	0	-0.123689	-0.101178	-0.0844305	-0.0610881	-0.303349	0.761123	0.632738	1.02198	0	0	0.256296	-0.417571	0.430351	0.973445	1.10062	0	0
0.605599	-0.0523182	-0.0692959	1.6422	0.1103	0.956566	1.56815	0.538575	-0.118609	-0.270237	0.370102	0.0560581	0	0	-0.0572248	0.106441	0.00138881	0.160095	0.250183	0	0	-0.12497	-0.100201	-0.0881629	-0.0624323	-0.30191	0.764544	0.628278	1.01805	0	0	0.261697	-0.419957	0.427718	0.980762	1.10768	0	0
0.612254	-0.051229	-0.0683263	1.64424	0.111064	0.955181	1.55997	0.535813	-0.114987	-0.27551	0.334295	0.0501539	0	0	-0.0664323	0.103374	0.00312048	0.163343	0.257367	0	0	-0.125994	-0.0992704	-0.0914373	-0.0637452	-0.300474	0.768176	0.62368	1.01403	0	0	0.266658	-0.42217	0.425315	0.987381	1.11428	0	0
0.618908	-0.0501028	-0.0673973	1.64588	0.11189	0.953758	1.5517	0.53301	-0.110963	-0.278807	0.300527	0.0442608	0	0	-0.0753749	0.100141	0.00449271	0.16723	0.264283	0	0	-0.126765	-0.0983422	-0.0942614	-0.0650324	-0.299056	0.772034	0.61895	1.0099	0	0	0.271133	-0.424187	0.423104	0.993294	1.12043	0	0
0.625563	-0.0489063	-0.0664929	1.64715	0.112774	0.952309	1.54333	0.530199	-0.106579	-0.280188	0.269096	0.0384087	0	0	-0.0840877	0.0967154	0.00552399	0.171731	0.270823	0	0	-0.12729	-0.0973705	-0.0966466	-0.0663006	-0.297673	0.776127	0.614096	1.00566	0	0	0.275078	-0.42598	0.421052	0.998493	1.12617	0	0
0.632218	-0.0476052	-0.065596	1.64808	0.113711	0.950843	1.53486	0.527416	-0.101885	-0.279787	0.24029	0.0326133	0	0	-0.0925987	0.0930695	0.00623598	0.176831	0.276873	0	0	-0.127576	-0.096308	-0.0986072	-0.0675578	-0.296345	0.780463	0.609132	1.0013	0	0	0.278455	-0.427525	0.419128	1.00297	1.1315	0	0
0.638873	-0.0461644	-0.0646906	1.64867	0.114699	0.949373	1.5263	0.524697	-0.096932	-0.277798	0.214377	0.0268777	0	0	-0.100925	0.089173	0.0066519	0.182533	0.282313	0	0	-0.127634	-0.0951057	-0.100159	-0.0688121	-0.295089	0.785043	0.604073	0.996799	0	0	0.281231	-0.428796	0.417305	1.00673	1.13645	0	0
0.645528	-0.0445479	-0.0637632	1.64896	0.115731	0.947909	1.51762	0.522083	-0.0917715	-0.274469	0.191602	0.021195	0	0	-0.10907	0.0849939	0.00679533	0.188855	0.287018	0	0	-0.127472	-0.093715	-0.101316	-0.0700732	-0.293926	0.789864	0.598939	0.992152	0	0	0.283378	-0.429769	0.415566	1.00976	1.14104	0	0
0.652183	-0.0427198	-0.0628043	1.64899	0.116803	0.946461	1.50884	0.519613	-0.0864494	-0.270085	0.172173	0.0155514	0	0	-0.11702	0.0804982	0.00668931	0.195833	0.290853	0	0	-0.127098	-0.0920879	-0.102096	-0.0713515	-0.292872	0.794912	0.593752	0.987346	0	0	0.284876	-0.43042	0.4139	1.01206	1.14529	0	0
0.658838	-0.0406442	-0.0618094	1.64877	0.117911	0.945038	1.49995	0.517333	-0.0810036	-0.264949	0.156256	0.0099292	0	0	-0.124742	0.0756513	0.00635577	0.203525	0.29368	0	0	-0.126518	-0.0901778	-0.102512	-0.0726576	-0.291944	0.800169	0.588538	0.982378	0	0	0.285715	-0.430731	0.412303	1.01363	1.14922	0	0
0.665493	-0.0382861	-0.0607787	1.64836	0.11905	0.943649	1.49095	0.515282	-0.0754622	-0.259362	0.143964	0.00431078	0	0	-0.132185	0.0704183	0.00581516	0.212005	0.295351	0	0	-0.125733	-0.0879407	-0.102582	-0.0740013	-0.291157	0.805606	0.583323	0.977247	0	0	0.28589	-0.430683	0.41078	1.01446	1.15283	0	0
0.672148	-0.0356124	-0.0597176	1.64776	0.120217	0.942301	1.48185	0.513499	-0.0698423	-0.253609	0.135349	-0.00131761	0	0	-0.13928	0.064765	0.00508666	0.221363	0.295712	0	0	-0.124746	-0.0853357	-0.102322	-0.0753911	-0.290524	0.811192	0.578137	0.971963	0	0	0.285401	-0.430265	0.409339	1.01456	1.15614	0	0
0.678803	-0.0325931	-0.0586372	1.64703	0.121408	0.941003	1.47264	0.512016	-0.064151	-0.24794	0.130404	-0.00695982	0	0	-0.145941	0.0586608	0.00418899	0.231704	0.294606	0	0	-0.123554	-0.0823271	-0.10175	-0.0768338	-0.290057	0.816888	0.573009	0.966538	0	0	0.284257	-0.429467	0.407996	1.01392	1.15915	0	0
0.685458	-0.029203	-0.0575535	1.6462	0.122619	0.939759	1.46334	0.510856	-0.0583868	-0.242565	0.129054	-0.0126048	0	0	-0.152065	0.0520794	0.00314136	0.24314	0.291866	0	0	-0.122154	-0.0788856	-0.100888	-0.0783348	-0.289762	0.822646	0.567973	0.960998	0	0	0.282473	-0.428286	0.406772	1.01256	1.16185	0	0
0.692113	-0.0254217	-0.0564868	1.64529	0.123847	0.938576	1.45394	0.510033	-0.0525399	-0.237644	0.131162	-0.0182227	0	0	-0.157539	0.0450007	0.00196432	0.255786	0.287327	0	0	-0.120539	-0.0749888	-0.0997566	-0.079897	-0.289648	0.828417	0.563061	0.955375	0	0	0.280069	-0.426723	0.405691	1.01047	1.16423	0	0
0.698768	-0.0212351	-0.0554606	1.64434	0.12509	0.937459	1.44447	0.50955	-0.0465942	-0.23328	0.136525	-0.023761	0	0	-0.162243	0.0374121	0.000680682	0.26976	0.280825	0	0	-0.118705	-0.0706224	-0.0983776	-0.0815208	-0.289718	0.834145	0.558308	0.949707	0	0	0.277071	-0.424782	0.404783	1.00766	1.16628	0	0
0.705423	-0.0166358	-0.0545005	1.64338	0.126345	0.93641	1.43493	0.509396	-0.0405284	-0.229527	0.144887	-0.029142	0	0	-0.16605	0.0293094	-0.000683593	0.285169	0.272204	0	0	-0.116647	-0.0657802	-0.0967738	-0.0832035	-0.289973	0.839772	0.553748	0.944041	0	0	0.273511	-0.422474	0.404083	1.00413	1.16799	0	0
0.712077	-0.0116234	-0.0536332	1.64243	0.12761	0.935435	1.42532	0.509549	-0.0343181	-0.226389	0.155943	-0.0342622	0	0	-0.168833	0.0206981	-0.00209865	0.30211	0.261319	0	0	-0.114361	-0.0604652	-0.0949679	-0.0849392	-0.290414	0.845239	0.549413	0.938426	0	0	0.269426	-0.419813	0.403627	0.99989	1.16932	0	0
0.718732	-0.00620531	-0.0528854	1.64151	0.128883	0.934535	1.41567	0.509973	-0.0279381	-0.223836	0.16935	-0.0389941	0	0	-0.170473	0.0115943	-0.0035303	0.320662	0.24805	0	0	-0.111847	-0.0546895	-0.0929815	-0.0867185	-0.291038	0.850486	0.545336	0.932916	0	0	0.264857	-0.416816	0.403457	0.994951	1.17025	0	0
0.725387	-0.000395512	-0.0522827	1.64065	0.130163	0.933715	1.40598	0.510626	-0.0213634	-0.221806	0.184739	-0.0431917	0	0	-0.170852	0.002024	-0.00494049	0.340885	0.232305	0	0	-0.109105	-0.0484734	-0.0908352	-0.0885279	-0.291841	0.855458	0.541546	0.927562	0	0	0.259849	-0.413505	0.403617	0.989317	1.17076	0	0
0.732042	0.00578377	-0.0518488	1.63986	0.131447	0.932976	1.39627	0.511452	-0.0145726	-0.220227	0.201726	-0.0466964	0	0	-0.169867	-0.00797503	-0.00628707	0.362813	0.214036	0	0	-0.106141	-0.0418466	-0.0885474	-0.0903504	-0.292816	0.860104	0.538069	0.922416	0	0	0.254452	-0.409904	0.404154	0.982994	1.17081	0	0
0.738697	0.0123017	-0.0516042	1.63915	0.132736	0.932322	1.38654	0.512392	-0.0075509	-0.219014	0.219921	-0.0493459	0	0	-0.167429	-0.0183522	-0.00752415	0.386449	0.193243	0	0	-0.102966	-0.0348487	-0.086135	-0.0921656	-0.293956	0.864377	0.534931	0.917524	0	0	0.24872	-0.406039	0.405121	0.975988	1.17035	0	0
0.745352	0.0191187	-0.0515655	1.63853	0.134027	0.931755	1.37682	0.51338	-0.000292435	-0.218091	0.238943	-0.0509846	0	0	-0.163466	-0.0290441	-0.00860323	0.41177	0.169991	0	0	-0.0995919	-0.0275289	-0.0836121	-0.0939504	-0.29525	0.868235	0.532151	0.912931	0	0	0.242707	-0.40194	0.40657	0.968304	1.16935	0	0
0.752007	0.0261861	-0.0517445	1.638	0.135319	0.931277	1.36712	0.514342	0.0071977	-0.217386	0.25842	-0.051474	0	0	-0.157926	-0.039974	-0.00947448	0.43872	0.144416	0	0	-0.0960399	-0.0199462	-0.0809908	-0.0956797	-0.296689	0.87164	0.529747	0.908682	0	0	0.23647	-0.397636	0.408559	0.959949	1.16776	0	0
0.758662	0.0334466	-0.0521473	1.63755	0.136611	0.930892	1.35745	0.515202	0.0149019	-0.216843	0.278005	-0.0507032	0	0	-0.15078	-0.0510528	-0.0100887	0.467212	0.116735	0	0	-0.0923345	-0.0121688	-0.0782803	-0.0973269	-0.298259	0.874557	0.527736	0.904819	0	0	0.230066	-0.393161	0.411149	0.950929	1.16553	0	0
0.765317	0.0408346	-0.0527742	1.63717	0.137902	0.930602	1.34781	0.515883	0.0227895	-0.21642	0.297376	-0.0485973	0	0	-0.14202	-0.0621798	-0.0103999	0.497129	0.0872481	0	0	-0.0885065	-0.00427304	-0.0754874	-0.0988649	-0.299948	0.876956	0.526129	0.901383	0	0	0.223554	-0.388546	0.414401	0.941249	1.16258	0	0
0.771972	0.0482775	-0.0536193	1.63687	0.139189	0.930409	1.33823	0.516304	0.0308169	-0.216088	0.316239	-0.0451228	0	0	-0.131661	-0.073245	-0.0103675	0.528331	0.0563419	0	0	-0.0845912	0.00365741	-0.0726163	-0.100266	-0.301743	0.878809	0.524938	0.898417	0	0	0.21699	-0.383825	0.418381	0.930917	1.15887	0	0
0.778627	0.0556969	-0.0546711	1.63662	0.140472	0.930317	1.32872	0.516383	0.0389286	-0.215831	0.334337	-0.0402907	0	0	-0.119739	-0.0841307	-0.00995963	0.560653	0.0244855	0	0	-0.0806288	0.0115335	-0.0696691	-0.101504	-0.303628	0.880092	0.524169	0.895961	0	0	0.210431	-0.37903	0.423153	0.919941	1.15431	0	0
0.785282	0.06301	-0.0559131	1.6364	0.141748	0.930328	1.31927	0.516041	0.047059	-0.215643	0.351443	-0.0341564	0	0	-0.106312	-0.0947151	-0.00915562	0.593911	-0.00777931	0	0	-0.0766622	0.0192623	-0.0666458	-0.102553	-0.30559	0.880786	0.523829	0.894053	0	0	0.203928	-0.374193	0.428785	0.908329	1.14884	0	0
0.791937	0.0701316	-0.0573248	1.6362	0.143014	0.930444	1.30991	0.515205	0.0551343	-0.21552	0.36737	-0.0268161	0	0	-0.0914513	-0.104875	-0.00794799	0.627906	-0.0398528	0	0	-0.0727361	0.0267491	-0.0635449	-0.103388	-0.307614	0.880875	0.523921	0.892731	0	0	0.197534	-0.369345	0.435342	0.896094	1.14239	0	0
0.798592	0.076976	-0.0588835	1.636	0.14427	0.930667	1.30063	0.513805	0.063075	-0.215464	0.381963	-0.0184014	0	0	-0.0752457	-0.114489	-0.0063443	0.662426	-0.0710976	0	0	-0.0688951	0.0338995	-0.0603637	-0.103985	-0.309688	0.880349	0.524445	0.892028	0	0	0.191292	-0.364514	0.442888	0.883249	1.13487	0	0
0.805246	0.0834601	-0.0605661	1.63576	0.145513	0.930998	1.29145	0.511785	0.0707995	-0.215473	0.395103	-0.0090707	0	0	-0.0577921	-0.123442	-0.00436797	0.697256	-0.10087	0	0	-0.0651805	0.0406225	-0.0570993	-0.104325	-0.311797	0.879203	0.525402	0.891976	0	0	0.185243	-0.359727	0.451484	0.86981	1.12623	0	0
0.811901	0.089504	-0.06235	1.63548	0.14674	0.931437	1.28236	0.509096	0.0782259	-0.215544	0.406706	0.000997979	0	0	-0.0391963	-0.131628	-0.0020587	0.732171	-0.128542	0	0	-0.0616301	0.0468312	-0.0537481	-0.104386	-0.313929	0.877438	0.526788	0.892596	0	0	0.179423	-0.355009	0.461186	0.855799	1.11638	0	0
0.818556	0.095034	-0.0642139	1.63512	0.14795	0.931984	1.27338	0.505706	0.0852753	-0.215666	0.416719	0.0116173	0	0	-0.0195696	-0.138954	0.000528559	0.766946	-0.153537	0	0	-0.058276	0.0524463	-0.0503073	-0.104153	-0.316074	0.875063	0.5286	0.893908	0	0	0.173859	-0.350381	0.472045	0.841239	1.10527	0	0
0.825211	0.099983	-0.066138	1.63467	0.14914	0.932637	1.2645	0.501591	0.0918737	-0.215823	0.42512	0.0225971	0	0	0.000971683	-0.145339	0.00332469	0.801352	-0.175353	0	0	-0.0551455	0.0573957	-0.0467751	-0.103609	-0.318222	0.872094	0.530831	0.895919	0	0	0.16857	-0.345861	0.484098	0.826161	1.09284	0	0
0.831866	0.104292	-0.0681036	1.63409	0.150311	0.933393	1.25573	0.496743	0.0979533	-0.215994	0.431911	0.0337517	0	0	0.0223062	-0.150717	0.00624839	0.835159	-0.193582	0	0	-0.0522611	0.0616166	-0.0431513	-0.10274	-0.320365	0.868559	0.533475	0.898629	0	0	0.163567	-0.341465	0.497367	0.810602	1.07906	0	0
0.838521	0.10791	-0.0700928	1.63336	0.151459	0.93425	1.24706	0.491161	0.103455	-0.216148	0.437119	0.0449064	0	0	0.0443086	-0.15504	0.00920875	0.868136	-0.207932	0	0	-0.0496408	0.0650559	-0.0394385	-0.101529	-0.322494	0.864498	0.536519	0.902025	0	0	0.158847	-0.337206	0.511853	0.794609	1.06392	0	0
0.845176	0.110796	-0.0720885	1.63247	0.152585	0.935201	1.2385	0.484855	0.108329	-0.21625	0.440794	0.0559026	0	0	0.0668506	-0.158276	0.0121083	0.900054	-0.218237	0	0	-0.0472982	0.067671	-0.0356422	-0.099961	-0.324604	0.859963	0.539952	0.906081	0	0	0.154397	-0.333093	0.527533	0.778238	1.04744	0	0
0.851831	0.112921	-0.0740741	1.63139	0.153689	0.936243	1.23005	0.477844	0.112537	-0.216259	0.442998	0.0666017	0	0	0.0898018	-0.160413	0.0148459	0.930687	-0.224463	0	0	-0.0452429	0.0694307	-0.0317717	-0.0980163	-0.326689	0.855022	0.543757	0.910756	0	0	0.150189	-0.329134	0.544355	0.761554	1.02967	0	0
0.858486	0.114265	-0.0760358	1.63009	0.154771	0.937369	1.2217	0.470154	0.116055	-0.216132	0.44381	0.0768903	0	0	0.113035	-0.161456	0.0173214	0.959814	-0.226704	0	0	-0.0434778	0.0703175	-0.0278392	-0.0956778	-0.328745	0.849754	0.547915	0.915996	0	0	0.146186	-0.325333	0.562246	0.74463	1.01069	0	0
0.865141	0.114826	-0.0779615	1.62856	0.155832	0.938572	1.21344	0.461821	0.11887	-0.215826	0.443314	0.0866804	0	0	0.136425	-0.161433	0.0194384	0.987226	-0.225172	0	0	-0.0419994	0.0703284	-0.0238575	-0.0929306	-0.330769	0.844243	0.552409	0.921737	0	0	0.142348	-0.321692	0.581121	0.727538	0.990593	0	0
0.871796	0.114611	-0.0798407	1.62678	0.156873	0.939843	1.20528	0.452883	0.120985	-0.215297	0.441605	0.0959089	0	0	0.159854	-0.160389	0.0211065	1.01272	-0.220173	0	0	-0.0407992	0.0694735	-0.0198402	-0.0897629	-0.33276	0.83857	0.557219	0.927917	0	0	0.138627	-0.31821	0.600889	0.710355	0.969462	0	0
0.878451	0.113638	-0.0816637	1.62474	0.157896	0.941175	1.19721	0.443383	0.122413	-0.214502	0.438777	0.104536	0	0	0.183206	-0.158383	0.0222436	1.03613	-0.212092	0	0	-0.0398651	0.0677744	-0.0158009	-0.0861664	-0.334716	0.832816	0.562328	0.93447	0	0	0.134973	-0.314888	0.621445	0.69316	0.947393	0	0
0.885106	0.111933	-0.0834213	1.62242	0.158903	0.942557	1.18923	0.433365	0.123175	-0.213404	0.43493	0.112543	0	0	0.206371	-0.155488	0.0227777	1.05727	-0.201364	0	0	-0.0391819	0.065263	-0.0117525	-0.0821357	-0.336638	0.82706	0.567717	0.941329	0	0	0.131336	-0.31172	0.642678	0.67603	0.924487	0	0
0.891761	0.109534	-0.0851044	1.61981	0.159896	0.943981	1.18132	0.422873	0.123303	-0.211969	0.43016	0.119929	0	0	0.229247	-0.151786	0.0226477	1.07599	-0.188456	0	0	-0.0387326	0.0619799	-0.00770847	-0.0776674	-0.338525	0.821379	0.573368	0.94843	0	0	0.127661	-0.308704	0.664461	0.659042	0.900853	0	0
0.898415	0.10648	-0.086704	1.61691	0.160878	0.945437	1.17348	0.41195	0.122834	-0.210168	0.424561	0.126709	0	0	0.251737	-0.147371	0.0218045	1.09219	-0.173839	0	0	-0.0384987	0.0579736	-0.00368251	-0.0727602	-0.340379	0.815847	0.579258	0.955707	0	0	0.123894	-0.305832	0.686661	0.642275	0.876605	0	0
0.90507	0.102822	-0.0882106	1.61371	0.161849	0.946913	1.16571	0.400635	0.12181	-0.207979	0.418225	0.132909	0	0	0.273751	-0.142339	0.020211	1.10574	-0.157977	0	0	-0.0384607	0.0532992	0.000311404	-0.0674143	-0.342199	0.810535	0.585369	0.963098	0	0	0.119983	-0.3031	0.709137	0.625801	0.85186	0	0
0.911725	0.098612	-0.089615	1.61021	0.162813	0.948401	1.15799	0.388967	0.120279	-0.205385	0.411237	0.138566	0	0	0.295206	-0.136793	0.0178423	1.11656	-0.141303	0	0	-0.0385991	0.0480178	0.00425912	-0.0616314	-0.343987	0.805513	0.591676	0.970544	0	0	0.115874	-0.300501	0.731739	0.609691	0.826741	0	0
0.91838	0.0939075	-0.0909075	1.6064	0.163772	0.949889	1.15033	0.37698	0.118292	-0.202377	0.403679	0.143722	0	0	0.316029	-0.130838	0.0146853	1.12459	-0.124217	0	0	-0.0388942	0.0421952	0.00814677	-0.0554151	-0.345744	0.800844	0.598156	0.977986	0	0	0.111518	-0.298027	0.754317	0.594012	0.801368	0	0
0.925035	0.0887699	-0.0920785	1.6023	0.164726	0.951366	1.14271	0.364704	0.115904	-0.198952	0.395626	0.148424	0	0	0.336151	-0.124578	0.0107384	1.1298	-0.107071	0	0	-0.0393271	0.0359012	0.0119616	-0.0487711	-0.347471	0.796588	0.604787	0.985371	0	0	0.106869	-0.295672	0.776715	0.578824	0.775868	0	0
0.93169	0.0832628	-0.0931186	1.5979	0.165678	0.952823	1.13513	0.352169	0.11317	-0.195112	0.387148	0.152724	0	0	0.355512	-0.118119	0.00601076	1.13215	-0.0901676	0	0	-0.0398802	0.0292086	0.015693	-0.0417087	-0.349171	0.792793	0.611545	0.992649	0	0	0.101889	-0.293428	0.798781	0.564182	0.750362	0	0
0.938345	0.0774519	-0.0940189	1.59323	0.166629	0.954249	1.12757	0.339397	0.110146	-0.190869	0.378313	0.156671	0	0	0.374057	-0.111562	0.000521347	1.13164	-0.0737609	0	0	-0.0405373	0.022192	0.0193338	-0.0342409	-0.350845	0.789501	0.618407	0.999774	0	0	0.0965418	-0.291287	0.820368	0.550133	0.724975	0	0
0.945	0.0714042	-0.0947709	1.58828	0.167578	0.955633	1.12004	0.326413	0.10689	-0.186235	0.369182	0.160319	0	0	0.39174	-0.105004	-0.00570189	1.12829	-0.058057	0	0	-0.0412842	0.0149271	0.0228811	-0.0263865	-0.352498	0.786739	0.625354	1.0067	0	0	0.0908036	-0.28924	0.841333	0.536717	0.699834	0	0
0.951655	0.0651867	-0.0953672	1.58308	0.168528	0.956966	1.11253	0.313237	0.103457	-0.18123	0.359815	0.163719	0	0	0.408518	-0.0985364	-0.0126231	1.12213	-0.0432178	0	0	-0.042109	0.00748954	0.0263387	-0.0181713	-0.354135	0.784519	0.632369	1.01341	0	0	0.0846577	-0.287279	0.861544	0.523964	0.675067	0	0
0.95831	0.0588667	-0.0958018	1.57765	0.169476	0.958238	1.10504	0.299889	0.099901	-0.17588	0.350273	0.166921	0	0	0.424358	-0.0922438	-0.0201994	1.11319	-0.0293661	0	0	-0.0430025	-4.57477e-05	0.0297192	-0.00963077	-0.355763	0.782832	0.639442	1.01985	0	0	0.0780997	-0.285391	0.880886	0.511897	0.650797	0	0
0.964965	0.0525102	-0.0960704	1.57199	0.170423	0.959438	1.09754	0.286388	0.0962738	-0.170211	0.340612	0.169976	0	0	0.439231	-0.0862025	-0.0283826	1.10155	-0.0165917	0	0	-0.0439581	-0.00760564	0.0330457	-0.000812343	-0.357392	0.781642	0.646569	1.02602	0	0	0.0711388	-0.283565	0.899269	0.500527	0.62714	0	0
0.97162	0.0461818	-0.0961708	1.56615	0.171367	0.960559	1.09005	0.272756	0.0926245	-0.164257	0.330891	0.172932	0	0	0.453114	-0.0804799	-0.0371195	1.08726	-0.00495647	0	0	-0.0449721	-0.0151194	0.0363544	0.00822199	-0.359035	0.780884	0.653756	1.03191	0	0	0.0638001	-0.281787	0.916632	0.489852	0.604201	0	0
0.978275	0.0399442	-0.0961039	1.56012	0.172305	0.96159	1.08256	0.259015	0.0889986	-0.158053	0.32117	0.175836	0	0	0.465993	-0.0751342	-0.0463537	1.07039	0.00549957	0	0	-0.0460434	-0.0225195	0.0396965	0.0173935	-0.360708	0.780455	0.661019	1.03752	0	0	0.056126	-0.280039	0.932952	0.479861	0.582069	0	0
0.98493	0.0338578	-0.0958735	1.55395	0.173234	0.962525	1.07506	0.245191	0.0854381	-0.151637	0.31151	0.178733	0	0	0.477861	-0.0702138	-0.0560265	1.05105	0.0147536	0	0	-0.0471738	-0.0297421	0.0431397	0.0266046	-0.362431	0.780214	0.668386	1.0429	0	0	0.0481777	-0.278304	0.948248	0.470527	0.560812	0	0
0.991585	0.0279799	-0.0954872	1.54766	0.174151	0.963354	1.06754	0.231312	0.0819811	-0.145049	0.301974	0.181667	0	0	0.488718	-0.0657577	-0.0660775	1.02934	0.0227955	0	0	-0.0483669	-0.0367275	0.0467689	0.035738	-0.36423	0.779977	0.675901	1.04807	0	0	0.0400358	-0.276559	0.962586	0.461811	0.540475	0	0
0.998239	0.0223646	-0.0949572	1.54127	0.17505	0.96407	1.06001	0.217413	0.0786619	-0.138332	0.292627	0.184678	0	0	0.498574	-0.0617949	-0.0764461	1.00534	0.0296252	0	0	-0.0496279	-0.0434206	0.0506861	0.0446566	-0.366134	0.77952	0.683619	1.05311	0	0	0.0318001	-0.274781	0.976084	0.453661	0.521075	0	0
1.00489	0.0170625	-0.0942991	1.53481	0.175926	0.964668	1.05246	0.203531	0.0755107	-0.131531	0.283535	0.187804	0	0	0.507448	-0.0583456	-0.0870723	0.979201	0.0352497	0	0	-0.0509634	-0.0497716	0.0550081	0.0532052	-0.368178	0.778578	0.691609	1.05811	0	0	0.0235869	-0.272945	0.988901	0.446014	0.502604	0	0
1.01155	0.0121197	-0.0935319	1.52831	0.176772	0.96514	1.04489	0.189706	0.072554	-0.124689	0.274765	0.191079	0	0	0.515366	-0.055421	-0.0978978	0.95103	0.0396822	0	0	-0.0523815	-0.0557361	0.0598629	0.0612152	-0.370398	0.776858	0.699952	1.06316	0	0	0.0155253	-0.271023	1.00124	0.438796	0.485034	0	0
1.0182	0.00757742	-0.0926764	1.52179	0.177584	0.965483	1.0373	0.17598	0.0698142	-0.11785	0.26638	0.194535	0	0	0.522361	-0.053024	-0.108867	0.920967	0.0429414	0	0	-0.0538907	-0.061276	0.0653834	0.0685116	-0.372835	0.774049	0.70873	1.06839	0	0	0.00775129	-0.268989	1.01333	0.431928	0.468314	0	0
1.02486	0.0034712	-0.0917545	1.51528	0.178353	0.965692	1.02967	0.162395	0.0673093	-0.111057	0.258442	0.198196	0	0	0.528472	-0.0511494	-0.119926	0.889156	0.0450514	0	0	-0.0554991	-0.0663596	0.0716973	0.0749233	-0.375527	0.769844	0.718027	1.07391	0	0	0.000400516	-0.266817	1.02541	0.425327	0.452375	0	0
1.03151	-0.000180127	-0.0907849	1.50882	0.179075	0.965765	1.02202	0.148987	0.0650446	-0.104347	0.251009	0.202083	0	0	0.533738	-0.0497762	-0.131032	0.855738	0.0460364	0	0	-0.0572009	-0.0709674	0.0788397	0.0803774	-0.378484	0.764125	0.727851	1.07981	0	0	-0.00645267	-0.264493	1.03767	0.418917	0.437107	0	0
1.03817	-0.00337234	-0.089784	1.50241	0.179748	0.965703	1.01434	0.135789	0.0630146	-0.0977536	0.244129	0.206209	0	0	0.538195	-0.0488697	-0.142147	0.820855	0.0459229	0	0	-0.0589798	-0.0750919	0.0867728	0.0848822	-0.381693	0.756934	0.738151	1.0861	0	0	-0.0127854	-0.26201	1.05021	0.41264	0.422386	0	0
1.04482	-0.0061134	-0.088766	1.49609	0.18037	0.965509	1.00664	0.122828	0.0612053	-0.0913059	0.237845	0.210583	0	0	0.541884	-0.0483852	-0.153238	0.784653	0.0447422	0	0	-0.0608135	-0.078736	0.095409	0.0885042	-0.385129	0.748428	0.748837	1.09274	0	0	-0.0186127	-0.259369	1.06308	0.40645	0.408094	0	0
1.05148	-0.00842103	-0.0877435	1.48987	0.18094	0.965187	0.998897	0.110127	0.0595966	-0.0850283	0.232188	0.215206	0	0	0.544847	-0.0482698	-0.164277	0.747276	0.0425323	0	0	-0.0626763	-0.0819114	0.10463	0.0913469	-0.388753	0.738832	0.759793	1.09965	0	0	-0.0239746	-0.256576	1.07627	0.40031	0.394119	0	0
1.05813	-0.0103205	-0.0867269	1.48378	0.181459	0.96474	0.991128	0.0977026	0.0581645	-0.0789408	0.227181	0.220075	0	0	0.547127	-0.0484663	-0.175237	0.708872	0.0393399	0	0	-0.0645421	-0.0846372	0.114302	0.0935337	-0.392525	0.728401	0.770898	1.10673	0	0	-0.0289259	-0.253643	1.08977	0.394195	0.380358	0	0
1.06479	-0.0118425	-0.0857252	1.47784	0.181928	0.964176	0.983329	0.0855654	0.0568832	-0.0730587	0.222833	0.22518	0	0	0.548772	-0.0489147	-0.186096	0.669588	0.035221	0	0	-0.0663862	-0.0869384	0.124289	0.0951937	-0.396403	0.717395	0.782031	1.11389	0	0	-0.0335275	-0.25058	1.10355	0.388082	0.366719	0	0
1.07144	-0.0130218	-0.0847456	1.47204	0.18235	0.963502	0.975501	0.07372	0.0557259	-0.067393	0.219144	0.230506	0	0	0.549832	-0.0495555	-0.196826	0.62957	0.0302412	0	0	-0.0681869	-0.0888448	0.134463	0.0964527	-0.400345	0.706059	0.793084	1.12102	0	0	-0.0378412	-0.247402	1.11756	0.381956	0.353122	0	0
1.0781	-0.0138952	-0.0837933	1.4664	0.182727	0.962727	0.967643	0.0621645	0.0546668	-0.0619496	0.216099	0.236033	0	0	0.550361	-0.050331	-0.207404	0.588963	0.024475	0	0	-0.069926	-0.0903897	0.144708	0.0974266	-0.404316	0.694608	0.80396	1.12804	0	0	-0.0419267	-0.244122	1.13177	0.375807	0.339503	0	0
1.08475	-0.014501	-0.082872	1.46093	0.183061	0.961859	0.959756	0.0508904	0.0536819	-0.0567296	0.213672	0.241739	0	0	0.550413	-0.051188	-0.217801	0.547905	0.0180045	0	0	-0.0715901	-0.0916094	0.154926	0.0982165	-0.408283	0.683224	0.814586	1.13489	0	0	-0.0458381	-0.240755	1.14613	0.369627	0.325811	0	0
1.09141	-0.0148771	-0.0819836	1.45562	0.183356	0.960908	0.95184	0.0398829	0.0527495	-0.0517291	0.211826	0.247598	0	0	0.550045	-0.0520794	-0.227993	0.506523	0.0109176	0	0	-0.0731704	-0.0925417	0.165039	0.0989063	-0.41222	0.672046	0.824908	1.14151	0	0	-0.0496235	-0.237315	1.16059	0.363416	0.312016	0	0
1.09806	-0.0150604	-0.0811281	1.45047	0.183616	0.959884	0.943898	0.0291217	0.0518511	-0.0469386	0.210512	0.253583	0	0	0.549316	-0.0529662	-0.237955	0.464936	0.00330572	0	0	-0.074663	-0.0932256	0.17499	0.0995618	-0.416109	0.66117	0.834896	1.14787	0	0	-0.0533236	-0.233816	1.17513	0.357174	0.298106	0	0
1.10472	-0.0150863	-0.0803043	1.44547	0.183845	0.958798	0.93593	0.0185809	0.0509715	-0.0423436	0.209674	0.259668	0	0	0.548283	-0.0538181	-0.247671	0.423245	-0.0047391	0	0	-0.076069	-0.0936998	0.184747	0.10023	-0.419937	0.650653	0.844542	1.15396	0	0	-0.0569716	-0.230272	1.18971	0.350906	0.28408	0	0
1.11137	-0.0149876	-0.0795091	1.4406	0.184047	0.957659	0.927939	0.00823071	0.0500994	-0.0379244	0.209245	0.265829	0	0	0.547002	-0.0546151	-0.25713	0.381531	-0.0131272	0	0	-0.0773936	-0.0940025	0.194296	0.100942	-0.423698	0.640509	0.853858	1.1598	0	0	-0.0605927	-0.226693	1.20429	0.344618	0.26995	0	0
1.11803	-0.0147939	-0.0787385	1.43585	0.184227	0.956478	0.919928	-0.00196175	0.0492266	-0.0336567	0.209156	0.272041	0	0	0.545527	-0.0553473	-0.266337	0.339856	-0.0217743	0	0	-0.078646	-0.0941701	0.203643	0.101711	-0.427392	0.630721	0.862875	1.1654	0	0	-0.0642046	-0.223091	1.21887	0.338316	0.255734	0	0
1.12468	-0.0145317	-0.0779878	1.43119	0.184389	0.955265	0.911901	-0.0120307	0.0483485	-0.0295125	0.209335	0.278286	0	0	0.543908	-0.0560146	-0.275308	0.298258	-0.0306046	0	0	-0.0798381	-0.0942366	0.212811	0.10254	-0.431026	0.621244	0.87164	1.1708	0	0	-0.0678186	-0.219474	1.23341	0.332007	0.241453	0	0
1.13134	-0.0142234	-0.0772517	1.42661	0.184539	0.954029	0.90386	-0.0220099	0.0474631	-0.0254619	0.209708	0.28455	0	0	0.542188	-0.0566251	-0.28408	0.256748	-0.0395536	0	0	-0.080984	-0.0942328	0.221834	0.103422	-0.434609	0.612015	0.880207	1.17604	0	0	-0.0714404	-0.21585	1.24793	0.325695	0.227129	0	0
1.13799	-0.0138875	-0.0765252	1.42207	0.18468	0.952778	0.89581	-0.031931	0.0465709	-0.0214746	0.210209	0.290821	0	0	0.540406	-0.0571925	-0.2927	0.21532	-0.0485702	0	0	-0.0820983	-0.094185	0.230754	0.104343	-0.438156	0.602958	0.888638	1.18119	0	0	-0.0750707	-0.212222	1.26242	0.319384	0.212781	0	0
1.14465	-0.0135377	-0.0758037	1.41756	0.184817	0.951519	0.887755	-0.0418209	0.0456739	-0.0175229	0.210779	0.297094	0	0	0.538591	-0.0577338	-0.301227	0.173949	-0.0576178	0	0	-0.0831949	-0.0941144	0.239613	0.105288	-0.441681	0.594002	0.896991	1.18627	0	0	-0.0787074	-0.208594	1.27689	0.313075	0.198421	0	0
1.1513	-0.0131834	-0.075084	1.41307	0.184951	0.950258	0.879697	-0.0516997	0.0447747	-0.0135843	0.211375	0.303366	0	0	0.536764	-0.0582648	-0.309716	0.132604	-0.0666746	0	0	-0.0842848	-0.094036	0.248449	0.106242	-0.445198	0.585082	0.905314	1.19133	0	0	-0.0823469	-0.204966	1.29135	0.306766	0.184058	0	0
