Coordinates
version=1
nRows=71
nColumns=38
inDegrees=no

Units are S.I. units (second, meters, Newtons, ...)
If the header above contains a line with 'inDegrees', this indicates whether rotational values are in degrees (yes) or radians (no).

endheader
time	pelvis_tilt	pelvis_list	pelvis_rotation	pelvis_tx	pelvis_ty	pelvis_tz	hip_flexion_r	hip_adduction_r	hip_rotation_r	knee_angle_r	ankle_angle_r	subtalar_angle_r	mtp_angle_r	hip_flexion_l	hip_adduction_l	hip_rotation_l	knee_angle_l	ankle_angle_l	subtalar_angle_l	mtp_angle_l	lumbar_extension	lumbar_bending	lumbar_rotation	arm_flex_r	arm_add_r	arm_rot_r	elbow_flex_r	pro_sup_r	wrist_flex_r	wrist_dev_r	arm_flex_l	arm_add_l	arm_rot_l	elbow_flex_l	pro_sup_l	wrist_flex_l	wrist_dev_l
2.43	-2.41215	0.175408	0.0587335	2.68251	-1.01142	0.0522428	-0.433575	-0.277808	-0.208944	1.08612	-0.0435786	0	0	-0.523502	0.182578	0.0530017	0.348152	0.0468337	0	0	-1.23625	-0.0619407	-0.186155	0	0	0	0	0	0	0	0	0	0	0	0	0	0
2.43999	-2.42252	0.183103	0.0613404	2.67333	-1.01118	0.0524266	-0.404967	-0.290243	-0.220797	1.05254	-0.0255243	0	0	-0.523561	0.188837	0.0604367	0.347479	0.0541467	0	0	-1.23192	-0.064265	-0.19549	0	0	0	0	0	0	0	0	0	0	0	0	0	0
2.44997	-2.43292	0.190884	0.0638155	2.66412	-1.01092	0.0526464	-0.376358	-0.302765	-0.232631	1.0188	-0.00770806	0	0	-0.52362	0.195211	0.0678642	0.346737	0.0614952	0	0	-1.22752	-0.0668183	-0.20486	0	0	0	0	0	0	0	0	0	0	0	0	0	0
2.45996	-2.4434	0.19889	0.0659304	2.65483	-1.01062	0.0529666	-0.347741	-0.315487	-0.244357	0.984718	0.00945171	0	0	-0.523683	0.201879	0.0752521	0.345845	0.068902	0	0	-1.22296	-0.0699902	-0.214302	0	0	0	0	0	0	0	0	0	0	0	0	0	0
2.46995	-2.45395	0.207276	0.0673994	2.64542	-1.01023	0.0534605	-0.319098	-0.328512	-0.255785	0.950174	0.0254566	0	0	-0.523748	0.209041	0.0824547	0.344773	0.0764114	0	0	-1.21817	-0.074235	-0.223837	0	0	0	0	0	0	0	0	0	0	0	0	0	0
2.47993	-2.46451	0.216145	0.067907	2.63583	-1.00974	0.0541938	-0.29042	-0.341864	-0.266607	0.915111	0.0398462	0	0	-0.523817	0.216849	0.0891281	0.343577	0.0841227	0	0	-1.21312	-0.0799756	-0.23345	0	0	0	0	0	0	0	0	0	0	0	0	0	0
2.48992	-2.47495	0.225525	0.0671232	2.62608	-1.00909	0.0552373	-0.261712	-0.355434	-0.276381	0.879518	0.0522705	0	0	-0.523889	0.225368	0.094745	0.342359	0.0921456	0	0	-1.20791	-0.0875889	-0.243076	0	0	0	0	0	0	0	0	0	0	0	0	0	0
2.49991	-2.48511	0.235372	0.0647061	2.61619	-1.00825	0.0566687	-0.23295	-0.368989	-0.284529	0.843444	0.0625363	0	0	-0.52396	0.234576	0.0986851	0.341206	0.10058	0	0	-1.20267	-0.0974151	-0.252594	0	0	0	0	0	0	0	0	0	0	0	0	0	0
2.50989	-2.49482	0.245569	0.0603084	2.60617	-1.0072	0.0585598	-0.2041	-0.38221	-0.290354	0.806982	0.0706217	0	0	-0.524025	0.24439	0.100273	0.340215	0.109524	0	0	-1.19757	-0.109746	-0.261815	0	0	0	0	0	0	0	0	0	0	0	0	0	0
2.51988	-2.50394	0.255955	0.0536	2.59604	-1.0059	0.060974	-0.175138	-0.39472	-0.293109	0.770262	0.0766725	0	0	-0.524072	0.254672	0.0987975	0.339514	0.119078	0	0	-1.19272	-0.124817	-0.270478	0	0	0	0	0	0	0	0	0	0	0	0	0	0
2.52987	-2.51234	0.266318	0.0443082	2.58583	-1.00435	0.0639597	-0.146059	-0.406111	-0.29206	0.73343	0.0809524	0	0	-0.524088	0.265225	0.0935541	0.339264	0.129331	0	0	-1.1882	-0.142774	-0.278273	0	0	0	0	0	0	0	0	0	0	0	0	0	0
2.53985	-2.51996	0.276397	0.0322683	2.57553	-1.00253	0.0675409	-0.116895	-0.415948	-0.286569	0.696615	0.0837738	0	0	-0.524054	0.275784	0.0839151	0.339647	0.140358	0	0	-1.18401	-0.163618	-0.284877	0	0	0	0	0	0	0	0	0	0	0	0	0	0
2.54984	-2.52682	0.285898	0.0175051	2.56513	-1.00044	0.0717214	-0.0877455	-0.423785	-0.276208	0.659907	0.0854721	0	0	-0.523947	0.285994	0.0694036	0.340887	0.152202	0	0	-1.18011	-0.187164	-0.28999	0	0	0	0	0	0	0	0	0	0	0	0	0	0
2.55983	-2.53304	0.294533	0.000337845	2.55462	-0.998112	0.0764887	-0.0588318	-0.429178	-0.260883	0.62335	0.086398	0	0	-0.523738	0.295391	0.0498065	0.34328	0.164871	0	0	-1.17642	-0.212992	-0.293383	0	0	0	0	0	0	0	0	0	0	0	0	0	0
2.56981	-2.53883	0.302055	-0.0185113	2.544	-0.995574	0.081811	-0.0305248	-0.43173	-0.240977	0.586937	0.086888	0	0	-0.523396	0.303402	0.0253572	0.347218	0.178325	0	0	-1.17284	-0.240393	-0.294967	0	0	0	0	0	0	0	0	0	0	0	0	0	0
2.5798	-2.5444	0.308288	-0.0378773	2.53325	-0.992891	0.0876185	-0.00355809	-0.431186	-0.217574	0.550652	0.0871776	0	0	-0.522888	0.309313	-0.00317758	0.353043	0.192491	0	0	-1.1693	-0.268296	-0.294884	0	0	0	0	0	0	0	0	0	0	0	0	0	0
2.58979	-2.5499	0.313136	-0.0566369	2.52234	-0.990131	0.0938056	0.0213892	-0.427532	-0.191912	0.514635	0.0873517	0	0	-0.522182	0.312577	-0.0347721	0.361001	0.207213	0	0	-1.16576	-0.295634	-0.29344	0	0	0	0	0	0	0	0	0	0	0	0	0	0
2.59977	-2.55544	0.31656	-0.0738999	2.51127	-0.987363	0.100222	0.0438463	-0.421004	-0.165209	0.479263	0.0873193	0	0	-0.521255	0.312947	-0.0682045	0.371215	0.222242	0	0	-1.16224	-0.321453	-0.290983	0	0	0	0	0	0	0	0	0	0	0	0	0	0
2.60976	-2.56104	0.318608	-0.0891514	2.50005	-0.984644	0.106667	0.0636629	-0.412114	-0.138557	0.44522	0.0868176	0	0	-0.520097	0.310617	-0.102045	0.383636	0.2372	0	0	-1.15883	-0.345006	-0.287823	0	0	0	0	0	0	0	0	0	0	0	0	0	0
2.61975	-2.56666	0.319524	-0.10225	2.48871	-0.982018	0.112902	0.0809479	-0.401672	-0.112597	0.41328	0.085664	0	0	-0.518722	0.306328	-0.134539	0.398033	0.251576	0	0	-1.1557	-0.365845	-0.284288	0	0	0	0	0	0	0	0	0	0	0	0	0	0
2.62973	-2.57219	0.319768	-0.113305	2.47734	-0.979514	0.118637	0.0960297	-0.390801	-0.0876728	0.384283	0.0837011	0	0	-0.517176	0.301362	-0.163474	0.414037	0.26476	0	0	-1.15315	-0.38371	-0.280798	0	0	0	0	0	0	0	0	0	0	0	0	0	0
2.63972	-2.57744	0.320034	-0.122629	2.46602	-0.977144	0.123523	0.109437	-0.38095	-0.0639417	0.359136	0.0807771	0	0	-0.515559	0.297572	-0.186016	0.431144	0.27606	0	0	-1.15164	-0.398476	-0.27791	0	0	0	0	0	0	0	0	0	0	0	0	0	0
2.64971	-2.58216	0.320389	-0.13038	2.45485	-0.974934	0.127321	0.121283	-0.372666	-0.0416316	0.33836	0.0766291	0	0	-0.514029	0.295712	-0.200496	0.449148	0.285126	0	0	-1.15159	-0.409798	-0.275746	0	0	0	0	0	0	0	0	0	0	0	0	0	0
2.65969	-2.58598	0.320191	-0.136464	2.4439	-0.972938	0.129914	0.13111	-0.365477	-0.0211491	0.321994	0.0708396	0	0	-0.512828	0.295262	-0.206368	0.468088	0.291907	0	0	-1.15344	-0.416992	-0.273884	0	0	0	0	0	0	0	0	0	0	0	0	0	0
2.66968	-2.58844	0.318014	-0.140454	2.4332	-0.971236	0.131321	0.137793	-0.357803	-0.00313283	0.309514	0.0628162	0	0	-0.512291	0.294259	-0.204205	0.488219	0.296615	0	0	-1.15756	-0.418964	-0.271284	0	0	0	0	0	0	0	0	0	0	0	0	0	0
2.67967	-2.589	0.312805	-0.142041	2.42281	-0.969898	0.131539	0.14035	-0.348466	0.011871	0.300383	0.0519689	0	0	-0.512862	0.291358	-0.193576	0.509518	0.299333	0	0	-1.16446	-0.414812	-0.267133	0	0	0	0	0	0	0	0	0	0	0	0	0	0
2.68966	-2.58744	0.303653	-0.140128	2.41279	-0.968986	0.130691	0.137787	-0.336223	0.0227473	0.293814	0.037692	0	0	-0.514119	0.284388	-0.17743	0.533614	0.299721	0	0	-1.17455	-0.403439	-0.260956	0	0	0	0	0	0	0	0	0	0	0	0	0	0
2.69964	-2.58355	0.289978	-0.133753	2.4032	-0.968555	0.128918	0.129268	-0.320147	0.0284496	0.289015	0.0195792	0	0	-0.515747	0.271669	-0.157917	0.561724	0.297329	0	0	-1.18807	-0.384037	-0.252351	0	0	0	0	0	0	0	0	0	0	0	0	0	0
2.70963	-2.57717	0.271811	-0.122145	2.39403	-0.968642	0.126414	0.114272	-0.299912	0.0280547	0.285334	-0.00240415	0	0	-0.517526	0.252217	-0.136447	0.594604	0.291551	0	0	-1.20507	-0.356346	-0.241235	0	0	0	0	0	0	0	0	0	0	0	0	0	0
2.71962	-2.56825	0.249969	-0.104794	2.38521	-0.969256	0.123466	0.0927447	-0.275959	0.020817	0.282382	-0.0277272	0	0	-0.519312	0.225874	-0.113805	0.632434	0.281604	0	0	-1.22528	-0.320889	-0.227931	0	0	0	0	0	0	0	0	0	0	0	0	0	0
2.7296	-2.55701	0.226264	-0.0815863	2.37653	-0.970368	0.120491	0.0653192	-0.249699	0.00628154	0.280215	-0.0550825	0	0	-0.521025	0.193525	-0.0902623	0.674641	0.266522	0	0	-1.24779	-0.279282	-0.213274	0	0	0	0	0	0	0	0	0	0	0	0	0	0
2.73959	-2.54403	0.203701	-0.0529908	2.36762	-0.971899	0.118088	0.0335741	-0.223707	-0.0155678	0.279557	-0.0822448	0	0	-0.522624	0.15732	-0.0657451	0.719706	0.245171	0	0	-1.27088	-0.234592	-0.198683	0	0	0	0	0	0	0	0	0	0	0	0	0	0
2.74958	-2.52985	0.184547	-0.020232	2.35822	-0.973806	0.116601	-0.000901446	-0.200104	-0.0438741	0.280983	-0.107317	0	0	-0.524097	0.119801	-0.0399268	0.765918	0.216494	0	0	-1.29303	-0.189675	-0.185821	0	0	0	0	0	0	0	0	0	0	0	0	0	0
2.75956	-2.51495	0.170086	0.0144872	2.34819	-0.976057	0.116149	-0.0366627	-0.18033	-0.0767346	0.284697	-0.128906	0	0	-0.525438	0.0837263	-0.0128341	0.811682	0.179875	0	0	-1.31329	-0.147133	-0.176039	0	0	0	0	0	0	0	0	0	0	0	0	0	0
2.76955	-2.49991	0.160632	0.0478688	2.33745	-0.978615	0.116668	-0.072055	-0.165132	-0.110955	0.290846	-0.146237	0	0	-0.526639	0.0520269	0.0147118	0.855327	0.135253	0	0	-1.33089	-0.109511	-0.169891	0	0	0	0	0	0	0	0	0	0	0	0	0	0
2.77954	-2.48525	0.155828	0.0770029	2.32596	-0.981443	0.118079	-0.105843	-0.154562	-0.143353	0.299213	-0.158917	0	0	-0.527672	0.0267141	0.0415151	0.895612	0.0832878	0	0	-1.34544	-0.0788238	-0.167197	0	0	0	0	0	0	0	0	0	0	0	0	0	0
2.78952	-2.47124	0.154764	0.0999341	2.31374	-0.984487	0.120258	-0.137321	-0.14803	-0.171452	0.309378	-0.166821	0	0	-0.52848	0.00859469	0.0663418	0.931912	0.0254839	0	0	-1.35703	-0.0560606	-0.167191	0	0	0	0	0	0	0	0	0	0	0	0	0	0
2.79951	-2.45789	0.155958	0.115851	2.30089	-0.987643	0.123006	-0.166266	-0.144256	-0.193767	0.320859	-0.170019	0	0	-0.528965	-0.00287462	0.0880273	0.964266	-0.0357582	0	0	-1.36609	-0.0409431	-0.168593	0	0	0	0	0	0	0	0	0	0	0	0	0	0
2.8095	-2.44486	0.157269	0.125169	2.28753	-0.990738	0.126023	-0.192878	-0.141143	-0.209949	0.333209	-0.168752	0	0	-0.528981	-0.00972421	0.105514	0.99343	-0.0970895	0	0	-1.37338	-0.0317455	-0.169633	0	0	0	0	0	0	0	0	0	0	0	0	0	0
2.81948	-2.43195	0.157209	0.128985	2.27385	-0.993669	0.129113	-0.217515	-0.137112	-0.220478	0.345972	-0.163556	0	0	-0.528326	-0.0139127	0.118494	1.01995	-0.155192	0	0	-1.37951	-0.0267301	-0.168811	0	0	0	0	0	0	0	0	0	0	0	0	0	0
2.82947	-2.4191	0.154924	0.128516	2.26	-0.996392	0.132143	-0.24058	-0.131227	-0.226171	0.358674	-0.1551	0	0	-0.526748	-0.0169133	0.127005	1.04427	-0.207041	0	0	-1.38491	-0.0244645	-0.165111	0	0	0	0	0	0	0	0	0	0	0	0	0	0
2.83946	-2.40641	0.150096	0.1249	2.24608	-0.9989	0.135029	-0.26242	-0.123122	-0.227905	0.370835	-0.14411	0	0	-0.523945	-0.019667	0.131383	1.06669	-0.250131	0	0	-1.38986	-0.0239053	-0.158024	0	0	0	0	0	0	0	0	0	0	0	0	0	0
2.84944	-2.39411	0.142816	0.119114	2.23219	-1.00121	0.137724	-0.283281	-0.112868	-0.226502	0.382011	-0.131295	0	0	-0.519587	-0.0226453	0.132171	1.08741	-0.282831	0	0	-1.39453	-0.0243604	-0.147475	0	0	0	0	0	0	0	0	0	0	0	0	0	0
2.85943	-2.38246	0.133454	0.111949	2.2184	-1.00336	0.140209	-0.303305	-0.100839	-0.222675	0.391821	-0.117304	0	0	-0.513337	-0.0259592	0.130057	1.10644	-0.304728	0	0	-1.39894	-0.025419	-0.133745	0	0	0	0	0	0	0	0	0	0	0	0	0	0
2.86942	-2.37188	0.122528	0.104051	2.20476	-1.00538	0.142482	-0.322466	-0.0875566	-0.217023	0.399986	-0.102686	0	0	-0.504901	-0.0295585	0.125693	1.12353	-0.316329	0	0	-1.40298	-0.0268467	-0.117362	0	0	0	0	0	0	0	0	0	0	0	0	0	0
2.8794	-2.36274	0.110609	0.095936	2.19128	-1.0073	0.144555	-0.340633	-0.0735936	-0.210048	0.406345	-0.0878734	0	0	-0.494084	-0.0333406	0.119659	1.1383	-0.318744	0	0	-1.40648	-0.0285123	-0.0990246	0	0	0	0	0	0	0	0	0	0	0	0	0	0
2.88939	-2.35524	0.09824	0.0879452	2.17798	-1.00915	0.146444	-0.357803	-0.0595068	-0.202215	0.410887	-0.0731731	0	0	-0.48088	-0.0371369	0.11248	1.15015	-0.313372	0	0	-1.40931	-0.0303261	-0.0795638	0	0	0	0	0	0	0	0	0	0	0	0	0	0
2.89938	-2.34937	0.0858408	0.080257	2.16484	-1.01095	0.148168	-0.37409	-0.0457351	-0.193869	0.413692	-0.0587989	0	0	-0.465574	-0.0408074	0.104542	1.15841	-0.301686	0	0	-1.41146	-0.0322439	-0.0597006	0	0	0	0	0	0	0	0	0	0	0	0	0	0
2.90936	-2.34501	0.0736929	0.072936	2.15184	-1.01272	0.149749	-0.389657	-0.0325748	-0.185239	0.414912	-0.0448979	0	0	-0.448648	-0.044279	0.0960843	1.16244	-0.285124	0	0	-1.41295	-0.0342484	-0.0399616	0	0	0	0	0	0	0	0	0	0	0	0	0	0
2.91935	-2.34195	0.0619512	0.0659849	2.13896	-1.01446	0.151204	-0.404665	-0.0201878	-0.17647	0.414748	-0.0315655	0	0	-0.430657	-0.0475562	0.0872351	1.16171	-0.265049	0	0	-1.41386	-0.0363201	-0.0207033	0	0	0	0	0	0	0	0	0	0	0	0	0	0
2.92934	-2.34001	0.050665	0.0593809	2.12619	-1.01617	0.152548	-0.419229	-0.0086178	-0.167644	0.41343	-0.0188519	0	0	-0.412143	-0.0507169	0.0780342	1.1558	-0.242742	0	0	-1.41426	-0.0384204	-0.00213853	0	0	0	0	0	0	0	0	0	0	0	0	0	0
2.93932	-2.33902	0.0397979	0.0530991	2.11349	-1.01782	0.153793	-0.433402	0.00219032	-0.158796	0.411218	-0.00677038	0	0	-0.393578	-0.0539024	0.0684562	1.14447	-0.219388	0	0	-1.41419	-0.0404832	0.0156393	0	0	0	0	0	0	0	0	0	0	0	0	0	0
2.94931	-2.33889	0.029244	0.0471156	2.10085	-1.01939	0.154944	-0.447152	0.0123707	-0.149913	0.40839	0.0046967	0	0	-0.37533	-0.0573048	0.0584186	1.12762	-0.196073	0	0	-1.41369	-0.0424214	0.0326386	0	0	0	0	0	0	0	0	0	0	0	0	0	0
2.9593	-2.33955	0.0188561	0.041413	2.08824	-1.02085	0.156006	-0.46037	0.0221057	-0.140949	0.405249	0.0155964	0	0	-0.357643	-0.0611401	0.0478049	1.1053	-0.173756	0	0	-1.41272	-0.044132	0.0489261	0	0	0	0	0	0	0	0	0	0	0	0	0	0
2.96928	-2.34102	0.00847153	0.0359824	2.07564	-1.02216	0.15698	-0.472872	0.0315958	-0.13184	0.402115	0.0260047	0	0	-0.340642	-0.0656215	0.0364873	1.07767	-0.153224	0	0	-1.41124	-0.0455039	0.0645952	0	0	0	0	0	0	0	0	0	0	0	0	0	0
2.97927	-2.34337	-0.00206705	0.0308232	2.06304	-1.02328	0.157866	-0.484421	0.0410366	-0.122522	0.399318	0.0360272	0	0	-0.324329	-0.0709359	0.0243493	1.04503	-0.135065	0	0	-1.40919	-0.0464246	0.0797414	0	0	0	0	0	0	0	0	0	0	0	0	0	0
2.98926	-2.3467	-0.0128943	0.0259408	2.05042	-1.02418	0.158662	-0.494752	0.0505989	-0.112945	0.397184	0.045802	0	0	-0.308618	-0.0772207	0.0113062	1.00775	-0.119682	0	0	-1.40649	-0.0467864	0.0944441	0	0	0	0	0	0	0	0	0	0	0	0	0	0
2.99924	-2.35112	-0.024113	0.021338	2.03778	-1.0248	0.159365	-0.503627	0.0604142	-0.103089	0.39601	0.0554962	0	0	-0.293363	-0.0845461	-0.00268066	0.966298	-0.1073	0	0	-1.40304	-0.0464947	0.108762	0	0	0	0	0	0	0	0	0	0	0	0	0	0
3.00923	-2.35669	-0.0357975	0.0170012	2.02509	-1.02514	0.159972	-0.510894	0.0705694	-0.0929553	0.396034	0.0652896	0	0	-0.278424	-0.09291	-0.0176015	0.921191	-0.0979942	0	0	-1.39882	-0.0454798	0.122747	0	0	0	0	0	0	0	0	0	0	0	0	0	0
3.01922	-2.3634	-0.0480048	0.0128894	2.01237	-1.02516	0.16048	-0.516556	0.0811089	-0.0825604	0.397398	0.0753506	0	0	-0.263724	-0.102245	-0.0334026	0.872988	-0.0917214	0	0	-1.39385	-0.0437058	0.136466	0	0	0	0	0	0	0	0	0	0	0	0	0	0
3.0292	-2.3711	-0.0607838	0.00893369	1.9996	-1.02487	0.160885	-0.520745	0.0920393	-0.0719317	0.400108	0.0858193	0	0	-0.249306	-0.112429	-0.0499878	0.822276	-0.0883378	0	0	-1.38823	-0.0411713	0.150023	0	0	0	0	0	0	0	0	0	0	0	0	0	0
3.03919	-2.37961	-0.0741644	0.00504891	1.98679	-1.02427	0.161188	-0.523661	0.103351	-0.0610458	0.404124	0.0967745	0	0	-0.235224	-0.12334	-0.0672617	0.769644	-0.0875694	0	0	-1.38209	-0.037922	0.163588	0	0	0	0	0	0	0	0	0	0	0	0	0	0
3.04918	-2.38877	-0.0881347	0.0011611	1.97393	-1.02337	0.16139	-0.525533	0.115005	-0.0498852	0.409369	0.108238	0	0	-0.221513	-0.134832	-0.0850864	0.715672	-0.0890204	0	0	-1.37556	-0.0340298	0.177311	0	0	0	0	0	0	0	0	0	0	0	0	0	0
3.05916	-2.39838	-0.102643	-0.00278461	1.96101	-1.0222	0.161496	-0.526591	0.126935	-0.0384626	0.415742	0.120191	0	0	-0.208175	-0.146746	-0.103277	0.660904	-0.0922134	0	0	-1.36879	-0.02958	0.191288	0	0	0	0	0	0	0	0	0	0	0	0	0	0
3.06915	-2.40831	-0.117606	-0.00682252	1.94805	-1.0208	0.161509	-0.527042	0.139059	-0.0268213	0.423121	0.132584	0	0	-0.195176	-0.158914	-0.12162	0.605824	-0.0966386	0	0	-1.36187	-0.0246635	0.205554	0	0	0	0	0	0	0	0	0	0	0	0	0	0
3.07914	-2.41844	-0.132923	-0.0109661	1.93504	-1.01918	0.161437	-0.527068	0.151288	-0.0150267	0.43137	0.145353	0	0	-0.182459	-0.171188	-0.139911	0.550818	-0.101805	0	0	-1.35491	-0.0193707	0.220092	0	0	0	0	0	0	0	0	0	0	0	0	0	0
3.08912	-2.42867	-0.148488	-0.0152101	1.92198	-1.0174	0.161289	-0.526813	0.163545	-0.00315516	0.440334	0.158426	0	0	-0.169956	-0.18345	-0.15799	0.496156	-0.107294	0	0	-1.34797	-0.0137881	0.23485	0	0	0	0	0	0	0	0	0	0	0	0	0	0
3.09911	-2.43895	-0.164203	-0.0195355	1.9089	-1.01549	0.161081	-0.526388	0.175775	0.00872382	0.449847	0.171726	0	0	-0.157598	-0.195629	-0.175767	0.441966	-0.112811	0	0	-1.34108	-0.00799639	0.249761	0	0	0	0	0	0	0	0	0	0	0	0	0	0
3.1091	-2.44924	-0.179989	-0.0239146	1.89579	-1.0135	0.160828	-0.525872	0.187951	0.0205646	0.459738	0.185175	0	0	-0.145325	-0.207697	-0.193226	0.388234	-0.118209	0	0	-1.33425	-0.00206787	0.26476	0	0	0	0	0	0	0	0	0	0	0	0	0	0
3.11908	-2.45952	-0.195796	-0.0283204	1.88266	-1.01146	0.160548	-0.525316	0.200075	0.0323566	0.469844	0.1987	0	0	-0.133092	-0.219674	-0.210422	0.334835	-0.123467	0	0	-1.32746	0.00393572	0.279794	0	0	0	0	0	0	0	0	0	0	0	0	0	0
3.12907	-2.46981	-0.211604	-0.0327341	1.86953	-1.00941	0.160258	-0.524748	0.212173	0.0441213	0.480031	0.212248	0	0	-0.120874	-0.231604	-0.227483	0.281585	-0.128648	0	0	-1.32069	0.00996692	0.294834	0	0	0	0	0	0	0	0	0	0	0	0	0	0
