Coordinates
version=1
nRows=254
nColumns=38
inDegrees=no

Units are S.I. units (second, meters, Newtons, ...)
If the header above contains a line with 'inDegrees', this indicates whether rotational values are in degrees (yes) or radians (no).

endheader
time	pelvis_tilt_moment	pelvis_list_moment	pelvis_rotation_moment	pelvis_tx_force	pelvis_ty_force	pelvis_tz_force	hip_flexion_r_moment	hip_adduction_r_moment	hip_rotation_r_moment	knee_angle_r_moment	ankle_angle_r_moment	subtalar_angle_r_moment	mtp_angle_r_moment	hip_flexion_l_moment	hip_adduction_l_moment	hip_rotation_l_moment	knee_angle_l_moment	ankle_angle_l_moment	subtalar_angle_l_moment	mtp_angle_l_moment	lumbar_extension_moment	lumbar_bending_moment	lumbar_rotation_moment	arm_flex_r_moment	arm_add_r_moment	arm_rot_r_moment	elbow_flex_r_moment	pro_sup_r_moment	wrist_flex_r_moment	wrist_dev_r_moment	arm_flex_l_moment	arm_add_l_moment	arm_rot_l_moment	elbow_flex_l_moment	pro_sup_l_moment	wrist_flex_l_moment	wrist_dev_l_moment
0	0	0	0	0	0	0	0	0	0	0	0	0	0	0	0	0	0	0	0	0	0	0	0	0	0	0	0	0	0	0	0	0	0	0	0	0	0
0.00996063	-6.11888	65.3986	-4.38678	-5.31197	789.111	2.44467	21.3046	-3.47369	-0.10306	-5.36911	1.4196	-0.141495	-0.0435706	-10.412	2.14253	0.0436387	5.50262	1.38045	-0.218879	-0.0505886	2.82819	3.77436	-0.255264	-1.01767	-3.33525	-0.203199	-0.116851	-0.00940469	-0.0117907	-0.0218628	1.19008	-2.77799	-0.489182	1.09287	-0.0204789	0.0624896	-0.127533
0.0199213	-4.04407	68.0787	-3.95327	-5.57461	785.655	9.9724	19.2588	-2.57748	-0.0608449	-4.49272	1.53178	-0.17901	-0.0439763	-9.86761	1.31464	0.0992263	5.45257	1.34868	-0.229761	-0.0488617	1.64347	4.25329	-0.461941	-0.7708	-3.35655	-0.226457	-0.0618514	-0.011286	-0.00932082	-0.0342658	1.03667	-2.81352	-0.446527	1.02885	-0.0193067	0.0614235	-0.113802
0.0298819	-0.911195	71.1863	-3.26182	-5.87896	778.206	19.665	16.312	-1.27583	-0.0296775	-3.33701	1.80065	-0.259347	-0.0450067	-9.05225	0.406373	0.161055	5.35684	1.31254	-0.241099	-0.0467956	0.401048	4.85345	-0.71655	-0.457074	-3.4027	-0.25898	0.00893023	-0.0136198	-0.00610443	-0.0506886	0.901058	-2.86213	-0.4072	0.965843	-0.0183934	0.0600915	-0.10015
0.0398425	2.89917	74.1626	-2.46534	-6.16633	766.986	30.2475	12.8151	0.163557	-0.0120093	-2.11586	2.23317	-0.37215	-0.0469129	-8.08935	-0.532039	0.226871	5.24275	1.27578	-0.252215	-0.0446249	-0.617738	5.47584	-1.06082	-0.13624	-3.46585	-0.296347	0.0853928	-0.0159957	-0.0021686	-0.0691011	0.793812	-2.91884	-0.374223	0.911114	-0.0177588	0.0589104	-0.0881495
0.0498031	7.07632	76.5399	-1.68371	-6.3974	752.095	40.6078	9.0566	1.51829	-0.00370255	-0.998006	2.81172	-0.501815	-0.049731	-7.0612	-1.47429	0.296343	5.12436	1.24033	-0.262509	-0.0424903	-1.20667	6.04941	-1.51437	0.147353	-3.53485	-0.334837	0.160491	-0.0180891	0.00253811	-0.0878394	0.715956	-2.98121	-0.348903	0.867518	-0.0173745	0.0580452	-0.0786367
0.0597638	11.302	77.8931	-1.00529	-6.70829	733.682	49.8945	5.32325	2.56362	0.00548462	-0.132761	3.48932	-0.627519	-0.0532169	-6.00077	-2.40649	0.369004	5.00374	1.20616	-0.271468	-0.040437	-1.24455	6.54042	-2.06262	0.366409	-3.59919	-0.37149	0.229057	-0.0197844	0.00792628	-0.105552	0.664948	-3.0454	-0.331472	0.834832	-0.0171664	0.0573711	-0.0718696
0.0697244	15.3388	77.9518	-0.505201	-7.01219	711.913	57.5356	1.8062	3.16418	0.037271	0.393991	4.20361	-0.727543	-0.0571279	-4.89923	-3.32177	0.444602	4.86991	1.17322	-0.278512	-0.0384844	-0.691454	6.90681	-2.68997	0.509618	-3.64639	-0.404091	0.289737	-0.0209511	0.0140539	-0.121402	0.639085	-3.11373	-0.322878	0.811144	-0.0171169	0.0565788	-0.0680058
0.079685	18.9951	76.5884	-0.23901	-7.23416	686.76	63.2613	-1.40719	3.22645	0.116195	0.55528	4.88549	-0.782894	-0.0611461	-3.71607	-4.20634	0.52177	4.70448	1.14116	-0.282893	-0.0366317	0.416491	7.11963	-3.37212	0.579059	-3.66563	-0.431489	0.343293	-0.0215272	0.020927	-0.134995	0.639198	-3.18931	-0.324466	0.793887	-0.0172488	0.0552266	-0.0671253
0.0896457	22.1301	73.8677	-0.205222	-7.37594	658.692	66.7232	-4.34533	2.69865	0.26532	0.377149	5.46978	-0.778777	-0.0649639	-2.44928	-5.03753	0.598723	4.50269	1.11012	-0.284119	-0.0349153	2.0736	7.15946	-4.05271	0.573789	-3.65286	-0.452413	0.38863	-0.0214496	0.0282833	-0.145758	0.657131	-3.27572	-0.335755	0.779843	-0.0175135	0.0529878	-0.0688959
0.0996063	24.6442	69.9477	-0.377722	-7.48757	628.134	67.8036	-7.08187	1.55564	0.502089	-0.0949056	5.90134	-0.704455	-0.0682949	-1.10337	-5.78582	0.672152	4.26519	1.08083	-0.281884	-0.0334024	4.24108	7.01892	-4.67467	0.498911	-3.60908	-0.46643	0.424861	-0.0207416	0.0356912	-0.153418	0.686195	-3.37485	-0.355969	0.766446	-0.0178711	0.0496241	-0.0729356
0.109567	26.4569	65.0389	-0.710074	-7.66087	595.298	66.6814	-9.68802	-0.211871	0.835809	-0.818201	6.13785	-0.552961	-0.0708991	0.31093	-6.412	0.736427	3.99807	1.05455	-0.276009	-0.0321961	6.82042	6.69883	-5.18397	0.366886	-3.53942	-0.474017	0.451587	-0.0195221	0.0426052	-0.158053	0.723634	-3.48551	-0.384421	0.752344	-0.0183184	0.0450169	-0.0789541
0.119528	27.4995	59.3799	-1.1397	-8.01912	560.253	63.7587	-12.2083	-2.59938	1.26687	-1.76122	6.15074	-0.321143	-0.0726058	1.76983	-6.86965	0.783795	3.71423	1.03327	-0.266527	-0.0314407	9.66325	6.20541	-5.53356	0.195247	-3.45255	-0.476383	0.468567	-0.0179872	0.0484015	-0.160021	0.770131	-3.60278	-0.42039	0.737622	-0.0188797	0.0392158	-0.0867728
0.129488	27.717	53.2243	-1.5916	-8.70875	523.026	59.5711	-14.6546	-5.5849	1.78737	-2.90177	5.92597	-0.0101926	-0.0733256	3.23655	-7.10688	0.80448	3.43253	1.01975	-0.253638	-0.0313219	12.5877	5.55104	-5.6867	0.00419202	-3.35995	-0.475246	0.475494	-0.0163843	0.0524275	-0.159865	0.829057	-3.71784	-0.463024	0.723867	-0.0195939	0.0324615	-0.0963223
0.139449	27.0908	46.8219	-2.00176	-9.72515	483.858	54.6131	-17.0123	-9.10209	2.3824	-4.21765	5.46466	0.374208	-0.0730581	4.65872	-7.09341	0.78963	3.17531	1.01793	-0.238179	-0.0320607	15.4287	4.72154	-5.63257	-0.188664	-3.26954	-0.471966	0.472806	-0.0149369	0.0542174	-0.158097	0.902436	-3.82431	-0.511326	0.712239	-0.020495	0.0250498	-0.10747
0.149409	25.6449	40.4086	-2.30951	-11.0411	443.158	49.3292	-19.2472	-13.061	3.03296	-5.68668	4.78326	0.82152	-0.0718789	5.98079	-6.81083	0.731081	2.96463	1.03229	-0.221183	-0.0338894	18.0392	3.71159	-5.37606	-0.36806	-3.18956	-0.467739	0.460703	-0.0138454	0.0533835	-0.155168	0.991494	-3.91419	-0.563971	0.704639	-0.0216015	0.0174193	-0.120091
0.15937	23.4529	34.1862	-2.46452	-12.6149	401.445	44.0992	-21.3128	-17.3582	3.71871	-7.28755	3.91163	1.31721	-0.0699218	7.1566	-6.25836	0.622462	2.81688	1.06735	-0.203806	-0.0370168	20.2982	2.53177	-4.93539	-0.521638	-3.1274	-0.463413	0.43937	-0.0132725	0.0496823	-0.1514	1.09636	-3.97836	-0.619377	0.70338	-0.0229055	0.0100925	-0.134035
0.169331	20.633	28.3008	-2.43685	-14.4058	359.232	39.2575	-23.1555	-21.8923	4.42034	-9.00341	2.88917	1.84429	-0.0673554	8.16169	-5.4548	0.460046	2.73744	1.12695	-0.187164	-0.0415868	22.1119	1.21127	-4.34088	-0.639699	-3.08828	-0.459334	0.409342	-0.0133326	0.0430774	-0.146955	1.2164	-4.00723	-0.67586	0.710878	-0.0243698	0.00361153	-0.149112
0.179291	17.3319	22.8292	-2.2274	-16.3866	316.885	35.1258	-24.7201	-26.5782	5.12105	-10.8241	1.75961	2.38522	-0.0643582	9.00286	-4.43608	0.243118	2.7166	1.21351	-0.172159	-0.0476357	23.408	-0.20441	-3.63483	-0.71438	-3.07374	-0.455199	0.37195	-0.0140875	0.0338001	-0.141827	1.35114	-3.99139	-0.731842	0.72941	-0.0259311	-0.00152625	-0.165105
0.189252	13.7005	17.7752	-1.87628	-18.5561	274.506	32.0444	-25.9559	-31.357	5.80725	-12.7456	0.565908	2.92357	-0.0610947	9.72232	-3.24873	-0.0263184	2.72762	1.3273	-0.159328	-0.0550565	24.1269	-1.66026	-2.87247	-0.738673	-3.08032	-0.44993	0.329722	-0.0155458	0.0223991	-0.135861	1.50158	-3.92212	-0.786071	0.760972	-0.0275072	-0.0049175	-0.181791
0.199213	9.86514	13.0799	-1.46403	-20.954	231.892	30.4096	-26.8237	-36.1976	6.46871	-14.7667	-0.65364	3.44512	-0.057706	10.4035	-1.93649	-0.34739	2.72676	1.46534	-0.148475	-0.0635489	24.2088	-3.09562	-2.12184	-0.70628	-3.09961	-0.441974	0.286684	-0.0176473	0.00979523	-0.12887	1.6721	-3.7916	-0.837708	0.807384	-0.0290513	-0.00626985	-0.198964
0.209173	6.17473	8.80439	-1.14296	-22.1871	193.733	28.2769	-27.3835	-40.9484	7.0897	-16.8137	-1.86124	3.93856	-0.0547213	10.8275	-0.87697	-0.660856	2.7808	1.62405	-0.147368	-0.0727781	24.3573	-4.67796	-1.42978	-0.72153	-3.11381	-0.42063	0.238693	-0.0194162	-0.00159234	-0.117971	1.76595	-3.65117	-0.875575	0.855604	-0.0300714	-0.00478741	-0.213831
0.219134	2.75456	4.96819	-0.924566	-22.3088	160.011	26.0946	-27.6369	-45.6025	7.6642	-18.8698	-3.03476	4.39588	-0.0522399	11.0869	-0.109077	-0.953342	2.84841	1.79291	-0.154308	-0.0821162	24.4997	-6.32462	-0.78812	-0.780601	-3.10974	-0.386816	0.193502	-0.0203813	-0.0100987	-0.103912	1.78415	-3.50367	-0.898012	0.903904	-0.0306758	-0.000623624	-0.225683
0.229094	-0.361509	1.55167	-0.836385	-21.4471	130.354	24.1289	-27.6089	-50.1606	8.18862	-20.9079	-4.16267	4.81244	-0.0502868	11.2564	0.372712	-1.21401	2.89344	1.96029	-0.166694	-0.0909274	24.5863	-7.9825	-0.203966	-0.873316	-3.07639	-0.341601	0.157609	-0.020251	-0.0146535	-0.0876442	1.72971	-3.35283	-0.904251	0.950024	-0.0308408	0.00588475	-0.233999
0.239055	-3.17573	-1.48396	-0.912134	-19.749	104.392	22.5253	-27.331	-54.6208	8.65984	-22.8927	-5.2421	5.18637	-0.0488456	11.396	0.584785	-1.43308	2.8867	2.1142	-0.181991	-0.0985857	24.5937	-9.61232	0.308565	-0.987458	-3.0077	-0.286654	0.135969	-0.0189147	-0.0147144	-0.0702746	1.60786	-3.20424	-0.894418	0.991557	-0.0305203	0.0142653	-0.238465
0.249016	-5.71466	-4.20047	-1.17787	-17.4052	81.7797	21.3263	-26.8341	-58.9691	9.07434	-24.7823	-6.27728	5.51781	-0.0478664	11.5519	0.565407	-1.60593	2.80773	2.24366	-0.197563	-0.104561	24.523	-11.1776	0.733748	-1.11095	-2.90265	-0.224393	0.131781	-0.0164062	-0.0102338	-0.0529694	1.42621	-3.06477	-0.869445	1.02606	-0.0296826	0.0239372	-0.238973
0.258976	-7.98783	-6.67472	-1.64834	-14.6173	62.1913	20.4897	-26.1461	-63.1737	9.4275	-26.5299	-7.27792	5.80817	-0.0472753	11.7544	0.351428	-1.72755	2.64345	2.34018	-0.21156	-0.108473	24.3955	-12.6388	1.05807	-1.23317	-2.76485	-0.157978	0.146457	-0.0128675	-0.00159388	-0.0368612	1.1947	-2.94174	-0.831059	1.05126	-0.0283309	0.0342448	-0.235636
0.268937	-9.97635	-8.99143	-2.32369	-11.5854	45.3044	19.9201	-25.2905	-67.1834	9.7135	-28.0879	-8.25729	6.0594	-0.0469849	12.0199	-0.0247448	-1.79174	2.3871	2.39861	-0.223072	-0.110131	24.2442	-13.9518	1.27279	-1.34568	-2.60176	-0.0911829	0.179728	-0.00851441	0.0104834	-0.022971	0.925471	-2.84189	-0.781719	1.06528	-0.0265136	0.0445033	-0.228784
0.278898	-11.6823	-11.2528	-3.19994	-8.50641	30.7894	19.5015	-24.2849	-70.9352	9.92512	-29.4116	-9.23021	6.2734	-0.0469037	12.3569	-0.509564	-1.80004	2.0389	2.41765	-0.231232	-0.109567	24.1124	-15.0862	1.36771	-1.44071	-2.4236	-0.0273464	0.229547	-0.00368494	0.0249934	-0.0119645	0.631943	-2.77086	-0.724548	1.06682	-0.0242996	0.0540538	-0.218952
0.288858	-13.0862	-13.5316	-4.24557	-5.58266	18.2945	19.1258	-23.1499	-74.3542	10.0553	-30.4618	-10.211	6.45189	-0.0469461	12.763	-1.04606	-1.75894	1.60643	2.39884	-0.235484	-0.106975	24.0298	-16.0023	1.34423	-1.51407	-2.24145	0.0299161	0.293068	0.00130802	0.0409213	-0.00435848	0.32902	-2.73183	-0.66303	1.05555	-0.0218306	0.0623215	-0.206832
0.298819	-14.1784	-15.8595	-5.40653	-3.02067	7.46056	18.7154	-21.9104	-77.367	10.098	-31.2088	-11.2119	6.59649	-0.0470391	13.2235	-1.56703	-1.68345	1.10611	2.34627	-0.235193	-0.102689	24.0057	-16.6619	1.21156	-1.56384	-2.06649	0.0771235	0.366721	0.00619773	0.0572596	-0.000468013	0.0321965	-2.72531	-0.600772	1.03217	-0.0192908	0.0688586	-0.193208
0.30878	-14.9531	-18.2024	-6.61054	-0.986708	-2.03738	18.2218	-20.5966	-79.9101	10.0489	-31.634	-12.2415	6.70919	-0.0471265	13.7037	-2.01715	-1.59003	0.564918	2.2658	-0.230158	-0.0971317	24.024	-17.0349	0.984369	-1.58975	-1.9087	0.111419	0.446511	0.0107743	0.0730885	-0.000364447	-0.24347	-2.74924	-0.541232	0.998317	-0.0168861	0.0733782	-0.178893
0.31874	-15.4105	-20.4551	-7.77168	0.415148	-10.4547	17.6262	-19.2438	-81.9378	9.90682	-31.7326	-13.305	6.79305	-0.0471716	14.1496	-2.36337	-1.4924	0.0199577	2.1642	-0.220758	-0.0907593	24.0418	-17.1041	0.680903	-1.59289	-1.77545	0.131038	0.528382	0.0148931	0.087659	-0.00384587	-0.484436	-2.79928	-0.487409	0.956488	-0.0148191	0.075772	-0.164645
0.328701	-15.5787	-22.4661	-8.79742	1.12555	-17.9593	16.9495	-17.8903	-83.4264	9.67392	-31.5134	-14.4038	6.85263	-0.0471566	14.5034	-2.57897	-1.40788	-0.486268	2.04853	-0.207224	-0.0840343	23.995	-16.8656	0.321538	-1.57544	-1.67039	0.135642	0.608554	0.0184776	0.100452	-0.0104327	-0.679689	-2.86937	-0.441555	0.909698	-0.0132643	0.0761096	-0.151097
0.338661	-15.5003	-24.0517	-9.60661	1.18247	-24.6254	16.2259	-16.5759	-84.3698	9.35703	-30.9984	-15.537	6.8943	-0.0470807	14.7091	-2.66022	-1.34929	-0.910574	1.92593	-0.190237	-0.0773913	23.8052	-16.3378	-0.0780025	-1.54029	-1.59313	0.126582	0.683722	0.0214962	0.111184	-0.019367	-0.822438	-2.95238	-0.405534	0.861303	-0.0122966	0.0745962	-0.13882
0.348622	-15.2183	-25.0423	-10.1355	0.675123	-30.405	15.5279	-15.3291	-84.7944	8.96604	-30.2245	-16.7011	6.92544	-0.046956	14.7249	-2.62666	-1.32246	-1.2149	1.80308	-0.170912	-0.0712045	23.3992	-15.5495	-0.500216	-1.49063	-1.53971	0.106627	0.751174	0.0239473	0.119762	-0.0296792	-0.909311	-3.04134	-0.379916	0.814261	-0.0119359	0.0715388	-0.128104
0.358583	-14.7783	-25.3143	-10.3592	-0.222705	-35.1698	14.9292	-14.1669	-84.7462	8.5145	-29.2402	-17.8916	6.9541	-0.0468019	14.5333	-2.51809	-1.32418	-1.37256	1.68624	-0.150887	-0.0657748	22.7205	-14.5517	-0.935546	-1.42915	-1.50392	0.0798988	0.808675	0.0257989	0.126201	-0.0402179	-0.941812	-3.12986	-0.364737	0.771036	-0.0120776	0.0672833	-0.119114
0.368543	-14.2084	-24.819	-10.2795	-1.34654	-38.7183	14.5235	-13.0874	-84.2972	8.01782	-28.1047	-19.1029	6.98794	-0.0466411	14.1461	-2.38501	-1.34338	-1.37129	1.58088	-0.132107	-0.0613165	21.741	-13.3952	-1.3711	-1.35862	-1.47932	0.0506539	0.85451	0.0270197	0.130551	-0.0498882	-0.924587	-3.21263	-0.358826	0.733239	-0.0126	0.0621981	-0.111742
0.378504	-13.522	-23.5931	-9.92897	-2.54553	-40.8269	14.3949	-12.0714	-83.5351	7.49234	-26.8835	-20.3288	7.03344	-0.0464947	13.6018	-2.28116	-1.36233	-1.21407	1.49142	-0.116673	-0.0579508	20.4673	-12.1332	-1.79488	-1.28155	-1.46042	0.0228347	0.887392	0.0275749	0.132843	-0.0577385	-0.865389	-3.28539	-0.36021	0.701683	-0.0133553	0.0566528	-0.105709
0.388465	-12.73	-21.7554	-9.36499	-3.7036	-41.2971	14.5967	-11.086	-82.5557	6.95382	-25.6432	-21.5622	7.09493	-0.046378	12.9578	-2.25189	-1.36136	-0.916787	1.42087	-0.106435	-0.0557051	18.9405	-10.8225	-2.19759	-1.20013	-1.44342	-0.00025089	0.906444	0.027429	0.133088	-0.0630184	-0.774421	-3.34487	-0.366413	0.676461	-0.0141776	0.0510018	-0.100624
0.398425	-11.8535	-19.4865	-8.66152	-4.75073	-39.9998	15.1393	-10.0916	-81.4536	6.41595	-24.4465	-22.7951	7.17381	-0.0462991	12.2792	-2.32433	-1.32416	-0.50394	1.37052	-0.102592	-0.0545204	17.231	-9.52354	-2.57444	-1.11637	-1.42646	-0.0161365	0.911182	0.0265572	0.131314	-0.0652049	-0.663237	-3.38871	-0.37474	0.657096	-0.0149017	0.045573	-0.0960603
0.408386	-10.919	-16.9999	-7.89421	-5.66131	-36.9229	15.946	-9.04976	-80.3144	5.88921	-23.3469	-24.0188	7.26825	-0.0462575	11.6211	-2.50842	-1.23936	-0.00254365	1.33969	-0.105582	-0.0542594	15.4327	-8.29328	-2.92406	-1.033	-1.40773	-0.022858	0.901843	0.0249886	0.127696	-0.0639626	-0.544529	-3.41547	-0.382434	0.64254	-0.0153802	0.0406528	-0.091576
0.418346	-9.97444	-14.5036	-7.1352	-6.43849	-32.1898	16.8947	-7.93337	-79.2071	5.38016	-22.3839	-25.2237	7.37332	-0.0462462	11.023	-2.79211	-1.10445	0.561401	1.32593	-0.114897	-0.0547309	13.6436	-7.18895	-3.25066	-0.953263	-1.38695	-0.0193675	0.87906	0.0227996	0.122509	-0.0591772	-0.430056	-3.42459	-0.387012	0.631462	-0.015504	0.0364779	-0.0867829
0.428307	-9.07252	-12.1713	-6.44173	-7.09847	-26.0708	17.7988	-6.73276	-78.1803	4.89155	-21.5813	-26.3998	7.48167	-0.0462536	10.4991	-3.14933	-0.924286	1.16704	1.32534	-0.129268	-0.0557092	11.9582	-6.25726	-3.56088	-0.88143	-1.36373	-0.0052134	0.844103	0.0201384	0.1162	-0.050925	-0.330613	-3.41658	-0.386357	0.622233	-0.0152091	0.0332192	-0.0813484
0.438268	-8.26173	-10.1226	-5.85265	-7.65057	-18.9677	18.4378	-5.45917	-77.2612	4.42302	-20.9468	-27.5376	7.58457	-0.0462664	10.0388	-3.54655	-0.709316	1.79953	1.33314	-0.146934	-0.0569614	10.4556	-5.53	-3.86195	-0.822301	-1.33823	0.0192472	0.798704	0.0172053	0.109311	-0.0395051	-0.255193	-3.39313	-0.37889	0.613064	-0.0144799	0.0309716	-0.075018
0.448228	-7.57277	-8.41696	-5.38764	-8.08464	-11.3778	18.5925	-4.14291	-76.4578	3.97212	-20.4745	-28.6281	7.67299	-0.0462732	9.61312	-3.95125	-0.472378	2.44893	1.34446	-0.166025	-0.0582719	9.19267	-5.01915	-4.15924	-0.780298	-1.31213	0.0525908	0.744841	0.0142154	0.102356	-0.0254757	-0.21048	-3.35714	-0.3637	0.602165	-0.0133458	0.0297482	-0.067631
0.458189	-7.00815	-7.0619	-5.04919	-8.36855	-3.8429	18.0819	-2.82748	-75.7637	3.53556	-20.1487	-29.6644	7.73875	-0.0462664	9.1846	-4.3389	-0.22572	3.10764	1.35514	-0.18493	-0.0594644	8.20175	-4.71455	-4.4543	-0.758305	-1.28972	0.0920524	0.684474	0.0113487	0.0956752	-0.009676	-0.20048	-3.31266	-0.34063	0.587942	-0.0118722	0.029483	-0.0591374
0.46815	-6.53818	-6.03037	-4.8263	-8.45658	3.11072	16.7969	-1.56069	-75.164	3.11029	-19.9496	-30.641	7.77535	-0.0462433	8.71869	-4.69761	0.0212555	3.76729	1.36228	-0.202591	-0.060417	7.49121	-4.58488	-4.74401	-0.756574	-1.27862	0.1334	0.619328	0.00870133	0.0893141	0.00679417	-0.226312	-3.26453	-0.310323	0.56924	-0.0101487	0.0300434	-0.0496144
0.47811	-6.10327	-5.27848	-4.69855	-8.30077	9.0324	14.7187	-0.386153	-74.6415	2.6944	-19.8572	-31.5549	7.77848	-0.0462064	8.19321	-5.0309	0.263575	4.4161	1.3647	-0.218696	-0.0610681	7.04894	-4.58232	-5.02096	-0.772027	-1.28958	0.171124	0.550809	0.00625271	0.0829797	0.0226496	-0.286166	-3.21803	-0.274191	0.545549	-0.00827593	0.031249	-0.0392772
0.488071	-5.62839	-4.76148	-4.64032	-7.87251	13.5979	11.924	0.663848	-74.1818	2.2874	-19.8552	-32.405	7.74611	-0.0461617	7.60457	-5.35369	0.499438	5.03774	1.36288	-0.233581	-0.0614155	6.8464	-4.64986	-5.27489	-0.798155	-1.33498	0.199019	0.480101	0.00386042	0.0761086	0.0365441	-0.375461	-3.17828	-0.234314	0.517166	-0.00635191	0.0328946	-0.0284774
0.498031	-5.04	-4.4413	-4.62426	-7.17694	16.6442	8.57353	1.57214	-73.7777	1.89008	-19.9328	-33.1925	7.67814	-0.0461172	6.96902	-5.68745	0.728894	5.61172	1.35873	-0.248052	-0.061507	6.84263	-4.73004	-5.49465	-0.825581	-1.42639	0.211109	0.408419	0.00128579	0.068034	0.0472204	-0.487234	-3.14979	-0.193269	0.485217	-0.00446204	0.0347704	-0.017684
0.507992	-4.27152	-4.28086	-4.61023	-6.27767	18.187	4.89517	2.33582	-73.4295	1.50429	-20.0845	-33.9209	7.57597	-0.0460799	6.31937	-6.05345	0.952132	6.11536	1.35505	-0.263104	-0.0614249	6.98484	-4.76494	-5.65929	-0.843458	-1.57121	0.20265	0.337589	-0.0018266	0.0582656	0.0536127	-0.612051	-3.13629	-0.153447	0.451524	-0.00274289	0.0367268	-0.00736163
0.517953	-3.29189	-4.24891	-4.56976	-5.2648	18.3915	1.14006	2.96642	-73.1457	1.132	-20.3092	-34.5962	7.44204	-0.0460561	5.69906	-6.46828	1.16855	6.52624	1.35499	-0.279673	-0.0612712	7.21399	-4.71552	-5.75729	-0.841081	-1.7699	0.171214	0.269983	-0.00571702	0.0466327	0.055026	-0.739878	-3.13968	-0.117502	0.418553	-0.00126165	0.038626	0.00192727
0.527913	-2.08698	-4.29703	-4.45561	-4.28407	17.5474	-2.42096	3.4842	-72.9387	0.775007	-20.6086	-35.2282	7.2795	-0.0460481	5.15439	-6.93869	1.37607	6.82533	1.36143	-0.298391	-0.061148	7.45654	-4.54713	-5.76232	-0.81046	-2.0139	0.116874	0.209239	-0.0105535	0.0335368	0.0510661	-0.859868	-3.16088	-0.0875884	0.388868	-0.000102111	0.0403668	0.00970842
0.537874	-0.684535	-4.37987	-4.24069	-3.46898	16.0126	-5.56145	3.91795	-72.8232	0.433933	-20.9852	-35.8306	7.09195	-0.0460572	4.72723	-7.46165	1.5716	6.99899	1.37665	-0.319468	-0.0611485	7.64256	-4.25076	-5.66228	-0.747449	-2.28479	0.0431589	0.15975	-0.0162526	0.0199584	0.0418823	-0.962551	-3.19902	-0.065644	0.364899	0.000709825	0.0418503	0.0155373
0.547835	0.848827	-4.45088	-3.91019	-2.95058	14.1648	-8.10767	4.2991	-72.8121	0.108194	-21.4403	-36.4222	6.88337	-0.0460826	4.45186	-8.01484	1.74806	7.04066	1.40188	-0.342303	-0.061347	7.70626	-3.83623	-5.45002	-0.652881	-2.5566	-0.0436561	0.126406	-0.0225331	0.00737717	0.0281066	-1.04049	-3.25213	-0.0530718	0.348406	0.00118498	0.0429668	0.019103
0.557795	2.43301	-4.46086	-3.46637	-2.79427	12.3616	-9.98626	4.65854	-72.9143	-0.204116	-21.9721	-37.0262	6.65807	-0.0461223	4.33934	-8.58378	1.90514	6.95342	1.43734	-0.366395	-0.0617846	7.59914	-3.33672	-5.13306	-0.531687	-2.80015	-0.135295	0.113603	-0.0289684	-0.00251591	0.0108839	-1.08939	-3.31701	-0.0506144	0.340197	0.00137508	0.0435992	0.0202652
0.567756	3.95358	-4.37433	-2.93779	-3.02706	10.895	-11.2153	5.02262	-73.1338	-0.505884	-22.5747	-37.6704	6.42059	-0.0461748	4.38387	-9.13927	2.03987	6.74913	1.48199	-0.390516	-0.0624748	7.29741	-2.8058	-4.73503	-0.390433	-2.98964	-0.223177	0.123944	-0.0350565	-0.00828499	-0.00826027	-1.10852	-3.38953	-0.0581445	0.339954	0.00134232	0.0436472	0.0191033
0.577717	5.29701	-4.14267	-2.34328	-3.67112	9.96153	-11.8617	5.40757	-73.4677	-0.799976	-23.2378	-38.3853	6.17561	-0.046237	4.55836	-9.64437	2.14949	6.44934	1.5336	-0.413029	-0.0634016	6.7864	-2.29703	-4.2697	-0.235147	-3.1092	-0.301078	0.157619	-0.0403501	-0.00915068	-0.0278708	-1.09998	-3.46514	-0.0745784	0.346296	0.00112413	0.043041	0.0159386
0.587677	6.34826	-3.71951	-1.70574	-4.72844	9.64363	-12.0441	5.8209	-73.9093	-1.08894	-23.9472	-39.2029	5.92777	-0.0463062	4.81495	-10.057	2.23159	6.08475	1.5889	-0.432009	-0.0645223	6.07063	-1.86484	-3.75187	-0.0683818	-3.1548	-0.365506	0.211871	-0.0444767	-0.00521336	-0.0466505	-1.06854	-3.53879	-0.0980173	0.357079	0.000737602	0.0417653	0.0112767
0.597638	6.99613	-3.06621	-1.05305	-6.18449	9.90771	-11.9276	6.26159	-74.4482	-1.37461	-24.6867	-40.1548	5.68151	-0.0463801	5.08755	-10.3311	2.28378	5.69424	1.6438	-0.445358	-0.0657721	5.17623	-1.55968	-3.19836	0.112466	-3.13429	-0.415769	0.281023	-0.0472127	0.00251188	-0.0635887	-1.02107	-3.60494	-0.125916	0.369762	0.000183526	0.0398728	0.00574589
0.607598	7.12556	-2.16439	-0.423603	-8.00402	10.5944	-11.6589	6.72808	-75.0711	-1.65768	-25.4408	-41.2708	5.44106	-0.0464548	5.30051	-10.4068	2.30013	5.32335	1.69347	-0.450555	-0.0670731	4.14662	-1.42457	-2.62671	0.315639	-3.06336	-0.453345	0.357627	-0.0485201	0.0123296	-0.0780587	-0.965411	-3.65856	-0.155505	0.381637	-0.000561757	0.0374512	2.19847e-05
0.617559	6.68345	-1.00221	0.153969	-10.0876	11.4568	-11.4317	7.21232	-75.7578	-1.93775	-26.1937	-42.5772	5.21037	-0.0465287	5.36269	-10.26	2.28424	5.01954	1.73306	-0.446397	-0.0683182	3.04372	-1.48737	-2.05638	0.551688	-2.96288	-0.480972	0.433057	-0.0485484	0.0221651	-0.0897622	-0.909755	-3.69484	-0.183851	0.390338	-0.00153555	0.0346556	-0.00523736
0.62752	5.67494	0.467738	0.700272	-12.3941	12.1913	-11.3433	7.69721	-76.4716	-2.21184	-26.9291	-44.0956	4.99352	-0.0465925	5.18933	-9.85764	2.23572	4.83084	1.75778	-0.431689	-0.0694026	1.89556	-1.73411	-1.46635	0.82744	-2.85713	-0.504284	0.499921	-0.0475068	0.0300877	-0.0992364	-0.861192	-3.71055	-0.208977	0.394221	-0.00272578	0.0315757	-0.00959043
0.63748	4.14352	2.24153	1.21282	-14.7929	12.4494	-11.4934	8.17394	-77.1719	-2.477	-27.6331	-45.842	4.79432	-0.0466428	4.70596	-9.18896	2.15531	4.7995	1.76331	-0.406118	-0.0702093	0.750434	-2.13975	-0.854808	1.14288	-2.76132	-0.526493	0.553046	-0.0455114	0.0348339	-0.106855	-0.825605	-3.70428	-0.229351	0.392171	-0.00413144	0.0283136	-0.0127156
0.647441	2.17249	4.27497	1.67481	-17.0865	11.9165	-11.9742	8.63821	-77.8137	-2.73022	-28.293	-47.8258	4.61651	-0.0466796	3.8551	-8.27068	2.04521	4.95863	1.74617	-0.370503	-0.0706145	-0.32848	-2.67072	-0.236578	1.49097	-2.68261	-0.548411	0.589625	-0.0427399	0.0358487	-0.11276	-0.807038	-3.6764	-0.243943	0.383902	-0.00577765	0.0250071	-0.0144523
0.657402	-0.112205	6.53104	2.08112	-19.1002	10.406	-12.8174	9.07358	-78.3376	-2.96677	-28.8938	-50.0497	4.46418	-0.0466909	2.61392	-7.1328	1.90621	5.32851	1.70394	-0.326434	-0.0705041	-1.29695	-3.27611	0.377797	1.8572	-2.62621	-0.57074	0.608927	-0.0393672	0.0331754	-0.117209	-0.807493	-3.62811	-0.252989	0.370705	-0.00762943	0.021799	-0.0150118
0.667362	-2.51508	8.9453	2.44115	-20.5322	7.7976	-14.0149	9.47371	-78.6906	-3.18242	-29.4234	-52.5083	4.34104	-0.0466727	0.976623	-5.88045	1.74638	5.9131	1.6357	-0.278035	-0.0697454	-2.11038	-3.90964	0.969361	2.22248	-2.59087	-0.592689	0.612334	-0.0355429	0.0274006	-0.120274	-0.826548	-3.56331	-0.257532	0.35425	-0.0096321	0.0187923	-0.0147556
0.677323	-4.81576	11.4249	2.77344	-21.0438	4.10009	-15.4809	9.84172	-78.8362	-3.37351	-29.8737	-55.1877	4.25003	-0.046627	-1.03038	-4.66399	1.57319	6.69762	1.54185	-0.230898	-0.0682026	-2.72891	-4.53341	1.51376	2.56704	-2.57182	-0.612665	0.602678	-0.0314757	0.0194249	-0.121922	-0.861162	-3.48789	-0.259169	0.336787	-0.0117309	0.0161034	-0.014177
0.687283	-6.77699	13.8649	3.11487	-20.2937	-0.524774	-17.0456	10.1862	-78.7569	-3.53643	-30.2405	-58.0648	4.19326	-0.0465583	-3.3466	-3.67658	1.39289	7.64851	1.42431	-0.191899	-0.0657462	-3.12601	-5.12049	1.98638	2.87376	-2.56335	-0.629104	0.583602	-0.0274327	0.0102529	-0.12214	-0.905952	-3.40872	-0.259988	0.321149	-0.0138581	0.0138701	-0.0138918
0.697244	-8.16819	16.1479	3.52397	-18.0045	-5.7853	-18.4581	10.5265	-78.4646	-3.66771	-30.5259	-61.1073	4.17181	-0.0464765	-5.87992	-3.1356	1.20905	8.71456	1.28642	-0.168471	-0.0622681	-3.29053	-5.65519	2.36856	3.13079	-2.55972	-0.640811	0.559181	-0.0237593	0.000859319	-0.120996	-0.953588	-3.33323	-0.262138	0.310296	-0.0159435	0.0122476	-0.0145163
0.707205	-8.84537	18.1379	4.06595	-14.1844	-11.3184	-19.4045	10.9027	-78.0193	-3.76437	-30.7416	-64.2744	4.18539	-0.0464031	-8.51087	-3.1986	1.01864	9.83307	1.13237	-0.165872	-0.0577211	-3.22802	-6.12258	2.65835	3.33298	-2.55629	-0.64722	0.533499	-0.0209098	-0.00790371	-0.11866	-0.995106	-3.26869	-0.267067	0.30667	-0.0179496	0.0114038	-0.0164706
0.717165	-8.70739	19.7111	4.81136	-9.01869	-16.7019	-19.6048	11.3499	-77.4987	-3.82249	-30.9021	-67.5195	4.2332	-0.0463512	-11.0967	-3.99066	0.818966	10.9293	0.967889	-0.187949	-0.0521274	-2.96173	-6.50915	2.86027	3.48107	-2.55104	-0.648569	0.509867	-0.0192636	-0.0154264	-0.115411	-1.02129	-3.22069	-0.275643	0.312308	-0.019897	0.0115112	-0.0200279
0.727126	-7.75698	20.7522	5.77599	-2.79267	-21.4979	-18.8595	11.886	-76.9614	-3.8362	-31.0206	-70.7928	4.31497	-0.0463211	-13.4584	-5.52993	0.603091	11.9185	0.800223	-0.234825	-0.0456324	-2.53082	-6.81892	2.97769	3.58026	-2.54345	-0.645752	0.490807	-0.0189391	-0.021348	-0.111627	-1.02516	-3.19336	-0.289107	0.328312	-0.021714	0.0125829	-0.0254411
0.737087	-6.17177	21.1501	6.91856	3.7886	-25.4027	-17.1131	12.5326	-76.483	-3.80097	-31.1133	-74.0427	4.42984	-0.0463054	-15.4182	-7.63892	0.367981	12.7189	0.636668	-0.300205	-0.0385193	-1.98222	-7.04084	3.03055	3.63833	-2.5354	-0.640457	0.477733	-0.0198979	-0.0255584	-0.107762	-1.00122	-3.18837	-0.307072	0.354393	-0.0234298	0.0146203	-0.0325611
0.747047	-4.24634	20.8203	8.11703	9.97831	-28.1598	-14.4868	13.296	-76.0985	-3.71385	-31.1911	-77.2183	4.57719	-0.0462891	-16.8032	-9.99691	0.119963	13.2525	0.48552	-0.373238	-0.0312199	-1.36193	-7.17983	3.03798	3.66414	-2.52827	-0.634225	0.471427	-0.0219139	-0.028097	-0.104225	-0.947717	-3.20655	-0.329303	0.388827	-0.0249893	0.0174225	-0.0411496
0.757008	-2.35316	19.714	9.19961	14.93	-29.6418	-11.2862	14.1771	-75.8153	-3.57635	-31.2614	-80.2704	4.75543	-0.0462512	-17.4823	-12.1655	-0.120495	13.4561	0.354813	-0.439404	-0.0242674	-0.709669	-7.2347	3.02449	3.6656	-2.52346	-0.628486	0.471937	-0.0246389	-0.029118	-0.101357	-0.865354	-3.24716	-0.354471	0.428695	-0.0264187	0.0207343	-0.0506916
0.766969	-0.834719	17.8151	9.97819	17.9643	-29.7597	-7.90139	15.171	-75.594	-3.39601	-31.3258	-83.1518	4.96164	-0.0461701	-17.3657	-13.7043	-0.323254	13.2834	0.252294	-0.484238	-0.0182264	-0.0552986	-7.20899	3.01145	3.64939	-2.52083	-0.62404	0.47906	-0.0276929	-0.028794	-0.0993676	-0.756841	-3.30903	-0.381082	0.470332	-0.0277582	0.0241974	-0.0605909
0.776929	0.104917	15.1291	10.3007	18.7388	-28.3974	-4.66282	16.2724	-75.3503	-3.18692	-31.3819	-85.8181	5.19101	-0.0460277	-16.3988	-14.2949	-0.458375	12.7058	0.184962	-0.497197	-0.0135963	0.577859	-7.11208	3.01311	3.62123	-2.51835	-0.621005	0.492709	-0.0307387	-0.0272556	-0.0983372	-0.62559	-3.39098	-0.40792	0.510026	-0.0290455	0.0273883	-0.070308
0.78689	0.52658	11.6616	10.0827	17.6684	-25.1241	-1.53925	17.465	-74.9256	-2.96744	-31.4197	-88.2287	5.43826	-0.0458046	-14.4938	-13.9023	-0.514797	11.6994	0.159958	-0.476944	-0.0107139	1.1539	-6.99409	3.02503	3.58813	-2.5101	-0.618911	0.514088	-0.0336104	-0.0244799	-0.0983146	-0.475829	-3.49389	-0.43624	0.5455	-0.030142	0.0298642	-0.0798924
0.79685	0.634863	7.4853	9.34935	15.2978	-19.6374	1.61371	18.7461	-74.1757	-2.7572	-31.4339	-90.3459	5.69707	-0.0454693	-11.65	-12.6601	-0.489033	10.2738	0.180577	-0.426816	-0.00972296	1.62176	-6.89279	3.05018	3.557	-2.49059	-0.617417	0.544094	-0.0361738	-0.0204718	-0.0993021	-0.309995	-3.61739	-0.466652	0.575925	-0.0309592	0.0314754	-0.0894514
0.806811	0.726276	2.74316	8.20224	12.3288	-11.6768	5.06477	20.1183	-72.9832	-2.57227	-31.424	-92.1346	5.96178	-0.0450003	-7.94586	-10.8472	-0.389781	8.47072	0.247958	-0.354855	-0.0106382	1.92604	-6.84084	3.08059	3.53414	-2.45488	-0.616349	0.58378	-0.038355	-0.0152079	-0.101333	-0.12986	-3.7604	-0.5002	0.600862	-0.0313603	0.0320805	-0.0991599
0.816772	1.09474	-2.38669	6.88597	8.89339	-1.56834	8.34739	21.5124	-71.3317	-2.41626	-31.3822	-93.5621	6.22675	-0.0443633	-3.6196	-8.78017	-0.237231	6.39403	0.359855	-0.272047	-0.0133787	2.11424	-6.79235	3.11701	3.50676	-2.41096	-0.61385	0.628325	-0.0399737	-0.00895382	-0.103714	0.0494756	-3.90615	-0.533641	0.619892	-0.0311074	0.0319934	-0.108549
0.826732	2.00821	-7.65856	5.66351	5.11551	10.3227	11.0366	22.8582	-69.2425	-2.28523	-31.3085	-94.598	6.48806	-0.0435252	1.03797	-6.79251	-0.056177	4.17093	0.512295	-0.190613	-0.0177967	2.2223	-6.68978	3.15396	3.46202	-2.36765	-0.60854	0.672822	-0.0408869	-0.00200191	-0.105838	0.215916	-4.03927	-0.564279	0.633409	-0.0300664	0.0315723	-0.117251
0.836693	3.6585	-12.7775	4.77047	1.11895	23.7722	12.7456	24.0898	-66.7561	-2.16965	-31.2088	-95.2134	6.74299	-0.0424678	5.71217	-5.16917	0.129014	1.93905	0.699995	-0.121924	-0.0237089	2.28325	-6.47435	3.18199	3.38801	-2.334	-0.599568	0.712816	-0.0409929	0.00536575	-0.107232	0.359917	-4.14777	-0.590431	0.642591	-0.028196	0.0311828	-0.125081
0.846654	4.39632	-16.0849	3.97015	-3.5851	30.1027	13.3345	25.1558	-63.9171	-2.05758	-31.0938	-95.3812	6.98927	-0.0411919	8.20289	-3.08286	0.230629	0.566846	1.08653	-0.0831732	-0.0309043	2.33315	-6.09358	3.1894	3.27488	-2.31907	-0.58667	0.74449	-0.0402305	0.0128689	-0.107581	0.47436	-4.22305	-0.611504	0.649379	-0.0255173	0.0311889	-0.132064
0.856614	4.51923	-17.7954	3.39526	-8.71233	30.152	12.8158	26.0288	-60.7655	-1.93852	-30.9784	-95.0748	7.22397	-0.0397158	8.74511	-0.865894	0.254466	-0.0791748	1.62584	-0.0691683	-0.0390856	2.41838	-5.50423	3.16482	3.1155	-2.33115	-0.570165	0.764812	-0.0385997	0.0202218	-0.106744	0.555288	-4.25951	-0.627637	0.656091	-0.0221749	0.0319005	-0.138335
0.866575	4.25662	-18.2499	3.09905	-13.9372	24.7772	11.3913	26.7206	-57.3329	-1.80648	-30.8809	-94.2696	7.4425	-0.0380642	7.64825	1.23108	0.207606	-0.144215	2.24283	-0.0668317	-0.0477409	2.59481	-4.67762	3.10385	2.90648	-2.37501	-0.550812	0.772024	-0.0362419	0.0271681	-0.104751	0.603733	-4.25537	-0.639262	0.664502	-0.0185791	0.0334322	-0.143991
0.876535	3.76782	-17.8825	3.06357	-19.0469	15.1213	9.40248	27.2818	-53.6454	-1.66174	-30.8212	-92.9431	7.63776	-0.0362836	5.30424	3.05705	0.105846	0.204878	2.83847	-0.0546679	-0.0563106	2.92227	-3.59566	3.00696	2.65156	-2.45268	-0.529783	0.76569	-0.033513	0.0334441	-0.101778	0.628157	-4.21343	-0.645994	0.67664	-0.0154096	0.035906	-0.149014
0.886496	3.20466	-17.2166	3.22981	-23.9053	2.85493	7.26556	27.7644	-49.7273	-1.50921	-30.8109	-91.0767	7.79961	-0.0344434	2.23471	4.48128	-0.0262069	0.760988	3.30117	-0.007164	-0.0643064	3.46077	-2.26731	2.86669	2.36037	-2.56757	-0.508633	0.745167	-0.030736	0.0385998	-0.0980396	0.638912	-4.13646	-0.648531	0.695257	-0.0130648	0.0394142	-0.153676
0.896457	2.66205	-16.6536	3.52442	-28.2964	-10.45	5.46085	28.218	-45.6042	-1.35839	-30.8514	-88.6568	7.91497	-0.0326457	-1.127	5.39606	-0.166362	1.3693	3.52866	0.0994097	-0.071263	4.24234	-0.741045	2.67344	2.04875	-2.72171	-0.489627	0.710503	-0.0281715	0.0420823	-0.093921	0.647426	-4.02872	-0.649151	0.722986	-0.0116363	0.0439254	-0.158545
0.906417	2.19756	-16.4244	3.87534	-31.9425	-23.369	4.46339	28.6777	-41.3098	-1.22256	-30.9297	-85.6756	7.96843	-0.0310372	-4.46471	5.71951	-0.295849	1.92535	3.44858	0.282886	-0.0767823	5.26261	0.909841	2.41845	1.73736	-2.91428	-0.475376	0.662831	-0.0260476	0.0433492	-0.0899446	0.66615	-3.89622	-0.650444	0.761702	-0.0110661	0.0493111	-0.164195
0.916378	1.85562	-16.5697	4.21242	-34.5099	-34.5777	4.69678	29.1496	-36.8819	-1.11734	-31.0136	-82.1324	7.94356	-0.0298177	-7.57258	5.39959	-0.39902	2.36053	3.03542	0.551173	-0.0805871	6.47291	2.59994	2.09436	1.44944	-3.14031	-0.468326	0.60468	-0.0245436	0.0419988	-0.0866952	0.707829	-3.74735	-0.654767	0.811967	-0.0112258	0.0553121	-0.171045
0.926339	1.68729	-16.9469	4.46012	-35.6091	-42.7959	6.5192	29.6022	-32.3565	-1.0593	-31.0485	-78.035	7.82486	-0.029242	-10.3344	4.41669	-0.462088	2.62804	2.31665	0.899725	-0.0825535	7.77736	4.24203	1.6956	1.20832	-3.38949	-0.470215	0.540299	-0.023765	0.037913	-0.0847353	0.784351	-3.59358	-0.664049	0.872587	-0.0119635	0.0614955	-0.179283
0.936299	1.75667	-17.2663	4.5283	-34.7948	-46.794	10.2456	29.9712	-27.7636	-1.06449	-30.9591	-73.4023	7.60014	-0.0296096	-12.7037	2.78061	-0.472081	2.69722	1.36473	1.31212	-0.0827169	9.03952	5.75412	1.21878	1.03475	-3.64534	-0.481602	0.475859	-0.0237218	0.0313786	-0.0845228	0.905543	-3.44967	-0.679754	0.940478	-0.0131334	0.0672477	-0.188843
0.94626	2.12812	-17.1585	4.30764	-31.5816	-45.4857	16.1959	30.1768	-23.1285	-1.14695	-30.6564	-68.2673	7.26317	-0.03124	-14.6841	0.521523	-0.417034	2.55309	0.278278	1.76407	-0.081253	10.0998	7.06262	0.66264	0.944658	-3.88559	-0.50159	0.419329	-0.0243193	0.0231501	-0.0863462	1.0782	-3.333	-0.702875	1.01095	-0.0146122	0.0718243	-0.199419
0.95622	2.83861	-16.2701	3.6766	-25.4898	-38.0766	24.7412	30.1516	-18.4798	-1.31716	-30.0502	-62.6802	6.81611	-0.0344332	-16.3056	-2.32308	-0.287618	2.19505	-0.840135	2.22939	-0.0784449	10.8015	8.10283	0.0278127	0.947467	-4.08378	-0.527792	0.379921	-0.0253657	0.0144202	-0.0902876	1.30551	-3.26175	-0.733931	1.07842	-0.0163051	0.0744556	-0.210528
0.966181	3.86452	-14.3638	2.52204	-16.1321	-24.2179	36.3107	29.8718	-13.8633	-1.58036	-29.0661	-56.7095	6.27098	-0.0394194	-17.5997	-5.71739	-0.079286	1.63283	-1.9019	2.68563	-0.074643	11.0189	8.81906	-0.683471	1.04517	-4.21236	-0.556601	0.367027	-0.026599	0.00668707	-0.09622	1.58696	-3.25214	-0.77293	1.13742	-0.0181423	0.0744877	-0.221584
0.976142	5.10029	-11.3995	0.76928	-3.33134	-4.1332	51.3413	29.3813	-9.35204	-1.93584	-27.6619	-50.4422	5.6496	-0.0463082	-18.5793	-9.6262	0.206367	0.8803	-2.84132	3.11749	-0.0702255	10.6808	9.16773	-1.46688	1.23218	-4.24669	-0.583726	0.388758	-0.0277294	0.00152741	-0.103836	1.91856	-3.31518	-0.819307	1.18365	-0.0200716	0.0715247	-0.231986
0.986102	6.35812	-7.57156	-1.58521	12.7466	21.2896	70.1716	28.7988	-5.05365	-2.3761	-25.8413	-43.9821	4.98119	-0.0550435	-19.2285	-14.0057	0.561612	-0.0506285	-3.61508	3.51684	-0.0655612	9.78213	9.12544	-2.31417	1.49595	-4.16958	-0.604938	0.450323	-0.0284897	0.000312023	-0.112702	2.29318	-3.45342	-0.871844	1.21485	-0.02205	0.0655339	-0.241196
0.996063	-0.24778	1.01224	-2.00243	-0.295775	0.0901343	0.00894681	21.5397	-5.6455	-1.8386	-22.6989	-37.5924	4.21223	-0.0601492	-28.2122	-13.6448	0.935218	1.95055	-4.38914	3.94432	-0.0600211	14.6403	9.92966	-3.11799	0.469989	-4.33189	-0.464129	0.195854	-0.0199418	-0.0122655	-0.0716206	1.48612	-2.83477	-0.666221	1.11714	-0.0104103	0.0731266	-0.199192
1.00602	-0.404522	-0.324737	-2.56138	-0.211611	-0.25392	-0.0356582	21.139	-3.59148	-2.13559	-20.7094	-31.1772	3.50555	-0.069065	-29.3595	-17.166	1.35341	1.13508	-4.89314	4.32527	-0.0548589	16.0218	11.2525	-3.79472	0.432602	-4.20047	-0.436554	0.191807	-0.0177266	-0.0136461	-0.0686173	1.57581	-2.64843	-0.636292	1.11639	-0.00792729	0.0699252	-0.193072
1.01598	-0.294303	-1.46956	-3.03387	-0.401191	-0.378211	-0.0587365	20.7385	-2.00638	-2.43639	-18.4509	-24.9647	2.81909	-0.0785419	-30.446	-20.9672	1.7878	0.339825	-5.2708	4.70558	-0.0502774	17.2064	12.6915	-4.43899	0.365788	-3.98433	-0.392796	0.204529	-0.0146303	-0.0106261	-0.0636513	1.63082	-2.47917	-0.597216	1.09985	-0.00507124	0.0657382	-0.183421
1.02594	-0.0777054	-2.25963	-3.43687	-0.410944	-0.527279	-0.113879	20.3502	-0.904837	-2.7186	-16.0064	-19.0851	2.1774	-0.0879895	-31.5177	-25.0109	2.21754	-0.384295	-5.52199	5.08756	-0.0464648	18.1428	14.1169	-5.01542	0.266255	-3.69705	-0.335166	0.231659	-0.010817	-0.00355288	-0.0569645	1.64308	-2.33352	-0.550288	1.06866	-0.00208718	0.0610274	-0.170583
1.03591	0.256523	-2.6573	-3.65494	-0.326668	-0.505488	-0.293528	20.0117	-0.278619	-2.96448	-13.4839	-13.6739	1.59644	-0.0968168	-32.5691	-29.26	2.62096	-1.00604	-5.64652	5.4672	-0.0435566	18.8311	15.5021	-5.44168	0.14341	-3.369	-0.269862	0.270147	-0.00662231	0.00666356	-0.0494662	1.60027	-2.21048	-0.496899	1.02614	0.000758498	0.0564069	-0.155206
1.04587	0.61258	-2.65254	-3.63454	-0.55078	-0.67467	-0.271809	19.7406	-0.11155	-3.15449	-11.0013	-8.86738	1.08325	-0.104439	-33.5424	-33.584	2.97617	-1.50221	-5.65024	5.8367	-0.0415724	19.2297	16.8044	-5.66881	0.0113336	-3.04002	-0.205141	0.314393	-0.00249791	0.0184998	-0.0421877	1.50817	-2.10282	-0.440537	0.979545	0.00313012	0.0525622	-0.138675
1.05583	0.940168	-2.12008	-3.44916	-0.650009	-0.672175	-0.261242	19.4422	-0.30838	-3.27563	-8.64104	-4.79521	0.64024	-0.110407	-34.4127	-37.8839	3.26435	-1.84386	-5.54541	6.18318	-0.0404986	19.3629	17.9174	-5.68726	-0.12464	-2.74284	-0.146496	0.359669	0.00128175	0.0307309	-0.0357132	1.37202	-2.0157	-0.385494	0.933575	0.00457829	0.0497702	-0.122313
1.06579	1.11038	-1.19575	-3.15253	-0.618102	-0.672819	-0.362888	19.0892	-0.780941	-3.32145	-6.53041	-1.56486	0.269786	-0.114398	-35.0898	-41.9904	3.47033	-2.02639	-5.35507	6.49325	-0.0402487	19.3054	18.7522	-5.50752	-0.261862	-2.51089	-0.0994691	0.400105	0.00440802	0.0420299	-0.0305952	1.20483	-1.94583	-0.336536	0.895528	0.00475973	0.0484152	-0.107817
1.07575	1.01582	-0.23313	-2.76024	-0.464936	-0.470684	-0.446591	18.754	-1.4328	-3.2985	-4.85749	0.757691	-0.0211543	-0.116326	-35.4166	-45.7497	3.58463	-2.07994	-5.11172	6.7543	-0.0407229	19.1826	19.2347	-5.14911	-0.394694	-2.37207	-0.0687894	0.432001	0.00663945	0.0513729	-0.0274442	1.02192	-1.89013	-0.29859	0.873313	0.00342647	0.0488334	-0.0969546
1.08571	0.694168	0.360614	-2.19281	-0.403494	-0.618896	-0.315065	18.5266	-2.16005	-3.2234	-3.8038	2.19364	-0.223957	-0.116269	-35.2742	-49.0777	3.60232	-2.03939	-4.8588	6.95613	-0.0417254	19.0881	19.3699	-4.60952	-0.511795	-2.34089	-0.0569963	0.452911	0.00797539	0.0580729	-0.0266532	0.833402	-1.83736	-0.273647	0.87234	0.000396915	0.0512426	-0.0907461
1.09567	0.161199	0.196918	-1.3937	-0.434485	-0.472949	-0.622094	18.4628	-2.87267	-3.11801	-3.52564	2.83081	-0.328507	-0.114465	-34.5774	-51.8976	3.52725	-1.95002	-4.64363	7.09491	-0.0431506	19.241	19.1578	-3.89707	-0.616092	-2.42522	-0.0637926	0.46072	0.00851203	0.0618388	-0.0281975	0.63445	-1.78101	-0.261184	0.895606	-0.00420054	0.0559562	-0.0896056
1.10563	-0.594936	-1.41591	-0.284162	-0.546831	-0.105908	-0.534695	18.8069	-3.46534	-3.0311	-4.2398	2.80948	-0.324568	-0.111319	-33.1173	-54.1472	3.37602	-1.92292	-4.51443	7.17619	-0.0448498	19.7836	18.5873	-3.02864	-0.688054	-2.61692	-0.0889969	0.458887	0.0081053	0.0627474	-0.0325105	0.439382	-1.71743	-0.263214	0.947133	-0.0100162	0.0630637	-0.0943682
1.11559	-0.587957	-3.8896	1.38468	-0.43172	-0.0979753	-0.589174	19.1779	-3.69131	-2.97349	-4.83264	2.74114	-0.308354	-0.106663	-31.3459	-56.2041	3.17085	-1.90667	-4.52585	7.20358	-0.0462455	20.6109	18.2298	-1.93089	-0.746791	-2.85034	-0.116593	0.44288	0.00737529	0.0620139	-0.0367571	0.221021	-1.62506	-0.272619	1.01124	-0.016372	0.0711683	-0.102647
1.12555	-0.134298	-5.88175	3.20352	-0.388301	0.097387	-0.524646	19.2618	-3.68393	-2.89854	-5.15344	2.6245	-0.283442	-0.100737	-29.5831	-57.8838	2.92978	-1.81142	-4.71797	7.192	-0.0473133	21.2522	17.9849	-0.705006	-0.784904	-3.11619	-0.142884	0.410159	0.00642028	0.0593618	-0.0397003	-0.00184436	-1.499	-0.284368	1.0882	-0.0226481	0.0808976	-0.113121
1.13551	0.306261	-7.1403	4.88848	-0.354281	0.189192	-0.285291	19.0098	-3.55893	-2.78619	-5.16957	2.46786	-0.253432	-0.0939123	-27.9025	-59.0594	2.67158	-1.64424	-5.12099	7.15754	-0.0480474	21.6052	17.6774	0.529515	-0.803064	-3.39817	-0.165684	0.360788	0.00531181	0.0545904	-0.0408873	-0.214021	-1.34003	-0.294601	1.17586	-0.0282829	0.0924854	-0.124723
1.14547	0.550944	-7.52418	6.24639	-0.184005	0.907831	0.138778	18.4256	-3.38878	-2.6352	-4.86561	2.28286	-0.221102	-0.0866401	-26.3393	-59.7169	2.41306	-1.42957	-5.75497	7.11508	-0.048527	21.637	17.2386	1.67934	-0.802574	-3.683	-0.184129	0.29716	0.00408099	0.0477707	-0.0403098	-0.404986	-1.16138	-0.300895	1.26964	-0.0328069	0.105668	-0.136366
1.15543	0.538185	-7.08924	7.18609	0.0159919	1.89618	0.0765248	17.5154	-3.24125	-2.44637	-4.26106	2.08142	-0.18923	-0.0792888	-24.961	-59.8872	2.16594	-1.17492	-6.63426	7.07868	-0.0487969	21.3998	16.676	2.67185	-0.795893	-3.95729	-0.19724	0.219859	0.00280371	0.0389748	-0.0378853	-0.573986	-0.975128	-0.300278	1.36154	-0.035759	0.119766	-0.146693
1.16539	0.26589	-6.22877	7.72802	-0.268193	0.090433	-0.195127	16.3854	-3.15876	-2.22995	-3.45411	1.87583	-0.16035	-0.0720915	-23.7637	-59.6324	1.93708	-0.897446	-7.77072	7.06192	-0.0487292	20.856	16.0436	3.454	-0.781685	-4.20072	-0.205518	0.131034	0.00143322	0.0282987	-0.0339625	-0.7065	-0.785118	-0.291983	1.44318	-0.0368941	0.13358	-0.154734
1.17535	-0.15353	-4.73281	7.78222	-0.517164	0.109459	-0.388584	15.1096	-3.17742	-1.99056	-2.44163	1.68298	-0.137509	-0.065634	-22.6854	-59.1003	1.72765	-0.626293	-9.15524	7.07344	-0.048633	20.0834	15.385	3.99193	-0.760862	-4.4188	-0.21198	0.0384584	-0.000188939	0.0164879	-0.0295527	-0.793824	-0.63934	-0.280329	1.50852	-0.0362708	0.14579	-0.160283
1.18531	-0.644737	-3.03605	7.38412	-0.307978	0.0731424	-0.0976477	13.8159	-3.26719	-1.74845	-1.32831	1.51357	-0.122025	-0.0601047	-21.6755	-58.4543	1.53465	-0.376974	-10.7826	7.1199	-0.0484243	19.116	14.6991	4.27118	-0.732668	-4.58977	-0.217592	-0.0514242	-0.00212017	0.00429163	-0.0253805	-0.824886	-0.559277	-0.268539	1.54818	-0.034034	0.154684	-0.162989
1.19528	-1.12011	-1.3758	6.66713	-0.273174	0.164158	-0.238805	12.5425	-3.48339	-1.49073	-0.178644	1.37597	-0.116223	-0.0556723	-20.7456	-57.759	1.35271	-0.132867	-12.638	7.20437	-0.0481682	18.1427	14.1238	4.31164	-0.71381	-4.72047	-0.223807	-0.138429	-0.00441603	-0.0079863	-0.0217751	-0.810847	-0.550363	-0.255823	1.55864	-0.0302235	0.15965	-0.162428
1.20524	-1.46713	-0.0655675	5.74446	-0.394338	-0.0222675	-0.22652	11.4079	-3.79534	-1.22929	0.923057	1.27598	-0.120208	-0.0524294	-19.8038	-57.1302	1.1753	0.0915702	-14.7017	7.32605	-0.0478514	17.2136	13.7134	4.14894	-0.698008	-4.80795	-0.233171	-0.216802	-0.00718786	-0.0196676	-0.0196448	-0.7472	-0.618279	-0.244821	1.53959	-0.0251596	0.160133	-0.158945
1.2152	-1.56963	0.776477	4.69742	-0.272055	-0.0654735	-0.312744	10.4409	-4.1556	-0.973344	1.93589	1.21479	-0.13298	-0.0503969	-18.8402	-56.6739	0.996376	0.306744	-16.9484	7.48043	-0.0475207	16.4378	13.4823	3.8345	-0.689584	-4.85001	-0.246332	-0.281726	-0.0103973	-0.0298834	-0.0194226	-0.645906	-0.764495	-0.235885	1.49253	-0.0191184	0.156267	-0.152703
1.22516	-1.35514	1.09813	3.65718	-0.261323	-0.150954	-0.310779	9.66918	-4.54643	-0.723717	2.81814	1.19021	-0.153249	-0.0494783	-17.834	-56.4157	0.811098	0.523336	-19.3519	7.66142	-0.0471848	15.8303	13.4873	3.43403	-0.683479	-4.85321	-0.264753	-0.330473	-0.0140237	-0.0381198	-0.021507	-0.516104	-0.967597	-0.227691	1.42523	-0.0123582	0.149092	-0.144136
1.23512	-0.828187	0.950345	2.70256	-0.399227	-0.199912	-0.116735	9.08904	-4.94112	-0.482276	3.55116	1.19747	-0.179103	-0.0495254	-16.7831	-56.3616	0.616095	0.753024	-21.8853	7.86118	-0.0468682	15.3913	13.7143	3.00703	-0.675969	-4.82173	-0.28858	-0.360483	-0.0179367	-0.0438064	-0.0259753	-0.370022	-1.20331	-0.218273	1.34689	-0.00514539	0.140045	-0.13372
1.24508	-0.151288	0.409888	1.83879	-0.253484	-0.249609	-0.144423	8.65155	-5.31653	-0.247367	4.13653	1.22973	-0.208594	-0.0503402	-15.7227	-56.4941	0.409332	1.01267	-24.5231	8.07116	-0.046595	15.1617	14.0355	2.59519	-0.672096	-4.75392	-0.315822	-0.370341	-0.0218495	-0.0463841	-0.032364	-0.227833	-1.44827	-0.20453	1.26503	0.00228315	0.130672	-0.12172
1.25504	0.21758	-0.391278	1.05706	-0.268504	-0.282783	-0.0376227	8.35931	-5.75818	0.00700636	4.56039	1.28193	-0.241984	-0.0517121	-14.6351	-56.6635	0.188537	1.30861	-27.2438	8.2847	-0.0463907	15.0774	14.2926	2.21904	-0.662765	-4.66058	-0.345458	-0.361529	-0.025631	-0.0460381	-0.0402103	-0.0997925	-1.6675	-0.18354	1.19064	0.00971292	0.122844	-0.108781
1.265	0.110851	-0.998389	0.373452	-0.298701	-0.253987	-0.0989943	8.111	-6.27373	0.290286	4.85677	1.34589	-0.277916	-0.053414	-13.6666	-56.8164	-0.048503	1.68831	-30.0297	8.49408	-0.0462785	15.0071	14.362	1.94937	-0.638366	-4.54541	-0.374988	-0.335036	-0.0290177	-0.0428401	-0.0487813	-0.0131692	-1.84364	-0.151462	1.12511	0.0169158	0.117499	-0.0946094
1.27496	0.153398	-0.0491009	0.0245638	-0.45486	-0.382504	-0.118377	7.66215	-6.71888	0.584281	5.1324	1.40759	-0.311669	-0.0551825	-13.2582	-57.0498	-0.304977	2.29378	-32.8702	8.68869	-0.0462541	14.3977	14.392	2.01519	-0.549015	-4.4123	-0.403787	-0.287958	-0.0317812	-0.0367608	-0.0579421	-0.0117374	-1.97438	-0.103303	1.05783	0.023618	0.114229	-0.0774988
1.28492	0.208845	-0.0919095	-0.341806	-0.360634	-0.365943	-0.244479	7.34674	-7.04398	0.825812	5.28104	1.4706	-0.340242	-0.05699	-12.449	-57.416	-0.571673	2.75992	-35.7489	8.8664	-0.046269	14.2027	14.4457	1.91641	-0.513594	-4.27556	-0.422694	-0.241081	-0.0335714	-0.0290754	-0.0646867	0.00891898	-2.04207	-0.0589562	1.02247	0.0290223	0.114063	-0.0639852
1.29488	0.361286	-0.0349781	-0.602954	-0.432795	-0.219963	0.0464606	7.02018	-7.27875	1.04091	5.36962	1.52808	-0.363921	-0.0586677	-11.5579	-57.8868	-0.850631	3.19426	-38.6598	9.02001	-0.046305	13.9422	14.5271	1.8182	-0.481639	-4.14774	-0.433476	-0.194327	-0.0343899	-0.0206808	-0.069431	0.0190901	-2.05138	-0.0155471	1.00843	0.0329451	0.116258	-0.0527192
1.30484	0.400158	-0.0198835	-0.693401	-0.566198	-0.266227	-0.0440356	6.70177	-7.44927	1.23433	5.39652	1.57845	-0.382651	-0.0601327	-10.6229	-58.399	-1.14161	3.59472	-41.5921	9.14541	-0.0463347	13.7118	14.5254	1.77835	-0.444764	-4.03687	-0.436037	-0.151644	-0.0342225	-0.0126828	-0.072335	-0.00988473	-2.01321	0.0275933	1.00603	0.035287	0.119898	-0.0431259
1.3148	0.352511	0.0274921	-0.635648	-0.426957	-0.428293	-0.132385	6.39971	-7.52141	1.39735	5.38062	1.62	-0.39546	-0.0613492	-9.63129	-58.9561	-1.44123	3.94225	-44.5322	9.2391	-0.0463304	13.4254	14.4093	1.80437	-0.391574	-3.94872	-0.431844	-0.115075	-0.0331038	-0.0058669	-0.0738444	-0.0714366	-1.94588	0.0662771	1.01011	0.0358169	0.123877	-0.0354241
1.32476	0.171797	0.195191	-0.441013	-0.459194	-0.0791807	-0.0512721	6.11937	-7.53589	1.5367	5.33672	1.6532	-0.402964	-0.0623288	-8.57013	-59.4825	-1.74552	4.22202	-47.4644	9.30032	-0.046317	13.0408	14.2193	1.88999	-0.318669	-3.89942	-0.423212	-0.0891011	-0.0311277	-0.00113026	-0.0743778	-0.15511	-1.85733	0.0981691	1.01993	0.0345006	0.127695	-0.0298737
1.33472	-0.195275	0.223269	-0.188654	-0.248532	-0.117232	-0.246585	5.8422	-7.47836	1.64848	5.27276	1.67674	-0.404742	-0.0630337	-7.40079	-59.9739	-2.04867	4.40091	-50.3738	9.3298	-0.0462349	12.6556	13.9014	1.99438	-0.239227	-3.87998	-0.409641	-0.0747196	-0.0283204	0.00138872	-0.0739006	-0.255099	-1.75695	0.121775	1.03177	0.0315113	0.130718	-0.0264531
1.34469	-0.149133	-0.379511	0.0528523	-0.488419	-0.00905989	-0.109391	5.6159	-7.31839	1.71473	5.19088	1.69134	-0.399764	-0.0635008	-5.8516	-60.5716	-2.33915	4.35475	-53.2376	9.3274	-0.046063	12.4003	13.8244	1.95626	-0.188857	-3.89396	-0.389775	-0.0761532	-0.0248081	0.00181865	-0.0716926	-0.307774	-1.6364	0.128774	1.06207	0.0269513	0.133271	-0.0275657
1.35465	-0.497727	0.217433	0.146436	-0.236896	-0.0742036	-0.234289	5.08334	-7.16788	1.79597	5.20642	1.69312	-0.392645	-0.0636971	-4.59426	-61.0126	-2.61489	4.32559	-56.0442	9.29754	-0.0458965	11.6886	13.4892	1.97826	-0.117874	-3.92632	-0.367006	-0.0854742	-0.0207267	0.000374716	-0.0687048	-0.374567	-1.52141	0.131437	1.08359	0.0214104	0.134377	-0.0288562
1.36461	-0.345969	-0.259667	0.871472	-0.131871	-0.0620119	-0.0355878	4.93191	-6.70749	1.78245	5.12844	1.68833	-0.372446	-0.0637469	-3.07607	-61.4297	-2.8723	4.07659	-58.7688	9.2418	-0.0456844	11.2373	13.3015	2.31339	0.0202237	-3.97813	-0.349272	-0.0893209	-0.0166444	-0.00187112	-0.0684374	-0.482693	-1.43372	0.126536	1.09223	0.0150251	0.132932	-0.0306462
1.37457	0.133642	-0.863031	1.72165	-0.342916	-0.153656	-0.0440419	4.75275	-6.12031	1.73478	5.07651	1.67397	-0.34576	-0.0636146	-1.494	-61.7926	-3.09779	3.666	-61.397	9.16423	-0.0454745	10.8007	13.2649	2.71713	0.164022	-4.0455	-0.332142	-0.0967194	-0.0126274	-0.00489499	-0.0684095	-0.578126	-1.35718	0.11369	1.09867	0.00830975	0.129938	-0.0335266
1.38453	0.401986	-1.26451	2.43089	-0.305136	-0.211074	0.0660516	4.49201	-5.52708	1.67874	5.05766	1.65212	-0.316655	-0.0633232	0.0677105	-61.9834	-3.28176	3.1162	-63.9151	9.07083	-0.0453062	10.2698	13.1225	3.1145	0.308829	-4.11828	-0.316059	-0.105696	-0.0087858	-0.00837483	-0.0685528	-0.648762	-1.29942	0.0935703	1.10079	0.00148152	0.12547	-0.0370051
1.39449	0.470054	-1.52128	3.01387	-0.344931	0.213165	-0.176605	4.16319	-4.96997	1.61236	5.06546	1.62494	-0.286684	-0.0629234	1.56994	-61.9749	-3.417	2.42513	-66.31	8.96569	-0.04524	9.74449	12.9249	3.50755	0.444832	-4.19993	-0.302272	-0.117057	-0.00539397	-0.0121769	-0.0689493	-0.697371	-1.26199	0.0683666	1.09849	-0.00510466	0.119805	-0.0406546
1.40445	0.361961	-1.78382	3.45697	-0.34341	-0.1725	-0.0188748	3.79444	-4.46801	1.53135	5.08354	1.59161	-0.257542	-0.06234	3.06341	-61.8087	-3.49734	1.56514	-68.574	8.85322	-0.0451984	9.16595	12.6689	3.89624	0.582984	-4.28088	-0.292963	-0.127205	-0.0028079	-0.015926	-0.0702102	-0.715943	-1.24708	0.0379985	1.08922	-0.0112286	0.112736	-0.0441361
1.41441	0.128201	-1.78447	3.72969	-0.283467	-0.0801054	-0.0186873	3.33577	-4.07	1.43691	5.1364	1.55478	-0.232634	-0.0616575	4.43479	-61.5114	-3.51773	0.569836	-70.6987	8.73706	-0.0452793	8.56315	12.3888	4.28828	0.711866	-4.36553	-0.288692	-0.137368	-0.00122635	-0.0195113	-0.0721734	-0.710997	-1.26371	0.00402423	1.07224	-0.0166471	0.104506	-0.0469806
1.42437	-0.160564	-1.37047	3.83034	-0.428707	0.0832884	0.0770587	2.74602	-3.82962	1.3278	5.2378	1.51403	-0.215305	-0.0608296	5.63736	-61.1175	-3.47499	-0.540999	-72.6822	8.62113	-0.0454573	7.8544	12.1437	4.68923	0.834337	-4.45411	-0.290597	-0.147523	-0.000840204	-0.022888	-0.0749553	-0.683414	-1.30982	-0.0317576	1.04685	-0.0211912	0.0953351	-0.048773
1.43433	-0.402071	-0.415488	3.72452	-0.445526	-0.042404	0.115085	1.95819	-3.764	1.19851	5.41679	1.46844	-0.208701	-0.0598161	6.60987	-60.7228	-3.36565	-1.74063	-74.5261	8.5079	-0.0456949	7.01256	11.9454	5.09868	0.945551	-4.53718	-0.298018	-0.156471	-0.00163344	-0.0257499	-0.0783061	-0.640684	-1.38989	-0.0677174	1.01071	-0.0247611	0.0853398	-0.0490354
1.44429	-0.55528	1.13217	3.38935	-0.173101	0.0819547	0.110577	0.980374	-3.90907	1.04138	5.68127	1.41897	-0.21581	-0.0586045	7.34042	-60.3997	-3.18865	-3.00791	-76.2337	8.39904	-0.0459951	6.04388	11.8097	5.51177	1.04068	-4.61053	-0.31037	-0.16341	-0.00351982	-0.0278656	-0.0819979	-0.586518	-1.5076	-0.103298	0.965037	-0.0273683	0.0748587	-0.0477746
1.45425	-0.714705	3.11872	2.84761	-0.525605	-0.0470227	0.0258504	-0.171501	-4.41996	0.857889	6.01378	1.36593	-0.241228	-0.0570747	7.87054	-60.1358	-2.94829	-4.32766	-77.8135	8.29631	-0.0463006	4.98922	11.8226	5.92385	1.11632	-4.67892	-0.327618	-0.170328	-0.00640301	-0.0294196	-0.0858682	-0.52745	-1.64674	-0.135222	0.913891	-0.0289756	0.0646817	-0.0450835
1.46421	-3.40736	22.2877	-1.11772	10.3638	4.08751	-85.2387	-10.8681	-6.07724	0.926777	9.28604	1.29249	-0.359937	-0.0578825	-1.81004	-59.7208	-2.56799	-2.46743	-79.3451	8.17149	-0.0488085	7.07878	9.67821	6.19715	-0.109074	-4.62491	-0.215456	-0.373379	-0.000753935	-0.0369568	-0.0393215	-1.63104	-1.8893	0.0763913	0.649226	-0.0190543	0.0663893	0.00527621
1.47417	-4.96174	23.126	-2.0079	2.56444	-9.85406	-61.7286	-11.0196	-7.9189	0.642498	9.24183	1.20888	-0.420806	-0.0538564	0.353677	-59.1874	-2.28515	-4.25434	-80.8535	8.08915	-0.0480718	3.62087	10.012	6.40577	0.275989	-4.70199	-0.273344	-0.3444	-0.00749272	-0.0383731	-0.0538123	-1.27543	-1.91867	0.020004	0.63614	-0.0205536	0.0571979	0.00236298
1.48413	-6.86869	23.6841	-3.18057	-5.28742	-22.4292	-41.5475	-11.2828	-10.1652	0.337939	9.23219	1.12606	-0.497649	-0.0495365	2.35702	-58.7572	-1.99647	-5.91479	-82.3762	8.00846	-0.0474308	0.700109	10.3295	6.54726	0.578096	-4.76323	-0.326286	-0.321739	-0.014009	-0.0393488	-0.0659939	-0.969339	-1.9577	-0.0244363	0.624204	-0.021039	0.0501709	0.000604243
1.49409	-8.93934	23.8479	-4.53444	-12.6798	-33.3612	-25.0028	-11.6042	-12.5732	0.0198239	9.24221	1.04509	-0.581907	-0.0450706	4.238	-58.4449	-1.71225	-7.43562	-83.8904	7.93177	-0.0468876	-1.6444	10.6116	6.61835	0.795373	-4.80305	-0.371783	-0.304437	-0.019947	-0.0397716	-0.0754511	-0.715841	-2.00521	-0.0572599	0.615281	-0.0206931	0.0454348	-0.000337929
1.50406	-10.8767	23.5494	-5.90398	-19.0183	-42.4792	-12.104	-11.9233	-14.796	-0.291434	9.25471	0.966619	-0.66133	-0.0406673	6.04099	-58.2589	-1.44447	-8.80639	-85.3695	7.86022	-0.0464429	-3.42617	10.8493	6.61948	0.933767	-4.81834	-0.407845	-0.291232	-0.0250292	-0.0396312	-0.0820016	-0.512265	-2.0595	-0.0799096	0.610899	-0.0197413	0.0429063	-0.000850144
1.51402	-12.3478	22.7731	-7.07709	-23.7993	-49.6409	-2.69831	-12.1697	-16.4533	-0.565231	9.24838	0.891654	-0.72241	-0.0365839	7.79457	-58.1846	-1.20434	-10.0159	-86.783	7.79447	-0.0460979	-4.69334	11.0489	6.55783	1.00415	-4.81043	-0.433291	-0.281274	-0.0291014	-0.0390491	-0.0856955	-0.352707	-2.11822	-0.094276	0.612161	-0.0184181	0.0423705	-0.00128525
1.52398	-13.0556	21.5429	-7.83664	-26.7081	-54.6788	3.5023	-12.2608	-17.2143	-0.767915	9.19566	0.821758	-0.753114	-0.0330727	9.51193	-58.1905	-1.00094	-11.0544	-88.0987	7.73485	-0.045856	-5.51712	11.2329	6.44639	1.0202	-4.78585	-0.448197	-0.274383	-0.0321084	-0.0382586	-0.0868456	-0.22895	-2.17854	-0.102472	0.619829	-0.0169548	0.0435237	-0.00194382
1.53394	-12.8623	19.8855	-8.00651	-27.8777	-57.3977	6.9766	-12.0683	-16.9223	-0.878705	9.05301	0.760012	-0.747191	-0.0303193	11.1837	-58.2102	-0.839073	-11.915	-89.2852	7.6825	-0.0457137	-5.99077	11.4473	6.30975	0.997705	-4.75868	-0.455194	-0.271114	-0.0341265	-0.0375622	-0.0862186	-0.131289	-2.23711	-0.106609	0.634495	-0.0155335	0.0460295	-0.00308789
1.5439	-11.7558	17.8274	-7.50775	-27.4749	-57.7014	8.3197	-11.4807	-15.5623	-0.886739	8.77763	0.708459	-0.702681	-0.0283834	12.812	-58.2033	-0.720809	-12.6021	-90.3132	7.63825	-0.0456575	-6.21627	11.7208	6.16437	0.952123	-4.73948	-0.4566	-0.271616	-0.0352142	-0.0371963	-0.0845052	-0.0487824	-2.29195	-0.10905	0.656232	-0.014301	0.0494901	-0.00494827
1.55386	-9.89622	15.4027	-6.37503	-25.6823	-55.7808	8.25158	-10.406	-13.2708	-0.795233	8.3315	0.668079	-0.622334	-0.0271999	14.4066	-58.1386	-0.643738	-13.1326	-91.1585	7.60371	-0.0456376	-6.32735	12.0483	6.0218	0.9001	-4.73233	-0.454813	-0.274889	-0.0354679	-0.0372856	-0.0823893	0.0297027	-2.3444	-0.112279	0.68459	-0.0132856	0.0535575	-0.00778753
1.56382	-7.55705	12.642	-4.74654	-22.7967	-51.6817	7.41969	-8.7917	-10.3195	-0.620518	7.68359	0.639497	-0.513329	-0.0266093	15.9844	-58.0013	-0.60322	-13.5313	-91.8013	7.58036	-0.0456324	-6.41615	12.4183	5.87888	0.853387	-4.74003	-0.451462	-0.279981	-0.0349401	-0.0378602	-0.08037	0.11432	-2.39441	-0.118718	0.718936	-0.0125379	0.0578024	-0.0117966
1.57378	-5.11151	9.58568	-2.84672	-19.171	-45.451	6.42482	-6.61936	-7.08205	-0.390261	6.81385	0.62363	-0.386667	-0.0264158	17.5609	-57.7865	-0.591852	-13.8301	-92.2272	7.56935	-0.045623	-6.55908	12.8041	5.72551	0.820744	-4.76143	-0.44756	-0.285409	-0.0336894	-0.0388326	-0.0787877	0.213243	-2.44269	-0.130487	0.758294	-0.0120737	0.0618234	-0.0171123
1.58374	-2.97352	6.30452	-0.949651	-15.1692	-37.167	5.73533	-3.91711	-3.97026	-0.136995	5.71973	0.622115	-0.255501	-0.0264579	19.1392	-57.4928	-0.599896	-14.0634	-92.4273	7.57073	-0.0455906	-6.81524	13.1665	5.54703	0.807395	-4.79165	-0.443568	-0.289326	-0.0318004	-0.0400156	-0.0778171	0.331255	-2.49039	-0.14909	0.801322	-0.0118575	0.0653031	-0.0237958
1.5937	-1.52264	2.91264	0.66574	-11.0899	-26.9515	5.60648	-0.77018	-1.35594	0.109256	4.42211	0.637426	-0.132853	-0.0266719	20.7041	-57.1182	-0.616208	-14.2659	-92.3965	7.58263	-0.0455171	-7.22203	13.4564	5.32555	0.814336	-4.82259	-0.439384	-0.289732	-0.0293829	-0.0411383	-0.0774534	0.468711	-2.53863	-0.175197	0.84633	-0.0117975	0.0680434	-0.0318165
1.60366	-1.03702	-0.41954	1.75495	-7.09557	-14.9564	6.02717	2.67364	0.497951	0.326057	2.97031	0.67259	-0.0295301	-0.0271289	22.2199	-56.6571	-0.629405	-14.469	-92.1322	7.60044	-0.0453877	-7.7945	13.6172	5.03907	0.838055	-4.84452	-0.434399	-0.285012	-0.0265715	-0.0419198	-0.077509	0.621278	-2.58739	-0.20845	0.89163	-0.0117425	0.0700277	-0.0410566
1.61362	-1.66289	-3.49749	2.13604	-3.16364	-1.38127	6.7486	6.22136	1.47103	0.500344	1.43726	0.730694	0.0472014	-0.0280242	23.6394	-56.0966	-0.629544	-14.7018	-91.6331	7.61631	-0.0451901	-8.52155	13.5868	4.66376	0.87067	-4.8455	-0.427428	-0.273732	-0.0235038	-0.0420313	-0.0776229	0.779966	-2.63588	-0.247588	0.935468	-0.0114914	0.0713996	-0.0513084
1.62358	-3.44104	-6.12987	1.71192	0.688191	13.6169	7.34896	9.66842	1.54778	0.623469	-0.0924834	0.814812	0.0927083	-0.0296227	24.9034	-55.3928	-0.609123	-14.9879	-90.8977	7.61958	-0.0449182	-9.36196	13.3225	4.18431	0.900968	-4.81697	-0.417557	-0.255475	-0.0204103	-0.0411985	-0.077419	0.932903	-2.68073	-0.289933	0.976579	-0.0108892	0.0725259	-0.0621919
1.63354	-6.28448	-8.1587	0.472271	4.55702	29.8564	7.30817	12.8057	0.839936	0.693895	-1.52753	0.926071	0.106353	-0.0321839	25.9633	-54.488	-0.564977	-15.3496	-89.923	7.59687	-0.0445634	-10.2496	12.7911	3.58942	0.915845	-4.75226	-0.40407	-0.23054	-0.0175346	-0.0392086	-0.076538	1.06708	-2.7178	-0.332007	1.01415	-0.00984233	0.0739189	-0.0732173
1.6435	-10.0385	-9.51937	-1.47244	8.04358	47.1481	6.01844	15.4549	-0.535184	0.708136	-2.78922	1.06224	0.0884607	-0.0357769	26.7672	-53.2704	-0.498453	-15.7996	-88.705	7.53445	-0.0440923	-11.0572	12.0528	2.89819	0.900634	-4.65919	-0.388827	-0.201515	-0.0153381	-0.0360393	-0.0750811	1.17295	-2.73998	-0.367716	1.04627	-0.00865739	0.0759794	-0.0831421
1.65346	-14.3947	-10.2111	-3.98625	11.4937	65.3008	3.1028	17.4592	-2.28865	0.677128	-3.80405	1.21725	0.0458002	-0.0404095	27.3382	-51.702	-0.418884	-16.3607	-87.2343	7.41697	-0.0434791	-11.6821	11.1019	2.10597	0.844417	-4.53767	-0.372347	-0.169914	-0.0138922	-0.031722	-0.0730024	1.2444	-2.74834	-0.394758	1.07253	-0.00750897	0.0789789	-0.0915487
1.66343	-19.0125	-10.3323	-6.88733	15.1237	84.2021	-1.63748	18.7245	-4.14742	0.612214	-4.52614	1.38236	-0.0139986	-0.0459073	27.7326	-49.7579	-0.340593	-17.0519	-85.498	7.23104	-0.0426967	-12.0077	9.96419	1.21972	0.739074	-4.39279	-0.355894	-0.137799	-0.0131836	-0.0264132	-0.0704503	1.28019	-2.74625	-0.411886	1.0926	-0.00665408	0.0829509	-0.0981304
1.67339	-23.5708	-10.0765	-9.98634	19.0561	103.845	-8.20666	19.2378	-5.87428	0.523795	-4.9426	1.54746	-0.0830648	-0.0519557	28.027	-47.4278	-0.279618	-17.8861	-83.4792	6.96721	-0.0417232	-11.911	8.67079	0.242095	0.57975	-4.22926	-0.339928	-0.106916	-0.0131017	-0.0203216	-0.0675077	1.28122	-2.73818	-0.420321	1.10669	-0.00615433	0.0876635	-0.103072
1.68335	-27.7736	-9.7087	-13.0872	23.2717	124.344	-16.4169	19.0753	-7.28225	0.420053	-5.07462	1.70262	-0.153881	-0.0581605	28.3006	-44.7148	-0.249953	-18.865	-81.1583	6.62157	-0.0405527	-11.2743	7.26603	-0.818915	0.36567	-4.05135	-0.324377	-0.0782924	-0.0135049	-0.0136358	-0.0642341	1.25015	-2.72947	-0.422784	1.11544	-0.00596542	0.0927573	-0.106886
1.69331	-31.3103	-9.51936	-15.9774	27.6297	145.82	-25.9295	18.3721	-8.2218	0.308238	-4.96731	1.83795	-0.219104	-0.0640619	28.6295	-41.6538	-0.261948	-19.9772	-78.5128	6.19566	-0.039195	-10.0003	5.82614	-1.933	0.101065	-3.86548	-0.309334	-0.0526213	-0.014225	-0.00655483	-0.0607654	1.19392	-2.72639	-0.422067	1.11897	-0.00611125	0.0977143	-0.110026
1.70327	-33.9001	-9.76149	-18.4614	31.9257	168.422	-36.293	17.3034	-8.59093	0.194915	-4.68197	1.94529	-0.272309	-0.0692248	29.0669	-38.3058	-0.320915	-21.195	-75.5184	5.69544	-0.037696	-8.03319	4.43725	-3.054	-0.204767	-3.67888	-0.29501	-0.0301347	-0.0150749	0.00071057	-0.0572987	1.12247	-2.73647	-0.421189	1.1169	-0.00666568	0.101894	-0.112961
1.71323	-35.3412	-10.5905	-20.3853	35.924	192.289	-47.003	16.0525	-8.34355	0.0863192	-4.28559	2.01907	-0.30866	-0.0732934	29.6267	-34.7476	-0.42782	-22.4718	-72.1495	5.12965	-0.0361514	-5.37642	3.17537	-4.12478	-0.53815	-3.49922	-0.2817	-0.0108739	-0.0158669	0.00789952	-0.0540581	1.04737	-2.76731	-0.423109	1.10844	-0.00771537	0.104601	-0.116138
1.72319	-35.6216	-12.0256	-21.6668	39.3385	217.855	-57.4985	14.8288	-7.52713	-0.0144696	-3.85393	2.05872	-0.326308	-0.0760933	30.2504	-31.0256	-0.578622	-23.7383	-68.381	4.50934	-0.0347607	-2.09488	2.06551	-5.09249	-0.882917	-3.33179	-0.269532	0.00566526	-0.0164734	0.0147241	-0.0512163	0.976396	-2.82712	-0.431115	1.09333	-0.00922395	0.105354	-0.120199
1.73315	-34.8308	-13.958	-22.2693	41.9205	245.303	-67.2624	13.7816	-6.2302	-0.103696	-3.44817	2.06478	-0.325005	-0.0775024	30.8553	-27.204	-0.770027	-24.911	-64.1932	3.84547	-0.0337396	1.67666	1.10831	-5.90065	-1.22109	-3.18329	-0.258585	0.0190645	-0.0167616	0.0207515	-0.0488808	0.91835	-2.9187	-0.447009	1.07122	-0.0111239	0.103772	-0.125465
1.74311	-33.196	-16.1275	-22.2107	43.4789	274.727	-75.856	12.9943	-4.59183	-0.177648	-3.11179	2.04001	-0.30671	-0.0775115	31.3223	-23.342	-0.999205	-25.8909	-59.5777	3.14969	-0.0333496	5.74034	0.263246	-6.49995	-1.53532	-3.05971	-0.248825	0.0283036	-0.0166342	0.0254771	-0.0470432	0.881046	-3.04079	-0.471366	1.04231	-0.0133173	0.0997289	-0.132061
1.75307	-31.0565	-18.1632	-21.5527	43.8704	306.153	-82.9402	12.4854	-2.79096	-0.233643	-2.86917	1.98909	-0.275415	-0.0762157	31.5115	-19.488	-1.26346	-26.5691	-54.5447	2.43558	-0.0338772	9.8596	-0.543596	-6.85684	-1.81125	-2.96545	-0.239965	0.0319035	-0.0160368	0.0283951	-0.0455392	0.870693	-3.18735	-0.503665	1.00784	-0.0156674	0.0934146	-0.139966
1.76303	-28.799	-19.6558	-20.3834	43.0157	339.545	-88.2841	12.2201	-1.02212	-0.270663	-2.72662	1.91804	-0.236468	-0.0737959	31.2893	-15.6858	-1.55904	-26.8362	-49.1312	1.72016	-0.0356008	13.7928	-1.40082	-6.95833	-2.03926	-2.90207	-0.231276	0.0283486	-0.0149498	0.0291115	-0.0440258	0.891516	-3.34803	-0.542527	0.970235	-0.0180014	0.0853237	-0.14906
1.77299	-26.77	-20.24	-18.8048	40.9367	374.793	-91.7693	12.1299	0.535335	-0.289532	-2.67518	1.83352	-0.195623	-0.0704959	30.5578	-11.9892	-1.8785	-26.5959	-43.4062	1.02507	-0.0387472	17.3295	-2.38882	-6.81274	-2.21553	-2.86684	-0.221365	0.0167039	-0.0133727	0.0274742	-0.0419811	0.945231	-3.50954	-0.586025	0.932806	-0.0201261	0.0761751	-0.159148
1.78295	-25.2022	-19.6667	-16.9283	37.798	411.705	-93.3812	12.1344	1.7445	-0.292833	-2.6951	1.74226	-0.158109	-0.0665986	29.2804	-8.47615	-2.20809	-25.7782	-37.4736	0.376698	-0.043448	20.3186	-3.56039	-6.44721	-2.34207	-2.85142	-0.208009	-0.00270639	-0.0113074	0.0236926	-0.0387335	1.03047	-3.65803	-0.632015	0.89911	-0.0218519	0.0667842	-0.169982
1.79291	-24.1761	-17.8515	-14.8756	33.9315	449.979	-93.2016	12.1605	2.52831	-0.284527	-2.76091	1.65054	-0.127914	-0.0624009	27.4949	-5.25374	-2.5263	-24.3523	-31.4687	-0.195221	-0.0497027	22.6855	-4.93115	-5.90288	-2.42588	-2.84126	-0.188056	-0.0278146	-0.00874518	0.018408	-0.0335099	1.14209	-3.78172	-0.678413	0.872114	-0.0230176	0.0579141	-0.18125
1.80287	-23.5852	-14.8556	-12.7689	29.8615	489.122	-91.3814	12.1401	2.89043	-0.268001	-2.84179	1.56364	-0.107051	-0.0581985	25.3161	-2.46926	-2.80417	-22.3348	-25.5514	-0.661361	-0.0573116	24.4131	-6.46889	-5.22175	-2.47571	-2.82178	-0.159592	-0.0547923	-0.00572335	0.0126552	-0.0259451	1.27238	-3.87178	-0.723507	0.853968	-0.0235837	0.0501768	-0.192633
1.81283	-23.2078	-10.8673	-10.7295	26.1923	528.551	-88.1348	12.0178	2.8966	-0.245539	-2.9081	1.48652	-0.0958542	-0.0542923	22.9198	-0.275516	-3.01127	-19.7906	-19.8955	-0.997025	-0.0658029	25.5409	-8.09973	-4.44501	-2.50056	-2.78357	-0.12287	-0.0790498	-0.00234084	0.007608	-0.0162854	1.41102	-3.92229	-0.766022	0.846118	-0.0236674	0.0440115	-0.203828
1.8228	-22.8343	-6.15961	-8.86209	23.4305	567.645	-83.7133	11.7753	2.63401	-0.22048	-2.94061	1.42208	-0.0935891	-0.0508836	20.4845	1.24898	-3.12097	-16.8212	-14.669	-1.18681	-0.0747107	26.1516	-9.74003	-3.6103	-2.50776	-2.71998	-0.0797159	-0.0960775	0.00137101	0.00424687	-0.0051852	1.54516	-3.934	-0.804586	0.847869	-0.0233699	0.0395814	-0.214385
1.83276	-22.3124	-1.0468	-7.2691	22.0182	605.694	-78.4198	11.4227	2.19523	-0.196683	-2.93104	1.372	-0.0989224	-0.0481014	18.1699	2.07279	-3.1125	-13.5607	-10.0208	-1.23072	-0.083503	26.3534	-11.325	-2.76178	-2.50247	-2.62512	-0.0316738	-0.101881	0.00538396	0.00329544	0.00666555	1.66041	-3.91167	-0.837767	0.85719	-0.0227824	0.0368737	-0.223782
1.84272	-21.5873	4.1707	-6.0286	22.2721	641.892	-72.6085	10.9834	1.67267	-0.176962	-2.87929	1.33667	-0.110011	-0.0460024	16.0995	2.23133	-2.97959	-10.1697	-6.06761	-1.14686	-0.0916166	26.2536	-12.8162	-1.94459	-2.48807	-2.49645	0.0194778	-0.0935218	0.00961075	0.00516619	0.0185192	1.74262	-3.86289	-0.864149	0.871198	-0.0220126	0.0357441	-0.231475
1.85268	-20.7032	9.2309	-5.18264	24.3297	675.356	-66.6798	10.4877	1.14763	-0.162895	-2.7916	1.31531	-0.124808	-0.0445774	14.353	1.82173	-2.73397	-6.8321	-2.88371	-0.971292	-0.0985194	25.9491	-14.1996	-1.20212	-2.46696	-2.33567	0.0716732	-0.0695838	0.0139137	0.00992548	0.0296444	1.77954	-3.79681	-0.88237	0.886654	-0.0211714	0.0359664	-0.236957
1.86264	-19.7837	13.8976	-4.73462	28.1285	705.129	-61.0602	9.96962	0.68528	-0.154971	-2.67853	1.3062	-0.141261	-0.0437643	12.9807	0.991126	-2.40905	-3.75962	-0.495262	-0.753107	-0.10377	25.5231	-15.4779	-0.572908	-2.44129	-2.14836	0.122674	-0.0302652	0.0181239	0.0173271	0.0393988	1.76223	-3.72308	-0.891264	0.900412	-0.0203615	0.0372714	-0.23981
1.8726	-19.0105	17.9191	-4.65413	33.4068	730.168	-56.1759	9.46391	0.334824	-0.152787	-2.55255	1.30695	-0.15741	-0.0434642	12.0358	-0.0686023	-2.06687	-1.20395	1.12196	-0.544004	-0.10707	25.0488	-16.6581	-0.0871228	-2.41341	-1.94295	0.170261	0.0227898	0.0220619	0.02689	0.0472831	1.68595	-3.65087	-0.890039	0.909746	-0.0196677	0.0393706	-0.239766
1.88256	-18.5282	21.0913	-4.89197	39.7821	749.684	-52.3778	9.00453	0.131381	-0.155347	-2.42592	1.31479	-0.171463	-0.0435591	11.5419	-1.17546	-1.76904	0.604001	2.05505	-0.382825	-0.108277	24.5911	-17.7414	0.23656	-2.38588	-1.72936	0.212424	0.0868808	0.0255555	0.0379995	0.0529642	1.55058	-3.58833	-0.878493	0.912515	-0.0191529	0.0419645	-0.236751
1.89252	-18.453	23.2159	-5.39343	46.8126	762.964	-49.9689	8.62597	0.0922405	-0.162021	-2.30994	1.32692	-0.182052	-0.0439265	11.5113	-2.16453	-1.57885	1.43918	2.43136	-0.294301	-0.107418	24.2113	-18.7224	0.390504	-2.36121	-1.51506	0.248523	0.158923	0.0284372	0.0500664	0.0564637	1.36046	-3.54252	-0.857049	0.907054	-0.0188401	0.0447337	-0.230868
1.90248	-18.863	24.1136	-6.08006	53.9672	769.292	-49.2429	8.34648	0.22424	-0.171024	-2.21129	1.34065	-0.188104	-0.0444503	11.9572	-2.8833	-1.56653	1.06916	2.40718	-0.293913	-0.104661	23.9603	-19.567	0.387819	-2.34167	-1.31006	0.277797	0.234879	0.0305607	0.0624338	0.0578896	1.12449	-3.51659	-0.826711	0.892869	-0.0187501	0.0473896	-0.222407
1.91244	-19.0687	24.8212	-6.81702	60.5471	775.421	-48.4533	8.17091	0.523607	-0.180441	-2.13165	1.35361	-0.18899	-0.0450302	12.3457	-3.43203	-1.54849	0.715965	2.34355	-0.283368	-0.100296	23.8659	-20.2317	0.255062	-2.32853	-1.12397	0.299603	0.310715	0.0318186	0.0744951	0.0574112	0.854783	-3.51208	-0.789102	0.869978	-0.0188905	0.0496459	-0.211797
1.9224	-19.0346	25.2823	-7.53429	66.1692	780.745	-47.6454	8.08835	0.973325	-0.188581	-2.06777	1.36394	-0.184685	-0.0455862	12.6763	-3.79867	-1.5282	0.3835	2.24749	-0.264614	-0.0946962	23.9251	-20.6729	0.0279417	-2.3216	-0.965775	0.313419	0.382607	0.0321461	0.0857055	0.0552366	0.565575	-3.52884	-0.746285	0.83891	-0.0192513	0.0512476	-0.199548
1.93236	-18.7383	25.5118	-8.16219	70.5367	784.759	-46.8086	8.07082	1.54356	-0.194126	-2.01196	1.37038	-0.175801	-0.0460605	12.9467	-3.98974	-1.50771	0.0777178	2.1277	-0.239998	-0.0882879	24.1003	-20.8563	-0.253732	-2.31927	-0.843559	0.318833	0.44711	0.0315238	0.0955878	0.0515946	0.271911	-3.56486	-0.700513	0.800685	-0.0198024	0.052002	-0.186195
1.94232	-18.162	25.6096	-8.63454	73.4873	787.116	-45.8915	8.0767	2.19369	-0.196311	-1.95363	1.37232	-0.16352	-0.0464162	13.1413	-4.04572	-1.47921	-0.189128	1.99353	-0.2127	-0.0814993	24.3214	-20.7638	-0.551185	-2.31853	-0.764114	0.31557	0.501338	0.0299823	0.103743	0.0467213	-0.011609	-3.61643	-0.653955	0.756777	-0.0204944	0.0518057	-0.172239
1.95228	-17.3335	25.7259	-8.89148	74.9496	787.639	-44.8021	8.05699	2.87704	-0.194955	-1.88127	1.36975	-0.149416	-0.0466357	13.2445	-4.00111	-1.4397	-0.400732	1.85415	-0.185255	-0.0747459	24.4961	-20.397	-0.831072	-2.31544	-0.732445	0.303547	0.543103	0.0276066	0.109862	0.0408528	-0.272088	-3.67826	-0.608431	0.70904	-0.021261	0.050664	-0.158105
1.96224	-16.3181	26.0351	-8.89367	74.9674	786.317	-43.436	7.96375	3.54719	-0.19033	-1.78471	1.36317	-0.13518	-0.0467185	13.2414	-3.89259	-1.38651	-0.539126	1.7181	-0.15992	-0.0684078	24.5216	-19.7832	-1.07399	-2.30571	-0.751133	0.283012	0.571	0.0245972	0.113733	0.0342296	-0.50054	-3.74264	-0.56579	0.659991	-0.0219142	0.0487214	-0.144265
1.9722	-15.1866	26.6927	-8.61966	73.6729	783.303	-41.6885	7.76217	4.16152	-0.18332	-1.65786	1.35346	-0.122408	-0.0466768	13.1241	-3.75679	-1.3173	-0.588717	1.59259	-0.138521	-0.0627914	24.3089	-18.9603	-1.26729	-2.28485	-0.819618	0.254584	0.58465	0.0211617	0.115274	0.0270918	-0.690658	-3.80249	-0.527088	0.611801	-0.0223255	0.0461492	-0.131015
1.98217	-14.0021	27.7992	-8.07321	71.2613	778.876	-39.4791	7.43701	4.68736	-0.175041	-1.49999	1.34176	-0.112319	-0.0465327	12.8982	-3.62696	-1.22993	-0.540765	1.48338	-0.122467	-0.058122	23.7982	-17.972	-1.40769	-2.24858	-0.934193	0.219282	0.584715	0.0175331	0.114542	0.0196636	-0.839783	-3.85113	-0.492667	0.56637	-0.0224072	0.0431629	-0.118517
1.99213	-12.8089	29.3782	-7.28521	67.9665	773.406	-36.7724	6.99544	5.10507	-0.166572	-1.31604	1.32927	-0.105591	-0.0463149	12.585	-3.53039	-1.12251	-0.395837	1.39462	-0.112721	-0.054535	22.9698	-16.864	-1.5003	-2.19325	-1.08832	0.178432	0.57281	0.0139531	0.111712	0.0121334	-0.949103	-3.88295	-0.462261	0.525142	-0.0221045	0.0399937	-0.106824
2.00209	-11.6256	31.3771	-6.30952	64.042	767.291	-33.5764	6.46716	5.40713	-0.158836	-1.11662	1.3172	-0.102356	-0.0460545	12.2173	-3.48859	-0.993063	-0.163394	1.3286	-0.109783	-0.0520703	21.8436	-15.6783	-1.55736	-2.11567	-1.27224	0.13366	0.551605	0.0106539	0.107093	0.00464214	-1.02283	-3.89347	-0.435115	0.489179	-0.0213913	0.0368854	-0.0959128
2.01205	-10.4552	33.6747	-5.21708	59.7303	760.945	-29.9646	5.89649	5.59678	-0.152468	-0.915432	1.30659	-0.102274	-0.0457832	11.835	-3.51314	-0.841238	0.140095	1.28575	-0.113592	-0.0506816	20.4798	-14.4543	-1.59598	-2.01389	-1.47488	0.0866373	0.524276	0.00782652	0.101052	-0.00272434	-1.06789	-3.88039	-0.41016	0.458839	-0.02027	0.0340422	-0.0856878
2.02201	-9.2911	36.1131	-4.0853	55.2538	754.744	-26.0619	5.33468	5.68417	-0.14782	-0.727458	1.29827	-0.104704	-0.0455292	11.4747	-3.60751	-0.668393	0.495263	1.26465	-0.123551	-0.050246	18.9639	-13.2265	-1.6364	-1.8871	-1.6837	0.0390938	0.494455	0.00560655	0.0940235	-0.00991919	-1.09256	-3.8434	-0.386145	0.433961	-0.0187663	0.0316361	-0.076009
2.03197	-8.12772	38.5292	-2.98838	50.8067	749.006	-22.0377	4.82972	5.68311	-0.144973	-0.566056	1.29281	-0.108892	-0.0453156	11.1623	-3.76774	-0.478068	0.883711	1.26226	-0.138575	-0.050584	17.393	-12.0245	-1.69985	-1.73613	-1.88576	-0.00725476	0.465839	0.00406201	0.0864779	-0.0169084	-1.10545	-3.78423	-0.36178	0.413879	-0.0169238	0.0297938	-0.0667034
2.04193	-6.96681	40.7854	-1.98915	46.5584	743.967	-18.0879	4.41772	5.6089	-0.143777	-0.440489	1.29048	-0.114124	-0.0451587	10.9077	-3.98505	-0.275598	1.291	1.27434	-0.157242	-0.0514823	15.8599	-10.8735	-1.80623	-1.56373	-2.06842	-0.0507353	0.441879	0.00319096	0.0789014	-0.0236406	-1.11456	-3.70652	-0.335886	0.397505	-0.0147986	0.0285905	-0.0575808
2.05189	-5.8184	42.7915	-1.13365	42.6581	739.773	-14.412	4.11733	5.47681	-0.143932	-0.354246	1.2912	-0.119837	-0.0450677	10.7032	-4.24892	-0.0671831	1.70801	1.29601	-0.178008	-0.0527188	14.441	-9.79319	-1.97164	-1.37472	-2.2202	-0.0897583	0.425456	0.00292658	0.071775	-0.0300236	-1.12652	-3.61547	-0.307515	0.383453	-0.0124541	0.0280465	-0.0484498
2.06185	-4.69688	44.5149	-0.448878	39.2433	736.478	-11.1891	3.92797	5.30232	-0.145016	-0.304438	1.29461	-0.125644	-0.0450447	10.5269	-4.55029	0.141376	2.13051	1.3224	-0.199444	-0.054086	13.1869	-8.798	-2.20614	-1.17582	-2.33172	-0.122912	0.418639	0.00314682	0.0655447	-0.0359236	-1.14612	-3.51743	-0.276078	0.37017	-0.00995804	0.0281247	-0.0391403
2.07181	-3.61597	45.9763	0.0568089	36.4396	734.056	-8.5534	3.83221	5.10083	-0.146582	-0.282539	1.30008	-0.131325	-0.0450858	10.3484	-4.88352	0.345666	2.55738	1.34926	-0.220445	-0.05541	12.1201	-7.89623	-2.51189	-0.975097	-2.39674	-0.149132	0.42247	0.0036858	0.0605797	-0.0411907	-1.17608	-3.41931	-0.241437	0.356098	-0.00737951	0.0287325	-0.0295264
2.08177	-2.58415	47.2371	0.391145	34.359	732.422	-6.57817	3.80078	4.88819	-0.148174	-0.276106	1.30682	-0.136758	-0.0451828	10.1368	-5.24706	0.543164	2.98818	1.37345	-0.240357	-0.0565645	11.2369	-7.0911	-2.88229	-0.781031	-2.4132	-0.167924	0.436876	0.00434629	0.0571246	-0.0457076	-1.21709	-3.32814	-0.20397	0.339848	-0.00478866	0.0297268	-0.0195527
2.09173	-1.60426	48.3793	0.574292	33.0879	731.454	-5.26675	3.79952	4.67984	-0.1494	-0.27125	1.314	-0.141877	-0.045324	9.86686	-5.64218	0.732989	3.42095	1.39318	-0.258997	-0.0574769	10.5135	-6.38216	-3.30225	-0.601417	-2.38389	-0.179576	0.460664	0.00491414	0.0552527	-0.0494415	-1.268	-3.2504	-0.164584	0.320362	-0.00225541	0.0309268	-0.00925484
2.10169	-0.675829	49.486	0.634455	32.6774	731.02	-4.55551	3.79604	4.4902	-0.149919	-0.255117	1.32083	-0.146607	-0.0454967	9.52461	-6.07074	0.915232	3.85079	1.40804	-0.276576	-0.0581269	9.91439	-5.76778	-3.74991	-0.442358	-2.31661	-0.185276	0.491674	0.00517622	0.0548407	-0.0524818	-1.3262	-3.19159	-0.124664	0.297058	0.000151514	0.0321296	0.0012282
2.11165	0.200075	50.624	0.603591	33.13	731.001	-4.32678	3.76533	4.33101	-0.149496	-0.218013	1.3267	-0.150852	-0.0456879	9.10909	-6.53239	1.09012	4.26944	1.4188	-0.293551	-0.0585401	9.40114	-5.24743	-4.19934	-0.307597	-2.22339	-0.187043	0.52703	0.00494331	0.0555732	-0.0550407	-1.38811	-3.15571	-0.0859573	0.269898	0.00236679	0.0331309	0.0116576
2.12161	1.01725	51.8337	0.51342	34.3967	731.306	-4.42965	3.69273	4.21077	-0.147975	-0.154582	1.33123	-0.154485	-0.0458862	8.6318	-7.02259	1.25743	4.66589	1.42703	-0.310458	-0.0587752	8.94005	-4.82355	-4.62402	-0.198308	-2.11896	-0.187446	0.563519	0.00407626	0.0569865	-0.0574122	-1.44974	-3.14507	-0.0504107	0.239398	0.00433046	0.033743	0.0217111
2.13157	1.76696	53.1248	0.395152	36.3739	731.891	-4.71061	3.57375	4.13551	-0.145127	-0.0638282	1.33421	-0.157311	-0.0460812	8.11365	-7.53155	1.41639	5.02759	1.43468	-0.327742	-0.0589075	8.50984	-4.49938	-4.99815	-0.113395	-2.01819	-0.189017	0.598062	0.00246445	0.0585658	-0.0598774	-1.50694	-3.16058	-0.0197715	0.206426	0.00594637	0.0338159	0.0310678
2.14154	2.43269	54.4788	0.273318	38.9172	732.74	-5.02419	3.41453	4.10648	-0.140971	0.0510537	1.33575	-0.159176	-0.0462668	7.58166	-8.04512	1.56577	5.34174	1.44376	-0.345672	-0.0590205	8.09998	-4.28229	-5.30251	-0.0500676	-1.93432	-0.193905	0.628036	0.000113026	0.0598159	-0.0626558	-1.55624	-3.20102	0.00426002	0.17231	0.00715283	0.0332446	0.0393513
2.1515	2.98954	55.8517	0.165088	41.8382	733.865	-5.249	3.22874	4.121	-0.135763	0.183957	1.3361	-0.159981	-0.04644	7.06666	-8.53964	1.70199	5.59653	1.45593	-0.364032	-0.0591921	7.71196	-4.17967	-5.52511	-0.00458754	-1.87702	-0.203459	0.651515	-0.002866	0.0603351	-0.0658389	-1.59504	-3.26358	0.0202546	0.138561	0.00791109	0.0319632	0.0461934
2.16146	3.44043	57.202	0.0981265	44.9327	735.32	-5.31215	3.03041	4.1785	-0.129309	0.328144	1.33552	-0.159518	-0.0465974	6.59246	-9.00127	1.82665	5.78363	1.47217	-0.3827	-0.0594714	7.35639	-4.19015	-5.65231	0.0275754	-1.85235	-0.218434	0.667487	-0.00639733	0.0598603	-0.0694408	-1.62127	-3.34503	0.0273447	0.10654	0.00815671	0.0299368	0.0513279
2.17142	3.78616	58.4798	0.0914697	47.9904	737.14	-5.17876	2.83536	4.27405	-0.121878	0.476494	1.33438	-0.157747	-0.0467396	6.17821	-9.41228	1.93985	5.89789	1.49285	-0.401115	-0.059892	7.04978	-4.30939	-5.67954	0.0508783	-1.86098	-0.238353	0.675923	-0.0102858	0.0583265	-0.0733118	-1.63387	-3.4411	0.0250445	0.0775255	0.00784573	0.027169	0.0545382
2.18138	4.02911	59.639	0.156423	50.8099	739.332	-4.85766	2.65788	4.39823	-0.114252	0.622596	1.33306	-0.15484	-0.0468687	5.83292	-9.75579	2.04194	5.93898	1.51757	-0.418423	-0.0604629	6.81193	-4.52909	-5.61143	0.0693169	-1.89868	-0.261648	0.677573	-0.0142408	0.0558369	-0.0771582	-1.63257	-3.54679	0.0132879	0.0525997	0.00696613	0.0236968	0.0556789
2.19134	4.1708	60.6467	0.299725	53.2013	741.871	-4.38788	2.50783	4.53805	-0.10759	0.76177	1.33197	-0.151163	-0.0469863	5.55356	-10.0142	2.13279	5.9122	1.54512	-0.433475	-0.0611671	6.66127	-4.83601	-5.4579	0.0865291	-1.95828	-0.286184	0.673652	-0.017952	0.0525977	-0.0806257	-1.61762	-3.65692	-0.00753474	0.0325384	0.00552824	0.0195864	0.0547007
2.2013	4.22865	61.5271	0.554025	54.9829	744.815	-3.82072	2.38072	4.69475	-0.100855	0.892906	1.331	-0.146574	-0.0470848	5.32617	-10.1639	2.2118	5.83003	1.57334	-0.444762	-0.0619613	6.60094	-5.20216	-5.20716	0.107533	-2.03497	-0.311468	0.665796	-0.0214575	0.0487825	-0.0836946	-1.58917	-3.76736	-0.0367435	0.0181904	0.00354482	0.0149562	0.0515994
2.21126	4.18988	62.3025	0.92437	56.015	748.065	-3.23039	2.26936	4.85579	-0.0945824	1.01617	1.33026	-0.14155	-0.0471603	5.12305	-10.1749	2.27434	5.7106	1.59967	-0.450427	-0.0627974	6.63091	-5.60468	-4.86466	0.135843	-2.12086	-0.33591	0.655789	-0.0246128	0.0446747	-0.0861983	-1.54773	-3.8737	-0.0732257	0.00976119	0.00106135	0.00992492	0.0464971
2.22122	4.03576	63.0181	1.40531	56.2219	751.473	-2.70972	2.16222	5.00328	-0.0897771	1.13295	1.32989	-0.136839	-0.0472081	4.90146	-10.0264	2.31801	5.57765	1.62119	-0.44893	-0.0636117	6.74408	-6.02188	-4.44299	0.173737	-2.20748	-0.357764	0.645298	-0.0272606	0.040573	-0.0879579	-1.49397	-3.9716	-0.115501	0.00729913	-0.00184678	0.00466375	0.0395918
2.23118	3.74333	63.741	1.98438	55.5898	754.861	-2.34639	2.04306	5.11904	-0.0874824	1.24629	1.32999	-0.133279	-0.0472227	4.60962	-9.70398	2.34093	5.45884	1.63491	-0.439078	-0.0643332	6.92359	-6.43338	-3.95746	0.222392	-2.28787	-0.37562	0.635591	-0.0292916	0.0367325	-0.0888458	-1.42858	-4.05717	-0.161831	0.0107213	-0.00508039	-0.000615244	0.0311434
2.24114	3.28537	64.5546	2.64118	54.1638	758.04	-2.20674	1.89146	5.18947	-0.0885124	1.36109	1.33062	-0.131652	-0.0471997	4.19489	-9.19422	2.33957	5.38368	1.63799	-0.419948	-0.0648951	7.14248	-6.82026	-3.42413	0.281818	-2.3573	-0.388562	0.627425	-0.0306603	0.0333472	-0.0888036	-1.35231	-4.1272	-0.210345	0.0198511	-0.0085221	-0.00567116	0.0214533
2.2511	2.6472	65.5504	3.35132	52.0621	760.826	-2.3233	1.68538	5.20864	-0.0933805	1.48371	1.33176	-0.132549	-0.0471364	3.60996	-8.49527	2.31095	5.3802	1.62816	-0.391322	-0.0652354	7.36534	-7.16521	-2.85894	0.350827	-2.4136	-0.396215	0.621016	-0.0313831	0.0305439	-0.0878424	-1.26595	-4.17935	-0.259181	0.0344656	-0.0120419	-0.0102483	0.0108402
2.26106	1.83788	66.818	4.08874	49.4804	763.068	-2.68508	1.40335	5.18139	-0.10224	1.62151	1.33329	-0.13625	-0.0470335	2.82	-7.62316	2.25296	5.47166	1.60389	-0.353919	-0.0652981	7.55128	-7.45331	-2.27734	0.427147	-2.45701	-0.398718	0.616085	-0.0315285	0.0283818	-0.0860374	-1.17046	-4.21228	-0.306638	0.0543295	-0.0155028	-0.0140932	-0.000386612
2.27102	0.883517	68.426	4.82168	46.6722	764.671	-3.21851	1.02788	5.12398	-0.11495	1.78199	1.33499	-0.142634	-0.046895	1.81401	-6.603	2.16176	5.67329	1.56441	-0.309096	-0.0650343	7.65791	-7.67333	-1.69411	0.507729	-2.48977	-0.396678	0.611974	-0.0312039	0.0268543	-0.0835213	-1.06702	-4.22574	-0.351315	0.0792258	-0.0187654	-0.0169716	-0.0119524
2.28098	-0.125165	70.4313	5.53509	44.0006	765.612	-3.81172	0.548002	5.06381	-0.131124	1.97178	1.33654	-0.151128	-0.0467287	0.593611	-5.51682	2.0407	5.99128	1.51008	-0.260376	-0.0643873	7.64565	-7.82004	-1.12338	0.589206	-2.51558	-0.391091	0.607816	-0.0305403	0.0258937	-0.0804765	-0.957028	-4.22057	-0.392224	0.108969	-0.0216929	-0.0186836	-0.0236372
2.29094	-1.07073	72.8527	6.21771	41.8792	765.957	-4.29076	-0.0382812	5.0357	-0.150211	2.19535	1.33757	-0.16075	-0.046544	-0.811709	-4.47095	1.89192	6.41994	1.44197	-0.212255	-0.0632944	7.48214	-7.8965	-0.578525	0.668403	-2.53882	-0.38323	0.602732	-0.0296781	0.025381	-0.0771224	-0.842141	-4.19863	-0.428853	0.143411	-0.0241537	-0.0190733	-0.0352868
2.30091	-1.80238	75.6701	6.8709	40.766	765.869	-4.43234	-0.722706	5.07684	-0.171499	2.454	1.33765	-0.170201	-0.0463514	-2.34857	-3.60884	1.71836	6.94165	1.36179	-0.170492	-0.0616784	7.14565	-7.91594	-0.0719756	0.742846	-2.56379	-0.374514	0.596035	-0.0287533	0.0251631	-0.0736993	-0.724228	-4.16258	-0.461167	0.182452	-0.0260223	-0.0180335	-0.0468149
2.31087	-2.14288	78.8224	7.5131	41.1359	765.594	-3.97691	-1.4867	5.22036	-0.194029	2.74499	1.33636	-0.178034	-0.0461598	-3.9415	-3.11081	1.52311	7.52693	1.27176	-0.141922	-0.0594446	6.6274	-7.90219	0.385196	0.811144	-2.59399	-0.366342	0.587415	-0.0278851	0.0250769	-0.0704479	-0.605339	-4.11556	-0.489539	0.226031	-0.0271791	-0.0155031	-0.0581934
2.32083	-1.96687	82.1842	8.17097	43.1624	765.374	-2.65331	-2.27974	5.44189	-0.218792	3.05471	1.33459	-0.184278	-0.0459975	-5.51854	-3.12396	1.30721	8.14253	1.17378	-0.132152	-0.0565039	5.94249	-7.86471	0.781488	0.872241	-2.632	-0.359738	0.5762	-0.0270124	0.0248707	-0.0674504	-0.48599	-4.06181	-0.513719	0.273083	-0.0276646	-0.0115666	-0.0691424
2.33079	-1.15582	85.6162	8.88741	46.9028	765.535	-0.241947	-3.05617	5.71075	-0.24549	3.36885	1.3331	-0.189012	-0.0458809	-6.99349	-3.79145	1.07119	8.74777	1.07017	-0.146275	-0.0527789	5.1175	-7.81211	1.10873	0.9261	-2.68046	-0.355765	0.561872	-0.0260714	0.0242735	-0.0647778	-0.366154	-4.00578	-0.533571	0.322696	-0.0276408	-0.00634664	-0.0794203
2.34075	0.382422	88.9723	9.70427	52.3909	766.411	3.38299	-3.78485	6.01299	-0.270979	3.67603	1.33198	-0.191695	-0.0458124	-8.26276	-5.2292	0.813177	9.29296	0.964232	-0.188091	-0.0482375	4.18251	-7.76683	1.3646	0.973791	-2.73939	-0.354976	0.544922	-0.0250777	0.0231698	-0.0624921	-0.246454	-3.95138	-0.549919	0.374001	-0.0271749	-8.58599e-05	-0.0889903
2.35071	2.5913	92.0748	10.625	59.2268	768.186	8.17824	-4.4324	6.29504	-0.292241	3.96154	1.33171	-0.192993	-0.0457861	-9.23531	-7.40412	0.530155	9.73093	0.85887	-0.256265	-0.0429356	3.18691	-7.73106	1.54639	1.01522	-2.80649	-0.35679	0.525667	-0.0239802	0.0215205	-0.0604269	-0.126963	-3.9013	-0.562688	0.425535	-0.0264768	0.00691278	-0.0976252
2.36067	5.28993	94.7581	11.6041	66.8201	770.933	13.9076	-4.98208	6.51224	-0.304785	4.21515	1.3323	-0.193455	-0.0457873	-9.8291	-10.142	0.222607	10.016	0.757822	-0.344762	-0.0370621	2.18418	-7.70689	1.65689	1.04985	-2.87691	-0.359879	0.504976	-0.0227757	0.0194491	-0.0583535	-0.00854431	-3.85752	-0.572119	0.475486	-0.0257114	0.0142381	-0.105176
2.37063	8.16076	96.888	12.541	74.3695	774.575	20.1334	-5.43153	6.62353	-0.303939	4.43097	1.33355	-0.193782	-0.0457966	-9.99093	-13.1146	-0.0996898	10.1096	0.665413	-0.442608	-0.0309506	1.22795	-7.69268	1.70365	1.07635	-2.94464	-0.362563	0.48387	-0.0214814	0.0171663	-0.0560262	0.10644	-3.82052	-0.578535	0.521831	-0.0249532	0.0214397	-0.111548
2.38059	10.794	98.3782	13.2932	80.9266	778.876	26.2469	-5.79143	6.59424	-0.285866	4.60769	1.33508	-0.194805	-0.0457944	-9.70986	-15.8772	-0.414529	9.98538	0.586266	-0.535195	-0.0250565	0.369711	-7.67612	1.69767	1.09263	-3.00395	-0.36322	0.463223	-0.0201224	0.0149072	-0.0532402	0.214464	-3.78933	-0.581834	0.562385	-0.024268	0.0280923	-0.116603
2.39055	12.7776	99.1927	13.7103	85.5484	783.48	31.5867	-6.08256	6.40351	-0.248397	4.74873	1.33645	-0.197272	-0.0457666	-9.01072	-17.9588	-0.690177	9.62958	0.525016	-0.607207	-0.0198911	-0.348319	-7.63385	1.65226	1.09675	-3.05098	-0.360828	0.443643	-0.018745	0.0128635	-0.0499174	0.311522	-3.76198	-0.581492	0.595015	-0.0237338	0.0338277	-0.120157
2.40051	13.8047	99.3289	13.6797	87.4644	788.006	35.5516	-6.3291	6.04428	-0.191457	4.85991	1.33744	-0.201766	-0.0457118	-7.93618	-18.9767	-0.89431	9.04101	0.485949	-0.64626	-0.0159307	-0.894636	-7.52927	1.58187	1.08758	-3.0837	-0.355113	0.425817	-0.0174132	0.0112049	-0.0461643	0.393254	-3.73557	-0.576574	0.617932	-0.0234409	0.0383798	-0.121988
2.41047	13.8153	98.7634	13.1636	86.4849	792.315	37.9739	-6.56118	5.55994	-0.117173	4.95332	1.33756	-0.207551	-0.0456453	-6.44825	-18.8012	-1.01374	8.21168	0.474256	-0.64857	-0.0135143	-1.26697	-7.34846	1.49895	1.06824	-3.10354	-0.347326	0.410984	-0.0162428	0.0100169	-0.0424269	0.454409	-3.7063	-0.567382	0.630873	-0.0232177	0.0416802	-0.122217
2.42043	12.9317	97.4988	12.2163	82.6599	796.165	38.9057	-6.80119	5.0002	-0.0299132	5.03785	1.33582	-0.213608	-0.0455525	-4.52525	-17.4979	-1.04662	7.14986	0.492035	-0.615953	-0.0127658	-1.48995	-7.07315	1.42097	1.04469	-3.11381	-0.339219	0.400137	-0.0153367	0.00930598	-0.0392157	0.489775	-3.66842	-0.553563	0.634987	-0.0228662	0.0440061	-0.120957
2.43039	11.4107	95.5605	10.9574	76.1972	799.219	38.4061	-7.06678	4.40822	0.0644285	5.12223	1.33215	-0.219312	-0.0454529	-2.20299	-15.2847	-1.00102	5.88733	0.53926	-0.55462	-0.0136667	-1.57191	-6.67242	1.3534	1.02206	-3.11926	-0.332795	0.393956	-0.0147969	0.00901813	-0.0370807	0.492571	-3.61372	-0.534188	0.631288	-0.0221422	0.0456592	-0.118135
2.44035	9.5994	92.99	9.55359	67.4419	801.133	36.5926	-7.36808	3.81373	0.15808	5.21334	1.32756	-0.224691	-0.0453945	0.445593	-12.4885	-0.894394	4.47404	0.613812	-0.474029	-0.0160589	-1.51171	-6.10602	1.29662	1.00546	-3.12549	-0.330185	0.392878	-0.014708	0.00904669	-0.0365739	0.456515	-3.53451	-0.507907	0.620524	-0.0208869	0.0469162	-0.113531
2.45031	7.88857	89.8461	8.18063	56.952	801.723	33.648	-7.71325	3.25113	0.242211	5.31847	1.32362	-0.229834	-0.0454442	3.33141	-9.49885	-0.750763	2.96933	0.712189	-0.385758	-0.0196778	-1.29686	-5.34154	1.24548	0.999869	-3.13757	-0.333378	0.397501	-0.0151195	0.00929169	-0.0382244	0.376239	-3.42603	-0.473548	0.603264	-0.0190222	0.0480102	-0.106905
2.46028	6.63896	86.2116	6.98384	45.4834	801.023	29.7857	-8.11016	2.76426	0.307881	5.44553	1.32209	-0.234668	-0.0456784	6.35171	-6.69796	-0.595044	1.43656	0.829752	-0.301453	-0.024193	-0.902215	-4.36748	1.18928	1.0093	-3.15867	-0.343811	0.408654	-0.0160256	0.00970037	-0.0424584	0.247922	-3.28788	-0.430546	0.579811	-0.0165468	0.049085	-0.0980887
2.47024	6.10761	82.2022	6.04568	33.925	799.264	25.221	-8.56625	2.40282	0.347241	5.602	1.32461	-0.238921	-0.0461689	9.38907	-4.39218	-0.448132	-0.0602095	0.960589	-0.230675	-0.0292419	-0.296421	-3.2033	1.1126	1.03562	-3.18912	-0.361939	0.427142	-0.0173497	0.0102814	-0.049479	0.0703851	-3.12452	-0.379261	0.550254	-0.0135294	0.0501726	-0.0870635
2.4802	6.39499	77.9821	5.37055	23.208	796.808	20.1726	-9.08774	2.21227	0.355151	5.79321	1.33223	-0.24221	-0.0469608	12.3113	-2.76472	-0.324331	-1.45773	1.09724	-0.179302	-0.0344514	0.541012	-1.90553	0.997008	1.0773	-3.22617	-0.386859	0.453168	-0.0189364	0.0110883	-0.0591202	-0.153215	-2.94502	-0.321218	0.514728	-0.0101006	0.0512046	-0.0740459
2.49016	7.42325	73.7896	4.89148	14.2018	794.046	14.8913	-9.67849	2.21822	0.331249	6.0201	1.34483	-0.244226	-0.0480447	14.9697	-1.8574	-0.230924	-2.69231	1.23053	-0.148849	-0.0394519	1.59133	-0.568647	0.824194	1.12809	-3.26462	-0.416056	0.485464	-0.0205558	0.0121706	-0.0706909	-0.413106	-2.76205	-0.259305	0.473922	-0.00644591	0.0520565	-0.0595788
2.50012	8.96399	69.9602	4.50039	7.67747	791.291	9.72146	-10.3358	2.40758	0.28225	6.2769	1.36058	-0.244991	-0.0493254	17.1975	-1.59872	-0.171341	-3.69714	1.34893	-0.137217	-0.0438347	2.76527	0.675727	0.580723	1.17525	-3.29663	-0.444878	0.520368	-0.0219086	0.0135467	-0.082753	-0.690077	-2.59178	-0.197929	0.429263	-0.00285692	0.0525366	-0.0445928
2.51008	10.6732	66.9585	4.09847	4.23152	788.632	5.1685	-11.0331	2.70035	0.224595	6.54584	1.37505	-0.245191	-0.0505734	18.7923	-1.83521	-0.148164	-4.39532	1.4372	-0.139564	-0.0470774	3.8653	1.66283	0.270641	1.19833	-3.31069	-0.46591	0.550916	-0.0226694	0.0151759	-0.0928576	-0.951725	-2.45437	-0.143293	0.383071	0.000182729	0.0523527	-0.0305091
2.52004	0	0	0	0	0	0	0	0	0	0	0	0	0	0	0	0	0	0	0	0	0	0	0	0	0	0	0	0	0	0	0	0	0	0	0	0	0
