Coordinates
version=1
nRows=70
nColumns=38
inDegrees=no

Units are S.I. units (second, meters, Newtons, ...)
If the header above contains a line with 'inDegrees', this indicates whether rotational values are in degrees (yes) or radians (no).

endheader
time	pelvis_tilt_moment	pelvis_list_moment	pelvis_rotation_moment	pelvis_tx_force	pelvis_ty_force	pelvis_tz_force	hip_flexion_r_moment	hip_adduction_r_moment	hip_rotation_r_moment	knee_angle_r_moment	ankle_angle_r_moment	subtalar_angle_r_moment	mtp_angle_r_moment	hip_flexion_l_moment	hip_adduction_l_moment	hip_rotation_l_moment	knee_angle_l_moment	ankle_angle_l_moment	subtalar_angle_l_moment	mtp_angle_l_moment	lumbar_extension_moment	lumbar_bending_moment	lumbar_rotation_moment	arm_flex_r_moment	arm_add_r_moment	arm_rot_r_moment	elbow_flex_r_moment	pro_sup_r_moment	wrist_flex_r_moment	wrist_dev_r_moment	arm_flex_l_moment	arm_add_l_moment	arm_rot_l_moment	elbow_flex_l_moment	pro_sup_l_moment	wrist_flex_l_moment	wrist_dev_l_moment
0	0	0	0	0	0	0	0	0	0	0	0	0	0	0	0	0	0	0	0	0	0	0	0	0	0	0	0	0	0	0	0	0	0	0	0	0	0
0.00998753	-16.643	-0.347089	5.67235	-7.74324	2.61277	4.90793	4.75612	-0.486418	-0.0571151	-1.79188	0.10672	0.0168508	-0.00104743	2.15447	-0.74007	-0.0587035	-0.679193	0.183546	-0.0617558	-0.00380668	5.50917	-3.13141	2.16863	-0.0531206	0.785412	0.324053	0.0352351	0.0158775	0.0258019	0.0376773	-0.558968	0.355451	0.0724096	-0.23714	-0.00180605	-0.0179912	0.0134972
0.0199751	-12.7982	-1.74793	7.72436	-1.95458	20.6472	8.37446	3.74813	-0.0253855	0.110568	-1.56519	0.0280072	0.0363867	0.000103958	0.425822	-1.29902	-0.0937533	-0.075127	0.168219	-0.083914	-0.00423039	4.03323	-3.49255	4.50494	0.543774	0.898689	0.373912	0.141419	0.0205443	0.0385443	0.0411541	-0.917935	0.451907	0.0778253	-0.366197	-0.00535603	-0.0324355	0.0183563
0.0299626	-10.4647	-3.11774	8.68983	4.01566	50.5959	17.0682	1.89651	0.869286	0.127426	-1.11582	-0.0907214	0.0534417	0.00203948	0.419918	-1.59528	-0.126431	-0.408638	0.0621001	-0.0665707	-0.0016603	2.45431	-4.01141	6.05587	1.19473	1.00386	0.401592	0.22903	0.0236144	0.0482824	0.0413846	-0.94243	0.447885	0.0434073	-0.445708	-0.00933255	-0.0440369	0.0162571
0.0399501	-11.105	-1.93075	9.61887	9.15842	87.3453	24.5074	1.32385	1.1735	-0.000920336	-1.32247	-0.162107	0.0577215	0.00375802	4.01003	-0.847863	-0.220008	-2.43966	-0.0839565	-0.00381035	0.00344764	-2.56332	-5.24743	6.9874	1.24788	0.884055	0.377931	0.0212722	0.0207922	0.0208708	0.0535868	-1.25901	0.605012	0.124662	-0.717942	-0.0099466	-0.070722	0.0426174
0.0499377	-11.0154	-0.364037	9.56417	14.3955	118.797	24.1848	1.2378	0.978898	-0.138131	-1.66023	-0.206007	0.0535806	0.00507564	6.42374	0.216391	-0.332231	-3.84119	-0.20785	0.0564521	0.00730973	-7.08339	-5.51821	7.16288	1.19488	0.613741	0.297562	-0.177716	0.0153506	-0.00816778	0.0579777	-1.35671	0.825609	0.222264	-0.888881	-0.00826814	-0.085933	0.0656529
0.0599252	-10.1457	0.15377	9.42578	19.8387	158.942	22.3024	1.78963	1.09121	-0.352754	-2.27581	-0.259444	0.067751	0.00654616	7.65987	0.719222	-0.363773	-4.82473	-0.320601	0.0926398	0.0104943	-12.0117	-5.27315	6.87195	1.14855	0.247323	0.17943	-0.397961	0.00780725	-0.0416151	0.058852	-1.2417	1.10161	0.330531	-1.01684	-0.00545224	-0.0967704	0.0877769
0.0699127	-8.16262	1.05945	9.09804	27.5922	191.689	21.1727	2.48793	1.18769	-0.54968	-2.80697	-0.298021	0.0815442	0.0076237	8.37758	0.981656	-0.364058	-5.4377	-0.393254	0.112137	0.012436	-17.0891	-5.15507	6.12316	1.06789	-0.0855413	0.0615384	-0.585552	0.00017026	-0.0721388	0.057365	-1.01156	1.31395	0.424608	-1.08579	-0.00229025	-0.102119	0.106139
0.0799002	-6.17126	0.875669	8.53347	35.918	227.391	19.0364	3.29338	1.57223	-0.755689	-3.37553	-0.349932	0.106346	0.00883403	8.37227	1.03485	-0.344535	-5.77099	-0.463114	0.122025	0.0139995	-21.4465	-4.41519	5.21964	1.11382	-0.402432	-0.0570845	-0.720063	-0.00706814	-0.0961551	0.0522339	-0.58967	1.49497	0.4882	-1.08378	0.000501007	-0.101869	0.116173
0.0898878	-4.73866	0.558164	8.03025	44.0419	259.602	17.2095	4.18951	1.81836	-0.912872	-3.91977	-0.397762	0.127584	0.00999679	7.99123	0.803823	-0.286709	-5.89867	-0.518791	0.120617	0.0151079	-24.829	-3.74849	4.24658	1.23588	-0.668849	-0.166667	-0.797147	-0.0132716	-0.112926	0.044211	-0.0767611	1.64001	0.530829	-1.03151	0.0029947	-0.0969089	0.120302
0.0998753	-3.37018	0.541419	7.25532	46.8464	288.936	14.1395	4.39891	2.02745	-0.976846	-4.20203	-0.451659	0.144266	0.01108	6.9646	0.833096	-0.277123	-5.77745	-0.574564	0.125702	0.0158758	-26.6575	-3.12245	3.25782	1.40437	-0.8895	-0.264728	-0.829182	-0.018327	-0.122986	0.0340528	0.491387	1.75716	0.553015	-0.941695	0.00515348	-0.0881943	0.11876
0.109863	-2.15771	0.256515	6.46407	49.8752	323.36	12.2664	4.02522	2.19229	-0.943593	-4.35925	-0.537856	0.157407	0.0127817	5.35652	0.477795	-0.189664	-5.51169	-0.657965	0.125641	0.0171707	-27.2989	-2.67715	2.25609	1.83721	-1.06573	-0.367343	-0.761374	-0.022282	-0.121871	0.0166588	1.30392	1.85608	0.544936	-0.76701	0.00672715	-0.0717078	0.107278
0.11985	0.21249	-0.462634	4.35656	41.4573	356.095	5.75344	1.76225	2.44428	-0.804533	-3.96593	-0.662967	0.165203	0.0148893	2.18367	0.536073	-0.140067	-4.75806	-0.774247	0.141579	0.0186043	-24.906	-1.39327	1.19059	2.38647	-1.19315	-0.455463	-0.612618	-0.0245781	-0.108179	-0.00529862	2.27958	1.88295	0.480052	-0.500089	0.0073423	-0.0475211	0.0813937
0.129838	6.53507	-1.3038	1.25889	22.185	397.285	2.17596	-3.4556	3.07902	-0.514227	-2.8376	-0.878093	0.168406	0.0183257	-3.53494	0.124495	0.0161698	-3.35138	-0.968601	0.160871	0.0211755	-20.1647	-0.402913	0.060836	3.29623	-1.17742	-0.522687	-0.322461	-0.0242886	-0.0763984	-0.0349969	3.58656	1.77866	0.336686	-0.117805	0.00591823	-0.0144133	0.0373071
0.139825	5.64562	-1.63106	-1.0213	7.28764	437.075	1.20469	-7.95037	3.7165	-0.207242	-2.04119	-1.12106	0.175778	0.0227301	-8.40548	0.0549345	0.0707322	-2.36418	-1.19285	0.194651	0.0246352	-10.7071	-0.507951	-1.24929	4.74649	-1.03331	-0.599949	0.225606	-0.0208367	-0.0145557	-0.0845509	5.43471	1.594	0.114217	0.487524	0.00327427	0.0408769	-0.0333244
0.149813	37.2866	3.43943	-11.2404	-72.9624	502.47	-24.036	-27.7081	2.86436	1.31291	3.00478	-1.6278	0.079278	0.0299705	-27.4194	1.46862	0.132557	3.06726	-1.71695	0.311079	0.0300742	0.79256	2.35737	-2.8459	6.0997	-0.974281	-0.67465	0.695666	-0.0186989	0.042999	-0.130179	7.40336	1.3592	-0.161954	1.1221	-8.61836e-05	0.0950259	-0.113786
0.1598	36.0821	-2.79676	-14.7484	-101.121	540.066	-25.3573	-33.5041	4.85779	1.43747	4.31483	-1.90757	0.112005	0.0343948	-32.7076	-0.106364	0.530766	4.1387	-1.9425	0.310375	0.0339702	13.637	4.34756	-3.636	7.61605	-0.751636	-0.697892	1.2522	-0.0127885	0.113136	-0.174869	9.16687	1.04871	-0.46654	1.73054	-0.00556003	0.146285	-0.197868
0.169788	35.2757	-4.39579	-16.5943	-116.197	571.415	-29.1131	-36.5429	5.37261	1.59252	4.81034	-2.07133	0.120626	0.0373322	-35.7431	-0.346079	0.642888	4.65976	-2.09628	0.328295	0.0365716	19.9548	5.26722	-4.1175	8.53968	-0.681782	-0.735778	1.52308	-0.0111597	0.145534	-0.200732	10.2369	0.939404	-0.613764	2.05121	-0.00810565	0.173343	-0.241013
0.179776	37.3145	-5.8104	-17.3733	-119.212	596.792	-30.8133	-37.7676	5.89282	1.59784	4.98987	-2.16232	0.13598	0.0388964	-37.151	-0.727039	0.742063	4.85621	-2.17908	0.32969	0.0381364	20.1629	6.14982	-4.12209	8.99849	-0.706754	-0.764773	1.5727	-0.0122181	0.1493	-0.208198	10.6663	0.945594	-0.651061	2.13083	-0.00910945	0.178033	-0.251903
0.189763	40.375	-4.58788	-16.8823	-117.94	608.025	-28.9786	-37.2259	5.88107	1.54679	4.84012	-2.14723	0.139595	0.03861	-36.9336	-0.642253	0.703377	4.77517	-2.17357	0.330797	0.0380423	15.7405	5.80424	-3.9986	8.81065	-0.744177	-0.762352	1.37981	-0.0151064	0.124339	-0.195026	10.3993	0.99588	-0.5878	1.95055	-0.00862552	0.159817	-0.230573
0.199751	50.5399	-2.25587	-15.9894	-114.559	609.365	-26.2194	-36.5715	5.69506	1.48453	4.90523	-2.06666	0.135446	0.0367722	-36.7365	-0.7114	0.672641	4.96439	-2.10464	0.316769	0.0365656	5.14739	5.31591	-3.48144	7.952	-0.872789	-0.739079	0.920814	-0.0206464	0.0666315	-0.159172	9.34016	1.16073	-0.40052	1.48667	-0.00620064	0.115944	-0.172102
0.209738	42.0492	6.06024	-10.0027	-66.6167	598.04	-26.4015	-26.3129	2.65828	1.26051	1.86068	-1.76425	0.113532	0.033301	-27.9215	1.63559	0.064538	2.49391	-1.87276	0.328359	0.0333964	-9.84297	2.34364	-2.86917	6.8358	-1.22352	-0.798896	0.367797	-0.0302958	-0.0115738	-0.125414	8.00093	1.67997	-0.0316188	0.902926	0.00121883	0.0693329	-0.081668
0.219726	6.41358	-2.1824	-1.58043	14.7997	583.914	0.747458	-8.27811	4.60634	-0.193249	-3.13144	-1.48563	0.250284	0.0304576	-10.857	-0.333428	0.115081	-2.94344	-1.53732	0.226566	0.0316933	-15.3703	0.247553	-2.33558	6.95728	-1.17033	-0.800455	0.360677	-0.030731	-0.0194642	-0.122453	7.7967	1.74143	0.0417306	0.788469	0.00159801	0.0596018	-0.0622877
0.229713	3.82794	-0.41214	-0.994454	23.8606	598.015	-3.19575	-6.55646	3.72676	-0.182901	-3.79762	-1.47331	0.245179	0.0308691	-9.26124	0.498135	-0.0559435	-3.54736	-1.53734	0.242792	0.0319437	-17.7191	0.344735	-2.35946	6.98427	-1.24278	-0.824068	0.291411	-0.0329753	-0.030796	-0.120306	7.83145	1.83087	0.084089	0.732292	0.00251636	0.0542407	-0.0524989
0.239701	6.57907	-0.735034	0.146907	35.1561	604.062	0.0335884	-3.63262	3.88269	-0.448245	-4.52864	-1.39176	0.2672	0.0294374	-6.91245	0.0679421	-0.0303045	-4.13539	-1.44306	0.214165	0.0306066	-26.4103	0.522246	-2.06979	6.26712	-1.35704	-0.80347	-0.0915508	-0.0376308	-0.0784731	-0.0901186	7.03129	1.96952	0.231321	0.350447	0.00444628	0.0173721	-0.00519706
0.249688	15.8811	-1.8896	0.336618	31.1478	617.242	8.32443	-4.03823	5.04951	-0.617029	-4.22688	-1.39922	0.295008	0.0288651	-8.32963	-1.29665	0.171275	-3.57344	-1.42799	0.178687	0.0300984	-33.2182	0.197965	-1.82322	5.77615	-1.35208	-0.763037	-0.37686	-0.0401266	-0.113215	-0.0647483	6.42674	2.00743	0.324233	0.0336402	0.0048162	-0.014465	0.0301969
0.259676	22.2118	-2.06469	0.275578	25.1261	633.123	10.9846	-4.85249	5.61386	-0.646565	-3.97692	-1.43612	0.31092	0.0291506	-10.3277	-1.93847	0.260845	-2.88671	-1.44787	0.163355	0.029945	-36.5224	0.00786255	-1.66511	5.63282	-1.347	-0.747348	-0.505107	-0.0413954	-0.129582	-0.0535826	6.20929	2.04883	0.37157	-0.124243	0.00490062	-0.0304515	0.0475125
0.269663	24.6665	-2.28242	0.151904	17.883	645.147	11.6678	-5.48596	5.80345	-0.592343	-3.86715	-1.47592	0.318925	0.0297506	-12.3201	-2.39888	0.316871	-2.19537	-1.46722	0.151237	0.0296469	-36.3576	-0.09158	-1.59353	5.74822	-1.2806	-0.730124	-0.493731	-0.0406652	-0.127865	-0.0524427	6.27212	2.01641	0.356545	-0.147177	0.00398445	-0.0339173	0.0466964
0.279651	28.2462	-2.24992	0.203485	11.3435	654.299	13.8129	-6.38658	6.41736	-0.563521	-3.60567	-1.52481	0.337358	0.030295	-14.6552	-2.68757	0.329157	-1.39368	-1.4745	0.13943	0.0288454	-36.3324	-0.556188	-1.47139	5.89799	-1.18372	-0.709083	-0.449361	-0.0393599	-0.122821	-0.0527069	6.32719	1.95971	0.337266	-0.157454	0.00287864	-0.0360144	0.044904
0.289638	30.0794	-2.74284	0.225058	7.84816	662.831	14.5417	-6.62762	6.85676	-0.531882	-3.58712	-1.57094	0.357567	0.031002	-17.1479	-3.02738	0.345258	-0.444645	-1.47794	0.122607	0.0277919	-35.1659	-0.569638	-1.34943	6.21584	-1.05631	-0.685254	-0.331435	-0.0370915	-0.108554	-0.0574227	6.53712	1.84924	0.279201	-0.0955319	0.000966719	-0.0324648	0.0332285
0.299626	26.178	-2.90607	0.150455	7.19496	671.354	15.1857	-6.81393	6.51184	-0.511588	-3.66088	-1.61311	0.349112	0.0322722	-15.5724	-3.0876	0.367451	-1.24843	-1.54197	0.137413	0.0301555	-33.4428	-0.744051	-1.33335	6.48453	-0.966647	-0.673294	-0.239787	-0.0355186	-0.0972911	-0.0625776	6.75814	1.78126	0.235034	-0.0410111	-0.000319536	-0.028524	0.0232021
0.309613	20.9502	-2.89333	-0.394355	4.34672	674.39	12.3504	-7.08706	6.38006	-0.561663	-3.62879	-1.64806	0.341854	0.0332741	-14.1137	-2.2061	0.252839	-1.95604	-1.60551	0.177653	0.0321096	-30.0338	-0.494816	-1.45641	6.77665	-0.887275	-0.665357	-0.111562	-0.0336529	-0.0805628	-0.0712281	7.07385	1.69661	0.170046	0.0763249	-0.00151826	-0.0184496	0.00595133
0.319601	16.184	-2.68498	-0.832497	3.1569	676.274	6.98645	-6.98515	6.27695	-0.632498	-3.70343	-1.67321	0.339848	0.0340705	-12.898	-0.958134	0.0787377	-2.53583	-1.65653	0.22153	0.0335254	-27.1431	-0.0111145	-1.54093	7.02988	-0.866251	-0.672135	0.00109621	-0.0326077	-0.066757	-0.0802149	7.356	1.66859	0.127138	0.189493	-0.00194863	-0.00797786	-0.0080586
0.329589	11.3123	-0.882063	-0.973466	1.26604	675.673	0.856381	-6.78806	5.35603	-0.575219	-3.85927	-1.67799	0.317612	0.0347359	-12.1847	0.288257	-0.0979356	-2.85197	-1.70027	0.261948	0.0345247	-23.9792	-0.0217441	-1.74183	7.26502	-0.833818	-0.680933	0.118005	-0.0315846	-0.0525868	-0.0902505	7.65994	1.6341	0.0859962	0.311713	-0.00215488	0.00407406	-0.0223561
0.339576	7.59471	1.48713	-1.06321	-0.271155	673.016	-7.71131	-6.71301	4.19491	-0.464431	-3.9325	-1.67205	0.290286	0.0351319	-11.6834	1.78436	-0.309903	-3.04263	-1.72745	0.303181	0.0349457	-21.517	0.128019	-1.84795	7.41406	-0.851635	-0.698087	0.201201	-0.0312935	-0.0430846	-0.0986485	7.86252	1.65458	0.0713302	0.404502	-0.00167261	0.0141163	-0.0312375
0.349564	4.06545	0.564369	-0.837189	0.401225	668.225	-9.03993	-6.01291	4.1367	-0.483157	-3.99365	-1.66108	0.290644	0.0350243	-10.8932	1.83984	-0.302159	-3.26634	-1.7227	0.305694	0.0350952	-19.6157	0.30894	-1.70886	7.56179	-0.823717	-0.695234	0.280452	-0.0301637	-0.0333623	-0.103741	7.94274	1.63406	0.0485962	0.459532	-0.00206323	0.0194482	-0.0385576
0.359551	8.17996	3.41054	-1.68898	-12.2437	667.245	-20.1273	-8.28332	2.93656	-0.181186	-3.27118	-1.66805	0.24873	0.0349797	-13.1797	2.95673	-0.415161	-2.45032	-1.76726	0.339749	0.0350514	-18.7345	0.86072	-1.6719	7.48136	-0.911467	-0.713287	0.255211	-0.0312328	-0.036687	-0.104543	7.89628	1.73089	0.0792444	0.453136	-0.000742169	0.0205409	-0.0349695
0.369539	8.52496	2.04053	-2.09764	-17.9033	659.897	-24.3287	-8.94251	2.90484	-0.0868368	-2.77118	-1.65338	0.240887	0.0342343	-13.6414	2.68742	-0.319872	-2.16986	-1.75377	0.332164	0.0346413	-17.2794	1.65104	-1.44333	7.46523	-0.954	-0.715257	0.269673	-0.0310487	-0.0342172	-0.10562	7.81965	1.77451	0.0847801	0.461268	-0.000360392	0.0219698	-0.0357628
0.379526	12.7735	-3.49654	-3.15052	-26.9091	651.932	-17.3974	-10.4949	4.95017	-0.198012	-1.74751	-1.66571	0.271005	0.0330409	-14.7473	0.517403	0.0803149	-1.67332	-1.72755	0.281316	0.0342579	-16.6645	2.47756	-1.17052	7.4124	-0.876289	-0.673575	0.273434	-0.0293739	-0.0309829	-0.100227	7.62906	1.68189	0.0558809	0.429246	-0.00169888	0.0167853	-0.037312
0.389514	5.33124	0.390988	-1.85053	-14.6093	634.955	-23.4217	-8.45885	2.67854	0.0615687	-2.36945	-1.55234	0.219692	0.0315774	-11.9338	1.96946	-0.150172	-2.42844	-1.65637	0.303657	0.0330142	-15.2953	1.74877	-1.38494	7.43342	-0.895032	-0.695989	0.35659	-0.0293958	-0.0231158	-0.109084	7.74545	1.70418	0.0652955	0.522555	-0.000318282	0.0286503	-0.0417237
0.399501	12.8358	2.02777	-3.29679	-21.9491	623.52	-23.6571	-11.9536	1.93872	0.442491	-1.12086	-1.52784	0.164417	0.0301939	-13.6567	1.3909	0.00755349	-1.69736	-1.64658	0.291572	0.0322933	-15.645	1.97995	-1.70785	7.2895	-0.77393	-0.652571	0.3667	-0.0281359	-0.0200118	-0.10433	7.68381	1.5391	0.0284164	0.541197	-0.00113045	0.0283853	-0.0452828
0.409489	3.7757	-1.36752	-2.7072	-4.10006	604.562	-15.5744	-9.57338	2.07953	0.472528	-1.41787	-1.42162	0.163996	0.027717	-9.03044	0.243768	0.176202	-3.05702	-1.52192	0.249002	0.0310895	-13.6853	2.05758	-1.83971	7.48814	-0.605899	-0.614515	0.520484	-0.025053	3.68336e-05	-0.109867	7.85764	1.32635	-0.0572816	0.670302	-0.00307327	0.0382517	-0.0636288
0.419476	2.32589	2.03508	-1.98834	-3.58723	590.846	-20.8122	-8.12499	1.20696	0.445166	-1.9601	-1.38869	0.16058	0.027875	-9.2998	1.64663	-0.0561514	-2.73222	-1.49992	0.275195	0.0300948	-13.6267	1.35952	-2.17794	7.20941	-0.620959	-0.616292	0.477275	-0.0258816	-0.00524958	-0.108158	7.74174	1.34985	-0.0223575	0.658213	-0.00138804	0.0398083	-0.057319
0.429464	3.19199	2.00432	-1.5257	-7.91364	575.928	-20.211	-7.55549	1.52958	0.356985	-1.96775	-1.37695	0.179403	0.0276996	-10.0139	1.39157	-0.0444514	-2.28398	-1.46582	0.259238	0.0292447	-13.5289	0.828193	-2.13146	6.92127	-0.599764	-0.596724	0.425465	-0.0256208	-0.010115	-0.102703	7.44589	1.35014	0.00593377	0.592338	-0.000703166	0.035323	-0.0490447
0.439451	6.56703	-0.0723689	-2.03785	-14.6578	559.268	-14.4339	-8.31045	2.74655	0.255245	-1.42271	-1.37755	0.203451	0.0270733	-10.9278	0.145592	0.137759	-1.77652	-1.42388	0.221471	0.0284011	-13.3315	0.674464	-2.15644	6.64923	-0.463485	-0.537674	0.393541	-0.0236888	-0.0100757	-0.093487	7.14291	1.20266	-0.0170301	0.53549	-0.00177474	0.0286853	-0.0471784
0.449439	6.82473	2.54342	-1.87571	-13.5736	536.366	-14.7243	-8.69026	1.90447	0.4019	-1.21563	-1.32254	0.175677	0.0260447	-10.6038	0.603232	0.0525119	-1.64484	-1.37015	0.221504	0.0271354	-12.6653	-0.00369699	-2.3853	6.4298	-0.329649	-0.4936	0.419519	-0.02174	-0.00442327	-0.0902522	6.98007	1.04966	-0.0444155	0.552104	-0.00227166	0.0303274	-0.0501764
0.459426	3.58836	0.971804	-1.75989	-4.21835	510.903	-5.6081	-7.93887	2.17367	0.399822	-1.10959	-1.25132	0.172736	0.0243172	-8.13699	-0.512752	0.193183	-2.23616	-1.26706	0.17942	0.0258432	-11.552	-0.512751	-2.58873	6.36332	-0.0879011	-0.422135	0.511752	-0.0179452	0.0104933	-0.0877052	6.89853	0.764336	-0.126461	0.610005	-0.00457295	0.0332932	-0.0625442
0.469414	6.60157	1.15941	-2.75813	-7.7146	485.811	-1.7756	-10.4485	1.90172	0.712127	-0.00528724	-1.19411	0.132568	0.0221668	-8.00732	-1.25192	0.316699	-2.05443	-1.20151	0.155211	0.0245175	-10.1737	-0.456555	-2.71602	6.20277	0.127702	-0.345417	0.563713	-0.0143068	0.0220285	-0.0817819	6.7107	0.498829	-0.20296	0.637524	-0.00681822	0.0331474	-0.0727327
0.479401	6.55028	1.91323	-2.06698	-10.6099	458.206	0.336328	-8.43673	2.39913	0.391221	-0.622552	-1.13324	0.156506	0.0215605	-8.27063	-0.804921	0.20686	-1.6314	-1.13425	0.153598	0.0228364	-10.7641	-1.30282	-2.74245	5.59411	0.176248	-0.302308	0.4398	-0.0138091	0.0106559	-0.0687305	6.13608	0.467283	-0.159356	0.505592	-0.00590631	0.0229869	-0.0574299
0.489389	4.18386	3.61444	-0.858634	-8.27221	424.977	-2.04999	-5.93061	1.90918	0.181457	-1.36764	-1.04903	0.160931	0.0208487	-7.67919	0.193646	-0.0105051	-1.4559	-1.05003	0.159176	0.0209188	-10.7626	-1.8786	-2.4922	5.05183	0.169778	-0.275522	0.357576	-0.0131975	0.0034139	-0.0598911	5.54663	0.488781	-0.108756	0.401763	-0.00467225	0.0164988	-0.0437705
0.499377	3.44492	1.75865	-0.487679	-9.9449	395.066	1.27095	-4.45608	2.82571	-0.0884769	-1.57871	-0.998584	0.189169	0.0199835	-7.40493	-0.160933	-0.000579913	-1.25147	-0.969294	0.135859	0.0193644	-10.1344	-2.02526	-2.10028	4.63139	0.22388	-0.228956	0.306886	-0.0113129	0.00145974	-0.0504356	4.97946	0.435251	-0.0961629	0.305173	-0.00493063	0.00849473	-0.0359422
0.509364	1.76173	-0.522367	-0.175046	-11.8243	359.276	3.49799	-3.1007	3.44319	-0.275531	-1.72217	-0.927694	0.205483	0.0186836	-6.78799	-0.616449	0.0256473	-1.16307	-0.871617	0.107953	0.0175878	-8.54066	-1.86348	-1.54524	4.23386	0.261164	-0.183762	0.282351	-0.00892812	0.0033338	-0.0427561	4.37901	0.383396	-0.0927417	0.228237	-0.00537623	0.00249346	-0.0312627
0.519352	2.99822	1.43969	-0.291759	-19.4957	324.986	-2.09491	-3.74584	2.35102	-0.137508	-1.49167	-0.857542	0.166064	0.0176419	-7.72028	0.162427	-0.111012	-0.568788	-0.818105	0.11785	0.015925	-6.47315	-1.50904	-1.21961	3.83571	0.293435	-0.141373	0.260679	-0.00678888	0.00602594	-0.0360379	3.87849	0.318784	-0.0997519	0.186529	-0.005643	-0.000359763	-0.0300683
0.529339	2.27595	-1.06333	-0.831292	-22.1245	287.701	-0.241865	-3.74037	3.07674	-0.203719	-1.1163	-0.803256	0.171551	0.0162579	-7.63974	-0.197926	-0.0750485	-0.285097	-0.744712	0.0993737	0.0144466	-3.39151	-0.794109	-0.788582	3.63058	0.394773	-0.0836348	0.323256	-0.00294411	0.0197764	-0.0326055	3.47373	0.151323	-0.158951	0.205826	-0.0074762	0.000511465	-0.0397308
0.539327	0.328114	-4.05929	-1.63861	-26.0533	247.096	2.13316	-3.94494	3.54502	-0.207465	-0.727507	-0.74081	0.164687	0.0147924	-7.53824	-0.895123	0.0308009	0.00156143	-0.671315	0.0745109	0.0130616	1.31069	0.0919968	-0.370118	3.54179	0.54399	-0.0150585	0.442224	0.00213538	0.0418923	-0.0319321	3.15471	-0.0933536	-0.260822	0.279091	-0.0103579	0.00532982	-0.0590171
0.549314	1.18508	1.13748	-0.00844274	-20.9177	198.221	-2.33996	-2.25016	1.20251	-0.0692108	-1.11136	-0.53029	0.100407	0.0113318	-5.51093	0.585911	-0.24266	-0.190325	-0.49689	0.082195	0.00930544	-2.53329	-0.650262	-0.170532	2.35253	0.376912	-0.00648777	0.152433	-0.000416515	0.00859078	-0.0109597	2.06075	0.0930625	-0.0983748	0.012159	-0.00611825	-0.0128924	-0.0184285
0.559302	-3.08973	-0.270082	1.44102	-6.86163	145.307	3.85866	1.48247	1.07262	-0.262842	-1.72605	-0.326532	0.0979638	0.00752425	-1.43577	0.299782	-0.271514	-1.02152	-0.280645	0.0430987	0.0057511	-4.8061	-1.00507	0.313106	1.44149	0.287709	0.0180984	-0.0211959	-0.000659288	-0.00974136	0.00485252	1.06815	0.17129	0.00178038	-0.185811	-0.00392237	-0.0268517	0.00886552
0.569289	-7.49329	-1.01803	2.26461	1.14602	92.4609	8.78368	4.36059	0.826513	-0.401308	-2.14448	-0.133866	0.085715	0.00388969	2.1	0.317301	-0.329121	-1.69109	-0.0845764	0.0173312	0.0023836	-5.51407	-1.20893	0.482503	0.554174	0.273045	0.0643954	-0.179641	5.70626e-05	-0.0233492	0.0213674	0.199566	0.153174	0.0565897	-0.341	-0.00265263	-0.0383604	0.0272368
0.579277	-11.9676	-0.839845	3.17715	1.5155	45.7655	6.45026	6.1941	-0.0155349	-0.419626	-2.39269	0.031263	0.0592161	0.000844038	4.33474	0.753895	-0.422242	-1.99806	0.0659335	0.00541289	-0.000418032	-4.11542	-1.31646	0.861818	-0.117346	0.141879	0.0662048	-0.2866	-0.000115921	-0.0324475	0.0282667	-0.489095	0.270504	0.126242	-0.434993	-0.000363915	-0.0418395	0.0413016
0.589264	-13.5784	-1.45319	2.66162	-1.83163	22.081	3.39538	5.91102	-0.255955	-0.407239	-2.03852	0.0953105	0.0382364	-0.000658887	4.7993	0.911985	-0.418417	-1.88613	0.120851	0.00314178	-0.00160818	-1.693	-0.67003	0.975161	-0.294487	0.123865	0.0801066	-0.278015	0.0010266	-0.0276479	0.0291068	-0.680297	0.245308	0.10857	-0.410953	-0.000410061	-0.0389011	0.0363998
0.599252	-14.7162	-0.783769	3.28366	2.88065	0.130675	5.683	6.93955	-0.684534	-0.387192	-2.21781	0.180668	0.0233027	-0.00222157	6.1271	1.02305	-0.434994	-2.12831	0.188658	-0.00118812	-0.00275287	-2.45809	-1.1289	1.01595	-0.658114	0.0961545	0.0863634	-0.334063	0.000899621	-0.033546	0.0337309	-1.00751	0.260935	0.143045	-0.464371	0.00059396	-0.0417054	0.0451951
0.609239	-15.8689	-2.08077	2.95431	5.08092	-2.30083	6.19088	7.08599	-0.442812	-0.401091	-2.17398	0.182598	0.0269478	-0.00238805	6.33601	0.759259	-0.356113	-2.1554	0.184123	-0.00458188	-0.0025303	-1.38491	-0.748669	1.06055	-0.5075	0.117551	0.0883799	-0.266096	0.00183762	-0.0250081	0.0297297	-0.899207	0.208457	0.108332	-0.404313	-0.000209998	-0.0371042	0.0365041
0.619227	-5.19756	1.28334	0.819313	-13.4842	2.41259	4.05833	1.21652	-0.554639	-0.113275	-0.365498	0.0891255	-0.0221674	-0.00144739	1.15438	0.965693	-0.269964	-0.379354	0.0582363	0.0257256	-0.00150932	0.828784	-0.664317	0.492765	-0.284175	0.341805	0.140752	-0.155439	0.00493059	-0.00759473	0.0281126	-0.578769	-0.0766087	-0.00949644	-0.278125	-0.00311492	-0.0297659	0.0137165
0.629214	-23.311	-4.09886	1.93378	0.287082	-5.43155	3.84068	6.09771	-0.389306	-0.312394	-1.86362	0.130929	0.0191671	-0.00138566	6.11673	0.670914	-0.253142	-2.08772	0.129126	0.0056503	-0.0013844	7.44916	-0.196723	0.914313	0.404002	0.313666	0.105805	0.0968712	0.00717497	0.0230852	0.00584148	-0.107147	-0.0959664	-0.0987914	-0.0487591	-0.00461012	-0.00807814	-0.0171269
0.639202	-22.2926	-0.266417	2.24544	-9.22926	-4.22462	-0.43237	4.34027	-1.51027	-0.0594161	-1.74645	0.106805	-0.0169584	-0.000510583	4.26751	1.81847	-0.405995	-1.61691	0.0610357	0.0460182	-0.000661126	9.97626	-0.890771	0.740282	0.603174	0.376864	0.106353	0.184404	0.00833076	0.0345346	-0.00131236	0.115983	-0.178792	-0.146684	0.0444194	-0.00542603	0.000653196	-0.0303716
0.64919	-5.16238	0.718267	-0.717005	-0.87418	-7.42904	-0.224776	-1.74948	-0.895953	0.243655	0.243763	-0.0413054	-0.0481187	0.00147349	-1.63035	1.4026	-0.210997	0.508771	-0.11243	0.0600683	0.00157812	9.24396	1.03894	0.661511	1.23254	0.62965	0.156017	0.528159	0.0137566	0.0750813	-0.0138379	0.57913	-0.64089	-0.335065	0.34156	-0.0104814	0.0200326	-0.0697266
0.659177	-7.97093	-0.342784	-1.07622	-3.82463	-7.25699	0.165624	-2.16798	-0.683975	0.262922	0.302012	-0.073055	-0.0447307	0.00215405	-1.69241	1.13511	-0.157008	0.451384	-0.134648	0.0567056	0.00220697	12.7024	1.09315	0.561333	1.59521	0.71303	0.162546	0.663843	0.0157284	0.0930917	-0.0230804	0.890361	-0.777415	-0.419271	0.47675	-0.01235	0.0308668	-0.0909087
0.669165	-7.37962	-0.611642	-0.522346	-1.84857	-9.14835	2.19807	-1.00828	-0.587575	0.174398	-0.0487459	-0.0335467	-0.0346116	0.00144801	-0.894804	0.601783	-0.0815596	0.225178	-0.0876501	0.0344788	0.00158408	9.95829	0.565986	0.512135	1.22665	0.585691	0.135694	0.517797	0.0128008	0.0731425	-0.0168602	0.627365	-0.613525	-0.32535	0.35836	-0.0097792	0.0230621	-0.0699915
0.679152	-38.2124	8.85132	7.45014	7.2729	-15.622	-5.4448	9.53543	-5.51098	0.125752	-3.95947	0.242899	-0.070839	-0.000686434	8.95964	4.81347	-0.9599	-3.11629	0.1311	0.105096	-0.00165119	11.3519	-4.94445	-0.0636625	0.569446	0.229231	0.00715979	0.198723	0.00409433	0.029726	-0.0197217	0.523049	0.0166074	-0.0629553	0.166857	-0.000512159	0.0221978	-0.0274825
0.68914	0	0	0	0	0	0	0	0	0	0	0	0	0	0	0	0	0	0	0	0	0	0	0	0	0	0	0	0	0	0	0	0	0	0	0	0	0
