nColumns=19
nRows=204
DataType=double
version=3
OpenSimVersion=4.1
endheader
time	ground_force_calcn_l_vx	ground_force_calcn_l_vy	ground_force_calcn_l_vz	ground_force_calcn_l_px	ground_force_calcn_l_py	ground_force_calcn_l_pz	ground_force_calcn_l_mx	ground_force_calcn_l_my	ground_force_calcn_l_mz	ground_force_calcn_r_vx	ground_force_calcn_r_vy	ground_force_calcn_r_vz	ground_force_calcn_r_px	ground_force_calcn_r_py	ground_force_calcn_r_pz	ground_force_calcn_r_mx	ground_force_calcn_r_my	ground_force_calcn_r_mz
3.97	0	0	0	0	0.00448137	0	0	0	0	0	0	0	0	0.0047972	0	0	0	0
3.97999	12.1476	-53.4776	-2.86289	1.30924	-1.45364e-16	0.0975319	0.018592	-0.0818476	-0.00438166	0	0	0	0	-1.45364e-16	0	0	0	0
3.98998	8.98076	-41.2351	-1.21378	1.30918	-1.45352e-16	0.0984599	0.0118509	-0.0544132	-0.00160168	0	0	0	0	-1.45352e-16	0	0	0	0
3.99997	5.42431	-27.3246	0.543563	1.30909	-1.45336e-16	0.0993824	0.00557205	-0.0280688	0.000558367	0	0	0	0	-1.45336e-16	0	0	0	0
4.00996	1.16796	-10.3921	2.47913	1.30895	-1.45312e-16	0.100338	0.000480466	-0.00427502	0.00101984	0	0	0	0	-1.45312e-16	0	0	0	0
4.01995	-4.11783	11.0292	4.64727	1.30811	-1.45274e-16	0.100766	-0.00397296	0.0106412	0.00448378	0	0	0	0	-1.45274e-16	0	0	0	0
4.02994	-10.7345	38.3226	7.06723	1.3079	-1.45217e-16	0.101639	-0.00573183	0.0204628	0.00377363	0	0	0	0	-1.45217e-16	0	0	0	0
4.03992	-18.907	72.5808	9.7055	1.30722	-1.45133e-16	0.102267	-0.00404569	0.0155307	0.00207676	0	0	0	0	-1.45133e-16	0	0	0	0
4.04991	-28.7376	114.406	12.4625	1.30621	-1.45018e-16	0.102644	0.00223931	-0.00891479	-0.000971111	0	0	0	0	-1.45018e-16	0	0	0	0
4.0599	-40.1694	163.742	15.1669	1.30485	-1.44864e-16	0.102788	0.0140069	-0.0570961	-0.00528865	0	0	0	0	-1.44864e-16	0	0	0	0
4.06989	-52.9677	219.782	17.5819	1.30311	-1.44669e-16	0.10273	0.0318809	-0.132285	-0.0105824	0	0	0	0	-1.44669e-16	0	0	0	0
4.07988	-66.7267	280.986	19.4263	1.30099	-1.44432e-16	0.1025	0.0560444	-0.236003	-0.0163163	0	0	0	0	-1.44432e-16	0	0	0	0
4.08987	-80.9077	345.243	20.4124	1.29851	-1.44156e-16	0.102127	0.0860291	-0.367097	-0.0217045	0	0	0	0	-1.44156e-16	0	0	0	0
4.09986	-94.9025	410.159	20.2978	1.29568	-1.43843e-16	0.101637	0.120528	-0.52091	-0.0257785	0	0	0	0	-1.43843e-16	0	0	0	0
4.10985	-108.104	473.406	18.9387	1.29254	-1.43494e-16	0.101054	0.157294	-0.688818	-0.0275563	0	0	0	0	-1.43494e-16	0	0	0	0
4.11984	-119.961	533.008	16.331	1.28911	-1.43115e-16	0.100401	0.193199	-0.858416	-0.0263013	0	0	0	0	-1.43115e-16	0	0	0	0
4.12983	-130.014	587.486	12.6203	1.28544	-1.42709e-16	0.0997025	0.224535	-1.01459	-0.0217953	0	0	0	0	-1.42709e-16	0	0	0	0
4.13982	-137.907	635.864	8.08125	1.28159	-1.42283e-16	0.0989832	0.247565	-1.14148	-0.0145072	0	0	0	0	-1.42283e-16	0	0	0	0
4.14981	-143.388	677.577	3.07072	1.27762	-1.41843e-16	0.0982674	0.259238	-1.22502	-0.00555169	0	0	0	0	-1.41843e-16	0	0	0	0
4.1598	-146.319	712.345	-2.02977	1.2736	-1.41399e-16	0.0975766	0.257867	-1.25541	0.0035772	0	0	0	0	-1.41399e-16	0	0	0	0
4.16978	-146.671	740.074	-6.86877	1.26959	-1.40954e-16	0.0969276	0.243526	-1.22878	0.0114046	0	0	0	0	-1.40954e-16	0	0	0	0
4.17977	-144.537	760.79	-11.1661	1.26563	-1.40516e-16	0.0963308	0.21804	-1.14768	0.0168444	0	0	0	0	-1.40516e-16	0	0	0	0
4.18976	-140.12	774.619	-14.7364	1.26175	-1.40085e-16	0.0957887	0.18458	-1.0204	0.0194122	0	0	0	0	-1.40085e-16	0	0	0	0
4.19975	-133.725	781.786	-17.4958	1.25794	-1.39662e-16	0.0952969	0.147024	-0.859536	0.0192358	0	0	0	0	-1.39662e-16	0	0	0	0
4.20974	-125.731	782.634	-19.4524	1.25419	-1.39245e-16	0.0948446	0.109247	-0.680028	0.0169022	0	0	0	0	-1.39245e-16	0	0	0	0
4.21973	-116.569	777.642	-20.686	1.25045	-1.3883e-16	0.0944171	0.0745277	-0.497182	0.0132255	0	0	0	0	-1.3883e-16	0	0	0	0
4.22972	-106.68	767.432	-21.3201	1.24668	-1.38411e-16	0.0939975	0.0451755	-0.324982	0.00902837	0	0	0	0	-1.38411e-16	0	0	0	0
4.23971	-96.489	752.768	-21.4931	1.24283	-1.37982e-16	0.0935698	0.0224248	-0.174949	0.00499517	0	0	0	0	-1.37982e-16	0	0	0	0
4.2497	-86.3754	734.542	-21.3341	1.23884	-1.37539e-16	0.0931207	0.00654	-0.0556166	0.00161533	0	0	0	0	-1.37539e-16	0	0	0	0
4.25969	-76.6536	713.74	-20.9474	1.23469	-1.37078e-16	0.0926409	-0.00294451	0.0274171	-0.000804656	0	0	0	0	-1.37078e-16	0	0	0	0
4.26968	-67.5614	691.4	-20.4076	1.23036	-1.36597e-16	0.0921266	-0.00694344	0.0710567	-0.00209734	0	0	0	0	-1.36597e-16	0	0	0	0
4.27967	-59.2562	668.554	-19.7642	1.22583	-1.36094e-16	0.0915785	-0.0065715	0.0741426	-0.00219185	0	0	0	0	-1.36094e-16	0	0	0	0
4.28966	-51.8176	646.179	-19.0512	1.22112	-1.35571e-16	0.0910017	-0.00296268	0.0369454	-0.00108926	0	0	0	0	-1.35571e-16	0	0	0	0
4.29965	-45.256	625.139	-18.2989	1.21626	-1.35032e-16	0.090404	0.00283515	-0.039163	0.00114637	0	0	0	0	-1.35032e-16	0	0	0	0
4.30963	-39.5235	606.155	-17.5426	1.21129	-1.3448e-16	0.0897944	0.00990162	-0.151857	0.00439487	0	0	0	0	-1.3448e-16	0	0	0	0
4.31962	-34.527	589.78	-16.8258	1.20624	-1.33921e-16	0.0891823	0.0174398	-0.297902	0.00849884	0	0	0	0	-1.33921e-16	0	0	0	0
4.32961	-30.1406	576.399	-16.1986	1.20117	-1.33359e-16	0.0885764	0.0247451	-0.473217	0.0132989	0	0	0	0	-1.33359e-16	0	0	0	0
4.3396	-26.2171	566.244	-15.7125	1.19612	-1.328e-16	0.0879847	0.0311624	-0.673053	0.0186763	0	0	0	0	-1.328e-16	0	0	0	0
4.34959	-22.5975	559.421	-15.4131	1.19113	-1.32247e-16	0.0874145	0.0360445	-0.892311	0.0245848	0	0	0	0	-1.32247e-16	0	0	0	0
4.35958	-19.1194	555.944	-15.3337	1.18623	-1.31704e-16	0.0868728	0.038723	-1.12596	0.0310556	0	0	0	0	-1.31704e-16	0	0	0	0
4.36957	-15.6224	555.765	-15.49	1.18144	-1.31174e-16	0.0863665	0.0384968	-1.36952	0.0381705	0	0	0	0	-1.31174e-16	0	0	0	0
4.37956	-11.9528	558.802	-15.8776	1.1768	-1.3066e-16	0.085903	0.0346386	-1.61938	0.0460124	0	0	0	0	-1.3066e-16	0	0	0	0
4.38955	-7.96706	564.957	-16.4723	1.17232	-1.30164e-16	0.0854894	0.0264148	-1.87311	0.054614	0.514587	-3.52551	0.322336	0.606125	-1.30164e-16	0.184306	-0.000480599	0.00329265	-0.000301046
4.39954	-3.53479	574.118	-17.2335	1.16801	-1.29688e-16	0.0851327	0.0131111	-2.1295	0.0639218	0.921742	-5.75317	0.415901	0.606209	-1.29688e-16	0.184214	-0.000604226	0.00377135	-0.000272634
4.40953	1.45842	586.159	-18.1098	1.1639	-1.29233e-16	0.0848384	-0.0059423	-2.3883	0.0737881	1.44106	-8.50048	0.508958	0.606289	-1.29233e-16	0.184129	-0.000681481	0.0040199	-0.000240688
4.41952	7.10817	600.922	-19.0469	1.16001	-1.28802e-16	0.0846098	-0.0313438	-2.6498	0.0839883	2.06889	-11.7056	0.588996	0.606379	-1.28802e-16	0.184052	-0.000684431	0.00387245	-0.000194852
4.42951	13.488	618.2	-19.9953	1.15633	-1.28395e-16	0.0844475	-0.063579	-2.91403	0.0942526	2.7855	-15.2134	0.638134	0.606483	-1.28395e-16	0.183993	-0.00057157	0.00312171	-0.000130942
4.43949	20.6459	637.709	-20.917	1.15289	-1.28014e-16	0.0843483	-0.102949	-3.17988	0.104301	3.54883	-18.745	0.632566	0.606599	-1.28014e-16	0.183963	-0.000288812	0.00152552	-5.14798e-05
4.44948	28.5997	659.065	-21.7898	1.14968	-1.27659e-16	0.0843051	-0.149456	-3.44413	0.113869	4.28794	-21.8688	0.54254	0.606722	-1.27659e-16	0.183979	0.000236261	-0.00120495	2.98934e-05
4.45947	37.3338	681.761	-22.6075	1.14669	-1.27328e-16	0.084307	-0.202665	-3.70091	0.122724	4.89688	-23.976	0.333215	0.606843	-6.73727e-17	0.184057	0.00108752	-0.00532473	7.40022e-05
4.46946	46.7956	705.153	-23.3759	1.14392	-1.27021e-16	0.0843402	-0.261568	-3.94152	0.130662	5.23	-24.2682	-0.0332623	0.606942	-6.73842e-17	0.184216	0.00237075	-0.0110008	-1.50778e-05
4.47945	56.8931	728.452	-24.1056	1.14135	-1.26736e-16	0.0843887	-0.324501	-4.15487	0.137491	5.10035	-21.764	-0.594123	0.606986	-6.73915e-17	0.184456	0.00426502	-0.0181995	-0.000496818
4.48944	67.494	750.729	-24.8035	1.13895	-1.2647e-16	0.0844358	-0.389149	-4.32847	0.143009	4.28253	-15.3324	-1.38051	0.606854	-6.73915e-17	0.184669	0.00732952	-0.0262412	-0.00236274
4.49943	78.4241	770.927	-25.4642	1.13669	-1.26219e-16	0.0844657	-0.452657	-4.44972	0.146977	2.5219	-3.75966	-2.41017	0.603337	-6.73798e-17	0.182095	0.0140287	-0.0209141	-0.0134072
4.50942	89.4663	787.886	-26.064	1.13454	-1.2598e-16	0.084465	-0.511827	-4.50741	0.14911	-0.448548	14.1453	-3.67849	0.605795	-6.73515e-17	0.186813	0.00147214	-0.0464251	0.0120729
4.51941	100.358	800.384	-26.558	1.13248	-1.25751e-16	0.0844247	-0.563379	-4.49309	0.149088	-4.88305	39.411	-5.14887	0.606	-6.73006e-17	0.187979	0.00711212	-0.0574018	0.00749928
4.5294	110.794	807.181	-26.8814	1.13047	-1.25527e-16	0.0843423	-0.604241	-4.40217	0.146604	-10.9903	72.7372	-6.74352	0.605389	-6.72207e-17	0.189212	0.00967902	-0.0640586	0.00593892
4.53939	120.421	807.087	-26.9548	1.12848	-1.25307e-16	0.0842243	-0.631831	-4.23465	0.141427	-18.896	114.326	-8.33713	0.604389	-6.71054e-17	0.19059	0.0108368	-0.0655655	0.00478133
4.54938	128.855	799.035	-26.6936	1.1265	-1.25086e-16	0.0840892	-0.644317	-3.99543	0.133476	-28.6048	163.74	-9.75585	0.603	-6.69489e-17	0.192014	0.010514	-0.0601843	0.00358585
4.55937	135.687	782.169	-26.0195	1.1245	-1.24862e-16	0.0839707	-0.640827	-3.69406	0.122886	-39.9712	219.84	-10.7846	0.601198	-6.67476e-17	0.193411	0.00846879	-0.046578	0.00228495
4.56935	140.51	755.938	-24.8738	1.12246	-1.24634e-16	0.0839208	-0.621594	-3.34416	0.110038	-52.6853	280.828	-11.185	0.598986	-6.65012e-17	0.194737	0.00457612	-0.0243921	0.000971503
4.57934	142.951	720.183	-23.2303	1.12036	-1.244e-16	0.0840136	-0.587995	-2.9623	0.0955524	-66.2842	344.443	-10.7251	0.596375	-6.62109e-17	0.195976	-0.000980463	0.00509493	-0.000158644
4.58933	142.711	675.215	-21.1057	1.11821	-1.24159e-16	0.0843477	-0.542467	-2.5666	0.080226	-80.1924	408.279	-9.21766	0.593386	-6.58789e-17	0.197126	-0.00753103	0.0383423	-0.000865649
4.59932	139.603	621.862	-18.5639	1.11598	-1.23909e-16	0.0850474	-0.488275	-2.17502	0.0649288	-93.783	470.149	-6.55894	0.59005	-6.55085e-17	0.198194	-0.0137944	0.0691535	-0.000964744
4.60931	133.595	561.474	-15.7145	1.1137	-1.23653e-16	0.0862627	-0.429159	-1.80367	0.0504811	-106.443	528.339	-2.75634	0.586413	-6.51048e-17	0.19919	-0.0178851	0.0887745	-0.000463137
4.6193	124.834	495.881	-12.7028	1.11137	-1.23392e-16	0.0881644	-0.3689	-1.46538	0.0375381	-117.619	581.702	2.06623	0.582539	-6.46749e-17	0.200121	-0.0175294	0.0866946	0.000307942
4.62929	113.659	427.288	-9.69218	1.10902	-1.23127e-16	0.0909355	-0.310894	-1.16877	0.0265111	-126.846	629.601	7.68501	0.578508	-6.42274e-17	0.200991	-0.0105156	0.0521939	0.000637088
4.63928	100.589	358.129	-6.84394	1.10669	-1.22864e-16	0.094756	-0.25782	-0.917922	0.0175417	-133.77	671.762	13.8091	0.574411	-6.37724e-17	0.2018	0.00470283	-0.0236165	-0.000485473
4.64927	86.2849	290.863	-4.29591	1.10444	-1.22607e-16	0.0997784	-0.211445	-0.712773	0.0105273	-138.158	708.11	20.1192	0.57034	-6.33198e-17	0.202549	0.028454	-0.145837	-0.00414361
4.65926	71.492	227.771	-2.14669	1.10232	-1.22362e-16	0.106095	-0.172586	-0.549851	0.00518223	-139.915	738.651	26.305	0.566376	-6.28787e-17	0.203238	0.0595717	-0.314496	-0.0111999
4.66925	56.9616	170.756	-0.447725	1.10042	-1.22138e-16	0.113694	-0.141216	-0.42333	0.00110998	-139.084	763.397	32.0937	0.562578	-6.24555e-17	0.203867	0.0955097	-0.524227	-0.0220388
4.67924	43.3713	121.201	0.795653	1.09883	-1.21941e-16	0.122399	-0.11669	-0.32609	-0.00214069	-135.841	782.346	37.269	0.558979	-6.20539e-17	0.204445	0.132811	-0.764894	-0.0364376
4.68923	31.26	79.8996	1.61581	1.09762	-1.21777e-16	0.131795	-0.0980372	-0.25058	-0.00506748	-130.471	795.501	41.6801	0.555578	-6.16741e-17	0.204979	0.167772	-1.02293	-0.0535961
4.69922	20.9878	47.0561	2.07052	1.09687	-1.21648e-16	0.141101	-0.0843698	-0.189163	-0.0083234	-123.347	802.898	45.241	0.552349	-6.1313e-17	0.205484	0.197111	-1.28305	-0.072296
4.7092	12.727	22.3576	2.23048	1.09664	-1.2155e-16	0.148737	-0.0754625	-0.132566	-0.0132253	-114.889	804.644	47.9241	0.549241	-6.09654e-17	0.205975	0.218457	-1.53	-0.0911258
4.71919	6.47879	5.08273	2.16898	1.0972	-1.21481e-16	0.147452	-0.0634416	-0.0497711	-0.0212391	-105.534	800.961	49.7484	0.546188	-6.0624e-17	0.206467	0.230591	-1.75009	-0.1087
4.72918	2.10617	-5.77046	1.95467	1.10784	-1.21436e-16	0.163449	0.0252641	-0.0692183	0.0234468	-95.7025	792.203	50.7668	0.543115	-6.02806e-17	0.206976	0.233425	-1.93224	-0.123824
4.73917	-0.626552	-11.3603	1.64741	1.10577	-1.21409e-16	0.173658	-0.00285223	-0.0517149	0.00749945	-85.7714	778.879	51.054	0.539949	-5.99271e-17	0.207513	0.227781	-2.06845	-0.135583
4.74916	-2.01566	-12.8982	1.29674	1.11142	-1.21396e-16	0.178482	-0.00245737	-0.0157247	0.0015809	-76.0554	761.649	50.6978	0.536622	-5.95562e-17	0.208087	0.21508	-2.1539	-0.14337
4.75915	-2.38663	-11.5753	0.942325	1.1241	-1.21393e-16	0.182554	0.00442719	0.0214722	-0.00174801	-66.7951	741.31	49.7943	0.533083	-5.91621e-17	0.208703	0.19702	-2.18658	-0.146874
4.76914	-2.07176	-8.51973	0.615711	1.15289	-1.21396e-16	0.187017	0.0145321	0.0597603	-0.00431881	-58.1534	718.767	48.4458	0.529294	-5.87409e-17	0.209362	0.175319	-2.16691	-0.146053
4.77913	-1.39718	-4.78253	0.342699	1.23585	-1.21404e-16	0.194485	0.0291903	0.0999177	-0.00715975	-50.218	694.994	46.7605	0.52524	-5.82909e-17	0.210058	0.151541	-2.09726	-0.141107
4.78912	0	0	0	0	-5.78126e-17	0	0	0	0	-43.0098	670.986	44.8523	0.520927	-5.78126e-17	0.210786	0.127015	-1.98153	-0.132456
4.79911	0	0	0	0	-5.73087e-17	0	0	0	0	-36.4958	647.714	42.8381	0.516377	-5.73087e-17	0.211535	0.102825	-1.82489	-0.120694
4.8091	0	0	0	0	-5.67835e-17	0	0	0	0	-30.6027	626.084	40.834	0.511631	-5.67835e-17	0.212292	0.0798384	-1.63337	-0.106531
4.81909	0	0	0	0	-5.62428e-17	0	0	0	0	-25.2319	606.903	38.9477	0.50674	-5.62428e-17	0.213043	0.0587667	-1.41352	-0.0907118
4.82908	0	0	0	0	-5.5693e-17	0	0	0	0	-20.2713	590.864	37.2709	0.501764	-5.5693e-17	0.213774	0.040209	-1.172	-0.0739282
4.83906	0	0	0	0	-5.51411e-17	0	0	0	0	-15.6059	578.526	35.8717	0.496767	-5.51411e-17	0.21447	0.024686	-0.915135	-0.0567433
4.84905	0	0	0	0	-5.45941e-17	0	0	0	0	-11.1235	570.312	34.7897	0.491812	-5.45941e-17	0.215115	0.0126477	-0.648459	-0.0395567
4.85904	0	0	0	0	-5.40586e-17	0	0	0	0	-6.71918	566.503	34.0335	0.486962	-5.40586e-17	0.215693	0.0044643	-0.376391	-0.0226122
4.86903	0	0	0	0	-5.35407e-17	0	0	0	0	-2.29471	567.233	33.5835	0.482269	-5.35407e-17	0.216191	0.000412725	-0.102022	-0.00604031
4.87902	0	0	0	0	-5.30454e-17	0	0	0	0	2.24242	572.486	33.3975	0.477782	-5.30454e-17	0.216597	0.000677171	0.172881	0.0100855
4.88901	0.791658	-4.60521	-0.433967	-0.0689473	-5.25766e-17	0.0418936	-0.000595767	0.00346568	0.000326585	6.98154	582.091	33.4195	0.473534	-5.25766e-17	0.216905	0.00536891	0.447638	0.0257001
4.899	1.27127	-7.13099	-0.546441	-0.0688786	-5.21367e-17	0.0416746	-0.000996198	0.00558802	0.000428205	12.0106	595.733	33.5897	0.469549	-5.21367e-17	0.21711	0.0145597	0.722168	0.0407186
4.90899	1.85886	-10.1671	-0.652044	-0.0687885	-5.17268e-17	0.0415158	-0.00150078	0.00820855	0.000526439	17.4163	612.955	33.8549	0.465838	-5.17268e-17	0.217217	0.0283083	0.996292	0.0550274
4.91898	2.53964	-13.6096	-0.73303	-0.0686801	-5.13469e-17	0.041475	-0.0021029	0.0112692	0.000606971	23.2815	633.179	34.1757	0.462398	-5.13469e-17	0.217233	0.0466569	1.26891	0.068489
4.92897	3.27863	-17.2458	-0.764971	-0.0685589	-5.09959e-17	0.0416261	-0.00277903	0.0146178	0.000648404	29.6802	655.722	34.5318	0.45922	-5.09959e-17	0.217173	0.0695779	1.53718	0.0809512
4.93896	4.01435	-20.7225	-0.7164	-0.0684346	-5.06716e-17	0.0420606	-0.00348433	0.0179865	0.000621812	36.6696	679.816	34.9216	0.456283	-5.06716e-17	0.217054	0.0968751	1.79596	0.0922573
4.94895	4.65258	-23.5188	-0.549313	-0.0683227	7.58764e-18	0.0428854	-0.00413113	0.0208828	0.000487747	44.2811	704.622	35.3568	0.453566	-5.03717e-17	0.216893	0.128061	2.03776	0.102252
4.95894	5.06144	-24.9254	-0.220893	-0.068246	7.57772e-18	0.0442196	-0.00458647	0.0225864	0.000200164	52.5115	729.238	35.8529	0.451042	-5.00934e-17	0.216709	0.162247	2.25315	0.110776
4.96892	5.06881	-24.0401	0.313126	-0.0682377	7.57458e-18	0.0461861	-0.00466535	0.0221266	-0.000288203	61.3151	752.704	36.4164	0.448684	-4.98338e-17	0.216519	0.198094	2.4318	0.117652
4.97891	4.46383	-19.7849	1.09311	-0.0683476	7.58245e-18	0.0489002	-0.00412174	0.0182687	-0.00100934	70.5971	774.001	37.0331	0.446465	-4.95901e-17	0.216335	0.233847	2.56382	0.122669
4.9889	3.00406	-10.9545	2.14807	-0.0686826	7.60657e-18	0.0524548	-0.00258474	0.00942539	-0.00184823	80.2087	792.057	37.6578	0.44436	-4.93595e-17	0.216165	0.267462	2.64118	0.125573
4.99889	0.429704	3.70003	3.48624	-0.0683031	7.65314e-18	0.0565229	-0.000287423	-0.00247491	-0.0023319	89.9442	805.758	38.2097	0.442342	-4.91392e-17	0.216011	0.296814	2.65899	0.126091
5.00888	-3.51425	25.3493	5.08445	-0.0694092	7.72904e-18	0.0619177	0.00364167	-0.0262684	-0.00526881	99.5395	813.969	38.5744	0.44039	-4.89266e-17	0.215871	0.319944	2.61629	0.123987
5.01887	-9.04827	54.9319	6.87759	-0.070498	7.84142e-18	0.0677137	0.00948558	-0.0575868	-0.00720999	108.675	815.575	38.6132	0.43848	-4.8719e-17	0.215738	0.335302	2.51636	0.119136
5.02886	-16.323	92.9838	8.75043	-0.0719301	7.99687e-18	0.0737028	0.0172258	-0.0981267	-0.00923441	116.981	809.544	38.179	0.436589	-4.85136e-17	0.215598	0.341941	2.36634	0.111599
5.03885	-25.3826	139.477	10.5345	-0.0737803	8.20037e-18	0.0792737	0.0275836	-0.151571	-0.011448	124.054	794.999	37.1375	0.434697	-4.83075e-17	0.215434	0.339613	2.1764	0.101668
5.04884	-36.1331	193.704	12.0136	-0.076074	8.45371e-18	0.0840727	0.0409146	-0.219337	-0.0136034	129.478	771.309	35.39	0.432783	-4.80975e-17	0.215227	0.328767	1.95849	0.0898615
5.05883	-48.3243	254.256	12.9405	-0.078784	8.75346e-18	0.087934	0.0570902	-0.300377	-0.0152879	132.85	738.188	32.8951	0.430826	-4.78805e-17	0.214952	0.31045	1.72503	0.0768708
5.06882	-61.5528	319.116	13.0669	-0.0818705	9.09502e-18	0.0908232	0.0753973	-0.390893	-0.016006	133.823	695.775	29.6838	0.428811	-4.7653e-17	0.214584	0.286133	1.48767	0.0634682
5.07881	-75.2908	385.901	12.1845	-0.0852914	9.47365e-18	0.0927935	0.0944782	-0.484245	-0.0152896	132.144	644.707	25.8651	0.426722	-4.74118e-17	0.214096	0.257514	1.25637	0.0504042
5.0888	-88.9379	452.167	10.1688	-0.0890024	9.88441e-18	0.0939514	0.112356	-0.571229	-0.0128464	127.693	586.145	21.6191	0.424553	-4.71536e-17	0.213464	0.226328	1.03891	0.0383185
5.09878	-101.879	515.703	7.01433	-0.0929529	1.03217e-17	0.094432	0.126602	-0.640846	-0.00871644	120.519	521.754	17.1779	0.422302	-4.68761e-17	0.21266	0.1942	0.840733	0.0276797
5.10877	-113.538	574.711	2.8458	-0.0970826	1.0779e-17	0.0943802	0.134663	-0.681643	-0.00337529	110.86	453.621	12.7961	0.419981	-4.65778e-17	0.211665	0.162534	0.66506	0.0187606
5.11876	-123.406	627.861	-2.09797	-0.101321	1.12485e-17	0.0939381	0.134351	-0.683546	0.00228404	99.1418	384.11	8.71722	0.417616	-4.6259e-17	0.210462	0.132449	0.513153	0.0116458
5.12875	-131.075	674.257	-7.50263	-0.105592	1.17218e-17	0.0932347	0.124391	-0.639875	0.00712005	85.9536	315.675	5.14159	0.415249	-4.59228e-17	0.209046	0.104741	0.384675	0.00626544
5.13874	-136.25	713.356	-13.0275	-0.109819	1.21908e-17	0.0923798	0.104853	-0.54897	0.0100254	71.9958	250.645	2.20367	0.412943	-4.55751e-17	0.207424	0.0798761	0.27808	0.00244487
5.14873	-138.775	744.889	-18.3513	-0.113937	1.26481e-17	0.0914605	0.0772755	-0.414783	0.0102187	58.0036	191.024	-0.0382049	0.410778	-4.52256e-17	0.205623	0.0580101	0.191045	-3.82092e-05
5.15872	-138.638	768.805	-23.2061	-0.117901	1.30885e-17	0.0905396	0.0444158	-0.246304	0.00743458	44.6639	138.33	-1.59778	0.408838	-4.48876e-17	0.203689	0.0390522	0.12095	-0.00139703
5.16871	-135.97	785.23	-27.3966	-0.121685	1.35094e-17	0.0896577	0.00971749	-0.0561188	0.00195798	32.5424	93.5121	-2.54563	0.407198	-4.45766e-17	0.201693	0.0227466	0.0653634	-0.00177935
5.1787	-131.031	794.457	-30.8071	-0.125292	1.3911e-17	0.0888351	-0.0233318	0.141464	-0.00548561	22.0374	56.9345	-2.98801	0.405873	-4.43078e-17	0.19971	0.00873126	0.0225576	-0.00118386
5.18869	-124.185	796.926	-33.3962	-0.128748	1.42958e-17	0.0880766	-0.0517838	0.332311	-0.0139259	13.3631	28.4286	-3.04579	0.404809	-4.40872e-17	0.197731	-0.00357562	-0.00760677	0.000814976
5.19868	-115.862	793.222	-35.1841	-0.132096	1.46688e-17	0.0873753	-0.0736208	0.504026	-0.0223565	6.56257	7.39147	-2.83755	0.403242	-4.39151e-17	0.194424	-0.0147173	-0.0165762	0.00636352
5.20867	-106.526	784.056	-36.2336	-0.135394	1.5036e-17	0.0867172	-0.0878971	0.646943	-0.0298972	1.53864	-7.08756	-2.46828	0.401725	-4.37876e-17	0.194081	0.00831136	-0.0382854	-0.0133331
5.21866	-96.6328	770.255	-36.6324	-0.138704	1.54044e-17	0.0860849	-0.0946552	0.754492	-0.0358828	-1.90577	-16.0948	-2.02322	0.402922	-4.36988e-17	0.19472	-0.00573428	-0.0484276	-0.00608766
5.22865	-86.6043	752.738	-36.4775	-0.142086	1.57806e-17	0.0854612	-0.0946905	0.82302	-0.0398834	-4.026	-20.7713	-1.56598	0.402968	-4.36418e-17	0.194162	-0.00923952	-0.0476693	-0.00359386
5.23863	-76.8027	732.491	-35.8658	-0.145593	1.61704e-17	0.0848308	-0.0892558	0.85126	-0.0416812	-5.09904	-22.2155	-1.13966	0.402987	-4.36096e-17	0.193731	-0.010036	-0.0437248	-0.00224309
5.24862	-67.5144	710.534	-34.8898	-0.149266	1.65782e-17	0.0841822	-0.0797835	0.839656	-0.0412302	-5.3947	-21.4142	-0.76973	0.403043	-4.35958e-17	0.193456	-0.00959323	-0.0380803	-0.00136879
5.25861	-58.9425	687.88	-33.6385	-0.153126	1.70066e-17	0.0835084	-0.0676709	0.789744	-0.0386197	-5.15579	-19.2011	-0.467753	0.403131	-4.35949e-17	0.193309	-0.00851395	-0.0317076	-0.000772418
5.2686	-51.2064	665.491	-32.1984	-0.15718	1.74561e-17	0.0828067	-0.054147	0.703707	-0.0340474	-4.58667	-16.2406	-0.235199	0.403235	-4.36023e-17	0.193256	-0.00713839	-0.0252757	-0.000366048
5.27859	-44.3481	644.236	-30.6561	-0.161414	1.79253e-17	0.0820779	-0.0402107	0.584133	-0.0277961	-3.84889	-13.0298	-0.0669088	0.403345	-4.36144e-17	0.193267	-0.00567577	-0.0192144	-9.86671e-05
5.28858	-38.3428	624.853	-29.0978	-0.165803	1.84114e-17	0.0813261	-0.0266257	0.433906	-0.0202059	-3.06195	-9.91469	0.0460468	0.403451	-4.36285e-17	0.193314	-0.0042542	-0.0137752	6.39763e-05
5.29857	-33.1124	607.933	-27.6074	-0.170308	1.89101e-17	0.0805572	-0.0139531	0.256174	-0.0116334	-2.30765	-7.11286	0.114184	0.403549	1.89101e-17	0.193379	-0.00297951	-0.00918373	0.000147428
5.30856	-28.5396	593.905	-26.2619	-0.174887	1.94168e-17	0.0797786	-0.00260947	0.0543025	-0.0024012	-1.6362	-4.73995	0.148073	0.403636	1.94168e-17	0.193443	-0.00190071	-0.00550621	0.000172011
5.31855	-24.4812	583.046	-25.1268	-0.179496	1.99267e-17	0.078998	0.00706317	-0.168217	0.00724945	-1.07308	-2.83558	0.157373	0.40371	1.99267e-17	0.193485	-0.00102755	-0.00271528	0.000150697
5.32854	-20.7797	575.506	-24.2524	-0.184095	2.04354e-17	0.0782236	0.0147284	-0.407909	0.0171897	0	0	0	0	2.04354e-17	0	0	0	0
5.33853	-17.2739	571.324	-23.6702	-0.188649	2.0939e-17	0.0774634	0.0199999	-0.661482	0.0274055	0	0	0	0	2.0939e-17	0	0	0	0
5.34852	-13.8055	570.465	-23.3919	-0.193131	2.14344e-17	0.0767253	0.0224098	-0.92601	0.0379711	0	0	0	0	2.14344e-17	0	0	0	0
5.35851	-10.2243	572.841	-23.409	-0.197518	2.19194e-17	0.0760171	0.0214023	-1.19911	0.0490012	0	0	0	0	2.19194e-17	0	0	0	0
5.36849	-6.39235	578.333	-23.694	-0.201794	2.23921e-17	0.0753463	0.0163482	-1.47906	0.0605965	0	0	0	0	2.23921e-17	0	0	0	0
5.37848	-2.18542	586.799	-24.2037	-0.205947	2.28509e-17	0.0747207	0.00657297	-1.76488	0.0727958	0	0	0	0	2.28509e-17	0	0	0	0
5.38847	2.50458	598.084	-24.8822	-0.209964	2.32948e-17	0.0741474	-0.00861087	-2.05624	0.0855462	0	0	0	0	2.32948e-17	0	0	0	0
5.39846	7.76816	612.011	-25.6666	-0.213834	2.37224e-17	0.0736329	-0.0298698	-2.35328	0.0986924	0	0	0	0	2.37224e-17	0	0	0	0
5.40845	13.6761	628.371	-26.4926	-0.217545	2.41325e-17	0.0731825	-0.0578089	-2.65613	0.111985	0	0	0	0	2.41325e-17	0	0	0	0
5.41844	20.2766	646.9	-27.3005	-0.221085	2.45239e-17	0.0727997	-0.0929127	-2.96426	0.125098	0	0	0	0	2.45239e-17	0	0	0	0
5.42843	27.5926	667.254	-28.0416	-0.224445	2.48955e-17	0.0724857	-0.135455	-3.27562	0.137659	0	0	0	0	2.48955e-17	0	0	0	0
5.43842	35.6177	688.98	-28.6826	-0.227618	2.52466e-17	0.0722389	-0.185371	-3.58577	0.149278	0	0	0	0	2.52466e-17	0	0	0	0
5.44841	44.3136	711.497	-29.2076	-0.230601	2.55769e-17	0.072055	-0.242111	-3.88732	0.159578	0	0	0	0	2.55769e-17	0	0	0	0
5.4584	53.6071	734.074	-29.6158	-0.233399	2.58871e-17	0.0719274	-0.304505	-4.16977	0.168227	0	0	0	0	2.58871e-17	0	0	0	0
5.46839	63.3883	755.828	-29.916	-0.236023	2.61781e-17	0.0718475	-0.370694	-4.42007	0.174948	0	0	0	0	2.61781e-17	0	0	0	0
5.47838	73.5087	775.732	-30.1184	-0.23849	2.6452e-17	0.0718064	-0.43815	-4.62376	0.179521	0	0	0	0	2.6452e-17	0	0	0	0
5.48837	83.7794	792.642	-30.2257	-0.240821	2.6711e-17	0.0717958	-0.503809	-4.76656	0.181763	0	0	0	0	2.6711e-17	0	0	0	0
5.49835	93.9686	805.331	-30.2257	-0.243042	2.6958e-17	0.0718092	-0.564294	-4.83613	0.18151	0	0	0	0	2.6958e-17	0	0	0	0
5.50834	103.8	812.548	-30.0875	-0.24518	2.7196e-17	0.0718431	-0.616202	-4.82363	0.178612	0	0	0	0	2.7196e-17	0	0	0	0
5.51833	112.955	813.082	-29.7624	-0.247264	2.74282e-17	0.0718983	-0.656404	-4.72497	0.172955	0	0	0	0	2.74282e-17	0	0	0	0
5.52832	121.077	805.844	-29.1891	-0.249322	2.76577e-17	0.0719808	-0.682341	-4.5414	0.164498	0	0	0	0	2.76577e-17	0	0	0	0
5.53831	127.783	789.951	-28.3032	-0.251384	2.78876e-17	0.0721026	-0.692275	-4.27962	0.153335	0	0	0	0	2.78876e-17	0	0	0	0
5.5483	132.688	764.82	-27.0494	-0.253473	2.81209e-17	0.0722818	-0.685481	-3.95115	0.13974	0	0	0	0	2.81209e-17	0	0	0	0
5.55829	135.43	730.251	-25.3939	-0.255615	2.83601e-17	0.0725431	-0.662339	-3.57139	0.124193	0	0	0	0	2.83601e-17	0	0	0	0
5.56828	135.71	686.497	-23.3356	-0.257828	2.86073e-17	0.0729177	-0.624334	-3.15823	0.107355	0	0	0	0	2.86073e-17	0	0	0	0
5.57827	133.328	634.314	-20.9127	-0.260126	2.8864e-17	0.0734423	-0.573916	-2.73043	0.0900195	0	0	0	0	2.8864e-17	0	0	0	0
5.58826	128.219	574.961	-18.204	-0.262515	2.91309e-17	0.0741579	-0.51425	-2.306	0.0730108	0	0	0	0	2.91309e-17	0	0	0	0
5.59825	120.483	510.171	-15.3229	-0.264991	2.94075e-17	0.0751075	-0.448869	-1.90068	0.0570867	0	0	0	0	2.94075e-17	0	0	0	0
5.60824	110.395	442.053	-12.4051	-0.267537	2.96919e-17	0.0763332	-0.381304	-1.52685	0.0428469	0	0	0	0	2.96919e-17	0	0	0	0
5.61823	98.4007	372.955	-9.59083	-0.270123	2.99806e-17	0.0778712	-0.314755	-1.19298	0.0306783	0	0	0	0	2.99806e-17	0	0	0	0
5.62822	85.0856	305.28	-7.00713	-0.272699	3.02681e-17	0.079745	-0.251853	-0.903627	0.0207411	0	0	0	0	3.02681e-17	0	0	0	0
5.6382	71.1262	241.283	-4.75143	-0.275198	3.05471e-17	0.0819582	-0.194522	-0.659881	0.0129946	0	0	0	0	3.05471e-17	0	0	0	0
5.64819	57.2216	182.884	-2.88225	-0.277536	3.08082e-17	0.0844842	-0.143941	-0.460043	0.00725029	0	0	0	0	3.08082e-17	0	0	0	0
5.65818	44.0204	131.512	-1.41734	-0.279622	3.10416e-17	0.0872575	-0.100592	-0.300521	0.0032388	0	0	0	0	3.10416e-17	0	0	0	0
5.66817	32.056	88.0329	-0.339183	-0.28138	3.12386e-17	0.0901678	-0.0643564	-0.176737	0.000680952	0	0	0	0	3.12386e-17	0	0	0	0
5.67816	21.7027	52.7348	0.395084	-0.282784	3.13966e-17	0.0930724	-0.0345708	-0.0840025	-0.00062934	0	0	0	0	3.13966e-17	0	0	0	0
5.68815	13.1605	25.3898	0.842588	-0.283857	3.15172e-17	0.095918	-0.00973473	-0.0187807	-0.000623259	0	0	0	0	3.15172e-17	0	0	0	0
5.69814	6.46527	5.35474	1.06525	-0.285061	3.16043e-17	0.100903	0.0128354	0.0106307	0.00211482	0	0	0	0	3.16043e-17	0	0	0	0
5.70813	1.5186	-8.30162	1.12283	-0.286087	3.1663e-17	0.101508	-0.0100239	0.0547968	-0.00741152	0	0	0	0	3.1663e-17	0	0	0	0
5.71812	-1.87432	-16.6686	1.06842	-0.285797	3.16989e-17	0.101199	0.00816614	0.0726224	-0.00465495	0	0	0	0	3.16989e-17	0	0	0	0
5.72811	-3.9646	-20.8764	0.946075	-0.28585	3.17174e-17	0.102014	0.0144731	0.0762111	-0.00345373	0	0	0	0	3.17174e-17	0	0	0	0
5.7381	-5.02426	-22.0032	0.790096	-0.285857	3.17233e-17	0.102652	0.0166541	0.0729348	-0.00261896	0	0	0	0	3.17233e-17	0	0	0	0
5.74809	-5.31829	-21.0102	0.625456	-0.285807	3.17207e-17	0.103062	0.0165766	0.0654867	-0.00194949	0	0	0	0	3.17207e-17	0	0	0	0
5.75808	-5.08527	-18.7038	0.468932	-0.285719	3.17129e-17	0.103282	0.0151811	0.0558366	-0.00139991	0	0	0	0	3.17129e-17	0	0	0	0
5.76806	-4.5262	-15.7222	0.330579	-0.28561	3.17023e-17	0.103357	0.0130767	0.045423	-0.000955075	0	0	0	0	3.17023e-17	0	0	0	0
5.77805	-3.80011	-12.5394	0.215282	-0.285494	3.16909e-17	0.103331	0.0106771	0.0352317	-0.000604872	0	0	0	0	3.16909e-17	0	0	0	0
5.78804	-3.0248	-9.48193	0.12421	-0.285382	3.16798e-17	0.103241	0.00825569	0.0258794	-0.000339012	0	0	0	0	3.16798e-17	0	0	0	0
5.79803	-2.28099	-6.75215	0.056073	-0.285278	3.16698e-17	0.103114	0.0060161	0.0178088	-0.000147892	0	0	0	0	3.16698e-17	0	0	0	0
5.80802	-1.61835	-4.4546	0.00812841	-0.285184	3.16613e-17	0.102971	0.00406995	0.0112027	-2.04419e-05	0	0	0	0	3.16613e-17	0	0	0	0
5.81801	0	0	0	0	-0.152495	0	0	0	0	0	0	0	0	-0.0275058	0	0	0	0
5.828	0	0	0	0	-0.138293	0	0	0	0	0	0	0	0	-0.0273686	0	0	0	0
5.83799	0	0	0	0	-0.123681	0	0	0	0	0	0	0	0	-0.027066	0	0	0	0
5.84798	0	0	0	0	-0.108996	0	0	0	0	0	0	0	0	-0.0266428	0	0	0	0
5.85797	0	0	0	0	-0.0946128	0	0	0	0	0	0	0	0	-0.0261415	0	0	0	0
5.86796	0	0	0	0	-0.0809229	0	0	0	0	0	0	0	0	-0.0256011	0	0	0	0
5.87795	0	0	0	0	-0.0682688	0	0	0	0	0	0	0	0	-0.0250697	0	0	0	0
5.88794	0	0	0	0	-0.0569248	0	0	0	0	0	0	0	0	-0.0246048	0	0	0	0
5.89792	0	0	0	0	-0.047113	0	0	0	0	0	0	0	0	-0.0242575	0	0	0	0
5.90791	0	0	0	0	-0.0389837	0	0	0	0	0	0	0	0	-0.0240693	0	0	0	0
5.9179	0	0	0	0	-0.0325736	0	0	0	0	0	0	0	0	-0.0240878	0	0	0	0
5.92789	0	0	0	0	-0.0278615	0	0	0	0	0	0	0	0	-0.0243335	0	0	0	0
5.93788	0	0	0	0	-0.024708	0	0	0	0	0	0	0	0	-0.0248292	0	0	0	0
5.94787	0	0	0	0	-0.0229507	0	0	0	0	0	0	0	0	-0.0255867	0	0	0	0
5.95786	0	0	0	0	-0.022418	0	0	0	0	0	0	0	0	-0.0266237	0	0	0	0
5.96785	0	0	0	0	-0.0229819	0	0	0	0	0	0	0	0	-0.0279204	0	0	0	0
5.97784	0	0	0	0	-0.024556	0	0	0	0	0	0	0	0	-0.0294637	0	0	0	0
5.98783	0	0	0	0	-0.0271075	0	0	0	0	0	0	0	0	-0.0312547	0	0	0	0
5.99782	0	0	0	0	-0.0306593	0	0	0	0	0	0	0	0	-0.0332524	0	0	0	0
