Coordinates
version=1
nRows=207
nColumns=38
inDegrees=no

Units are S.I. units (second, meters, Newtons, ...)
If the header above contains a line with 'inDegrees', this indicates whether rotational values are in degrees (yes) or radians (no).

endheader
time	pelvis_tilt_moment	pelvis_list_moment	pelvis_rotation_moment	pelvis_tx_force	pelvis_ty_force	pelvis_tz_force	hip_flexion_r_moment	hip_adduction_r_moment	hip_rotation_r_moment	knee_angle_r_moment	ankle_angle_r_moment	subtalar_angle_r_moment	mtp_angle_r_moment	hip_flexion_l_moment	hip_adduction_l_moment	hip_rotation_l_moment	knee_angle_l_moment	ankle_angle_l_moment	subtalar_angle_l_moment	mtp_angle_l_moment	lumbar_extension_moment	lumbar_bending_moment	lumbar_rotation_moment	arm_flex_r_moment	arm_add_r_moment	arm_rot_r_moment	elbow_flex_r_moment	pro_sup_r_moment	wrist_flex_r_moment	wrist_dev_r_moment	arm_flex_l_moment	arm_add_l_moment	arm_rot_l_moment	elbow_flex_l_moment	pro_sup_l_moment	wrist_flex_l_moment	wrist_dev_l_moment
3.59	0	0	0	0	0	0	0	0	0	0	0	0	0	0	0	0	0	0	0	0	0	0	0	0	0	0	0	0	0	0	0	0	0	0	0	0	0
3.59999	31.4299	-33.2896	-11.4226	10.4504	560.212	21.1495	-9.48931	15.7315	-0.666895	3.46822	-1.04437	0.469366	0.0204923	4.28838	3.58157	-1.09994	-9.33033	-0.140728	0.00971776	0.00971667	-49.2332	7.23558	13.4274	-0.322246	4.31452	1.73613	-1.53216	0.0445844	-0.0581727	0.252282	-1.80494	-2.58677	-1.02676	-2.08655	-0.0511316	-0.265205	-0.0109955
3.60998	30.5506	-39.5047	-6.59682	15.2223	569.772	41.7139	-8.36107	16.7738	-0.683579	3.25683	-1.10683	0.535561	0.0216122	6.39267	5.31689	-1.55431	-12.5925	-0.0180307	-0.00349871	0.0070671	-47.0764	1.48717	23.0363	0.912227	5.99347	2.46194	-1.06044	0.0748093	0.03382	0.306122	-2.0369	-4.22024	-1.83018	-2.01153	-0.0790451	-0.30497	-0.108408
3.61996	31.3321	-44.1217	-3.11339	20.58	582.389	60.4429	-7.31109	18.2776	-0.694211	3.12923	-1.19584	0.624041	0.0230903	8.2542	7.15075	-2.09318	-16.1564	0.086984	-0.00859437	0.00493655	-46.287	-3.38357	30.1081	1.85458	7.26018	3.00678	-0.706303	0.0972183	0.10168	0.346837	-2.12798	-5.51582	-2.45831	-1.94563	-0.10091	-0.336275	-0.183831
3.62995	34.1767	-46.7246	-1.13769	21.7278	594.512	75.2114	-6.79519	20.2231	-0.691225	3.23615	-1.31248	0.728209	0.0248798	8.8691	8.6368	-2.63467	-19.3947	0.131931	0.000512453	0.00418402	-45.6132	-6.93076	34.0231	2.45389	7.99094	3.31331	-0.462341	0.109926	0.143476	0.367355	-2.03987	-6.33219	-2.84895	-1.85262	-0.114021	-0.35099	-0.232464
3.63994	38.465	-47.2757	-0.156321	13.939	602.44	84.9354	-7.20976	22.2555	-0.660303	3.63599	-1.44713	0.830462	0.0268643	7.588	9.45891	-3.12482	-21.8887	0.0944978	0.0264368	0.00516138	-43.0453	-9.18152	35.1817	2.80876	8.21079	3.38802	-0.26127	0.113986	0.167784	0.364112	-1.75525	-6.66863	-3.01427	-1.6774	-0.118096	-0.343034	-0.259659
3.64993	43.72	-46.4279	0.34013	10.4006	615.419	93.5786	-7.83814	23.5538	-0.591618	3.86435	-1.56454	0.903648	0.0287749	6.63197	9.60925	-3.56172	-23.6516	0.0656083	0.0535094	0.00570595	-43.3933	-11.1805	34.2378	2.84675	8.11208	3.3314	-0.217319	0.112096	0.166771	0.355926	-1.54229	-6.71037	-3.01836	-1.61315	-0.117998	-0.337783	-0.261481
3.65992	48.1057	-43.8054	1.26362	0.345894	624.527	98.8671	-9.58487	23.82	-0.456202	4.13415	-1.65968	0.926411	0.0305556	4.89846	9.09474	-3.92477	-24.4582	0.0154538	0.0859523	0.00625994	-41.4683	-12.9762	31.9737	2.85253	7.71654	3.13547	-0.149241	0.105931	0.161449	0.33016	-1.237	-6.47366	-2.89876	-1.48711	-0.112817	-0.317003	-0.253559
3.6699	52.5508	-39.9057	2.1804	-0.0966526	641.338	101.912	-11.6992	22.4048	-0.250133	4.06276	-1.70393	0.878692	0.0320118	4.72925	8.31483	-4.213	-24.6099	0.0369922	0.105495	0.00479014	-43.9265	-14.533	28.8171	2.61639	7.22978	2.9124	-0.253994	0.0973229	0.135181	0.31182	-1.10503	-6.13562	-2.7086	-1.53478	-0.107293	-0.311128	-0.227493
3.67989	54.9507	-34.9876	3.00999	0.875152	660.314	102.03	-14.5717	19.5877	0.0263911	3.88758	-1.7096	0.765135	0.0332704	5.48157	7.2647	-4.33335	-24.1692	0.10744	0.106439	0.00198895	-46.6791	-15.6494	25.2623	2.32883	6.67346	2.65443	-0.403815	0.0872622	0.102861	0.291235	-0.997976	-5.70997	-2.47431	-1.62039	-0.100428	-0.305497	-0.195057
3.68988	54.7231	-28.3991	3.69968	-3.15986	676.634	97.2769	-17.5232	15.7919	0.332967	3.6886	-1.68997	0.614679	0.0344073	5.42427	6.29588	-4.2389	-23.085	0.158881	0.0992195	-0.000590159	-47.1631	-15.6605	21.2132	2.01338	6.03452	2.3435	-0.543721	0.0753455	0.0700972	0.262239	-0.789014	-5.16309	-2.18797	-1.64667	-0.0904158	-0.288562	-0.160816
3.69987	53.8214	-21.3483	3.75837	-6.88989	693.154	89.6017	-19.6525	11.8256	0.611912	3.41346	-1.65709	0.466571	0.0353522	4.49646	5.35776	-3.8383	-21.5446	0.185181	0.0770736	-0.00252766	-48.0009	-14.624	16.8486	1.59086	5.39437	2.02663	-0.739506	0.0623779	0.0313533	0.234839	-0.561372	-4.56867	-1.8744	-1.68888	-0.0791657	-0.271351	-0.122463
3.70986	50.6042	-12.8958	2.68393	-24.9713	697.577	76.9781	-22.7051	7.72556	0.909375	3.52353	-1.61659	0.307792	0.0358829	1.89977	4.79835	-3.4406	-19.216	0.173969	0.0677403	-0.00417968	-42.9156	-11.261	12.529	1.22221	4.75925	1.68335	-0.821639	0.0488901	0.00572313	0.195131	-0.0699804	-3.8897	-1.54403	-1.51961	-0.0637042	-0.228477	-0.094749
3.71984	53.217	-5.95473	2.12769	-27.3566	713.014	67.3287	-23.921	4.67532	1.11492	3.45448	-1.57799	0.205685	0.0360213	-1.10135	4.30512	-2.80775	-16.8706	0.148144	0.0446842	-0.00517647	-46.256	-8.97359	8.47183	0.616251	4.33065	1.46015	-1.122	0.0372855	-0.0397318	0.183823	0.121703	-3.40625	-1.26874	-1.62302	-0.0539166	-0.221452	-0.0558362
3.72983	56.176	-1.80765	1.07998	-29.6025	723.261	59.9483	-24.5007	2.69824	1.23409	3.49343	-1.5459	0.144028	0.0357366	-4.69562	3.25452	-1.94425	-14.1043	0.126543	0.00446661	-0.0061927	-49.0128	-6.79858	5.42956	0.160396	4.00892	1.28939	-1.36406	0.0281644	-0.0755822	0.175425	0.2981	-3.02044	-1.05453	-1.70236	-0.0461186	-0.215788	-0.0258858
3.73982	58.5953	0.408774	0.101745	-29.995	728.695	54.6838	-24.1558	1.39875	1.27367	3.46868	-1.51168	0.11287	0.0351063	-8.42154	1.92676	-0.990113	-11.1085	0.125573	-0.0452898	-0.00769006	-51.475	-5.15261	3.12672	-0.172505	3.75594	1.15482	-1.55874	0.0209642	-0.104205	0.168942	0.439625	-2.71311	-0.886778	-1.77347	-0.0401074	-0.212274	-0.00216245
3.74981	61.6515	1.01809	-0.517193	-27.5936	731.151	50.3858	-22.9645	0.755107	1.24314	3.39513	-1.4778	0.110887	0.034225	-12.4455	0.550335	-0.0650864	-7.89499	0.138502	-0.0917681	-0.00968264	-54.7028	-3.97608	1.42195	-0.447512	3.56036	1.0576	-1.74548	0.0153103	-0.13011	0.16719	0.505024	-2.47128	-0.754874	-1.8721	-0.0359876	-0.214654	0.0188329
3.75979	66.0427	0.599533	-0.755361	-18.5427	735.884	44.7599	-20.4169	0.545428	1.16233	3.10669	-1.43984	0.137461	0.0331873	-16.7015	-0.560349	0.748197	-4.62962	0.15535	-0.124399	-0.0119574	-60.8541	-2.97314	-0.0530272	-0.815931	3.41266	1.00098	-2.01561	0.0102654	-0.163467	0.176087	0.430896	-2.2689	-0.635075	-2.07125	-0.0337131	-0.230096	0.0444871
3.76978	68.5426	-1.40801	-0.945963	-14.3062	731.862	40.3744	-17.7576	0.739964	1.03368	2.7924	-1.39686	0.170811	0.0318931	-21.1092	-1.88487	1.42153	-1.12137	0.198307	-0.149327	-0.015126	-63.8131	-2.00377	-0.744927	-0.983614	3.27426	0.948498	-2.16228	0.00685341	-0.182119	0.17839	0.396915	-2.08554	-0.547882	-2.17248	-0.0315497	-0.23632	0.0596655
3.77977	71.3636	-3.10387	0.0985588	-11.5411	726.227	36.0377	-14.6824	0.953561	0.878158	2.31956	-1.34579	0.201328	0.030583	-27.4125	-2.77001	2.0297	3.60953	-1.50052	-0.0388666	-0.0187334	-64.8702	-1.44818	-0.852296	-1.01175	3.15085	0.9051	-2.22645	0.00487451	-0.190766	0.17728	0.352792	-1.9352	-0.489349	-2.22424	-0.030024	-0.238564	0.0679818
3.78976	70.9536	-5.56307	2.23993	-17.3795	707.587	37.0407	-12.1982	1.15204	0.682272	1.80521	-1.2873	0.211115	0.0292199	-33.051	-3.9058	2.23701	7.99449	-2.2269	-0.00184948	-0.0226046	-60.5123	-2.0211	0.0380755	-0.659481	3.03504	0.85394	-2.05863	0.00552884	-0.173627	0.161836	0.40319	-1.85223	-0.490644	-2.11098	-0.0290758	-0.224946	0.0585992
3.79975	68.2943	-8.24617	5.94586	-29.7534	680.219	44.8019	-10.1165	1.32325	0.42402	1.17758	-1.22678	0.200906	0.0280672	-38.8776	-5.32835	2.24713	12.4843	-2.98452	0.0263499	-0.0256196	-51.1172	-4.1984	1.98945	0.089715	2.94837	0.804521	-1.65866	0.009283	-0.13047	0.13328	0.51402	-1.8791	-0.565896	-1.85472	-0.0296044	-0.198579	0.031272
3.80973	70.246	-9.24017	11.706	-25.5687	671.171	45.4114	-6.00208	1.04289	0.23237	0.101143	-1.16795	0.199082	0.0277016	-45.1721	-5.24469	1.97898	16.6353	-3.78344	0.0828198	-0.0257564	-49.9825	-7.05584	3.75188	0.453956	2.94974	0.834724	-1.53976	0.0129842	-0.115287	0.132278	0.262576	-1.97796	-0.637347	-1.89795	-0.0338625	-0.207411	0.0228516
3.81972	74.2527	-8.86771	18.075	-20.2454	666.305	39.1693	-1.69246	0.237409	0.154109	-1.02486	-1.1086	0.185778	0.0276625	-52.3148	-4.6302	1.66229	20.8035	-4.52482	0.131295	-0.0229265	-50.3434	-9.09587	5.10945	0.641932	2.87615	0.849051	-1.5082	0.0151586	-0.11052	0.135365	-0.0711937	-1.99403	-0.664935	-1.99712	-0.0372	-0.220738	0.0229247
3.82971	79.4467	-6.97387	24.625	-14.7975	664.931	26.4616	2.71239	-1.21939	0.189976	-2.19011	-1.05308	0.154517	0.0282004	-59.9159	-3.52739	1.32557	24.8659	-5.10798	0.16391	-0.0173125	-51.6978	-10.1565	5.87309	0.643157	2.70955	0.834657	-1.55653	0.0153561	-0.11597	0.14032	-0.450038	-1.9052	-0.638036	-2.13108	-0.0388833	-0.235371	0.0315832
3.8397	82.1607	-5.28373	31.5264	-16.6297	653.879	18.536	6.03567	-3.07407	0.199453	-3.32791	-1.00802	0.0864164	0.0294084	-66.66	-3.38064	1.02588	28.5265	-5.39732	0.135485	-0.00963296	-47.9867	-11.936	7.0435	0.957973	2.46284	0.775124	-1.39705	0.0165912	-0.100745	0.128381	-0.708573	-1.82001	-0.635909	-2.10504	-0.0400293	-0.232828	0.0272968
3.84969	82.1196	-2.97929	38.2211	-19.8225	638.551	12.0096	9.15912	-5.4164	0.173421	-4.53064	-0.979145	-0.0111313	0.031711	-71.908	-3.56705	0.732082	31.4489	-5.35143	0.0720098	0.000145194	-42.0651	-14.1653	8.08078	1.37879	2.11633	0.670877	-1.15565	0.0174921	-0.0789885	0.107125	-0.944297	-1.70483	-0.624659	-2.02237	-0.0405447	-0.222946	0.0204785
3.85967	80.6682	0.284012	43.5853	-16.745	626.793	-0.639406	12.8525	-8.03469	0.181104	-5.75825	-0.972409	-0.113118	0.0351529	-75.0691	-3.22069	0.418495	33.2965	-4.96457	0.0184057	0.0116145	-38.9552	-15.793	7.93897	1.50884	1.59935	0.510398	-1.06359	0.014893	-0.0770939	0.0891656	-1.28445	-1.43423	-0.522836	-2.04218	-0.0390979	-0.219853	0.0305963
3.86966	78.7381	3.77769	46.1436	-7.06622	619.865	-22.778	16.997	-10.2494	0.240269	-6.8522	-0.993837	-0.189815	0.0393835	-75.8608	-2.17736	0.0984085	33.9332	-4.26362	0.0136106	0.0238706	-40.9144	-15.6933	5.63946	1.08296	0.808508	0.25629	-1.25131	0.00577421	-0.111486	0.077909	-1.74616	-0.862228	-0.251933	-2.22143	-0.033255	-0.226	0.0706069
3.87965	76.3892	7.49536	46.5384	-3.12287	605.157	-48.6196	19.7388	-12.1893	0.385644	-7.43045	-1.0203	-0.250724	0.0430016	-74.7934	-1.01491	-0.174043	33.5919	-3.32435	0.0897962	0.0358075	-43.2138	-14.0446	2.09435	0.428775	-0.134707	-0.0650794	-1.50895	-0.00687498	-0.1573	0.0629612	-2.13504	-0.11421	0.108078	-2.38044	-0.0236693	-0.225187	0.120649
3.88964	70.7977	12.2236	45.7079	-9.8274	571.668	-67.388	20.7778	-13.5883	0.399543	-7.78202	-1.06971	-0.306201	0.0467574	-71.7787	1.38171	-0.51526	32.7028	-2.37341	0.666202	0.0465383	-40.5363	-12.8438	-0.677088	0.126345	-1.01498	-0.38055	-1.53965	-0.0168303	-0.177792	0.0350185	-2.34983	0.522856	0.395294	-2.36031	-0.014809	-0.207904	0.151679
3.89963	61.2041	9.0295	41.4369	-7.89738	539.036	-84.2763	22.2961	-13.9032	0.398343	-8.04581	-1.133	-0.309942	0.0504062	-63.5984	-0.245202	-0.707106	28.9947	-1.2555	0.628454	0.055499	-41.7958	-11.1954	-3.11423	-0.405938	-1.74263	-0.611215	-1.72551	-0.0257178	-0.210447	0.0258449	-2.73279	1.08744	0.661848	-2.47693	-0.00795032	-0.208061	0.188528
3.90961	50.0084	6.6159	35.7658	-11.8963	493.307	-97.5927	22.9856	-13.5065	0.323286	-8.17501	-1.21087	-0.286235	0.0538589	-53.8844	-0.48402	-0.864473	25.0195	-0.487993	1.19412	0.0616932	-41.8959	-9.63034	-5.35582	-0.864365	-2.39977	-0.822624	-1.85562	-0.0334996	-0.236062	0.0150781	-3.04578	1.58792	0.896974	-2.54216	-0.00153324	-0.204126	0.219111
3.9196	35.9497	1.04353	27.6289	-12.9733	442.398	-109.111	24.0512	-11.9309	0.162533	-8.36778	-1.30035	-0.214221	0.0571314	-41.3264	-1.19117	-0.934216	20.1209	-0.102547	1.97869	0.0644841	-44.0458	-7.82756	-7.21022	-1.42097	-2.92061	-0.968938	-2.06036	-0.0400027	-0.266088	0.0157118	-3.43684	2.0134	1.10329	-2.67585	0.00333705	-0.209903	0.250434
3.92959	17.9593	-5.64679	17.5843	-16.7859	381.549	-114.557	25.1909	-9.79767	-0.0999971	-8.76123	-1.40104	-0.122087	0.0604959	-26.5436	-2.31336	-0.969258	14.7909	-0.184177	2.95414	0.0629841	-44.9417	-6.15307	-8.63229	-1.8659	-3.3278	-1.08156	-2.20293	-0.0447635	-0.287329	0.0155071	-3.76842	2.34011	1.26241	-2.76597	0.00720848	-0.212834	0.273781
3.93958	-2.27439	-13.7132	6.56135	-23.2137	313.587	-112.544	26.4126	-6.95854	-0.530623	-9.32696	-1.51236	-0.00604988	0.0638443	-10.6514	-4.27703	-0.982513	9.69697	-0.752566	4.03772	0.056616	-44.8814	-4.89794	-9.57023	-2.19328	-3.5963	-1.15144	-2.28885	-0.0475163	-0.300016	0.0156809	-4.04665	2.54435	1.36604	-2.8253	0.00964151	-0.214713	0.288996
3.94957	-20.8455	-21.971	-3.93462	-29.5398	247.039	-111.04	28.3637	-3.59626	-0.953805	-9.91166	-1.57491	0.135408	0.0651888	4.20083	-6.00399	-0.941167	5.84205	-1.79972	5.16381	0.0449812	-47.22	-3.42138	-10.2231	-2.65408	-3.66468	-1.14119	-2.47082	-0.0488856	-0.318659	0.0291238	-4.3769	2.64077	1.43484	-2.96362	0.0105197	-0.227184	0.305166
3.95955	-39.3221	-29.8324	-13.0854	-45.3324	173.839	-99.1126	30.0689	-0.0301192	-1.48271	-10.6427	-1.60854	0.281141	0.065054	17.0628	-8.53213	-0.926175	3.77976	-3.25409	6.17988	0.0295534	-45.5795	-2.46014	-9.88225	-2.76632	-3.52672	-1.08127	-2.45984	-0.0465986	-0.313246	0.0346943	-4.52045	2.53351	1.39988	-2.96287	0.00959573	-0.228272	0.301136
3.96954	-54.8578	-35.0668	-20.5632	-63.1801	106.624	-87.5771	32.4548	3.65767	-2.01124	-11.4259	-1.5595	0.429022	0.0618787	26.8756	-9.31253	-0.999957	3.94266	-5.0944	7.05972	0.0134905	-44.7877	-1.28227	-9.14725	-2.91383	-3.15208	-0.941402	-2.47964	-0.0423691	-0.306656	0.0488753	-4.6229	2.28179	1.31045	-2.9796	0.00727966	-0.233599	0.292365
3.97953	-69.5804	-36.5822	-25.5842	-88.3336	38.2395	-71.5916	34.5852	6.30706	-2.42388	-12.2816	-1.43999	0.538462	0.0562156	34.1219	-8.89598	-1.2879	6.06313	-7.17589	7.68881	-0.000482338	-40.0012	-0.552071	-7.4776	-2.70862	-2.59029	-0.761242	-2.30459	-0.0348694	-0.276346	0.0539765	-4.51044	1.84884	1.12499	-2.8467	0.00359598	-0.226025	0.263695
3.98952	-82.5867	-35.0963	-29.5083	-115.666	-22.3009	-57.7931	37.1969	8.39875	-2.76201	-13.3184	-1.21613	0.615369	0.0470808	38.6414	-6.30377	-1.77547	9.91606	-9.34953	8.04722	-0.01101	-34.7213	1.096	-5.46462	-2.48392	-1.85981	-0.532047	-2.11293	-0.0261215	-0.241148	0.0615424	-4.27658	1.33614	0.902069	-2.66544	-9.29814e-05	-0.214624	0.228278
3.9995	-90.0241	-29.3377	-31.3597	-135.567	-64.1943	-56.9669	40.9151	8.80154	-2.70953	-14.4703	-0.830645	0.616252	0.0333894	40.4727	-0.347245	-2.5158	15.1835	-11.4578	8.14189	-0.0175768	-34.785	3.99769	-3.74974	-2.63661	-0.936981	-0.217547	-2.14531	-0.0177802	-0.226057	0.0906744	-4.08283	0.795723	0.687481	-2.61518	-0.00407276	-0.218705	0.202843
4.00949	-94.3493	-21.96	-32.0809	-152.398	-96.6502	-59.5542	44.365	8.32069	-2.47815	-15.7447	-0.333119	0.554905	0.0162249	40.706	7.38567	-3.53876	21.259	-13.316	7.92066	-0.0201825	-35.8868	7.64825	-1.67421	-2.81678	0.125162	0.151893	-2.19881	-0.00837526	-0.210397	0.126647	-3.81304	0.194334	0.440245	-2.55223	-0.00865109	-0.224187	0.173568
4.01948	-97.8629	-14.1124	-31.5059	-165.514	-126.012	-58.2143	46.8201	7.08173	-2.13671	-17.1774	0.217096	0.429488	-0.00219839	40.9968	15.2813	-4.86814	27.3444	-14.7682	7.34548	-0.0194343	-35.6362	10.3112	0.616175	-2.80926	1.15458	0.503983	-2.15753	0.00154318	-0.185947	0.155836	-3.44946	-0.43237	0.16912	-2.42495	-0.013775	-0.224251	0.137909
4.02947	-100.725	-6.22637	-30.7375	-171.763	-149.254	-54.5534	48.4821	5.71566	-1.86284	-18.7298	0.794938	0.262034	-0.0208033	41.8572	23.1962	-6.40511	33.0004	-15.7539	6.43649	-0.0162638	-35.8661	12.1958	2.29948	-2.80947	2.04814	0.802928	-2.12558	0.00966182	-0.166285	0.180646	-3.05919	-0.985755	-0.066135	-2.30453	-0.0181439	-0.223564	0.107224
4.03946	-102.517	0.859845	-29.1939	-174.754	-170.724	-45.5986	48.6362	4.64913	-1.73736	-20.2055	1.34647	0.0786294	-0.0380937	42.9314	30.1397	-7.96848	38.119	-16.2635	5.1821	-0.0115366	-35.0306	12.4358	3.46819	-2.67918	2.73498	1.01806	-2.02828	0.0160983	-0.144962	0.193752	-2.63295	-1.45973	-0.26928	-2.15467	-0.021865	-0.217844	0.0784841
4.04944	-104.04	5.2692	-26.995	-180.501	-196.089	-27.5348	46.5295	4.52172	-1.87903	-21.508	1.78959	-0.0825062	-0.0518049	43.8948	34.9979	-9.37353	42.6402	-16.3149	3.57084	-0.00601543	-30.21	10.6217	4.72058	-2.17562	3.17868	1.12998	-1.731	0.0219147	-0.107753	0.185202	-2.11351	-1.86307	-0.46517	-1.88353	-0.0249985	-0.197685	0.0424526
4.05943	-102.474	6.89057	-26.0305	-174.813	-206.775	-17.1321	44.9152	5.02289	-2.32807	-22.8742	2.18326	-0.213642	-0.0629914	44.715	38.7286	-10.5154	46.3027	-15.9653	1.66501	-0.000114334	-31.1243	9.73237	5.01067	-2.0506	3.49426	1.22249	-1.67369	0.0245345	-0.0983967	0.190276	-1.78395	-2.11198	-0.573161	-1.79938	-0.0273673	-0.195225	0.027809
4.06942	-96.5437	6.07693	-25.507	-159.369	-203.387	-14.0167	43.6605	5.83211	-2.93712	-24.2154	2.48531	-0.306803	-0.070518	44.6461	41.0177	-11.3031	49.2909	-15.2759	-0.482332	0.00615038	-37.3967	9.45083	4.50957	-2.22406	3.68765	1.29674	-1.82183	0.0245081	-0.11323	0.207256	-1.6361	-2.23523	-0.608872	-1.89092	-0.0295844	-0.209993	0.0319871
4.07941	-87.9098	3.70562	-25.3439	-135.055	-189.816	-18.021	42.5398	6.7092	-3.5864	-25.4578	2.64959	-0.356315	-0.0731249	44.5506	42.2477	-11.7905	51.338	-14.2687	-2.77211	0.0120981	-47.4562	9.6127	3.54619	-2.54667	3.74802	1.34367	-2.09708	0.0224975	-0.144018	0.230527	-1.62237	-2.2478	-0.590131	-2.10478	-0.031813	-0.236742	0.0493808
4.0894	-79.2477	-0.579468	-24.5578	-115.49	-179.209	-18.4684	39.6191	7.90369	-4.12303	-26.3288	2.59869	-0.356515	-0.0692306	44.2383	41.7437	-11.9739	52.6393	-12.9735	-5.11864	0.0174628	-53.5003	8.43213	3.14708	-2.44905	3.59756	1.30497	-2.16258	0.020626	-0.156235	0.233325	-1.53956	-2.1943	-0.575714	-2.19596	-0.0337363	-0.249468	0.0573115
4.09938	-70.4127	-5.4157	-24.0341	-92.9802	-163.647	-22.7484	36.5463	9.09437	-4.59413	-26.8969	2.4231	-0.319249	-0.0617272	44.0659	40.7087	-11.9546	53.1428	-11.4315	-7.38208	0.0220448	-59.8052	7.41706	2.7142	-2.30285	3.32336	1.22681	-2.22466	0.0178051	-0.170113	0.23249	-1.49622	-2.05776	-0.532942	-2.30176	-0.0352268	-0.262462	0.0685425
4.10937	-63.5693	-11.0126	-23.2322	-78.1679	-153.408	-22.5073	32.0244	10.7607	-4.99392	-26.9751	2.11186	-0.242253	-0.0511186	43.7278	38.9324	-11.7746	53.1222	-9.67031	-9.47398	0.0257166	-60.3855	5.30037	2.92704	-1.71878	2.88324	1.06836	-2.03922	0.0154355	-0.160458	0.208373	-1.31554	-1.8673	-0.502186	-2.22774	-0.0355728	-0.254778	0.0661323
4.11936	-58.9553	-15.3387	-22.4501	-66.9228	-143.108	-24.4252	27.4681	12.2209	-5.31182	-26.7342	1.75197	-0.147289	-0.0397454	43.3565	37.6002	-11.547	52.6438	-7.73012	-11.2883	0.0285159	-58.0771	3.42601	3.16471	-1.01963	2.34954	0.862395	-1.77051	0.0124102	-0.143517	0.173542	-1.06815	-1.60566	-0.452103	-2.07042	-0.0341765	-0.235786	0.0603215
4.12935	-56.5068	-18.255	-21.4734	-62.2473	-134.161	-27.0137	22.9559	13.3681	-5.56124	-26.2052	1.37719	-0.0429567	-0.0286763	42.3039	36.6042	-11.2733	52.0084	-5.64498	-12.7896	0.0306805	-52.0051	1.75716	3.4362	-0.199153	1.7498	0.612749	-1.39988	0.0089067	-0.116893	0.126749	-0.718229	-1.28764	-0.388678	-1.80155	-0.0307117	-0.202329	0.048941
4.13934	-53.3743	-19.1213	-20.4664	-59.1621	-119.697	-34.4525	19.168	13.9375	-5.78777	-25.3019	1.03109	0.0649377	-0.0191848	39.9869	36.3791	-10.9795	51.4704	-3.45031	-13.9562	0.0324718	-46.5785	1.21122	3.27201	0.420165	1.19941	0.377512	-1.11568	0.00457945	-0.098614	0.0854638	-0.38568	-0.949631	-0.301256	-1.56562	-0.0261563	-0.170832	0.042794
4.14932	-50.9291	-18.9703	-20.1932	-49.1154	-94.9853	-46.7683	17.598	14.2135	-6.20211	-24.3278	0.777799	0.177873	-0.0128751	37.5341	36.6741	-10.6758	50.7086	-1.13239	-14.8117	0.0337917	-44.9216	2.10247	2.67564	0.682912	0.818693	0.213734	-1.02777	0.000184873	-0.0979251	0.0624452	-0.175619	-0.670731	-0.208007	-1.4722	-0.0223181	-0.154856	0.0466118
4.15931	-49.8035	-17.8238	-20.1356	-40.6263	-67.0901	-61.198	17.3292	14.0366	-6.62714	-23.2008	0.601706	0.278404	-0.00909426	34.0714	37.2325	-10.3304	50.0629	1.2855	-15.3948	0.0347877	-43.3227	4.04224	1.92457	0.802805	0.539211	0.079532	-1.00205	-0.00417162	-0.101786	0.0445941	0.0184008	-0.423198	-0.11378	-1.40553	-0.0180212	-0.140708	0.0523143
4.1693	-46.7896	-17.9582	-20.4332	-26.8971	-31.4798	-74.1263	17.1748	13.8377	-6.92522	-21.8756	0.459703	0.360766	-0.00650305	30.9439	37.3595	-9.91362	49.2771	3.81464	-15.7603	0.0356585	-45.6525	6.17863	1.6781	0.773066	0.516313	0.0593096	-1.09382	-0.00588464	-0.112515	0.0459664	0.0627972	-0.363303	-0.0834662	-1.47825	-0.017396	-0.145909	0.0591508
4.17929	-44.6195	-19.6608	-20.8664	-14.6722	2.97721	-82.148	16.0051	13.827	-6.99698	-20.2076	0.316197	0.422567	-0.00415809	28.7826	36.8283	-9.43298	48.2669	6.46305	-15.9561	0.0362941	-47.3791	7.7586	2.2594	0.872134	0.632083	0.0904179	-1.1316	-0.00505729	-0.11402	0.0491221	0.0834874	-0.438214	-0.116855	-1.54643	-0.0188837	-0.153212	0.0576837
4.18928	-38.6837	-23.0057	-21.5468	7.42281	44.9193	-86.8441	14.3098	13.8605	-6.80006	-18.532	0.186662	0.454182	-0.0020069	28.107	35.8826	-8.89586	46.9104	9.22202	-16.0094	0.0367224	-55.135	9.02363	3.38167	0.813274	1.02779	0.256999	-1.3089	-0.000954293	-0.12466	0.076547	-0.0853215	-0.746888	-0.232036	-1.79897	-0.0257022	-0.187143	0.0584676
4.19926	-35.2041	-26.3978	-21.4789	25.7318	77.7547	-86.8449	12.5141	13.7474	-6.39985	-16.7902	0.0937516	0.458577	-0.00077081	27.8593	34.7254	-8.33502	45.5285	12.0669	-15.9544	0.0368645	-59.9207	9.40049	4.88632	0.951498	1.42172	0.408933	-1.36045	0.00409209	-0.122012	0.0943964	-0.171613	-1.09064	-0.374129	-1.95598	-0.0323858	-0.210954	0.0501514
4.20925	-31.1292	-29.3905	-20.727	40.6391	103.422	-83.1806	9.89007	13.504	-5.76383	-14.7703	0.0108396	0.440055	0.000137723	27.6077	33.609	-7.77392	44.2771	14.9735	-15.811	0.0369166	-63.5072	9.14343	6.58114	1.17433	1.84636	0.567003	-1.34753	0.0099865	-0.112182	0.109103	-0.208358	-1.47777	-0.539714	-2.06184	-0.0393664	-0.230341	0.0363922
4.21924	-27.0032	-31.86	-19.3646	55.2026	122.543	-76.374	7.16035	13.0593	-4.969	-12.707	-0.040958	0.400564	0.000341404	27.6474	32.654	-7.23425	43.0935	17.9444	-15.6002	0.0368415	-66.8072	8.37375	8.41762	1.42435	2.33074	0.74684	-1.30159	0.0168864	-0.0979594	0.124455	-0.224588	-1.9246	-0.731385	-2.14381	-0.0470569	-0.248836	0.018762
4.22923	-24.5576	-32.7925	-17.0787	61.7887	127.556	-69.3608	4.19354	12.1664	-4.05895	-10.4333	-0.0574157	0.342206	-0.000426301	27.0221	32.2145	-6.78842	42.1682	20.9743	-15.3379	0.0364979	-65.9442	7.43034	10.3822	1.81996	2.74632	0.884995	-1.12629	0.0234497	-0.071264	0.127069	-0.0938832	-2.30421	-0.913375	-2.07552	-0.0524346	-0.249734	-0.00669639
4.23921	-21.5874	-33.4287	-14.6221	63.7503	123.767	-61.6469	0.719849	11.3315	-3.13634	-7.92136	-0.0634625	0.280245	-0.00165132	25.8597	31.9565	-6.38024	41.4902	24.085	-15.0511	0.0357677	-63.5124	6.46022	12.4405	2.26509	3.13228	1.00989	-0.898782	0.0299561	-0.0394028	0.125316	0.0935003	-2.64917	-1.09121	-1.94306	-0.0568838	-0.243591	-0.0354193
4.2492	-18.9854	-32.2584	-12.1901	57.9745	109.012	-57.0556	-3.20357	10.275	-2.21704	-5.18258	-0.0518238	0.211672	-0.00350501	23.7993	32.3967	-6.10341	41.0928	27.2855	-14.7442	0.034798	-58.222	6.16002	13.9233	2.6717	3.3729	1.06795	-0.640701	0.0340745	-0.00737202	0.114034	0.391047	-2.83055	-1.20583	-1.71438	-0.0576329	-0.223287	-0.062258
4.25919	-16.0073	-31.3864	-11.1878	50.1905	88.957	-54.2028	-7.45132	9.74829	-1.4517	-2.32198	-0.0440325	0.159566	-0.00559522	21.8816	32.9774	-5.86338	40.7091	30.6249	-14.4528	0.0337318	-52.8532	6.97708	14.8772	2.91874	3.55077	1.10555	-0.442116	0.0365542	0.0171655	0.104195	0.684837	-2.91136	-1.27272	-1.49027	-0.056508	-0.201484	-0.0828889
4.26918	-9.7235	-30.3827	-11.8068	56.6466	79.9641	-50.6033	-11.7359	9.63381	-0.792499	0.307875	-0.0460647	0.117422	-0.00739789	22.4165	34.0359	-5.65534	39.7869	34.1518	-14.1819	0.0326419	-55.404	8.70826	14.8244	2.70265	3.87063	1.22588	-0.521133	0.0390375	0.0136993	0.121487	0.713953	-3.11307	-1.3388	-1.53729	-0.0588911	-0.211558	-0.0853494
4.27917	-1.44877	-29.2739	-12.6644	65.4307	74.6443	-44.9507	-17.7595	10.175	0.0297603	3.94831	-1.35366	0.0612098	-0.00891166	23.9169	35.4007	-5.4462	38.6683	37.8655	-13.9569	0.031405	-59.4876	10.0556	14.3851	2.37482	4.2047	1.3566	-0.653147	0.0415439	0.00436485	0.143605	0.643541	-3.35943	-1.40408	-1.65189	-0.062262	-0.229077	-0.0831112
4.28915	5.4819	-27.6239	-14.024	67.5312	61.3581	-41.2541	-23.6351	10.7611	0.542945	7.32656	-2.04668	-0.00643933	-0.0101236	24.8878	36.9768	-5.2915	37.6266	41.7468	-13.7985	0.0301769	-60.8867	11.7473	13.7095	2.05286	4.43458	1.43997	-0.74595	0.042666	-0.00260757	0.157884	0.627905	-3.49661	-1.42918	-1.69204	-0.0631007	-0.235782	-0.0807812
4.29914	12.4189	-25.6436	-15.7716	73.7625	51.4023	-35.5888	-29.9588	11.5941	0.964446	10.7463	-2.79233	-0.0842179	-0.0101867	27.3889	38.7619	-5.12419	36.3036	45.8141	-13.717	0.0292001	-64.2524	13.0512	12.6201	1.59912	4.6965	1.54084	-0.906741	0.043948	-0.0167516	0.178566	0.49031	-3.69886	-1.45767	-1.8191	-0.0653052	-0.252167	-0.0730626
4.30913	19.2634	-23.1804	-18.2316	70.8265	34.0277	-33.7293	-37.1991	12.5981	1.24125	14.5556	-3.53482	-0.174948	-0.00889202	28.745	40.7479	-5.03333	35.2197	50.0281	-13.7205	0.0283734	-63.944	14.8738	11.2145	1.15191	4.81175	1.57548	-1.02025	0.0431218	-0.0283984	0.188661	0.447313	-3.73514	-1.42704	-1.8404	-0.0637968	-0.253289	-0.0649989
4.31912	25.8234	-20.6754	-21.2887	66.7503	15.4115	-31.9684	-45.122	13.8854	1.40672	18.5687	-4.21453	-0.276278	-0.00545939	30.4705	42.8296	-4.96098	34.163	54.3959	-13.8161	0.0279207	-62.8228	16.5621	9.5202	0.658056	4.8825	1.59034	-1.13959	0.0415294	-0.0416333	0.196842	0.395549	-3.73519	-1.37556	-1.85143	-0.0613533	-0.251883	-0.0549568
4.32911	31.7433	-18.5588	-24.8705	63.2568	-2.83707	-29.1676	-53.4298	15.3102	1.48313	22.6244	-4.75224	-0.386164	0.000330755	32.8605	44.8827	-4.85778	33.138	58.9067	-14.0059	0.0278639	-61.424	17.9966	7.84422	0.135915	4.97508	1.61461	-1.26268	0.0402747	-0.054623	0.206253	0.304246	-3.76002	-1.32973	-1.8693	-0.0591485	-0.251338	-0.0451024
4.33909	37.0648	-17.0349	-29.006	55.6519	-25.7462	-27.2145	-61.8979	16.8077	1.44228	26.6762	-5.06835	-0.494612	0.00810647	34.6981	46.716	-4.76722	32.4275	63.5151	-14.2834	0.0283007	-57.7425	19.3993	6.31513	-0.360571	5.03849	1.62534	-1.34572	0.0387614	-0.0632541	0.211562	0.255199	-3.73058	-1.2716	-1.82108	-0.0554712	-0.242789	-0.0379596
4.34908	41.4839	-16.2924	-33.6309	45.5773	-52.7571	-26.6334	-70.0496	18.1974	1.30097	30.4951	-5.10888	-0.587216	0.0174757	36.0378	48.3512	-4.72918	32.099	68.1757	-14.6281	0.029448	-52.2178	20.9859	5.12582	-0.841415	5.12203	1.64513	-1.40007	0.0376093	-0.0674872	0.215951	0.232359	-3.67668	-1.21498	-1.72103	-0.050929	-0.228794	-0.03432
4.35907	44.4577	-16.4841	-37.8825	38.9398	-79.907	-23.8507	-76.9181	19.4153	1.09912	33.6425	-4.8551	-0.634425	0.027687	37.7026	49.9236	-4.7209	32.1171	72.8428	-15.0094	0.0314001	-47.2892	22.1799	4.71729	-1.29724	5.37687	1.74067	-1.44062	0.0392912	-0.0658826	0.228076	0.133157	-3.7679	-1.2224	-1.64299	-0.0489021	-0.221014	-0.0368982
4.36906	45.2903	-17.0518	-40.6454	38.4116	-105.851	-16.1491	-81.6932	20.0465	0.877695	35.7209	-4.33823	-0.610791	0.0378273	40.0831	51.4308	-4.70821	32.4527	77.4446	-15.3976	0.0342615	-44.3003	22.2244	5.49474	-1.67661	5.90856	1.95639	-1.44781	0.0458044	-0.0542772	0.251985	-0.0973481	-4.13101	-1.34426	-1.6171	-0.0517823	-0.225478	-0.0496781
4.37905	43.5743	-18.1284	-42.0469	45.6706	-130.773	0.642539	-83.4873	20.3884	0.689713	36.3851	-3.66181	-0.470761	0.0469515	43.5913	52.429	-4.44905	33.1504	81.9125	-15.7669	0.0368791	-44.5746	20.8396	6.63051	-2.04231	6.59583	2.24216	-1.46349	0.05526	-0.0407867	0.285031	-0.484429	-4.71265	-1.54067	-1.68847	-0.0590466	-0.244692	-0.0649709
4.38903	39.5313	-18.5255	-42.079	47.8309	-166.947	17.1178	-82.5499	19.8687	0.494274	35.7796	-2.98182	-0.211532	0.0543152	45.3483	52.8719	-4.23198	34.6919	86.0575	-16.0641	0.039592	-42.8994	18.6379	7.79722	-2.30229	7.1685	2.48002	-1.41027	0.063743	-0.0220163	0.30893	-0.792652	-5.19383	-1.71079	-1.67952	-0.0644966	-0.253654	-0.0824077
4.39902	32.4053	-17.9999	-41.6557	42.1399	-216.505	27.7849	-78.6297	18.4716	0.222001	33.9931	-2.50476	0.166138	0.0596613	44.8043	52.9527	-4.31521	37.1034	89.7056	-16.2463	0.0429839	-37.837	17.0861	8.25411	-2.6275	7.52922	2.62768	-1.359	0.0685384	-0.00757619	0.322593	-0.974198	-5.41468	-1.78246	-1.57639	-0.0648742	-0.247072	-0.0941296
4.40901	21.1752	-13.1215	-39.3298	47.0662	-263.372	41.8694	-70.9182	14.888	0.0162167	30.5112	-2.41708	0.619676	0.0627266	45.6734	53.6552	-4.45035	39.7535	92.7664	-16.2793	0.0463388	-37.66	14.9652	7.68578	-3.17866	7.94356	2.80017	-1.43799	0.0734188	-0.00793984	0.347525	-1.35456	-5.77871	-1.86361	-1.6505	-0.068284	-0.260274	-0.0949577
4.419	7.38727	-6.85078	-35.1776	53.6645	-313.439	57.5718	-60.2795	10.0144	-0.0886586	25.9614	-2.90966	1.12056	0.0630126	46.3448	53.9155	-4.57139	42.8513	95.0434	-16.1782	0.0496235	-39.0553	12.152	7.33522	-3.65735	8.38412	2.98651	-1.50131	0.0793341	-0.00626281	0.373554	-1.77951	-6.21491	-1.97354	-1.75882	-0.0735308	-0.278734	-0.0973348
4.42899	-9.61069	1.96796	-29.4233	56.9148	-369.406	68.1639	-47.3262	3.25698	-0.127676	20.7636	-4.07883	1.56694	0.0604045	45.9464	54.0645	-4.94542	46.347	96.3144	-15.9346	0.0532943	-39.3535	9.2503	6.91732	-4.08667	8.74338	3.1369	-1.54275	0.08419	-0.00376431	0.39406	-2.14841	-6.56665	-2.05678	-1.83032	-0.0773232	-0.291445	-0.099299
4.43897	-28.9793	13.1176	-22.6104	57.0747	-427.044	73.0226	-33.0481	-4.89688	-0.0962635	15.5571	-5.94491	1.88129	0.0547699	44.8692	54.2907	-5.64095	49.9588	96.3976	-15.5672	0.0573634	-38.8595	6.66579	6.28651	-4.51792	9.03102	3.25472	-1.59198	0.0877515	-0.00353939	0.411002	-2.47525	-6.83337	-2.10757	-1.8863	-0.0796212	-0.300382	-0.0987956
4.44896	-50.393	24.2856	-14.8828	58.9778	-479.146	79.3961	-18.0321	-12.9987	0.0822325	10.8192	-8.42451	2.02887	0.0455792	45.0003	54.3763	-6.32139	53.2262	95.1959	-15.1321	0.0602934	-39.789	3.86934	5.74122	-4.89563	9.32658	3.37424	-1.64838	0.0917052	-0.00413154	0.428371	-2.84246	-7.14864	-2.17349	-1.99238	-0.0832755	-0.314909	-0.0976495
4.45895	-71.3903	33.123	-7.85639	54.9476	-527.492	83.0975	-4.06973	-20.043	0.304756	7.50319	-11.3691	1.96762	0.0332859	45.1905	53.5028	-6.9468	56.158	92.5499	-14.6787	0.0620906	-39.179	1.62375	5.49542	-5.13518	9.514	3.44736	-1.67022	0.0944354	-0.00244191	0.437869	-3.12164	-7.34244	-2.21053	-2.05547	-0.0852314	-0.322536	-0.0972581
4.46894	-91.128	40.6554	-1.38777	44.6946	-567.656	82.8187	7.59793	-25.7557	0.476477	6.12639	-14.5901	1.68717	0.0198317	45.6562	52.1459	-7.57563	58.3873	88.3762	-14.2211	0.06231	-37.031	-0.638385	5.2669	-5.19864	9.50346	3.4345	-1.64701	0.0948744	0.000350864	0.43449	-3.29635	-7.37432	-2.19902	-2.07318	-0.0849357	-0.321406	-0.0956232
4.47893	-107.546	43.4779	3.61283	27.54	-597.97	84.8186	16.6768	-28.3101	0.485308	6.88722	-17.8974	1.27327	0.0076979	46.421	49.0738	-7.78005	59.8015	82.7079	-13.8104	0.0596522	-33.6828	-3.36452	5.16406	-4.98053	9.22628	3.31051	-1.54558	0.0927508	0.00633859	0.413913	-3.34616	-7.22564	-2.13871	-2.03749	-0.082621	-0.310596	-0.0936302
4.48891	-121.815	40.9932	6.27922	0.200936	-621.278	85.7208	23.7253	-27.3813	0.142914	9.51146	-21.0572	0.805986	-0.00182925	46.892	44.0997	-7.53422	60.0647	75.6203	-13.4362	0.0545905	-26.8602	-5.81555	4.5287	-4.57947	8.53502	3.0133	-1.39294	0.0852142	0.00966834	0.37055	-3.20625	-6.71541	-1.95489	-1.89937	-0.0746723	-0.280745	-0.0853476
4.4989	-132.674	34.5963	7.0301	-32.1954	-632.411	87.8871	28.6921	-23.1359	-0.539025	13.7046	-23.8745	0.354938	-0.00842046	47.6037	37.9704	-6.88282	58.8567	67.3578	-13.0427	0.0465934	-19.4647	-8.12928	3.58412	-4.06968	7.6009	2.62139	-1.22637	0.0749054	0.00963803	0.316161	-3.02443	-6.03752	-1.71046	-1.74991	-0.0647707	-0.245835	-0.0718933
4.50889	-139.997	25.7925	7.20289	-60.3441	-627.256	98.9818	32.526	-16.0735	-1.51253	18.806	-26.199	-0.0420985	-0.0125987	49.7388	31.0478	-5.70711	55.7974	58.312	-12.5716	0.0344427	-15.5937	-11.6292	2.55522	-3.47462	6.61312	2.21962	-1.06213	0.0651817	0.00754743	0.262347	-2.96268	-5.45999	-1.49401	-1.69654	-0.058066	-0.222917	-0.0561013
4.51888	-143.525	15.1579	6.91443	-82.9638	-610.866	114.575	35.8326	-7.01355	-2.73829	24.3353	-27.9732	-0.38677	-0.0147846	52.484	23.9371	-4.16355	50.9477	48.9034	-11.9282	0.0177718	-15.0593	-15.4604	1.78995	-2.83293	5.63903	1.84433	-0.913525	0.0569182	0.00421194	0.214286	-3.02862	-4.995	-1.31937	-1.7344	-0.0548562	-0.213248	-0.0398094
4.52886	-143.745	3.80961	5.85211	-107.934	-595.086	124.951	38.8625	2.74469	-4.19698	29.9758	-29.2092	-0.722183	-0.0154558	53.5766	17.1072	-2.55717	44.7081	39.5311	-11.0242	-0.00147005	-14.1684	-18.1477	1.52798	-2.22027	4.6938	1.50178	-0.771961	0.0495446	0.00231558	0.171493	-3.12857	-4.51572	-1.1546	-1.76214	-0.0519347	-0.204763	-0.0254022
4.53885	-141.122	-6.52622	3.85843	-140.791	-588.324	123.6	41.4005	11.9899	-5.77127	35.499	-29.957	-1.11897	-0.0152716	51.7944	11.0599	-1.11914	37.4886	30.6347	-9.83092	-0.0209952	-10.7723	-18.6912	1.53094	-1.73735	3.75375	1.17905	-0.653645	0.041903	8.88811e-05	0.132942	-3.21325	-3.91806	-0.960195	-1.72801	-0.0467126	-0.189844	-0.0111554
4.54884	-136.617	-14.4831	2.27319	-178.6	-591.64	114.084	43.3758	20.1181	-7.26317	40.5857	-30.2753	-1.64786	-0.014843	48.065	6.33583	0.0368448	29.5513	22.6908	-8.40118	-0.0398238	-6.10119	-18.2228	1.82618	-1.35669	2.86966	0.894383	-0.542884	0.0351372	-0.00029837	0.0999177	-3.33751	-3.30285	-0.767706	-1.66334	-0.0409798	-0.17317	0.00135911
4.55883	-130.439	-19.6956	1.1989	-220.063	-604.236	100.234	44.4943	26.6756	-8.52779	45.0474	-30.2154	-2.37297	-0.0145041	43.2508	2.72655	0.994178	21.2336	16.0638	-6.86117	-0.0567862	-1.21718	-17.2577	2.28748	-1.11884	2.09705	0.668193	-0.455972	0.0299623	6.25325e-05	0.0756675	-3.55748	-2.74573	-0.595278	-1.60741	-0.0359595	-0.159738	0.0127475
4.56882	-123.506	-19.3295	0.175094	-280.366	-636.051	74.6594	43.6076	30.8835	-9.49389	49.1082	-29.8105	-3.34345	-0.0144035	35.5625	0.63549	1.57933	13.086	10.8308	-5.31328	-0.0682033	8.94958	-14.944	1.80134	-1.16551	1.22565	0.397232	-0.394846	0.0218817	-0.00359543	0.0474777	-3.71987	-1.95664	-0.322777	-1.42604	-0.0248141	-0.12759	0.0295117
4.5788	-115.032	-15.5372	0.27551	-333.356	-664.497	56.2164	41.9468	33.2657	-10.1407	52.1734	-29.044	-4.52765	-0.0145625	29.4941	-0.705893	1.95625	5.02791	7.15266	-3.92855	-0.0758971	14.3668	-13.6195	0.791146	-1.50128	0.625097	0.242746	-0.448156	0.0169892	-0.0153547	0.040132	-4.12943	-1.46623	-0.12307	-1.41159	-0.0186722	-0.118436	0.0501132
4.58879	-45.5061	-18.3483	-2.61308	-5.55888	1.7587	-2.54049	28.701	29.4179	-9.78435	55.1972	-29.652	-5.8099	0.0359018	35.9484	8.48875	-0.534316	-13.6417	4.11076	-2.55975	-0.050899	-82.0916	12.1927	8.00608	0.105376	4.19471	1.44271	-1.70771	0.042533	-0.112391	0.223007	-2.15161	-4.48229	-1.38514	-3.26644	-0.0857623	-0.39429	0.0176286
4.59878	-39.1971	-13.8309	-1.19741	0.787961	0.635389	-3.15373	29.4648	29.6348	-10.0935	55.7291	-28.1768	-7.07971	0.0374924	33.2005	8.29666	-0.633725	-21.5287	2.90165	-1.68773	-0.0484215	-84.1302	12.1611	7.13896	-0.0730178	4.10866	1.43869	-1.7515	0.0409211	-0.11979	0.229177	-1.98151	-4.3411	-1.34587	-3.19807	-0.08428	-0.390691	0.0212947
4.60877	-31.931	-9.32839	-0.783384	-3.1025	2.4742	-3.74931	28.7565	30.1702	-10.2644	56.1784	-26.3858	-8.25581	0.0395297	28.4762	8.27006	-0.755263	-28.036	2.38576	-1.03638	-0.0400744	-82.4846	13.008	6.26932	-0.315861	4.12896	1.45117	-1.76499	0.0391221	-0.122108	0.233094	-1.66733	-4.15612	-1.29416	-3.01273	-0.0797406	-0.372869	0.0202198
4.61876	-23.0332	-5.03184	0.262964	-0.541135	-1.41691	-2.26195	27.8225	30.501	-10.2795	56.1087	-24.1961	-9.33811	0.0401039	24.815	8.75447	-1.20187	-32.6237	2.43596	-0.556999	-0.0317426	-84.1902	13.3782	5.77976	-0.659771	4.32291	1.55747	-1.83269	0.0406221	-0.125962	0.252486	-1.58719	-4.16701	-1.30743	-2.95446	-0.079681	-0.373743	0.0194372
4.62874	-15.0635	-1.29866	1.05279	-2.80748	-1.89029	-2.38556	26.1227	31.1226	-10.1915	55.9241	-21.7024	-10.2951	0.0411031	19.7174	9.51182	-1.76478	-35.6231	2.67578	-0.203021	-0.0212625	-81.7962	14.2445	5.54082	-0.859821	4.47952	1.62151	-1.80539	0.0408816	-0.120653	0.259304	-1.28126	-4.05997	-1.29615	-2.74185	-0.0760098	-0.355092	0.0119464
4.63873	-7.51149	1.01591	1.9336	-0.823782	3.2126	-2.29851	23.9287	31.8866	-9.99465	55.5599	-18.902	-11.1386	0.0424419	14.3626	10.2225	-2.40144	-37.1166	2.9441	0.0554162	-0.0103478	-77.9339	15.0413	5.9343	-0.81751	4.61379	1.66145	-1.68074	0.0411247	-0.105566	0.256458	-0.807321	-3.92117	-1.29878	-2.44002	-0.0715485	-0.326576	-0.00333989
4.64872	-2.14757	1.70873	2.8017	-0.662767	-1.84399	1.21704	21.6485	32.5348	-9.69729	54.8636	-15.7346	-11.9013	0.0424055	10.0275	10.2699	-2.98611	-36.9951	3.18054	0.231098	-0.00179529	-72.7165	14.9151	6.77209	-0.66655	4.69245	1.68612	-1.49194	0.0420591	-0.0835494	0.248582	-0.411863	-3.78716	-1.30977	-2.12391	-0.0674869	-0.296126	-0.0216025
4.65871	3.89687	1.17241	2.79888	0.113026	2.19115	-1.25586	18.1186	32.5168	-9.24591	54.0436	-12.2695	-12.6115	0.0421196	7.04298	10.0998	-3.60626	-35.6779	3.30033	0.352141	0.00425143	-69.5849	15.7626	8.06852	-0.543015	4.81496	1.74326	-1.3718	0.0442091	-0.0664332	0.248406	-0.220845	-3.72445	-1.33988	-1.94141	-0.0658994	-0.280461	-0.0359204
4.6687	4.67926	0.102893	2.71638	0.709754	0.307217	-0.620787	14.856	31.5749	-8.68154	52.6843	-8.4963	-13.2737	0.0405979	6.46223	9.43624	-4.16036	-33.576	3.32824	0.416621	0.00635486	-65.3397	15.8026	9.46191	-0.383838	4.91011	1.7846	-1.22781	0.0465836	-0.0467991	0.244408	-0.12236	-3.69144	-1.37182	-1.77697	-0.0645655	-0.264946	-0.0503325
4.67868	2.72984	-0.562301	1.92369	-1.04496	-0.0489637	2.42261	12.6551	30.0126	-8.08078	50.6931	-4.48416	-13.8505	0.0377936	7.62669	8.53538	-4.52128	-31.118	3.24289	0.430976	0.00550671	-63.4333	15.7485	10.1929	-0.542942	5.12515	1.88023	-1.23191	0.0499548	-0.0404052	0.255174	-0.338682	-3.80767	-1.41109	-1.79476	-0.0656622	-0.268604	-0.0543856
4.68867	-1.25986	-0.843497	0.721561	1.50006	-1.21996	2.40007	10.8693	28.0737	-7.45692	48.5983	-0.401033	-14.3182	0.0355529	7.82935	7.54792	-4.55983	-28.1512	2.96306	0.410034	0.00458185	-59.2324	16.4001	10.5446	-0.537277	5.16578	1.87484	-1.17913	0.0497748	-0.0330224	0.249095	-0.26823	-3.73519	-1.39067	-1.69255	-0.0626032	-0.254453	-0.0588962
4.69866	-3.9453	0.44474	0.00750235	-1.3802	0.763966	0.518527	9.03169	25.902	-6.78048	46.5306	3.69203	-14.6695	0.03356	6.63063	6.66483	-4.3088	-24.8528	2.51931	0.367182	0.00414944	-55.2469	16.8606	10.2991	-0.615856	5.17488	1.84736	-1.16765	0.0484988	-0.0314813	0.242324	-0.235696	-3.6617	-1.34865	-1.62713	-0.0590883	-0.242092	-0.0583961
4.70865	-2.884	0.898804	-1.49963	-2.64962	1.00826	0.0450048	6.88276	24.4838	-6.12319	44.7923	7.74071	-14.8844	0.0317836	4.24531	5.15956	-3.57305	-21.3287	1.98512	0.283412	0.00410068	-52.7636	17.5674	9.86229	-0.697021	5.17117	1.81668	-1.17898	0.0467343	-0.0333231	0.236952	-0.153193	-3.57398	-1.30314	-1.5746	-0.0557848	-0.231856	-0.0562542
4.71864	-0.765133	1.20089	-3.78574	0.129722	0.530538	-0.0476726	5.45067	23.394	-5.5209	42.9626	11.7768	-14.986	0.0299171	1.37937	3.44885	-2.56263	-17.7919	1.42993	0.174402	0.00396163	-51.5507	18.85	8.97651	-0.849697	5.15652	1.77983	-1.24029	0.0439406	-0.0416648	0.23393	-0.0174594	-3.45127	-1.23916	-1.53654	-0.0519631	-0.222942	-0.0503425
4.72862	0.421933	2.09862	-5.53043	-2.82455	0.938469	2.48937	4.60073	22.4861	-4.95501	41.0068	15.8318	-15.0062	0.0278346	-1.60132	1.66001	-1.4176	-14.608	0.910515	0.0502731	0.00341936	-50.0071	19.2526	7.75854	-1.07598	5.15595	1.7443	-1.31459	0.0412741	-0.0514378	0.231664	0.0371012	-3.37839	-1.17599	-1.52464	-0.0484687	-0.216053	-0.0426067
4.73861	-0.207723	3.55516	-5.95924	-2.88129	-2.79049	1.12257	5.34003	21.1052	-4.41628	38.5774	19.9518	-14.9807	0.0258436	-4.48247	0.417716	-0.338612	-10.9139	-0.0916839	-0.105409	0.00188585	-49.0035	19.1276	6.83887	-1.23089	5.12527	1.70664	-1.3715	0.0391987	-0.0593232	0.228815	0.0275216	-3.32984	-1.1262	-1.54076	-0.0461894	-0.212888	-0.0355469
4.7486	-1.20491	4.3126	-5.77083	1.34612	0.438924	-0.00872278	7.64724	20.1798	-3.97605	35.8424	24.1416	-14.9063	0.0241532	-6.82563	-0.610657	0.644171	-8.80389	-0.0357764	-0.17713	-0.000108662	-50.2728	18.5488	6.19055	-1.3789	5.16545	1.70668	-1.45542	0.038554	-0.0685005	0.232335	-0.0665386	-3.3809	-1.11249	-1.63217	-0.0464747	-0.220238	-0.0284701
4.75859	-1.30199	4.7665	-4.79374	0.824918	0.198674	-0.656346	9.26049	19.4468	-3.54706	33.332	28.4098	-14.8386	0.0230608	-9.99366	-1.87081	1.57488	-6.27949	0.0330851	-0.243911	-0.0027785	-49.8576	17.3185	5.76082	-1.35813	5.0846	1.65578	-1.45819	0.0371326	-0.0712963	0.225401	-0.0861314	-3.36274	-1.08683	-1.65725	-0.0457122	-0.219131	-0.0246849
4.76857	-1.84683	5.41592	-3.42899	-0.125022	-0.0930926	-0.0590177	12.6486	19.3145	-3.23016	30.5516	32.8447	-14.7621	0.0217749	-13.2782	-2.73846	2.34184	-3.8398	0.112322	-0.28931	-0.00607182	-51.6266	15.7091	5.022	-1.53926	5.09166	1.65398	-1.56015	0.0368893	-0.0825189	0.230666	-0.328335	-3.45519	-1.07563	-1.81183	-0.0472814	-0.233163	-0.0145671
4.77856	-2.00522	4.92606	-1.96817	0.829728	-2.57282	2.86666	15.287	19.6903	-2.97416	28.003	37.4313	-14.7228	0.0214288	-16.8043	-3.86056	2.91511	-1.12455	0.203115	-0.32217	-0.00989228	-51.6739	13.867	4.66619	-1.46548	4.97016	1.59199	-1.55378	0.0354637	-0.0851112	0.222439	-0.365303	-3.44216	-1.05369	-1.85241	-0.0471569	-0.233993	-0.0106027
4.78855	-0.802024	3.1999	-0.372624	-1.05321	-1.55581	5.41309	16.6506	20.8294	-2.83612	25.8134	42.1993	-14.7245	0.0224153	-21.0529	-4.78525	3.18083	1.90805	0.268816	-0.327912	-0.0134343	-50.0268	12.1513	5.03527	-1.14255	4.76911	1.4934	-1.44566	0.0338073	-0.0779715	0.203557	-0.270482	-3.36409	-1.03626	-1.80749	-0.0461577	-0.225147	-0.0135326
4.79854	1.04994	1.70467	0.804015	-1.82314	-0.00793724	1.72834	18.4492	22.2229	-2.76784	23.6533	47.2632	-14.777	0.0239221	-25.6962	-4.85339	3.17049	4.99074	0.286425	-0.296268	-0.0160502	-49.5428	11.908	5.40925	-0.922471	4.57454	1.41001	-1.41079	0.031927	-0.0776118	0.191039	-0.245438	-3.24612	-1.00082	-1.81688	-0.0450949	-0.221921	-0.0116222
4.80853	1.76854	0.67482	1.44904	-0.995721	0.333406	3.31989	21.4542	24.8319	-2.8274	21.3814	52.6919	-14.8628	0.0253439	-30.2217	-3.95634	2.88444	7.93728	0.245763	-0.216892	-0.0174341	-50.1031	11.7095	5.54688	-0.905509	4.53615	1.39078	-1.45054	0.0313783	-0.0821899	0.190134	-0.334127	-3.2329	-0.98521	-1.88907	-0.0452712	-0.226994	-0.00726766
4.81851	0.597917	2.66152	4.33197	4.12478	2.5788	3.07467	26.1534	26.8092	-2.76161	18.7024	58.5255	-15.0365	0.0271039	-34.8732	-1.46736	2.30376	10.8286	0.121391	-0.0812077	-0.0169693	-51.3342	10.3296	6.01126	-0.874324	4.58783	1.41109	-1.48065	0.0327218	-0.083613	0.19327	-0.526689	-3.34944	-1.01379	-2.00914	-0.0478411	-0.239341	-0.00535864
4.8285	-0.417598	2.29366	5.92697	-0.589839	1.73785	0.776514	30.0902	29.5739	-2.73899	16.3063	64.6896	-15.262	0.029299	-40.4446	0.287261	1.85346	13.9104	-0.0573648	0.0350127	-0.0144809	-50.1643	10.4509	7.04254	-0.807326	4.60917	1.42608	-1.47272	0.0343036	-0.0795397	0.19334	-0.763582	-3.39303	-1.02688	-2.08749	-0.0490471	-0.245818	-0.00554326
4.83849	-3.00416	-1.46817	5.60042	-2.65214	-0.347107	0.935706	34.5982	33.5762	-2.89125	13.8369	71.1438	-15.5227	0.0319067	-47.273	0.536075	1.83797	17.8979	-2.05502	0.024396	-0.00966877	-46.573	11.6994	8.53533	-0.61809	4.54037	1.40659	-1.3915	0.0353229	-0.0682857	0.185068	-0.937974	-3.32728	-1.01874	-2.08129	-0.0483125	-0.241678	-0.00934039
4.84848	-4.89619	-4.28806	6.0785	-1.32627	0.724826	1.3419	38.6003	37.3508	-3.05079	11.639	77.7663	-15.8617	0.0357594	-53.8401	0.643251	1.71303	21.2246	-2.95762	0.062501	-0.00172769	-43.2366	12.3183	9.52215	-0.37389	4.31773	1.32357	-1.30309	0.0343578	-0.0603425	0.169637	-1.05284	-3.18695	-0.978377	-2.06509	-0.0466632	-0.234577	-0.00977142
4.85847	-5.65079	-3.82401	7.18247	-4.99401	-1.8156	1.13086	42.7811	40.7227	-3.1089	9.88822	84.4716	-16.2703	0.0395705	-60.5099	1.28189	1.5431	24.394	-3.58203	0.125219	0.00774633	-42.0047	12.7456	8.76681	-0.61136	4.08399	1.25035	-1.42092	0.0320145	-0.0749622	0.168832	-1.47643	-3.0718	-0.881436	-2.22089	-0.0452098	-0.24348	0.00830882
4.86845	-6.07192	-2.25811	7.07399	0.941387	2.84635	1.67585	48.0428	44.2286	-3.10339	8.4283	91.0635	-16.709	0.043706	-65.9479	1.72042	1.39311	26.8181	-3.8291	0.20843	0.018975	-45.7419	13.5091	5.85407	-1.38036	3.87136	1.19028	-1.82397	0.0270811	-0.12149	0.18695	-2.08278	-2.95644	-0.717058	-2.58082	-0.0437364	-0.272067	0.0488463
4.87844	-5.76237	-0.648588	6.95368	1.32113	0.954322	2.03152	50.9658	47.1829	-3.09642	7.95225	97.2876	-17.1939	0.0479642	-70.2872	1.45621	1.19615	28.639	-3.66055	0.304934	0.0307768	-47.4724	14.4115	2.53619	-2.06748	3.4783	1.05295	-2.17232	0.0198391	-0.166289	0.193395	-2.56479	-2.70172	-0.506756	-2.85	-0.0395828	-0.288186	0.0895607
4.88843	-5.54275	1.49796	7.51897	-0.903503	-1.54696	-0.685979	52.2327	48.9938	-3.11694	8.35485	102.901	-17.7154	0.0529596	-73.1322	1.16228	0.900585	29.7152	-3.16921	0.4561	0.0426844	-48.0264	15.0153	-0.402117	-2.57877	3.02191	0.887535	-2.43907	0.0125043	-0.203613	0.19184	-2.95113	-2.422	-0.30561	-3.05397	-0.035124	-0.297443	0.12486
4.89842	-5.36507	2.0025	8.52617	-0.35988	0.495864	-0.244263	52.3409	50.2907	-3.28739	9.54084	107.651	-18.2192	0.0589364	-73.8677	-0.0066068	0.588626	29.7652	-2.5036	0.675239	0.0544055	-48.9126	14.4121	-2.47772	-2.88453	2.65387	0.755057	-2.62203	0.00726052	-0.230393	0.18894	-3.25312	-2.25293	-0.170882	-3.22655	-0.0329265	-0.307049	0.150292
4.90841	-2.64614	34.6437	40.986	287.196	-376.825	75.8295	59.9979	47.6104	-2.78052	12.868	112.328	-18.996	0.0439676	-53.3508	2.66952	-0.0968929	25.2084	-1.43671	1.08237	0.0568376	-47.8295	-28.5469	-5.71689	0.888963	-0.294014	-0.315301	-0.826664	-0.0124482	-0.125186	-0.00103055	0.270427	-1.17294	-0.196387	-1.55244	-0.0308347	-0.160644	0.0683408
4.91839	-9.17222	32.2663	37.8727	241.483	-410.967	65.2389	56.3419	47.2475	-3.19189	16.4583	114.695	-19.2205	0.0482979	-48.4793	0.195672	-0.252945	22.8354	-0.837031	1.49915	0.0619237	-42.1192	-25.4109	-7.23733	0.340806	-0.682242	-0.422751	-0.993853	-0.0159741	-0.144601	-0.00119337	-0.449194	-0.947016	-0.0259448	-1.70985	-0.0265846	-0.165148	0.0946934
4.92838	-20.2863	27.5674	32.6988	204.994	-443.372	56.1945	53.5787	46.3759	-3.74624	20.3228	115.536	-19.1609	0.0529515	-39.7768	-2.74322	-0.286077	19.2707	-0.586805	2.0222	0.0637757	-38.2839	-22.2507	-8.1204	-0.173088	-0.890589	-0.459828	-1.16412	-0.0172722	-0.160778	0.00628218	-1.14371	-0.834127	0.0895756	-1.89047	-0.0244691	-0.175769	0.116046
4.93837	-36.5432	21.4423	26.1316	174.58	-477.151	53.2648	51.2802	45.1831	-4.5092	24.2438	114.675	-18.777	0.0580373	-27.5671	-6.09503	-0.228849	14.8899	-0.790932	2.58721	0.0616929	-33.8199	-20.3208	-8.25933	-0.454879	-1.03191	-0.481791	-1.22007	-0.016921	-0.16416	0.00817409	-1.71119	-0.812715	0.147186	-2.00383	-0.0237536	-0.181851	0.126631
4.94836	-54.1183	12.6879	18.1497	159.368	-501.861	47.3786	51.0315	44.0691	-5.28551	28.0399	112.066	-18.0317	0.0607647	-13.3231	-9.40733	0.0373494	10.4002	-1.49622	3.12339	0.0548415	-34.9396	-18.0612	-7.7033	-0.89835	-0.780932	-0.340632	-1.40461	-0.0125729	-0.173297	0.0355382	-2.3491	-1.00935	0.119984	-2.25712	-0.0274788	-0.209717	0.136074
4.95835	-72.1237	2.56857	10.6876	140.843	-527.88	48.0131	50.5037	42.5313	-6.10932	31.6413	107.552	-16.9499	0.0621714	0.678348	-13.4714	0.384557	6.86272	-2.65978	3.49447	0.0429871	-33.8441	-16.6393	-6.1869	-1.03462	-0.468796	-0.195033	-1.41645	-0.00665254	-0.16368	0.0521798	-2.77436	-1.26609	0.0348275	-2.3718	-0.031515	-0.225057	0.13052
4.96833	-91.0648	-6.74102	5.25768	117.081	-556.679	57.9694	49.9581	40.483	-6.96282	34.6436	101.139	-15.5714	0.0619069	13.5194	-17.4609	0.680876	4.85327	-4.22956	3.63454	0.0275301	-28.4299	-17.4536	-3.44947	-0.703796	-0.150002	-0.0729932	-1.15322	0.00118532	-0.125771	0.0489029	-2.9521	-1.61574	-0.128015	-2.28829	-0.0361032	-0.221468	0.103983
4.97832	-106.846	-14.2003	1.28117	92.5656	-576.022	66.901	50.1347	37.9774	-7.63582	36.8817	92.9997	-13.9514	0.0576693	23.7731	-19.8457	0.909456	4.85174	-6.16305	3.54088	0.0115605	-24.1801	-18.3859	-0.556191	-0.394226	0.35417	0.106033	-0.897871	0.010334	-0.0863585	0.0513097	-3.04268	-2.06132	-0.329857	-2.19826	-0.0415803	-0.219527	0.073512
4.98831	-119.364	-19.5491	-1.46152	62.3108	-587.404	75.005	50.322	35.0117	-8.02516	38.0724	83.3716	-12.1742	0.0491431	31.117	-20.4635	0.973396	6.84382	-8.32625	3.20139	-0.00242238	-19.3908	-18.9034	2.30031	-0.0715689	0.94414	0.297604	-0.616741	0.0194245	-0.0439395	0.0522839	-2.9865	-2.50973	-0.538804	-2.04243	-0.0459609	-0.210711	0.0392766
4.9983	-128.651	-21.1611	-2.37212	24.9576	-589.779	80.2703	50.3087	30.9074	-7.8965	37.8794	72.6406	-10.3684	0.0366962	35.5798	-18.607	0.759441	10.6739	-10.5516	2.65743	-0.0130165	-13.4043	-19.0608	4.98874	0.27283	1.5621	0.479417	-0.300145	0.0278397	0.00144344	0.0489133	-2.78215	-2.92493	-0.740266	-1.80784	-0.048612	-0.192636	0.00211786
5.00829	-132.721	-21.173	-2.9752	-9.44564	-574.482	75.8922	51.0179	26.0542	-7.2239	36.0502	61.371	-8.63154	0.0193401	37.643	-14.2498	0.241643	15.8932	-12.6561	1.95157	-0.0194655	-11.8261	-16.9208	7.41546	0.275667	2.4701	0.778948	-0.171823	0.0375043	0.0323509	0.0693914	-2.61583	-3.38881	-0.948779	-1.6803	-0.0520419	-0.188872	-0.0283353
5.01827	-132.882	-18.9221	-4.23656	-38.4143	-543.177	62.4012	52.38	20.609	-6.07092	32.4167	50.1324	-7.04303	-0.00163301	38.4525	-7.6597	-0.660043	21.8849	-14.4675	1.12867	-0.0217864	-14.6774	-12.4629	8.48726	-0.153316	3.47125	1.12017	-0.291577	0.0453727	0.0377322	0.10937	-2.50872	-3.78661	-1.09851	-1.68768	-0.0544949	-0.198715	-0.0422664
5.02826	-127.742	-14.1804	-5.35595	-59.918	-498.386	44.4937	53.5298	14.8691	-4.60383	27.2103	39.4645	-5.64444	-0.0239161	38.2904	0.607142	-1.95116	28.3146	-15.8726	0.220206	-0.0203549	-22.0164	-7.21416	8.14715	-0.929855	4.49724	1.48153	-0.624508	0.0514878	0.0196088	0.165318	-2.46872	-4.15406	-1.20315	-1.8331	-0.0571013	-0.223343	-0.0409031
5.03825	-122.754	-9.33109	-6.35222	-81.9064	-455.951	32.7085	53.2521	9.95443	-3.18386	20.5852	29.8159	-4.43102	-0.0444931	38.3278	8.64766	-3.5266	34.5027	-16.7654	-0.799125	-0.0162539	-26.4138	-3.09779	7.45555	-1.501	5.21671	1.72039	-0.850821	0.0547228	0.00621901	0.202083	-2.31649	-4.37334	-1.26116	-1.87588	-0.0573609	-0.233653	-0.0403549
5.04824	-113.908	-3.91002	-7.83899	-88.7827	-402.735	16.6154	53.5361	5.80122	-1.97632	12.8184	21.6623	-3.43422	-0.0638293	38.3114	17.2335	-5.238	40.2151	-17.1502	-1.89924	-0.0104357	-36.6209	1.43582	5.90584	-2.35351	5.99309	2.00592	-1.28506	0.0577019	-0.0285117	0.258136	-2.30703	-4.63593	-1.30913	-2.10523	-0.060061	-0.266211	-0.026575
5.05822	-104.635	0.0588294	-8.33607	-102.026	-362.399	10.9493	51.1357	3.37212	-1.16367	4.60184	15.0726	-2.62899	-0.0771917	37.7376	24.2361	-6.91108	45.4286	-17.0197	-3.1457	-0.00379617	-40.9653	3.20074	4.57917	-2.69773	6.25758	2.0898	-1.45367	0.0571808	-0.0450633	0.277169	-2.11394	-4.68561	-1.30995	-2.1283	-0.0596873	-0.272079	-0.0209464
5.06821	-96.0835	0.764323	-9.82687	-116.968	-329.58	11.0333	47.2624	2.86273	-0.907709	-3.79953	10.1057	-2.01432	-0.0835269	37.0571	29.2369	-8.38253	49.7356	-16.391	-4.54734	0.00298124	-41.7	4.04526	3.52223	-2.72569	6.16325	2.03835	-1.4707	0.0540296	-0.0517646	0.272889	-1.82045	-4.54301	-1.26364	-2.02882	-0.0567714	-0.261088	-0.0187103
5.0782	-85.8968	-0.969468	-12.5945	-123.081	-293.713	7.05957	43.5031	3.28753	-1.03935	-11.955	6.69699	-1.59833	-0.0833927	36.3425	32.8617	-9.59279	52.9957	-15.3068	-6.06344	0.00947344	-44.9939	5.76036	2.59644	-2.79384	6.03105	1.99624	-1.55849	0.0509035	-0.0654402	0.2751	-1.61744	-4.36666	-1.20789	-2.01375	-0.0549987	-0.260047	-0.0113361
5.08819	-75.6779	-5.19455	-15.9443	-125.737	-260.741	3.10694	39.1767	4.56151	-1.45185	-19.2816	4.58617	-1.33803	-0.0768156	35.6238	34.6225	-10.4727	55.1785	-13.8008	-7.65707	0.0153228	-47.4643	7.28066	2.07606	-2.68728	5.71561	1.89578	-1.58384	0.0469207	-0.0748843	0.267923	-1.41033	-4.09488	-1.13382	-1.97213	-0.0527766	-0.254969	-0.00495105
5.09818	-64.115	-9.89067	-19.669	-112.989	-220.605	-7.00908	36.1693	6.08118	-2.15019	-25.4842	3.5627	-1.18556	-0.0676687	35.2835	35.8506	-11.117	56.2778	-11.9409	-9.21703	0.0203455	-54.9551	9.55614	1.66241	-2.72434	5.52792	1.87098	-1.74146	0.0447376	-0.0950078	0.27831	-1.36725	-3.92664	-1.09007	-2.09763	-0.0541769	-0.271417	0.00743529
5.10816	-54.3358	-14.8246	-22.9545	-101.007	-186.298	-16.1737	32.7659	8.09687	-3.05218	-30.1685	3.25293	-1.07889	-0.0564739	34.7943	36.2471	-11.508	56.5991	-9.79707	-10.6768	0.024568	-59.4789	11.0045	1.44189	-2.54291	5.10828	1.75325	-1.7866	0.0408907	-0.107311	0.271649	-1.27239	-3.64593	-1.01631	-2.14103	-0.053807	-0.275864	0.0172262
5.11815	-46.2474	-19.2977	-25.718	-95.0121	-158.679	-24.91	28.65	10.2598	-4.03517	-33.1913	3.34661	-0.979193	-0.0442424	33.5707	36.1211	-11.6771	56.4567	-7.44894	-11.9631	0.0280963	-59.7664	11.9164	1.23763	-2.17799	4.45146	1.53225	-1.71752	0.0347567	-0.111906	0.246053	-1.10207	-3.21726	-0.895217	-2.07282	-0.050319	-0.263677	0.0249207
5.12814	-40.8137	-23.0159	-28.0649	-96.2155	-136.82	-33.4731	24.4212	12.373	-5.10126	-34.7165	3.61219	-0.858693	-0.0324258	31.3652	35.6091	-11.6435	56.0239	-4.95909	-13.0216	0.0310407	-55.4292	12.5787	0.918887	-1.69364	3.61063	1.22111	-1.55435	0.0263281	-0.110158	0.203503	-0.855751	-2.65157	-0.72411	-1.89224	-0.0432378	-0.234285	0.0311281
5.13813	-38.2598	-24.8712	-29.644	-104.852	-118.699	-44.0728	20.4226	13.8007	-6.06426	-34.8961	3.88118	-0.72068	-0.022038	28.1157	35.2049	-11.4674	55.4168	-2.37905	-13.8026	0.0334017	-46.9887	13.4287	0.336416	-1.19323	2.68316	0.852686	-1.34493	0.0160205	-0.105532	0.149934	-0.557209	-1.99057	-0.508894	-1.62812	-0.0327854	-0.191112	0.0373396
5.14812	-36.8555	-24.6345	-30.3869	-105.712	-93.1262	-58.9508	18.5024	14.2646	-6.94595	-34.1409	4.09846	-0.571706	-0.0150364	24.6256	35.3051	-11.2194	54.4945	0.257904	-14.2776	0.035208	-41.5429	15.0341	-0.478313	-0.942847	2.04917	0.591597	-1.26847	0.00790304	-0.109981	0.115181	-0.377878	-1.52119	-0.337768	-1.49301	-0.0249766	-0.164322	0.0470689
5.1581	-31.5707	-23.7873	-30.1277	-92.3744	-54.2784	-74.9025	17.8253	14.1047	-7.62371	-32.6048	4.16969	-0.4186	-0.010659	20.9136	35.7491	-10.912	53.4471	2.91115	-14.4526	0.0366845	-43.8237	16.8141	-0.730798	-0.922832	1.94134	0.548899	-1.34439	0.00608298	-0.1206	0.114266	-0.391476	-1.47018	-0.308519	-1.58401	-0.025228	-0.171765	0.0548089
5.16809	-29.0239	-23.4193	-28.5676	-85.5789	-18.6327	-87.4994	16.1977	13.6202	-7.88106	-30.2283	4.01098	-0.273479	-0.00717265	17.2977	35.9203	-10.5533	52.3513	5.57255	-14.368	0.0377243	-42.7476	17.5032	-0.0817711	-0.680848	1.86494	0.495004	-1.27715	0.00536603	-0.115287	0.101507	-0.345417	-1.48388	-0.316667	-1.58301	-0.0252208	-0.168374	0.0516685
5.17808	-27.9276	-24.0557	-26.2183	-77.5864	15.4456	-96.15	14.0039	13.006	-7.75739	-27.4085	3.65322	-0.144527	-0.00452937	14.91	35.9219	-10.1825	50.9401	8.24988	-14.0518	0.0381468	-41.5707	17.3109	1.55832	-0.301039	1.94206	0.493848	-1.12649	0.00743665	-0.0978245	0.088859	-0.286876	-1.64722	-0.396559	-1.56066	-0.0274378	-0.165684	0.0383435
5.18807	-22.8707	-25.4413	-23.6369	-53.9225	58.8104	-100.731	11.7215	12.2452	-7.25037	-24.6595	3.15012	-0.0456301	-0.00241211	14.5731	36.245	-9.856	49.0636	10.9371	-13.5262	0.037977	-48.3406	16.8906	4.14973	-0.0310137	2.50623	0.705947	-1.06121	0.0164563	-0.0798395	0.106687	-0.371072	-2.22541	-0.637256	-1.7221	-0.0383979	-0.194697	0.0181645
5.19806	-18.5749	-26.4898	-20.0613	-31.0818	95.851	-101.178	9.09477	11.2406	-6.44451	-21.7611	2.55455	0.0249297	-0.000988626	14.8237	36.7664	-9.54524	47.1546	13.6106	-12.8539	0.0373788	-54.3379	15.528	7.06991	0.334424	3.09693	0.922913	-0.922099	0.0263718	-0.0537639	0.120601	-0.408981	-2.85363	-0.906356	-1.83318	-0.0498317	-0.219509	-0.00813152
5.20804	-14.9295	-27.4543	-16.125	-7.47478	126.328	-97.1282	6.57147	10.2373	-5.50502	-18.9054	1.93678	0.0707244	-0.000519411	15.7087	37.3713	-9.24744	45.2165	16.2762	-12.0863	0.0362596	-60.2225	13.5871	10.0324	0.730127	3.70349	1.14458	-0.747627	0.0367459	-0.0239983	0.133248	-0.414993	-3.51022	-1.1905	-1.91512	-0.0615762	-0.242275	-0.0374232
5.21803	-12.8104	-26.7196	-11.8326	11.4883	146.536	-91.5444	3.98924	8.95227	-4.43203	-16.0179	1.35354	0.0856179	-0.00111865	16.6296	38.4579	-9.0137	43.4326	18.9223	-11.2559	0.0349769	-63.8619	11.543	12.2717	1.08117	4.18551	1.30728	-0.565167	0.04476	0.00333371	0.138632	-0.35694	-4.04635	-1.42067	-1.93206	-0.0703369	-0.254752	-0.0634666
5.22802	-11.5212	-24.3729	-7.25167	26.6494	153.95	-85.8292	1.01423	7.22777	-3.06412	-12.2363	0.0902872	0.168145	-0.00278636	17.4472	39.8477	-8.83719	41.8283	21.5689	-10.4071	0.0336354	-65.5979	9.76191	13.8117	1.36186	4.55311	1.41984	-0.392226	0.0505221	0.0268994	0.139037	-0.248213	-4.44983	-1.59393	-1.89543	-0.0761571	-0.258461	-0.0853333
5.23801	-10.7337	-20.9671	-3.67714	35.8493	155.01	-80.6035	-1.86012	5.41854	-1.92875	-9.78357	0.147201	0.0671869	-0.00528664	18.0798	41.4921	-8.72116	40.4206	24.2407	-9.57321	0.0324	-65.7875	8.61542	14.5897	1.53079	4.82453	1.49128	-0.25601	0.0540624	0.0442985	0.1371	-0.111221	-4.72074	-1.70705	-1.82648	-0.0791298	-0.255687	-0.101407
5.248	-10.8161	-15.957	-0.5094	33.9644	140.689	-80.4755	-5.38713	3.14629	-0.814679	-6.9239	0.231626	-0.0434596	-0.00876024	17.5137	43.6011	-8.71205	39.385	26.9673	-8.78109	0.0311226	-61.6062	8.44449	14.7512	1.6455	4.89134	1.47648	-0.116123	0.0539489	0.0584671	0.124878	0.108752	-4.71938	-1.71895	-1.65197	-0.0765194	-0.235722	-0.112032
5.25798	-11.2806	-10.8002	1.04376	20.9075	112.815	-86.6357	-9.69898	0.893983	0.127586	-3.64806	0.323223	-0.1476	-0.012855	15.6781	45.8441	-8.79102	38.6673	29.7984	-8.06633	0.0299491	-53.1453	9.99847	14.4749	1.66934	4.80287	1.39792	0.000836753	0.0505791	0.068105	0.106318	0.395527	-4.44098	-1.63095	-1.38822	-0.0683824	-0.200718	-0.11671
5.26797	-10.7362	-5.56539	1.14406	5.91878	80.2129	-96.5416	-14.9881	-1.14126	0.944262	-0.116591	0.389921	-0.242841	-0.0165641	14.1049	48.5223	-8.97985	37.9529	32.8037	-7.43749	0.0289142	-44.6046	12.7375	13.917	1.54494	4.74439	1.33849	0.0433349	0.0468839	0.0710657	0.0946483	0.636098	-4.11495	-1.51862	-1.1547	-0.0594869	-0.168558	-0.116596
5.27796	-5.78814	-1.49438	-0.994464	10.3672	62.0852	-101.394	-20.6706	-2.46701	1.58459	3.14492	0.410805	-0.319449	-0.0190237	15.6801	51.4491	-9.1595	36.5929	36.0689	-6.91693	0.0280138	-45.7369	16.5663	13.5163	1.14354	5.17558	1.50078	-0.0943434	0.0499077	0.0642457	0.120963	0.611984	-4.25883	-1.55892	-1.20106	-0.0605517	-0.178413	-0.115925
5.28795	-0.124057	1.61464	-3.71165	16.7598	44.3433	-101.717	-26.9955	-2.93434	2.0152	6.54138	0.374146	-0.364139	-0.0203219	18.2837	54.2525	-9.24699	35.0119	39.6048	-6.54549	0.0271688	-48.1326	19.5963	13.1189	0.73592	5.64517	1.68399	-0.232764	0.0540896	0.0580745	0.150379	0.513904	-4.50638	-1.62998	-1.28921	-0.063639	-0.194541	-0.116073
5.29793	5.7621	3.57109	-7.24878	22.4204	26.0591	-98.8835	-33.9334	-2.43956	2.23658	10.1341	0.264945	-0.369199	-0.0200896	21.5434	56.7954	-9.23547	33.2917	43.4076	-6.3429	0.0267048	-50.521	22.1116	12.5356	0.309136	6.09397	1.86085	-0.375653	0.0582519	0.0509893	0.179672	0.364421	-4.77988	-1.70095	-1.39471	-0.0671023	-0.212287	-0.115012
5.30792	11.3968	4.38133	-12.4753	16.1209	-3.32792	-101.359	-41.5897	-1.22873	2.22435	14.1494	0.0817211	-0.336804	-0.0182666	23.3243	58.9209	-9.21095	31.8604	47.4482	-6.32411	0.026734	-47.8376	25.474	11.3471	-0.175372	6.30038	1.93967	-0.534468	0.0582366	0.0383034	0.198407	0.267163	-4.74225	-1.65396	-1.4099	-0.0645134	-0.213388	-0.106157
5.31791	17.5058	4.2731	-18.4608	15.6182	-26.5787	-99.6051	-49.5155	0.76814	2.13311	18.1804	-0.203249	-0.267333	-0.0136379	26.523	60.9525	-9.12064	30.2727	51.7329	-6.46708	0.0276283	-47.5086	28.5051	10.0024	-0.753921	6.63968	2.07526	-0.741218	0.06012	0.0227791	0.226977	0.0541725	-4.87443	-1.65224	-1.51226	-0.0649609	-0.226728	-0.0966415
5.3279	24.0065	3.14203	-24.1663	23.0242	-42.0442	-89.1278	-57.3989	3.55227	2.02718	22.126	-0.581996	-0.160235	-0.00633707	31.3379	62.8298	-8.87406	28.5936	56.2379	-6.75686	0.0291281	-50.5077	30.111	9.09986	-1.31322	7.18448	2.29685	-0.923167	0.0659595	0.0136402	0.264569	-0.278213	-5.29687	-1.75139	-1.68989	-0.0706241	-0.253838	-0.093801
5.33789	29.9165	0.879955	-30.1818	19.7164	-67.4983	-83.8879	-65.1073	6.4636	1.82597	26.1606	-1.01118	-0.0371338	0.00259741	33.8835	64.3234	-8.70098	27.5808	60.8651	-7.1769	0.0312485	-48.2577	31.8614	8.51911	-1.80892	7.58243	2.45923	-1.04406	0.0696899	0.00968198	0.291252	-0.52264	-5.46572	-1.77813	-1.73501	-0.0713316	-0.262369	-0.0916352
5.34787	35.5163	-1.09879	-34.7602	29.4546	-82.4703	-69.3933	-71.6408	9.29156	1.65545	29.6523	-1.47503	0.0930306	0.013237	38.0829	66.0591	-8.48178	26.7004	65.5807	-7.67168	0.0343693	-51.1179	32.1627	8.85007	-2.2639	8.32495	2.76516	-1.11949	0.0797627	0.0171399	0.332485	-0.914566	-6.06102	-1.96241	-1.87883	-0.0797816	-0.290685	-0.101247
5.35786	40.5734	-3.47265	-38.6614	31.378	-106.814	-57.448	-77.1997	11.7798	1.45704	32.8059	-1.93507	0.212399	0.0244309	39.7752	67.3239	-8.31696	26.7711	70.2876	-8.21338	0.037241	-50.1037	31.7666	9.51636	-2.57522	8.86299	2.99182	-1.10978	0.0875675	0.0307926	0.359519	-1.19608	-6.42247	-2.08502	-1.89595	-0.0841561	-0.301605	-0.112484
5.36785	44.3004	-5.54137	-41.6108	38.7581	-129.609	-40.0353	-80.9824	13.9126	1.29069	35.1624	-2.36353	0.319125	0.0355835	41.5978	68.3012	-8.05564	27.4426	74.9343	-8.75799	0.0396838	-50.8911	30.436	10.1513	-2.8477	9.40111	3.22184	-1.08493	0.0960902	0.0456464	0.38663	-1.51159	-6.87095	-2.23523	-1.94281	-0.0903814	-0.317187	-0.12494
5.37784	46.855	-7.45016	-43.5824	44.9791	-156.761	-23.3785	-83.1382	15.5198	1.13642	36.7475	-2.73022	0.404628	0.0457613	42.1236	69.0565	-7.84401	28.9306	79.4025	-9.26137	0.0416507	-50.5974	28.6801	10.9746	-3.01368	9.81179	3.40407	-1.01486	0.103364	0.0632313	0.405698	-1.76091	-7.2071	-2.35835	-1.93678	-0.0950219	-0.325439	-0.138155
5.38783	48.1318	-7.7625	-45.3389	45.4861	-190.976	-14.5844	-83.9389	15.5867	0.942996	37.5255	-2.99995	0.431179	0.0544264	40.5281	69.625	-7.89233	31.3026	83.5595	-9.69183	0.0436598	-47.2324	27.6187	11.4132	-3.19687	10.0285	3.51	-0.969765	0.107166	0.0748624	0.417298	-1.92208	-7.27483	-2.38875	-1.86821	-0.0950718	-0.322062	-0.14492
5.39781	46.7365	-5.45876	-45.8036	55.5164	-218.812	-3.71698	-82.4952	14.2694	0.776397	37.0272	-3.15342	0.412627	0.0610125	39.9161	70.6583	-8.02012	33.9553	87.3295	-10.0221	0.0455257	-47.0851	26.6378	11.419	-3.45802	10.3304	3.65042	-0.979379	0.112058	0.0812659	0.436577	-2.15847	-7.49664	-2.45596	-1.89162	-0.0980444	-0.330891	-0.149525
5.4078	43.7182	-0.181687	-45.0509	61.6896	-248.672	-0.209432	-79.8099	11.0169	0.592115	35.5939	-3.17451	0.325494	0.0649895	37.7165	71.8891	-8.47849	37.1567	90.5244	-10.2408	0.0476173	-45.1112	25.7672	11.2401	-3.70202	10.5063	3.73961	-0.990971	0.114817	0.0851925	0.449889	-2.32538	-7.55616	-2.4693	-1.86869	-0.0982335	-0.331724	-0.151041
5.41779	38.1593	7.16102	-43.1246	80.2661	-265.665	8.24262	-74.99	6.81752	0.460568	32.9532	-3.062	0.207837	0.06582	37.415	73.2613	-8.92165	40.2796	93.0407	-10.3767	0.0497476	-47.9796	25.1139	10.6284	-4.04558	10.8542	3.89673	-1.06696	0.119991	0.0841503	0.475376	-2.61098	-7.88615	-2.55516	-1.98015	-0.103371	-0.351271	-0.151624
5.42778	30.4832	14.7733	-40.7659	92.0029	-282.009	9.95955	-69.2335	1.82513	0.329333	29.6617	-2.81485	0.0521855	0.0629886	35.9764	73.9364	-9.55733	43.5941	94.6481	-10.4464	0.0519069	-47.8215	24.9231	9.74803	-4.39487	11.0538	3.98903	-1.16086	0.122209	0.0786115	0.493689	-2.81583	-7.99536	-2.56329	-2.03678	-0.104433	-0.360162	-0.147115
5.43777	20.1	22.6483	-37.9708	97.2226	-294.197	4.28335	-62.923	-3.66345	0.227321	25.9574	-2.43669	-0.132299	0.0560917	33.971	74.1406	-10.441	46.7776	95.1564	-10.4541	0.0542432	-44.6048	25.3057	8.30308	-4.80455	11.1087	4.014	-1.30432	0.121056	0.0649443	0.506161	-2.96311	-7.88895	-2.48432	-2.06056	-0.101234	-0.359942	-0.134853
5.44775	8.03849	29.4078	-35.3078	93.0495	-300.638	-8.78873	-57.0098	-8.75686	0.164139	22.3804	-1.95365	-0.324008	0.0450549	31.4658	73.6093	-11.5203	49.5902	94.3913	-10.4113	0.0566586	-37.7196	26.2985	6.42679	-5.24999	11.0039	3.96409	-1.48667	0.116319	0.0442007	0.510997	-3.04028	-7.54002	-2.31194	-2.03848	-0.0932522	-0.348556	-0.115237
5.45774	-4.41243	34.2637	-32.5143	92.9373	-287.339	-14.8142	-51.6998	-12.0763	0.266036	19.0482	-1.42012	-0.472856	0.0308059	31.617	72.3568	-12.2631	51.4338	92.3207	-10.3435	0.0566046	-34.0305	26.6512	4.12791	-5.64829	10.8681	3.89313	-1.68238	0.111505	0.0197813	0.513927	-3.16073	-7.33388	-2.16923	-2.10045	-0.0879364	-0.346289	-0.0937499
5.46773	-17.774	35.2875	-30.0739	79.8558	-268.134	-25.5885	-47.4501	-13.5525	0.352234	16.3312	-0.908114	-0.581948	0.0160811	31.5588	69.5313	-12.7593	52.3858	88.7587	-10.235	0.0549891	-25.758	26.5058	1.62928	-5.86215	10.3327	3.6512	-1.83279	0.10084	-0.00749353	0.49299	-3.11304	-6.75746	-1.90129	-2.05265	-0.0761366	-0.322907	-0.0661984
5.47772	-31.9439	32.7428	-27.0645	70.1126	-230.235	-28.2049	-43.1886	-12.8618	0.437953	13.7469	-0.459985	-0.625438	0.00271642	34.0506	65.3053	-12.7094	51.9171	83.7458	-10.0822	0.0506339	-19.9564	24.8583	-0.657944	-5.83597	9.65243	3.34648	-1.9034	0.0897228	-0.0302203	0.459821	-3.03907	-6.26376	-1.66363	-2.02649	-0.0664465	-0.301379	-0.0416876
5.48771	-45.5882	27.4663	-23.3355	66.0172	-173.26	-20.9434	-38.9147	-10.3104	0.515062	11.2373	-0.110456	-0.604595	-0.00786829	38.9587	59.8479	-12.0499	49.8922	77.3531	-9.84028	0.0425498	-17.9013	21.2254	-2.41355	-5.51177	8.8572	2.99805	-1.85982	0.0794159	-0.0440371	0.415228	-2.94516	-5.92461	-1.49119	-2.0249	-0.0605796	-0.284442	-0.0240606
5.49769	-57.9193	19.2134	-20.1322	59.0548	-106.523	-11.0774	-34.9194	-6.19319	0.484523	9.05286	0.115197	-0.526657	-0.0148959	44.1855	52.9651	-10.8931	46.4236	69.6881	-9.45632	0.0314755	-15.5748	16.6874	-3.68052	-4.94918	7.85928	2.57334	-1.72689	0.0676808	-0.0521387	0.35659	-2.76345	-5.49696	-1.30683	-1.97238	-0.0540509	-0.260436	-0.00938153
5.50768	-66.8935	9.36588	-17.5696	52.0299	-30.5824	-1.56427	-31.2843	-1.35089	0.330774	7.25739	0.217062	-0.409886	-0.0182336	48.9064	45.2999	-9.46424	41.5837	61.0195	-8.88588	0.018158	-14.2611	12.1679	-3.9192	-4.19923	6.8586	2.16006	-1.51305	0.0574455	-0.0508156	0.29492	-2.54079	-5.10446	-1.16578	-1.89731	-0.0492819	-0.236844	-0.00218446
5.51767	-71.8296	-1.6963	-15.7934	44.3799	48.4759	5.3753	-27.85	3.78995	0.0689059	5.84755	0.212036	-0.262423	-0.0184527	52.1835	37.2807	-7.85088	35.5692	51.7557	-8.12914	0.00306594	-13.4306	8.33596	-2.86657	-3.3092	5.94361	1.79677	-1.22614	0.049671	-0.0385251	0.235181	-2.27853	-4.74684	-1.07644	-1.78727	-0.0462057	-0.213675	-0.004152
5.52766	-73.2666	-12.0718	-14.3151	33.0857	124.654	4.27149	-24.7133	8.38754	-0.260134	4.83691	0.12623	-0.108506	-0.0161964	53.0014	29.8633	-6.35439	28.6545	42.3537	-7.20776	-0.0119967	-11.5392	5.70699	-0.915941	-2.36563	5.08244	1.46721	-0.906214	0.0430026	-0.0201251	0.177581	-1.96822	-4.3319	-0.997777	-1.62725	-0.0427505	-0.18714	-0.0111649
5.53764	-70.1606	-21.5105	-12.1375	37.8635	209.763	8.14675	-21.2416	12.4304	-0.555023	3.82415	-0.00463826	0.0448929	-0.0123745	54.3443	23.3005	-4.88874	20.9168	33.4455	-6.23555	-0.0281858	-16.7119	2.86852	2.07799	-1.3816	4.57665	1.29811	-0.562635	0.0431031	0.0076587	0.138634	-1.76609	-4.35534	-1.09319	-1.58745	-0.0483822	-0.185279	-0.030472
5.54763	-64.7275	-29.7651	-11.8681	28.416	278.417	-1.19238	-18.8305	15.5237	-0.843163	3.41801	-0.178557	0.178695	-0.00738095	51.9157	17.7563	-3.63146	13.1649	25.3058	-5.26106	-0.040917	-16.4788	2.85681	4.92002	-0.573785	4.04084	1.1166	-0.293832	0.0405536	0.0285337	0.101818	-1.49025	-4.0648	-1.08486	-1.45705	-0.0477596	-0.169257	-0.0434654
5.55762	-56.6566	-34.483	-10.8773	30.6536	349.004	-6.916	-16.5124	17.0019	-1.00382	2.94876	-0.345003	0.267242	-0.0019685	49.9238	13.6281	-2.64267	5.34761	18.3869	-4.37373	-0.0514761	-21.4696	2.612	7.46543	0.0625967	3.80066	1.05784	-0.0986565	0.0419589	0.0461954	0.0846264	-1.33607	-4.09944	-1.17577	-1.45113	-0.0529424	-0.173893	-0.0584627
5.56761	-46.7225	-38.1811	-10.6776	40.2767	416.404	-9.14504	-14.205	17.799	-1.09872	2.46757	-0.502489	0.33459	0.00338275	48.0772	10.3437	-1.81575	-2.12099	12.8242	-3.60246	-0.0584897	-29.5142	3.07054	9.72758	0.480353	3.85078	1.11582	0.00511982	0.0464293	0.0592569	0.0867989	-1.27339	-4.34588	-1.32867	-1.53546	-0.0615496	-0.193456	-0.0735657
5.5776	-35.2071	-40.4936	-11.7164	52.6829	477.343	-8.03285	-12.192	18.0601	-1.14455	2.03811	-0.645448	0.38268	0.00837929	45.8072	7.71487	-1.14558	-8.81625	8.56249	-2.90313	-0.0601539	-39.0009	4.33006	11.2089	0.6146	4.13803	1.26226	-0.0075543	0.052336	0.0636887	0.106262	-1.2755	-4.70516	-1.49904	-1.68239	-0.0712224	-0.222331	-0.0848461
5.58758	-23.9859	-40.1633	-14.4117	47.4506	518.886	-12.9279	-11.3352	17.7534	-1.1562	2.01738	-0.78061	0.413253	0.0128787	40.4599	5.95684	-0.682947	-14.2074	5.35848	-2.16948	-0.0539426	-42.1839	7.53995	11.2205	0.430557	4.35727	1.35907	-0.141514	0.0535558	0.0535988	0.125808	-1.21726	-4.72559	-1.5197	-1.73718	-0.072511	-0.233115	-0.0828704
5.59757	-13.3855	-38.8621	-17.9218	36.5044	549.094	-16.4425	-10.8418	17.4553	-1.17552	2.12237	-0.895338	0.441569	0.016501	34.0182	4.72765	-0.368762	-18.3037	3.10061	-1.31932	-0.0425905	-43.1404	11.4434	10.6091	0.0597378	4.67096	1.47737	-0.330492	0.0541427	0.0390046	0.150297	-1.15922	-4.68766	-1.50288	-1.76481	-0.0711894	-0.238979	-0.0770298
5.60756	-4.21192	-37.1844	-21.8126	18.2814	567.867	-18.9832	-10.6493	17.5108	-1.22943	2.36589	-0.992875	0.476293	0.0192123	26.5516	4.08754	-0.269006	-21.1154	1.59526	-0.25714	-0.0281139	-40.9989	15.8006	9.68808	-0.403927	5.00888	1.5896	-0.529849	0.0536868	0.0236552	0.173691	-1.08	-4.5509	-1.44225	-1.7364	-0.066687	-0.235791	-0.0690675
5.61755	4.31486	-36.7459	-25.8146	10.0803	587.256	-16.3516	-9.80279	18.0392	-1.34866	2.37837	-1.05911	0.518803	0.0209041	20.4967	3.81329	-0.424044	-23.0744	0.769514	1.00043	-0.0139895	-42.0149	19.9995	9.1794	-0.897641	5.58842	1.7981	-0.734155	0.0569283	0.0122226	0.208657	-1.07643	-4.64973	-1.46633	-1.78325	-0.0665121	-0.245882	-0.0661068
5.62754	11.6666	-38.0418	-29.9746	9.52258	606.821	-9.82364	-8.41919	19.2154	-1.54048	2.22305	-1.10265	0.573205	0.0217381	15.9654	3.67362	-0.772273	-24.6196	0.516885	2.43827	-0.00159975	-45.2089	23.8099	9.14664	-1.35231	6.28996	2.05801	-0.918855	0.062624	0.00533316	0.24856	-1.12038	-4.90179	-1.55041	-1.87814	-0.0694793	-0.264494	-0.0675299
5.63752	15.974	-39.4363	-33.3729	0.546071	617.882	-4.66631	-7.43949	20.7828	-1.75079	2.20035	-1.13834	0.632117	0.0220022	11.6953	3.83493	-1.32452	-26.2732	0.739896	4.07126	0.00888462	-44.4859	26.8459	9.10838	-1.66613	6.71974	2.20494	-1.02954	0.0650566	0.0015058	0.270442	-1.10093	-4.94165	-1.56208	-1.87809	-0.0683534	-0.266948	-0.067424
5.64751	0	0	0	0	0	0	0	0	0	0	0	0	0	0	0	0	0	0	0	0	0	0	0	0	0	0	0	0	0	0	0	0	0	0	0	0	0
