Coordinates
version=1
nRows=311
nColumns=38
inDegrees=no

Units are S.I. units (second, meters, Newtons, ...)
If the header above contains a line with 'inDegrees', this indicates whether rotational values are in degrees (yes) or radians (no).

endheader
time	pelvis_tilt	pelvis_list	pelvis_rotation	pelvis_tx	pelvis_ty	pelvis_tz	hip_flexion_r	hip_adduction_r	hip_rotation_r	knee_angle_r	ankle_angle_r	subtalar_angle_r	mtp_angle_r	hip_flexion_l	hip_adduction_l	hip_rotation_l	knee_angle_l	ankle_angle_l	subtalar_angle_l	mtp_angle_l	lumbar_extension	lumbar_bending	lumbar_rotation	arm_flex_r	arm_add_r	arm_rot_r	elbow_flex_r	pro_sup_r	wrist_flex_r	wrist_dev_r	arm_flex_l	arm_add_l	arm_rot_l	elbow_flex_l	pro_sup_l	wrist_flex_l	wrist_dev_l
2.01	2.88456	0.312302	2.65106	-2.36009	-0.946697	0.287052	-0.271609	-0.201543	-0.1807	0.892126	0.249046	0	0	0.133916	-0.45283	-0.02948	0.431658	-0.0701863	0	0	-1.06423	0.127612	-0.199354	0.564795	0.299693	0.0563306	1.01415	0.697211	0	0	0.542241	-0.0391961	-0.00760335	0.984742	0.697426	0	0
2.01999	2.86475	0.310626	2.66612	-2.34688	-0.949441	0.286446	-0.272009	-0.193045	-0.155224	0.927151	0.227346	0	0	0.11646	-0.443467	-0.118225	0.454998	-0.0659146	0	0	-1.07739	0.125491	-0.208981	0.565931	0.300963	0.0565169	1.01469	0.697154	0	0	0.543143	-0.0386541	-0.00756477	0.985033	0.697364	0	0
2.02997	2.8449	0.308727	2.68152	-2.33367	-0.95219	0.285838	-0.27242	-0.18444	-0.130422	0.962108	0.205516	0	0	0.0985778	-0.433939	-0.204477	0.477182	-0.0617625	0	0	-1.09038	0.123419	-0.218916	0.567067	0.302233	0.0567033	1.01522	0.697097	0	0	0.544045	-0.038112	-0.00752618	0.985324	0.697301	0	0
2.03996	2.82504	0.306546	2.69714	-2.32049	-0.954956	0.285231	-0.27286	-0.175515	-0.106414	0.996468	0.183475	0	0	0.0796533	-0.42409	-0.284991	0.497057	-0.0577884	0	0	-1.10318	0.121476	-0.229382	0.568203	0.303504	0.0568896	1.01576	0.69704	0	0	0.544947	-0.0375698	-0.00748759	0.985615	0.697238	0	0
2.04994	2.80502	0.303989	2.713	-2.30734	-0.957749	0.284623	-0.273348	-0.165831	-0.0828314	1.02986	0.161379	0	0	0.0591214	-0.413698	-0.35689	0.513727	-0.0540234	0	0	-1.11596	0.119656	-0.240499	0.569339	0.304774	0.0570759	1.01629	0.696983	0	0	0.54585	-0.0370276	-0.00744899	0.985906	0.697175	0	0
2.05993	2.78465	0.300897	2.7292	-2.29423	-0.960577	0.284014	-0.2739	-0.154854	-0.0590575	1.06198	0.139775	0	0	0.0366079	-0.402498	-0.418196	0.526644	-0.0505044	0	0	-1.1289	0.117928	-0.252393	0.570475	0.306045	0.0572623	1.01682	0.696926	0	0	0.546752	-0.0364854	-0.00741039	0.986198	0.697112	0	0
2.06992	2.76381	0.29709	2.74584	-2.28118	-0.963443	0.283405	-0.274519	-0.142273	-0.0348731	1.09248	0.11939	0	0	0.0119836	-0.390294	-0.467966	0.535578	-0.0472535	0	0	-1.14211	0.116279	-0.265202	0.571612	0.307316	0.0574487	1.01736	0.69687	0	0	0.547654	-0.0359431	-0.00737178	0.986489	0.697049	0	0
2.0799	2.74252	0.292395	2.76293	-2.2682	-0.966347	0.282795	-0.275196	-0.128277	-0.0108834	1.12093	0.100873	0	0	-0.0146435	-0.376982	-0.506245	0.540592	-0.0442512	0	0	-1.15555	0.114704	-0.279044	0.572748	0.308587	0.0576351	1.01789	0.696813	0	0	0.548557	-0.0354007	-0.00733317	0.98678	0.696986	0	0
2.08989	2.72084	0.286541	2.78046	-2.25529	-0.969279	0.282185	-0.275896	-0.113235	0.0123013	1.14684	0.0847013	0	0	-0.0429837	-0.362417	-0.533909	0.542007	-0.041448	0	0	-1.16908	0.113141	-0.294057	0.573884	0.309857	0.0578215	1.01843	0.696756	0	0	0.549459	-0.0348583	-0.00729455	0.987071	0.696923	0	0
2.09988	2.69884	0.279279	2.79836	-2.24245	-0.972228	0.281577	-0.276553	-0.0975843	0.0341959	1.16967	0.0711134	0	0	-0.0726533	-0.346495	-0.552481	0.540326	-0.0388113	0	0	-1.18253	0.111545	-0.310371	0.575021	0.311128	0.0580079	1.01896	0.696699	0	0	0.550362	-0.0343158	-0.00725593	0.987363	0.696861	0	0
2.10986	2.67664	0.270365	2.81654	-2.22968	-0.975174	0.280973	-0.277062	-0.0817207	0.0546866	1.18888	0.0601673	0	0	-0.103187	-0.329141	-0.56398	0.536239	-0.0363088	0	0	-1.19568	0.109839	-0.328119	0.576157	0.312399	0.0581943	1.01949	0.696642	0	0	0.551264	-0.0337734	-0.00721731	0.987654	0.696798	0	0
2.11985	2.65434	0.259544	2.83484	-2.21697	-0.978098	0.280376	-0.277273	-0.0658887	0.0742331	1.20402	0.0520123	0	0	-0.134053	-0.310288	-0.57084	0.530632	-0.0338929	0	0	-1.20825	0.107881	-0.347446	0.577293	0.313671	0.0583807	1.02003	0.696586	0	0	0.552166	-0.0332308	-0.00717867	0.987945	0.696735	0	0
2.12983	2.63239	0.247134	2.85286	-2.2043	-0.980975	0.279788	-0.276981	-0.0516517	0.0906112	1.21457	0.0464047	0	0	-0.164533	-0.290536	-0.575843	0.52456	-0.0315251	0	0	-1.21993	0.105787	-0.368239	0.578429	0.314942	0.0585672	1.02056	0.696529	0	0	0.553069	-0.0326882	-0.00714004	0.988237	0.696672	0	0
2.13982	2.61132	0.233493	2.87022	-2.19166	-0.983782	0.279212	-0.275928	-0.040551	0.101583	1.22007	0.0426893	0	0	-0.193753	-0.270606	-0.582168	0.519323	-0.0291364	0	0	-1.23033	0.10369	-0.390213	0.579566	0.316213	0.0587536	1.0211	0.696472	0	0	0.553971	-0.0321456	-0.00710139	0.988528	0.696609	0	0
2.14981	2.59154	0.218646	2.88663	-2.17906	-0.986496	0.27865	-0.2738	-0.0331416	0.106962	1.22049	0.0402001	0	0	-0.221484	-0.250412	-0.59088	0.514651	-0.0267288	0	0	-1.23914	0.101498	-0.413169	0.580702	0.317484	0.0589401	1.02163	0.696415	0	0	0.554873	-0.0316029	-0.00706274	0.98882	0.696547	0	0
2.15979	2.57341	0.20281	2.90191	-2.16646	-0.989093	0.278103	-0.270239	-0.0294316	0.107082	1.21598	0.0387429	0	0	-0.247534	-0.230032	-0.601884	0.510209	-0.0243524	0	0	-1.24613	0.0992854	-0.436899	0.581838	0.318755	0.0591265	1.02217	0.696359	0	0	0.555775	-0.0310602	-0.00702409	0.989111	0.696484	0	0
2.16978	2.55744	0.186209	2.91584	-2.15388	-0.991555	0.277572	-0.264866	-0.0293577	0.102298	1.20653	0.0375527	0	0	-0.271523	-0.209562	-0.614544	0.505699	-0.0219213	0	0	-1.25104	0.0970329	-0.461166	0.582974	0.320027	0.059313	1.0227	0.696302	0	0	0.556677	-0.0305175	-0.00698542	0.989402	0.696421	0	0
2.17977	2.54402	0.169387	2.92847	-2.14131	-0.99386	0.277052	-0.257309	-0.0323431	0.0930713	1.19229	0.0360168	0	0	-0.29319	-0.189483	-0.628046	0.500862	-0.0194424	0	0	-1.25393	0.0950254	-0.485527	0.58411	0.321298	0.0594995	1.02324	0.696245	0	0	0.557579	-0.0299747	-0.00694676	0.989694	0.696359	0	0
2.18975	2.53351	0.15273	2.93981	-2.12874	-0.995994	0.276542	-0.247262	-0.0378043	0.0799939	1.17342	0.0334475	0	0	-0.312239	-0.170155	-0.641618	0.495569	-0.0167946	0	0	-1.25482	0.0933725	-0.509485	0.585246	0.322569	0.0596859	1.02377	0.696189	0	0	0.558481	-0.0294318	-0.00690808	0.989985	0.696296	0	0
2.19974	2.52612	0.136451	2.94987	-2.11617	-0.997939	0.276034	-0.234556	-0.0452338	0.0637194	1.14998	0.0290783	0	0	-0.328469	-0.151737	-0.654654	0.489839	-0.0138049	0	0	-1.25373	0.0919984	-0.532568	0.586382	0.32384	0.0598724	1.0243	0.696132	0	0	0.559383	-0.028889	-0.0068694	0.990277	0.696233	0	0
2.20972	2.52187	0.120601	2.9587	-2.10362	-0.999683	0.27552	-0.219244	-0.0541988	0.0448453	1.12202	0.0222961	0	0	-0.341815	-0.134242	-0.666788	0.48382	-0.0103108	0	0	-1.25073	0.0907454	-0.554514	0.587517	0.325112	0.0600588	1.02484	0.696076	0	0	0.560284	-0.0283461	-0.0068307	0.990568	0.696171	0	0
2.21971	2.52063	0.105315	2.96647	-2.09107	-1.00121	0.274991	-0.201718	-0.0641797	0.0237734	1.08933	0.0123905	0	0	-0.352432	-0.117813	-0.677859	0.477755	-0.00619349	0	0	-1.24602	0.0895563	-0.575091	0.588653	0.326383	0.0602453	1.02537	0.696019	0	0	0.561185	-0.0278031	-0.006792	0.99086	0.696108	0	0
2.2297	2.52222	0.0906155	2.97337	-2.07852	-1.0025	0.274436	-0.182343	-0.0746754	0.000946248	1.05187	-0.000702772	0	0	-0.360562	-0.102502	-0.68782	0.471944	-0.00135327	0	0	-1.23977	0.0883542	-0.594235	0.589788	0.327654	0.0604318	1.02591	0.695962	0	0	0.562087	-0.02726	-0.00675329	0.991151	0.696046	0	0
2.23968	2.52638	0.0765644	2.97959	-2.06598	-1.00353	0.273843	-0.161473	-0.0850716	-0.0231135	1.00969	-0.0161339	0	0	-0.366556	-0.0884065	-0.696658	0.4667	0.00426601	0	0	-1.23219	0.0871221	-0.611883	0.590924	0.328926	0.0606183	1.02644	0.695906	0	0	0.562988	-0.0267168	-0.00671456	0.991442	0.695983	0	0
2.24967	2.53284	0.0631351	2.98538	-2.05342	-1.00427	0.273199	-0.139542	-0.0949641	-0.0480691	0.962833	-0.033559	0	0	-0.370809	-0.0755485	-0.704327	0.462301	0.0106734	0	0	-1.22347	0.0858807	-0.628084	0.592059	0.330198	0.0608049	1.02698	0.695849	0	0	0.563889	-0.0261735	-0.00667582	0.991734	0.69592	0	0
2.25966	2.54129	0.0502683	2.991	-2.04085	-1.00469	0.272488	-0.117012	-0.104062	-0.073603	0.911382	-0.0528977	0	0	-0.37371	-0.0639175	-0.710684	0.458949	0.0178934	0	0	-1.21374	0.084657	-0.642967	0.593194	0.331469	0.0609914	1.02751	0.695793	0	0	0.56479	-0.0256302	-0.00663707	0.992025	0.695858	0	0
2.26964	2.55135	0.0379235	2.99667	-2.02825	-1.00479	0.271695	-0.0943692	-0.112122	-0.0992816	0.855555	-0.0741037	0	0	-0.375613	-0.0534892	-0.715447	0.456718	0.0260176	0	0	-1.20314	0.083448	-0.656686	0.594329	0.332741	0.0611779	1.02805	0.695737	0	0	0.56569	-0.0250868	-0.00659831	0.992317	0.695796	0	0
2.27963	2.56249	0.0260572	3.00251	-2.0156	-1.00452	0.270802	-0.0721511	-0.118973	-0.124492	0.795773	-0.0969155	0	0	-0.376824	-0.0441678	-0.71816	0.455479	0.035232	0	0	-1.19179	0.0821754	-0.669433	0.595464	0.334012	0.0613645	1.02858	0.69568	0	0	0.566591	-0.0245433	-0.00655953	0.992608	0.695733	0	0
2.28961	2.57434	0.0144728	3.0086	-2.00288	-1.00387	0.269791	-0.0506661	-0.124692	-0.148465	0.732673	-0.120548	0	0	-0.377593	-0.0357068	-0.718176	0.455101	0.0457777	0	0	-1.17976	0.0806175	-0.681535	0.596599	0.335284	0.061551	1.02912	0.695624	0	0	0.567491	-0.0239997	-0.00652073	0.9929	0.695671	0	0
2.2996	2.58663	0.00276422	3.01484	-1.99008	-1.00283	0.268645	-0.0299642	-0.129694	-0.170223	0.667192	-0.143472	0	0	-0.378112	-0.0275857	-0.714642	0.45539	0.0578968	0	0	-1.167	0.0783333	-0.693417	0.597733	0.336556	0.0617375	1.02965	0.695567	0	0	0.568391	-0.023456	-0.00648193	0.993191	0.695608	0	0
2.30959	2.59919	-0.00968274	3.02103	-1.97718	-1.00138	0.267353	-0.00967299	-0.134828	-0.188598	0.600964	-0.16394	0	0	-0.378523	-0.0190242	-0.706512	0.456096	0.0717733	0	0	-1.15343	0.0746818	-0.705582	0.598867	0.337827	0.0619241	1.03019	0.695511	0	0	0.56929	-0.0229123	-0.00644311	0.993482	0.695546	0	0
2.31957	2.61198	-0.0237243	3.02685	-1.96416	-0.999519	0.265906	0.0110372	-0.141423	-0.20228	0.536436	-0.179991	0	0	-0.378925	-0.00894395	-0.692567	0.456912	0.0875525	0	0	-1.13886	0.0687832	-0.718639	0.600001	0.339099	0.0621106	1.03072	0.695455	0	0	0.570189	-0.0223685	-0.00640427	0.993774	0.695484	0	0
2.32956	2.62498	-0.0398421	3.03209	-1.95101	-0.99726	0.264306	0.0328504	-0.150462	-0.210656	0.475745	-0.190287	0	0	-0.379379	0.00329396	-0.671603	0.457614	0.10515	0	0	-1.12325	0.060138	-0.733057	0.601134	0.34037	0.0622972	1.03125	0.695399	0	0	0.571088	-0.0218246	-0.00636542	0.994065	0.695422	0	0
2.33955	2.63815	-0.0580214	3.03676	-1.93772	-0.994627	0.262559	0.0562027	-0.162362	-0.214024	0.420551	-0.194563	0	0	-0.379921	0.0177109	-0.642598	0.458125	0.124356	0	0	-1.10675	0.0487711	-0.749013	0.602267	0.341642	0.0624837	1.03179	0.695343	0	0	0.571987	-0.0212806	-0.00632655	0.994356	0.695359	0	0
2.34953	2.65146	-0.0777393	3.0411	-1.9243	-0.991657	0.260685	0.0812744	-0.176924	-0.213698	0.372048	-0.193977	0	0	-0.380563	0.0336904	-0.604949	0.458538	0.144865	0	0	-1.08968	0.0352426	-0.766327	0.603399	0.342913	0.0626702	1.03232	0.695286	0	0	0.572885	-0.0207366	-0.00628766	0.994647	0.695297	0	0
2.35952	2.66485	-0.0984521	3.04537	-1.91073	-0.988399	0.258708	0.107827	-0.193722	-0.211096	0.330632	-0.189538	0	0	-0.381305	0.0505676	-0.558579	0.459	0.16638	0	0	-1.07238	0.0201691	-0.784655	0.604532	0.344184	0.0628567	1.03286	0.69523	0	0	0.573782	-0.0201925	-0.00624876	0.994939	0.695235	0	0
2.3695	2.67826	-0.119532	3.04985	-1.89703	-0.984911	0.25666	0.13539	-0.212125	-0.207527	0.296312	-0.18214	0	0	-0.382136	0.0675751	-0.50403	0.459745	0.188546	0	0	-1.05518	0.00428432	-0.803569	0.605663	0.345455	0.0630431	1.03339	0.695174	0	0	0.574679	-0.0196484	-0.00620984	0.99523	0.695173	0	0
2.37949	2.69157	-0.140272	3.05484	-1.88318	-0.981259	0.254579	0.163317	-0.23133	-0.204129	0.268824	-0.172721	0	0	-0.383042	0.0838651	-0.442542	0.461108	0.210965	0	0	-1.03839	-0.0115697	-0.822588	0.606794	0.346726	0.0632296	1.03393	0.695118	0	0	0.575576	-0.0191042	-0.00617091	0.995521	0.695111	0	0
2.38948	2.70467	-0.160119	3.06051	-1.86918	-0.977509	0.252502	0.190826	-0.25062	-0.201805	0.247607	-0.162294	0	0	-0.384006	0.0988097	-0.375903	0.463443	0.233248	0	0	-1.02223	-0.0267143	-0.841273	0.607925	0.347997	0.063416	1.03446	0.695062	0	0	0.576472	-0.0185599	-0.00613195	0.995811	0.695049	0	0
2.39946	2.71749	-0.178686	3.06693	-1.85502	-0.973727	0.250467	0.21712	-0.269421	-0.201128	0.231936	-0.151947	0	0	-0.385009	0.112039	-0.306101	0.467036	0.254995	0	0	-1.00679	-0.0406666	-0.859266	0.609055	0.349268	0.0636025	1.035	0.695006	0	0	0.577367	-0.0180156	-0.00609298	0.996102	0.694987	0	0
2.40945	2.72999	-0.195739	3.07404	-1.8407	-0.969975	0.24851	0.241556	-0.287329	-0.202294	0.221136	-0.14271	0	0	-0.386037	0.123416	-0.234986	0.472055	0.275794	0	0	-0.992016	-0.053138	-0.876297	0.610185	0.350538	0.0637889	1.03553	0.69495	0	0	0.578262	-0.0174712	-0.00605399	0.996393	0.694925	0	0
2.41944	2.74216	-0.211164	3.0817	-1.82621	-0.966312	0.24666	0.263719	-0.304103	-0.205125	0.214691	-0.135457	0	0	-0.387074	0.132982	-0.16406	0.47855	0.295217	0	0	-0.977691	-0.0640005	-0.892178	0.611314	0.351808	0.0639752	1.03606	0.694895	0	0	0.579156	-0.0169267	-0.00601497	0.996683	0.694863	0	0
2.42942	2.75406	-0.224925	3.08976	-1.81153	-0.962791	0.244942	0.283416	-0.319635	-0.209154	0.21222	-0.130836	0	0	-0.38811	0.140883	-0.0944075	0.486474	0.312797	0	0	-0.963515	-0.0732235	-0.906794	0.612442	0.353078	0.0641616	1.0366	0.694839	0	0	0.58005	-0.0163821	-0.00597593	0.996974	0.694802	0	0
2.43941	2.76572	-0.237034	3.09809	-1.79666	-0.959458	0.243371	0.300626	-0.333902	-0.213741	0.213471	-0.129187	0	0	-0.389134	0.147293	-0.0267589	0.495753	0.328022	0	0	-0.949217	-0.0808073	-0.920106	0.61357	0.354348	0.064348	1.03713	0.694783	0	0	0.580943	-0.0158373	-0.00593687	0.997264	0.69474	0	0
2.44939	2.77714	-0.24753	3.10657	-1.78159	-0.956357	0.241957	0.315491	-0.346943	-0.218232	0.218356	-0.13044	0	0	-0.390141	0.152374	0.038406	0.50633	0.340378	0	0	-0.934594	-0.0867844	-0.932133	0.614698	0.355618	0.0645343	1.03767	0.694727	0	0	0.581835	-0.0152925	-0.00589778	0.997555	0.694678	0	0
2.45938	2.78824	-0.256451	3.11508	-1.76632	-0.953527	0.240701	0.32826	-0.358814	-0.222052	0.226933	-0.134182	0	0	-0.391124	0.156235	0.100689	0.518203	0.349374	0	0	-0.919601	-0.0912097	-0.942932	0.615824	0.356888	0.0647206	1.0382	0.694671	0	0	0.582727	-0.0147476	-0.00585867	0.997845	0.694616	0	0
2.46937	2.79887	-0.263814	3.12353	-1.75087	-0.951006	0.239596	0.339184	-0.369555	-0.224774	0.23931	-0.139859	0	0	-0.392081	0.158906	0.159595	0.531475	0.354524	0	0	-0.90438	-0.0941209	-0.952577	0.61695	0.358157	0.0649069	1.03873	0.694616	0	0	0.583618	-0.0142026	-0.00581953	0.998135	0.694555	0	0
2.47935	2.80874	-0.269591	3.13183	-1.73525	-0.948827	0.238631	0.348406	-0.379148	-0.226171	0.255546	-0.146913	0	0	-0.393012	0.160321	0.214347	0.546396	0.355343	0	0	-0.889322	-0.0955094	-0.961134	0.618075	0.359426	0.0650932	1.03927	0.69456	0	0	0.584508	-0.0136575	-0.00578037	0.998425	0.694493	0	0
2.48934	2.81753	-0.273714	3.1399	-1.7195	-0.947024	0.237788	0.355998	-0.38752	-0.226306	0.275605	-0.154807	0	0	-0.393918	0.160316	0.26383	0.5632	0.351326	0	0	-0.874755	-0.0952839	-0.96862	0.6192	0.360695	0.0652794	1.0398	0.694505	0	0	0.585397	-0.0131123	-0.00574118	0.998714	0.694431	0	0
2.49933	2.82476	-0.276052	3.14764	-1.70364	-0.945625	0.237045	0.361704	-0.394434	-0.225485	0.299125	-0.162899	0	0	-0.394804	0.158625	0.306395	0.582294	0.341961	0	0	-0.861338	-0.0932746	-0.975033	0.620323	0.361964	0.0654656	1.04033	0.694449	0	0	0.586285	-0.012567	-0.00570196	0.999004	0.69437	0	0
2.50931	2.82989	-0.276451	3.15494	-1.68772	-0.944657	0.236377	0.364961	-0.399519	-0.224192	0.325309	-0.170504	0	0	-0.395674	0.154939	0.339922	0.604107	0.326757	0	0	-0.849744	-0.0892477	-0.980313	0.621446	0.363232	0.0656517	1.04087	0.694394	0	0	0.587173	-0.0120217	-0.00566271	0.999293	0.694308	0	0
2.5193	2.83228	-0.274923	3.16147	-1.67179	-0.944139	0.235759	0.36519	-0.402559	-0.222705	0.353552	-0.176553	0	0	-0.396538	0.14912	0.361945	0.629203	0.305489	0	0	-0.840991	-0.0832978	-0.984409	0.622568	0.3645	0.0658378	1.0414	0.694338	0	0	0.588059	-0.0114762	-0.00562343	0.999582	0.694247	0	0
2.52928	2.83134	-0.271498	3.16689	-1.65589	-0.944084	0.235163	0.3615	-0.403185	-0.221377	0.38247	-0.180553	0	0	-0.397406	0.141078	0.370083	0.65792	0.277977	0	0	-0.835916	-0.0755225	-0.987217	0.623688	0.365768	0.0660239	1.04193	0.694283	0	0	0.588945	-0.0109307	-0.00558413	0.999871	0.694186	0	0
2.53927	2.82677	-0.266318	3.17084	-1.64008	-0.944498	0.234564	0.353331	-0.401214	-0.220384	0.410857	-0.182179	0	0	-0.398293	0.130846	0.362623	0.690163	0.244348	0	0	-0.834905	-0.0662278	-0.988573	0.624808	0.367035	0.0662099	1.04247	0.694227	0	0	0.589829	-0.0103851	-0.00554479	1.00016	0.694124	0	0
2.54926	2.81847	-0.259574	3.17298	-1.62438	-0.945378	0.233937	0.340386	-0.396579	-0.219667	0.437643	-0.181262	0	0	-0.399215	0.118564	0.338964	0.725491	0.20509	0	0	-0.83805	-0.0558615	-0.988297	0.625927	0.368302	0.0663959	1.043	0.694172	0	0	0.590713	-0.0098394	-0.00550543	1.00045	0.694063	0	0
2.55924	2.80641	-0.251452	3.173	-1.60884	-0.946713	0.233263	0.322492	-0.389231	-0.218958	0.461837	-0.177733	0	0	-0.400189	0.104473	0.299928	0.763306	0.161202	0	0	-0.845557	-0.0449522	-0.986234	0.627044	0.369569	0.0665818	1.04353	0.694117	0	0	0.591595	-0.00929365	-0.00546603	1.00074	0.694002	0	0
2.56923	2.79092	-0.242111	3.17071	-1.59348	-0.948485	0.232527	0.299919	-0.379281	-0.218008	0.482838	-0.171628	0	0	-0.401237	0.0889538	0.248141	0.802615	0.114218	0	0	-0.857093	-0.0339853	-0.982203	0.628161	0.370834	0.0667676	1.04406	0.694062	0	0	0.592476	-0.00874783	-0.0054266	1.00102	0.693941	0	0
2.57922	2.77254	-0.231688	3.16608	-1.57833	-0.950667	0.231719	0.273212	-0.366961	-0.216603	0.500318	-0.163101	0	0	-0.402375	0.0726173	0.188175	0.842314	0.0661969	0	0	-0.872037	-0.0233512	-0.976061	0.629276	0.3721	0.0669534	1.04459	0.694007	0	0	0.593356	-0.00820195	-0.00538714	1.00131	0.69388	0	0
2.5892	2.7519	-0.220329	3.1592	-1.56338	-0.953228	0.230839	0.243027	-0.352599	-0.214505	0.514061	-0.152438	0	0	-0.403619	0.0564291	0.126682	0.881467	0.0197433	0	0	-0.889799	-0.013368	-0.967745	0.63039	0.373365	0.0671391	1.04512	0.693951	0	0	0.594234	-0.007656	-0.00534764	1.0016	0.693819	0	0
2.59919	2.72961	-0.208451	3.15042	-1.54864	-0.956128	0.22989	0.209884	-0.336876	-0.21167	0.524057	-0.140025	0	0	-0.404976	0.0413351	0.0684227	0.919146	-0.0227613	0	0	-0.909777	-0.00439998	-0.957394	0.631503	0.374629	0.0673247	1.04565	0.693896	0	0	0.595111	-0.00711	-0.00530812	1.00189	0.693758	0	0
2.60917	2.70623	-0.19651	3.14017	-1.53412	-0.959324	0.228882	0.17428	-0.320565	-0.208158	0.530489	-0.126326	0	0	-0.406442	0.0280416	0.0161593	0.954424	-0.0592625	0	0	-0.931288	0.00325441	-0.945332	0.632614	0.375893	0.0675103	1.04619	0.693841	0	0	0.595987	-0.00656393	-0.00526855	1.00217	0.693697	0	0
2.61916	2.68216	-0.184939	3.1288	-1.51979	-0.962767	0.22783	0.136614	-0.304399	-0.203986	0.533582	-0.11184	0	0	-0.407995	0.0170531	-0.0289166	0.986542	-0.0883773	0	0	-0.953879	0.00931266	-0.931964	0.633724	0.377156	0.0676958	1.04672	0.693786	0	0	0.596862	-0.00601776	-0.00522895	1.00246	0.693636	0	0
2.62915	2.65782	-0.174063	3.11657	-1.50566	-0.966402	0.226752	0.0973694	-0.289012	-0.199125	0.533684	-0.0970433	0	0	-0.409586	0.00864515	-0.066797	1.01473	-0.109468	0	0	-0.977007	0.0135678	-0.917686	0.634833	0.378419	0.0678812	1.04725	0.693731	0	0	0.597735	-0.00547148	-0.00518931	1.00275	0.693575	0	0
2.63913	2.63353	-0.164091	3.10361	-1.49169	-0.97017	0.225666	0.0569787	-0.274876	-0.193493	0.531121	-0.0823484	0	0	-0.411133	0.00291431	-0.0982307	1.03843	-0.12268	0	0	-1.00036	0.0158685	-0.902823	0.63594	0.379681	0.0680666	1.04778	0.693677	0	0	0.598607	-0.00492511	-0.00514964	1.00303	0.693514	0	0
2.64912	2.60964	-0.155048	3.09002	-1.47787	-0.974008	0.224594	0.016003	-0.262267	-0.187025	0.526305	-0.0680862	0	0	-0.41251	-0.000281599	-0.124457	1.05709	-0.128636	0	0	-1.02345	0.0162105	-0.887605	0.637046	0.380943	0.0682519	1.04831	0.693622	0	0	0.599477	-0.00437863	-0.00510991	1.00332	0.693453	0	0
2.65911	2.58654	-0.146812	3.07587	-1.46419	-0.977849	0.223556	-0.0249688	-0.251266	-0.179682	0.519657	-0.0544981	0	0	-0.413539	-0.00128169	-0.14692	1.07034	-0.128311	0	0	-1.04585	0.0147118	-0.87215	0.63815	0.382204	0.0684371	1.04883	0.693567	0	0	0.600346	-0.00383206	-0.00507015	1.0036	0.693393	0	0
2.66909	2.56459	-0.139163	3.06126	-1.45061	-0.981626	0.222572	-0.065312	-0.241796	-0.171467	0.51161	-0.0417375	0	0	-0.413986	-0.000575374	-0.16707	1.07795	-0.122841	0	0	-1.06714	0.011595	-0.856484	0.639253	0.383465	0.0686222	1.04936	0.693512	0	0	0.601213	-0.0032854	-0.00503035	1.00389	0.693332	0	0
2.67908	2.54421	-0.131835	3.04632	-1.43713	-0.985271	0.221663	-0.104355	-0.233677	-0.162437	0.502626	-0.0298742	0	0	-0.413551	0.00125053	-0.186211	1.0798	-0.11337	0	0	-1.08688	0.00716469	-0.840579	0.640354	0.384724	0.0688073	1.04989	0.693458	0	0	0.602078	-0.00273866	-0.0049905	1.00417	0.693272	0	0
2.68906	2.52586	-0.12456	3.03122	-1.42371	-0.988718	0.220848	-0.141372	-0.226664	-0.152706	0.493209	-0.018903	0	0	-0.411877	0.00355722	-0.205414	1.07588	-0.100947	0	0	-1.10457	0.00178694	-0.824392	0.641454	0.385983	0.0689922	1.05042	0.693403	0	0	0.602942	-0.00219184	-0.00495061	1.00446	0.693211	0	0
2.69905	2.50995	-0.117127	3.01619	-1.41035	-0.991902	0.220143	-0.175701	-0.220513	-0.142435	0.483824	-0.00874693	0	0	-0.408555	0.00575966	-0.22551	1.06644	-0.0864542	0	0	-1.11992	-0.00415992	-0.807895	0.642552	0.387242	0.069177	1.05095	0.693348	0	0	0.603804	-0.00164494	-0.00491067	1.00474	0.693151	0	0
2.70904	2.49691	-0.109382	3.00144	-1.39703	-0.994765	0.219567	-0.206716	-0.214991	-0.131811	0.474909	0.000726659	0	0	-0.40315	0.00733337	-0.247012	1.05182	-0.0706911	0	0	-1.1327	-0.0102896	-0.791096	0.643648	0.388499	0.0693618	1.05147	0.693294	0	0	0.604664	-0.00109797	-0.00487069	1.00502	0.69309	0	0
2.71902	2.48712	-0.10123	2.98718	-1.38374	-0.997255	0.219133	-0.233842	-0.209876	-0.121016	0.466869	0.00968776	0	0	-0.395241	0.00779744	-0.270156	1.03239	-0.0544044	0	0	-1.14275	-0.0162153	-0.774051	0.644742	0.389756	0.0695464	1.052	0.693239	0	0	0.605522	-0.000550925	-0.00483066	1.00531	0.69303	0	0
2.72901	2.48093	-0.0926388	2.97362	-1.37047	-0.999327	0.218855	-0.256634	-0.20498	-0.110208	0.460048	0.0183219	0	0	-0.384478	0.00672432	-0.295024	1.00861	-0.0382016	0	0	-1.15001	-0.0215752	-0.756877	0.645834	0.391012	0.069731	1.05253	0.693185	0	0	0.606379	-3.81791e-06	-0.00479059	1.00559	0.69297	0	0
2.739	2.47841	-0.083547	2.96087	-1.35721	-1.00094	0.218745	-0.274971	-0.200114	-0.0995491	0.454722	0.0268275	0	0	-0.370669	0.00385786	-0.321491	0.980844	-0.0226387	0	0	-1.15454	-0.0260137	-0.739757	0.646924	0.392267	0.0699154	1.05305	0.69313	0	0	0.607233	0.00054335	-0.00475047	1.00587	0.692909	0	0
2.74898	2.4794	-0.0738386	2.94892	-1.34395	-1.00208	0.218812	-0.289084	-0.19509	-0.089095	0.451039	0.0353915	0	0	-0.353891	-0.000911675	-0.349315	0.949406	-0.00823541	0	0	-1.15657	-0.0292283	-0.722878	0.648012	0.393521	0.0700996	1.05358	0.693076	0	0	0.608085	0.00109057	-0.0047103	1.00615	0.692849	0	0
2.75897	2.48353	-0.0632834	2.93757	-1.33069	-1.00272	0.219063	-0.299453	-0.189696	-0.0786359	0.449012	0.0441906	0	0	-0.334558	-0.00759551	-0.378299	0.914527	0.0045556	0	0	-1.15654	-0.0310576	-0.706145	0.649098	0.394774	0.0702838	1.0541	0.693022	0	0	0.608935	0.00163785	-0.00467008	1.00643	0.692789	0	0
2.76895	2.49023	-0.051592	2.9265	-1.31741	-1.00284	0.219503	-0.306684	-0.183719	-0.0678027	0.448501	0.053419	0	0	-0.313324	-0.0161108	-0.408209	0.876427	0.0153731	0	0	-1.155	-0.031453	-0.689263	0.650182	0.396026	0.0704678	1.05463	0.692967	0	0	0.609783	0.00218518	-0.00462981	1.00671	0.692729	0	0
2.77894	2.49896	-0.0385254	2.91543	-1.30412	-1.00246	0.220134	-0.311411	-0.176972	-0.0562032	0.449332	0.0632526	0	0	-0.29082	-0.0263783	-0.438762	0.835345	0.0240487	0	0	-1.15251	-0.030404	-0.671841	0.651264	0.397277	0.0706517	1.05515	0.692913	0	0	0.610629	0.00273255	-0.00458949	1.00699	0.692669	0	0
2.78893	2.50925	-0.023964	2.90418	-1.2908	-1.00158	0.220956	-0.314237	-0.169322	-0.0435427	0.451282	0.0738381	0	0	-0.26753	-0.0382892	-0.469524	0.791569	0.0305878	0	0	-1.14951	-0.0278886	-0.653518	0.652343	0.398527	0.0708355	1.05567	0.692859	0	0	0.611472	0.00327996	-0.00454912	1.00727	0.692609	0	0
2.79891	2.52074	-0.00792437	2.89275	-1.27746	-1.00022	0.221968	-0.315699	-0.160701	-0.0296872	0.45411	0.0852878	0	0	-0.243786	-0.0516859	-0.499908	0.74541	0.0351389	0	0	-1.14633	-0.0238701	-0.634055	0.65342	0.399776	0.0710191	1.05619	0.692805	0	0	0.612313	0.00382742	-0.00450869	1.00755	0.692549	0	0
2.8089	2.53315	0.00946166	2.88121	-1.26407	-0.998404	0.223164	-0.316244	-0.151116	-0.014664	0.45762	0.0976836	0	0	-0.219822	-0.066372	-0.52929	0.69715	0.0379791	0	0	-1.14318	-0.0183441	-0.613369	0.654495	0.401024	0.0712025	1.05672	0.692751	0	0	0.613152	0.0043749	-0.00446822	1.00783	0.692489	0	0
2.81889	2.54624	0.0279952	2.86967	-1.25063	-0.99616	0.224537	-0.316232	-0.140632	0.00135994	0.461717	0.111092	0	0	-0.195846	-0.0821453	-0.557139	0.647018	0.0395133	0	0	-1.14024	-0.0113726	-0.591506	0.655567	0.402271	0.0713858	1.05724	0.692697	0	0	0.613988	0.00492247	-0.00442768	1.00811	0.69243	0	0
2.82887	2.55978	0.0474099	2.85818	-1.23714	-0.99352	0.226075	-0.315932	-0.129438	0.0181329	0.466396	0.125533	0	0	-0.172012	-0.0987578	-0.582596	0.595425	0.0399641	0	0	-1.13766	-0.00314886	-0.568623	0.656637	0.403516	0.071569	1.05776	0.692643	0	0	0.614822	0.00547011	-0.00438709	1.00839	0.69237	0	0
2.83886	2.57358	0.0674162	2.84681	-1.22359	-0.990523	0.227763	-0.315539	-0.117749	0.0353514	0.471704	0.140972	0	0	-0.148476	-0.115956	-0.604961	0.542705	0.0396333	0	0	-1.13558	0.00610508	-0.544942	0.657704	0.404761	0.071752	1.05828	0.692589	0	0	0.615653	0.00601784	-0.00434644	1.00866	0.69231	0	0
2.84884	2.5875	0.087631	2.8355	-1.20997	-0.98721	0.229584	-0.315182	-0.105948	0.052691	0.477681	0.15733	0	0	-0.125298	-0.133447	-0.623474	0.489522	0.0385185	0	0	-1.13397	0.016014	-0.520775	0.658769	0.406004	0.0719348	1.05879	0.692535	0	0	0.616482	0.00656562	-0.00430572	1.00894	0.692251	0	0
2.85883	2.60143	0.107645	2.8242	-1.19627	-0.98363	0.231521	-0.31494	-0.0944574	0.0698453	0.484341	0.174485	0	0	-0.10251	-0.150938	-0.637689	0.43659	0.0367297	0	0	-1.1326	0.0261719	-0.496472	0.659831	0.407246	0.0721175	1.05931	0.692481	0	0	0.617308	0.00711348	-0.00426495	1.00921	0.692191	0	0
2.86882	2.61526	0.127076	2.81284	-1.18249	-0.979835	0.23355	-0.314851	-0.0836905	0.0865165	0.491728	0.192262	0	0	-0.0801878	-0.168151	-0.647376	0.384602	0.0344549	0	0	-1.13136	0.0361843	-0.47236	0.66089	0.408487	0.0723001	1.05983	0.692427	0	0	0.618131	0.00766138	-0.00422411	1.00949	0.692132	0	0
2.8788	2.62885	0.145596	2.80142	-1.1686	-0.975882	0.235652	-0.314926	-0.0740163	0.10241	0.499939	0.210438	0	0	-0.0584715	-0.184829	-0.652498	0.334224	0.0319098	0	0	-1.13026	0.0456995	-0.448724	0.661946	0.409727	0.0724824	1.06035	0.692374	0	0	0.618951	0.00820935	-0.00418321	1.00976	0.692072	0	0
2.88879	2.64203	0.162943	2.78996	-1.1546	-0.971826	0.237803	-0.315155	-0.0657355	0.117247	0.509127	0.228739	0	0	-0.0375669	-0.200753	-0.653201	0.286097	0.02929	0	0	-1.12955	0.0544314	-0.425794	0.663	0.410965	0.0726646	1.06086	0.69232	0	0	0.619768	0.00875735	-0.00414225	1.01003	0.692013	0	0
2.89878	2.65467	0.178932	2.77851	-1.14046	-0.967724	0.23998	-0.315518	-0.059081	0.130806	0.519413	0.246875	0	0	-0.0176646	-0.215777	-0.649888	0.240939	0.0267524	0	0	-1.12935	0.0621643	-0.403788	0.66405	0.412202	0.0728465	1.06138	0.692266	0	0	0.620583	0.0093054	-0.00410122	1.01031	0.691953	0	0
2.90876	2.66668	0.193461	2.76705	-1.12618	-0.963633	0.242159	-0.31599	-0.0542116	0.142972	0.530868	0.264535	0	0	0.00106899	-0.22984	-0.643247	0.199537	0.0244083	0	0	-1.12966	0.0687433	-0.382884	0.665098	0.413437	0.0730283	1.06189	0.692213	0	0	0.621394	0.00985349	-0.00406012	1.01058	0.691894	0	0
2.91875	2.67802	0.206516	2.75554	-1.11172	-0.959605	0.244315	-0.316544	-0.0512105	0.153768	0.543509	0.281396	0	0	0.018496	-0.242963	-0.634238	0.162709	0.0223288	0	0	-1.1304	0.0740707	-0.363206	0.666142	0.414671	0.0732099	1.06241	0.692159	0	0	0.622202	0.0104016	-0.00401896	1.01085	0.691835	0	0
2.92873	2.68869	0.218162	2.74388	-1.09706	-0.955692	0.246422	-0.317153	-0.050099	0.163379	0.5573	0.29712	0	0	0.0345065	-0.255234	-0.624076	0.131249	0.0205664	0	0	-1.13144	0.0780936	-0.344809	0.667183	0.415903	0.0733913	1.06292	0.692106	0	0	0.623007	0.0109497	-0.00397773	1.01112	0.691776	0	0
2.93872	2.69876	0.228527	2.73189	-1.08217	-0.95194	0.248455	-0.317792	-0.0508631	0.172159	0.572152	0.311353	0	0	0.0490056	-0.266781	-0.614212	0.10585	0.0191892	0	0	-1.13254	0.0807833	-0.327687	0.668221	0.417134	0.0735724	1.06343	0.692052	0	0	0.623809	0.0114979	-0.00393643	1.01139	0.691717	0	0
2.94871	2.7083	0.237734	2.71934	-1.06704	-0.94839	0.250391	-0.318443	-0.053493	0.18055	0.58794	0.323723	0	0	0.0617213	-0.27761	-0.605912	0.0866428	0.0180667	0	0	-1.13348	0.0820979	-0.311781	0.669256	0.418363	0.0737534	1.06394	0.691999	0	0	0.624608	0.0120461	-0.00389506	1.01166	0.691658	0	0
2.95869	2.71732	0.245874	2.70608	-1.05164	-0.945082	0.252207	-0.319088	-0.0579921	0.188985	0.604571	0.333827	0	0	0.0723093	-0.287635	-0.600085	0.0734374	0.0168905	0	0	-1.13409	0.0819834	-0.296994	0.670287	0.41959	0.0739341	1.06445	0.691945	0	0	0.625402	0.0125943	-0.00385362	1.01192	0.691599	0	0
2.96868	2.72578	0.252989	2.692	-1.03594	-0.942046	0.253885	-0.319716	-0.0643885	0.197789	0.622039	0.341239	0	0	0.0804413	-0.296706	-0.597239	0.0659111	0.0152069	0	0	-1.13434	0.0803757	-0.28322	0.671314	0.420816	0.0741146	1.06496	0.691892	0	0	0.626194	0.0131425	-0.0038121	1.01219	0.69154	0	0
2.97867	2.73365	0.259043	2.67712	-1.01995	-0.939311	0.255412	-0.320318	-0.0727199	0.207124	0.640243	0.345545	0	0	0.0859828	-0.304642	-0.597694	0.0637326	0.0125733	0	0	-1.13405	0.0772136	-0.270445	0.672338	0.42204	0.0742948	1.06547	0.691839	0	0	0.626982	0.0136906	-0.00377052	1.01245	0.691481	0	0
2.98865	2.74081	0.263923	2.66153	-1.00367	-0.936899	0.256777	-0.320887	-0.0830498	0.216966	0.659164	0.346296	0	0	0.0889489	-0.311222	-0.60155	0.066631	0.00854753	0	0	-1.13312	0.0724176	-0.2587	0.673358	0.423262	0.0744748	1.06597	0.691785	0	0	0.627766	0.0142388	-0.00372886	1.01272	0.691422	0	0
2.99864	2.74715	0.267446	2.64543	-0.987089	-0.934828	0.257977	-0.321423	-0.0954267	0.227112	0.678695	0.343054	0	0	0.0896034	-0.316222	-0.608866	0.0744121	0.00282022	0	0	-1.13132	0.0659193	-0.248126	0.674375	0.424482	0.0746546	1.06648	0.691732	0	0	0.628547	0.014787	-0.00368713	1.01298	0.691364	0	0
3.00862	2.7525	0.269386	2.62915	-0.970243	-0.933109	0.259014	-0.321925	-0.109886	0.237204	0.698819	0.335366	0	0	0.0883314	-0.3194	-0.619549	0.0869239	-0.00483487	0	0	-1.12857	0.0576453	-0.238914	0.675388	0.4257	0.0748341	1.06698	0.691679	0	0	0.629323	0.0153352	-0.00364532	1.01325	0.691305	0	0
3.01861	2.75658	0.269511	2.61311	-0.953156	-0.931752	0.259894	-0.322397	-0.126411	0.246772	0.719639	0.322791	0	0	0.0855583	-0.320515	-0.633265	0.103974	-0.0145356	0	0	-1.12492	0.0475471	-0.231292	0.676397	0.426917	0.0750133	1.06749	0.691626	0	0	0.630096	0.0158833	-0.00360343	1.01351	0.691246	0	0
3.0286	2.75908	0.267625	2.59788	-0.935866	-0.930761	0.260629	-0.322844	-0.144894	0.255299	0.741381	0.304942	0	0	0.0816385	-0.319321	-0.649362	0.125201	-0.0262081	0	0	-1.12063	0.0356294	-0.22551	0.677402	0.428131	0.0751923	1.06799	0.691573	0	0	0.630865	0.0164315	-0.00356146	1.01377	0.691188	0	0
3.03858	2.75971	0.263563	2.584	-0.91842	-0.930137	0.261235	-0.323276	-0.165121	0.26233	0.764189	0.281542	0	0	0.0768091	-0.315559	-0.666908	0.149906	-0.039462	0	0	-1.11589	0.0219631	-0.22188	0.678403	0.429344	0.0753711	1.06849	0.69152	0	0	0.63163	0.0169798	-0.00351941	1.01403	0.691129	0	0
3.04857	2.75821	0.257275	2.57205	-0.900865	-0.92988	0.261735	-0.323704	-0.186735	0.267516	0.788283	0.252461	0	0	0.0710169	-0.30896	-0.684581	0.177014	-0.053572	0	0	-1.11103	0.00671711	-0.220661	0.6794	0.430555	0.0755495	1.06899	0.691467	0	0	0.632391	0.017528	-0.00347727	1.01429	0.691071	0	0
3.05856	2.75438	0.248873	2.56249	-0.883255	-0.929986	0.26215	-0.324143	-0.2092	0.270733	0.813865	0.217808	0	0	0.0642449	-0.299495	-0.701181	0.205785	-0.0673999	0	0	-1.1064	-0.00979759	-0.222054	0.680392	0.431763	0.0757277	1.06949	0.691414	0	0	0.633148	0.0180763	-0.00343505	1.01454	0.691012	0	0
3.06854	2.74817	0.238633	2.55568	-0.865641	-0.930452	0.262507	-0.324611	-0.23181	0.27216	0.841046	0.177981	0	0	0.0564974	-0.2874	-0.715952	0.235743	-0.0797086	0	0	-1.10231	-0.0271458	-0.226143	0.681381	0.43297	0.0759056	1.06999	0.691361	0	0	0.633901	0.0186245	-0.00339274	1.0148	0.690954	0	0
3.07853	2.73949	0.227043	2.55186	-0.848073	-0.931272	0.262834	-0.325128	-0.253736	0.272175	0.870028	0.133721	0	0	0.0474575	-0.273021	-0.728364	0.266079	-0.0895334	0	0	-1.0994	-0.0447684	-0.232799	0.682365	0.434174	0.0760832	1.07048	0.691308	0	0	0.634649	0.0191728	-0.00335035	1.01505	0.690896	0	0
3.08851	2.72832	0.214634	2.55117	-0.830594	-0.932442	0.263156	-0.325718	-0.274132	0.271286	0.900887	0.0861522	0	0	0.0364966	-0.256595	-0.737919	0.295371	-0.0964319	0	0	-1.09828	-0.0620699	-0.241798	0.683345	0.435376	0.0762605	1.07098	0.691255	0	0	0.635393	0.019721	-0.00330787	1.01531	0.690837	0	0
3.0985	2.71477	0.201868	2.55363	-0.813244	-0.933956	0.263499	-0.326403	-0.292234	0.270074	0.933424	0.0367813	0	0	0.0231304	-0.238416	-0.744447	0.322455	-0.10017	0	0	-1.09933	-0.0784947	-0.252904	0.68432	0.436576	0.0764375	1.07147	0.691202	0	0	0.636132	0.0202692	-0.00326529	1.01556	0.690779	0	0
3.10849	2.69901	0.189094	2.55914	-0.796055	-0.935808	0.263883	-0.327204	-0.307419	0.269075	0.967198	-0.0125725	0	0	0.00703444	-0.218821	-0.748052	0.346495	-0.100713	0	0	-1.10271	-0.0935903	-0.265881	0.68529	0.437774	0.0766142	1.07196	0.691149	0	0	0.636867	0.0208174	-0.00322263	1.01581	0.690721	0	0
3.11847	2.68129	0.176531	2.56749	-0.779048	-0.93799	0.264324	-0.328137	-0.319233	0.268702	1.00155	-0.0598739	0	0	-0.0119155	-0.198174	-0.749043	0.367003	-0.098233	0	0	-1.10833	-0.107038	-0.280515	0.686256	0.438969	0.0767906	1.07246	0.691096	0	0	0.637597	0.0213655	-0.00317988	1.01606	0.690663	0	0
3.12846	2.66179	0.164449	2.57845	-0.76224	-0.940492	0.264831	-0.329208	-0.327354	0.269107	1.03594	-0.102994	0	0	-0.0338876	-0.176908	-0.747643	0.38363	-0.0931193	0	0	-1.11632	-0.118562	-0.296554	0.687217	0.440162	0.0769666	1.07295	0.691043	0	0	0.638322	0.0219136	-0.00313703	1.01631	0.690605	0	0
3.13845	2.64076	0.153074	2.59173	-0.745638	-0.943299	0.265403	-0.330407	-0.331606	0.270223	1.06975	-0.139927	0	0	-0.0589125	-0.155497	-0.744059	0.396263	-0.0858794	0	0	-1.12668	-0.127964	-0.313761	0.688173	0.441352	0.0771423	1.07343	0.690991	0	0	0.639043	0.0224616	-0.00309409	1.01656	0.690547	0	0
3.14843	2.61846	0.142538	2.60704	-0.729242	-0.946392	0.266036	-0.3317	-0.332009	0.271749	1.10232	-0.169128	0	0	-0.0868484	-0.134401	-0.7385	0.405023	-0.0770518	0	0	-1.13922	-0.135134	-0.331925	0.689124	0.442539	0.0773177	1.07392	0.690938	0	0	0.639758	0.0230096	-0.00305106	1.01681	0.690489	0	0
3.15842	2.59522	0.132862	2.62406	-0.713045	-0.949743	0.266716	-0.33302	-0.328815	0.273152	1.13289	-0.189842	0	0	-0.117398	-0.11401	-0.731156	0.410193	-0.0671483	0	0	-1.15359	-0.140067	-0.350877	0.69007	0.443724	0.0774927	1.07441	0.690885	0	0	0.640468	0.0235576	-0.00300793	1.01705	0.690431	0	0
3.1684	2.57144	0.123904	2.6425	-0.697035	-0.953319	0.267425	-0.334257	-0.322517	0.273739	1.16064	-0.202114	0	0	-0.150064	-0.0945816	-0.722232	0.412211	-0.0566151	0	0	-1.16918	-0.142872	-0.370523	0.691011	0.444907	0.0776673	1.07489	0.690833	0	0	0.641174	0.0241054	-0.00296471	1.0173	0.690374	0	0
3.17839	2.54759	0.115342	2.66204	-0.681195	-0.95708	0.268141	-0.33525	-0.313821	0.272754	1.18468	-0.206548	0	0	-0.184146	-0.0762189	-0.711976	0.41164	-0.0458171	0	0	-1.18514	-0.143776	-0.390859	0.691946	0.446086	0.0778416	1.07537	0.69078	0	0	0.641874	0.0246532	-0.00292138	1.01754	0.690316	0	0
3.18838	2.52422	0.106772	2.68236	-0.665509	-0.960978	0.268841	-0.33577	-0.30356	0.269472	1.20421	-0.204087	0	0	-0.218841	-0.0588952	-0.700624	0.409068	-0.0350532	0	0	-1.20049	-0.143081	-0.411946	0.692876	0.447263	0.0780155	1.07585	0.690727	0	0	0.642568	0.0252009	-0.00287796	1.01778	0.690258	0	0
3.19836	2.50181	0.0978337	2.70316	-0.649955	-0.964962	0.269498	-0.335523	-0.292554	0.263294	1.21865	-0.195894	0	0	-0.253401	-0.0425193	-0.688345	0.404975	-0.0245689	0	0	-1.21456	-0.141093	-0.433853	0.693801	0.448437	0.078189	1.07633	0.690675	0	0	0.643258	0.0257485	-0.00283444	1.01802	0.690201	0	0
3.20835	2.48083	0.08826	2.72413	-0.634517	-0.968976	0.27009	-0.334139	-0.281541	0.253812	1.22769	-0.183222	0	0	-0.287132	-0.0269784	-0.675273	0.399747	-0.0145534	0	0	-1.2269	-0.138106	-0.456621	0.69472	0.449609	0.0783621	1.07681	0.690622	0	0	0.643941	0.026296	-0.00279081	1.01826	0.690143	0	0
3.21834	2.46175	0.0778791	2.74496	-0.619175	-0.972963	0.270592	-0.331178	-0.27114	0.240852	1.23122	-0.167313	0	0	-0.319388	-0.0121556	-0.661544	0.393697	-0.00513268	0	0	-1.23723	-0.134404	-0.480244	0.695633	0.450777	0.0785348	1.07728	0.69057	0	0	0.64462	0.0268435	-0.00274708	1.01849	0.690086	0	0
3.22832	2.44509	0.0665625	2.76528	-0.603916	-0.976863	0.270983	-0.32615	-0.261905	0.224447	1.22924	-0.14924	0	0	-0.349466	0.0020831	-0.647379	0.387167	0.00364893	0	0	-1.24524	-0.130293	-0.504671	0.696541	0.451942	0.0787072	1.07776	0.690517	0	0	0.645292	0.0273909	-0.00270325	1.01873	0.690028	0	0
3.23831	2.43136	0.0542548	2.78469	-0.588722	-0.980618	0.271245	-0.318543	-0.254281	0.204845	1.2219	-0.129935	0	0	-0.376709	0.0158776	-0.63305	0.380473	0.0118143	0	0	-1.25066	-0.126112	-0.529768	0.697443	0.453105	0.0788791	1.07823	0.690465	0	0	0.645959	0.0279382	-0.0026593	1.01896	0.689971	0	0
3.24829	2.42102	0.0409743	2.80278	-0.573582	-0.984175	0.271359	-0.307875	-0.248611	0.182476	1.20944	-0.110174	0	0	-0.400537	0.0293649	-0.618877	0.373907	0.0194441	0	0	-1.25333	-0.122229	-0.555303	0.698339	0.454264	0.0790506	1.0787	0.690412	0	0	0.64662	0.0284855	-0.00261524	1.01919	0.689913	0	0
3.25828	2.41446	0.0268098	2.81916	-0.558482	-0.987483	0.271311	-0.293773	-0.245141	0.157918	1.19218	-0.0905848	0	0	-0.420519	0.0426747	-0.605234	0.367723	0.026665	0	0	-1.25316	-0.119044	-0.580924	0.699229	0.45542	0.0792217	1.07917	0.69036	0	0	0.647275	0.0290327	-0.00257107	1.01942	0.689856	0	0
3.26827	2.41178	0.0118763	2.83348	-0.543408	-0.990496	0.271088	-0.276079	-0.243942	0.131922	1.17037	-0.0717247	0	0	-0.436542	0.0559568	-0.592506	0.362136	0.0336199	0	0	-1.25023	-0.116997	-0.606159	0.700112	0.456574	0.0793924	1.07963	0.690307	0	0	0.647924	0.0295798	-0.00252679	1.01965	0.689799	0	0
3.27825	2.4128	-0.00377518	2.8456	-0.528348	-0.993177	0.270681	-0.254996	-0.244964	0.105175	1.14416	-0.0541105	0	0	-0.448852	0.0694106	-0.580872	0.357255	0.0404385	0	0	-1.24475	-0.116462	-0.630677	0.70099	0.457724	0.0795626	1.0801	0.690255	0	0	0.648567	0.0301268	-0.0024824	1.01988	0.689741	0	0
3.28824	2.41708	-0.0201703	2.85557	-0.513289	-0.995492	0.270084	-0.231057	-0.248086	0.0782636	1.11372	-0.0382199	0	0	-0.457899	0.0832955	-0.570277	0.353015	0.0472273	0	0	-1.23706	-0.117729	-0.654361	0.701861	0.45887	0.0797324	1.08056	0.690203	0	0	0.649204	0.0306737	-0.00243789	1.02011	0.689684	0	0
3.29823	2.42409	-0.0374139	2.86357	-0.498216	-0.997415	0.269296	-0.204906	-0.253232	0.0515786	1.07922	-0.0244041	0	0	-0.464231	0.097885	-0.560493	0.349314	0.0540768	0	0	-1.22747	-0.121007	-0.677336	0.702726	0.460013	0.0799018	1.08102	0.69015	0	0	0.649834	0.0312204	-0.00239326	1.02033	0.689627	0	0
3.30821	2.43331	-0.0556475	2.86986	-0.483118	-0.998926	0.26832	-0.177184	-0.260363	0.0253835	1.04086	-0.0128888	0	0	-0.468414	0.113434	-0.551193	0.346044	0.0610779	0	0	-1.21629	-0.126434	-0.699831	0.703584	0.461153	0.0800706	1.08148	0.690098	0	0	0.650458	0.0317671	-0.00234852	1.02055	0.68957	0	0
3.3182	2.44426	-0.0750235	2.87477	-0.467981	-1.00001	0.267163	-0.148475	-0.269462	-0.000171466	0.998938	-0.0037763	0	0	-0.470981	0.130145	-0.541989	0.343129	0.0683481	0	0	-1.20374	-0.134066	-0.722112	0.704436	0.46229	0.080239	1.08194	0.690046	0	0	0.651075	0.0323136	-0.00230366	1.02077	0.689513	0	0
3.32818	2.45652	-0.0956908	2.87866	-0.452793	-1.00067	0.265836	-0.119267	-0.280527	-0.0250021	0.953802	0.00293521	0	0	-0.472399	0.14817	-0.532433	0.340521	0.0760072	0	0	-1.19	-0.143891	-0.744439	0.705281	0.463422	0.0804069	1.08239	0.689993	0	0	0.651685	0.03286	-0.00225867	1.02099	0.689456	0	0
3.33817	2.46976	-0.117774	2.88192	-0.437544	-1.00089	0.264355	-0.0899466	-0.293554	-0.0490252	0.905852	0.00733041	0	0	-0.473058	0.167601	-0.522025	0.338195	0.084151	0	0	-1.17524	-0.155845	-0.767031	0.706118	0.464552	0.0805743	1.08285	0.689941	0	0	0.652289	0.0334062	-0.00221357	1.02121	0.689399	0	0
3.34816	2.48372	-0.14134	2.88489	-0.422222	-1.00069	0.262736	-0.0608051	-0.308497	-0.0721134	0.855506	0.00956305	0	0	-0.473266	0.188451	-0.51024	0.336166	0.0928516	0	0	-1.15961	-0.169806	-0.790049	0.706949	0.465677	0.0807412	1.0833	0.689889	0	0	0.652886	0.0339522	-0.00216834	1.02142	0.689342	0	0
3.35814	2.49823	-0.166362	2.88794	-0.406821	-1.00007	0.260999	-0.032061	-0.325233	-0.0940547	0.8032	0.00985026	0	0	-0.473256	0.210621	-0.496566	0.334507	0.102167	0	0	-1.14332	-0.18559	-0.813568	0.707773	0.466799	0.0809076	1.08374	0.689836	0	0	0.653476	0.0344981	-0.00212299	1.02163	0.689285	0	0
3.36813	2.51317	-0.192697	2.89137	-0.391331	-0.999062	0.259166	-0.00380869	-0.34356	-0.114597	0.749505	0.00850764	0	0	-0.473192	0.233875	-0.480554	0.333318	0.112184	0	0	-1.1264	-0.20295	-0.837577	0.708589	0.467916	0.0810735	1.08419	0.689784	0	0	0.654058	0.0350439	-0.00207752	1.02184	0.689228	0	0
3.37812	2.52846	-0.220105	2.89546	-0.375748	-0.997687	0.257258	0.0238627	-0.363198	-0.133407	0.694978	0.00591019	0	0	-0.473182	0.257877	-0.461839	0.332761	0.122955	0	0	-1.10905	-0.221578	-0.861977	0.709399	0.46903	0.0812388	1.08463	0.689732	0	0	0.654634	0.0355894	-0.00203192	1.02205	0.689172	0	0
3.3881	2.54401	-0.248286	2.90041	-0.360065	-0.995981	0.255297	0.0508258	-0.383829	-0.150107	0.640149	0.00247149	0	0	-0.47329	0.282235	-0.440183	0.333068	0.134485	0	0	-1.09164	-0.241125	-0.886599	0.7102	0.47014	0.0814036	1.08508	0.68968	0	0	0.655202	0.0361347	-0.00198619	1.02226	0.689115	0	0
3.39809	2.55974	-0.276893	2.90642	-0.344275	-0.993982	0.253305	0.0769711	-0.405136	-0.164361	0.585633	-0.00137716	0	0	-0.473544	0.306508	-0.415529	0.33447	0.146772	0	0	-1.07445	-0.261216	-0.911229	0.710994	0.471246	0.0815679	1.08552	0.689627	0	0	0.655763	0.0366799	-0.00194033	1.02247	0.689058	0	0
3.40807	2.5756	-0.305545	2.91363	-0.328374	-0.991735	0.251304	0.102192	-0.426811	-0.175942	0.532119	-0.00523486	0	0	-0.473952	0.330224	-0.388032	0.337171	0.159792	0	0	-1.05771	-0.28145	-0.935628	0.711781	0.472348	0.0817315	1.08595	0.689575	0	0	0.656316	0.0372248	-0.00189435	1.02267	0.689002	0	0
3.41806	2.59155	-0.333852	2.92217	-0.312352	-0.989289	0.249317	0.126374	-0.448572	-0.184782	0.480363	-0.00877919	0	0	-0.474503	0.352909	-0.358056	0.341339	0.173482	0	0	-1.04152	-0.301419	-0.959555	0.712559	0.473446	0.0818947	1.08639	0.689523	0	0	0.656862	0.0377696	-0.00184823	1.02287	0.688945	0	0
3.42805	2.60754	-0.361434	2.93212	-0.296202	-0.986689	0.247364	0.149394	-0.470177	-0.191016	0.431179	-0.0117895	0	0	-0.475175	0.374112	-0.326153	0.347098	0.187732	0	0	-1.02594	-0.320725	-0.982787	0.71333	0.474539	0.0820572	1.08682	0.689471	0	0	0.6574	0.0383142	-0.00180197	1.02307	0.688889	0	0
3.43803	2.6235	-0.387943	2.94352	-0.279915	-0.983983	0.245466	0.17112	-0.49143	-0.194968	0.38542	-0.0141426	0	0	-0.475945	0.393445	-0.293009	0.354547	0.202358	0	0	-1.01097	-0.339018	-1.00513	0.714093	0.475629	0.0822192	1.08725	0.689418	0	0	0.65793	0.0388586	-0.00175557	1.02326	0.688832	0	0
3.44802	2.63943	-0.413098	2.95636	-0.263481	-0.981215	0.243644	0.191507	-0.512218	-0.197151	0.344029	-0.0158055	0	0	-0.476785	0.410605	-0.259427	0.363635	0.217176	0	0	-0.996422	-0.355987	-1.02639	0.714848	0.476714	0.0823806	1.08768	0.689366	0	0	0.658452	0.0394029	-0.00170903	1.02346	0.688776	0	0
3.45801	2.65528	-0.436668	2.97057	-0.246891	-0.978432	0.241917	0.210509	-0.532451	-0.198201	0.307921	-0.0168264	0	0	-0.477671	0.425374	-0.226222	0.374314	0.231906	0	0	-0.982109	-0.371389	-1.04646	0.715595	0.477795	0.0825414	1.0881	0.689314	0	0	0.658966	0.0399469	-0.00166235	1.02365	0.688719	0	0
3.46799	2.67093	-0.458471	2.98594	-0.230137	-0.975676	0.2403	0.228043	-0.552026	-0.198741	0.277882	-0.0173419	0	0	-0.478579	0.43764	-0.194132	0.386588	0.246172	0	0	-0.967975	-0.385061	-1.06526	0.716333	0.478871	0.0827016	1.08852	0.689262	0	0	0.659472	0.0404907	-0.00161553	1.02384	0.688663	0	0
3.47798	2.68617	-0.478364	3.00214	-0.213216	-0.972987	0.23881	0.243958	-0.570795	-0.199246	0.25447	-0.0175902	0	0	-0.47949	0.447382	-0.163752	0.400547	0.259505	0	0	-0.954104	-0.396921	-1.08275	0.717063	0.479943	0.0828612	1.08894	0.689209	0	0	0.659969	0.0410343	-0.00156857	1.02403	0.688607	0	0
3.48796	2.7008	-0.496238	3.01886	-0.196126	-0.970401	0.237458	0.258101	-0.588594	-0.199967	0.23797	-0.0179406	0	0	-0.480389	0.45462	-0.13558	0.416213	0.271421	0	0	-0.940505	-0.406906	-1.09887	0.717784	0.48101	0.0830202	1.08936	0.689157	0	0	0.660458	0.0415776	-0.00152146	1.02421	0.68855	0	0
3.49795	2.71452	-0.51198	3.03568	-0.178871	-0.967951	0.236254	0.270212	-0.605159	-0.200896	0.228297	-0.0188732	0	0	-0.481262	0.459394	-0.109962	0.43373	0.281336	0	0	-0.92737	-0.414961	-1.11356	0.718496	0.482072	0.0831785	1.08977	0.689105	0	0	0.660939	0.0421207	-0.0014742	1.02439	0.688494	0	0
3.50794	2.72714	-0.52549	3.0523	-0.161461	-0.965663	0.235204	0.280136	-0.620239	-0.201957	0.225112	-0.0209221	0	0	-0.4821	0.461715	-0.0872525	0.45302	0.288717	0	0	-0.914658	-0.420996	-1.12676	0.7192	0.48313	0.0833362	1.09018	0.689053	0	0	0.661411	0.0426636	-0.0014268	1.02457	0.688438	0	0
3.51792	2.73837	-0.536629	3.06836	-0.143911	-0.963563	0.234311	0.287683	-0.633479	-0.203063	0.227837	-0.0245775	0	0	-0.482896	0.461557	-0.0677549	0.474122	0.292934	0	0	-0.902514	-0.424888	-1.1384	0.719894	0.484183	0.0834932	1.09059	0.689	0	0	0.661874	0.0432062	-0.00137925	1.02475	0.688382	0	0
3.52791	2.74791	-0.545233	3.0835	-0.126242	-0.961668	0.233574	0.292718	-0.64448	-0.204187	0.235735	-0.0302444	0	0	-0.483648	0.458847	-0.0517822	0.497048	0.293362	0	0	-0.891096	-0.426495	-1.1484	0.72058	0.485231	0.0836495	1.091	0.688948	0	0	0.662328	0.0437485	-0.00133154	1.02493	0.688325	0	0
3.5379	2.75549	-0.551076	3.09744	-0.108482	-0.959995	0.232987	0.295218	-0.652794	-0.205466	0.248025	-0.0382174	0	0	-0.484354	0.453396	-0.039778	0.521679	0.289431	0	0	-0.880446	-0.425609	-1.1566	0.721256	0.486273	0.0838051	1.0914	0.688896	0	0	0.662773	0.0442905	-0.00128369	1.0251	0.688269	0	0
3.54788	2.76079	-0.553889	3.10987	-0.0906645	-0.958553	0.232542	0.295141	-0.657916	-0.207057	0.263877	-0.0486388	0	0	-0.485015	0.444967	-0.0321963	0.547993	0.280565	0	0	-0.870764	-0.421996	-1.16284	0.721923	0.487311	0.0839601	1.0918	0.688844	0	0	0.663209	0.0448322	-0.00123568	1.02527	0.688213	0	0
3.55787	2.76343	-0.553446	3.12047	-0.0728282	-0.957347	0.232226	0.292422	-0.65939	-0.209005	0.282474	-0.0613667	0	0	-0.485637	0.433396	-0.0293466	0.576082	0.266239	0	0	-0.862438	-0.415474	-1.16693	0.72258	0.488344	0.0841143	1.0922	0.688791	0	0	0.663636	0.0453737	-0.00118752	1.02544	0.688157	0	0
3.56785	2.76318	-0.549607	3.12903	-0.055016	-0.956377	0.232022	0.287161	-0.656955	-0.211362	0.303219	-0.0757723	0	0	-0.486225	0.418593	-0.0314382	0.605837	0.246119	0	0	-0.855659	-0.405933	-1.16867	0.723228	0.489371	0.0842679	1.09259	0.688739	0	0	0.664053	0.0459148	-0.0011392	1.0256	0.688101	0	0
3.57784	2.75979	-0.542383	3.13534	-0.0372737	-0.955637	0.231913	0.279386	-0.650508	-0.214016	0.325633	-0.0906916	0	0	-0.486789	0.400679	-0.0383855	0.63733	0.220011	0	0	-0.850889	-0.393418	-1.16794	0.723866	0.490393	0.0844207	1.09298	0.688687	0	0	0.66446	0.0464556	-0.00109072	1.02576	0.688045	0	0
3.58783	2.75322	-0.531984	3.13932	-0.0196484	-0.955117	0.231879	0.269231	-0.64024	-0.216927	0.349387	-0.104752	0	0	-0.487342	0.379992	-0.0498449	0.670428	0.188066	0	0	-0.848375	-0.378184	-1.16467	0.724494	0.49141	0.0845727	1.09337	0.688634	0	0	0.664858	0.046996	-0.00104209	1.02592	0.687989	0	0
3.59781	2.74345	-0.518847	3.14095	-0.00218756	-0.954805	0.2319	0.256666	-0.626533	-0.220026	0.373987	-0.116765	0	0	-0.487899	0.357139	-0.0651227	0.705121	0.150745	0	0	-0.848555	-0.360732	-1.15895	0.725112	0.492421	0.0847241	1.09375	0.688582	0	0	0.665247	0.0475361	-0.000993291	1.02608	0.687933	0	0
3.6078	2.73048	-0.503623	3.14023	0.0150628	-0.954684	0.231955	0.241444	-0.609923	-0.223044	0.398617	-0.125904	0	0	-0.488477	0.332984	-0.0831823	0.741494	0.108912	0	0	-0.852028	-0.341809	-1.15096	0.72572	0.493427	0.0848746	1.09413	0.68853	0	0	0.665625	0.0480758	-0.000944334	1.02624	0.687878	0	0
3.61779	2.7145	-0.487024	3.13728	0.0320595	-0.954739	0.232028	0.223304	-0.591018	-0.225667	0.422302	-0.131691	0	0	-0.489095	0.308453	-0.102886	0.779399	0.0639051	0	0	-0.859134	-0.322258	-1.14095	0.726318	0.494427	0.0850244	1.09451	0.688477	0	0	0.665993	0.0486153	-0.00089521	1.02639	0.687822	0	0
3.62777	2.69575	-0.469704	3.13232	0.0487621	-0.954953	0.232104	0.20202	-0.570404	-0.227617	0.444077	-0.133917	0	0	-0.489769	0.284393	-0.12319	0.818462	0.0174869	0	0	-0.869963	-0.302876	-1.12919	0.726905	0.495421	0.0851734	1.09488	0.688425	0	0	0.666351	0.0491544	-0.000845917	1.02654	0.687766	0	0
3.63776	2.67462	-0.452195	3.12558	0.0651337	-0.955314	0.232173	0.177488	-0.548636	-0.228742	0.463161	-0.132598	0	0	-0.490516	0.26151	-0.143263	0.858064	-0.0282372	0	0	-0.884334	-0.28433	-1.11593	0.727482	0.49641	0.0853217	1.09526	0.688372	0	0	0.666699	0.0496932	-0.000796453	1.02668	0.68771	0	0
3.64774	2.65149	-0.434912	3.11736	0.0811391	-0.955812	0.232232	0.149743	-0.526255	-0.228989	0.479025	-0.127972	0	0	-0.491343	0.24037	-0.162515	0.897402	-0.0709977	0	0	-0.901871	-0.267134	-1.10146	0.728048	0.497393	0.0854691	1.09562	0.68832	0	0	0.667037	0.0502316	-0.000746817	1.02682	0.687654	0	0
3.65773	2.62677	-0.418213	3.10793	0.0967436	-0.956443	0.232281	0.118873	-0.503792	-0.228273	0.491318	-0.120475	0	0	-0.492248	0.221444	-0.180559	0.935661	-0.108638	0	0	-0.922233	-0.251704	-1.08603	0.728604	0.49837	0.0856158	1.09599	0.688267	0	0	0.667364	0.0507696	-0.000697008	1.02696	0.687599	0	0
3.66772	2.60076	-0.402425	3.09756	0.111911	-0.957204	0.232327	0.0850024	-0.481767	-0.226431	0.499836	-0.11068	0	0	-0.493213	0.205143	-0.197165	0.972082	-0.139462	0	0	-0.945183	-0.238394	-1.0699	0.729148	0.499341	0.0857616	1.09635	0.688215	0	0	0.66768	0.0513073	-0.000647023	1.0271	0.687543	0	0
3.6777	2.57389	-0.387751	3.08646	0.1266	-0.958102	0.23238	0.0484901	-0.460667	-0.223367	0.504658	-0.0992098	0	0	-0.494192	0.191756	-0.212268	1.00576	-0.162486	0	0	-0.970196	-0.227415	-1.05332	0.729682	0.500306	0.0859066	1.09671	0.688162	0	0	0.667986	0.0518446	-0.000596862	1.02723	0.687487	0	0
3.68769	2.54659	-0.374284	3.07481	0.140764	-0.959142	0.232451	0.00983004	-0.440896	-0.219018	0.506043	-0.0866881	0	0	-0.495112	0.18143	-0.22594	1.0358	-0.177556	0	0	-0.996655	-0.21886	-1.03647	0.730204	0.501265	0.0860507	1.09706	0.688109	0	0	0.66828	0.0523815	-0.000546524	1.02736	0.687432	0	0
3.69768	2.51933	-0.361991	3.06276	0.15435	-0.960336	0.232554	-0.0303491	-0.422744	-0.213386	0.504414	-0.0736884	0	0	-0.495855	0.17413	-0.238391	1.06137	-0.185177	0	0	-1.02384	-0.212703	-1.01953	0.730715	0.502217	0.086194	1.09741	0.688057	0	0	0.668564	0.052918	-0.000496005	1.02749	0.687376	0	0
3.70766	2.49262	-0.350701	3.05045	0.167293	-0.961691	0.232699	-0.071268	-0.406358	-0.206559	0.500349	-0.0606906	0	0	-0.496256	0.169602	-0.249974	1.0817	-0.18623	0	0	-1.05086	-0.208779	-1.0026	0.731214	0.503163	0.0863365	1.09776	0.688004	0	0	0.668836	0.0534541	-0.000445306	1.02762	0.68732	0	0
3.71765	2.46704	-0.340113	3.03806	0.179526	-0.963208	0.232895	-0.112006	-0.391736	-0.198702	0.49455	-0.0480608	0	0	-0.496092	0.167367	-0.26117	1.09613	-0.181735	0	0	-1.07668	-0.206799	-0.985733	0.731702	0.504103	0.086478	1.0981	0.687951	0	0	0.669097	0.0539897	-0.000394425	1.02774	0.687265	0	0
3.72763	2.44347	-0.330056	3.02538	0.192076	-0.964318	0.233085	-0.151948	-0.378788	-0.190004	0.487586	-0.0360356	0	0	-0.495164	0.166886	-0.272441	1.10445	-0.172916	0	0	-1.10106	-0.20631	-0.96895	0.732184	0.505034	0.0866172	1.09844	0.687899	0	0	0.669351	0.0545256	-0.000342882	1.02785	0.687209	0	0
3.73762	2.42225	-0.320283	3.01251	0.204908	-0.965047	0.233277	-0.190399	-0.36736	-0.180634	0.479946	-0.0247509	0	0	-0.49312	0.16761	-0.284249	1.10668	-0.160951	0	0	-1.12373	-0.207025	-0.952227	0.73266	0.505956	0.0867539	1.09877	0.687846	0	0	0.669599	0.0550622	-0.000290586	1.02797	0.687154	0	0
3.74761	2.40375	-0.310527	2.99959	0.217992	-0.965422	0.233481	-0.226567	-0.357239	-0.170782	0.4722	-0.0142355	0	0	-0.48956	0.168918	-0.297037	1.10286	-0.146783	0	0	-1.14425	-0.208628	-0.935503	0.73313	0.506869	0.0868889	1.0991	0.687793	0	0	0.66984	0.055599	-0.000237978	1.02808	0.687098	0	0
3.75759	2.38842	-0.300547	2.98681	0.231302	-0.965478	0.233712	-0.259662	-0.348186	-0.160641	0.464941	-0.00441624	0	0	-0.484059	0.170182	-0.311175	1.09319	-0.131157	0	0	-1.16218	-0.210783	-0.918702	0.733595	0.507775	0.0870227	1.09943	0.687739	0	0	0.670074	0.056135	-0.000185722	1.02819	0.687043	0	0
3.76758	2.37654	-0.290167	2.97432	0.24478	-0.965259	0.233985	-0.289027	-0.339966	-0.150394	0.458662	0.00487649	0	0	-0.476188	0.170876	-0.326883	1.07803	-0.114739	0	0	-1.1773	-0.213172	-0.901747	0.734055	0.508674	0.087156	1.09976	0.687686	0	0	0.6703	0.0566691	-0.000134519	1.02829	0.686987	0	0
3.77757	2.36837	-0.279217	2.96226	0.258386	-0.964816	0.234312	-0.314137	-0.332305	-0.140111	0.453765	0.0138574	0	0	-0.465583	0.170484	-0.344333	1.0578	-0.0980306	0	0	-1.18939	-0.215488	-0.884548	0.734511	0.509568	0.0872893	1.10008	0.687633	0	0	0.670518	0.0572011	-8.46848e-05	1.02839	0.686931	0	0
3.78755	2.36402	-0.267514	2.9507	0.272074	-0.964204	0.234701	-0.334747	-0.324853	-0.129683	0.450407	0.0227501	0	0	-0.452019	0.168521	-0.363646	1.03302	-0.0814582	0	0	-1.19842	-0.217441	-0.866971	0.734963	0.510457	0.0874227	1.1004	0.68758	0	0	0.670727	0.0577307	-3.6382e-05	1.02849	0.686876	0	0
3.79754	2.36339	-0.254877	2.93962	0.285807	-0.963486	0.235158	-0.350964	-0.317246	-0.118822	0.448529	0.0317734	0	0	-0.43552	0.164586	-0.384909	1.00419	-0.0653965	0	0	-1.2045	-0.218798	-0.848835	0.735412	0.51134	0.0875561	1.10072	0.687527	0	0	0.670928	0.0582582	1.03473e-05	1.02859	0.68682	0	0
3.80752	2.36614	-0.241113	2.92883	0.299558	-0.962729	0.235684	-0.363202	-0.309166	-0.10717	0.44799	0.0411292	0	0	-0.416471	0.158427	-0.408128	0.971639	-0.0502006	0	0	-1.20799	-0.219392	-0.829913	0.735858	0.512217	0.0876896	1.10104	0.687474	0	0	0.671118	0.058784	5.55051e-05	1.02868	0.686764	0	0
3.81751	2.37178	-0.226022	2.91807	0.313306	-0.962002	0.23628	-0.37204	-0.300374	-0.0943392	0.448665	0.0509846	0	0	-0.3955	0.14991	-0.433269	0.93556	-0.0361522	0	0	-1.20935	-0.219126	-0.809949	0.736301	0.513088	0.0878232	1.10135	0.687421	0	0	0.671299	0.0593081	9.91089e-05	1.02878	0.686708	0	0
3.8275	2.37982	-0.209392	2.90703	0.327039	-0.961364	0.23695	-0.378117	-0.290638	-0.0799095	0.450374	0.0614488	0	0	-0.373271	0.138969	-0.460179	0.89609	-0.0234385	0	0	-1.20907	-0.217908	-0.788671	0.736742	0.513953	0.087957	1.10166	0.687368	0	0	0.67147	0.0598306	0.000141185	1.02887	0.686652	0	0
3.83748	2.38982	-0.191087	2.89553	0.340745	-0.960868	0.237704	-0.382062	-0.27981	-0.0635701	0.452936	0.0726156	0	0	-0.350378	0.125652	-0.488501	0.853388	-0.0121556	0	0	-1.20762	-0.215637	-0.765847	0.73718	0.514812	0.0880909	1.10198	0.687314	0	0	0.671631	0.0603518	0.000181875	1.02896	0.686596	0	0
3.84747	2.40144	-0.171108	2.8835	0.354432	-0.960551	0.238558	-0.384454	-0.267865	-0.0452206	0.456166	0.0845652	0	0	-0.327257	0.110167	-0.517611	0.807671	-0.00232551	0	0	-1.20538	-0.212188	-0.741365	0.737615	0.515666	0.0882247	1.10229	0.687261	0	0	0.671784	0.0608722	0.000221431	1.02904	0.686541	0	0
3.85746	2.41444	-0.149611	2.87102	0.368103	-0.960435	0.239546	-0.385787	-0.254902	-0.0249984	0.459883	0.0973497	0	0	-0.304181	0.0928848	-0.546604	0.759183	0.00605577	0	0	-1.20266	-0.207422	-0.715272	0.738045	0.516514	0.0883583	1.1026	0.687208	0	0	0.671928	0.0613922	0.000260163	1.02913	0.686485	0	0
3.86744	2.42862	-0.126904	2.85824	0.381785	-0.960524	0.240697	-0.386468	-0.241154	-0.00322978	0.463926	0.110995	0	0	-0.281277	0.0742812	-0.574507	0.708243	0.0130491	0	0	-1.19966	-0.201248	-0.687793	0.73847	0.517354	0.0884911	1.1029	0.687155	0	0	0.672065	0.0619131	0.000298668	1.02921	0.686429	0	0
3.87743	2.4438	-0.103361	2.84533	0.395499	-0.960809	0.242028	-0.386811	-0.226934	0.0195957	0.468249	0.125516	0	0	-0.258637	0.0548875	-0.600311	0.655153	0.0187169	0	0	-1.19658	-0.193636	-0.659299	0.738887	0.518185	0.0886215	1.10321	0.687102	0	0	0.672198	0.0624391	0.000339037	1.02929	0.686373	0	0
3.88741	2.45972	-0.0793708	2.83246	0.409253	-0.961278	0.243541	-0.387038	-0.212535	0.0429374	0.472905	0.140879	0	0	-0.236366	0.0351825	-0.62304	0.600208	0.0231134	0	0	-1.19375	-0.184626	-0.630197	0.739295	0.519005	0.0887489	1.10351	0.687049	0	0	0.672327	0.0629714	0.000381831	1.02938	0.686317	0	0
3.8974	2.47618	-0.055295	2.81978	0.423056	-0.961906	0.245229	-0.3873	-0.198244	0.0662643	0.477991	0.157036	0	0	-0.214544	0.0155438	-0.641953	0.543841	0.0263548	0	0	-1.19141	-0.174347	-0.600892	0.739695	0.519813	0.0888733	1.10381	0.686996	0	0	0.672452	0.06351	0.000427086	1.02946	0.686262	0	0
3.90739	2.49298	-0.0314582	2.8074	0.436932	-0.962648	0.247068	-0.387687	-0.184328	0.0891015	0.483629	0.173913	0	0	-0.193234	-0.00375995	-0.65658	0.486636	0.0286043	0	0	-1.18969	-0.163012	-0.571752	0.740085	0.520611	0.0889947	1.1041	0.686942	0	0	0.672575	0.0640546	0.000474767	1.02954	0.686206	0	0
3.91737	2.50992	-0.00814104	2.79533	0.450893	-0.963452	0.249017	-0.388245	-0.17103	0.111039	0.489971	0.1914	0	0	-0.172511	-0.0225562	-0.666711	0.429306	0.0300404	0	0	-1.18868	-0.150904	-0.543079	0.740465	0.521397	0.0891132	1.1044	0.686888	0	0	0.672696	0.0646051	0.000524829	1.02962	0.686151	0	0
3.92736	2.52679	0.0144065	2.78358	0.464952	-0.964254	0.251033	-0.388985	-0.158577	0.131724	0.497179	0.209355	0	0	-0.152464	-0.0407371	-0.672394	0.372672	0.0308325	0	0	-1.18843	-0.13835	-0.515106	0.740835	0.522172	0.0892289	1.10469	0.686834	0	0	0.672814	0.0651612	0.000577166	1.0297	0.686096	0	0
3.93735	2.54338	0.0359602	2.77209	0.479113	-0.964989	0.253068	-0.389891	-0.147185	0.150889	0.505383	0.227578	0	0	-0.133189	-0.0582246	-0.673888	0.317635	0.031113	0	0	-1.18893	-0.125689	-0.488009	0.741195	0.522936	0.0893415	1.10498	0.68678	0	0	0.67293	0.0657226	0.000631643	1.02978	0.686041	0	0
3.94733	2.55949	0.0563208	2.7608	0.493372	-0.96559	0.255082	-0.390924	-0.137059	0.168354	0.514671	0.245824	0	0	-0.114775	-0.0749495	-0.67165	0.265155	0.030967	0	0	-1.19013	-0.113242	-0.461928	0.741544	0.523687	0.0894513	1.10526	0.686726	0	0	0.673043	0.0662897	0.000688186	1.02986	0.685987	0	0
3.95732	2.57488	0.075324	2.74966	0.507726	-0.965988	0.25704	-0.392034	-0.128384	0.184023	0.525107	0.263818	0	0	-0.0973136	-0.0908568	-0.666318	0.216229	0.0304405	0	0	-1.19195	-0.101299	-0.436973	0.741883	0.524425	0.0895582	1.10554	0.686672	0	0	0.673153	0.066863	0.000746792	1.02993	0.685932	0	0
3.9673	2.58935	0.092863	2.73857	0.522167	-0.96612	0.258906	-0.393165	-0.121302	0.197901	0.536741	0.281259	0	0	-0.0808956	-0.105929	-0.658709	0.171878	0.0295681	0	0	-1.19426	-0.0901002	-0.413234	0.742214	0.525151	0.0896624	1.10582	0.686618	0	0	0.673261	0.067443	0.000807418	1.03001	0.685878	0	0
3.97729	2.6028	0.108883	2.72739	0.536701	-0.965915	0.260648	-0.394269	-0.115914	0.210132	0.549499	0.297849	0	0	-0.0655331	-0.120224	-0.649866	0.133177	0.0284177	0	0	-1.19671	-0.0798407	-0.390796	0.742537	0.525864	0.0897642	1.1061	0.686563	0	0	0.673366	0.0680296	0.000869864	1.03009	0.685824	0	0
3.98728	2.61521	0.123411	2.71593	0.551329	-0.965311	0.262233	-0.395307	-0.112266	0.221019	0.563319	0.313247	0	0	-0.0512389	-0.13385	-0.641021	0.101132	0.0271217	0	0	-1.19899	-0.0706697	-0.36969	0.742852	0.526564	0.0898641	1.10638	0.686509	0	0	0.673468	0.0686227	0.000933888	1.03017	0.68577	0	0
3.99726	2.62654	0.136531	2.704	0.566053	-0.964261	0.263634	-0.396246	-0.110377	0.230971	0.578154	0.327077	0	0	-0.0382122	-0.146822	-0.63332	0.0761903	0.0257019	0	0	-1.20083	-0.0627025	-0.349907	0.743161	0.527254	0.0899622	1.10665	0.686454	0	0	0.673568	0.0692218	0.000999274	1.03026	0.685716	0	0
4.00725	2.63686	0.148314	2.6914	0.580896	-0.962711	0.264821	-0.397066	-0.110259	0.240412	0.593848	0.338961	0	0	-0.0267447	-0.159074	-0.627651	0.0582812	0.0240126	0	0	-1.20177	-0.0560431	-0.331474	0.743462	0.527932	0.0900589	1.10693	0.686399	0	0	0.673666	0.0698266	0.00106584	1.03034	0.685662	0	0
4.01724	2.64657	0.158845	2.67822	0.596275	-0.961779	0.265934	-0.397847	-0.112035	0.249719	0.6105	0.348432	0	0	-0.0173788	-0.170337	-0.624374	0.0471097	0.0216773	0	0	-1.20215	-0.0509263	-0.314291	0.743758	0.528607	0.090155	1.1072	0.686345	0	0	0.673758	0.0704303	0.00113237	1.03042	0.685609	0	0
4.02722	2.65558	0.168109	2.66448	0.612137	-0.961354	0.266953	-0.398581	-0.11574	0.25911	0.628073	0.355056	0	0	-0.0103591	-0.180405	-0.623551	0.0422293	0.0182797	0	0	-1.20194	-0.0474044	-0.298371	0.744049	0.529276	0.0902505	1.10747	0.68629	0	0	0.673847	0.0710329	0.00119888	1.0305	0.685555	0	0
4.03721	2.66374	0.176029	2.65029	0.628425	-0.961328	0.267867	-0.399263	-0.121438	0.268621	0.646598	0.358368	0	0	-0.00579291	-0.189051	-0.625017	0.0432024	0.0133717	0	0	-1.20114	-0.0455437	-0.283786	0.744335	0.529942	0.0903453	1.10774	0.686235	0	0	0.67393	0.0716343	0.00126535	1.03058	0.685502	0	0
4.04719	2.67094	0.182463	2.6358	0.645085	-0.961601	0.268671	-0.399891	-0.129197	0.278111	0.665978	0.357915	0	0	-0.00352712	-0.196073	-0.62864	0.049647	0.00662217	0	0	-1.19952	-0.0454052	-0.270732	0.744616	0.530603	0.0904396	1.10801	0.686181	0	0	0.674009	0.0722347	0.00133179	1.03066	0.685448	0	0
4.05718	2.67713	0.187203	2.62122	0.662059	-0.962093	0.269368	-0.400467	-0.139087	0.287294	0.685974	0.353248	0	0	-0.00316584	-0.201291	-0.634437	0.0612252	-0.00214958	0	0	-1.19658	-0.0470654	-0.259505	0.744892	0.53126	0.0905333	1.10827	0.686126	0	0	0.674084	0.072834	0.00139821	1.03073	0.685395	0	0
4.06717	2.68222	0.190025	2.60678	0.679289	-0.962737	0.269963	-0.400995	-0.151161	0.295759	0.706429	0.3439	0	0	-0.0042453	-0.204533	-0.642411	0.0775784	-0.0130303	0	0	-1.19188	-0.0506269	-0.250414	0.745163	0.531913	0.0906264	1.10853	0.686071	0	0	0.674154	0.0734323	0.00146459	1.03081	0.685341	0	0
4.07715	2.68582	0.19074	2.59299	0.696716	-0.963484	0.270471	-0.401482	-0.165415	0.303013	0.727551	0.32939	0	0	-0.00646543	-0.205551	-0.652249	0.0982103	-0.0260244	0	0	-1.18592	-0.0561325	-0.24355	0.745429	0.532562	0.090719	1.1088	0.686017	0	0	0.674221	0.0740295	0.00153094	1.03088	0.685288	0	0
4.08714	2.68746	0.189275	2.58046	0.714276	-0.964303	0.270909	-0.401939	-0.18168	0.308553	0.749778	0.309344	0	0	-0.0097452	-0.204121	-0.663253	0.122324	-0.0409241	0	0	-1.17946	-0.0635135	-0.239002	0.745691	0.533207	0.090811	1.10905	0.685962	0	0	0.674283	0.0746257	0.00159726	1.03095	0.685234	0	0
4.09713	2.68676	0.185629	2.56977	0.731909	-0.965173	0.2713	-0.40238	-0.199654	0.311992	0.773475	0.283529	0	0	-0.014173	-0.200027	-0.674441	0.14884	-0.057208	0	0	-1.17319	-0.0726178	-0.236928	0.745948	0.533848	0.0909025	1.10931	0.685907	0	0	0.674341	0.0752208	0.00166355	1.03102	0.685181	0	0
4.10711	2.68346	0.179923	2.56138	0.749556	-0.966086	0.271668	-0.40282	-0.218888	0.313159	0.798936	0.251908	0	0	-0.0197597	-0.193267	-0.684937	0.177112	-0.0737967	0	0	-1.16766	-0.0832079	-0.237475	0.7462	0.534485	0.0909934	1.10957	0.685852	0	0	0.674395	0.0758149	0.00172981	1.03109	0.685127	0	0
4.1171	2.67745	0.172417	2.55561	0.767159	-0.967041	0.272041	-0.40328	-0.238786	0.312167	0.826344	0.214698	0	0	-0.0264579	-0.184085	-0.694198	0.206866	-0.0893397	0	0	-1.1633	-0.0949586	-0.240702	0.746448	0.535118	0.0910839	1.10982	0.685797	0	0	0.674446	0.0764081	0.00179603	1.03116	0.685074	0	0
4.12708	2.6687	0.163445	2.55263	0.784669	-0.968048	0.272444	-0.403781	-0.258664	0.30938	0.855739	0.172407	0	0	-0.0344548	-0.172696	-0.701791	0.237392	-0.102752	0	0	-1.16045	-0.10749	-0.246542	0.746692	0.535748	0.0911738	1.11007	0.685743	0	0	0.674492	0.0770003	0.00186223	1.03123	0.685021	0	0
4.13707	2.65732	0.15335	2.55254	0.802041	-0.969117	0.272905	-0.404345	-0.277824	0.305304	0.886991	0.125887	0	0	-0.044193	-0.15918	-0.70729	0.267378	-0.113411	0	0	-1.15933	-0.120379	-0.254842	0.746932	0.536374	0.0912632	1.11032	0.685688	0	0	0.674535	0.0775915	0.00192839	1.03129	0.684967	0	0
4.14706	2.64334	0.142597	2.55538	0.81924	-0.970267	0.273449	-0.404994	-0.295548	0.300429	0.920067	0.0764198	0	0	-0.0562669	-0.14371	-0.710354	0.2955	-0.120916	0	0	-1.16048	-0.1331	-0.265315	0.747167	0.536997	0.0913521	1.11057	0.685633	0	0	0.674574	0.0781817	0.00199452	1.03136	0.684914	0	0
4.15704	2.62694	0.131567	2.56111	0.836238	-0.971514	0.274098	-0.405746	-0.311188	0.295292	0.954626	0.025654	0	0	-0.0710733	-0.126534	-0.710915	0.320751	-0.125055	0	0	-1.16412	-0.145146	-0.2777	0.747399	0.537616	0.0914405	1.11081	0.685578	0	0	0.67461	0.0787711	0.00206062	1.03142	0.684861	0	0
4.16703	2.60842	0.120478	2.56958	0.853018	-0.972877	0.27487	-0.406613	-0.324239	0.290396	0.989994	-0.0245058	0	0	-0.0887324	-0.107949	-0.709204	0.342532	-0.125819	0	0	-1.1701	-0.156115	-0.291779	0.747626	0.538231	0.0915284	1.11106	0.685523	0	0	0.674642	0.0793595	0.00212669	1.03148	0.684808	0	0
4.17702	2.58818	0.109469	2.58053	0.869569	-0.974373	0.275775	-0.407593	-0.334326	0.286115	1.02532	-0.07199	0	0	-0.109181	-0.0883167	-0.705568	0.360571	-0.123411	0	0	-1.17804	-0.165704	-0.307338	0.747849	0.538844	0.0916159	1.1113	0.685469	0	0	0.67467	0.0799469	0.00219273	1.03154	0.684754	0	0
4.187	2.5666	0.0987262	2.59369	0.885889	-0.976011	0.276822	-0.408665	-0.341151	0.282645	1.05979	-0.114688	0	0	-0.132321	-0.0680867	-0.70029	0.374769	-0.118229	0	0	-1.18762	-0.17364	-0.324121	0.748069	0.539453	0.0917029	1.11154	0.685414	0	0	0.674696	0.0805335	0.00225873	1.0316	0.684701	0	0
4.19699	2.54402	0.0885104	2.60878	0.901981	-0.977797	0.278008	-0.409782	-0.344478	0.279985	1.09271	-0.150708	0	0	-0.158049	-0.0477971	-0.693538	0.385147	-0.110792	0	0	-1.19873	-0.179654	-0.341813	0.748285	0.540059	0.0917895	1.11178	0.685359	0	0	0.674718	0.0811192	0.00232471	1.03166	0.684648	0	0
4.20697	2.5208	0.0790778	2.62551	0.917854	-0.979727	0.279328	-0.410859	-0.344201	0.277937	1.12341	-0.178763	0	0	-0.186179	-0.0280085	-0.685426	0.391861	-0.101671	0	0	-1.21123	-0.183514	-0.360086	0.748498	0.540661	0.0918757	1.11202	0.685304	0	0	0.674737	0.0817041	0.00239065	1.03172	0.684595	0	0
4.21696	2.49729	0.0705945	2.6436	0.93352	-0.981787	0.28077	-0.411768	-0.340416	0.276106	1.1512	-0.198458	0	0	-0.2164	-0.009211	-0.676042	0.395192	-0.091443	0	0	-1.22489	-0.185079	-0.378638	0.748706	0.541261	0.0919614	1.11226	0.685249	0	0	0.674752	0.0822881	0.00245656	1.03178	0.684542	0	0
4.22695	2.47397	0.0629885	2.66275	0.948995	-0.983955	0.282316	-0.412322	-0.333516	0.273939	1.17531	-0.210128	0	0	-0.248137	0.00828043	-0.665558	0.395619	-0.0806318	0	0	-1.23915	-0.184377	-0.397272	0.748912	0.541858	0.0920467	1.11249	0.685194	0	0	0.674765	0.0828714	0.00252245	1.03183	0.684488	0	0
4.23693	2.45134	0.0560072	2.68268	0.964295	-0.986196	0.283945	-0.412273	-0.324156	0.270743	1.195	-0.214567	0	0	-0.28065	0.0243384	-0.654155	0.393708	-0.0696926	0	0	-1.25324	-0.181572	-0.415906	0.749114	0.542452	0.0921316	1.11273	0.68514	0	0	0.674775	0.0834538	0.00258831	1.03189	0.684435	0	0
4.24692	2.42996	0.0492674	2.70308	0.979438	-0.988471	0.285632	-0.411305	-0.313184	0.265771	1.20965	-0.21274	0	0	-0.313078	0.0389965	-0.642013	0.39007	-0.0589933	0	0	-1.26627	-0.176929	-0.43457	0.749313	0.543043	0.0922161	1.11296	0.685085	0	0	0.674782	0.0840355	0.00265415	1.03194	0.684382	0	0
4.25691	2.41034	0.0423845	2.72369	0.99444	-0.990729	0.28735	-0.409033	-0.301483	0.258317	1.21887	-0.205694	0	0	-0.344603	0.0523883	-0.629254	0.385221	-0.0488172	0	0	-1.27762	-0.170754	-0.453354	0.749508	0.543631	0.0923002	1.11319	0.68503	0	0	0.674786	0.0846165	0.00271996	1.03199	0.684329	0	0
4.26689	2.39296	0.0350034	2.74427	1.00931	-0.992919	0.28907	-0.405016	-0.289909	0.247794	1.22253	-0.194479	0	0	-0.374449	0.0647092	-0.615959	0.379603	-0.039362	0	0	-1.28679	-0.163374	-0.47239	0.7497	0.544216	0.0923839	1.11342	0.684975	0	0	0.674787	0.0851967	0.00278575	1.03204	0.684276	0	0
4.27688	2.37825	0.0268158	2.76457	1.02408	-0.994985	0.29076	-0.398779	-0.279233	0.233807	1.22063	-0.180114	0	0	-0.401887	0.0761972	-0.602197	0.373594	-0.0307393	0	0	-1.29346	-0.155138	-0.491831	0.74989	0.544799	0.0924673	1.11365	0.68492	0	0	0.674785	0.0857762	0.00285151	1.03209	0.684223	0	0
4.28686	2.36664	0.0175753	2.7843	1.03873	-0.996872	0.29239	-0.389853	-0.270104	0.216192	1.21338	-0.163571	0	0	-0.426274	0.0871142	-0.588039	0.367511	-0.0229787	0	0	-1.29736	-0.146425	-0.511824	0.750076	0.545379	0.0925503	1.11387	0.684865	0	0	0.674781	0.086355	0.00291724	1.03214	0.68417	0	0
4.29685	2.35846	0.00711566	2.80317	1.0533	-0.998526	0.293927	-0.377835	-0.263016	0.195034	1.20102	-0.145746	0	0	-0.447101	0.0977305	-0.573568	0.361605	-0.0160382	0	0	-1.29838	-0.137643	-0.532479	0.750259	0.545957	0.0926329	1.1141	0.68481	0	0	0.674775	0.086933	0.00298295	1.03219	0.684117	0	0
4.30684	2.35389	-0.0046278	2.8209	1.06778	-0.999897	0.295336	-0.36248	-0.258298	0.17065	1.18386	-0.127438	0	0	-0.46409	0.108309	-0.558881	0.356023	-0.00982158	0	0	-1.2965	-0.129221	-0.553842	0.750439	0.546532	0.0927152	1.11433	0.684755	0	0	0.674765	0.0875104	0.00304863	1.03224	0.684064	0	0
4.31682	2.3529	-0.017611	2.83719	1.08218	-1.00094	0.296588	-0.343818	-0.256097	0.143576	1.16215	-0.109337	0	0	-0.477304	0.119105	-0.544074	0.350767	-0.0042058	0	0	-1.29187	-0.121607	-0.575872	0.750617	0.547105	0.0927972	1.11455	0.6847	0	0	0.674754	0.088087	0.00311428	1.03229	0.684011	0	0
4.32681	2.35524	-0.0317365	2.85181	1.09651	-1.00162	0.297651	-0.322187	-0.256409	0.114527	1.13606	-0.092027	0	0	-0.487086	0.130354	-0.529269	0.345779	0.000931627	0	0	-1.28478	-0.115265	-0.598443	0.750792	0.547675	0.0928788	1.11477	0.684645	0	0	0.674739	0.088663	0.00317991	1.03234	0.683958	0	0
4.3368	2.36054	-0.0468944	2.86459	1.11079	-1.0019	0.298499	-0.298091	-0.259117	0.0843065	1.10565	-0.075995	0	0	-0.493928	0.142273	-0.514574	0.340988	0.00571543	0	0	-1.27561	-0.110647	-0.621371	0.750964	0.548243	0.0929601	1.11499	0.684591	0	0	0.674723	0.0892384	0.00324551	1.03238	0.683905	0	0
4.34678	2.36835	-0.0629903	2.87543	1.12503	-1.00175	0.29911	-0.272104	-0.264044	0.0536908	1.07098	-0.0616263	0	0	-0.498382	0.155043	-0.500047	0.336343	0.0103027	0	0	-1.26473	-0.10815	-0.644451	0.751133	0.548808	0.093041	1.11521	0.684536	0	0	0.674704	0.089813	0.00331109	1.03243	0.683852	0	0
4.35677	2.37823	-0.0799704	2.88436	1.13924	-1.00117	0.299471	-0.244791	-0.270996	0.0233588	1.03219	-0.0491946	0	0	-0.50099	0.168815	-0.485645	0.331818	0.0148865	0	0	-1.25245	-0.108074	-0.667498	0.7513	0.549372	0.0931217	1.11543	0.684481	0	0	0.674683	0.0903871	0.00337664	1.03247	0.683799	0	0
4.36675	2.38976	-0.0978342	2.89149	1.15344	-1.00013	0.299572	-0.216655	-0.279792	-0.00613991	0.989445	-0.0388575	0	0	-0.502245	0.183708	-0.4712	0.327415	0.0196866	0	0	-1.23901	-0.110616	-0.69038	0.751464	0.549933	0.0932021	1.11565	0.684426	0	0	0.67466	0.0909605	0.00344216	1.03252	0.683747	0	0
4.37674	2.4026	-0.116625	2.89708	1.16764	-0.998631	0.299415	-0.188114	-0.290277	-0.0343904	0.943029	-0.0306624	0	0	-0.502571	0.199798	-0.456417	0.323162	0.0249437	0	0	-1.22454	-0.115856	-0.713034	0.751626	0.550492	0.0932821	1.11587	0.684371	0	0	0.674635	0.0915333	0.00350766	1.03256	0.683694	0	0
4.38673	2.41645	-0.1364	2.90147	1.18185	-0.996677	0.299006	-0.159495	-0.302315	-0.0611054	0.893306	-0.0245557	0	0	-0.502314	0.217093	-0.440908	0.319127	0.0309163	0	0	-1.20909	-0.123742	-0.735465	0.751786	0.551049	0.0933619	1.11608	0.684316	0	0	0.674607	0.0921054	0.00357313	1.0326	0.683641	0	0
4.39671	2.43106	-0.157198	2.90509	1.19609	-0.994277	0.29836	-0.131033	-0.315772	-0.0860983	0.840731	-0.0203977	0	0	-0.501741	0.235511	-0.424231	0.315412	0.0378628	0	0	-1.19266	-0.134095	-0.757732	0.751943	0.551604	0.0934414	1.1163	0.684261	0	0	0.674578	0.092677	0.00363857	1.03264	0.683588	0	0
4.4067	2.44629	-0.179021	2.90842	1.21037	-0.991451	0.297497	-0.102898	-0.330498	-0.109209	0.785806	-0.0179975	0	0	-0.501049	0.254884	-0.405936	0.312148	0.0460068	0	0	-1.17524	-0.146625	-0.779915	0.752099	0.552157	0.0935206	1.11651	0.684206	0	0	0.674547	0.093248	0.00370399	1.03268	0.683535	0	0
4.41669	2.46198	-0.201803	2.91193	1.22469	-0.988225	0.296442	-0.0752395	-0.346298	-0.130261	0.729048	-0.0171352	0	0	-0.500372	0.27494	-0.385661	0.309522	0.055528	0	0	-1.15695	-0.160941	-0.802094	0.752252	0.552708	0.0935995	1.11672	0.684151	0	0	0.674514	0.0938185	0.00376938	1.03272	0.683482	0	0
4.42667	2.47798	-0.225433	2.91608	1.23907	-0.984631	0.295222	-0.0482409	-0.362963	-0.149001	0.670921	-0.0175798	0	0	-0.499795	0.295373	-0.363161	0.307778	0.066536	0	0	-1.13811	-0.176625	-0.824346	0.752403	0.553258	0.0936782	1.11694	0.684096	0	0	0.674479	0.0943885	0.00383476	1.03276	0.68343	0	0
4.43666	2.49411	-0.249734	2.92119	1.2535	-0.980707	0.293863	-0.022131	-0.380258	-0.165112	0.611862	-0.0190832	0	0	-0.499365	0.31584	-0.338332	0.307237	0.0790324	0	0	-1.1193	-0.193253	-0.846714	0.752552	0.553805	0.0937567	1.11715	0.684041	0	0	0.674443	0.0949579	0.00390012	1.0328	0.683377	0	0
4.44664	2.51023	-0.274454	2.92751	1.26798	-0.9765	0.292397	0.00289965	-0.397937	-0.178306	0.552435	-0.0213583	0	0	-0.499098	0.335956	-0.311245	0.308218	0.0929578	0	0	-1.10104	-0.210409	-0.869182	0.752699	0.554351	0.0938349	1.11736	0.683986	0	0	0.674404	0.0955269	0.00396545	1.03284	0.683324	0	0
4.45663	2.5262	-0.299277	2.93521	1.28253	-0.972062	0.290849	0.026681	-0.415753	-0.188395	0.493329	-0.0240922	0	0	-0.498992	0.355313	-0.282151	0.311026	0.108183	0	0	-1.08378	-0.227686	-0.89167	0.752844	0.554895	0.0939129	1.11757	0.683931	0	0	0.674364	0.0960954	0.00403077	1.03288	0.683271	0	0
4.46662	2.54192	-0.323848	2.94436	1.29714	-0.96745	0.289249	0.0491272	-0.433504	-0.195428	0.43542	-0.0269625	0	0	-0.499033	0.373508	-0.25147	0.315844	0.124565	0	0	-1.06775	-0.244673	-0.914041	0.752987	0.555438	0.0939907	1.11778	0.683876	0	0	0.674323	0.0966634	0.00409607	1.03292	0.683219	0	0
4.4766	2.55739	-0.34781	2.95502	1.31183	-0.962723	0.287622	0.0702221	-0.451039	-0.199767	0.379745	-0.0296826	0	0	-0.499198	0.390163	-0.219756	0.322725	0.14194	0	0	-1.05297	-0.260965	-0.936111	0.753129	0.555979	0.0940682	1.11798	0.683822	0	0	0.67428	0.0972309	0.00416134	1.03295	0.683166	0	0
4.48659	2.57255	-0.370819	2.96712	1.32661	-0.957942	0.285994	0.0899305	-0.468239	-0.202063	0.327387	-0.0320505	0	0	-0.499463	0.404961	-0.187611	0.331712	0.160062	0	0	-1.03945	-0.276209	-0.957691	0.753269	0.556518	0.0941455	1.11819	0.683767	0	0	0.674235	0.097798	0.0042266	1.03299	0.683113	0	0
4.49657	2.58741	-0.392573	2.98057	1.34148	-0.953164	0.28439	0.108295	-0.485034	-0.203222	0.279512	-0.0339664	0	0	-0.499803	0.417652	-0.155675	0.342715	0.178686	0	0	-1.02701	-0.290102	-0.978561	0.753407	0.557056	0.0942226	1.1184	0.683712	0	0	0.674189	0.0983647	0.00429184	1.03303	0.68306	0	0
4.50656	2.60192	-0.412786	2.99515	1.35647	-0.948449	0.282833	0.125333	-0.501322	-0.204279	0.237244	-0.0354258	0	0	-0.500195	0.428047	-0.124567	0.355685	0.197484	0	0	-1.01554	-0.302412	-0.998521	0.753543	0.557592	0.0942995	1.1186	0.683657	0	0	0.674141	0.0989309	0.00435705	1.03306	0.683008	0	0
4.51655	2.61606	-0.431224	3.01065	1.37159	-0.94385	0.281342	0.141112	-0.517001	-0.206216	0.201611	-0.0365528	0	0	-0.500619	0.436019	-0.0948838	0.370464	0.216134	0	0	-1.00475	-0.312951	-1.01735	0.753678	0.558127	0.0943762	1.11881	0.683602	0	0	0.674092	0.0994966	0.00442225	1.0331	0.682955	0	0
4.52653	2.62974	-0.44768	3.02674	1.38685	-0.939417	0.279936	0.155614	-0.531902	-0.209769	0.17335	-0.0376162	0	0	-0.501059	0.44151	-0.0671159	0.386957	0.234222	0	0	-0.994516	-0.321579	-1.03488	0.753811	0.558661	0.0944527	1.11901	0.683547	0	0	0.674042	0.100062	0.00448742	1.03313	0.682902	0	0
4.53652	2.64292	-0.462001	3.04315	1.40228	-0.935199	0.278628	0.168779	-0.545839	-0.215261	0.152843	-0.0390659	0	0	-0.501499	0.444505	-0.0416594	0.405007	0.251326	0	0	-0.984596	-0.328177	-1.05094	0.753943	0.559193	0.0945291	1.11922	0.683492	0	0	0.673991	0.100627	0.00455258	1.03317	0.68285	0	0
4.54651	2.65541	-0.474039	3.05955	1.41787	-0.931236	0.277429	0.180425	-0.55854	-0.222556	0.140052	-0.0414811	0	0	-0.501931	0.445015	-0.0187707	0.424586	0.266925	0	0	-0.974973	-0.332639	-1.06544	0.754073	0.559724	0.0946052	1.11942	0.683437	0	0	0.673938	0.101191	0.00461771	1.0332	0.682797	0	0
4.55649	2.66702	-0.483666	3.07559	1.43363	-0.927569	0.276342	0.190335	-0.569694	-0.231143	0.13461	-0.0454667	0	0	-0.502345	0.443067	0.0013913	0.44573	0.280454	0	0	-0.965735	-0.334883	-1.07831	0.754202	0.560254	0.0946812	1.11962	0.683382	0	0	0.673884	0.101756	0.00468283	1.03323	0.682745	0	0
4.56648	2.67754	-0.49076	3.09101	1.44956	-0.924231	0.275366	0.198352	-0.578971	-0.240368	0.135884	-0.0515352	0	0	-0.502735	0.438653	0.018637	0.468404	0.291364	0	0	-0.956909	-0.334823	-1.08948	0.75433	0.560782	0.094757	1.11982	0.683327	0	0	0.673829	0.102319	0.00474792	1.03327	0.682692	0	0
4.57646	2.6867	-0.495184	3.10546	1.46565	-0.921255	0.274494	0.204298	-0.58597	-0.249517	0.143034	-0.0600275	0	0	-0.503099	0.431747	0.0327856	0.492707	0.299029	0	0	-0.948738	-0.332378	-1.09891	0.754456	0.56131	0.0948326	1.12003	0.683272	0	0	0.673773	0.102883	0.004813	1.0333	0.682639	0	0
4.58645	2.69421	-0.49682	3.11866	1.48188	-0.918668	0.273713	0.208041	-0.5903	-0.257911	0.155072	-0.0711238	0	0	-0.503434	0.422312	0.0436474	0.518712	0.302832	0	0	-0.94148	-0.327502	-1.10656	0.754581	0.561836	0.0949081	1.12023	0.683217	0	0	0.673715	0.103446	0.00487805	1.03333	0.682587	0	0
4.59644	2.69987	-0.495561	3.13037	1.49823	-0.916492	0.273004	0.209544	-0.591618	-0.265048	0.170997	-0.0848397	0	0	-0.503739	0.410274	0.0509971	0.546374	0.302194	0	0	-0.935294	-0.320148	-1.11234	0.754705	0.562361	0.0949834	1.12043	0.683162	0	0	0.673657	0.104008	0.00494308	1.03336	0.682534	0	0
4.60642	2.70351	-0.49132	3.14046	1.51467	-0.914747	0.272343	0.20888	-0.589674	-0.270682	0.189954	-0.100897	0	0	-0.504015	0.395543	0.0546135	0.575556	0.296594	0	0	-0.930257	-0.31027	-1.11615	0.754828	0.562885	0.0950586	1.12063	0.683107	0	0	0.673598	0.104571	0.0050081	1.03339	0.682482	0	0
4.61641	2.70493	-0.484055	3.14876	1.53117	-0.913447	0.271703	0.206087	-0.584282	-0.27469	0.211239	-0.118543	0	0	-0.504264	0.378099	0.0544063	0.606273	0.285538	0	0	-0.926659	-0.297889	-1.11796	0.75495	0.563408	0.0951336	1.12083	0.683052	0	0	0.673538	0.105133	0.0050731	1.03342	0.682429	0	0
4.6264	2.70394	-0.473817	3.1551	1.54768	-0.912601	0.271054	0.201232	-0.575386	-0.277024	0.234345	-0.136503	0	0	-0.50449	0.358028	0.0504125	0.638528	0.268696	0	0	-0.924794	-0.283135	-1.1177	0.75507	0.56393	0.0952085	1.12102	0.682998	0	0	0.673477	0.105694	0.00513809	1.03346	0.682376	0	0
4.63638	2.70053	-0.46076	3.15941	1.56418	-0.912214	0.270365	0.194479	-0.563105	-0.277868	0.25894	-0.153259	0	0	-0.504698	0.335531	0.0427561	0.672124	0.245985	0	0	-0.924735	-0.266259	-1.11529	0.75519	0.564452	0.0952833	1.12122	0.682943	0	0	0.673415	0.106256	0.00520306	1.03349	0.682324	0	0
4.64637	2.69468	-0.445204	3.16159	1.58062	-0.912287	0.269603	0.185833	-0.547698	-0.277499	0.284556	-0.16748	0	0	-0.504897	0.311028	0.031797	0.706961	0.217538	0	0	-0.926713	-0.247701	-1.11073	0.755309	0.564972	0.095358	1.12142	0.682888	0	0	0.673352	0.106817	0.00526802	1.03352	0.682271	0	0
4.65635	2.6864	-0.427643	3.16159	1.59696	-0.912815	0.26874	0.175117	-0.529559	-0.27614	0.310459	-0.178234	0	0	-0.505096	0.285149	0.0181727	0.743	0.183798	0	0	-0.931082	-0.228093	-1.10411	0.755427	0.565491	0.0954325	1.12162	0.682833	0	0	0.673288	0.107378	0.00533297	1.03355	0.682219	0	0
4.66634	2.67577	-0.408652	3.15945	1.61315	-0.913794	0.267749	0.16211	-0.509183	-0.273991	0.33584	-0.184954	0	0	-0.50531	0.25859	0.00267551	0.7801	0.145616	0	0	-0.938079	-0.20815	-1.09551	0.755544	0.56601	0.0955069	1.12182	0.682778	0	0	0.673224	0.107938	0.0053979	1.03358	0.682166	0	0
4.67633	2.66302	-0.388705	3.1553	1.62916	-0.915213	0.266611	0.146633	-0.486999	-0.271231	0.359869	-0.187398	0	0	-0.505552	0.231933	-0.013968	0.817866	0.104298	0	0	-0.947643	-0.188491	-1.08503	0.75566	0.566528	0.0955813	1.12201	0.682723	0	0	0.673159	0.108499	0.00546282	1.03361	0.682114	0	0
4.68631	2.64828	-0.368201	3.14928	1.64497	-0.917061	0.265314	0.128393	-0.463332	-0.267862	0.381682	-0.185612	0	0	-0.505841	0.205652	-0.0311525	0.855998	0.0615402	0	0	-0.959891	-0.169658	-1.07279	0.755775	0.567045	0.0956555	1.12221	0.682668	0	0	0.673093	0.109059	0.00552772	1.03364	0.682061	0	0
4.6963	2.63163	-0.347477	3.14156	1.66053	-0.919324	0.263855	0.107077	-0.438476	-0.263726	0.400498	-0.179918	0	0	-0.506195	0.180138	-0.0484015	0.894231	0.0193803	0	0	-0.975027	-0.152101	-1.05887	0.755889	0.567562	0.0957296	1.12241	0.682613	0	0	0.673027	0.109619	0.00559261	1.03366	0.682009	0	0
4.70629	2.61332	-0.326716	3.13235	1.67583	-0.921985	0.262247	0.0826665	-0.412724	-0.25875	0.415882	-0.170854	0	0	-0.506632	0.155656	-0.0654515	0.931978	-0.0199713	0	0	-0.992827	-0.136073	-1.0433	0.756003	0.568077	0.0958036	1.1226	0.682558	0	0	0.67296	0.110178	0.00565749	1.03369	0.681956	0	0
4.71627	2.59361	-0.306056	3.12184	1.69086	-0.925023	0.260511	0.0552413	-0.386391	-0.252818	0.427571	-0.159158	0	0	-0.507168	0.132425	-0.082207	0.968593	-0.0544616	0	0	-1.01301	-0.121733	-1.02612	0.756116	0.568592	0.0958775	1.1228	0.682503	0	0	0.672892	0.110738	0.00572236	1.03372	0.681904	0	0
4.72626	2.57279	-0.28566	3.11023	1.70561	-0.928413	0.258682	0.0249443	-0.359856	-0.245783	0.435412	-0.145703	0	0	-0.507809	0.110698	-0.0986259	1.00339	-0.0825246	0	0	-1.03526	-0.109197	-1.0074	0.756228	0.569107	0.0959514	1.12299	0.682448	0	0	0.672824	0.111297	0.00578721	1.03375	0.681851	0	0
4.73624	2.55117	-0.265699	3.09773	1.72008	-0.932122	0.256806	-0.00803903	-0.333522	-0.237506	0.439271	-0.13142	0	0	-0.508553	0.0907633	-0.114648	1.03562	-0.103346	0	0	-1.05918	-0.0985036	-0.987257	0.75634	0.569621	0.0960251	1.12319	0.682393	0	0	0.672755	0.111856	0.00585205	1.03378	0.681799	0	0
4.74623	2.52911	-0.246384	3.08453	1.73428	-0.936114	0.254936	-0.0433979	-0.307884	-0.227963	0.439214	-0.117146	0	0	-0.509379	0.0729689	-0.130126	1.06447	-0.116883	0	0	-1.08418	-0.0896346	-0.965892	0.756451	0.570134	0.0960988	1.12338	0.682338	0	0	0.672686	0.112415	0.00591687	1.03381	0.681746	0	0
4.75622	2.5069	-0.228004	3.07086	1.74823	-0.940342	0.253128	-0.0808358	-0.283508	-0.217257	0.435431	-0.103542	0	0	-0.510241	0.0577081	-0.144831	1.08932	-0.123751	0	0	-1.10988	-0.0825641	-0.943604	0.756562	0.570647	0.0961724	1.12358	0.682283	0	0	0.672616	0.112973	0.00598168	1.03383	0.681694	0	0
4.7662	2.48489	-0.210813	3.05697	1.76195	-0.944757	0.251442	-0.119823	-0.260964	-0.205745	0.428488	-0.0910239	0	0	-0.51106	0.0452738	-0.158525	1.10953	-0.124905	0	0	-1.13566	-0.0771712	-0.920787	0.756672	0.571159	0.0962459	1.12377	0.682228	0	0	0.672546	0.113531	0.00604648	1.03386	0.681641	0	0
4.77619	2.46351	-0.194964	3.04318	1.77546	-0.949299	0.24993	-0.159591	-0.240748	-0.194052	0.419329	-0.0797469	0	0	-0.511715	0.0357706	-0.171013	1.12449	-0.121433	0	0	-1.16065	-0.0732076	-0.897896	0.756781	0.57167	0.0963193	1.12396	0.682174	0	0	0.672475	0.11409	0.00611126	1.03389	0.681589	0	0
4.78618	2.44299	-0.180671	3.02975	1.7888	-0.953907	0.248638	-0.199452	-0.223375	-0.182953	0.409009	-0.0695941	0	0	-0.512034	0.029297	-0.182118	1.13398	-0.114582	0	0	-1.18457	-0.0704416	-0.875444	0.75689	0.572182	0.0963927	1.12416	0.682119	0	0	0.672404	0.114648	0.00617604	1.03392	0.681536	0	0
4.79616	2.42367	-0.168057	3.0169	1.80198	-0.958517	0.247601	-0.238458	-0.209257	-0.173283	0.398895	-0.0602549	0	0	-0.511789	0.0257838	-0.191767	1.13781	-0.105438	0	0	-1.20691	-0.0686305	-0.853953	0.756998	0.572692	0.096466	1.12435	0.682064	0	0	0.672333	0.115205	0.00624079	1.03394	0.681484	0	0
4.80615	2.40592	-0.157019	3.00482	1.81505	-0.963061	0.246843	-0.275716	-0.198419	-0.165568	0.390034	-0.0514438	0	0	-0.510689	0.0248481	-0.200141	1.13591	-0.0949171	0	0	-1.22719	-0.0674826	-0.833851	0.757107	0.573202	0.0965393	1.12454	0.682009	0	0	0.672261	0.115763	0.00630554	1.03397	0.681431	0	0
4.81613	2.39022	-0.147181	2.99355	1.82802	-0.967477	0.246375	-0.310264	-0.190513	-0.159911	0.383242	-0.0429203	0	0	-0.508382	0.0257965	-0.207722	1.12825	-0.0835827	0	0	-1.24471	-0.0666864	-0.815332	0.757214	0.573712	0.0966125	1.12474	0.681954	0	0	0.672189	0.11632	0.00637028	1.034	0.681379	0	0
4.82612	2.37707	-0.138066	2.98301	1.84093	-0.971703	0.246199	-0.341284	-0.184985	-0.155915	0.378962	-0.0344799	0	0	-0.504468	0.0278232	-0.215187	1.11496	-0.0717655	0	0	-1.25902	-0.0660198	-0.798302	0.757322	0.574222	0.0966856	1.12493	0.681899	0	0	0.672117	0.116878	0.00643501	1.03403	0.681327	0	0
4.83611	2.3669	-0.129188	2.97301	1.8538	-0.975684	0.246307	-0.368067	-0.181251	-0.152882	0.377448	-0.025893	0	0	-0.498515	0.0301861	-0.22322	1.0963	-0.0596465	0	0	-1.26984	-0.0653401	-0.782479	0.757429	0.574731	0.0967587	1.12512	0.681844	0	0	0.672044	0.117435	0.00649973	1.03405	0.681274	0	0
4.84609	2.36005	-0.119855	2.96352	1.86664	-0.979372	0.246686	-0.390509	-0.178274	-0.150114	0.377903	-0.0174643	0	0	-0.490105	0.0319128	-0.232374	1.0727	-0.0473699	0	0	-1.27726	-0.0641406	-0.767392	0.757535	0.57524	0.0968318	1.12531	0.681789	0	0	0.671972	0.117992	0.00656445	1.03408	0.681222	0	0
4.85608	2.35673	-0.109538	2.95456	1.87947	-0.982728	0.247318	-0.408664	-0.175176	-0.146928	0.379531	-0.00942594	0	0	-0.478884	0.0322385	-0.242965	1.04465	-0.0349663	0	0	-1.28151	-0.0619545	-0.752559	0.757642	0.575749	0.0969048	1.12551	0.681734	0	0	0.671898	0.118549	0.00662916	1.03411	0.681169	0	0
4.86607	2.35701	-0.0979084	2.94611	1.89231	-0.98572	0.248184	-0.422742	-0.17132	-0.142727	0.381652	-0.00186952	0	0	-0.464647	0.0306645	-0.255105	1.01268	-0.0223828	0	0	-1.28279	-0.0584553	-0.737581	0.757748	0.576257	0.0969778	1.1257	0.681679	0	0	0.671825	0.119106	0.00669386	1.03413	0.681117	0	0
4.87605	2.36076	-0.084769	2.93805	1.90515	-0.988324	0.249259	-0.433195	-0.166273	-0.13698	0.383646	0.00522033	0	0	-0.447452	0.0269564	-0.268703	0.977255	-0.00957388	0	0	-1.28143	-0.0534453	-0.722161	0.757854	0.576766	0.0970508	1.12589	0.681624	0	0	0.671752	0.119663	0.00675856	1.03416	0.681064	0	0
4.88604	2.3677	-0.069992	2.93016	1.91801	-0.990524	0.250521	-0.440603	-0.159771	-0.129185	0.385062	0.011915	0	0	-0.427635	0.0210605	-0.283574	0.938706	0.00348306	0	0	-1.27785	-0.0468586	-0.706057	0.75796	0.577274	0.0971237	1.12608	0.681569	0	0	0.671678	0.12022	0.00682325	1.03419	0.681012	0	0
4.89602	2.37744	-0.0534946	2.9221	1.9309	-0.99231	0.251946	-0.445577	-0.151701	-0.118852	0.385642	0.0183146	0	0	-0.40573	0.0130416	-0.299528	0.89723	0.0167443	0	0	-1.27249	-0.0387583	-0.68906	0.758065	0.577781	0.0971966	1.12628	0.681514	0	0	0.671604	0.120776	0.00688793	1.03421	0.680959	0	0
4.90601	2.38957	-0.0352327	2.91348	1.94381	-0.993678	0.253508	-0.448704	-0.142071	-0.105525	0.385289	0.0245414	0	0	-0.382356	0.0030177	-0.316419	0.852978	0.0300407	0	0	-1.26581	-0.0293127	-0.670966	0.758171	0.578289	0.0972695	1.12647	0.68146	0	0	0.67153	0.121333	0.00695261	1.03424	0.680907	0	0
4.916	2.40371	-0.0152044	2.90392	1.95677	-0.994629	0.255188	-0.450505	-0.130961	-0.0888517	0.384024	0.0307412	0	0	-0.358104	-0.00890844	-0.334132	0.806153	0.0430276	0	0	-1.25824	-0.018732	-0.651565	0.758276	0.578796	0.0973423	1.12666	0.681405	0	0	0.671456	0.121889	0.00701728	1.03426	0.680854	0	0
4.92598	2.41949	0.00652784	2.89315	1.96976	-0.995169	0.256966	-0.451418	-0.118501	-0.0686727	0.38196	0.0370855	0	0	-0.333465	-0.0226837	-0.352578	0.757077	0.0551477	0	0	-1.25014	-0.00722978	-0.630652	0.758381	0.579303	0.0974152	1.12685	0.68135	0	0	0.671381	0.122446	0.00708194	1.03429	0.680802	0	0
4.93597	2.43661	0.0298182	2.88103	1.9828	-0.995307	0.258827	-0.451796	-0.104861	-0.0450929	0.379303	0.0437782	0	0	-0.308813	-0.038325	-0.371702	0.706209	0.0655585	0	0	-1.24178	0.00501249	-0.608088	0.758485	0.57981	0.0974879	1.12704	0.681295	0	0	0.671307	0.123002	0.0071466	1.03432	0.68075	0	0
4.94596	2.45478	0.054453	2.86761	1.99587	-0.995057	0.260761	-0.451905	-0.0902295	-0.0185195	0.376368	0.0510508	0	0	-0.284444	-0.0559427	-0.391498	0.654104	0.0730305	0	0	-1.23343	0.0178695	-0.583826	0.75859	0.580317	0.0975607	1.12723	0.68124	0	0	0.671232	0.123558	0.00721125	1.03434	0.680697	0	0
4.95594	2.47368	0.0801786	2.85312	2.00899	-0.994437	0.262762	-0.451937	-0.0747791	0.0103822	0.373574	0.0591295	0	0	-0.260625	-0.0757711	-0.412083	0.601345	0.0758575	0	0	-1.22534	0.0312814	-0.557913	0.758694	0.580824	0.0976335	1.12742	0.681185	0	0	0.671157	0.124114	0.0072759	1.03437	0.680645	0	0
4.96593	2.49295	0.106616	2.83787	2.02215	-0.99347	0.264826	-0.452022	-0.0588236	0.0406628	0.371473	0.0682042	0	0	-0.23755	-0.0976648	-0.433118	0.54851	0.0730619	0	0	-1.21788	0.0451374	-0.530531	0.758799	0.58133	0.0977062	1.12762	0.68113	0	0	0.671083	0.124671	0.00734053	1.0344	0.680592	0	0
4.97591	2.51231	0.133327	2.82219	2.03533	-0.992183	0.266956	-0.452238	-0.0427359	0.071333	0.37047	0.0783781	0	0	-0.215153	-0.121173	-0.453732	0.496364	0.0651836	0	0	-1.21122	0.0593222	-0.502026	0.758903	0.581837	0.0977789	1.12781	0.681075	0	0	0.671008	0.125227	0.00740516	1.03442	0.68054	0	0
4.9859	2.53153	0.159828	2.80637	2.04854	-0.990609	0.269154	-0.452624	-0.0269642	0.101405	0.370826	0.0896965	0	0	-0.193137	-0.145557	-0.472503	0.445897	0.0548355	0	0	-1.20537	0.073688	-0.472882	0.759008	0.582343	0.0978516	1.128	0.68102	0	0	0.670933	0.125783	0.00746979	1.03445	0.680487	0	0
4.99589	2.55046	0.185758	2.79073	2.06176	-0.988784	0.271422	-0.453191	-0.0118074	0.13009	0.37267	0.102145	0	0	-0.171216	-0.170281	-0.488286	0.398036	0.0443257	0	0	-1.20018	0.0881962	-0.443596	0.759112	0.58285	0.0979243	1.12819	0.680965	0	0	0.670858	0.126338	0.00753441	1.03447	0.680435	0	0
5.00587	2.56899	0.21085	2.77547	2.07499	-0.98675	0.273763	-0.453934	0.0024814	0.156868	0.376028	0.115637	0	0	-0.149127	-0.194959	-0.500217	0.353662	0.0355022	0	0	-1.19542	0.102783	-0.414623	0.759216	0.583356	0.097997	1.12838	0.68091	0	0	0.670783	0.126894	0.00759902	1.0345	0.680383	0	0
5.01586	2.5871	0.234958	2.76064	2.08822	-0.98455	0.276177	-0.454833	0.0157092	0.181477	0.380852	0.130055	0	0	-0.126603	-0.219389	-0.507754	0.313694	0.0298975	0	0	-1.19077	0.117371	-0.386286	0.75932	0.583862	0.0980697	1.12857	0.680855	0	0	0.670708	0.12745	0.00766363	1.03452	0.68033	0	0
5.02585	2.60453	0.257803	2.74625	2.10143	-0.982226	0.27866	-0.455864	0.0274773	0.203752	0.387278	0.145153	0	0	-0.103672	-0.243199	-0.510883	0.278775	0.0287103	0	0	-1.18639	0.131562	-0.358738	0.759424	0.584368	0.0981424	1.12876	0.6808	0	0	0.670633	0.128006	0.00772824	1.03455	0.680278	0	0
5.03583	2.62099	0.279063	2.73218	2.1146	-0.979822	0.281208	-0.457002	0.037289	0.223575	0.395481	0.160697	0	0	-0.0808539	-0.265784	-0.510112	0.248645	0.0326811	0	0	-1.1825	0.144786	-0.332073	0.759528	0.584874	0.098215	1.12895	0.680745	0	0	0.670558	0.128562	0.00779285	1.03458	0.680225	0	0
5.04582	2.63612	0.298302	2.71823	2.12775	-0.977375	0.283813	-0.458221	0.0444832	0.240774	0.405611	0.176452	0	0	-0.0593977	-0.286088	-0.506239	0.221488	0.0418124	0	0	-1.17929	0.156243	-0.306355	0.759633	0.58538	0.0982877	1.12915	0.680691	0	0	0.670484	0.129118	0.00785746	1.0346	0.680173	0	0
5.0558	2.64964	0.315232	2.7042	2.14085	-0.974915	0.286463	-0.459498	0.0485837	0.255266	0.417795	0.192245	0	0	-0.0403718	-0.303299	-0.500067	0.19566	0.0561822	0	0	-1.17695	0.16531	-0.281653	0.759737	0.585887	0.0983604	1.12934	0.680636	0	0	0.670409	0.129674	0.00792208	1.03463	0.68012	0	0
5.06579	2.66146	0.329836	2.68991	2.15391	-0.972462	0.289148	-0.460815	0.0494399	0.267151	0.431969	0.208014	0	0	-0.0242045	-0.317168	-0.492236	0.170346	0.0761003	0	0	-1.17545	0.171727	-0.258116	0.759841	0.586393	0.0984331	1.12953	0.680581	0	0	0.670334	0.130229	0.00798669	1.03465	0.680068	0	0
5.07578	2.67167	0.342396	2.67519	2.16693	-0.970029	0.291857	-0.462157	0.047297	0.276872	0.447995	0.22371	0	0	-0.010605	-0.328044	-0.483093	0.145725	0.10203	0	0	-1.17479	0.17559	-0.235697	0.759945	0.586899	0.0985057	1.12972	0.680526	0	0	0.670259	0.130785	0.0080513	1.03468	0.680015	0	0
5.08576	2.68054	0.353301	2.66001	2.17992	-0.967616	0.294581	-0.463513	0.0426415	0.284951	0.465507	0.239302	0	0	0.000495327	-0.336302	-0.472781	0.120937	0.133163	0	0	-1.17485	0.177201	-0.21421	0.760049	0.587405	0.0985784	1.12991	0.680471	0	0	0.670184	0.131341	0.00811591	1.03471	0.679963	0	0
5.09575	2.68847	0.363098	2.64443	2.19289	-0.965218	0.297313	-0.464876	0.0362471	0.291958	0.484028	0.254818	0	0	0.00974048	-0.342708	-0.461476	0.0957539	0.168106	0	0	-1.17543	0.177203	-0.193345	0.760153	0.587911	0.0986511	1.1301	0.680416	0	0	0.670109	0.131897	0.00818052	1.03473	0.67991	0	0
5.10574	2.696	0.37247	2.62872	2.20586	-0.962827	0.300047	-0.46624	0.0291633	0.298526	0.502995	0.270316	0	0	0.0182654	-0.348392	-0.449646	0.0705225	0.204565	0	0	-1.17623	0.176571	-0.172735	0.760257	0.588417	0.0987238	1.13029	0.680361	0	0	0.670034	0.132453	0.00824514	1.03476	0.679858	0	0
