nColumns=19
nRows=463
DataType=double
version=3
OpenSimVersion=4.1
endheader
time	ground_force_calcn_l_vx	ground_force_calcn_l_vy	ground_force_calcn_l_vz	ground_force_calcn_l_px	ground_force_calcn_l_py	ground_force_calcn_l_pz	ground_force_calcn_l_mx	ground_force_calcn_l_my	ground_force_calcn_l_mz	ground_force_calcn_r_vx	ground_force_calcn_r_vy	ground_force_calcn_r_vz	ground_force_calcn_r_px	ground_force_calcn_r_py	ground_force_calcn_r_pz	ground_force_calcn_r_mx	ground_force_calcn_r_my	ground_force_calcn_r_mz
0	0	0	0	0	0.00180486	0	0	0	0	0	0	0	0	0.202573	0	0	0	0
0.00399136	0.397453	-4.66182	0.462241	0.370629	-0.00541517	0.262524	-0.0317808	0.372764	-0.0369613	0	0	0	0	-0.00541517	0	0	0	0
0.00798272	0.393585	-4.65121	0.4592	0.370751	-0.00541517	0.262432	-0.0311516	0.368136	-0.036345	0	0	0	0	-0.00541517	0	0	0	0
0.0119741	0.389759	-4.64064	0.456144	0.370873	-0.00541517	0.262342	-0.0305317	0.363524	-0.035732	0	0	0	0	-0.00541517	0	0	0	0
0.0159654	0.385945	-4.62992	0.453038	0.370994	-0.00541518	0.262254	-0.0299218	0.358951	-0.0351235	0	0	0	0	-0.00541518	0	0	0	0
0.0199568	0.382098	-4.6186	0.449854	0.371114	-0.00541518	0.262169	-0.0293225	0.354435	-0.0345222	0	0	0	0	-0.00541518	0	0	0	0
0.0239482	0.378185	-4.60641	0.446552	0.371231	-0.00541518	0.262087	-0.028733	0.349977	-0.0339273	0	0	0	0	-0.00541518	0	0	0	0
0.0279395	0.374227	-4.59305	0.443119	0.371344	-0.00541518	0.262009	-0.0281589	0.345606	-0.0333427	0	0	0	0	-0.00541518	0	0	0	0
0.0319309	0.370247	-4.57771	0.439511	0.371451	-0.00541519	0.26194	-0.027609	0.341356	-0.032774	0	0	0	0	-0.00541519	0	0	0	0
0.0359222	0.366259	-4.56001	0.435657	0.371552	-0.00541519	0.261879	-0.0270874	0.337245	-0.0322199	0	0	0	0	-0.00541519	0	0	0	0
0.0399136	0.362271	-4.53993	0.431486	0.371647	-0.0054152	0.261827	-0.0265926	0.333255	-0.0316733	0	0	0	0	-0.0054152	0	0	0	0
0.043905	0.358295	-4.51737	0.426928	0.371739	-0.0054152	0.261785	-0.0261252	0.329385	-0.0311295	0	0	0	0	-0.0054152	0	0	0	0
0.0478963	0.354336	-4.49216	0.421935	0.371828	-0.0054152	0.261751	-0.0256841	0.325615	-0.0305841	0	0	0	0	-0.0054152	0	0	0	0
0.0518877	0.350394	-4.46424	0.416436	0.371914	-0.00541521	0.261727	-0.0252674	0.321922	-0.0300297	0	0	0	0	-0.00541521	0	0	0	0
0.055879	0.346478	-4.43391	0.410402	0.372002	-0.00541521	0.26171	-0.0248711	0.318277	-0.0294596	0	0	0	0	-0.00541521	0	0	0	0
0.0598704	0.342603	-4.40101	0.40379	0.37209	-0.00541521	0.261701	-0.0244954	0.314662	-0.02887	0	0	0	0	-0.00541521	0	0	0	0
0.0638618	0.338803	-4.36545	0.396556	0.37218	-0.00541522	0.261701	-0.0241439	0.311092	-0.0282595	0	0	0	0	-0.00541522	0	0	0	0
0.0678531	0.335122	-4.32703	0.388666	0.372272	-0.00541522	0.261711	-0.0238225	0.307591	-0.0276287	0	0	0	0	-0.00541522	0	0	0	0
0.0718445	0.331581	-4.2856	0.380105	0.372364	-0.00541523	0.261732	-0.0235362	0.304199	-0.0269805	0	0	0	0	-0.00541523	0	0	0	0
0.0758359	0.328222	-4.24134	0.370883	0.372457	-0.00541523	0.261765	-0.0232875	0.300925	-0.0263144	0	0	0	0	-0.00541523	0	0	0	0
0.0798272	0.325091	-4.19473	0.361015	0.372552	-0.00541523	0.261809	-0.0230776	0.297776	-0.0256278	0	0	0	0	-0.00541523	0	0	0	0
0.0838186	0.322243	-4.14621	0.350494	0.372651	-0.00541524	0.261864	-0.02291	0.294776	-0.0249184	0	0	0	0	-0.00541524	0	0	0	0
0.0878099	0.319772	-4.09606	0.339352	0.372754	-0.00541524	0.261933	-0.0227947	0.291985	-0.0241905	0	0	0	0	-0.00541524	0	0	0	0
0.0918013	0.317771	-4.04486	0.327675	0.372859	-0.00541525	0.262015	-0.0227393	0.289445	-0.023448	0	0	0	0	-0.00541525	0	0	0	0
0.0957927	0.316339	-3.99363	0.315583	0.372969	-0.00541525	0.26211	-0.0227487	0.287192	-0.0226944	0	0	0	0	-0.00541525	0	0	0	0
0.099784	0.315558	-3.94352	0.303214	0.373084	-0.00541525	0.262216	-0.022824	0.285231	-0.0219312	0	0	0	0	-0.00541525	0	0	0	0
0.103775	0.315479	-3.89547	0.290729	0.373205	-0.00541525	0.262332	-0.0229664	0.283584	-0.0211646	0	0	0	0	-0.00541525	0	0	0	0
0.107767	0.31616	-3.8505	0.278302	0.37333	-0.00541525	0.262454	-0.0231747	0.282243	-0.0203996	0	0	0	0	-0.00541525	0	0	0	0
0.111758	0.317672	-3.80941	0.266154	0.373459	-0.00541525	0.262581	-0.0234537	0.281249	-0.0196502	0	0	0	0	-0.00541525	0	0	0	0
0.115749	0.320056	-3.77336	0.254521	0.373588	-0.00541525	0.262707	-0.0238003	0.280597	-0.0189269	0	0	0	0	-0.00541525	0	0	0	0
0.119741	0.323362	-3.74372	0.243678	0.373716	-0.00541525	0.262827	-0.0242114	0.280307	-0.0182451	0	0	0	0	-0.00541525	0	0	0	0
0.123732	0.327594	-3.72207	0.23397	0.373839	-0.00541524	0.262933	-0.0246766	0.280372	-0.0176242	0	0	0	0	-0.00541524	0	0	0	0
0.127724	0.33275	-3.71013	0.225779	0.373952	-0.00541523	0.263014	-0.0251836	0.280795	-0.0170877	0	0	0	0	-0.00541523	0	0	0	0
0.131715	0.338807	-3.70938	0.219551	0.374048	-0.00541522	0.26306	-0.0257198	0.281589	-0.0166668	0	0	0	0	-0.00541522	0	0	0	0
0.135706	0.345775	-3.72175	0.215756	0.374121	-0.00541521	0.263058	-0.0262708	0.282766	-0.0163924	0	0	0	0	-0.00541521	0	0	0	0
0.139698	0.353671	-3.74926	0.214927	0.374162	-0.0054152	0.262999	-0.0268266	0.284388	-0.0163026	0	0	0	0	-0.0054152	0	0	0	0
0.143689	0.362543	-3.79415	0.217619	0.374165	-0.00541518	0.262872	-0.0273789	0.28653	-0.0164343	0	0	0	0	-0.00541518	0	0	0	0
0.14768	0.372446	-3.8592	0.224441	0.374126	-0.00541516	0.262667	-0.0279157	0.289256	-0.0168223	0	0	0	0	-0.00541516	0	0	0	0
0.151672	0.383383	-3.94747	0.23608	0.374042	-0.00541513	0.262373	-0.0284186	0.29261	-0.0174996	0	0	0	0	-0.00541513	0	0	0	0
0.155663	0.39539	-4.06222	0.253266	0.373916	-0.0054151	0.261984	-0.0288747	0.296657	-0.0184956	0	0	0	0	-0.0054151	0	0	0	0
0.159654	0.408492	-4.20654	0.276783	0.37375	-0.00541507	0.261497	-0.0292729	0.301444	-0.0198345	0	0	0	0	-0.00541507	0	0	0	0
0.163646	0.422685	-4.38353	0.307449	0.373553	-0.00541503	0.260914	-0.0296068	0.307042	-0.0215351	0	0	0	0	-0.00541503	0	0	0	0
0.167637	0.43796	-4.59662	0.346154	0.373333	-0.00541498	0.26024	-0.029869	0.313491	-0.0236078	0	0	0	0	-0.00541498	0	0	0	0
0.171629	0.454283	-4.84978	0.393825	0.373103	-0.00541494	0.259482	-0.0300513	0.320817	-0.0260519	0	0	0	0	-0.00541494	0	0	0	0
0.17562	0.471598	-5.14711	0.451457	0.372876	-0.00541488	0.25865	-0.0301451	0.32901	-0.0288577	0	0	0	0	-0.00541488	0	0	0	0
0.179611	0.489782	-5.49259	0.520059	0.372665	-0.00541482	0.257755	-0.0301442	0.338047	-0.0320076	0	0	0	0	-0.00541482	0	0	0	0
0.183603	0.508691	-5.88961	0.600657	0.37248	-0.00541476	0.256813	-0.0300483	0.347899	-0.0354808	0	0	0	0	-0.00541476	0	0	0	0
0.187594	0.528149	-6.34123	0.694263	0.372326	-0.00541469	0.255838	-0.0298611	0.358529	-0.0392531	0	0	0	0	-0.00541469	0	0	0	0
0.191585	0.547917	-6.85005	0.801822	0.372206	-0.00541461	0.254847	-0.0295867	0.369893	-0.0432973	0	0	0	0	-0.00541461	0	0	0	0
0.195577	0.567717	-7.41791	0.924146	0.372122	-0.00541453	0.253855	-0.0292343	0.381981	-0.0475884	0	0	0	0	-0.00541453	0	0	0	0
0.199568	0.587226	-8.04522	1.06182	0.372068	-0.00541445	0.252876	-0.0288191	0.394832	-0.0521104	0	0	0	0	-0.00541445	0	0	0	0
0.203559	0.606097	-8.73106	1.21504	0.37204	-0.00541436	0.251924	-0.0283547	0.40846	-0.0568426	0	0	0	0	-0.00541436	0	0	0	0
0.207551	0.62395	-9.47309	1.38357	0.372033	-0.00541427	0.251013	-0.0278529	0.422875	-0.0617621	0	0	0	0	-0.00541427	0	0	0	0
0.211542	0.64037	-10.2675	1.56671	0.37204	-0.00541417	0.250155	-0.0273241	0.438107	-0.0668504	0	0	0	0	-0.00541417	0	0	0	0
0.215533	0.654891	-11.1086	1.76337	0.372055	-0.00541408	0.249365	-0.0267787	0.454233	-0.072105	0	0	0	0	-0.00541408	0	0	0	0
0.219525	0.667015	-11.9888	1.97209	0.372071	-0.00541399	0.248655	-0.0262232	0.471331	-0.0775316	0	0	0	0	-0.00541399	0	0	0	0
0.223516	0.676173	-12.8986	2.19099	0.37208	-0.00541389	0.248041	-0.0256581	0.489452	-0.0831394	0	0	0	0	-0.00541389	0	0	0	0
0.227508	0.681735	-13.8264	2.41774	0.372078	-0.00541381	0.24754	-0.02508	0.508652	-0.088945	0	0	0	0	-0.00541381	0	0	0	0
0.231499	0.683009	-14.7584	2.64952	0.372059	-0.00541373	0.24717	-0.02448	0.528962	-0.0949625	0	0	0	0	-0.00541373	0	0	0	0
0.23549	0.679186	-15.6788	2.88294	0.372021	-0.00541366	0.246951	-0.0238395	0.550326	-0.101191	0	0	0	0	-0.00541366	0	0	0	0
0.239482	0.669347	-16.5694	3.11406	0.371959	-0.00541361	0.246907	-0.0231341	0.572675	-0.107629	0	0	0	0	-0.00541361	0	0	0	0
0.243473	0.652478	-17.4091	3.33833	0.371872	-0.00541357	0.247063	-0.0223333	0.595887	-0.114266	0	0	0	0	-0.00541357	0	0	0	0
0.247464	0.62745	-18.1743	3.55048	0.371756	-0.00541355	0.247446	-0.021397	0.61977	-0.121077	0	0	0	0	-0.00541355	0	0	0	0
0.251456	0.593069	-18.8378	3.74451	0.371607	-0.00541355	0.248086	-0.0202783	0.644104	-0.128033	0	0	0	0	-0.00541355	0	0	0	0
0.255447	0.548099	-19.3691	3.9136	0.37142	-0.00541359	0.249015	-0.0189197	0.668597	-0.135092	0	0	0	0	-0.00541359	0	0	0	0
0.259438	0.491201	-19.734	4.05011	0.371188	-0.00541366	0.250265	-0.0172464	0.692874	-0.142202	0	0	0	0	-0.00541366	0	0	0	0
0.26343	0.420961	-19.8942	4.14547	0.370899	-0.00541377	0.251869	-0.0151604	0.716465	-0.149294	0	0	0	0	-0.00541377	0	0	0	0
0.267421	0.335875	-19.8084	4.19022	0.370537	-0.00541392	0.253857	-0.0125271	0.738792	-0.156282	0	0	0	0	-0.00541392	0	0	0	0
0.271413	0.234432	-19.4314	4.17389	0.370075	-0.00541413	0.256258	-0.00915928	0.759187	-0.163074	0	0	0	0	-0.00541413	0	0	0	0
0.275404	0.115169	-18.7138	4.08509	0.369471	-0.0054144	0.259087	-0.00478107	0.776874	-0.169586	0	0	0	0	-0.0054144	0	0	0	0
0.279395	-0.0233166	-17.6027	3.9114	0.368647	-0.00541473	0.26234	0.00104771	0.790959	-0.175755	0	0	0	0	-0.00541473	0	0	0	0
0.283387	-0.182314	-16.0417	3.63951	0.367456	-0.00541514	0.265959	0.00909663	0.800411	-0.181595	0	0	0	0	-0.00541514	0	0	0	0
0.287378	-0.363026	-13.9709	3.25518	0.365586	-0.00541563	0.269748	0.0208876	0.803851	-0.187295	0	0	0	0	-0.00541563	0	0	0	0
0.291369	-0.566534	-11.3275	2.74335	0.362252	-0.0054162	0.273039	0.0399613	0.799002	-0.193506	0	0	0	0	-0.0054162	0	0	0	0
0.295361	-0.793759	-8.0464	2.0882	0.354819	-0.00541687	0.272914	0.0769319	0.779865	-0.202391	0	0	0	0	-0.00541687	0	0	0	0
0.299352	-1.04538	-4.06071	1.27339	0.327259	-0.00541764	0.243877	0.181934	0.706713	-0.221617	0	0	0	0	-0.00541764	0	0	0	0
0.303343	0	0	0	0	0.0409176	0	0	0	0	0	0	0	0	0.0180907	0	0	0	0
0.307335	0	0	0	0	-0.00541951	0	0	0	0	-1.62289	6.29512	-0.902611	0.392489	-0.00541951	0.277773	-0.179362	0.695736	-0.0997566
0.311326	0	0	0	0	-0.00542062	0	0	0	0	-1.94836	12.7988	-2.2978	0.387393	-0.00542062	0.3069	-0.101441	0.666372	-0.119635
0.315317	0	0	0	0	-0.00542185	0	0	0	0	-2.29725	20.2716	-3.9201	0.38454	-0.00542185	0.320956	-0.068517	0.604615	-0.11692
0.319309	0	0	0	0	-0.00542321	0	0	0	0	-2.66808	28.7717	-5.78545	0.383014	-0.00542321	0.332902	-0.0485835	0.523908	-0.105348
0.3233	0	0	0	0	-0.00542469	0	0	0	0	-3.05871	38.3511	-7.9087	0.382187	-0.00542469	0.344619	-0.0338604	0.424553	-0.0875505
0.327292	0	0	0	0	-0.0054263	0	0	0	0	-3.46621	49.0535	-10.3031	0.381778	-0.0054263	0.35655	-0.0215722	0.305288	-0.0641221
0.331283	0	0	0	0	-0.00542803	0	0	0	0	-3.88681	60.9111	-12.9799	0.38165	-0.00542803	0.368784	-0.0104979	0.164515	-0.0350574
0.335274	0	0	0	0	-0.00542987	0	0	0	0	-4.31575	73.9422	-15.9473	0.381729	-0.00542987	0.381282	-3.34117e-05	0.000572447	-0.000123461
0.339266	0	0	0	0	-0.00543181	0	0	0	0	-4.74719	88.1485	-19.2106	0.38197	-0.00543181	0.393934	0.0101344	-0.188182	0.0410112
0.343257	0	0	0	0	-0.00543385	0	0	0	0	-5.17413	103.512	-22.7705	0.382347	-0.00543385	0.406579	0.0201592	-0.403299	0.0887171
0.347248	0	0	0	0	-0.00543596	0	0	0	0	-5.58859	119.992	-26.6231	0.38284	-0.00543596	0.418967	0.0301019	-0.646313	0.1434
0.35124	0	0	0	0	-0.00543812	0	0	0	0	-5.98255	137.523	-30.759	0.383436	-0.00543812	0.430921	0.0399361	-0.918028	0.20533
0.355231	0	0	0	0	-0.0054403	0	0	0	0	-6.34805	156.022	-35.1623	0.384126	-0.0054403	0.442307	0.0495827	-1.21864	0.274642
0.359222	0	0	0	0	-0.00544248	0	0	0	0	-6.67643	175.385	-39.8103	0.3849	-0.00544248	0.45303	0.0589244	-1.5479	0.351355
0.363214	0	0	0	0	-0.00544461	0	0	0	0	-6.95728	195.487	-44.6727	0.385746	-0.00544461	0.463022	0.0678085	-1.9053	0.435399
0.367205	0	0	0	0	-0.00544667	0	0	0	0	-7.17755	216.187	-49.7118	0.386652	-0.00544667	0.472244	0.0760383	-2.29027	0.526642
0.371197	0	0	0	0	-0.00544865	0	0	0	0	-7.32127	237.328	-54.8816	0.3876	-0.00544865	0.480677	0.0833619	-2.70228	0.624896
0.375188	0	0	0	0	-0.00545052	0	0	0	0	-7.37089	258.743	-60.1285	0.388575	-0.00545052	0.488322	0.0894668	-3.14059	0.729831
0.379179	0	0	0	0	-0.00545227	0	0	0	0	-7.30874	280.263	-65.3931	0.389559	-0.00545227	0.495194	0.093985	-3.60398	0.840907
0.383171	0	0	0	0	-0.0054539	0	0	0	0	-7.11797	301.725	-70.6121	0.390538	-0.0054539	0.501318	0.0965042	-4.09073	0.957346
0.387162	0	0	0	0	-0.00545539	0	0	0	0	-6.78414	322.986	-75.7236	0.391495	-0.00545539	0.506727	0.0965912	-4.59862	1.07814
0.391153	0	0	0	0	-0.00545677	0	0	0	0	-6.29654	343.934	-80.6719	0.392421	-0.00545677	0.511459	0.0938221	-5.12482	1.20206
0.395145	0	0	0	0	-0.00545802	0	0	0	0	-5.64965	364.48	-85.4086	0.393304	-0.00545802	0.515553	0.0878233	-5.66581	1.32767
0.399136	0	0	0	0	-0.00545916	0	0	0	0	-4.84401	384.553	-89.8921	0.394138	-0.00545916	0.519054	0.0783149	-6.21721	1.45332
0.403127	0	0	0	0	-0.00546019	0	0	0	0	-3.88593	404.092	-94.0853	0.394916	-0.00546019	0.522009	0.0651395	-6.77376	1.57714
0.407119	0	0	0	0	-0.00546111	0	0	0	0	-2.78626	423.043	-97.9551	0.395636	-0.00546111	0.524465	0.048275	-7.32968	1.69718
0.41111	0	0	0	0	-0.00546194	0	0	0	0	-1.55854	441.35	-101.473	0.396295	-0.00546194	0.526472	0.0278233	-7.87905	1.81151
0.415102	0	0	0	0	-0.00546268	0	0	0	0	-0.217482	458.96	-104.615	0.39689	-0.00546268	0.528078	0.00398808	-8.41619	1.91838
0.419093	0	0	0	0	-0.00546334	0	0	0	0	1.22195	475.818	-107.365	0.39742	-0.00546334	0.529331	-0.022948	-8.93582	2.0163
0.423084	0	0	0	0	-0.00546391	0	0	0	0	2.74467	491.87	-109.709	0.397885	-0.00546391	0.530278	-0.0526375	-9.43313	2.10402
0.427076	0	0	0	0	-0.0054644	0	0	0	0	4.33533	507.058	-111.643	0.398284	-0.0054644	0.530964	-0.0846773	-9.90381	2.18061
0.431067	0	0	0	0	-0.00546482	0	0	0	0	5.97808	521.327	-113.165	0.398617	-0.00546482	0.531431	-0.118615	-10.344	2.2454
0.435058	0	0	0	0	-0.00546516	0	0	0	0	7.6564	534.626	-114.279	0.398886	-0.00546516	0.531718	-0.153955	-10.7503	2.29794
0.43905	0	0	0	0	-0.00546544	0	0	0	0	9.35324	546.911	-114.993	0.399093	-0.00546544	0.531862	-0.190167	-11.1196	2.33801
0.443041	0	0	0	0	-0.00546564	0	0	0	0	11.0513	558.147	-115.318	0.39924	-0.00546564	0.531896	-0.226701	-11.4495	2.36557
0.447032	0	0	0	0	-0.00546577	0	0	0	0	12.7339	568.305	-115.267	0.399331	-0.00546577	0.53185	-0.263011	-11.738	2.38077
0.451024	0	0	0	0	-0.00546584	0	0	0	0	14.3855	577.368	-114.855	0.399369	-0.00546584	0.531751	-0.298582	-11.9837	2.3839
0.455015	0	0	0	0	-0.00546584	0	0	0	0	15.9927	585.327	-114.098	0.399358	-0.00546584	0.531623	-0.332959	-12.1861	2.37545
0.459006	0	0	0	0	-0.00546577	0	0	0	0	17.5447	592.182	-113.014	0.399302	-0.00546577	0.531487	-0.36576	-12.3454	2.35604
0.462998	0	0	0	0	-0.00546564	0	0	0	0	19.0325	597.936	-111.623	0.399205	-0.00546564	0.53136	-0.396678	-12.4623	2.32646
0.466989	0	0	0	0	-0.00546545	0	0	0	0	20.4488	602.598	-109.945	0.399072	-0.00546545	0.531258	-0.425472	-12.5381	2.28759
0.470981	0	0	0	0	-0.00546519	0	0	0	0	21.7875	606.18	-108.005	0.398904	-0.00546519	0.531195	-0.451959	-12.5745	2.24044
0.474972	0	0	0	0	-0.00546488	0	0	0	0	23.0435	608.698	-105.826	0.398707	-0.00546488	0.531183	-0.476003	-12.5737	2.18601
0.478963	0	0	0	0	-0.00546449	0	0	0	0	24.2121	610.17	-103.434	0.398483	-0.00546449	0.531232	-0.497513	-12.5378	2.12536
0.482955	0	0	0	0	-0.00546405	0	0	0	0	25.2902	610.622	-100.855	0.398236	-0.00546405	0.531351	-0.516442	-12.4693	2.05952
0.486946	0	0	0	0	-0.00546353	0	0	0	0	26.275	610.081	-98.1155	0.397969	-0.00546353	0.531545	-0.532784	-12.3708	1.98951
0.490937	0	0	0	0	-0.00546295	0	0	0	0	27.1651	608.583	-95.2415	0.397684	-0.00546295	0.531822	-0.54657	-12.2448	1.91629
0.494929	0	0	0	0	-0.0054623	0	0	0	0	27.9599	606.162	-92.2582	0.397384	-0.0054623	0.532185	-0.557863	-12.0943	1.84076
0.49892	0	0	0	0	-0.00546157	0	0	0	0	28.6594	602.86	-89.1901	0.397072	-0.00546157	0.532638	-0.566752	-11.9218	1.76377
0.502911	0	0	0	0	-0.00546077	0	0	0	0	29.2642	598.721	-86.0607	0.396751	-0.00546077	0.533183	-0.573341	-11.7301	1.68609
0.506903	0	0	0	0	-0.0054599	0	0	0	0	29.7755	593.792	-82.8921	0.396421	-0.0054599	0.53382	-0.577739	-11.5214	1.60837
0.510894	0	0	0	0	-0.00545895	0	0	0	0	30.1945	588.123	-79.705	0.396085	-0.00545895	0.534551	-0.580053	-11.2982	1.53118
0.514886	0	0	0	0	-0.00545792	0	0	0	0	30.5227	581.769	-76.5182	0.395745	-0.00545792	0.535376	-0.58039	-11.0623	1.455
0.518877	0	0	0	0	-0.00545682	0	0	0	0	30.7619	574.785	-73.3486	0.395402	-0.00545682	0.536291	-0.578849	-10.8158	1.38021
0.522868	0	0	0	0	-0.00545564	0	0	0	0	30.9142	567.234	-70.2112	0.39506	-0.00545564	0.537296	-0.575524	-10.5601	1.30711
0.52686	0	0	0	0	-0.00545438	0	0	0	0	30.9819	559.175	-67.119	0.394719	-0.00545438	0.538387	-0.570503	-10.2967	1.23594
0.530851	0	0	0	0	-0.00545305	0	0	0	0	30.9673	550.675	-64.083	0.394381	-0.00545305	0.53956	-0.563862	-10.0269	1.16684
0.534842	0	0	0	0	-0.00545164	0	0	0	0	30.8732	541.8	-61.1124	0.39405	-0.00545164	0.540812	-0.555672	-9.7516	1.09993
0.538834	0	0	0	0	-0.00545016	0	0	0	0	30.7023	532.617	-58.2147	0.393726	-0.00545016	0.542136	-0.545993	-9.47179	1.03526
0.542825	0	0	0	0	-0.00544861	0	0	0	0	30.4575	523.193	-55.3961	0.393413	-0.00544861	0.543529	-0.534885	-9.18814	0.972849
0.546816	0	0	0	0	-0.00544699	0	0	0	0	30.1421	513.596	-52.6614	0.393112	-0.00544699	0.544984	-0.5224	-8.90125	0.912688
0.550808	0	0	0	0	-0.00544531	0	0	0	0	29.7593	503.891	-50.0142	0.392826	-0.00544531	0.546497	-0.508591	-8.61157	0.85475
0.554799	0	0	0	0	-0.00544356	0	0	0	0	29.3126	494.144	-47.457	0.392556	-0.00544356	0.548061	-0.493514	-8.31951	0.798996
0.55879	0	0	0	0	-0.00544175	0	0	0	0	28.806	484.416	-44.9912	0.392304	-0.00544175	0.549671	-0.477234	-8.02539	0.745376
0.562782	0	0	0	0	-0.00543988	0	0	0	0	28.2436	474.768	-42.6173	0.392071	-0.00543988	0.551321	-0.459822	-7.72949	0.693833
0.566773	0	0	0	0	-0.00543796	0	0	0	0	27.6299	465.256	-40.3347	0.391859	-0.00543796	0.553006	-0.44136	-7.432	0.644307
0.570765	0	0	0	0	-0.00543599	0	0	0	0	26.9696	455.936	-38.1422	0.391667	-0.00543599	0.554717	-0.421942	-7.13316	0.596738
0.574756	0	0	0	0	-0.00543399	0	0	0	0	26.2679	446.856	-36.0374	0.391498	-0.00543399	0.556449	-0.401679	-6.83316	0.551072
0.578747	0	0	0	0	-0.00543195	0	0	0	0	25.5302	438.065	-34.0176	0.39135	-0.00543195	0.558194	-0.3807	-6.5323	0.507261
0.582739	0	0	0	0	-0.00542988	0	0	0	0	24.7623	429.604	-32.0791	0.391225	-0.00542988	0.559947	-0.359148	-6.23089	0.46527
0.58673	0	0	0	0	-0.0054278	0	0	0	0	23.97	421.513	-30.2178	0.391123	-0.0054278	0.561701	-0.337184	-5.92938	0.42507
0.590721	0	0	0	0	-0.0054257	0	0	0	0	23.1596	413.826	-28.4286	0.391043	-0.0054257	0.56345	-0.314984	-5.62827	0.386646
0.594713	0	0	0	0	-0.00542359	0	0	0	0	22.3374	406.574	-26.7063	0.390985	-0.00542359	0.565188	-0.292732	-5.32817	0.349987
0.598704	0	0	0	0	-0.00542148	0	0	0	0	21.5099	399.785	-25.045	0.390949	-0.00542148	0.56691	-0.270618	-5.02973	0.315093
0.602695	0	0	0	0	-0.00541937	0	0	0	0	20.6837	393.484	-23.4384	0.390934	-0.00541937	0.56861	-0.248828	-4.73367	0.281968
0.606687	0	0	0	0	-0.00541727	0	0	0	0	19.8652	387.692	-21.8801	0.39094	-0.00541727	0.570283	-0.227541	-4.44073	0.250621
0.610678	0	0	0	0	-0.0054152	0	0	0	0	19.0606	382.428	-20.3632	0.390965	-0.0054152	0.571923	-0.206922	-4.15164	0.221063
0.61467	0	0	0	0	-0.00541315	0	0	0	0	18.276	377.71	-18.8807	0.391008	-0.00541315	0.573525	-0.187116	-3.86714	0.193308
0.618661	0	0	0	0	-0.00541113	0	0	0	0	17.5168	373.553	-17.4256	0.391068	-0.00541113	0.575085	-0.168245	-3.58788	0.167368
0.622652	0	0	0	0	-0.00540914	0	0	0	0	16.7881	369.97	-15.9904	0.391145	-0.00540914	0.576597	-0.150398	-3.31442	0.143252
0.626644	0	0	0	0	-0.0054072	0	0	0	0	16.0941	366.973	-14.5679	0.391238	-0.0054072	0.578058	-0.133638	-3.04718	0.120965
0.630635	0	0	0	0	-0.00540531	0	0	0	0	15.4385	364.575	-13.1505	0.391344	-0.00540531	0.579463	-0.117994	-2.7864	0.100508
0.634626	0	0	0	0	-0.00540347	0	0	0	0	14.8241	362.784	-11.7309	0.391464	-0.00540347	0.58081	-0.103471	-2.5322	0.0818802
0.638618	0	0	0	0	-0.00540169	0	0	0	0	14.2533	361.61	-10.3012	0.391595	-0.00540169	0.582095	-0.0900476	-2.28452	0.0650791
0.642609	0	0	0	0	-0.00539998	0	0	0	0	13.7278	361.061	-8.85371	0.391737	-0.00539998	0.583316	-0.0776828	-2.04317	0.0501014
0.6466	0	0	0	0	-0.00539833	0	0	0	0	13.2484	361.142	-7.38059	0.391889	-0.00539833	0.58447	-0.066319	-1.8078	0.0369457
0.650592	0	0	0	0	-0.00539676	0	0	0	0	12.8157	361.858	-5.87373	0.392049	-0.00539676	0.585554	-0.0558833	-1.57789	0.0256126
0.654583	0	0	0	0	-0.00539526	0	0	0	0	12.4295	363.211	-4.32487	0.392216	-0.00539526	0.586567	-0.0462939	-1.35279	0.0161081
0.658575	0	0	0	0	-0.00539383	0	0	0	0	12.0891	365.203	-2.72546	0.392389	-0.00539383	0.587509	-0.037463	-1.13173	0.00844597
0.662566	0	0	0	0	-0.00539249	0	0	0	0	11.7936	367.83	-1.06672	0.392568	-0.00539249	0.588379	-0.0293006	-0.913859	0.00265022
0.666557	0	0	0	0	-0.00539122	0	0	0	0	11.5416	371.089	0.6604	0.392752	-0.00539122	0.589176	-0.0217173	-0.698259	-0.00124264
0.670549	0	0	0	0	-0.00539002	0	0	0	0	11.3318	374.973	2.46504	0.392938	-0.00539002	0.589902	-0.0146265	-0.483998	-0.00318176
0.67454	0	0	0	0	-0.00538891	0	0	0	0	11.1623	379.471	4.35633	0.393127	-0.00538891	0.590556	-0.00794581	-0.270124	-0.00310103
0.678531	0	0	0	0	-0.00538787	0	0	0	0	11.0312	384.57	6.34319	0.393318	-0.00538787	0.59114	-0.00159785	-0.0557043	-0.000918799
0.682523	0	0	0	0	-0.0053869	0	0	0	0	10.9365	390.256	8.4341	0.393509	-0.0053869	0.591654	0.00448862	0.160172	0.00346159
0.686514	0	0	0	0	-0.00538601	0	0	0	0	10.8757	396.508	10.6369	0.393699	-0.00538601	0.5921	0.0103786	0.378386	0.0101508
0.690505	0	0	0	0	-0.00538519	0	0	0	0	10.8462	403.304	12.9586	0.393888	-0.00538519	0.592478	0.0161296	0.599762	0.0192709
0.694497	0	0	0	0	-0.00538443	0	0	0	0	10.8452	410.617	15.4051	0.394074	-0.00538443	0.592792	0.0217921	0.825086	0.0309547
0.698488	0	0	0	0	-0.00538373	0	0	0	0	10.8694	418.416	17.9814	0.394258	-0.00538373	0.593044	0.0274089	1.0551	0.0453429
0.702479	0	0	0	0	-0.00538309	0	0	0	0	10.9154	426.668	20.691	0.394439	-0.00538309	0.593234	0.0330145	1.29049	0.0625818
0.706471	0	0	0	0	-0.0053825	0	0	0	0	10.9794	435.334	23.5363	0.394617	-0.0053825	0.593366	0.0386352	1.53188	0.0828209
0.710462	0	0	0	0	-0.00538196	0	0	0	0	11.0576	444.37	26.5179	0.394791	-0.00538196	0.593441	0.0442882	1.7798	0.10621
0.714454	0	0	0	0	-0.00538145	0	0	0	0	11.1458	453.729	29.6354	0.394961	-0.00538145	0.593462	0.0499827	2.03471	0.132897
0.718445	0	0	0	0	-0.00538099	0	0	0	0	11.2399	463.356	32.8866	0.395127	-0.00538099	0.593431	0.0557188	2.29697	0.163027
0.722436	0	0	0	0	-0.00538055	0	0	0	0	11.3354	473.193	36.268	0.39529	-0.00538055	0.593352	0.0614883	2.5668	0.196733
0.726428	0	0	0	0	-0.00538013	0	0	0	0	11.4285	483.176	39.7745	0.395449	-0.00538013	0.593226	0.0672739	2.84423	0.234134
0.730419	0	0	0	0	-0.00537972	0	0	0	0	11.5148	493.235	43.3997	0.395606	-0.00537972	0.593057	0.0730521	3.12917	0.275335
0.73441	0	0	0	0	-0.00537933	0	0	0	0	11.5908	503.295	47.1354	0.395759	-0.00537933	0.592848	0.0787927	3.42134	0.320421
0.738402	0	0	0	0	-0.00537894	0	0	0	0	11.6527	513.277	50.9722	0.395911	-0.00537894	0.592601	0.08446	3.7203	0.369453
0.742393	0	0	0	0	-0.00537854	0	0	0	0	11.6974	523.096	54.8992	0.396059	-0.00537854	0.592318	0.0900146	4.02538	0.422465
0.746384	0	0	0	0	-0.00537815	0	0	0	0	11.7221	532.662	58.9039	0.396206	-0.00537815	0.592003	0.0954145	4.3357	0.479459
0.750376	0	0	0	0	-0.00537775	0	0	0	0	11.7248	541.882	62.9726	0.396349	-0.00537775	0.591658	0.100616	4.65013	0.540395
0.754367	0	0	0	0	-0.00537733	0	0	0	0	11.7038	550.659	67.0897	0.396489	-0.00537733	0.59129	0.105576	4.96729	0.605191
0.758359	0	0	0	0	-0.0053769	0	0	0	0	11.6581	558.894	71.238	0.396627	-0.0053769	0.590901	0.110253	5.2856	0.673716
0.76235	0	0	0	0	-0.00537645	0	0	0	0	11.5871	566.485	75.3988	0.396762	-0.00537645	0.5905	0.114611	5.60326	0.745789
0.766341	0	0	0	0	-0.00537597	0	0	0	0	11.491	573.333	79.5513	0.396895	-0.00537597	0.590091	0.118617	5.91826	0.821172
0.770333	0	0	0	0	-0.00537547	0	0	0	0	11.3704	579.336	83.6729	0.397024	-0.00537547	0.589683	0.122242	6.2284	0.899561
0.774324	0	0	0	0	-0.00537493	0	0	0	0	11.2263	584.397	87.7395	0.39715	-0.00537493	0.589285	0.125466	6.53126	0.980583
0.778315	0	0	0	0	-0.00537437	0	0	0	0	11.0601	588.42	91.725	0.397272	-0.00537437	0.588908	0.128271	6.82428	1.06379
0.782307	0	0	0	0	-0.00537376	0	0	0	0	10.8737	591.313	95.6014	0.39739	-0.00537376	0.588564	0.13065	7.10476	1.14867
0.786298	0	0	0	0	-0.00537311	0	0	0	0	10.6688	592.989	99.3395	0.397504	-0.00537311	0.588268	0.132597	7.36997	1.23464
0.790289	0	0	0	0	-0.00537242	0	0	0	0	10.4472	593.369	102.908	0.397613	-0.00537242	0.588036	0.134113	7.61719	1.32105
0.794281	0	0	0	0	-0.00537167	0	0	0	0	10.2108	592.382	106.276	0.397717	-0.00537167	0.587887	0.135201	7.84374	1.4072
0.798272	0	0	0	0	-0.00537087	0	0	0	0	9.96079	589.965	109.41	0.397816	-0.00537087	0.587843	0.135864	8.04708	1.49234
0.802263	0	0	0	0	-0.00537	0	0	0	0	9.69846	586.066	112.276	0.397909	-0.00537	0.587927	0.136107	8.22479	1.57567
0.806255	0	0	0	0	-0.00536906	0	0	0	0	9.4246	580.647	114.84	0.397996	-0.00536906	0.588168	0.135931	8.37468	1.65634
0.810246	0	0	0	0	-0.00536804	0	0	0	0	9.13964	573.68	117.069	0.398077	-0.00536804	0.588593	0.135336	8.49479	1.7335
0.814238	-0.0763678	3.44616	-0.897251	0.523399	-0.00528034	1.24291	0.000483069	-0.0217989	0.00567561	8.84375	565.152	118.929	0.398151	-0.00536694	0.589235	0.134317	8.58344	1.80628
0.818229	-0.218443	10.0785	-2.62633	0.522225	-0.00528114	1.24081	0.00135724	-0.0626197	0.016318	8.53687	555.062	120.389	0.39822	-0.00536573	0.590131	0.132872	8.63924	1.8738
0.82222	-0.415552	19.6362	-5.12164	0.521046	-0.00528194	1.23871	0.00253277	-0.119682	0.0312161	8.21892	543.424	121.42	0.398284	-0.00536442	0.591318	0.130993	8.66106	1.93518
0.826212	-0.656964	31.8562	-8.31692	0.519858	-0.00528275	1.23659	0.00392222	-0.190188	0.0496538	7.88985	530.269	121.993	0.398342	-0.00536299	0.592837	0.128673	8.64802	1.98956
0.830203	-0.931843	46.47	-12.1446	0.518659	-0.00528357	1.23446	0.00544052	-0.271313	0.0709056	7.5498	515.642	122.086	0.398396	-0.00536142	0.594733	0.12591	8.59947	2.03605
0.834194	-1.22884	63.2025	-16.535	0.517445	-0.0052844	1.23231	0.00700654	-0.360364	0.094278	7.19925	499.602	121.677	0.398446	-0.00535971	0.59705	0.122702	8.51505	2.07382
0.838186	-1.53624	81.7767	-21.4154	0.516213	-0.00528525	1.23015	0.00854158	-0.454684	0.119071	6.83913	482.227	120.752	0.398492	-0.00535784	0.599838	0.119057	8.39472	2.10207
0.842177	-1.84345	101.92	-26.7098	0.514961	-0.00528612	1.22797	0.0099789	-0.551709	0.144585	6.4709	463.607	119.299	0.398537	-0.0053558	0.603145	0.114993	8.23866	2.12004
0.846168	-2.14195	123.368	-32.3395	0.51369	-0.00528701	1.22578	0.0112698	-0.649096	0.170154	6.09661	443.851	117.316	0.39858	-0.00535357	0.60702	0.110536	8.04733	2.12702
0.85016	-2.42575	145.866	-38.2247	0.512402	-0.00528792	1.22358	0.0123868	-0.744845	0.19519	5.71881	423.081	114.805	0.398623	-0.00535116	0.611512	0.105724	7.8215	2.1224
0.854151	-2.69212	169.175	-44.2868	0.511103	-0.00528884	1.22137	0.0133237	-0.837275	0.219183	5.34043	401.435	111.774	0.398666	-0.00534855	0.61667	0.100605	7.56241	2.10566
0.858143	-2.94226	193.073	-50.4494	0.509797	-0.00528976	1.21914	0.0140968	-0.925045	0.241712	4.96464	379.064	108.243	0.398709	-0.00534574	0.622539	0.0952384	7.27171	2.07647
0.862134	-3.18118	217.353	-56.6392	0.508492	-0.00529069	1.21691	0.0147387	-1.00702	0.262415	4.59472	356.132	104.237	0.398755	-0.00534272	0.629162	0.0896875	6.95158	2.03468
0.866125	-3.4169	241.828	-62.7851	0.507195	-0.00529159	1.21468	0.0152921	-1.08228	0.280991	4.2339	332.814	99.7915	0.398804	-0.0053395	0.636574	0.0840218	6.6047	1.98036
0.870117	-3.6599	266.322	-68.8181	0.505914	-0.00529249	1.21244	0.0158069	-1.15023	0.297221	3.88528	309.294	94.9497	0.398856	-0.00533608	0.644804	0.0783138	6.23429	1.91386
0.874108	-3.92308	290.675	-74.6717	0.504658	-0.00529335	1.21022	0.0163388	-1.2106	0.310991	3.55161	285.758	89.7648	0.398911	-0.00533248	0.653873	0.0726349	5.84411	1.8358
0.878099	-4.22225	314.735	-80.2841	0.503436	-0.00529418	1.20801	0.016952	-1.26364	0.322335	3.23514	262.396	84.2982	0.398968	-0.00532872	0.663788	0.067051	5.43838	1.74715
0.882091	-4.57549	338.361	-85.6006	0.502258	-0.00529496	1.20584	0.0177165	-1.31015	0.33145	2.93735	239.393	78.6184	0.399028	-0.00532483	0.674545	0.0616177	5.02181	1.6492
0.886082	-5.00144	361.421	-90.5745	0.501132	-0.00529569	1.20372	0.0187014	-1.35143	0.338677	2.65886	216.924	72.7999	0.399086	-0.00532085	0.686124	0.0563765	4.59949	1.54359
0.890073	-5.5171	383.793	-95.1673	0.500066	-0.00529637	1.20165	0.0199694	-1.38916	0.344462	2.39943	195.151	66.9202	0.399141	-0.00531681	0.698487	0.0513541	4.17674	1.43227
0.894065	-6.13602	405.371	-99.3479	0.499066	-0.00529699	1.19966	0.0215718	-1.42513	0.349268	2.15829	174.215	61.0569	0.399185	-0.00531278	0.711578	0.0465678	3.7589	1.31738
0.898056	-6.86732	426.06	-103.092	0.498139	-0.00529754	1.19777	0.0235509	-1.46114	0.353546	1.93465	154.235	55.2834	0.399213	-0.0053088	0.725324	0.042033	3.35098	1.20111
0.902048	-7.71536	445.779	-106.383	0.497288	-0.00529803	1.19597	0.0259428	-1.49893	0.357711	1.72792	135.307	49.664	0.399218	-0.00530491	0.739634	0.0377653	2.95726	1.08545
0.906039	-8.67976	464.458	-109.209	0.496516	-0.00529845	1.19428	0.0287809	-1.54008	0.362121	1.53772	117.502	44.2526	0.39919	-0.00530117	0.754397	0.0337795	2.58121	0.97211
0.91003	-9.75556	482.035	-111.566	0.495824	-0.0052988	1.19272	0.0320966	-1.58593	0.367061	1.36383	100.873	39.0921	0.39912	-0.0052976	0.769486	0.0300898	2.22552	0.862477
0.914022	-10.9336	498.46	-113.456	0.495214	-0.0052991	1.19128	0.0359189	-1.63753	0.372723	1.20608	85.4493	34.2155	0.398996	-0.00529422	0.784761	0.026707	1.89215	0.757655
0.918013	-12.201	513.693	-114.885	0.494683	-0.00529933	1.18999	0.0402728	-1.69559	0.37921	1.06414	71.2475	29.6466	0.398797	-0.00529106	0.800061	0.0236358	1.5825	0.658488
0.922004	-13.5414	527.705	-115.863	0.494231	-0.00529951	1.18883	0.0451762	-1.7605	0.386537	0.937439	58.2661	25.4007	0.398497	-0.00528812	0.815216	0.0208735	1.29739	0.565586
0.925996	-14.9361	540.476	-116.404	0.493856	-0.00529963	1.18781	0.0506354	-1.83229	0.394627	0.825199	46.4893	21.4862	0.398046	-0.00528541	0.830069	0.0184105	1.0372	0.479366
0.929987	-16.3645	551.998	-116.523	0.493553	-0.00529971	1.18694	0.0566425	-1.91063	0.403323	0.726478	35.8883	17.9052	0.397358	-0.00528293	0.844521	0.0162305	0.801793	0.400027
0.933978	-17.8058	562.274	-116.238	0.49332	-0.00529974	1.18621	0.0631742	-1.99492	0.412406	0.640317	26.4236	14.6551	0.396265	-0.00528068	0.858558	0.0143024	0.59021	0.327344
0.93797	-19.24	571.313	-115.567	0.493151	-0.00529973	1.18562	0.0701928	-2.08431	0.42162	0.565807	18.0466	11.7288	0.394427	-0.00527866	0.872337	0.0125333	0.399753	0.259806
0.941961	-20.6487	579.136	-114.532	0.493044	-0.0052997	1.18516	0.0776506	-2.17787	0.430706	0.502062	10.7015	9.11589	0.39106	-0.00527686	0.886582	0.0106169	0.226301	0.19277
0.945952	-22.0156	585.765	-113.156	0.492993	-0.00529963	1.18484	0.0854885	-2.27458	0.439396	0.448243	4.32603	6.80316	0.385064	-0.00527526	0.905774	0.00704053	0.0679488	0.106857
0.949944	-23.3266	591.23	-111.462	0.492993	-0.00529954	1.18465	0.0936376	-2.37331	0.447432	0.403514	-1.14563	4.7752	0.384526	-0.00527386	0.855668	-0.00196211	0.00557068	-0.0232197
0.953935	-24.5699	595.564	-109.477	0.49304	-0.00529942	1.18457	0.10202	-2.47293	0.454574	0.367031	-5.78207	3.01497	0.408608	-0.00527265	0.901447	0.000412218	-0.00649393	0.00338616
0.957927	-25.7353	598.804	-107.225	0.493129	-0.0052993	1.18462	0.110553	-2.57233	0.460614	0.337945	-9.65303	1.50431	0.409974	-0.00527161	0.913388	0.00347245	-0.0991867	0.0154571
0.961918	-26.8146	600.987	-104.734	0.493257	-0.00529916	1.18478	0.119145	-2.67036	0.465365	0.315452	-12.8279	0.224396	0.408759	-0.00527073	0.922404	0.00438093	-0.178151	0.00311636
0.965909	-27.801	602.153	-102.032	0.493419	-0.00529901	1.18505	0.127702	-2.76595	0.468677	0.298783	-15.3751	-0.843901	0.407742	-0.00527	0.929933	0.00464309	-0.238929	-0.0131142
0.969901	-28.6892	602.341	-99.1459	0.493611	-0.00529886	1.18543	0.136129	-2.85807	0.470441	0.28721	-17.36	-1.71965	0.407017	-0.0052694	0.936377	0.00471042	-0.284714	-0.0282032
0.973892	-29.4753	601.595	-96.1028	0.493829	-0.00529871	1.1859	0.144331	-2.94581	0.470584	0.280042	-18.8456	-2.42158	0.406501	-0.00526892	0.941917	0.00472576	-0.318023	-0.0408646
0.977883	-30.1566	599.956	-92.9294	0.494071	-0.00529856	1.18647	0.15222	-3.02838	0.469077	0.27665	-19.8917	-2.96789	0.406129	-0.00526855	0.946662	0.00473938	-0.340772	-0.050844
0.981875	-30.7318	597.469	-89.6515	0.494333	-0.00529841	1.18714	0.159716	-3.1051	0.465926	0.276507	-20.5546	-3.37606	0.405858	-0.00526827	0.950696	0.00476925	-0.35453	-0.0582309
0.985866	-31.2008	594.18	-86.2941	0.494613	-0.00529826	1.18788	0.166744	-3.17543	0.461174	0.279089	-20.8865	-3.66269	0.405662	-0.00526808	0.954086	0.00481888	-0.360636	-0.0632418
0.989857	-31.5648	590.136	-82.8805	0.494908	-0.00529813	1.18872	0.173242	-3.23893	0.454886	0.283898	-20.936	-3.84348	0.405523	-0.00526796	0.956894	0.00488528	-0.360263	-0.066138
0.993849	-31.826	585.385	-79.4329	0.495216	-0.005298	1.18963	0.179157	-3.29529	0.447149	0.290484	-20.7476	-3.93303	0.405432	-0.0052679	0.959179	0.00496291	-0.354472	-0.0671958
0.99784	-31.9875	579.979	-75.9716	0.495535	-0.00529788	1.19062	0.184446	-3.34427	0.438067	0.298386	-20.3621	-3.94494	0.405379	-0.00526789	0.960993	0.00504393	-0.344202	-0.0666853
1.00183	-32.0532	573.969	-72.5155	0.495863	-0.00529778	1.19168	0.189077	-3.38576	0.427758	0.307179	-19.8165	-3.89168	0.405362	-0.00526793	0.962389	0.00511991	-0.330291	-0.0648645
1.00582	-32.0278	567.41	-69.0816	0.496196	-0.00529768	1.19281	0.19303	-3.41975	0.416352	0.316489	-19.1438	-3.78463	0.405375	-0.00526801	0.963413	0.00518215	-0.313457	-0.061969
1.00981	-31.9168	560.355	-65.6855	0.496535	-0.00529761	1.194	0.196297	-3.44634	0.403984	0.325963	-18.3742	-3.63412	0.405419	-0.00526812	0.964111	0.00522192	-0.294354	-0.0582186
1.01381	-31.726	552.861	-62.3405	0.496875	-0.00529754	1.19525	0.198882	-3.46575	0.390797	0.335306	-17.5345	-3.44938	0.405491	-0.00526825	0.964524	0.00523102	-0.273551	-0.0538129
1.0178	-31.4615	544.987	-59.0586	0.497217	-0.00529749	1.19656	0.200799	-3.4783	0.376933	0.344327	-16.6481	-3.23867	0.405592	-0.0052684	0.964692	0.00520302	-0.251564	-0.0489385
1.02179	-31.1299	536.79	-55.8496	0.497558	-0.00529746	1.19791	0.202066	-3.48434	0.362524	0.352911	-15.7355	-3.00927	0.40572	-0.00526856	0.964651	0.00513167	-0.22881	-0.0437577
1.02578	-30.7376	528.333	-52.7217	0.497898	-0.00529744	1.19931	0.202712	-3.48431	0.347695	0.360986	-14.8146	-2.76753	0.405874	-0.00526872	0.964433	0.0050117	-0.205676	-0.0384226
1.02977	-30.291	519.676	-49.6814	0.498234	-0.00529743	1.20075	0.202765	-3.47865	0.332562	0.368477	-13.9003	-2.51899	0.406054	-0.0052689	0.964069	0.00483724	-0.182478	-0.0330684
1.03376	-29.7965	510.88	-46.7337	0.498565	-0.00529744	1.20223	0.202259	-3.46786	0.317229	0.375346	-13.0049	-2.26836	0.406258	-0.00526907	0.963586	0.0046027	-0.159473	-0.0278159
1.03775	-29.2599	502.007	-43.8822	0.49889	-0.00529747	1.20373	0.201229	-3.45244	0.30179	0.381551	-12.1384	-2.01964	0.406483	-0.00526924	0.963009	0.00430219	-0.136867	-0.0227725
1.04175	-28.6871	493.116	-41.1292	0.499207	-0.00529752	1.20526	0.199712	-3.43295	0.286331	0.387073	-11.3093	-1.77614	0.406725	-0.00526941	0.962362	0.00393128	-0.114862	-0.0180392
1.04574	-28.0832	484.267	-38.4761	0.499514	-0.00529758	1.20681	0.197747	-3.40995	0.270928	0.391918	-10.5237	-1.54057	0.406976	-0.00526957	0.961663	0.00348647	-0.0936176	-0.0137048
1.04973	-27.4533	475.514	-35.9232	0.499811	-0.00529766	1.20837	0.195372	-3.38401	0.255648	0.396081	-9.78623	-1.31507	0.40723	-0.00526973	0.960933	0.00296456	-0.0732473	-0.00984294
1.05372	-26.8018	466.912	-33.4701	0.500094	-0.00529775	1.20994	0.192624	-3.35568	0.240548	0.399587	-9.10015	-1.10128	0.407476	-0.00526988	0.960187	0.0023654	-0.0538695	-0.00651919
1.05771	-26.1332	458.513	-31.1158	0.500364	-0.00529787	1.21152	0.189537	-3.32547	0.225675	0.402472	-8.46713	-0.900418	0.4077	-0.00527001	0.959441	0.00169175	-0.0355908	-0.00378482
1.0617	-25.4514	450.362	-28.8584	0.500617	-0.005298	1.2131	0.18615	-3.29391	0.211068	0.40477	-7.88783	-0.713289	0.407888	-0.00527014	0.958708	0.00095056	-0.0185237	-0.00167508
1.06569	-24.7604	442.505	-26.6955	0.500852	-0.00529816	1.21468	0.182498	-3.26151	0.196761	0.406524	-7.36223	-0.540344	0.408026	-0.00527026	0.957998	0.000152309	-0.00275834	-0.000202446
1.06968	-24.064	434.982	-24.6242	0.501067	-0.00529834	1.21625	0.178621	-3.22876	0.182779	0.407771	-6.88958	-0.381743	0.4081	-0.00527037	0.95732	-0.00068896	0.0116405	0.000644983
1.07368	-23.366	427.83	-22.641	0.501261	-0.00529854	1.21781	0.174555	-3.1961	0.16914	0.40856	-6.46859	-0.237416	0.4081	-0.00527047	0.956682	-0.00155578	0.0246321	0.000904069
1.07767	-22.6701	421.082	-20.742	0.501433	-0.00529876	1.21936	0.170343	-3.16399	0.155855	0.408955	-6.09693	-0.107113	0.408019	-0.00527056	0.956087	-0.00242909	0.0362143	0.000636223
1.08166	-21.9803	414.767	-18.9227	0.50158	-0.00529901	1.2209	0.166025	-3.13288	0.142929	0.409005	-5.77197	0.00953529	0.407858	-0.00527064	0.955539	-0.00328827	0.0464047	-7.66605e-05
1.08565	-21.3004	408.913	-17.1782	0.501704	-0.00529928	1.22242	0.161645	-3.10318	0.130363	0.408738	-5.49068	0.113026	0.407624	-0.00527071	0.955037	-0.00411111	0.0552256	-0.00113682
1.08964	-20.6341	403.542	-15.5032	0.501804	-0.00529957	1.22392	0.15725	-3.07535	0.118149	0.408196	-5.24993	0.203981	0.40733	-0.00527077	0.954581	-0.00487692	0.0627235	-0.00243706
1.09363	-19.9851	398.673	-13.8921	0.501879	-0.00529988	1.2254	0.152885	-3.04984	0.106274	0.407409	-5.04674	0.283124	0.406994	-0.00527082	0.954167	-0.00556815	0.0689749	-0.00386952
1.09762	-19.3571	394.325	-12.3388	0.50193	-0.00530022	1.22685	0.148596	-3.02705	0.0947194	0.40645	-4.87776	0.351236	0.406638	-0.00527087	0.953792	-0.00617352	0.0740878	-0.00533488
1.10162	-18.7535	390.512	-10.837	0.501958	-0.00530057	1.22829	0.144424	-3.0074	0.0834572	0.405374	-4.73975	0.409116	0.406283	-0.00527091	0.953454	-0.00668664	0.0781821	-0.00674836
1.10561	-18.1775	387.249	-9.38006	0.501961	-0.00530095	1.22969	0.140409	-2.99125	0.0724548	0.404239	-4.62958	0.457573	0.40595	-0.00527094	0.953149	-0.00710479	0.081368	-0.00804216
1.1096	-17.6319	384.548	-7.96132	0.501942	-0.00530134	1.23106	0.136589	-2.97896	0.0616737	0.403121	-4.54377	0.497433	0.405652	-0.00527097	0.952875	-0.00743418	0.0837943	-0.00917346
1.11359	-17.1194	382.418	-6.57378	0.5019	-0.00530175	1.23241	0.132995	-2.97087	0.0510694	0.40206	-4.47923	0.529514	0.4054	-0.00527099	0.952631	-0.00768386	0.0856037	-0.0101197
1.11758	-16.6425	380.87	-5.21021	0.501836	-0.00530218	1.23371	0.129658	-2.96727	0.0405916	0.401165	-4.43316	0.554638	0.405198	-0.00527101	0.952417	-0.00786743	0.0869407	-0.0108773
1.12157	-16.203	379.911	-3.86323	0.501751	-0.00530261	1.23499	0.126603	-2.96845	0.0301855	0.400508	-4.40282	0.573612	0.405044	-0.00527102	0.952232	-0.0079988	0.0879314	-0.0114559
1.12556	-15.8029	379.546	-2.52519	0.501644	-0.00530307	1.23622	0.123854	-2.97465	0.0197909	0.400111	-4.3858	0.587164	0.404937	-0.00527103	0.952075	-0.00808931	0.0886707	-0.0118711
1.12956	-15.4438	379.781	-1.18816	0.501517	-0.00530353	1.23742	0.12143	-2.9861	0.00934211	0.399971	-4.37981	0.595993	0.40487	-0.00527104	0.951946	-0.0081484	0.0892277	-0.0121419
1.13355	-15.127	380.615	0.156182	0.501369	-0.00530401	1.23859	0.119348	-3.00296	-0.00123223	0.400109	-4.38286	0.600765	0.40484	-0.00527104	0.951842	-0.00818305	0.0896386	-0.0122869
1.13754	-14.8537	382.051	1.51653	0.501201	-0.0053045	1.23971	0.117622	-3.02535	-0.012009	0.400502	-4.39319	0.602098	0.40484	-0.00527104	0.95176	-0.00819752	0.0899202	-0.0123238
1.14153	-14.6248	384.083	2.90201	0.501014	-0.005305	1.24079	0.116264	-3.05337	-0.0230703	0.40113	-4.40946	0.600553	0.404864	-0.00527104	0.951699	-0.00819698	0.0901061	-0.0122721
1.14552	-14.4412	386.707	4.32215	0.50081	-0.00530551	1.24184	0.115282	-3.08702	-0.034503	0.401993	-4.43028	0.596644	0.404904	-0.00530551	0.951653	-0.00818795	0.0902377	-0.0121527
1.14951	-14.3033	389.914	5.78686	0.50059	-0.00530603	1.24285	0.114682	-3.12629	-0.0463984	0.403037	-4.4546	0.590819	0.404961	-0.00530603	0.951627	-0.00817144	0.0903155	-0.0119787
1.1535	-14.211	393.695	7.30631	0.500354	-0.00530655	1.24382	0.114466	-3.17112	-0.0588506	0.40421	-4.48167	0.583508	0.40503	-0.00530655	0.951615	-0.00814612	0.09032	-0.0117596
1.15749	-14.1639	398.034	8.89083	0.500104	-0.00530708	1.24475	0.114633	-3.22141	-0.0719561	0.405437	-4.51108	0.575076	0.405108	-0.00530708	0.951612	-0.00810795	0.0902129	-0.0115004
1.16149	-14.1613	402.917	10.5507	0.499842	-0.00530762	1.24564	0.115179	-3.27706	-0.0858126	0.406697	-4.54249	0.565837	0.405195	-0.00530762	0.951616	-0.00805372	0.0899537	-0.0112051
1.16548	-14.2018	408.323	12.2962	0.499568	-0.00530815	1.2465	0.116097	-3.33794	-0.100518	0.408035	-4.57556	0.556072	0.405287	-0.00530815	0.951626	-0.00798509	0.089542	-0.0108821
1.16947	-14.2836	414.231	14.1369	0.499283	-0.0053087	1.24732	0.117374	-3.40392	-0.116169	0.409491	-4.60967	0.546006	0.405383	-0.0053087	0.95164	-0.00790432	0.0889793	-0.0105394
1.17346	-14.404	420.616	16.0825	0.498989	-0.00530924	1.2481	0.118996	-3.47482	-0.132862	0.411106	-4.64375	0.535815	0.40548	-0.00530924	0.951657	-0.00781538	0.0882805	-0.0101862
1.17745	-14.5601	427.45	18.1415	0.498685	-0.00530978	1.24885	0.120939	-3.55049	-0.150687	0.412894	-4.6772	0.525642	0.405575	-0.00530978	0.951677	-0.00771915	0.0874413	-0.009827
1.18144	-14.748	434.704	20.3221	0.498372	-0.00531033	1.24956	0.123178	-3.63073	-0.169734	0.414846	-4.70949	0.51559	0.40567	-0.00531033	0.951697	-0.00761293	0.0864248	-0.0094617
1.18543	-14.9636	442.345	22.6312	0.498051	-0.00531088	1.25024	0.125681	-3.71532	-0.190082	0.416964	-4.74034	0.505783	0.405762	-0.00531088	0.951717	-0.00749529	0.0852118	-0.00909189
1.18943	-15.2021	450.339	25.0749	0.497722	-0.00531143	1.25088	0.128414	-3.80407	-0.211811	0.419241	-4.76989	0.496288	0.405853	-0.00531143	0.951735	-0.0073656	0.0838016	-0.00871923
1.19342	-15.4587	458.648	27.6583	0.497385	-0.00531198	1.25149	0.131339	-3.89674	-0.234989	0.421659	-4.79819	0.48717	0.405942	-0.00531198	0.951751	-0.00722583	0.0822248	-0.00834846
1.19741	-15.7281	467.232	30.3853	0.497042	-0.00531253	1.25206	0.134416	-3.99307	-0.259679	0.424214	-4.82524	0.47849	0.406027	-0.00531253	0.951765	-0.00707761	0.0805046	-0.00798314
1.2014	-16.0051	476.048	33.2582	0.496692	-0.00531308	1.2526	0.137601	-4.09274	-0.285931	0.426907	-4.85096	0.470271	0.406109	-0.00531308	0.951777	-0.00692319	0.0786684	-0.00762642
1.20539	-16.2846	485.052	36.2783	0.496336	-0.00531363	1.25311	0.140851	-4.19539	-0.313784	0.429733	-4.87517	0.462529	0.406186	-0.00531363	0.951786	-0.00676603	0.0767583	-0.0072824
1.20938	-16.5616	494.196	39.4452	0.495973	-0.00531419	1.25358	0.144122	-4.30058	-0.343259	0.432687	-4.89774	0.455256	0.406258	-0.00531419	0.951795	-0.00660893	0.0748089	-0.00695365
1.21337	-16.8317	503.429	42.7572	0.495606	-0.00531474	1.25403	0.14737	-4.40779	-0.374361	0.435771	-4.91857	0.448439	0.406325	-0.00531474	0.951802	-0.00645375	0.0728438	-0.00664136
1.21737	-17.0903	512.699	46.2106	0.495233	-0.00531529	1.25444	0.15055	-4.51642	-0.407074	0.438975	-4.93779	0.442037	0.406387	-0.00531529	0.951807	-0.00630155	0.0708826	-0.0063455
1.22136	-17.3336	521.947	49.8002	0.494857	-0.00531585	1.25482	0.153621	-4.6258	-0.441358	0.442312	-4.95552	0.436026	0.406444	-0.00531585	0.951811	-0.00615321	0.0689385	-0.00606576
1.22535	-17.5581	531.115	53.5189	0.494478	-0.0053164	1.25518	0.156539	-4.73515	-0.477147	0.445785	-4.97168	0.430396	0.406496	-0.0053164	0.951815	-0.00601181	0.0670477	-0.00580428
1.22934	-17.7607	540.141	57.3577	0.494097	-0.00531695	1.25551	0.159265	-4.8436	-0.514344	0.449359	-4.98633	0.425166	0.406543	-0.00531695	0.951818	-0.00588214	0.0652714	-0.00556545
1.23333	-17.9389	548.959	61.3057	0.493716	-0.0053175	1.25582	0.161763	-4.95022	-0.552822	0.452968	-4.99928	0.420334	0.406584	-0.0053175	0.951823	-0.00576768	0.0636562	-0.00535215
1.23732	-18.0908	557.501	65.3502	0.493335	-0.00531805	1.2561	0.164001	-5.05397	-0.592426	0.45654	-5.01049	0.415892	0.406618	-0.00531805	0.951829	-0.00567209	0.0622506	-0.00516706
1.24131	-18.2151	565.698	69.4766	0.492955	-0.00531859	1.25636	0.165949	-5.15379	-0.632967	0.460022	-5.01967	0.411858	0.406645	-0.00531859	0.951837	-0.00560014	0.0611075	-0.0050138
1.2453	-18.3109	573.476	73.6684	0.492579	-0.00531912	1.2566	0.167585	-5.24857	-0.674229	0.463333	-5.02676	0.40825	0.406664	-0.00531912	0.951848	-0.00555415	0.0602576	-0.00489385
1.2493	-18.3779	580.76	77.9077	0.492207	-0.00531965	1.25683	0.168891	-5.33712	-0.715963	0.466398	-5.03159	0.405066	0.406677	-0.00531965	0.951862	-0.00553644	0.0597281	-0.0048084
1.25329	-18.4166	587.474	82.1745	0.491841	-0.00532016	1.25704	0.169856	-5.41825	-0.757892	0.469153	-5.03397	0.402323	0.406682	-0.00532016	0.95188	-0.0055472	0.059521	-0.00475702
1.25728	-18.4276	593.54	86.4475	0.491483	-0.00532067	1.25723	0.170471	-5.49077	-0.799715	0.47153	-5.03377	0.400068	0.406681	-0.00532067	0.951901	-0.00558606	0.0596334	-0.00473947
1.26127	-18.412	598.881	90.7036	0.491135	-0.00532116	1.25741	0.170736	-5.55349	-0.841105	0.473461	-5.03045	0.398302	0.406672	-0.00532116	0.951926	-0.00565475	0.0600809	-0.00475709
1.26526	-18.371	603.417	94.9186	0.490797	-0.00532164	1.25758	0.170651	-5.60524	-0.881715	0.474922	-5.02367	0.397017	0.406656	-0.00532164	0.951955	-0.00575357	0.0608607	-0.00480978
1.26925	-18.306	607.071	99.0665	0.490472	-0.00532211	1.25774	0.170222	-5.64496	-0.921188	0.475924	-5.01323	0.396212	0.406633	-0.00532211	0.951989	-0.00588282	0.0619677	-0.00489751
1.27324	-18.2184	609.769	103.12	0.49016	-0.00532255	1.2579	0.169457	-5.67169	-0.959159	0.476481	-4.99961	0.395885	0.406602	-0.00532255	0.952026	-0.00604014	0.063378	-0.00501846
1.27724	-18.1093	611.437	107.051	0.489862	-0.00532298	1.25805	0.168364	-5.68459	-0.995265	0.476616	-4.98353	0.395993	0.406565	-0.00532298	0.952067	-0.00622272	0.0650652	-0.00517011
1.28123	-17.9796	612.004	110.83	0.48958	-0.00532339	1.25819	0.166954	-5.68291	-1.02914	0.476331	-4.96565	0.396456	0.406522	-0.00532339	0.952111	-0.0064246	0.0669751	-0.00534728
1.28522	-17.8297	611.405	114.425	0.489314	-0.00532378	1.25834	0.165233	-5.66609	-1.06041	0.475631	-4.94681	0.397209	0.406476	-0.00532378	0.952156	-0.00663791	0.0690378	-0.00554345
1.28921	-17.6594	609.582	117.805	0.489064	-0.00532416	1.2585	0.163209	-5.63376	-1.08875	0.47454	-4.92793	0.398177	0.406428	-0.00532416	0.952202	-0.00685593	0.0711965	-0.00575268
1.2932	-17.4682	606.48	120.937	0.488832	-0.00532451	1.25867	0.160882	-5.58569	-1.11383	0.473093	-4.90974	0.399292	0.406379	-0.00532451	0.952246	-0.007072	0.073393	-0.00596879
1.29719	-17.2547	602.055	123.788	0.488617	-0.00532484	1.25885	0.158252	-5.52178	-1.13532	0.471362	-4.89308	0.400487	0.406331	-0.00532484	0.952288	-0.00727897	0.075561	-0.00618449
1.30118	-17.0172	596.27	126.323	0.488418	-0.00532516	1.25906	0.155317	-5.44218	-1.15296	0.469427	-4.87855	0.401707	0.406285	-0.00532516	0.952328	-0.00747464	0.0776808	-0.00639635
1.30517	-16.7537	589.097	128.51	0.488236	-0.00532546	1.2593	0.152072	-5.3472	-1.16648	0.467403	-4.86599	0.402929	0.40624	-0.00532546	0.952365	-0.00766348	0.0797822	-0.00660637
1.30917	-16.4617	580.518	130.316	0.488069	-0.00532575	1.25958	0.148513	-5.23726	-1.17567	0.465386	-4.85556	0.404121	0.406196	-0.00532575	0.952402	-0.00784929	0.081895	-0.00681598
1.31316	-16.139	570.526	131.709	0.487916	-0.00532602	1.25991	0.144636	-5.11297	-1.18036	0.463442	-4.84738	0.405244	0.406153	-0.00532602	0.952439	-0.00803596	0.0840523	-0.00702682
1.31715	-15.7833	559.125	132.658	0.487776	-0.00532629	1.26029	0.14044	-4.9751	-1.18039	0.461585	-4.84133	0.40625	0.406109	-0.00532629	0.952477	-0.00822831	0.0863025	-0.00724189
1.32114	-15.3928	546.332	133.136	0.487647	-0.00532655	1.26074	0.135932	-4.82457	-1.1757	0.459836	-4.83719	0.407093	0.406065	-0.00532655	0.952516	-0.00842959	0.0886741	-0.00746273
1.32513	-14.9661	532.174	133.117	0.487526	-0.00532681	1.26127	0.131118	-4.66237	-1.16624	0.458195	-4.83451	0.407719	0.40602	-0.00532681	0.952559	-0.00864317	0.0911959	-0.00769102
1.32912	-14.5026	516.693	132.58	0.487412	-0.00532707	1.26189	0.126013	-4.48957	-1.15199	0.456647	-4.83263	0.408071	0.405973	-0.00532707	0.952605	-0.00887356	0.0939076	-0.00792964
1.33311	-14.0024	499.945	131.508	0.487303	-0.00532734	1.26262	0.120637	-4.30726	-1.133	0.455196	-4.8314	0.408128	0.405923	-0.00532734	0.952656	-0.00912288	0.0968293	-0.00817956
1.33711	-13.4668	481.995	129.888	0.487197	-0.00532761	1.26346	0.115018	-4.11665	-1.10935	0.453828	-4.8303	0.407875	0.40587	-0.00532761	0.952712	-0.00939572	0.100003	-0.00844433
1.3411	-12.8979	462.928	127.714	0.48709	-0.0053279	1.26443	0.109187	-3.91893	-1.08117	0.452528	-4.82876	0.407348	0.405814	-0.0053279	0.952774	-0.00969626	0.103465	-0.00872819
1.34509	-12.2987	442.838	124.987	0.486981	-0.00532821	1.26554	0.103187	-3.71543	-1.04864	0.451277	-4.82633	0.406576	0.405752	-0.00532821	0.952844	-0.0100247	0.107212	-0.0090317
1.34908	-11.6733	421.835	121.713	0.486867	-0.00532855	1.2668	0.0970612	-3.50746	-1.01201	0.450033	-4.82263	0.405578	0.405686	-0.00532855	0.952919	-0.0103784	0.111217	-0.00935319
1.35307	-11.0264	400.043	117.907	0.486747	-0.0053289	1.26824	0.0908574	-3.29633	-0.971549	0.448732	-4.81759	0.404358	0.405616	-0.0053289	0.953	-0.0107519	0.115432	-0.00968862
1.35706	-10.3633	377.598	113.593	0.486617	-0.00532929	1.26984	0.0846234	-3.08334	-0.927563	0.447298	-4.81105	0.402891	0.405543	-0.00532929	0.953084	-0.0111385	0.119803	-0.0100327
1.36105	-9.68967	354.648	108.802	0.486477	-0.0053297	1.27164	0.0784065	-2.86972	-0.880404	0.445632	-4.80306	0.401138	0.40547	-0.0053297	0.953171	-0.0115297	0.124269	-0.0103785
1.36505	-9.01143	331.35	103.575	0.486325	-0.00533015	1.27363	0.0722573	-2.6569	-0.83051	0.443672	-4.79355	0.399119	0.405396	-0.00533015	0.953259	-0.0119206	0.128793	-0.0107235
1.36904	-8.33454	307.872	97.961	0.486159	-0.00533064	1.27582	0.0662242	-2.44628	-0.778374	0.441346	-4.78279	0.396862	0.405322	-0.00533064	0.953347	-0.0123042	0.133339	-0.0110641
1.37303	-7.6647	284.385	92.0162	0.485979	-0.00533115	1.27821	0.0603499	-2.23917	-0.724512	0.438616	-4.7713	0.394416	0.405251	-0.00533115	0.953432	-0.0126697	0.137822	-0.011393
1.37702	-7.00722	261.061	85.8053	0.485784	-0.00533171	1.2808	0.054672	-2.03686	-0.669473	0.435496	-4.75953	0.39184	0.405184	-0.00533171	0.953513	-0.0130111	0.142198	-0.0117068
1.38101	-6.36682	238.073	79.3989	0.485574	-0.00533229	1.28359	0.0492227	-1.84058	-0.613843	0.432014	-4.74784	0.389166	0.405121	-0.00533229	0.953588	-0.0133223	0.146413	-0.012001
1.385	-5.74744	215.59	72.8725	0.48535	-0.0053329	1.28656	0.0440256	-1.65143	-0.558206	0.428203	-4.73629	0.386446	0.405063	-0.0053329	0.953658	-0.0136034	0.150465	-0.0122768
1.38899	-5.15221	193.768	66.3043	0.485113	-0.00533353	1.2897	0.0390981	-1.47043	-0.503157	0.424119	-4.72457	0.383758	0.405008	-0.00533353	0.953722	-0.0138572	0.154366	-0.0125385
1.39298	-4.58374	172.754	59.773	0.484867	-0.00533418	1.29299	0.0344515	-1.29843	-0.449256	0.419824	-4.71257	0.381162	0.404956	-0.00533418	0.953781	-0.0140862	0.158119	-0.0127889
1.39698	-4.04418	152.677	53.3551	0.484614	-0.00533484	1.29641	0.0300953	-1.13617	-0.39705	0.415384	-4.70002	0.378726	0.404904	-0.00533484	0.953836	-0.0142944	0.161739	-0.0130329
1.40097	-3.53534	133.644	47.122	0.484357	-0.00533549	1.29993	0.0260365	-0.984238	-0.347036	0.41091	-4.68694	0.376502	0.404852	-0.00533549	0.953888	-0.014488	0.165253	-0.0132748
1.40496	-3.05871	115.744	41.1375	0.484098	-0.00533615	1.30352	0.0222816	-0.843157	-0.299672	0.406515	-4.67346	0.374535	0.404799	-0.00533615	0.953938	-0.0146736	0.168694	-0.0135193
1.40895	-2.61561	99.0472	35.456	0.48384	-0.00533679	1.30716	0.0188363	-0.713286	-0.255335	0.402255	-4.65973	0.372862	0.404744	-0.00533679	0.953987	-0.0148552	0.172083	-0.0137697
1.41294	-2.20714	83.6034	30.1218	0.483583	-0.00533742	1.31081	0.0157033	-0.594821	-0.21431	0.398178	-4.64564	0.371484	0.404685	-0.00533742	0.954036	-0.0150384	0.175457	-0.0140302
1.41693	-1.83402	69.4495	25.1701	0.483329	-0.00533804	1.31446	0.012882	-0.487808	-0.176793	0.394353	-4.63105	0.370358	0.404623	-0.00533804	0.954087	-0.0152272	0.178819	-0.0143007
1.42092	-1.49655	56.6087	20.6279	0.483077	-0.00533864	1.31808	0.0103681	-0.392186	-0.142911	0.390823	-4.61624	0.369417	0.404559	-0.00533864	0.954139	-0.0154233	0.182174	-0.0145786
1.42492	-1.19464	45.0939	16.5154	0.482827	-0.00533922	1.32167	0.00815415	-0.307793	-0.112728	0.387598	-4.60147	0.368617	0.404492	-0.00533922	0.954193	-0.0156266	0.185515	-0.0148613
1.42891	-0.927827	34.909	12.8466	0.482579	-0.00533979	1.32522	0.00623067	-0.234425	-0.0862695	0.384699	-4.58707	0.367938	0.404423	-0.00533979	0.954248	-0.015836	0.188825	-0.015146
1.4329	-0.695465	26.0503	9.63093	0.482332	-0.00534035	1.32873	0.00458764	-0.171841	-0.0635305	0.382147	-4.57364	0.367396	0.404355	-0.00534035	0.954303	-0.016049	0.192078	-0.0154295
1.43689	-0.496833	18.5088	6.87374	0.482085	-0.0053409	1.3322	0.00321441	-0.119748	-0.0444717	0.379964	-4.5613	0.367029	0.404286	-0.0053409	0.954359	-0.0162653	0.195257	-0.0157115
1.44088	-0.331379	12.2711	4.57767	0.48184	-0.00534143	1.33563	0.00210069	-0.0777892	-0.029019	0.378151	-4.55025	0.366881	0.404219	-0.00534143	0.954413	-0.0164809	0.198313	-0.0159897
1.44487	-0.19889	7.32059	2.74327	0.481597	-0.00534196	1.33903	0.00123461	-0.0454425	-0.0170288	0.376703	-4.54088	0.366992	0.404153	-0.00534196	0.954465	-0.0166903	0.20119	-0.0162601
1.44886	-0.0994672	3.63894	1.36984	0.481355	-0.00534249	1.34241	0.000604213	-0.0221047	-0.0083211	0.375603	-4.53344	0.367399	0.404092	-0.00534249	0.954512	-0.0168857	0.203806	-0.0165168
1.45286	0	0	0	0	-0.00527091	0	0	0	0	0.374798	-4.52797	0.368112	0.404042	-0.00527091	0.954558	-0.0170589	0.20609	-0.0167546
1.45685	0	0	0	0	-0.00527091	0	0	0	0	0.374224	-4.5246	0.369139	0.403992	-0.00527091	0.95459	-0.0172022	0.207985	-0.0169684
1.46084	0	0	0	0	-0.00527091	0	0	0	0	0.373811	-4.52325	0.370443	0.40395	-0.00527091	0.954611	-0.0173098	0.209455	-0.0171539
1.46483	0	0	0	0	-0.00527091	0	0	0	0	0.373515	-4.52387	0.372002	0.403918	-0.00527091	0.954623	-0.0173786	0.210483	-0.0173082
1.46882	0	0	0	0	-0.00527091	0	0	0	0	0.373285	-4.5266	0.37383	0.403893	-0.00527091	0.954623	-0.017406	0.211071	-0.0174314
1.47281	0	0	0	0	-0.00527091	0	0	0	0	0.373072	-4.53136	0.375912	0.403879	-0.00527091	0.954612	-0.0173904	0.211224	-0.0175227
1.4768	0	0	0	0	-0.00527091	0	0	0	0	0.372823	-4.53786	0.378219	0.403873	-0.00527091	0.95459	-0.0173316	0.210953	-0.0175824
1.48079	0	0	0	0	-0.00527091	0	0	0	0	0.372519	-4.54576	0.380745	0.403874	-0.00527091	0.954558	-0.0172349	0.210313	-0.0176155
1.48479	0	0	0	0	-0.00527091	0	0	0	0	0.372135	-4.5545	0.383477	0.403882	-0.00527091	0.954517	-0.0171037	0.20933	-0.017625
1.48878	0	0	0	0	-0.00527091	0	0	0	0	0.371661	-4.56364	0.386392	0.403895	-0.00527091	0.954469	-0.0169424	0.208036	-0.0176139
1.49277	0	0	0	0	-0.00527091	0	0	0	0	0.371081	-4.57264	0.38946	0.403911	-0.00527091	0.954416	-0.0167573	0.206491	-0.0175872
1.49676	0	0	0	0	-0.00527091	0	0	0	0	0.370385	-4.58109	0.392681	0.403929	-0.00527091	0.95436	-0.0165545	0.204754	-0.017551
1.50075	0	0	0	0	-0.00527091	0	0	0	0	0.369576	-4.58881	0.396055	0.403948	-0.00527091	0.954301	-0.0163384	0.202865	-0.017509
1.50474	0	0	0	0	-0.00527091	0	0	0	0	0.368686	-4.59579	0.39959	0.403967	-0.00527091	0.95424	-0.0161134	0.200859	-0.0174641
1.50873	0	0	0	0	-0.00527091	0	0	0	0	0.367742	-4.60194	0.403293	0.403985	-0.00527091	0.954178	-0.015886	0.198798	-0.0174218
1.51273	0	0	0	0	-0.00527091	0	0	0	0	0.366719	-4.60704	0.407177	0.404	-0.00527091	0.954117	-0.0156585	0.196715	-0.017386
1.51672	0	0	0	0	-0.00527091	0	0	0	0	0.365654	-4.61078	0.411233	0.404012	-0.00527091	0.954057	-0.0154345	0.194624	-0.0173584
1.52071	0	0	0	0	-0.00527091	0	0	0	0	0.364578	-4.61272	0.415435	0.40402	-0.00527091	0.954	-0.0152177	0.192537	-0.0173405
1.5247	0	0	0	0	-0.00527091	0	0	0	0	0.363508	-4.61247	0.419734	0.404025	-0.00527091	0.953945	-0.0150096	0.190453	-0.0173312
1.52869	0	0	0	0	-0.00527091	0	0	0	0	0.362465	-4.6099	0.424064	0.404025	-0.00527091	0.953893	-0.0148123	0.188385	-0.0173295
1.53268	0	0	0	0	-0.00527091	0	0	0	0	0.361415	-4.60534	0.428361	0.404022	-0.00527091	0.953844	-0.0146225	0.186328	-0.0173311
1.53667	0	0	0	0	-0.00527091	0	0	0	0	0.36034	-4.59899	0.432563	0.404018	-0.00527091	0.953798	-0.01444	0.184297	-0.0173342
1.54067	0	0	0	0	-0.00527091	0	0	0	0	0.35924	-4.59125	0.436617	0.404013	-0.00527091	0.953754	-0.0142626	0.182283	-0.0173346
1.54466	0	0	0	0	-0.00527091	0	0	0	0	0.358126	-4.58311	0.440458	0.40401	-0.00527091	0.95371	-0.0140861	0.180267	-0.0173245
1.54865	0	0	0	0	-0.00527091	0	0	0	0	0.357025	-4.57531	0.44403	0.404011	-0.00527091	0.953666	-0.013907	0.178219	-0.017296
1.55264	0	0	0	0	-0.00527091	0	0	0	0	0.355951	-4.56822	0.447291	0.404017	-0.00527091	0.953621	-0.0137246	0.176139	-0.0172464
1.55663	0	0	0	0	-0.00527091	0	0	0	0	0.354936	-4.56229	0.450187	0.40403	-0.00527091	0.953576	-0.0135382	0.174018	-0.0171713
1.56062	0	0	0	0	-0.00527091	0	0	0	0	0.35399	-4.55776	0.452686	0.404051	-0.00527091	0.95353	-0.0133465	0.171842	-0.0170676
1.56461	0	0	0	0	-0.00527091	0	0	0	0	0.353139	-4.55472	0.454788	0.404078	-0.00527091	0.953484	-0.0131532	0.169648	-0.0169393
1.5686	0	0	0	0	-0.00527091	0	0	0	0	0.352398	-4.55306	0.456487	0.404111	-0.00527091	0.953438	-0.0129623	0.167476	-0.016791
1.5726	0	0	0	0	-0.00527091	0	0	0	0	0.351793	-4.55273	0.457781	0.404148	-0.00527091	0.953395	-0.0127786	0.165374	-0.0166285
1.57659	0	0	0	0	-0.00527091	0	0	0	0	0.351347	-4.55398	0.458689	0.404188	-0.00527091	0.953354	-0.0126051	0.163381	-0.0164562
1.58058	0	0	0	0	-0.00527091	0	0	0	0	0.351092	-4.55695	0.459191	0.404231	-0.00527091	0.953316	-0.012447	0.161553	-0.0162793
1.58457	0	0	0	0	-0.00527091	0	0	0	0	0.350996	-4.56176	0.459281	0.404275	-0.00527091	0.953283	-0.012304	0.159911	-0.0160999
1.58856	0	0	0	0	-0.00527091	0	0	0	0	0.351024	-4.56836	0.458953	0.404321	-0.00527091	0.953253	-0.012176	0.158462	-0.0159197
1.59255	0	0	0	0	-0.00527091	0	0	0	0	0.351163	-4.57674	0.458223	0.404368	-0.00527091	0.953227	-0.0120648	0.157242	-0.015743
1.59654	0	0	0	0	-0.00527091	0	0	0	0	0.351375	-4.58649	0.457096	0.404413	-0.00527091	0.953206	-0.0119715	0.156263	-0.0155734
1.60054	0	0	0	0	-0.00527091	0	0	0	0	0.351613	-4.59738	0.455572	0.404457	-0.00527091	0.953189	-0.0118973	0.155558	-0.0154148
1.60453	0	0	0	0	-0.00527091	0	0	0	0	0.35188	-4.60935	0.45366	0.404499	-0.00527091	0.953178	-0.0118441	0.155148	-0.0152699
1.60852	0	0	0	0	-0.00527091	0	0	0	0	0.352182	-4.62241	0.451414	0.404539	-0.00527091	0.953171	-0.0118105	0.155013	-0.0151383
1.61251	0	0	0	0	-0.00527091	0	0	0	0	0.352511	-4.63658	0.448908	0.404576	-0.00527091	0.953169	-0.0117953	0.155143	-0.0150208
1.6165	0	0	0	0	-0.00527091	0	0	0	0	0.352867	-4.65141	0.446219	0.404608	-0.00527091	0.953172	-0.0118019	0.15557	-0.0149241
1.62049	0	0	0	0	-0.00527091	0	0	0	0	0.353261	-4.66693	0.44338	0.404637	-0.00527091	0.95318	-0.0118309	0.156298	-0.0148491
1.62448	0	0	0	0	-0.00527091	0	0	0	0	0.353705	-4.68306	0.44043	0.404661	-0.00527091	0.953192	-0.0118821	0.157319	-0.0147955
1.62848	0	0	0	0	-0.00527091	0	0	0	0	0.354218	-4.69964	0.437413	0.40468	-0.00527091	0.953209	-0.0119547	0.15861	-0.0147625
1.63247	0	0	0	0	-0.00527091	0	0	0	0	0.354839	-4.71659	0.434369	0.404696	-0.00527091	0.95323	-0.0120477	0.160141	-0.014748
1.63646	0	0	0	0	-0.00527091	0	0	0	0	0.355606	-4.73354	0.431346	0.404707	-0.00527091	0.953256	-0.0121615	0.161883	-0.0147517
1.64045	0	0	0	0	-0.00527091	0	0	0	0	0.356512	-4.75012	0.428348	0.404714	-0.00527091	0.953285	-0.0122939	0.163802	-0.0147711
1.64444	0	0	0	0	-0.00527091	0	0	0	0	0.357548	-4.76609	0.425393	0.404718	-0.00527091	0.953317	-0.0124417	0.165847	-0.0148025
1.64843	0	0	0	0	-0.00527091	0	0	0	0	0.358724	-4.78133	0.422514	0.404719	-0.00527091	0.953352	-0.012602	0.167968	-0.0148429
1.65242	0	0	0	0	-0.00527091	0	0	0	0	0.360047	-4.79535	0.419727	0.404717	-0.00527091	0.95339	-0.0127753	0.170151	-0.0148929
1.65641	0	0	0	0	-0.00527091	0	0	0	0	0.361544	-4.80782	0.417037	0.404711	-0.00527091	0.95343	-0.0129634	0.172388	-0.0149532
1.66041	0	0	0	0	-0.00527091	0	0	0	0	0.363228	-4.81871	0.414446	0.404702	-0.00527091	0.953474	-0.0131656	0.17466	-0.0150221
1.6644	0	0	0	0	-0.00527091	0	0	0	0	0.365109	-4.82822	0.411984	0.40469	-0.00527091	0.953521	-0.0133798	0.176936	-0.0150976
1.66839	0	0	0	0	-0.00527091	0	0	0	0	0.367183	-4.83646	0.409704	0.404675	-0.00527091	0.953569	-0.0136025	0.179169	-0.0151777
1.67238	0	0	0	0	-0.00527091	0	0	0	0	0.369461	-4.84374	0.407647	0.404659	-0.00527091	0.953618	-0.0138318	0.181338	-0.0152613
1.67637	0	0	0	0	-0.00527091	0	0	0	0	0.371931	-4.85041	0.405845	0.404641	-0.00527091	0.953667	-0.0140652	0.183426	-0.0153477
1.68036	0	0	0	0	-0.00527091	0	0	0	0	0.37455	-4.85659	0.404308	0.404622	-0.00527091	0.953717	-0.0143006	0.185429	-0.0154368
1.68435	0	0	0	0	-0.00527091	0	0	0	0	0.37727	-4.86211	0.40304	0.404601	-0.00527091	0.953766	-0.0145364	0.18734	-0.0155293
1.68835	0	0	0	0	-0.00527091	0	0	0	0	0.380037	-4.86674	0.402069	0.404578	-0.00527091	0.953815	-0.0147725	0.189176	-0.0156289
1.69234	0	0	0	0	-0.00527091	0	0	0	0	0.382787	-4.87034	0.401375	0.404553	-0.00527091	0.953863	-0.0150096	0.190973	-0.0157384
1.69633	0	0	0	0	-0.00527091	0	0	0	0	0.385505	-4.8725	0.400931	0.404523	-0.00527091	0.953913	-0.0152513	0.192766	-0.0158616
1.70032	0	0	0	0	-0.00527091	0	0	0	0	0.388186	-4.87311	0.400737	0.404489	-0.00527091	0.953964	-0.0155001	0.194581	-0.0160012
1.70431	0	0	0	0	-0.00527091	0	0	0	0	0.390831	-4.87216	0.400782	0.40445	-0.00527091	0.954017	-0.0157565	0.196423	-0.0161577
1.7083	0	0	0	0	-0.00527091	0	0	0	0	0.393437	-4.86943	0.40105	0.404406	-0.00527091	0.954073	-0.0160236	0.198319	-0.0163337
1.71229	0	0	0	0	-0.00527091	0	0	0	0	0.395993	-4.86517	0.401523	0.404357	-0.00527091	0.954131	-0.0163004	0.200266	-0.016528
1.71629	0	0	0	0	-0.00527091	0	0	0	0	0.39851	-4.85972	0.402199	0.404303	-0.00527091	0.954191	-0.016586	0.202262	-0.0167396
1.72028	0	0	0	0	-0.00527091	0	0	0	0	0.400984	-4.85347	0.403095	0.404245	-0.00527091	0.954253	-0.0168783	0.204293	-0.0169672
1.72427	0	0	0	0	-0.00527091	0	0	0	0	0.403389	-4.84654	0.404222	0.404184	-0.00527091	0.954315	-0.0171722	0.206316	-0.0172076
1.72826	0	0	0	0	-0.00527091	0	0	0	0	0.405685	-4.83905	0.405596	0.40412	-0.00527091	0.954376	-0.0174627	0.208297	-0.0174589
1.73225	0	0	0	0	-0.00527091	0	0	0	0	0.40785	-4.83093	0.407202	0.404054	-0.00527091	0.954436	-0.017748	0.210222	-0.0177198
1.73624	0	0	0	0	-0.00527091	0	0	0	0	0.409837	-4.82241	0.408983	0.403987	-0.00527091	0.954494	-0.0180219	0.212058	-0.0179844
1.74023	0	0	0	0	-0.00527091	0	0	0	0	0.411594	-4.81419	0.410855	0.403922	-0.00527091	0.954547	-0.0182746	0.213748	-0.0182417
1.74422	0	0	0	0	-0.00527091	0	0	0	0	0.413088	-4.8067	0.412761	0.40386	-0.00527091	0.954594	-0.0184993	0.215258	-0.0184846
1.74822	0	0	0	0	-0.00527091	0	0	0	0	0.414277	-4.80023	0.414675	0.403805	-0.00527091	0.954634	-0.0186907	0.216569	-0.0187087
1.75221	0	0	0	0	-0.00527091	0	0	0	0	0.415137	-4.79494	0.416606	0.403755	-0.00527091	0.954665	-0.0188444	0.217657	-0.0189111
1.7562	0	0	0	0	-0.00527091	0	0	0	0	0.415669	-4.79081	0.418573	0.403712	-0.00527091	0.954688	-0.0189614	0.218541	-0.0190939
1.76019	0	0	0	0	-0.00527091	0	0	0	0	0.41588	-4.78801	0.420571	0.403675	-0.00527091	0.954702	-0.0190414	0.219223	-0.0192561
1.76418	0	0	0	0	-0.00527091	0	0	0	0	0.41579	-4.7864	0.422564	0.403644	-0.00527091	0.954708	-0.0190858	0.219708	-0.0193968
1.76817	0	0	0	0	-0.00527091	0	0	0	0	0.415435	-4.78599	0.424504	0.40362	-0.00527091	0.954706	-0.0190966	0.220001	-0.0195134
1.77216	0	0	0	0	-0.00527091	0	0	0	0	0.414822	-4.78658	0.426348	0.403602	-0.00527091	0.954698	-0.0190775	0.220133	-0.0196076
1.77616	0	0	0	0	-0.00527091	0	0	0	0	0.413954	-4.78823	0.428038	0.403592	-0.00527091	0.954683	-0.0190284	0.220103	-0.0196758
1.78015	0	0	0	0	-0.00527091	0	0	0	0	0.412824	-4.79121	0.429524	0.403589	-0.00527091	0.954661	-0.0189477	0.219906	-0.0197142
1.78414	0	0	0	0	-0.00527091	0	0	0	0	0.41138	-4.79591	0.430768	0.403596	-0.00527091	0.95463	-0.0188306	0.219529	-0.0197181
1.78813	0	0	0	0	-0.00527091	0	0	0	0	0.40955	-4.80257	0.431728	0.403615	-0.00527091	0.954591	-0.0186727	0.218965	-0.0196839
1.79212	0	0	0	0	-0.00527091	0	0	0	0	0.407288	-4.81127	0.432412	0.403643	-0.00527091	0.954543	-0.0184755	0.21825	-0.0196152
1.79611	0	0	0	0	-0.00527091	0	0	0	0	0.404588	-4.822	0.432816	0.403681	-0.00527091	0.954488	-0.0182423	0.217418	-0.0195151
1.8001	0	0	0	0	-0.00527091	0	0	0	0	0.401462	-4.83436	0.432952	0.403725	-0.00527091	0.954426	-0.0179815	0.216531	-0.019392
1.8041	0	0	0	0	-0.00527091	0	0	0	0	0.397957	-4.84785	0.432862	0.403775	-0.00527091	0.954361	-0.0177021	0.215644	-0.0192547
1.80809	0	0	0	0	-0.00527091	0	0	0	0	0.39412	-4.8618	0.432585	0.403827	-0.00527091	0.954294	-0.0174109	0.214778	-0.0191101
1.81208	0	0	0	0	-0.00527091	0	0	0	0	0.389995	-4.87569	0.432178	0.40388	-0.00527091	0.954226	-0.0171128	0.213943	-0.0189638
1.81607	0	0	0	0	-0.00527091	0	0	0	0	0.385637	-4.88904	0.431696	0.403931	-0.00527091	0.954159	-0.0168131	0.213154	-0.0188212
1.82006	0	0	0	0	-0.00527091	0	0	0	0	0.381078	-4.90151	0.431185	0.40398	-0.00527091	0.954093	-0.0165143	0.212411	-0.0186857
1.82405	0	0	0	0	-0.00527091	0	0	0	0	0.376319	-4.91296	0.430688	0.404027	-0.00527091	0.954027	-0.0162152	0.211695	-0.0185579
1.82804	0	0	0	0	-0.00527091	0	0	0	0	0.371375	-4.92356	0.430248	0.404072	-0.00527091	0.953962	-0.0159142	0.210985	-0.0184371
1.83203	0	0	0	0	-0.00527091	0	0	0	0	0.366276	-4.93346	0.42987	0.404116	-0.00527091	0.953897	-0.0156115	0.210275	-0.018322
1.83603	0	0	0	0	-0.00527091	0	0	0	0	0.361089	-4.94317	0.429547	0.404158	-0.00527091	0.953832	-0.0153085	0.209568	-0.0182108
1.84002	0	0	0	0	-0.00527091	0	0	0	0	0.355843	-4.95286	0.429251	0.4042	-0.00527091	0.953767	-0.0150053	0.208854	-0.0181008
1.84401	0	0	0	0	0.0323122	0	0	0	0	0	0	0	0	0.062413	0	0	0	0
