nColumns=19
nRows=208
DataType=double
version=3
OpenSimVersion=4.1
endheader
time	ground_force_calcn_l_vx	ground_force_calcn_l_vy	ground_force_calcn_l_vz	ground_force_calcn_l_px	ground_force_calcn_l_py	ground_force_calcn_l_pz	ground_force_calcn_l_mx	ground_force_calcn_l_my	ground_force_calcn_l_mz	ground_force_calcn_r_vx	ground_force_calcn_r_vy	ground_force_calcn_r_vz	ground_force_calcn_r_px	ground_force_calcn_r_py	ground_force_calcn_r_pz	ground_force_calcn_r_mx	ground_force_calcn_r_my	ground_force_calcn_r_mz
4.39	0	0	0	0	-0.0201756	0	0	0	0	0	0	0	0	-0.00261891	0	0	0	0
4.39999	4.44253	-34.9098	-1.77721	1.13061	-1.25565e-16	0.243846	0.0328857	-0.258419	-0.0131557	0	0	0	0	-1.25565e-16	0	0	0	0
4.40998	4.17771	-30.5967	-0.803039	1.13117	-1.25612e-16	0.243607	0.0391306	-0.286585	-0.00752169	0	0	0	0	-1.25612e-16	0	0	0	0
4.41997	3.80511	-25.3792	0.246532	1.13199	-1.25662e-16	0.243129	0.047161	-0.314553	0.00305555	0	0	0	0	-1.25662e-16	0	0	0	0
4.42995	3.22617	-18.4766	1.42399	1.13379	-1.25718e-16	0.241878	0.0594386	-0.340412	0.0262354	0	0	0	0	-1.25718e-16	0	0	0	0
4.43994	2.32077	-8.98911	2.77541	1.14437	-1.25781e-16	0.235648	0.0859566	-0.332938	0.102796	0	0	0	0	-1.25781e-16	0	0	0	0
4.44993	0.955878	4.01123	4.32779	1.18508	-1.25854e-16	0.233961	-0.0456132	-0.19141	-0.206516	0	0	0	0	-1.25854e-16	0	0	0	0
4.45992	-1.00343	21.3758	6.07671	1.14007	-1.25935e-16	0.246406	0.0202949	-0.432335	-0.122905	0	0	0	0	-1.25935e-16	0	0	0	0
4.46991	-3.68051	43.7676	7.97588	1.13718	-1.26023e-16	0.246526	0.0416749	-0.495586	-0.0903119	0	0	0	0	-1.26023e-16	0	0	0	0
4.4799	-7.17207	71.5547	9.93048	1.13699	-1.26113e-16	0.246433	0.0547501	-0.546234	-0.0758073	0	0	0	0	-1.26113e-16	0	0	0	0
4.48989	-11.5329	104.727	11.797	1.13731	-1.26196e-16	0.246342	0.0654952	-0.594745	-0.0669955	0	0	0	0	-1.26196e-16	0	0	0	0
4.49987	-16.7623	142.859	13.3925	1.13766	-1.26259e-16	0.246221	0.0756048	-0.644351	-0.0604054	0	0	0	0	-1.26259e-16	0	0	0	0
4.50986	-22.7955	185.141	14.514	1.13774	-1.26281e-16	0.246032	0.0857437	-0.696394	-0.0545934	0	0	0	0	-1.26281e-16	0	0	0	0
4.51985	-29.4999	230.483	14.9697	1.13736	-1.26249e-16	0.245753	0.0960966	-0.750804	-0.0487642	0	0	0	0	-1.26249e-16	0	0	0	0
4.52984	-36.6777	277.672	14.6146	1.13644	-1.26153e-16	0.245377	0.106503	-0.806289	-0.0424372	0	0	0	0	-1.26153e-16	0	0	0	0
4.53983	-44.0728	325.521	13.3829	1.13494	-1.25992e-16	0.244908	0.116533	-0.860712	-0.0353858	0	0	0	0	-1.25992e-16	0	0	0	0
4.54982	-51.3838	372.956	11.3031	1.1329	-1.25769e-16	0.244362	0.12561	-0.911706	-0.0276309	0	0	0	0	-1.25769e-16	0	0	0	0
4.55981	-58.2864	419.039	8.49274	1.1304	-1.25494e-16	0.243761	0.133173	-0.957425	-0.0194043	0	0	0	0	-1.25494e-16	0	0	0	0
4.56979	-64.4614	462.936	5.13304	1.12753	-1.25179e-16	0.243126	0.138862	-0.997249	-0.0110575	0	0	0	0	-1.25179e-16	0	0	0	0
4.57978	-69.6251	503.875	1.43496	1.12442	-1.24835e-16	0.24248	0.142626	-1.03218	-0.00293949	0	0	0	0	-1.24835e-16	0	0	0	0
4.58977	-73.5555	541.124	-2.39426	1.12115	-1.24473e-16	0.241837	0.144733	-1.06476	0.00471113	0	0	0	0	-1.24473e-16	0	0	0	0
4.59976	-76.1116	573.984	-6.17612	1.1178	-1.24103e-16	0.241206	0.145668	-1.09853	0.0118203	0	0	0	0	-1.24103e-16	0	0	0	0
4.60975	-77.2424	601.82	-9.77435	1.11442	-1.23729e-16	0.24059	0.145959	-1.13721	0.0184698	0	0	0	0	-1.23729e-16	0	0	0	0
4.61974	-76.9845	624.106	-13.0969	1.11105	-1.23356e-16	0.239986	0.14602	-1.18377	0.0248415	0	0	0	0	-1.23356e-16	0	0	0	0
4.62973	-75.4509	640.472	-16.0887	1.10768	-1.22982e-16	0.239388	0.146043	-1.2397	0.0311415	0	0	0	0	-1.22982e-16	0	0	0	0
4.63971	-72.8125	650.758	-18.719	1.10429	-1.22607e-16	0.23879	0.145985	-1.30473	0.0375305	0	0	0	0	-1.22607e-16	0	0	0	0
4.6497	-69.2776	655.041	-20.968	1.10084	-1.22226e-16	0.238192	0.145621	-1.37689	0.0440746	0	0	0	0	-1.22226e-16	0	0	0	0
4.65969	-65.0703	653.645	-22.8173	1.09732	-1.21835e-16	0.237592	0.144648	-1.45302	0.0507215	0	0	0	0	-1.21835e-16	0	0	0	0
4.66968	-60.4129	647.128	-24.2438	1.09367	-1.21432e-16	0.236999	0.142786	-1.52949	0.0573004	0	0	0	0	-1.21432e-16	0	0	0	0
4.67967	-55.511	636.245	-25.2203	1.08988	-1.21012e-16	0.236421	0.13986	-1.60302	0.0635427	0	0	0	0	-1.21012e-16	0	0	0	0
4.68966	-50.5451	621.885	-25.7201	1.08591	-1.20573e-16	0.235874	0.135832	-1.67122	0.0691188	0	0	0	0	-1.20573e-16	0	0	0	0
4.69965	-45.6652	605.015	-25.725	1.08177	-1.20114e-16	0.235373	0.130798	-1.73294	0.073684	0	0	0	0	-1.20114e-16	0	0	0	0
4.70964	-40.9895	586.609	-25.2348	1.07745	-1.19636e-16	0.234933	0.124951	-1.7882	0.0769251	0	0	0	0	-1.19636e-16	0	0	0	0
4.71962	-36.6042	567.593	-24.2743	1.07295	-1.19137e-16	0.234566	0.118528	-1.83792	0.0786023	0	0	0	0	-1.19137e-16	0	0	0	0
4.72961	-32.566	548.802	-22.8986	1.0683	-1.18621e-16	0.234282	0.111758	-1.88335	0.0785821	0	0	0	0	-1.18621e-16	0	0	0	0
4.7396	-28.9039	530.953	-21.1927	1.06349	-1.18087e-16	0.234085	0.104829	-1.92567	0.0768618	0	0	0	0	-1.18087e-16	0	0	0	0
4.74959	-25.6221	514.634	-19.2663	1.05856	-1.1754e-16	0.233974	0.0978584	-1.96554	0.0735837	0	0	0	0	-1.1754e-16	0	0	0	0
4.75958	-22.7011	500.306	-17.2439	1.05353	-1.1698e-16	0.233945	0.0908858	-2.00302	0.0690376	0	0	0	0	-1.1698e-16	0	0	0	0
4.76957	-20.0995	488.32	-15.2526	1.04841	-1.16411e-16	0.23399	0.0838678	-2.03758	0.0636433	0	0	0	0	-1.16411e-16	0	0	0	0
4.77956	-17.7549	478.937	-13.4087	1.04325	-1.15837e-16	0.234101	0.0766779	-2.06838	0.0579083	0	0	0	0	-1.15837e-16	0	0	0	0
4.78954	-15.5856	472.342	-11.808	1.03808	-1.15262e-16	0.234271	0.0691135	-2.09458	0.052362	0	0	0	0	-1.15262e-16	0	0	0	0
4.79953	-13.4933	468.667	-10.5175	1.03295	-1.14691e-16	0.234497	0.0609103	-2.11561	0.0474771	0	0	0	0	-1.14691e-16	0	0	0	0
4.80952	-11.3665	467.99	-9.57276	1.02792	-1.14132e-16	0.234775	0.0517685	-2.13144	0.0435988	0	0	0	0	-1.14132e-16	0	0	0	0
4.81951	-9.08475	470.341	-8.9777	1.02305	-1.13591e-16	0.235107	0.0413857	-2.14265	0.0408981	0	0	0	0	-1.13591e-16	0	0	0	0
4.8295	-6.52343	475.698	-8.70771	1.0184	-1.13075e-16	0.235496	0.0294893	-2.15041	0.0393634	0	0	0	0	-1.13075e-16	0	0	0	0
4.83949	-3.5594	483.975	-8.71439	1.01405	-1.12591e-16	0.235943	0.0158595	-2.15643	0.0388284	0	0	0	0	-1.12591e-16	0	0	0	0
4.84948	-0.0768358	495.01	-8.93142	1.01004	-1.12146e-16	0.23645	0.000335714	-2.16282	0.0390235	0.443422	-4.47316	0.428825	0.535325	-1.12146e-16	0.277379	0.000176199	-0.00177746	0.000170399
4.85946	4.02632	508.552	-9.28086	1.00643	-1.11745e-16	0.237015	-0.0171951	-2.17186	0.0396354	0.678498	-6.39922	0.524366	0.535419	-1.11745e-16	0.277333	0.000395434	-0.00372952	0.000305605
4.86945	8.83149	524.246	-9.67958	1.00324	-1.11391e-16	0.237633	-0.0368219	-2.18579	0.040358	0.959479	-8.58949	0.606155	0.535523	-1.11391e-16	0.277288	0.000705005	-0.00631138	0.00044539
4.87944	14.3929	541.619	-10.0456	1.0005	-1.11086e-16	0.238294	-0.0586325	-2.2064	0.0409231	1.27635	-10.9133	0.655986	0.535634	-1.11086e-16	0.277245	0.0011162	-0.00954405	0.00057368
4.88943	20.7313	560.08	-10.3042	0.998193	-1.1083e-16	0.238982	-0.0827132	-2.23459	0.0411114	1.60909	-13.1535	0.649928	0.535748	-5.94743e-17	0.277204	0.00164003	-0.0134065	0.000662427
4.89942	27.8295	578.924	-10.3932	0.996302	-1.1062e-16	0.23968	-0.109109	-2.26975	0.0407478	1.92494	-14.989	0.558518	0.53585	-5.94864e-17	0.277168	0.00227933	-0.0177485	0.000661343
4.90941	35.6275	597.344	-10.2669	0.994787	-1.10451e-16	0.240368	-0.137738	-2.30936	0.0396924	2.17584	-15.9825	0.347845	0.535919	-5.94956e-17	0.277138	0.00302992	-0.0222561	0.000484384
4.9194	44.0204	614.453	-9.89787	0.993599	-1.10319e-16	0.241024	-0.168273	-2.34882	0.0378358	2.29656	-15.5772	-0.0181659	0.53592	-5.94993e-17	0.277112	0.00389246	-0.026402	-3.07895e-05
4.92938	52.8568	629.31	-9.27514	0.99268	-1.10216e-16	0.241625	-0.200049	-2.38178	0.035104	2.20404	-13.1065	-0.574038	0.535775	-5.94939e-17	0.277054	0.00493413	-0.0293412	-0.00128509
4.93937	61.9397	640.956	-8.40154	0.991967	-1.10136e-16	0.242152	-0.232007	-2.40083	0.0314697	1.79866	-7.82091	-1.34749	0.535062	-5.94749e-17	0.276691	0.00668395	-0.0290631	-0.00500738
4.94936	71.0281	648.444	-7.28993	0.991399	-1.10072e-16	0.242585	-0.262726	-2.39853	0.0269648	0	0	0	0	-1.10072e-16	0	0	0	0
4.95935	79.8419	650.88	-5.96045	0.990914	-1.10017e-16	0.242909	-0.290531	-2.36844	0.0216891	-0.406903	14.3028	-3.58352	0.53442	-5.93744e-17	0.278007	0.000611838	-0.0215064	0.00538834
4.96934	88.068	647.463	-4.43934	0.99045	-1.09965e-16	0.243108	-0.313674	-2.30608	0.0158117	-2.44097	32.5325	-5.00498	0.533905	-5.92805e-17	0.278311	0.000736509	-0.00981597	0.00151014
4.97933	95.3696	637.528	-2.7597	0.989947	-1.09908e-16	0.243169	-0.330554	-2.20969	0.00956521	-5.23335	56.1874	-6.54923	0.532795	-5.91497e-17	0.278679	-0.000961143	0.0103192	-0.00120281
4.98932	101.401	620.591	-0.963822	0.989344	-1.0984e-16	0.243081	-0.339959	-2.08061	0.00323134	-8.85272	85.4173	-8.11345	0.531264	-5.89774e-17	0.279138	-0.00404152	0.0389954	-0.00370402
4.9993	105.825	596.406	0.893827	0.988579	-1.09754e-16	0.242832	-0.341265	-1.9233	-0.00288243	-13.323	120.037	-9.56465	0.529326	-5.87614e-17	0.279668	-0.00844417	0.07608	-0.00606214
5.00929	108.338	565.008	2.74449	0.987588	-1.09643e-16	0.242409	-0.33457	-1.74486	-0.00847554	-18.611	159.525	-10.7524	0.527008	-5.8504e-17	0.280254	-0.0140754	0.120649	-0.00813199
5.01928	108.7	526.763	4.50548	0.986307	-1.095e-16	0.2418	-0.32073	-1.55426	-0.0132939	-24.6189	203.088	-11.5294	0.52435	-5.82093e-17	0.28088	-0.0207108	0.170849	-0.00969919
5.02927	106.763	482.392	6.08464	0.984678	-1.09318e-16	0.240987	-0.301259	-1.36119	-0.0171694	-31.1821	249.769	-11.7787	0.521395	-5.78818e-17	0.281534	-0.0279584	0.223947	-0.010561
5.03926	102.501	432.979	7.38918	0.98265	-1.09091e-16	0.23995	-0.27813	-1.17486	-0.02005	-38.0722	298.566	-11.4377	0.518191	-5.75268e-17	0.282205	-0.03527	0.276591	-0.0105959
5.04925	96.0326	379.941	8.33813	0.980195	-1.08817e-16	0.238664	-0.253477	-1.00285	-0.0220084	-45.0084	348.51	-10.5124	0.514792	-5.71503e-17	0.282881	-0.0420067	0.325267	-0.00981134
5.05924	87.626	324.959	8.8758	0.977316	-1.08495e-16	0.237102	-0.229294	-0.850329	-0.0232256	-51.6767	398.669	-9.07257	0.511258	-5.67587e-17	0.283552	-0.0475558	0.366878	-0.00834909
5.06922	77.6922	269.876	8.98283	0.974063	-1.08131e-16	0.235238	-0.207177	-0.719662	-0.023954	-57.7572	448.119	-7.23174	0.507647	-5.63585e-17	0.284207	-0.0514608	0.399267	-0.00644337
5.07921	66.7536	216.557	8.68138	0.970546	-1.07736e-16	0.233048	-0.188191	-0.610514	-0.0244744	-62.9525	495.898	-5.11941	0.504011	-5.59554e-17	0.284843	-0.0535092	0.42151	-0.00435147
5.0892	55.3946	166.736	8.03262	0.966948	-1.07329e-16	0.23052	-0.172855	-0.520288	-0.0250652	-67.0156	540.983	-2.85427	0.500389	-5.55539e-17	0.285462	-0.0537419	0.433831	-0.00228893
5.09919	44.201	121.865	7.12638	0.963519	-1.06935e-16	0.227647	-0.161286	-0.444676	-0.0260036	-69.7723	582.305	-0.525896	0.496805	-5.51564e-17	0.286072	-0.0523845	0.43719	-0.000394839
5.10918	33.6982	82.9959	6.06606	0.96056	-1.06581e-16	0.224405	-0.153496	-0.378048	-0.027631	-71.1343	618.803	1.81272	0.493259	-5.4763e-17	0.286688	-0.0497384	0.432678	0.00126749
5.11917	24.3012	50.7184	4.953	0.958373	-1.0628e-16	0.220606	-0.149906	-0.312866	-0.0305535	-71.1018	649.5	4.14193	0.489734	-5.43719e-17	0.28733	-0.0460782	0.420915	0.00268422
5.12916	16.2859	25.1573	3.87399	0.957718	-1.06037e-16	0.21508	-0.151295	-0.233709	-0.035989	-69.7564	673.603	6.46366	0.486197	-5.39793e-17	0.288017	-0.0415935	0.401648	0.00385407
5.13914	9.78433	6.03018	2.89406	0.965019	-1.0585e-16	0.199069	-0.11975	-0.0738032	-0.0354203	-67.2475	690.582	8.78526	0.482602	-5.35804e-17	0.288767	-0.0363878	0.373676	0.00475373
5.14913	4.79835	-7.25934	2.05421	0.954226	-1.05715e-16	0.200528	0.121869	-0.184374	0.0521731	-63.7737	700.228	11.1035	0.478899	-5.31693e-17	0.289594	-0.0305254	0.335165	0.0053147
5.15912	1.22696	-15.5129	1.37309	0.95032	-1.05622e-16	0.214723	0.0188747	-0.238639	0.0211226	-59.5627	702.678	13.3926	0.475036	-5.27405e-17	0.290504	-0.0240952	0.284258	0.00541779
5.16911	-1.10206	-19.6333	0.850961	0.949655	-1.05565e-16	0.215535	-0.0117581	-0.209472	0.00907907	-54.8511	698.399	15.5994	0.47097	-5.22889e-17	0.291494	-0.0172639	0.219815	0.00490977
5.1791	-2.40124	-20.5376	0.474756	0.949757	-1.05534e-16	0.215239	-0.0206099	-0.176275	0.00407484	-49.8672	688.145	17.6454	0.466665	-5.18109e-17	0.292554	-0.0102973	0.142099	0.00364368
5.18909	-2.8973	-19.0961	0.223238	0.950567	-1.05523e-16	0.214904	-0.0215464	-0.142012	0.00166016	-44.8164	672.887	19.436	0.462104	-5.13041e-17	0.293666	-0.00354601	0.0532409	0.00153784
5.19908	-2.81193	-16.0978	0.0715084	0.952573	-1.05526e-16	0.214652	-0.0186692	-0.106878	0.000474765	-39.8715	653.735	20.8747	0.457285	-5.07686e-17	0.294805	0.00260014	-0.042632	-0.0013613
5.20906	-2.3498	-12.2405	-0.00540735	0.957156	-1.05538e-16	0.214437	-0.0137929	-0.0718496	-3.17403e-05	-35.1671	631.854	21.8784	0.452226	-5.02063e-17	0.295944	0.00777209	-0.139643	-0.00483522
5.21905	-1.69303	-8.14057	-0.0299882	0.968477	-1.05556e-16	0.214116	-0.00807207	-0.0388128	-0.000142978	-30.7982	608.394	22.3932	0.446962	-4.96212e-17	0.297055	0.0116807	-0.230744	-0.00849299
5.22904	-1.0008	-4.35669	-0.0205997	1.00301	-1.05576e-16	0.213188	-0.00234688	-0.0102165	-4.83063e-05	-26.8208	584.424	22.4053	0.441545	-4.90191e-17	0.298112	0.0141594	-0.308534	-0.0118284
5.23903	0	0	0	0	-4.8407e-17	0	0	0	0	-23.2557	560.9	21.9465	0.436037	-4.8407e-17	0.299094	0.0151818	-0.366167	-0.0143271
5.24902	0	0	0	0	-4.77931e-17	0	0	0	0	-20.0929	538.635	21.0921	0.430511	-4.77931e-17	0.299986	0.0148537	-0.398186	-0.0155924
5.25901	0	0	0	0	-4.71854e-17	0	0	0	0	-17.2958	518.295	19.9526	0.425039	-4.71854e-17	0.300778	0.0133859	-0.401129	-0.0154421
5.269	0	0	0	0	-4.65923e-17	0	0	0	0	-14.8062	500.411	18.6595	0.419694	-4.65923e-17	0.301467	0.0110596	-0.373785	-0.0139378
5.27899	0	0	0	0	-4.60213e-17	0	0	0	0	-12.5478	485.392	17.3502	0.414546	-4.60213e-17	0.302054	0.00819636	-0.317064	-0.0113333
5.28897	0	0	0	0	-4.54792e-17	0	0	0	0	-10.4303	473.543	16.1517	0.409657	-4.54792e-17	0.30254	0.00514369	-0.233526	-0.00796519
5.29896	0	0	0	0	-4.49717e-17	0	0	0	0	-8.35335	465.083	15.1681	0.405078	-4.49717e-17	0.302926	0.00227581	-0.126709	-0.00413245
5.30895	0	0	0	0	-4.45032e-17	0	0	0	0	-6.21025	460.162	14.4709	0.400849	-4.45032e-17	0.303214	4.94816e-06	-0.000366644	-1.153e-05
5.31894	0	0	0	0	-4.40765e-17	0	0	0	0	-3.89233	458.863	14.0947	0.396996	-4.40765e-17	0.303399	-0.00120618	0.142195	0.00436776
5.32893	0	0	0	0	-4.36928e-17	0	0	0	0	-1.29288	461.212	14.037	0.39353	-4.36928e-17	0.30348	-0.00083707	0.29861	0.0090882
5.33892	0	0	0	0	-4.33519e-17	0	0	0	0	1.68936	467.176	14.2618	0.390448	-4.33519e-17	0.30345	0.00169109	0.467654	0.0142764
5.34891	0	0	0	0	-4.3052e-17	0	0	0	0	5.14728	476.656	14.707	0.387736	-4.3052e-17	0.303308	0.00700969	0.649122	0.0200283
5.35889	0.486186	-2.982	-0.33704	-0.1728	-4.27901e-17	0.230675	-0.000339841	0.0020844	0.000235589	9.16293	489.479	15.2936	0.385365	-4.27901e-17	0.303053	0.0157875	0.843357	0.0263503
5.36888	0.788155	-4.6815	-0.441941	-0.172782	-4.25626e-17	0.230669	-0.000430892	0.00255942	0.000241613	13.8051	505.387	15.9371	0.383304	-4.25626e-17	0.302689	0.0286959	1.05052	0.0331275
5.37887	1.15956	-6.73866	-0.5492	-0.172736	-4.2365e-17	0.23067	-0.000512396	0.00297773	0.000242685	19.1267	524.026	16.5583	0.381514	-4.2365e-17	0.302226	0.0463427	1.26968	0.0401196
5.38886	1.59174	-9.08999	-0.646121	-0.172666	-4.21929e-17	0.230676	-0.000569298	0.0032511	0.00023109	25.1609	544.927	17.0921	0.379953	-4.21929e-17	0.301679	0.0691666	1.49799	0.0469859
5.39885	2.06348	-11.5996	-0.71427	-0.172574	-4.20417e-17	0.230682	-0.000579305	0.0032565	0.000200525	31.9177	567.496	17.4937	0.378584	-4.20417e-17	0.301065	0.0973042	1.73007	0.0533313
5.40884	2.53702	-14.0385	-0.72883	-0.172463	1.85645e-17	0.230684	-0.000513038	0.00283887	0.000147384	39.3792	591.01	17.7396	0.377368	-4.19073e-17	0.300407	0.130454	1.95788	0.058767
5.41883	2.95413	-16.0646	-0.658527	-0.172339	1.85512e-17	0.230676	-0.000327086	0.0017787	7.29131e-05	47.4957	614.612	17.8252	0.376273	-4.17861e-17	0.299727	0.167776	2.17109	0.0629666
5.42881	3.23292	-17.2091	-0.466452	-0.172211	1.85404e-17	0.23065	3.57331e-05	-0.00019021	-5.15564e-06	56.1802	637.329	17.7594	0.375273	-4.16751e-17	0.299046	0.207851	2.35794	0.0657048
5.4388	3.26618	-16.8714	-0.112155	-0.172089	1.85347e-17	0.230591	0.000650615	-0.00336073	-2.2341e-05	65.3048	658.09	17.5573	0.374343	-4.15717e-17	0.298384	0.248718	2.50638	0.0668683
5.44879	2.9221	-14.3293	0.444678	-0.171981	1.85379e-17	0.230469	0.00163112	-0.00799865	0.000248221	74.6951	675.764	17.2329	0.373466	-4.1474e-17	0.297757	0.287991	2.60545	0.0664423
5.45878	2.04848	-8.76886	1.23873	-0.171746	1.85545e-17	0.230128	0.0032647	-0.0139751	0.00197418	84.1271	689.202	16.7928	0.372627	-4.13803e-17	0.297179	0.323049	2.64655	0.0644848
5.46877	0	0	0	0	-4.12893e-17	0	0	0	0	93.3246	697.286	16.2338	0.371813	-4.12893e-17	0.296654	0.351266	2.62452	0.0611027
5.47876	-1.94242	14.7791	3.60388	-0.171743	1.8651e-17	0.230479	0.00417264	-0.0317478	-0.00774171	101.962	698.986	15.5415	0.37101	-4.11993e-17	0.296187	0.370279	2.5384	0.0564399
5.48875	-5.36613	34.2574	5.14452	-0.172502	1.87438e-17	0.23016	0.00690599	-0.0440878	-0.00662078	109.669	693.421	14.6938	0.370201	-4.11087e-17	0.295771	0.37826	2.39168	0.0506803
5.49873	-9.89354	59.5293	6.84432	-0.173284	1.88752e-17	0.229813	0.00937994	-0.056439	-0.00648901	116.047	679.923	13.666	0.369368	-4.10152e-17	0.295398	0.374147	2.19213	0.0440604
5.50872	-15.5667	90.6794	8.59052	-0.174348	1.90504e-17	0.229425	0.0122931	-0.0716102	-0.006784	120.693	658.105	12.4393	0.368484	-4.09162e-17	0.295051	0.357824	1.95112	0.0368793
5.51871	-22.348	127.376	10.2285	-0.17579	1.92724e-17	0.228996	0.0159588	-0.0909589	-0.00730416	123.226	627.923	11.0084	0.367521	-4.08082e-17	0.294711	0.330186	1.68253	0.0294973
5.5287	-30.1103	168.857	11.572	-0.177664	1.954e-17	0.228527	0.0204515	-0.114691	-0.00785989	123.333	589.722	9.38972	0.366445	-4.06877e-17	0.294351	0.293093	1.40144	0.0223142
5.53869	-38.6394	214.004	12.424	-0.17999	1.98513e-17	0.228019	0.0256172	-0.141881	-0.0082369	120.808	544.274	7.62504	0.365221	-4.05509e-17	0.293945	0.249194	1.12269	0.0157283
5.54868	-47.6521	261.49	12.608	-0.182769	2.02043e-17	0.227472	0.0310816	-0.17056	-0.0082237	115.598	492.773	5.78173	0.363818	-4.03942e-17	0.29346	0.201631	0.859517	0.0100847
5.55867	-56.825	309.974	12.0032	-0.185988	2.05971e-17	0.226887	0.0362882	-0.197948	-0.00766519	107.829	436.797	3.94684	0.362214	-4.02152e-17	0.29287	0.153687	0.62256	0.00562536
5.56865	-65.8249	358.265	10.5743	-0.189621	2.10272e-17	0.226265	0.0405802	-0.220866	-0.00651891	97.8201	378.219	2.21645	0.3604	-4.00131e-17	0.292147	0.108397	0.419114	0.0024561
5.57864	-74.3337	405.402	8.38156	-0.193626	2.14908e-17	0.225612	0.0433266	-0.236295	-0.00488532	86.0719	319.078	0.682066	0.358391	-3.97896e-17	0.291273	0.0682243	0.252915	0.000540635
5.58863	-82.0644	450.641	5.56854	-0.197945	2.19828e-17	0.224939	0.0440722	-0.242014	-0.00299055	73.2206	261.415	-0.583074	0.356231	-3.95495e-17	0.290238	0.0348276	0.124343	-0.000277341
5.59862	-88.7692	493.393	2.33307	-0.202507	2.24967e-17	0.224255	0.042669	-0.237161	-0.00112144	59.9739	207.103	-1.53441	0.353994	-3.93011e-17	0.289044	0.00897447	0.0309908	-0.000229609
5.60861	-94.2469	533.153	-1.10929	-0.207238	2.30256e-17	0.22357	0.0393435	-0.222565	0.000463076	47.0302	157.691	-2.16078	0.351782	-3.9056e-17	0.287708	-0.009405	-0.0315348	0.000432108
5.6186	-98.3514	569.439	-4.56005	-0.212066	2.35626e-17	0.222891	0.0346663	-0.200713	0.0016073	35.0021	114.3	-2.48262	0.349713	-3.88274e-17	0.286264	-0.0210499	-0.0687387	0.00149303
5.62859	-101.001	601.774	-7.86426	-0.216932	2.41019e-17	0.222218	0.0294187	-0.175279	0.00229063	24.3575	77.5706	-2.54501	0.34789	-3.86276e-17	0.284753	-0.0271362	-0.0864199	0.00283534
5.63857	-102.185	629.691	-10.924	-0.221791	2.46394e-17	0.221547	0.0243885	-0.150289	0.00260724	15.3894	47.684	-2.40762	0.346341	-3.84622e-17	0.283202	-0.0290477	-0.0900046	0.00454443
5.64856	-101.958	652.766	-13.6979	-0.226621	2.51731e-17	0.220871	0.020161	-0.129077	0.00270861	8.21422	24.414	-2.13454	0.344962	-3.83318e-17	0.281499	-0.0282399	-0.0839334	0.00733837
5.65855	-100.436	670.663	-16.1885	-0.231418	2.5703e-17	0.220178	0.0169824	-0.1134	0.00273727	2.79503	7.21542	-1.78571	0.342044	-3.82343e-17	0.278018	-0.0264269	-0.0682215	0.0168838
5.66854	-97.7847	683.183	-18.4234	-0.236192	2.62304e-17	0.219458	0.0147373	-0.102963	0.00277661	-1.02185	-4.67723	-1.41142	0.339889	-3.81655e-17	0.283704	-0.0131239	-0.0600708	-0.0181271
5.67853	-94.1975	690.304	-20.4342	-0.240967	2.67583e-17	0.218703	0.0130338	-0.095515	0.00282741	-3.46489	-12.1508	-1.04962	0.343009	-3.81206e-17	0.281457	-0.0140456	-0.0492556	-0.00425485
5.68852	-89.8837	692.205	-22.2399	-0.245772	2.72897e-17	0.217912	0.011355	-0.0874463	0.00280957	-4.79821	-16.1241	-0.725734	0.343022	-3.80944e-17	0.280543	-0.0108501	-0.0364612	-0.00164109
5.69851	-85.0511	689.266	-23.8362	-0.250633	2.78279e-17	0.217086	0.00922193	-0.0747357	0.00258452	-5.28937	-17.4761	-0.453876	0.342978	-3.80823e-17	0.280017	-0.00766409	-0.0253222	-0.000657648
5.70849	-79.8939	682.049	-25.193	-0.255573	2.83753e-17	0.216237	0.00632655	-0.0540094	0.00199495	-5.18605	-16.9949	-0.239086	0.342983	-3.80802e-17	0.279691	-0.0049378	-0.0161814	-0.000227641
5.71848	-74.5848	671.255	-26.259	-0.260606	2.89333e-17	0.215379	0.00260814	-0.023473	0.000918245	-4.70159	-15.3471	-0.0797718	0.343033	-3.80846e-17	0.27949	-0.00277619	-0.00906216	-4.71035e-05
5.72847	-69.2713	657.666	-26.9726	-0.265732	2.95021e-17	0.214533	-0.00173849	0.0165053	-0.000676925	-4.00813	-13.0659	0.0299433	0.343111	-3.80929e-17	0.279369	-0.00116844	-0.00380893	8.72896e-06
5.73846	-64.0738	642.09	-27.2746	-0.270943	3.00806e-17	0.213722	-0.00631517	0.0632849	-0.00268821	-3.23578	-10.5527	0.098224	0.3432	-3.81029e-17	0.279297	-5.13727e-05	-0.000167539	1.55945e-06
5.74845	-59.0849	625.309	-27.121	-0.276217	3.06664e-17	0.21297	-0.0106126	0.112315	-0.00487137	-2.47586	-8.08916	0.133984	0.343289	-3.81132e-17	0.279249	0.000659863	0.00215591	-3.57093e-05
5.75844	-54.3702	608.038	-26.4931	-0.281526	3.12562e-17	0.212299	-0.0141157	0.15786	-0.00687821	-1.78646	-5.85528	0.14581	0.343367	-3.8123e-17	0.279203	0.00105378	0.00345385	-8.60087e-05
5.76843	-49.9689	590.902	-25.4037	-0.286836	3.1846e-17	0.211727	-0.0163965	0.193895	-0.00833583	-1.19916	-3.9494	0.141298	0.343422	-3.81316e-17	0.279132	0.00121357	0.00399686	-0.000142996
5.77842	-45.8957	574.419	-23.8977	-0.292106	3.24313e-17	0.211267	-0.0171757	0.214967	-0.00894332	0	0	0	0	3.24313e-17	0	0	0	0
5.7884	-42.1423	559.01	-22.0476	-0.297295	3.30075e-17	0.210928	-0.016347	0.21684	-0.00855226	0	0	0	0	3.30075e-17	0	0	0	0
5.79839	-38.6796	545.006	-19.9453	-0.302361	3.35698e-17	0.210713	-0.0139686	0.196821	-0.00720294	0	0	0	0	3.35698e-17	0	0	0	0
5.80838	-35.4604	532.665	-17.6911	-0.30726	3.41134e-17	0.210618	-0.0102363	0.153763	-0.00510686	0	0	0	0	3.41134e-17	0	0	0	0
5.81837	-32.4224	522.189	-15.3832	-0.311949	3.46335e-17	0.210641	-0.00545177	0.0878052	-0.00258667	0	0	0	0	3.46335e-17	0	0	0	0
5.82836	-29.4916	513.734	-13.109	-0.316386	3.51257e-17	0.210773	2.91489e-06	-5.07764e-05	1.29566e-06	0	0	0	0	3.51257e-17	0	0	0	0
5.83835	-26.5871	507.418	-10.9386	-0.320534	3.55858e-17	0.211008	0.00567838	-0.108373	0.00233623	0	0	0	0	3.55858e-17	0	0	0	0
5.84834	-23.6248	503.325	-8.92306	-0.32436	3.60102e-17	0.211337	0.0110606	-0.235646	0.00417759	0	0	0	0	3.60102e-17	0	0	0	0
5.85832	-20.5215	501.502	-7.09401	-0.327839	3.63962e-17	0.211751	0.0155686	-0.380463	0.00538186	0	0	0	0	3.63962e-17	0	0	0	0
5.86831	-17.1985	501.959	-5.46661	-0.330956	3.67422e-17	0.21224	0.0185543	-0.541529	0.00589755	0	0	0	0	3.67422e-17	0	0	0	0
5.8783	-13.5839	504.665	-4.04328	-0.33371	3.7048e-17	0.212794	0.0193123	-0.717488	0.00574838	0	0	0	0	3.7048e-17	0	0	0	0
5.88829	-9.61385	509.546	-2.81821	-0.336108	3.73144e-17	0.213398	0.0171054	-0.906608	0.00501429	0	0	0	0	3.73144e-17	0	0	0	0
5.89828	-5.23459	516.476	-1.78187	-0.33817	3.75437e-17	0.214037	0.011213	-1.10635	0.00381696	0	0	0	0	3.75437e-17	0	0	0	0
5.90827	-0.402949	525.279	-0.924647	-0.339925	3.77388e-17	0.214693	0.00100716	-1.31292	0.00231113	0	0	0	0	3.77388e-17	0	0	0	0
5.91826	4.91208	535.713	-0.238723	-0.341407	3.79037e-17	0.215347	-0.0139462	-1.52098	0.000677774	0	0	0	0	3.79037e-17	0	0	0	0
5.92824	10.7279	547.467	0.28229	-0.342654	3.80425e-17	0.215979	-0.0337739	-1.72355	-0.000888715	0	0	0	0	3.80425e-17	0	0	0	0
5.93823	17.0464	560.151	0.646033	-0.343705	3.81594e-17	0.21657	-0.0581959	-1.91234	-0.00220554	0	0	0	0	3.81594e-17	0	0	0	0
5.94822	23.8519	573.29	0.865516	-0.344596	3.82584e-17	0.217102	-0.0864676	-2.07829	-0.00313766	0	0	0	0	3.82584e-17	0	0	0	0
5.95821	31.1077	586.32	0.963385	-0.345357	3.8343e-17	0.217561	-0.117382	-2.21243	-0.00363525	0	0	0	0	3.8343e-17	0	0	0	0
5.9682	38.7524	598.585	0.974915	-0.346015	3.84161e-17	0.217934	-0.14934	-2.30677	-0.00375703	0	0	0	0	3.84161e-17	0	0	0	0
5.97819	46.695	609.356	0.948601	-0.34659	3.84799e-17	0.218212	-0.180473	-2.35512	-0.00366628	0	0	0	0	3.84799e-17	0	0	0	0
5.98818	54.8098	617.834	0.943713	-0.347096	3.8536e-17	0.218389	-0.208807	-2.35373	-0.00359522	0	0	0	0	3.8536e-17	0	0	0	0
5.99816	62.9321	623.185	1.02488	-0.347543	3.85857e-17	0.218462	-0.232435	-2.30169	-0.0037853	0	0	0	0	3.85857e-17	0	0	0	0
6.00815	70.8544	624.566	1.25432	-0.347941	3.863e-17	0.218431	-0.249692	-2.20098	-0.00442024	0	0	0	0	3.863e-17	0	0	0	0
6.01814	78.3267	621.163	1.68287	-0.348297	3.86697e-17	0.218299	-0.259312	-2.05645	-0.00557137	0	0	0	0	3.86697e-17	0	0	0	0
6.02813	85.06	612.246	2.34093	-0.348622	3.87061e-17	0.218074	-0.260553	-1.87541	-0.00717067	0	0	0	0	3.87061e-17	0	0	0	0
6.03812	90.7371	597.219	3.23071	-0.34893	3.87407e-17	0.217766	-0.253302	-1.6672	-0.00901888	0	0	0	0	3.87407e-17	0	0	0	0
6.04811	95.0298	575.683	4.32092	-0.349241	3.87756e-17	0.217389	-0.238114	-1.44248	-0.0108268	0	0	0	0	3.87756e-17	0	0	0	0
6.0581	97.6255	547.505	5.54544	-0.34958	3.88136e-17	0.216963	-0.216191	-1.21244	-0.0122803	0	0	0	0	3.88136e-17	0	0	0	0
6.06808	98.2588	512.865	6.80725	-0.349977	3.8858e-17	0.216506	-0.189279	-0.987951	-0.013113	0	0	0	0	3.8858e-17	0	0	0	0
6.07807	96.7485	472.31	7.98833	-0.350464	3.89124e-17	0.216041	-0.159491	-0.77861	-0.0131689	0	0	0	0	3.89124e-17	0	0	0	0
6.08806	93.0318	426.757	8.96522	-0.351074	3.89803e-17	0.215591	-0.129057	-0.592013	-0.0124369	0	0	0	0	3.89803e-17	0	0	0	0
6.09805	87.1923	377.478	9.62768	-0.351835	3.90647e-17	0.215174	-0.100056	-0.43317	-0.0110481	0	0	0	0	3.90647e-17	0	0	0	0
6.10804	79.4708	326.03	9.89713	-0.352761	3.91675e-17	0.214808	-0.0741648	-0.304262	-0.00923632	0	0	0	0	3.91675e-17	0	0	0	0
6.11803	70.2574	274.146	9.74038	-0.353854	3.92886e-17	0.214502	-0.0524795	-0.204776	-0.00727568	0	0	0	0	3.92886e-17	0	0	0	0
6.12802	60.0591	223.597	9.17533	-0.355093	3.94259e-17	0.214263	-0.0354551	-0.131998	-0.00541654	0	0	0	0	3.94259e-17	0	0	0	0
6.138	49.4483	176.035	8.26683	-0.356433	3.95745e-17	0.21409	-0.0229582	-0.0817307	-0.00383818	0	0	0	0	3.95745e-17	0	0	0	0
6.14799	38.9982	132.845	7.1137	-0.357806	3.97266e-17	0.213978	-0.0144145	-0.0491021	-0.00262937	0	0	0	0	3.97266e-17	0	0	0	0
6.15798	29.2198	95.0389	5.83043	-0.359123	3.98728e-17	0.213915	-0.00900472	-0.0292883	-0.00179677	0	0	0	0	3.98728e-17	0	0	0	0
6.16797	20.5111	63.1975	4.52838	-0.360299	4.00035e-17	0.213886	-0.00585828	-0.0180502	-0.00129337	0	0	0	0	4.00035e-17	0	0	0	0
6.17796	13.1292	37.474	3.30121	-0.361285	4.01139e-17	0.213866	-0.00420889	-0.0120132	-0.00105829	0	0	0	0	4.01139e-17	0	0	0	0
6.18795	7.18632	17.6458	2.21646	-0.36205	4.02025e-17	0.213799	-0.00351281	-0.00862559	-0.00108345	0	0	0	0	4.02025e-17	0	0	0	0
6.19794	2.66681	3.1966	1.31347	-0.362168	4.02702e-17	0.212906	-0.00359215	-0.00430577	-0.00176923	0	0	0	0	4.02702e-17	0	0	0	0
6.20792	-0.543721	-6.58806	0.606107	-0.363075	4.0319e-17	0.214143	-0.000509881	-0.00617803	0.000568385	0	0	0	0	4.0319e-17	0	0	0	0
6.21791	-2.62423	-12.5261	0.0880637	-0.363456	4.0352e-17	0.214175	-0.000924345	-0.00441211	3.10191e-05	0	0	0	0	4.0352e-17	0	0	0	0
6.2279	-3.78595	-15.455	-0.260805	-0.363644	4.03722e-17	0.21418	-0.000690379	-0.00281826	-4.75585e-05	0	0	0	0	4.03722e-17	0	0	0	0
6.23789	-4.24551	-16.1666	-0.468491	-0.363737	4.03827e-17	0.214186	-0.000366668	-0.00139625	-4.04618e-05	0	0	0	0	4.03827e-17	0	0	0	0
6.24788	-4.20518	-15.3618	-0.565813	-0.363766	4.03861e-17	0.214191	-5.55407e-05	-0.000202894	-7.47308e-06	0	0	0	0	4.03861e-17	0	0	0	0
6.25787	-3.84046	-13.6255	-0.582696	-0.36375	4.03846e-17	0.214191	0.00020077	0.000712309	3.04619e-05	0	0	0	0	4.03846e-17	0	0	0	0
6.26786	-3.29391	-11.4184	-0.545755	-0.363708	4.03803e-17	0.214186	0.00038527	0.00133555	6.38339e-05	0	0	0	0	4.03803e-17	0	0	0	0
6.27784	-2.67402	-9.08086	-0.477012	-0.363651	4.03744e-17	0.214174	0.000497576	0.00168974	8.87612e-05	0	0	0	0	4.03744e-17	0	0	0	0
6.28783	-2.05757	-6.84604	-0.393503	-0.363587	4.0368e-17	0.214155	0.00054809	0.00182362	0.00010482	0	0	0	0	4.0368e-17	0	0	0	0
6.29782	-1.494	-4.8574	-0.307495	-0.363524	4.03618e-17	0.214126	0.000546927	0.00177821	0.000112569	0	0	0	0	4.03618e-17	0	0	0	0
6.30781	-1.01074	-3.18788	-0.227086	-0.36346	4.03562e-17	0.214081	0.000508784	0.00160472	0.00011431	0	0	0	0	4.03562e-17	0	0	0	0
6.3178	0	0	0	0	-0.162132	0	0	0	0	0	0	0	0	-0.0265841	0	0	0	0
6.32779	0	0	0	0	-0.15069	0	0	0	0	0	0	0	0	-0.0270387	0	0	0	0
6.33778	0	0	0	0	-0.138946	0	0	0	0	0	0	0	0	-0.0272533	0	0	0	0
6.34777	0	0	0	0	-0.127084	0	0	0	0	0	0	0	0	-0.027244	0	0	0	0
6.35775	0	0	0	0	-0.115263	0	0	0	0	0	0	0	0	-0.0270431	0	0	0	0
6.36774	0	0	0	0	-0.103613	0	0	0	0	0	0	0	0	-0.0266968	0	0	0	0
6.37773	0	0	0	0	-0.0922901	0	0	0	0	0	0	0	0	-0.0262555	0	0	0	0
6.38772	0	0	0	0	-0.0814649	0	0	0	0	0	0	0	0	-0.0257702	0	0	0	0
6.39771	0	0	0	0	-0.0713169	0	0	0	0	0	0	0	0	-0.0252906	0	0	0	0
6.4077	0	0	0	0	-0.062024	0	0	0	0	0	0	0	0	-0.0248631	0	0	0	0
6.41769	0	0	0	0	-0.0537777	0	0	0	0	0	0	0	0	-0.0245115	0	0	0	0
6.42767	0	0	0	0	-0.0467436	0	0	0	0	0	0	0	0	-0.0242525	0	0	0	0
6.43766	0	0	0	0	-0.041057	0	0	0	0	0	0	0	0	-0.0240969	0	0	0	0
6.44765	0	0	0	0	-0.0368212	0	0	0	0	0	0	0	0	-0.0240493	0	0	0	0
6.45764	0	0	0	0	-0.0341075	0	0	0	0	0	0	0	0	-0.0241099	0	0	0	0
