nColumns=19
nRows=334
DataType=double
version=3
OpenSimVersion=4.1
endheader
time	ground_force_calcn_l_vx	ground_force_calcn_l_vy	ground_force_calcn_l_vz	ground_force_calcn_l_px	ground_force_calcn_l_py	ground_force_calcn_l_pz	ground_force_calcn_l_mx	ground_force_calcn_l_my	ground_force_calcn_l_mz	ground_force_calcn_r_vx	ground_force_calcn_r_vy	ground_force_calcn_r_vz	ground_force_calcn_r_px	ground_force_calcn_r_py	ground_force_calcn_r_pz	ground_force_calcn_r_mx	ground_force_calcn_r_my	ground_force_calcn_r_mz
0	0	0	0	0	0.0519869	0	0	0	0	0	0	0	0	0.0317632	0	0	0	0
0.00398802	0	0	0	0	-0.00583282	0	0	0	0	-3.5614	-58.2669	13.2358	0.26525	-0.00583282	0.22829	0.00857893	0.140357	-0.0318831
0.00797605	0	0	0	0	-0.00583223	0	0	0	0	-3.9701	-39.7612	10.0503	0.266036	-0.00583223	0.23225	0.000580326	0.00581208	-0.00146909
0.0119641	0	0	0	0	-0.00583163	0	0	0	0	-4.37615	-21.2018	6.85305	0.26895	-0.00583163	0.236841	-0.0244266	-0.118343	0.038252
0.0159521	0	0	0	0	-0.00583102	0	0	0	0	-4.7767	-2.5441	3.63398	0.310438	-0.00583102	0.258399	-0.0795721	-0.0423807	0.0605362
0.0199401	0	0	0	0	-0.00583041	0	0	0	0	-5.16771	16.2618	0.381141	0.261149	-0.00583041	0.256759	0.121117	-0.381133	-0.00893292
0.0239281	0	0	0	0	-0.00582977	0	0	0	0	-5.54386	35.2665	-2.91829	0.261019	-0.00582977	0.255984	0.0856213	-0.544668	0.0450711
0.0279162	0	0	0	0	-0.00582911	0	0	0	0	-5.89845	54.5169	-6.27726	0.261224	-0.00582911	0.260651	0.0742407	-0.686176	0.0790086
0.0319042	0	0	0	0	-0.00582842	0	0	0	0	-6.22329	74.0511	-9.70802	0.261289	-0.00582842	0.266831	0.0692158	-0.823602	0.107973
0.0358922	0	0	0	0	-0.00582769	0	0	0	0	-6.50869	93.894	-13.2213	0.261262	-0.00582769	0.274038	0.0664238	-0.958227	0.134929
0.0398802	0	0	0	0	-0.00582692	0	0	0	0	-6.74334	114.052	-16.8253	0.261174	-0.00582692	0.282335	0.0644178	-1.08951	0.160729
0.0438683	0	0	0	0	-0.00582609	0	0	0	0	-6.91418	134.507	-20.525	0.261043	-0.00582609	0.291504	0.0625167	-1.21619	0.185583
0.0478563	0	0	0	0	-0.00582521	0	0	0	0	-7.00643	155.214	-24.3211	0.260879	-0.00582521	0.30128	0.0603303	-1.3365	0.209422
0.0518443	0	0	0	0	-0.00582426	0	0	0	0	-7.00365	176.094	-28.2096	0.260685	-0.00582426	0.311439	0.057604	-1.44835	0.23202
0.0558323	0	0	0	0	-0.00582323	0	0	0	0	-6.88814	197.032	-32.1806	0.260465	-0.00582323	0.321798	0.0541621	-1.54928	0.253038
0.0598204	0	0	0	0	-0.00582214	0	0	0	0	-6.64225	217.897	-36.2183	0.260221	-0.00582214	0.332202	0.0498958	-1.63682	0.272068
0.0638084	0	0	0	0	-0.00582096	0	0	0	0	-6.24906	238.589	-40.3027	0.259953	-0.00582096	0.342524	0.0447512	-1.7086	0.288618
0.0677964	0	0	0	0	-0.00581971	0	0	0	0	-5.69374	259.04	-44.4083	0.259663	-0.00581971	0.352658	0.0387404	-1.76252	0.302156
0.0717844	0	0	0	0	-0.00581838	0	0	0	0	-4.9649	279.204	-48.5064	0.25935	-0.00581838	0.36252	0.0319534	-1.79691	0.31218
0.0757725	0	0	0	0	-0.00581698	0	0	0	0	-4.05584	299.056	-52.5685	0.259015	-0.00581698	0.372046	0.0245576	-1.81075	0.318296
0.0797605	0	0	0	0	-0.00581551	0	0	0	0	-2.9651	318.598	-56.5709	0.258657	-0.00581551	0.381186	0.0167866	-1.80371	0.320271
0.0837485	0	0	0	0	-0.00581397	0	0	0	0	-1.69545	337.846	-60.4985	0.258275	-0.00581397	0.389906	0.00891337	-1.77613	0.318054
0.0877365	0	0	0	0	-0.00581236	0	0	0	0	-0.253178	356.827	-64.3449	0.257871	-0.00581236	0.398184	0.00122672	-1.72893	0.31177
0.0917246	0	0	0	0	-0.00581068	0	0	0	0	1.35204	375.568	-68.1087	0.257446	-0.00581068	0.406009	-0.00598875	-1.66355	0.301682
0.0957126	0	0	0	0	-0.00580893	0	0	0	0	3.10685	394.092	-71.789	0.257	-0.00580893	0.413378	-0.0124715	-1.58197	0.288176
0.0997006	0	0	0	0	-0.0058071	0	0	0	0	4.99402	412.412	-75.3815	0.256536	-0.0058071	0.420296	-0.0180023	-1.48666	0.271734
0.103689	0	0	0	0	-0.00580521	0	0	0	0	6.99241	430.529	-78.8771	0.256056	-0.00580521	0.42677	-0.0224223	-1.38056	0.252932
0.107677	0	0	0	0	-0.00580325	0	0	0	0	9.07727	448.431	-82.2615	0.255562	-0.00580325	0.432812	-0.02565	-1.26715	0.232449
0.111665	0	0	0	0	-0.00580122	0	0	0	0	11.2208	466.094	-85.5169	0.255059	-0.00580122	0.438436	-0.0276946	-1.15039	0.211069
0.115653	0	0	0	0	-0.00579914	0	0	0	0	13.3933	483.481	-88.624	0.254551	-0.00579914	0.443658	-0.0286599	-1.03459	0.189644
0.119641	0	0	0	0	-0.005797	0	0	0	0	15.5648	500.546	-91.5626	0.254039	-0.005797	0.448498	-0.028733	-0.92402	0.169027
0.123629	0	0	0	0	-0.00579482	0	0	0	0	17.707	517.235	-94.3137	0.253529	-0.00579482	0.452975	-0.0281623	-0.822642	0.150002
0.127617	0	0	0	0	-0.0057926	0	0	0	0	19.795	533.492	-96.86	0.253024	-0.0057926	0.457109	-0.0272233	-0.733692	0.133208
0.131605	0	0	0	0	-0.00579034	0	0	0	0	21.8087	549.26	-99.1865	0.252527	-0.00579034	0.460924	-0.026183	-0.659428	0.119081
0.135593	0	0	0	0	-0.00578805	0	0	0	0	23.7329	564.482	-101.281	0.252041	-0.00578805	0.46444	-0.0252745	-0.601149	0.10786
0.139581	0	0	0	0	-0.00578575	0	0	0	0	25.556	579.1	-103.132	0.251569	-0.00578575	0.467681	-0.0246899	-0.559474	0.0996364
0.143569	0	0	0	0	-0.00578343	0	0	0	0	27.2688	593.057	-104.73	0.251111	-0.00578343	0.470669	-0.0245796	-0.534571	0.0944016
0.147557	0	0	0	0	-0.0057811	0	0	0	0	28.8643	606.297	-106.068	0.25067	-0.0057811	0.473425	-0.025058	-0.526345	0.0920807
0.151545	0	0	0	0	-0.00577878	0	0	0	0	30.3379	618.767	-107.14	0.250246	-0.00577878	0.475971	-0.0262037	-0.534447	0.0925397
0.155533	0	0	0	0	-0.00577646	0	0	0	0	31.6877	630.419	-107.942	0.24984	-0.00577646	0.478326	-0.0280547	-0.55814	0.0955665
0.159521	0	0	0	0	-0.00577416	0	0	0	0	32.9154	641.212	-108.475	0.249451	-0.00577416	0.480513	-0.0306082	-0.596267	0.100872
0.163509	0	0	0	0	-0.00577187	0	0	0	0	34.0258	651.111	-108.74	0.249078	-0.00577187	0.482548	-0.0338253	-0.647273	0.108099
0.167497	0	0	0	0	-0.00576961	0	0	0	0	35.0271	660.085	-108.74	0.248721	-0.00576961	0.484451	-0.0376356	-0.709242	0.116838
0.171485	0	0	0	0	-0.00576738	0	0	0	0	35.9293	668.11	-108.483	0.248378	-0.00576738	0.486239	-0.0419546	-0.780151	0.126676
0.175473	0	0	0	0	-0.00576517	0	0	0	0	36.744	675.169	-107.977	0.248048	-0.00576517	0.487927	-0.0466905	-0.857936	0.137206
0.179461	0	0	0	0	-0.00576299	0	0	0	0	37.483	681.25	-107.232	0.247728	-0.00576299	0.489532	-0.0517489	-0.940531	0.148045
0.183449	0	0	0	0	-0.00576085	0	0	0	0	38.1582	686.346	-106.261	0.247417	-0.00576085	0.491069	-0.0570375	-1.02592	0.158835
0.187437	0	0	0	0	-0.00575875	0	0	0	0	38.7812	690.46	-105.078	0.247113	-0.00575875	0.492549	-0.0624721	-1.11225	0.169268
0.191425	0	0	0	0	-0.00575667	0	0	0	0	39.3624	693.6	-103.697	0.246814	-0.00575667	0.493985	-0.0679727	-1.19774	0.179068
0.195413	0	0	0	0	-0.00575464	0	0	0	0	39.9107	695.778	-102.136	0.246519	-0.00575464	0.495389	-0.0734673	-1.28078	0.18801
0.199401	0	0	0	0	-0.00575263	0	0	0	0	40.4334	697.013	-100.411	0.246226	-0.00575263	0.496769	-0.0788891	-1.35993	0.195911
0.203389	0	0	0	0	-0.00575066	0	0	0	0	40.9357	697.328	-98.542	0.245932	-0.00575066	0.498134	-0.0841781	-1.43395	0.202637
0.207377	0	0	0	0	-0.00574871	0	0	0	0	41.4209	696.752	-96.5455	0.245638	-0.00574871	0.499492	-0.0892819	-1.50184	0.208102
0.211365	0	0	0	0	-0.0057468	0	0	0	0	41.89	695.317	-94.4393	0.245343	-0.0057468	0.500849	-0.0941529	-1.56281	0.212264
0.215353	0	0	0	0	-0.00574491	0	0	0	0	42.3424	693.06	-92.2405	0.245044	-0.00574491	0.502211	-0.0987488	-1.61632	0.215118
0.219341	0	0	0	0	-0.00574304	0	0	0	0	42.7755	690.021	-89.9651	0.244743	-0.00574304	0.503582	-0.103032	-1.66203	0.216696
0.223329	0	0	0	0	-0.00574119	0	0	0	0	43.185	686.245	-87.6283	0.24444	-0.00574119	0.504965	-0.106965	-1.69976	0.217047
0.227317	0	0	0	0	-0.00573936	0	0	0	0	43.5655	681.777	-85.2437	0.244134	-0.00573936	0.506363	-0.110514	-1.72949	0.216241
0.231305	0	0	0	0	-0.00573754	0	0	0	0	43.9103	676.668	-82.8237	0.243827	-0.00573754	0.507778	-0.113645	-1.75129	0.214357
0.235293	0	0	0	0	-0.00573574	0	0	0	0	44.2122	670.968	-80.3791	0.243519	-0.00573574	0.509208	-0.116325	-1.76537	0.211483
0.239281	0	0	0	0	-0.00573395	0	0	0	0	44.4636	664.73	-77.9192	0.243211	-0.00573395	0.510655	-0.118529	-1.77201	0.207714
0.243269	0	0	0	0	-0.00573217	0	0	0	0	44.6571	658.008	-75.4516	0.242905	-0.00573217	0.512115	-0.120234	-1.77161	0.203145
0.247257	0	0	0	0	-0.0057304	0	0	0	0	44.7859	650.856	-72.983	0.242602	-0.0057304	0.513587	-0.121423	-1.76459	0.19787
0.251246	0	0	0	0	-0.00572864	0	0	0	0	44.8438	643.329	-70.5185	0.242303	-0.00572864	0.515067	-0.122081	-1.75137	0.191977
0.255234	0	0	0	0	-0.00572689	0	0	0	0	44.8261	635.481	-68.0623	0.24201	-0.00572689	0.516553	-0.122205	-1.73245	0.185552
0.259222	0	0	0	0	-0.00572515	0	0	0	0	44.7291	627.366	-65.6177	0.241724	-0.00572515	0.51804	-0.121797	-1.70831	0.178676
0.26321	0	0	0	0	-0.00572343	0	0	0	0	44.551	619.037	-63.1873	0.241447	-0.00572343	0.519524	-0.120868	-1.67946	0.171428
0.267198	0	0	0	0	-0.00572173	0	0	0	0	44.2913	610.544	-60.7734	0.241179	-0.00572173	0.521	-0.119436	-1.64639	0.163881
0.271186	0	0	0	0	-0.00572005	0	0	0	0	43.951	601.935	-58.3778	0.240922	-0.00572005	0.522463	-0.117526	-1.60959	0.156104
0.275174	0	0	0	0	-0.0057184	0	0	0	0	43.5325	593.258	-56.0023	0.240677	-0.0057184	0.523908	-0.115167	-1.5695	0.148157
0.279162	0	0	0	0	-0.00571677	0	0	0	0	43.0393	584.558	-53.6485	0.240445	-0.00571677	0.525333	-0.112396	-1.52656	0.140102
0.28315	0	0	0	0	-0.00571517	0	0	0	0	42.4762	575.876	-51.3183	0.240226	-0.00571517	0.526732	-0.109253	-1.4812	0.131995
0.287138	0	0	0	0	-0.0057136	0	0	0	0	41.8487	567.253	-49.0134	0.240022	-0.0057136	0.528105	-0.10578	-1.43383	0.12389
0.291126	0	0	0	0	-0.00571206	0	0	0	0	41.1631	558.724	-46.7356	0.239831	-0.00571206	0.529446	-0.102017	-1.38472	0.115828
0.295114	0	0	0	0	-0.00571056	0	0	0	0	40.4259	550.325	-44.4869	0.239656	-0.00571056	0.530756	-0.0980021	-1.33412	0.107847
0.299102	0	0	0	0	-0.00570908	0	0	0	0	39.6445	542.088	-42.2691	0.239495	-0.00570908	0.532031	-0.0937718	-1.28221	0.0999799
0.30309	0	0	0	0	-0.00570764	0	0	0	0	38.826	534.044	-40.0838	0.239349	-0.00570764	0.53327	-0.0893568	-1.22909	0.0922517
0.307078	0	0	0	0	-0.00570624	0	0	0	0	37.9778	526.219	-37.9327	0.239219	-0.00570624	0.534473	-0.084785	-1.17478	0.0846842
0.311066	0	0	0	0	-0.00570486	0	0	0	0	37.1072	518.64	-35.8168	0.239104	-0.00570486	0.535638	-0.0800815	-1.11928	0.0772966
0.315054	0	0	0	0	-0.00570352	0	0	0	0	36.2212	511.33	-33.7372	0.239004	-0.00570352	0.536765	-0.075268	-1.06255	0.0701061
0.319042	0	0	0	0	-0.00570222	0	0	0	0	35.3264	504.311	-31.6942	0.238919	-0.00570222	0.537854	-0.0703626	-1.00448	0.0631279
0.32303	0	0	0	0	-0.00570094	0	0	0	0	34.429	497.602	-29.6878	0.23885	-0.00570094	0.538905	-0.0653791	-0.944924	0.0563757
0.327018	0	0	0	0	-0.00569969	0	0	0	0	33.5345	491.221	-27.7174	0.238796	-0.00569969	0.53992	-0.060329	-0.883713	0.049864
0.331006	0	0	0	0	-0.00569848	0	0	0	0	32.648	485.184	-25.782	0.238758	-0.00569848	0.540898	-0.05522	-0.82063	0.043607
0.334994	0	0	0	0	-0.00569728	0	0	0	0	31.7739	479.507	-23.8797	0.238734	-0.00569728	0.541841	-0.0500603	-0.755471	0.0376229
0.338982	0	0	0	0	-0.00569612	0	0	0	0	30.9161	474.201	-22.0084	0.238726	-0.00569612	0.542751	-0.0448594	-0.688067	0.0319342
0.34297	0	0	0	0	-0.00569497	0	0	0	0	30.0785	469.281	-20.1651	0.238732	-0.00569497	0.543629	-0.0396294	-0.618292	0.0265681
0.346958	0	0	0	0	-0.00569384	0	0	0	0	29.2644	464.758	-18.3465	0.238753	-0.00569384	0.544476	-0.0343845	-0.546071	0.0215563
0.350946	0	0	0	0	-0.00569273	0	0	0	0	28.477	460.644	-16.5487	0.238788	-0.00569273	0.545296	-0.0291432	-0.471421	0.0169359
0.354934	0	0	0	0	-0.00569163	0	0	0	0	27.719	456.95	-14.7675	0.238836	-0.00569163	0.546089	-0.0239246	-0.394399	0.012746
0.358922	0	0	0	0	-0.00569055	0	0	0	0	26.9932	453.689	-12.9982	0.238899	-0.00569055	0.546857	-0.0187491	-0.315127	0.00902841
0.36291	0	0	0	0	-0.00568947	0	0	0	0	26.3017	450.87	-11.2358	0.238974	-0.00568947	0.547603	-0.0136366	-0.233761	0.00582541
0.366898	0	0	0	0	-0.0056884	0	0	0	0	25.6468	448.504	-9.47498	0.239063	-0.0056884	0.548328	-0.00860626	-0.150504	0.00317951
0.370886	0	0	0	0	-0.00568734	0	0	0	0	25.03	446.6	-7.71018	0.239164	-0.00568734	0.549033	-0.00367495	-0.0655705	0.00113202
0.374874	0	0	0	0	-0.00568628	0	0	0	0	24.4529	445.167	-5.93571	0.239278	-0.00568628	0.54972	0.00114185	0.0207874	-0.000277172
0.378862	0	0	0	0	-0.00568522	0	0	0	0	23.9163	444.213	-4.14579	0.239403	-0.00568522	0.55039	0.00583285	0.108337	-0.0010111
0.38285	0	0	0	0	-0.00568416	0	0	0	0	23.4208	443.744	-2.33454	0.23954	-0.00568416	0.551046	0.0103908	0.19687	-0.00103574
0.386838	0	0	0	0	-0.00568311	0	0	0	0	22.9662	443.765	-0.496138	0.239687	-0.00568311	0.551687	0.0148114	0.286194	-0.00031997
0.390826	0	0	0	0	-0.00568205	0	0	0	0	22.5523	444.281	1.37511	0.239845	-0.00568205	0.552316	0.0190938	0.376149	0.00116423
0.394814	0	0	0	0	-0.00568099	0	0	0	0	22.1779	445.294	3.28463	0.240014	-0.00568099	0.552935	0.0232407	0.466632	0.00344203
0.398802	0	0	0	0	-0.00567992	0	0	0	0	21.8417	446.804	5.23752	0.240192	-0.00567992	0.553543	0.0272567	0.557577	0.00653602
0.40279	0	0	0	0	-0.00567885	0	0	0	0	21.5415	448.812	7.23845	0.24038	-0.00567885	0.554142	0.031147	0.648939	0.0104661
0.406778	0	0	0	0	-0.00567778	0	0	0	0	21.275	451.313	9.2916	0.240576	-0.00567778	0.554734	0.0349173	0.74071	0.0152497
0.410766	0	0	0	0	-0.00567669	0	0	0	0	21.0395	454.302	11.4006	0.240782	-0.00567669	0.555317	0.0385736	0.832913	0.0209017
0.414754	0	0	0	0	-0.0056756	0	0	0	0	20.8318	457.77	13.5684	0.240996	-0.0056756	0.555895	0.0421195	0.925561	0.0274339
0.418743	0	0	0	0	-0.00567451	0	0	0	0	20.6487	461.705	15.7977	0.241217	-0.00567451	0.556466	0.0455573	1.01866	0.0348546
0.422731	0	0	0	0	-0.0056734	0	0	0	0	20.4871	466.096	18.0906	0.241447	-0.0056734	0.557031	0.0488855	1.11218	0.0431672
0.426719	0	0	0	0	-0.00567229	0	0	0	0	20.3438	470.925	20.4489	0.241683	-0.00567229	0.557591	0.0521004	1.20603	0.0523694
0.430707	0.109123	-3.29187	0.275645	0.389829	-0.00567118	0.984124	0.0594845	-1.79444	0.150258	20.216	476.174	22.8737	0.241927	-0.00567118	0.558147	0.055196	1.3001	0.0624523
0.434695	0.106403	-3.8201	0.369005	0.394927	-0.00567005	0.987089	0.0558313	-2.00446	0.193622	20.1009	481.823	25.3663	0.242179	-0.00567005	0.558698	0.058163	1.39418	0.0733985
0.438683	0.104664	-4.39573	0.473639	0.398886	-0.00566891	0.989201	0.0530367	-2.22745	0.240008	19.996	487.849	27.9271	0.242437	-0.00566891	0.559246	0.0609896	1.48799	0.0851803
0.442671	0.104118	-5.0182	0.589954	0.402032	-0.00566777	0.990705	0.0511123	-2.46346	0.289612	19.899	494.223	30.5565	0.242701	-0.00566777	0.559791	0.0636626	1.58116	0.097759
0.446659	0.104951	-5.68615	0.718225	0.404589	-0.00566661	0.991781	0.0500561	-2.712	0.342557	19.8084	500.919	33.2545	0.242972	-0.00566661	0.560334	0.0661685	1.67329	0.111084
0.450647	0.107321	-6.39717	0.85852	0.406712	-0.00566545	0.992566	0.0498594	-2.97201	0.398852	19.7229	507.906	36.0207	0.243249	-0.00566545	0.560874	0.0684928	1.76383	0.125091
0.454635	0.111438	-7.1476	1.01071	0.408513	-0.00566428	0.99316	0.0505431	-3.24181	0.458411	19.6416	515.15	38.8542	0.243531	-0.00566428	0.561413	0.0706216	1.85222	0.139701
0.458623	0.117559	-7.9319	1.17445	0.410076	-0.0056631	0.993638	0.0521554	-3.519	0.521047	19.5641	522.617	41.7538	0.243818	-0.0056631	0.56195	0.0725407	1.93778	0.154817
0.462611	0.125924	-8.74288	1.34913	0.411468	-0.00566191	0.994063	0.0547372	-3.8004	0.586446	19.49	530.271	44.7174	0.24411	-0.00566191	0.562485	0.0742364	2.01978	0.170326
0.466599	0.136786	-9.57206	1.53385	0.412727	-0.00566072	0.994489	0.0583326	-4.08201	0.654113	19.4193	538.074	47.7425	0.244406	-0.00566072	0.563019	0.075698	2.09746	0.186104
0.470587	0.150402	-10.4088	1.72741	0.413889	-0.00544154	0.994996	0.062984	-4.3589	0.723389	19.3523	545.986	50.8262	0.244706	-0.00565952	0.563552	0.0769175	2.17007	0.202013
0.474575	0.167026	-11.2403	1.92822	0.414972	-0.00544151	0.995554	0.0687284	-4.62517	0.79343	19.2895	553.966	53.9649	0.245008	-0.00565832	0.564082	0.0778886	2.23684	0.217904
0.478563	0.186908	-12.0511	2.13431	0.416001	-0.00544149	0.996232	0.0755919	-4.87389	0.86319	19.2315	561.97	57.1547	0.245312	-0.00565712	0.56461	0.0786072	2.29701	0.233615
0.482551	0.210308	-12.8235	2.34322	0.416988	-0.00544147	0.997063	0.0835918	-5.09698	0.931367	19.179	569.956	60.391	0.245618	-0.00565591	0.565136	0.0790709	2.34981	0.248979
0.486539	0.237466	-13.5361	2.55198	0.417951	-0.00544145	0.998076	0.0927185	-5.28518	0.99642	19.1327	577.875	63.6687	0.245925	-0.00565472	0.565657	0.0792779	2.39447	0.263816
0.490527	0.268639	-14.1647	2.75698	0.418902	-0.00544143	0.999295	0.102945	-5.42802	1.0565	19.0932	585.682	66.9826	0.246232	-0.00565352	0.566174	0.0792284	2.43032	0.277948
0.494515	0.304125	-14.6817	2.95407	0.419849	-0.00544142	1.00074	0.114215	-5.51379	1.10941	19.0611	593.326	70.3267	0.246537	-0.00565234	0.566686	0.0789231	2.45669	0.291191
0.498503	0.344209	-15.0567	3.1384	0.420794	-0.00544141	1.00242	0.126408	-5.52943	1.15255	19.0364	600.757	73.6952	0.246842	-0.00565117	0.567191	0.0783631	2.47301	0.303365
0.502491	0.389165	-15.2556	3.30438	0.421733	-0.00544142	1.00436	0.139299	-5.46064	1.18278	19.0193	607.925	77.0813	0.247144	-0.00565001	0.56769	0.0775508	2.4788	0.314297
0.506479	0.439233	-15.2406	3.44563	0.423052	-0.00544143	1.00649	0.153299	-5.31921	1.20258	19.0094	614.774	80.4779	0.247445	-0.00564887	0.56818	0.0764885	2.47368	0.323821
0.510467	0.494622	-14.9701	3.55487	0.425252	-0.00544145	1.00873	0.16908	-5.11735	1.21519	19.0058	621.253	83.8771	0.247742	-0.00564774	0.568661	0.0751786	2.4574	0.331781
0.514455	0.555484	-14.3991	3.62396	0.42903	-0.00544148	1.01089	0.187686	-4.86514	1.22446	19.0074	627.304	87.2702	0.248036	-0.00564663	0.569133	0.0736236	2.42982	0.338034
0.518443	0.621901	-13.4788	3.64386	0.43554	-0.00544152	1.01261	0.210851	-4.56988	1.23542	19.0123	632.873	90.6475	0.248327	-0.00564554	0.569595	0.0718259	2.39091	0.342454
0.522431	0.693871	-12.1569	3.6046	0.447011	-0.00544158	1.01312	0.241679	-4.2343	1.2555	19.0182	637.901	93.9988	0.248614	-0.00564447	0.570046	0.0697889	2.34083	0.344937
0.526419	0.771342	-10.378	3.49531	0.468507	-0.00544166	1.01051	0.286244	-3.85126	1.29711	19.0222	642.33	97.3127	0.248897	-0.00564343	0.570487	0.0675175	2.27989	0.345402
0.530407	0.854141	-8.08382	3.30424	0.514312	-0.00544175	0.999146	0.357651	-3.38491	1.38357	19.0209	646.103	100.577	0.249178	-0.0056424	0.570919	0.0650195	2.20859	0.343804
0.534395	0.941959	-5.21358	3.01882	0.639784	-0.00544187	0.955434	0.483862	-2.67809	1.5507	19.0105	649.16	103.778	0.249455	-0.00564139	0.57134	0.0623054	2.12757	0.340123
0.538383	1.03434	-1.7043	2.62562	1.14501	-0.00564039	0.727858	0.541913	-0.892915	1.37561	18.9867	651.442	106.901	0.249729	-0.00564039	0.571753	0.0593898	2.03769	0.334382
0.542371	1.13068	2.50824	2.11047	0.879237	-0.00563941	0.791778	-0.712909	-1.58147	-1.33067	18.9448	652.894	109.93	0.250002	-0.00563941	0.572159	0.0562925	1.94	0.326646
0.546359	1.23014	7.48819	1.4585	0.412015	-0.00544236	1.02155	-0.41906	-2.55093	-0.496854	18.8799	653.459	112.849	0.250274	-0.00563844	0.572557	0.053039	1.83574	0.317025
0.550347	1.3316	13.2989	0.654301	0.353803	-0.00544258	1.06619	-0.239685	-2.39376	-0.117772	18.7871	653.084	115.64	0.250547	-0.00563748	0.572951	0.0496591	1.72627	0.305666
0.554335	1.43372	20.0015	-0.317898	0.34289	-0.00544283	1.08428	-0.15302	-2.13476	0.0339292	18.6612	651.719	118.282	0.250822	-0.00563652	0.573341	0.0461863	1.613	0.292747
0.558323	1.53487	27.6537	-1.47401	0.340732	-0.00544312	1.0963	-0.104096	-1.87549	0.0999681	18.4972	649.317	120.756	0.2511	-0.00563556	0.573731	0.0426569	1.49741	0.27848
0.562311	1.63313	36.3076	-2.82987	0.340655	-0.00544343	1.10634	-0.0734392	-1.6327	0.127255	18.2901	645.835	123.042	0.251383	-0.00563458	0.574123	0.0391102	1.38101	0.263104
0.566299	1.72627	46.0085	-4.40098	0.341069	-0.00544378	1.11549	-0.0529135	-1.41025	0.134899	18.0353	641.235	125.117	0.251672	-0.00563359	0.57452	0.0355871	1.26528	0.24688
0.570287	1.8117	56.7918	-6.20211	0.341534	-0.00544417	1.124	-0.0385735	-1.20917	0.132051	17.7283	635.484	126.959	0.251971	-0.00563258	0.574925	0.0321305	1.15174	0.230099
0.574275	1.88648	68.6811	-8.24695	0.341928	-0.0054446	1.13188	-0.0282797	-1.02958	0.123628	17.3653	628.555	128.547	0.25228	-0.00563154	0.575342	0.0287844	1.04188	0.213077
0.578263	1.94726	81.6855	-10.5476	0.342227	-0.00544506	1.13899	-0.0207681	-0.871198	0.112493	16.9427	620.428	129.856	0.252602	-0.00563046	0.575776	0.0255909	0.937117	0.196139
0.582251	1.99037	95.7962	-13.1142	0.34244	-0.00544555	1.14515	-0.0152408	-0.733534	0.100419	16.458	611.092	130.865	0.252939	-0.00562933	0.57623	0.02259	0.838776	0.179624
0.58624	2.0117	110.984	-15.954	0.342581	-0.00544608	1.15035	-0.0111656	-0.615996	0.0885502	15.9093	600.541	131.552	0.253294	-0.00562815	0.576709	0.019818	0.748086	0.163873
0.590228	2.00669	127.194	-19.0712	0.342668	-0.00544664	1.15465	-0.00817045	-0.517887	0.0776507	15.2958	588.779	131.896	0.253669	-0.0056269	0.577219	0.0173036	0.666066	0.14921
0.594216	1.97031	144.346	-22.4658	0.342714	-0.00544722	1.15815	-0.00598468	-0.438441	0.0682385	14.6179	575.819	131.877	0.254067	-0.00562558	0.577765	0.0150669	0.593505	0.135928
0.598204	1.89708	162.324	-26.1333	0.342733	-0.00544782	1.16096	-0.00440411	-0.376838	0.0606691	13.877	561.682	131.478	0.254489	-0.00562418	0.578353	0.0131173	0.530932	0.12428
0.602192	1.78107	180.979	-30.0633	0.342736	-0.00544844	1.16321	-0.00326935	-0.332208	0.0551846	13.0759	546.402	130.683	0.254938	-0.00562268	0.578988	0.0114545	0.478647	0.114478
0.60618	1.61618	200.136	-34.2375	0.342732	-0.00544907	1.16498	-0.00245169	-0.3036	0.0519373	12.2189	530.021	129.479	0.255415	-0.00562109	0.579676	0.0100692	0.436771	0.106699
0.610168	1.39639	219.636	-38.6276	0.34273	-0.0054497	1.16637	-0.00184425	-0.290078	0.0510163	11.3114	512.592	127.858	0.255922	-0.00561939	0.580424	0.00894089	0.405169	0.101063
0.614156	1.11854	239.367	-43.1929	0.342734	-0.00545032	1.16744	-0.00135733	-0.290468	0.0524139	10.3603	494.183	125.815	0.25646	-0.00561757	0.581237	0.00803898	0.383457	0.0976249
0.618144	0.782235	259.237	-47.8842	0.34275	-0.00545092	1.16827	-0.00091544	-0.303382	0.0560383	9.37341	474.87	123.349	0.257029	-0.00561564	0.582121	0.00732498	0.371094	0.0963927
0.622132	0.390023	279.172	-52.6469	0.342781	-0.00545152	1.16891	-0.000457073	-0.327166	0.0616977	8.35961	454.744	120.465	0.25763	-0.00561359	0.583081	0.00675252	0.367322	0.0973065
0.62612	-0.0527449	299.119	-57.4256	0.342827	-0.00545209	1.16942	6.34868e-05	-0.360037	0.0691208	7.32823	433.905	117.174	0.258262	-0.00561142	0.584121	0.00627088	0.3713	0.100268
0.630108	-0.538873	319.043	-62.1702	0.34289	-0.00545264	1.16983	0.00067592	-0.400183	0.0779814	6.28927	412.465	113.492	0.258925	-0.00560912	0.585246	0.0058259	0.382076	0.10513
0.634096	-1.06081	338.919	-66.8407	0.34297	-0.00545317	1.17018	0.00139596	-0.445999	0.0879588	5.25318	390.543	109.439	0.259617	-0.0056067	0.58646	0.00535996	0.398481	0.111664
0.638084	-1.61109	358.724	-71.4071	0.343064	-0.00545368	1.17051	0.002228	-0.496084	0.09875	4.23057	368.266	105.044	0.260336	-0.00560416	0.587764	0.00481593	0.41922	0.119578
0.642072	-2.18248	378.431	-75.8459	0.343173	-0.00545417	1.17083	0.00316721	-0.549179	0.110067	3.23217	345.767	100.338	0.261079	-0.00560152	0.589161	0.00414032	0.442917	0.12853
0.64606	-2.76794	398.014	-80.136	0.343293	-0.00545464	1.17118	0.00420103	-0.604083	0.121626	2.26853	323.184	95.3599	0.261842	-0.00559877	0.590651	0.0032862	0.468166	0.138139
0.650048	-3.36123	417.439	-84.2561	0.343422	-0.00545508	1.17156	0.00531186	-0.659691	0.133152	1.34976	300.657	90.1519	0.26262	-0.00559594	0.592233	0.00221568	0.493541	0.147988
0.654036	-3.9572	436.673	-88.184	0.34356	-0.00545551	1.17198	0.00647878	-0.714928	0.144376	0.485387	278.324	84.7603	0.263409	-0.00559303	0.593906	0.00090273	0.517632	0.157639
0.658024	-4.5516	455.678	-91.8974	0.343704	-0.00545592	1.17246	0.00767836	-0.768708	0.155027	-0.315951	256.325	79.2345	0.264202	-0.00559007	0.595664	-0.000664575	0.539158	0.166663
0.662012	-5.14109	474.404	-95.3747	0.343853	-0.00545632	1.173	0.0088863	-0.820001	0.164854	-1.04665	234.793	73.6256	0.264992	-0.00558707	0.597503	-0.00248286	0.556975	0.174655
0.666	-5.72349	492.796	-98.5963	0.344006	-0.00545669	1.1736	0.0100811	-0.867987	0.173663	-1.70031	213.852	67.9858	0.265773	-0.00558407	0.599413	-0.00453343	0.570181	0.181266
0.669988	-6.29836	510.788	-101.545	0.344163	-0.00545705	1.17426	0.011248	-0.912197	0.181346	-2.2719	193.618	62.3667	0.266537	-0.00558108	0.601385	-0.00678324	0.578088	0.186209
0.673976	-6.86757	528.307	-104.208	0.344324	-0.00545739	1.17499	0.0123824	-0.952548	0.187889	-2.75794	174.192	56.8186	0.267276	-0.00557813	0.603407	-0.00918588	0.580181	0.189246
0.677964	-7.43562	545.281	-106.573	0.344488	-0.00545771	1.17577	0.0134906	-0.989313	0.193358	-3.15674	155.66	51.3885	0.267983	-0.00557525	0.605466	-0.0116845	0.576167	0.190212
0.681952	-8.009	561.635	-108.632	0.344657	-0.00545801	1.17662	0.0145893	-1.02308	0.197886	-3.46852	138.091	46.1194	0.268648	-0.00557247	0.607549	-0.0142169	0.56601	0.189035
0.68594	-8.59526	577.297	-110.378	0.34483	-0.00545829	1.17752	0.0157011	-1.05456	0.201629	-3.69536	121.538	41.0495	0.269263	-0.00556981	0.60964	-0.0167192	0.549883	0.185723
0.689928	-9.20202	592.202	-111.804	0.345009	-0.00545854	1.17847	0.0168509	-1.08445	0.204737	-3.84124	106.039	36.2114	0.269819	-0.00556728	0.611725	-0.0191326	0.528163	0.180363
0.693916	-9.83635	606.288	-112.908	0.345194	-0.00545877	1.17948	0.0180642	-1.11343	0.207352	-3.91206	91.6169	31.6323	0.270307	-0.00556491	0.61379	-0.0214141	0.501499	0.173151
0.697904	-10.5044	619.498	-113.688	0.345387	-0.00545898	1.18053	0.0193666	-1.14215	0.209604	-3.91544	78.2816	27.3339	0.270716	-0.00556271	0.615818	-0.0235436	0.470708	0.164359
0.701892	-11.2112	631.783	-114.149	0.345588	-0.00545917	1.18162	0.0207837	-1.17122	0.211613	-3.86011	66.031	23.332	0.271036	-0.00556067	0.61779	-0.0255297	0.43671	0.154311
0.70588	-11.9608	643.102	-114.295	0.345799	-0.00545933	1.18275	0.0223404	-1.20119	0.213481	-3.75537	54.8518	19.6371	0.271247	-0.0055588	0.619682	-0.0274152	0.400432	0.143356
0.709868	-12.7558	653.42	-114.137	0.34602	-0.00545946	1.18392	0.0240609	-1.23253	0.215292	-3.61045	44.7209	16.2545	0.271323	-0.0055571	0.621464	-0.0292863	0.362756	0.131849
0.713856	-13.5974	662.713	-113.685	0.346251	-0.00545957	1.18513	0.0259678	-1.26563	0.217112	-3.43403	35.6066	13.1843	0.271218	-0.00555557	0.623101	-0.0312923	0.324461	0.12014
0.717844	-14.485	670.962	-112.954	0.346494	-0.00545966	1.18636	0.0280799	-1.3007	0.218968	-3.23401	27.4703	10.4218	0.27085	-0.0055542	0.624537	-0.0336837	0.286115	0.108548
0.721832	-15.4159	678.156	-111.96	0.346748	-0.00545973	1.18762	0.0304108	-1.33779	0.220862	-3.01733	20.2678	7.95838	0.27005	-0.00555299	0.62566	-0.0369113	0.247939	0.0973557
0.72582	-16.3858	684.293	-110.718	0.347014	-0.00545977	1.18891	0.0329686	-1.37681	0.222767	-2.79002	13.95	5.78155	0.268417	-0.00555192	0.626176	-0.0418835	0.209416	0.086792
0.729808	-17.3887	689.379	-109.246	0.347292	-0.0054598	1.19023	0.0357554	-1.41753	0.224637	-2.55722	8.46355	3.87634	0.264749	-0.005551	0.625015	-0.0506239	0.167548	0.0767378
0.733796	-18.4173	693.425	-107.563	0.347581	-0.00545981	1.19157	0.0387684	-1.45966	0.22642	-2.32324	3.75236	2.22612	0.253757	-0.0055502	0.616146	-0.0658753	0.106398	0.0631212
0.737784	-19.4632	696.449	-105.685	0.34788	-0.0054598	1.19293	0.0419985	-1.50283	0.228053	0	0	0	0	-0.0054598	0	0	0	0
0.741772	-20.5172	698.475	-103.633	0.34819	-0.00545978	1.19432	0.0454316	-1.54665	0.229476	-1.86562	-3.57852	-0.38048	0.286517	-0.00554895	0.616144	0.0512363	0.0982781	0.0104493
0.74576	-21.5695	699.527	-101.422	0.34851	-0.00545975	1.19572	0.0490477	-1.59068	0.230628	-1.64736	-6.31635	-1.37352	0.283989	-0.00554849	0.628832	0.023576	0.0903953	0.0196569
0.749749	-22.6101	699.636	-99.0726	0.348838	-0.0054597	1.19715	0.0528216	-1.63449	0.231453	-1.43886	-8.51318	-2.1842	0.282147	-0.00554811	0.632354	0.0120776	0.0714583	0.0183338
0.753737	-23.6286	698.836	-96.601	0.349174	-0.00545965	1.1986	0.056723	-1.67763	0.231901	-1.24159	-10.2253	-2.83052	0.281011	-0.00554782	0.634043	0.00646275	0.0532247	0.0147335
0.757725	-24.6152	697.163	-94.0246	0.349517	-0.00545959	1.20007	0.060718	-1.71968	0.23193	-1.05662	-11.5069	-3.32994	0.280251	-0.0055476	0.635107	0.00338683	0.0368836	0.0106736
0.761713	-25.5603	694.655	-91.36	0.349864	-0.00545953	1.20155	0.0647706	-1.76028	0.231509	-0.884632	-12.4095	-3.69919	0.279695	-0.00554744	0.63587	0.0016036	0.0224951	0.00670562
0.765701	-26.4551	691.354	-88.623	0.350216	-0.00545947	1.20306	0.0688429	-1.79908	0.230619	-0.726023	-12.9817	-3.95417	0.279258	-0.00554734	0.636451	0.000554851	0.00992104	0.00302191
0.769689	-27.2916	687.304	-85.8287	0.350571	-0.00545941	1.20458	0.0728957	-1.83579	0.229248	-0.580925	-13.2688	-4.10985	0.27889	-0.00554728	0.636905	-4.73623e-05	-0.00108179	-0.000335072
0.773677	-28.0625	682.549	-82.9915	0.350928	-0.00545935	1.20612	0.0768895	-1.87014	0.227391	-0.449274	-13.313	-4.18015	0.278561	-0.00554727	0.637261	-0.000363379	-0.0107677	-0.00338096
0.777665	-28.7619	677.136	-80.1248	0.351284	-0.0054593	1.20767	0.0807864	-1.90194	0.225055	-0.330848	-13.1531	-4.17799	0.278251	-0.00554729	0.637538	-0.000487467	-0.0193797	-0.00615579
0.781653	-29.3848	671.114	-77.2412	0.351639	-0.00545925	1.20924	0.084551	-1.93105	0.222252	-0.225287	-12.8247	-4.11518	0.277944	-0.00554734	0.637748	-0.000477276	-0.0271695	-0.00871812
0.785641	-29.9275	664.533	-74.3521	0.351991	-0.00545921	1.21083	0.0881527	-1.95741	0.219007	-0.132059	-12.3597	-4.00258	0.277632	-0.00554741	0.637901	-0.000365605	-0.0342177	-0.0110811
0.789629	-30.3877	657.444	-71.4682	0.352339	-0.00545919	1.21243	0.0915641	-1.981	0.215347	-0.0505637	-11.7868	-3.84998	0.27731	-0.0055475	0.638004	-0.000173667	-0.0404832	-0.0132232
0.793617	-30.7645	649.896	-68.5991	0.352681	-0.00545917	1.21404	0.0947617	-2.00183	0.211301	0.0198784	-11.132	-3.66617	0.276976	-0.00554761	0.638063	8.19776e-05	-0.0459078	-0.0151191
0.797605	-31.0579	641.943	-65.7533	0.353017	-0.00545916	1.21566	0.0977277	-2.01995	0.206901	0.0799817	-10.4177	-3.45891	0.276626	-0.00554773	0.638085	0.000387228	-0.0504369	-0.0167462
0.801593	-31.2696	633.635	-62.9387	0.353344	-0.00545917	1.21729	0.10045	-2.03548	0.202184	0.13049	-9.66412	-3.23506	0.276261	-0.00554785	0.638073	0.000729223	-0.0540063	-0.0180786
0.805581	-31.402	625.024	-60.1622	0.353662	-0.0054592	1.21893	0.102923	-2.04858	0.197188	0.172182	-8.8887	-3.00056	0.275868	-0.00554797	0.638031	0.00110106	-0.0568406	-0.0191877
0.809569	-31.4586	616.161	-57.4296	0.353971	-0.00545924	1.22057	0.105148	-2.05947	0.191954	0.205871	-8.10621	-2.76057	0.275435	-0.0055481	0.637961	0.00150197	-0.0591405	-0.0201403
0.813557	-31.4438	607.095	-54.7463	0.354268	-0.00545929	1.22221	0.107128	-2.06836	0.18652	0.232357	-7.32938	-2.51945	0.274944	-0.00554823	0.637862	0.00193606	-0.0610703	-0.0209927
0.817545	-31.3625	597.876	-52.1169	0.354552	-0.00545936	1.22386	0.108874	-2.07551	0.180922	0.252404	-6.56881	-2.28088	0.274374	-0.00554835	0.637731	0.00241176	-0.062766	-0.0217942
0.821533	-31.2199	588.553	-49.5451	0.354824	-0.00545945	1.2255	0.110396	-2.08118	0.175196	0.266749	-5.83347	-2.0479	0.273698	-0.00554847	0.637564	0.00294209	-0.0643399	-0.0225872
0.825521	-31.0215	579.172	-47.0341	0.355082	-0.00545955	1.22714	0.111711	-2.08565	0.169374	0.276108	-5.13055	-1.82296	0.272877	-0.00554859	0.637347	0.00354481	-0.0658683	-0.023404
0.829509	-30.773	569.78	-44.5864	0.355325	-0.00545967	1.22878	0.112836	-2.08921	0.163485	0.281135	-4.4657	-1.608	0.271862	-0.0055487	0.637061	0.00424351	-0.0674062	-0.0242714
0.833497	-30.4799	560.421	-42.204	0.355552	-0.00545981	1.2304	0.113789	-2.09218	0.157557	0.282453	-3.843	-1.40448	0.270579	-0.0055488	0.636673	0.00506929	-0.0689718	-0.0252068
0.837485	-30.1475	551.137	-39.8883	0.355763	-0.00545996	1.23201	0.114591	-2.09488	0.151616	0.28065	-3.26461	-1.21348	0.268927	-0.0055489	0.636128	0.00606416	-0.0705404	-0.0262204
0.841473	-29.7812	541.97	-37.6403	0.355956	-0.00546013	1.23361	0.115266	-2.09766	0.145684	0	0	0	0	-0.00546013	0	0	0	0
0.845461	-29.3858	532.959	-35.4605	0.356131	-0.00546032	1.23519	0.115836	-2.10087	0.139782	0	0	0	0	-0.00546032	0	0	0	0
0.849449	-28.9661	524.138	-33.3488	0.356287	-0.00546053	1.23675	0.116323	-2.10485	0.133923	0	0	0	0	-0.00546053	0	0	0	0
0.853437	-28.5265	515.543	-31.3044	0.356423	-0.00546075	1.23829	0.116746	-2.10988	0.128115	0	0	0	0	-0.00546075	0	0	0	0
0.857425	-28.0714	507.203	-29.3262	0.356539	-0.005461	1.2398	0.117127	-2.11628	0.122362	0	0	0	0	-0.005461	0	0	0	0
0.861413	-27.6046	499.146	-27.4122	0.356633	-0.00546126	1.24129	0.117482	-2.1243	0.116663	0	0	0	0	-0.00546126	0	0	0	0
0.865401	-27.1299	491.397	-25.5599	0.356705	-0.00546154	1.24276	0.117827	-2.13416	0.111008	0	0	0	0	-0.00546154	0	0	0	0
0.869389	-26.6507	483.977	-23.7661	0.356755	-0.00546184	1.2442	0.118176	-2.14608	0.105385	0	0	0	0	-0.00546184	0	0	0	0
0.873377	-26.1701	476.908	-22.0272	0.356781	-0.00546216	1.2456	0.118542	-2.16024	0.0997762	0	0	0	0	-0.00546216	0	0	0	0
0.877365	-25.691	470.205	-20.339	0.356784	-0.0054625	1.24698	0.118935	-2.17679	0.0941585	0	0	0	0	-0.0054625	0	0	0	0
0.881353	-25.2158	463.884	-18.6969	0.356763	-0.00546286	1.24833	0.119364	-2.19588	0.0885052	0	0	0	0	-0.00546286	0	0	0	0
0.885341	-24.7463	457.956	-17.0956	0.356719	-0.00546324	1.24965	0.119834	-2.21765	0.0827854	0	0	0	0	-0.00546324	0	0	0	0
0.889329	-24.2843	452.436	-15.5297	0.356651	-0.00546364	1.25095	0.120352	-2.24225	0.0769646	0	0	0	0	-0.00546364	0	0	0	0
0.893317	-23.8306	447.333	-13.9933	0.356561	-0.00546405	1.25221	0.120919	-2.26982	0.0710034	0	0	0	0	-0.00546405	0	0	0	0
0.897305	-23.3857	442.659	-12.48	0.356448	-0.00546449	1.25345	0.121535	-2.30048	0.0648582	0	0	0	0	-0.00546449	0	0	0	0
0.901293	-22.9498	438.426	-10.9835	0.356313	-0.00546495	1.25466	0.122196	-2.33439	0.0584814	0	0	0	0	-0.00546495	0	0	0	0
0.905281	-22.5222	434.644	-9.49692	0.356156	-0.00546542	1.25584	0.122896	-2.37171	0.0518216	0	0	0	0	-0.00546542	0	0	0	0
0.909269	-22.1021	431.327	-8.01345	0.355977	-0.00546591	1.257	0.123629	-2.41265	0.0448236	0	0	0	0	-0.00546591	0	0	0	0
0.913257	-21.688	428.49	-6.52605	0.355779	-0.00546643	1.25814	0.124384	-2.45745	0.0374279	0	0	0	0	-0.00546643	0	0	0	0
0.917246	-21.2783	426.145	-5.02754	0.355561	-0.00546695	1.25925	0.125149	-2.50638	0.0295695	0	0	0	0	-0.00546695	0	0	0	0
0.921234	-20.8711	424.309	-3.5106	0.355324	-0.0054675	1.26033	0.125907	-2.55969	0.021178	0	0	0	0	-0.0054675	0	0	0	0
0.925222	-20.4645	422.998	-1.96784	0.35507	-0.00546805	1.26138	0.12664	-2.61763	0.0121776	0	0	0	0	-0.00546805	0	0	0	0
0.92921	-20.0567	422.228	-0.391972	0.354799	-0.00546863	1.26241	0.127325	-2.68042	0.00248834	0	0	0	0	-0.00546863	0	0	0	0
0.933198	-19.6462	422.015	1.22408	0.354512	-0.00546921	1.26341	0.127939	-2.74822	-0.00797135	0	0	0	0	-0.00546921	0	0	0	0
0.937186	-19.2316	422.378	2.88706	0.354211	-0.00546981	1.26438	0.128453	-2.82117	-0.0192834	0	0	0	0	-0.00546981	0	0	0	0
0.941174	-18.8119	423.331	4.60331	0.353897	-0.00547042	1.26533	0.128839	-2.89932	-0.0315272	0	0	0	0	-0.00547042	0	0	0	0
0.945162	-18.3864	424.89	6.37869	0.353571	-0.00547103	1.26624	0.129069	-2.98264	-0.0447771	0	0	0	0	-0.00547103	0	0	0	0
0.94915	-17.9551	427.066	8.21853	0.353235	-0.00547165	1.26713	0.129116	-3.07105	-0.0590998	0	0	0	0	-0.00547165	0	0	0	0
0.953138	-17.5183	429.87	10.1276	0.352891	-0.00547228	1.26799	0.128956	-3.16437	-0.0745517	0	0	0	0	-0.00547228	0	0	0	0
0.957126	-17.077	433.306	12.1102	0.35254	-0.00547291	1.26882	0.128571	-3.26232	-0.0911763	0	0	0	0	-0.00547291	0	0	0	0
0.961114	-16.6329	437.378	14.1698	0.352183	-0.00547354	1.26962	0.12795	-3.36456	-0.109002	0	0	0	0	-0.00547354	0	0	0	0
0.965102	-16.1882	442.081	16.3097	0.351824	-0.00547417	1.2704	0.127088	-3.47063	-0.128042	0	0	0	0	-0.00547417	0	0	0	0
0.96909	-15.7459	447.407	18.5324	0.351463	-0.0054748	1.27114	0.125991	-3.57995	-0.148288	0	0	0	0	-0.0054748	0	0	0	0
0.973078	-15.3096	453.343	20.8403	0.351103	-0.00547542	1.27186	0.124676	-3.69187	-0.169716	0	0	0	0	-0.00547542	0	0	0	0
0.977066	-14.8835	459.869	23.2352	0.350744	-0.00547604	1.27256	0.123167	-3.8056	-0.192281	0	0	0	0	-0.00547604	0	0	0	0
0.981054	-14.4722	466.96	25.7187	0.350388	-0.00547664	1.27322	0.121499	-3.92027	-0.215916	0	0	0	0	-0.00547664	0	0	0	0
0.985042	-14.0809	474.585	28.2917	0.350038	-0.00547723	1.27387	0.119716	-4.03493	-0.240536	0	0	0	0	-0.00547723	0	0	0	0
0.98903	-13.7145	482.707	30.9549	0.349694	-0.00547781	1.27449	0.117867	-4.14855	-0.266037	0	0	0	0	-0.00547781	0	0	0	0
0.993018	-13.3785	491.284	33.7088	0.349359	-0.00547838	1.2751	0.116009	-4.26008	-0.2923	0	0	0	0	-0.00547838	0	0	0	0
0.997006	-13.0779	500.269	36.5528	0.349033	-0.00547892	1.27568	0.114198	-4.36844	-0.319185	0	0	0	0	-0.00547892	0	0	0	0
1.00099	-12.8175	509.613	39.4863	0.348717	-0.00547945	1.27625	0.112491	-4.47252	-0.346543	0	0	0	0	-0.00547945	0	0	0	0
1.00498	-12.602	519.263	42.5076	0.348414	-0.00547996	1.2768	0.11094	-4.57126	-0.37421	0	0	0	0	-0.00547996	0	0	0	0
1.00897	-12.4351	529.16	45.6148	0.348123	-0.00548045	1.27735	0.109593	-4.66359	-0.402011	0	0	0	0	-0.00548045	0	0	0	0
1.01296	-12.32	539.248	48.8049	0.347845	-0.00548092	1.27787	0.108487	-4.74848	-0.429764	0	0	0	0	-0.00548092	0	0	0	0
1.01695	-12.2593	549.463	52.0744	0.347582	-0.00548137	1.27839	0.107651	-4.82495	-0.457276	0	0	0	0	-0.00548137	0	0	0	0
1.02093	-12.2544	559.744	55.419	0.347333	-0.00548179	1.2789	0.107101	-4.89207	-0.484353	0	0	0	0	-0.00548179	0	0	0	0
1.02492	-12.306	570.024	58.8337	0.347098	-0.0054822	1.2794	0.106841	-4.94899	-0.510798	0	0	0	0	-0.0054822	0	0	0	0
1.02891	-12.4137	580.238	62.3126	0.346878	-0.00548258	1.27989	0.106863	-4.99497	-0.536418	0	0	0	0	-0.00548258	0	0	0	0
1.0329	-12.5762	590.317	65.8491	0.346672	-0.00548294	1.28037	0.107147	-5.02938	-0.56102	0	0	0	0	-0.00548294	0	0	0	0
1.03689	-12.7911	600.193	69.4356	0.34648	-0.00548328	1.28085	0.107659	-5.05163	-0.584417	0	0	0	0	-0.00548328	0	0	0	0
1.04087	-13.055	609.795	73.0635	0.346302	-0.0054836	1.28132	0.108356	-5.06125	-0.606422	0	0	0	0	-0.0054836	0	0	0	0
1.04486	-13.3638	619.053	76.7234	0.346137	-0.0054839	1.28178	0.109187	-5.05786	-0.626856	0	0	0	0	-0.0054839	0	0	0	0
1.04885	-13.7123	627.896	80.4051	0.345984	-0.00548418	1.28224	0.110093	-5.04122	-0.645552	0	0	0	0	-0.00548418	0	0	0	0
1.05284	-14.0948	636.254	84.0969	0.345844	-0.00548445	1.2827	0.111012	-5.01123	-0.662359	0	0	0	0	-0.00548445	0	0	0	0
1.05683	-14.5043	644.057	87.7866	0.345713	-0.00548469	1.28315	0.111879	-4.96791	-0.677139	0	0	0	0	-0.00548469	0	0	0	0
1.06081	-14.9334	651.235	91.4608	0.345592	-0.00548493	1.28359	0.112625	-4.9115	-0.689781	0	0	0	0	-0.00548493	0	0	0	0
1.0648	-15.3741	657.719	95.1046	0.345479	-0.00548515	1.28404	0.113189	-4.84233	-0.700189	0	0	0	0	-0.00548515	0	0	0	0
1.06879	-15.8178	663.442	98.7018	0.345372	-0.00548536	1.28448	0.113511	-4.76096	-0.708299	0	0	0	0	-0.00548536	0	0	0	0
1.07278	-16.2559	668.338	102.235	0.345269	-0.00548556	1.28492	0.113542	-4.6681	-0.714072	0	0	0	0	-0.00548556	0	0	0	0
1.07677	-16.6792	672.344	105.685	0.345168	-0.00548576	1.28537	0.113237	-4.56462	-0.717505	0	0	0	0	-0.00548576	0	0	0	0
1.08075	-17.0782	675.397	109.032	0.345067	-0.00548596	1.28582	0.112562	-4.45151	-0.718622	0	0	0	0	-0.00548596	0	0	0	0
1.08474	-17.4437	677.44	112.255	0.344964	-0.00548616	1.28627	0.111492	-4.32988	-0.717478	0	0	0	0	-0.00548616	0	0	0	0
1.08873	-17.7661	678.418	115.331	0.344856	-0.00548637	1.28673	0.110013	-4.20096	-0.714165	0	0	0	0	-0.00548637	0	0	0	0
1.09272	-18.0363	678.279	118.239	0.344741	-0.00548659	1.28721	0.108121	-4.06604	-0.708802	0	0	0	0	-0.00548659	0	0	0	0
1.09671	-18.2456	676.976	120.955	0.344616	-0.00548682	1.28769	0.105824	-3.92646	-0.701536	0	0	0	0	-0.00548682	0	0	0	0
1.10069	-18.3858	674.471	123.455	0.34448	-0.00548706	1.28819	0.103139	-3.78358	-0.692543	0	0	0	0	-0.00548706	0	0	0	0
1.10468	-18.4496	670.728	125.715	0.34433	-0.00548732	1.28871	0.10009	-3.63874	-0.682012	0	0	0	0	-0.00548732	0	0	0	0
1.10867	-18.4307	665.719	127.713	0.344163	-0.00548761	1.28925	0.0967116	-3.49324	-0.670152	0	0	0	0	-0.00548761	0	0	0	0
1.11266	-18.3238	659.424	129.427	0.343979	-0.00548792	1.28981	0.0930409	-3.34829	-0.657177	0	0	0	0	-0.00548792	0	0	0	0
1.11665	-18.1251	651.829	130.834	0.343774	-0.00548827	1.2904	0.0891194	-3.20499	-0.643301	0	0	0	0	-0.00548827	0	0	0	0
1.12063	-17.832	642.93	131.916	0.343548	-0.00548864	1.29102	0.08499	-3.06431	-0.628732	0	0	0	0	-0.00548864	0	0	0	0
1.12462	-17.4435	632.731	132.652	0.343299	-0.00548905	1.29168	0.0806962	-2.9271	-0.613668	0	0	0	0	-0.00548905	0	0	0	0
1.12861	-16.9604	621.245	133.028	0.343027	-0.0054895	1.29237	0.0762797	-2.79406	-0.598294	0	0	0	0	-0.0054895	0	0	0	0
1.1326	-16.3848	608.494	133.027	0.342729	-0.00548998	1.29309	0.0717798	-2.66574	-0.582774	0	0	0	0	-0.00548998	0	0	0	0
1.13659	-15.7205	594.51	132.637	0.342407	-0.00549051	1.29386	0.0672318	-2.54254	-0.567251	0	0	0	0	-0.00549051	0	0	0	0
1.14057	-14.9728	579.335	131.85	0.342058	-0.00549108	1.29468	0.0626656	-2.42468	-0.551831	0	0	0	0	-0.00549108	0	0	0	0
1.14456	-14.1485	563.018	130.658	0.341685	-0.00549169	1.29554	0.0581054	-2.31221	-0.536587	0	0	0	0	-0.00549169	0	0	0	0
1.14855	-13.2556	545.62	129.056	0.341286	-0.00549234	1.29645	0.0535696	-2.20501	-0.521551	0	0	0	0	-0.00549234	0	0	0	0
1.15254	-12.3032	527.21	127.044	0.340863	-0.00549304	1.29742	0.0490729	-2.10285	-0.506733	0	0	0	0	-0.00549304	0	0	0	0
1.15653	-11.3015	507.866	124.627	0.340417	-0.00549378	1.29843	0.0446257	-2.00539	-0.492109	0	0	0	0	-0.00549378	0	0	0	0
1.16051	-10.2616	487.676	121.812	0.339949	-0.00549456	1.2995	0.040236	-1.91219	-0.477629	0	0	0	0	-0.00549456	0	0	0	0
1.1645	-9.19504	466.737	118.612	0.339461	-0.00549538	1.30063	0.0359114	-1.82285	-0.463241	0	0	0	0	-0.00549538	0	0	0	0
1.16849	-8.11371	445.156	115.043	0.338953	-0.00549624	1.30181	0.0316599	-1.73701	-0.448899	0	0	0	0	-0.00549624	0	0	0	0
1.17248	-7.02913	423.047	111.125	0.338429	-0.00549714	1.30304	0.0274877	-1.65434	-0.43456	0	0	0	0	-0.00549714	0	0	0	0
1.17647	-5.95269	400.531	106.887	0.337889	-0.00549807	1.30432	0.0233999	-1.57448	-0.420171	0	0	0	0	-0.00549807	0	0	0	0
1.18046	-4.89545	377.736	102.357	0.337337	-0.00549903	1.30565	0.0194021	-1.49708	-0.405671	0	0	0	0	-0.00549903	0	0	0	0
1.18444	-3.8679	354.794	97.5693	0.336774	-0.00550002	1.30702	0.0155001	-1.42179	-0.390995	0	0	0	0	-0.00550002	0	0	0	0
1.18843	-2.87978	331.839	92.5619	0.336205	-0.00550103	1.30843	0.0117004	-1.34825	-0.376075	0	0	0	0	-0.00550103	0	0	0	0
1.19242	-1.93986	309.007	87.3751	0.335631	-0.00550207	1.30988	0.00801126	-1.27614	-0.360843	0	0	0	0	-0.00550207	0	0	0	0
1.19641	-1.05585	286.431	82.0521	0.335058	-0.00550311	1.31135	0.00444273	-1.20522	-0.345253	0	0	0	0	-0.00550311	0	0	0	0
1.2004	-0.23446	264.241	76.6377	0.334489	-0.00550417	1.31283	0.00100736	-1.13531	-0.329274	0	0	0	0	-0.00550417	0	0	0	0
1.20438	0.518838	242.56	71.1781	0.333927	-0.00550522	1.31432	-0.00228078	-1.06628	-0.312895	0	0	0	0	-0.00550522	0	0	0	0
1.20837	1.19967	221.502	65.7196	0.333378	-0.00550627	1.31581	-0.00540507	-0.99797	-0.296097	0	0	0	0	-0.00550627	0	0	0	0
1.21236	1.80481	201.168	60.3075	0.332844	-0.00550731	1.31727	-0.00834628	-0.930298	-0.278891	0	0	0	0	-0.00550731	0	0	0	0
1.21635	2.33211	181.647	54.9855	0.332332	-0.00550833	1.31871	-0.0110823	-0.863193	-0.261294	0	0	0	0	-0.00550833	0	0	0	0
1.22034	2.78061	163.009	49.794	0.331844	-0.00550932	1.3201	-0.0135886	-0.796607	-0.243339	0	0	0	0	-0.00550932	0	0	0	0
1.22432	3.15045	145.31	44.7696	0.331384	-0.00551028	1.32143	-0.0158387	-0.730538	-0.225076	0	0	0	0	-0.00551028	0	0	0	0
1.22831	3.44295	128.593	39.9444	0.330957	-0.00551119	1.32269	-0.0178063	-0.665057	-0.206585	0	0	0	0	-0.00551119	0	0	0	0
1.2323	3.66044	112.883	35.3451	0.330564	-0.00551206	1.32387	-0.0194646	-0.600262	-0.18795	0	0	0	0	-0.00551206	0	0	0	0
1.23629	3.80647	98.1959	30.9931	0.330208	-0.00551289	1.32495	-0.0207881	-0.536274	-0.169262	0	0	0	0	-0.00551289	0	0	0	0
1.24028	3.88578	84.5352	26.9041	0.329892	-0.00551366	1.32593	-0.0217547	-0.473274	-0.150624	0	0	0	0	-0.00551366	0	0	0	0
1.24426	3.90418	71.8943	23.0882	0.329618	-0.00551437	1.32681	-0.022345	-0.411477	-0.132142	0	0	0	0	-0.00551437	0	0	0	0
1.24825	3.86821	60.2569	19.5502	0.329392	-0.00551503	1.32758	-0.0225428	-0.35116	-0.113933	0	0	0	0	-0.00551503	0	0	0	0
1.25224	3.7849	49.5975	16.2901	0.329216	-0.00551564	1.32825	-0.02233	-0.292614	-0.0961077	0	0	0	0	-0.00551564	0	0	0	0
1.25623	3.6613	39.8817	13.3034	0.329099	-0.00551619	1.32883	-0.021674	-0.23609	-0.0787531	0	0	0	0	-0.00551619	0	0	0	0
1.26022	3.50418	31.0677	10.5819	0.329054	-0.00551669	1.32932	-0.0205036	-0.181783	-0.0619168	0	0	0	0	-0.00551669	0	0	0	0
1.2642	3.31983	23.107	8.11379	0.32911	-0.00551714	1.32975	-0.0186567	-0.129856	-0.0455977	0	0	0	0	-0.00551714	0	0	0	0
1.26819	3.11391	15.945	5.88456	0.329331	-0.00551755	1.33016	-0.015722	-0.0805054	-0.0297108	0	0	0	0	-0.00551755	0	0	0	0
1.27218	2.89144	9.52175	3.8774	0.329922	-0.00551791	1.33081	-0.0104435	-0.0343913	-0.0140047	0	0	0	0	-0.00551791	0	0	0	0
1.27617	2.65666	3.77316	2.07384	0.33226	-0.00551824	1.33433	0.00205356	0.0029166	0.00160305	0	0	0	0	-0.00551824	0	0	0	0
1.28016	0	0	0	0	0.201252	0	0	0	0	0	0	0	0	0.0236288	0	0	0	0
1.28414	2.16373	-5.96788	-1.00096	0.322867	-0.00551879	1.33487	-0.0295864	0.0816037	0.013687	0	0	0	0	-0.00551879	0	0	0	0
1.28813	1.91079	-10.0957	-2.31233	0.325176	-0.00551902	1.33309	-0.0235605	0.124483	0.0285116	0	0	0	0	-0.00551902	0	0	0	0
1.29212	1.65609	-13.8173	-3.49958	0.325954	-0.00551923	1.33255	-0.0193389	0.161351	0.0408663	0	0	0	0	-0.00551923	0	0	0	0
1.29611	1.40089	-17.1966	-4.582	0.326334	-0.00551942	1.33232	-0.0159048	0.195239	0.052021	0	0	0	0	-0.00551942	0	0	0	0
1.3001	1.14608	-20.2947	-5.57798	0.326555	-0.00551959	1.3322	-0.0128117	0.22687	0.0623548	0	0	0	0	-0.00551959	0	0	0	0
1.30408	0.892093	-23.1687	-6.50473	0.326695	-0.00551975	1.33212	-0.00987641	0.256502	0.0720142	0	0	0	0	-0.00551975	0	0	0	0
1.30807	0.639118	-25.8706	-7.37812	0.326788	-0.0055199	1.33207	-0.00703028	0.284576	0.0811591	0	0	0	0	-0.0055199	0	0	0	0
1.31206	0.387149	-28.4466	-8.21238	0.326851	-0.00552005	1.33203	-0.00423906	0.311474	0.0899208	0	0	0	0	-0.00552005	0	0	0	0
1.31605	0.136052	-30.9366	-9.01989	0.326891	-0.00552018	1.332	-0.00148452	0.337562	0.0984198	0	0	0	0	-0.00552018	0	0	0	0
1.32004	-0.1144	-33.3733	-9.811	0.326916	-0.00552032	1.33197	0.0012448	0.363139	0.106755	0	0	0	0	-0.00552032	0	0	0	0
1.32402	-0.364452	-35.7826	-10.5937	0.326927	-0.00552045	1.33196	0.00395637	0.388445	0.115002	0	0	0	0	-0.00552045	0	0	0	0
1.32801	0	0	0	0	0.248619	0	0	0	0	0	0	0	0	0.0306198	0	0	0	0
