PathFileType	4	(X/Y/Z)	/tmp/tmpahvillwr/P21/MarkerData/DB4_P21_T01_l_comf_relabeled_segment_1.trc
DataRate	CameraRate	NumFrames	NumMarkers	Units	OrigDataRate	OrigDataStartFrame	OrigNumFrames
100.109	100.109	68	15	m	100.109	0	68
Frame#	Time	CLAV			LANK			LKNE			LMT5			LSHO			LTHI			LTIB			LTOE			RANK			RHEE			RKNE			RMT5			RTHI			RTIB			RTOE		
		X1	Y1	Z1	X2	Y2	Z2	X3	Y3	Z3	X4	Y4	Z4	X5	Y5	Z5	X6	Y6	Z6	X7	Y7	Z7	X8	Y8	Z8	X9	Y9	Z9	X10	Y10	Z10	X11	Y11	Z11	X12	Y12	Z12	X13	Y13	Z13	X14	Y14	Z14	X15	Y15	Z15

1	2.92	2.51862	-1.35087	0.215632	2.68719	-0.0477515	0.1212	2.6011	-0.4246	0.0992189	2.52504	-0.00529725	0.1454	2.56726	-1.3904	0.0146813	2.56523	-0.634299	0.0375444	2.65072	-0.234177	0.0911507	2.49851	-0.00553677	0.21207	2.64894	-0.130037	0.3216	2.69262	-0.124399	0.267915	2.45929	-0.471563	0.379533	2.52854	-0.0357615	0.316722	2.4909	-0.660935	0.425753	2.54936	-0.295098	0.366848	2.48527	-0.0228075	0.271744
2	2.92999	2.50769	-1.34979	0.214635	2.6868	-0.0481361	0.121217	2.59791	-0.424282	0.0992813	2.52495	-0.00507701	0.145387	2.55639	-1.39005	0.0147825	2.57131	-0.637855	0.0359101	2.6583	-0.240082	0.0890319	2.49849	-0.00538321	0.212296	2.61602	-0.120009	0.321529	2.65672	-0.112406	0.266706	2.44255	-0.472736	0.37917	2.48882	-0.033446	0.317992	2.4778	-0.662238	0.425695	2.51193	-0.321127	0.373392	2.44447	-0.0229069	0.273395
3	2.93998	2.49908	-1.34818	0.21464	2.68647	-0.0483505	0.121448	2.59453	-0.423778	0.0993971	2.52489	-0.00488462	0.145374	2.54553	-1.38949	0.0149844	2.56796	-0.600423	0.0357852	2.66216	-0.225952	0.092095	2.49834	-0.0052921	0.212473	2.58124	-0.110645	0.322375	2.62076	-0.100386	0.266938	2.42722	-0.473665	0.3793	2.4491	-0.0316183	0.319559	2.46486	-0.663012	0.425431	2.49539	-0.31176	0.372916	2.40387	-0.0234456	0.275329
4	2.94997	2.48678	-1.34685	0.215032	nan	nan	nan	2.59122	-0.42307	0.0996051	2.5248	-0.00472846	0.145343	2.53457	-1.3887	0.0152345	2.56112	-0.581606	0.0359717	2.65586	-0.224023	0.0940488	2.49786	-0.0053758	0.212294	2.54591	-0.101756	0.323811	2.58449	-0.0885926	0.268213	2.41236	-0.474028	0.379224	2.40927	-0.0301156	0.321369	2.45214	-0.663239	0.425024	2.47333	-0.307828	0.37318	2.36347	-0.0244205	0.277521
5	2.95996	2.47597	-1.34521	0.215771	nan	nan	nan	2.58762	-0.422446	0.0997958	2.52475	-0.00457058	0.145324	2.52362	-1.38771	0.0155973	2.5547	-0.578276	0.0362145	2.63783	-0.232921	0.0958215	2.49699	-0.00563283	0.211683	2.51074	-0.0932238	0.325629	2.54735	-0.0774751	0.269678	2.39792	-0.473845	0.378898	2.36952	-0.0292496	0.323576	2.43979	-0.662853	0.424486	2.44303	-0.32294	0.376542	2.32347	-0.0257949	0.27999
6	2.96995	2.46485	-1.34334	0.215884	nan	nan	nan	2.58384	-0.421706	0.0998649	2.52471	-0.00442847	0.145301	2.51262	-1.38659	0.015987	2.5483	-0.579385	0.0363954	2.62677	-0.22603	0.0997461	2.49687	-0.00561771	0.211748	nan	nan	nan	2.50952	-0.0671256	0.271199	2.38421	-0.473237	0.378571	2.33011	-0.0291599	0.326218	2.42797	-0.661894	0.423773	2.41809	-0.33366	0.379898	2.28387	-0.0277123	0.282673
7	2.97993	2.45301	-1.3414	0.215728	nan	nan	nan	2.57954	-0.420842	0.099996	2.52467	-0.00430976	0.14531	2.50156	-1.38531	0.0163829	2.54019	-0.59535	0.0365741	2.62726	-0.215281	0.10194	2.49725	-0.00547751	0.21229	2.43891	-0.0779676	0.330555	2.4717	-0.0573829	0.27332	2.37088	-0.472081	0.378063	2.29105	-0.0300654	0.329054	2.41653	-0.660405	0.422998	2.39948	-0.321618	0.378878	2.2446	-0.0302925	0.285603
8	2.98992	2.44286	-1.33908	0.216356	nan	nan	nan	2.57413	-0.420125	0.10002	2.52465	-0.00417745	0.14536	2.49044	-1.38389	0.0167635	2.52954	-0.634316	0.0367246	2.62285	-0.224368	0.100097	2.49694	-0.00554796	0.212156	2.40326	-0.0716142	0.333147	2.43397	-0.0486989	0.275957	2.35803	-0.470358	0.37748	2.25244	-0.0319743	0.332264	2.40486	-0.658319	0.422651	2.38312	-0.311341	0.378268	2.20585	-0.0334113	0.288727
9	2.99991	2.4321	-1.33663	0.216966	nan	nan	nan	2.56822	-0.419153	0.0996312	2.52464	-0.00407381	0.14536	2.47923	-1.38231	0.0171827	2.52067	-0.649466	0.0367126	2.62506	-0.234373	0.0955133	2.49631	-0.0056973	0.211743	2.36774	-0.0663694	0.336026	2.39674	-0.0410978	0.278998	2.34568	-0.468107	0.37688	2.21453	-0.0347857	0.335587	2.39358	-0.655804	0.422161	2.36566	-0.311864	0.38005	2.16769	-0.037094	0.29182
10	3.0099	2.42038	-1.33408	0.217456	2.68366	-0.048622	0.122281	2.56394	-0.417695	0.100003	2.52454	-0.00402483	0.145188	2.468	-1.38052	0.0178536	2.51327	-0.648156	0.0365643	2.62816	-0.2346	0.0927498	2.49604	-0.00570182	0.211665	2.33227	-0.0624726	0.339124	2.36093	-0.0343872	0.282704	2.33358	-0.465344	0.37616	2.17778	-0.0388232	0.338914	2.38261	-0.652875	0.42155	2.34276	-0.31854	0.381344	2.13049	-0.0417808	0.29512
11	3.01989	2.40868	-1.33135	0.217691	nan	nan	nan	2.55942	-0.41635	0.100319	2.52435	-0.00404686	0.144897	2.45684	-1.37864	0.0186036	2.50627	-0.645221	0.0363206	2.62577	-0.238502	0.0920811	2.49596	-0.00569858	0.211723	2.29723	-0.0599869	0.341796	nan	nan	nan	2.32173	-0.462262	0.375561	2.14261	-0.0445277	0.34226	2.37125	-0.649557	0.421429	2.32031	-0.307997	0.380235	2.09478	-0.0481144	0.29881
12	3.02988	2.39578	-1.32864	0.217839	nan	nan	nan	2.55399	-0.415121	0.100073	2.52434	-0.00398089	0.144813	2.44565	-1.37667	0.0192497	2.49848	-0.642568	0.0360588	2.62288	-0.239381	0.0917014	2.49596	-0.00568153	0.211812	2.26201	-0.0588958	0.344314	nan	nan	nan	2.30999	-0.458993	0.375226	2.10913	-0.0514572	0.345574	2.36013	-0.646202	0.421165	2.29926	-0.299311	0.38013	2.06105	-0.0566106	0.302444
13	3.03987	2.38444	-1.32606	0.218385	nan	nan	nan	2.54827	-0.414041	0.0997517	2.52431	-0.00388627	0.144745	2.43433	-1.3746	0.0199302	2.48827	-0.634589	0.0360677	2.60989	-0.23182	0.0963848	2.49609	-0.0055917	0.212017	2.22978	-0.0580483	0.346513	2.26159	-0.017466	0.296838	2.29828	-0.455644	0.375183	2.07746	-0.0588977	0.348616	2.34928	-0.643124	0.420592	2.27825	-0.296144	0.381362	2.0296	-0.0667397	0.305411
14	3.04986	2.37498	-1.32342	0.219107	2.68323	-0.0494235	0.122023	2.54261	-0.413028	0.099412	2.52389	-0.00388283	0.144339	2.42297	-1.37253	0.0208011	2.47679	-0.623656	0.0361566	2.60696	-0.234345	0.095369	2.49619	-0.00552782	0.212191	2.20032	-0.0575148	0.348481	2.22996	-0.0145448	0.29921	2.28666	-0.452353	0.375371	2.04789	-0.0663291	0.351251	2.33786	-0.640385	0.420228	2.25844	-0.29467	0.382608	2.00057	-0.0771102	0.307575
15	3.05985	2.36415	-1.32071	0.219705	2.68259	-0.0505234	0.121626	2.53705	-0.41205	0.0990242	2.52295	-0.00413686	0.143479	2.41153	-1.3706	0.0217079	2.47258	-0.631823	0.0352114	2.60951	-0.239216	0.091772	2.49623	-0.005517	0.212263	2.17287	-0.0577847	0.350502	2.20053	-0.0131378	0.300595	2.27519	-0.449172	0.375677	2.02061	-0.0732605	0.353202	2.32577	-0.638032	0.420058	2.2407	-0.292769	0.383511	1.97393	-0.0864282	0.309111
16	3.06984	2.35215	-1.31801	0.220305	2.68087	-0.0520839	0.120513	2.53133	-0.411189	0.0986494	2.52262	-0.00424124	0.143109	2.40007	-1.36871	0.0226361	2.46746	-0.637568	0.0343294	2.61187	-0.242881	0.0882551	2.49641	-0.00545755	0.212434	2.14755	-0.0586045	0.352496	2.17381	-0.0126601	0.302321	2.26378	-0.446124	0.376058	1.9958	-0.0790708	0.354268	2.31314	-0.636038	0.419804	2.22426	-0.290752	0.384355	1.9498	-0.0941233	0.309993
17	3.07983	2.33994	-1.31536	0.22096	2.6792	-0.0534125	0.119248	2.52547	-0.410401	0.098271	2.52274	-0.00415213	0.143088	2.38863	-1.36678	0.0236243	2.46021	-0.637819	0.0338961	2.60333	-0.240167	0.0902832	2.49642	-0.00544168	0.212424	2.12486	-0.0592625	0.353773	2.15011	-0.0124657	0.303579	2.25219	-0.443305	0.376482	1.97365	-0.0835236	0.354516	2.30047	-0.634452	0.418955	2.2082	-0.288976	0.385288	1.92835	-0.100139	0.31009
18	3.08981	2.32771	-1.31289	0.221607	2.67808	-0.0548094	0.118198	2.51907	-0.409744	0.0976326	2.52291	-0.0040523	0.143108	2.37715	-1.36498	0.0246668	2.4519	-0.635302	0.0337375	2.59595	-0.23823	0.0916283	2.49654	-0.00539758	0.212542	2.10509	-0.059453	0.354321	2.12964	-0.0121563	0.304157	2.2401	-0.440889	0.376896	1.95432	-0.086412	0.354305	2.2867	-0.633185	0.41823	2.19306	-0.28741	0.385949	1.90962	-0.104238	0.309515
19	3.0998	2.31525	-1.31068	0.22249	nan	nan	nan	2.51231	-0.409196	0.0970934	2.52297	-0.00399654	0.143034	2.36554	-1.36338	0.0256947	2.44129	-0.627771	0.0337423	2.58904	-0.235225	0.0926367	2.49735	-0.00506559	0.213265	2.08829	-0.0590174	0.354383	2.11251	-0.0115663	0.304402	2.22728	-0.439112	0.377247	1.93772	-0.0874736	0.353711	2.27175	-0.632268	0.417883	2.18102	-0.285047	0.384889	1.89352	-0.106074	0.308509
20	3.10979	2.30256	-1.30878	0.223379	2.67746	-0.0582532	0.116925	2.50503	-0.408765	0.09664	2.52289	-0.0039996	0.142815	2.35389	-1.36187	0.0268024	2.42889	-0.616262	0.0340883	2.57962	-0.227854	0.095562	2.49855	-0.00454803	0.214254	2.07427	-0.0580386	0.354248	2.09863	-0.010416	0.304255	2.21352	-0.438048	0.377444	1.92369	-0.086614	0.352768	2.25716	-0.631498	0.417648	2.17312	-0.281466	0.381461	1.87982	-0.105418	0.307239
21	3.11978	2.2897	-1.30719	0.22422	2.6749	-0.061601	0.115431	2.49711	-0.408378	0.0961815	2.52278	-0.00385645	0.142554	2.34216	-1.3606	0.0278974	2.42018	-0.61843	0.0343537	2.57294	-0.225297	0.0965255	2.49891	-0.00443987	0.214529	2.06292	-0.0563084	0.353698	2.08791	-0.00884835	0.303788	2.19878	-0.437617	0.377447	1.91215	-0.0839736	0.351463	2.24257	-0.630938	0.41762	2.16197	-0.279682	0.379954	1.86835	-0.102431	0.305644
22	3.12977	2.27681	-1.3059	0.225201	2.67218	-0.0651643	0.114132	2.48847	-0.408104	0.0959094	2.52235	-0.00391179	0.141938	2.33017	-1.35952	0.0289985	2.40876	-0.614879	0.0346722	2.56757	-0.226528	0.0959121	2.49891	-0.00445016	0.214524	2.05415	-0.0539167	0.352473	2.08025	-0.00728129	0.303005	2.1832	-0.437627	0.377244	1.90311	-0.0798459	0.349749	2.22783	-0.630533	0.417811	2.14862	-0.279087	0.379683	1.85903	-0.0976088	0.30363
23	3.13976	2.26373	-1.30496	0.226258	2.67113	-0.0680069	0.113927	2.47916	-0.407876	0.0958453	2.52147	-0.00422845	0.140884	2.31811	-1.3587	0.0302677	2.40053	-0.624937	0.0352162	2.56112	-0.22877	0.0953041	2.49908	-0.00430687	0.214736	2.04762	-0.0513017	0.350716	2.0757	-0.00653174	0.3021	2.1673	-0.437846	0.376925	1.89628	-0.0740438	0.347356	2.21305	-0.630081	0.418238	2.13557	-0.278687	0.379335	1.85183	-0.0910075	0.300744
24	3.14975	2.25055	-1.30437	0.227531	2.67023	-0.0713353	0.113882	2.46907	-0.407673	0.0959786	2.52105	-0.00439475	0.140266	2.30597	-1.35817	0.0316132	2.3907	-0.630336	0.0360748	2.55465	-0.229974	0.0951144	2.49911	-0.00429013	0.214776	2.04275	-0.0493268	0.348908	2.07352	-0.00676491	0.301425	2.15152	-0.438151	0.376651	1.89114	-0.0657594	0.344082	2.19858	-0.629542	0.418765	2.12358	-0.278565	0.378427	1.84621	-0.0815838	0.296477
25	3.15974	2.23716	-1.30422	0.228843	2.66719	-0.0759851	0.112785	2.45804	-0.407441	0.0963171	2.52106	-0.00430502	0.140125	2.29368	-1.35795	0.0330718	2.3789	-0.63002	0.0372194	2.55253	-0.227854	0.0948741	2.49908	-0.0042825	0.214731	2.0388	-0.0489754	0.347764	2.0724	-0.00819517	0.301208	2.13583	-0.439069	0.376552	1.8873	-0.0561815	0.339886	2.18418	-0.629507	0.419136	2.11234	-0.279517	0.377004	1.84158	-0.0691521	0.291597
26	3.16973	2.22365	-1.30452	0.230278	2.66025	-0.0825704	0.110454	2.44598	-0.407208	0.0967981	2.52115	-0.00407961	0.140144	2.28121	-1.35805	0.0345129	2.36572	-0.628612	0.0385197	2.55722	-0.224421	0.0937012	2.49926	-0.00414401	0.214898	2.03539	-0.0498166	0.347318	2.07126	-0.00975037	0.3013	2.11952	-0.441777	0.376702	1.88423	-0.0491703	0.335535	2.16914	-0.630186	0.420039	2.10089	-0.281941	0.375923	1.83783	-0.0577356	0.287936
27	3.17972	2.20995	-1.3053	0.231747	nan	nan	nan	2.43265	-0.407053	0.0971441	2.52108	-0.00401241	0.140009	2.26867	-1.35848	0.0360557	2.35167	-0.627961	0.0399879	2.55404	-0.232087	0.0907322	2.49933	-0.00414757	0.214834	2.03217	-0.0505451	0.3472	2.06969	-0.0112239	0.301744	2.10231	-0.445989	0.377014	1.88108	-0.0443953	0.332228	2.15404	-0.6315	0.421275	2.08874	-0.285264	0.37664	1.83503	-0.0508435	0.28434
28	3.18971	2.19624	-1.30638	0.23328	nan	nan	nan	2.41809	-0.406893	0.0972043	2.52102	-0.0039652	0.139875	2.25636	-1.35925	0.0376962	2.33686	-0.627734	0.0416784	2.54358	-0.239363	0.0894143	2.49926	-0.00423838	0.214543	2.02852	-0.0509374	0.347704	2.06767	-0.0129036	0.30298	2.0854	-0.449792	0.377405	1.87782	-0.0396542	0.330474	2.13894	-0.633314	0.422378	2.07614	-0.288267	0.378575	1.83237	-0.0463642	0.2803
29	3.19969	2.18276	-1.30769	0.234915	nan	nan	nan	2.40189	-0.406776	0.0967542	2.52102	-0.00385574	0.139842	2.24421	-1.36038	0.0394505	2.32141	-0.627532	0.0433612	2.52777	-0.246831	0.0886813	2.4991	-0.00424556	0.214068	2.02402	-0.0508675	0.348657	2.06552	-0.01456	0.304875	2.07026	-0.451823	0.377943	1.87434	-0.0342181	0.329879	2.12377	-0.635352	0.422981	2.06374	-0.289646	0.380088	1.82932	-0.0406302	0.278099
30	3.20968	2.16955	-1.30928	0.236458	nan	nan	nan	2.38384	-0.406696	0.0960236	2.52083	-0.0038412	0.139812	2.23162	-1.36188	0.0411278	2.30543	-0.627359	0.0449213	2.5093	-0.255319	0.0876296	2.49877	-0.00416804	0.213324	2.01966	-0.0502695	0.349201	2.06376	-0.0157758	0.306197	2.05757	-0.452001	0.378577	1.87101	-0.0289566	0.330931	2.10873	-0.637249	0.423482	2.05243	-0.28959	0.38125	1.82623	-0.0333479	0.278968
31	3.21967	2.1562	-1.31117	0.23799	nan	nan	nan	2.36427	-0.406344	0.0954581	2.52034	-0.00408364	0.13976	2.21893	-1.36369	0.0426802	2.28889	-0.627296	0.0462404	2.50046	-0.254596	0.0878889	2.49833	-0.00405161	0.21265	2.01737	-0.0496828	0.349024	2.06295	-0.0163013	0.306384	2.04706	-0.451117	0.37909	1.86816	-0.025355	0.333892	2.09424	-0.638667	0.42428	2.04264	-0.2888	0.382291	1.82367	-0.027095	0.281325
32	3.22966	2.14287	-1.31339	0.239468	2.61127	-0.127505	0.107826	2.3426	-0.405873	0.0946106	2.51961	-0.00480253	0.139907	2.20639	-1.36585	0.0440424	2.27167	-0.62736	0.0472406	2.4876	-0.255772	0.0876809	2.49768	-0.0038903	0.212153	2.01683	-0.0495675	0.34848	2.06265	-0.0165358	0.306149	2.03744	-0.45014	0.37955	1.86619	-0.0232055	0.335783	2.08062	-0.639252	0.425426	2.0346	-0.288179	0.38294	1.82224	-0.0232302	0.281715
33	3.23965	2.12954	-1.31587	0.240631	2.59577	-0.135158	0.106712	2.31918	-0.405046	0.0937932	2.51876	-0.00578995	0.141045	2.19397	-1.36813	0.0454386	2.25387	-0.627311	0.0481768	2.46899	-0.25961	0.0871054	2.49634	-0.00367311	0.211644	2.0162	-0.0497847	0.347891	2.06247	-0.0167439	0.306089	2.02784	-0.449608	0.379896	1.86434	-0.0217932	0.335324	2.06776	-0.638957	0.426664	2.02824	-0.288105	0.38292	1.82173	-0.0204482	0.278798
34	3.24964	2.11639	-1.31853	0.241658	2.57664	-0.142532	0.104796	2.29489	-0.403587	0.0937168	2.51586	-0.00686797	0.143531	2.1818	-1.37044	0.0468248	2.23537	-0.626856	0.0491309	2.44711	-0.263347	0.0864712	2.49332	-0.0031295	0.210973	2.01526	-0.0498384	0.347287	2.06236	-0.0169405	0.306102	2.01858	-0.449436	0.380014	1.86267	-0.0206835	0.334186	2.05553	-0.638411	0.42752	2.02298	-0.288384	0.382582	1.82141	-0.0179087	0.275614
35	3.25963	2.10347	-1.32128	0.242491	2.55722	-0.150196	0.102943	2.26957	-0.40185	0.0940666	2.50711	-0.00828776	0.146264	2.16998	-1.37279	0.0480888	2.21615	-0.625987	0.0500389	2.42349	-0.266286	0.0857539	2.48788	-0.00164673	0.210832	2.01449	-0.0498492	0.346812	2.0623	-0.0171081	0.306106	2.01006	-0.449443	0.379842	1.86128	-0.019544	0.334013	2.04388	-0.638371	0.427879	2.01825	-0.288578	0.382213	1.82092	-0.0155105	0.274083
36	3.26962	2.09068	-1.32402	0.243202	2.53835	-0.158941	0.101972	2.24352	-0.400076	0.0948969	2.49258	-0.0107962	0.148174	2.15856	-1.37523	0.0492312	2.19649	-0.625007	0.0510583	2.39936	-0.268843	0.0854601	2.47989	0.000766343	0.211051	2.01409	-0.0498928	0.346452	2.06228	-0.0172237	0.306094	2.00226	-0.44967	0.379514	1.86039	-0.0184945	0.33446	2.03268	-0.63922	0.427927	2.01376	-0.288438	0.381809	1.82059	-0.0135582	0.273407
37	3.27961	2.07795	-1.32663	0.243614	2.51898	-0.168601	0.101638	2.21687	-0.398635	0.0960937	2.47572	-0.0172797	0.148644	2.14745	-1.37762	0.0501669	2.17671	-0.624274	0.0522577	2.37521	-0.271835	0.0858054	2.46935	0.00262784	0.210824	2.01375	-0.0499673	0.346147	2.06225	-0.0173657	0.306113	1.9952	-0.449996	0.379272	1.85967	-0.017721	0.334451	2.02164	-0.640616	0.427814	2.00966	-0.288217	0.381517	1.82053	-0.0121501	0.272028
38	3.2896	2.0654	-1.32912	0.243778	2.49801	-0.1782	0.10153	2.18957	-0.398141	0.0972157	2.45712	-0.0257911	0.146932	2.13663	-1.37996	0.0509389	2.1569	-0.624028	0.0534558	2.35046	-0.27596	0.0863938	2.45445	0.00135501	0.208703	2.01334	-0.0500293	0.34589	2.06217	-0.017567	0.306145	1.98895	-0.450138	0.379237	1.85891	-0.0170493	0.334126	2.0108	-0.642084	0.427623	2.00607	-0.288192	0.381381	1.82049	-0.0111222	0.270362
39	3.29959	2.05305	-1.33153	0.243807	2.47555	-0.186985	0.101789	2.16235	-0.398819	0.0985324	2.43609	-0.0334602	0.143786	2.12606	-1.38218	0.0516205	2.13669	-0.624646	0.0545471	2.32547	-0.280754	0.0871948	2.43408	-0.00437083	0.205782	2.01294	-0.0500857	0.345682	2.06209	-0.0178374	0.306186	1.98352	-0.449915	0.3794	1.85815	-0.0163706	0.334087	2.00046	-0.643281	0.427496	2.00286	-0.288253	0.38138	1.82037	-0.0104998	0.269244
40	3.30957	2.04086	-1.33387	0.243678	2.45194	-0.194565	0.102701	2.13498	-0.400914	0.0995401	2.41254	-0.0406426	0.141543	2.11567	-1.38432	0.0521452	2.11617	-0.62633	0.0556703	2.29998	-0.285902	0.0880725	2.40953	-0.0117843	0.203736	2.01257	-0.050128	0.345521	2.06199	-0.0181512	0.306239	1.97854	-0.449436	0.379623	1.85742	-0.0156386	0.334129	1.99077	-0.643957	0.427444	1.9998	-0.288245	0.381568	1.82027	-0.0101287	0.268399
41	3.31956	2.02876	-1.33617	0.243396	nan	nan	nan	2.10759	-0.403937	0.100196	2.38626	-0.0473322	0.140618	2.10566	-1.38648	0.0526903	2.0961	-0.628379	0.0570259	2.27413	-0.290975	0.0891298	2.38205	-0.018217	0.202023	2.01219	-0.0501431	0.345434	2.06187	-0.0184879	0.306308	1.97398	-0.449034	0.379885	1.85676	-0.0149323	0.334035	1.98178	-0.644251	0.427576	1.99678	-0.288118	0.381943	1.82021	-0.00987483	0.267633
42	3.32955	2.01678	-1.3385	0.243027	2.4015	-0.206505	0.105391	2.08047	-0.407388	0.100672	2.35766	-0.0532576	0.141021	2.09582	-1.38868	0.0532033	2.07688	-0.630469	0.0581944	2.24783	-0.295879	0.0902298	2.35266	-0.023532	0.201414	2.01186	-0.0501736	0.345414	2.06178	-0.0188509	0.306413	1.96968	-0.448859	0.380142	1.85626	-0.0143601	0.334011	1.9735	-0.64433	0.427946	1.99373	-0.287866	0.382374	1.82017	-0.00974045	0.267098
43	3.33954	2.00492	-1.34086	0.242582	2.37472	-0.210576	0.106742	2.05404	-0.411114	0.101149	2.32759	-0.0580393	0.142808	2.08585	-1.39085	0.053507	2.05808	-0.63292	0.0589371	2.22148	-0.300345	0.0915712	2.3214	-0.0284594	0.202422	2.01157	-0.0502397	0.345405	2.06171	-0.0191993	0.306486	1.96558	-0.448854	0.380429	1.85594	-0.0139697	0.334048	1.96587	-0.644336	0.428466	1.9907	-0.287513	0.382652	1.82013	-0.0096656	0.266775
44	3.34953	1.99322	-1.34329	0.242146	2.34732	-0.212628	0.108627	2.02873	-0.415113	0.101947	2.29603	-0.0618198	0.144944	2.07593	-1.39293	0.0537862	2.03956	-0.635735	0.0597508	2.19483	-0.304212	0.0928923	2.28856	-0.0327235	0.204539	2.01134	-0.0503073	0.34534	2.06164	-0.0195122	0.306465	1.96181	-0.448899	0.38074	1.85568	-0.0136629	0.334102	1.95867	-0.644384	0.429069	1.9881	-0.287286	0.382755	1.82007	-0.00960084	0.266564
45	3.35952	1.98172	-1.34581	0.241744	2.31913	-0.212964	0.110565	2.00419	-0.419272	0.102973	2.26314	-0.0646329	0.147171	2.06615	-1.39504	0.0540851	2.0214	-0.638648	0.0600729	2.16784	-0.307396	0.0942443	2.25495	-0.0357499	0.207285	2.01118	-0.0504796	0.345291	2.06159	-0.0198291	0.306384	1.95844	-0.448923	0.38114	1.85546	-0.0133966	0.334173	1.9517	-0.644498	0.42967	1.98621	-0.287227	0.382763	1.81995	-0.00952168	0.266439
46	3.36951	1.9702	-1.34829	0.241213	2.29019	-0.21195	0.112379	1.97956	-0.423582	0.10399	2.22912	-0.0662816	0.149672	2.05639	-1.39714	0.0543729	2.00348	-0.64158	0.0604358	2.14067	-0.309683	0.0956766	2.21984	-0.0378352	0.209979	2.01115	-0.0508025	0.345343	2.06153	-0.0201142	0.306188	1.9554	-0.448856	0.381571	1.85526	-0.0131657	0.334258	1.94494	-0.644556	0.43034	1.98497	-0.287236	0.382734	1.81979	-0.00943773	0.266368
47	3.3795	1.95872	-1.35073	0.24084	2.26098	-0.209267	0.114366	1.95493	-0.427987	0.104978	2.19399	-0.0667139	0.152389	2.04658	-1.39915	0.0546613	1.98571	-0.644617	0.0608243	2.11335	-0.310949	0.0972219	2.18356	-0.038932	0.212771	2.01114	-0.0511372	0.345389	2.06147	-0.0204008	0.305986	1.9527	-0.448782	0.382081	1.85507	-0.0129569	0.334341	1.93848	-0.644428	0.431154	1.9841	-0.287239	0.382741	1.8196	-0.009355	0.266315
48	3.38949	1.94733	-1.35314	0.240686	2.23095	-0.20516	0.116466	1.93056	-0.432394	0.105877	2.15805	-0.0661205	0.155009	2.03665	-1.40104	0.0549563	1.96823	-0.647796	0.0613207	2.08596	-0.311161	0.0988458	2.14633	-0.0388288	0.21522	2.01101	-0.0513702	0.345305	2.06138	-0.020752	0.305863	1.95023	-0.448731	0.382629	1.85487	-0.0127655	0.334385	1.93191	-0.644335	0.431863	1.98317	-0.287195	0.382775	1.81937	-0.00926256	0.266246
49	3.39948	1.93595	-1.35534	0.240512	2.20012	-0.199831	0.118666	1.90683	-0.43671	0.106899	2.12139	-0.0646194	0.157394	2.0265	-1.40263	0.055205	1.95095	-0.650985	0.0617372	2.05848	-0.310457	0.100443	2.10824	-0.0376966	0.217301	2.01074	-0.0513941	0.345051	2.06126	-0.0211465	0.30579	1.9478	-0.448721	0.383157	1.85467	-0.0126005	0.334407	1.92522	-0.644328	0.432431	1.98186	-0.287153	0.382841	1.81912	-0.00916824	0.266152
50	3.40947	1.9245	-1.35737	0.240348	2.16865	-0.193423	0.120978	1.88404	-0.440825	0.108442	2.08383	-0.0624813	0.159446	2.01613	-1.40391	0.0553723	1.93343	-0.654207	0.0617162	2.03122	-0.30885	0.102406	2.06917	-0.035916	0.218849	2.01046	-0.0515273	0.344873	2.06114	-0.0215665	0.305702	1.94514	-0.448723	0.383547	1.85453	-0.0124802	0.334428	1.91835	-0.644397	0.432735	1.98006	-0.287172	0.382888	1.81889	-0.00906879	0.266061
51	3.41945	1.91306	-1.35901	0.24018	2.13662	-0.186068	0.123251	1.86162	-0.444776	0.109559	2.04545	-0.0598983	0.161153	2.00561	-1.40496	0.0554526	1.91574	-0.657462	0.0614039	2.00397	-0.306622	0.10445	2.02878	-0.0338905	0.219897	2.01024	-0.0517971	0.344778	2.06102	-0.0220541	0.30567	1.94214	-0.448757	0.383835	1.8544	-0.0123846	0.334383	1.91154	-0.64438	0.432943	1.97796	-0.28726	0.382945	1.81869	-0.00897558	0.265971
52	3.42944	1.9016	-1.36023	0.239975	2.10398	-0.177867	0.125462	1.83966	-0.448383	0.110606	2.00599	-0.0572673	0.162416	1.99505	-1.40574	0.0555379	1.89802	-0.660714	0.0611337	1.97664	-0.303966	0.106193	1.98701	-0.0321285	0.220519	2.01002	-0.0521054	0.344662	2.06084	-0.0228888	0.305992	1.93888	-0.448777	0.384041	1.8543	-0.0123092	0.334297	1.90471	-0.644262	0.433051	1.97586	-0.287366	0.382989	1.81852	-0.00887749	0.265887
53	3.43943	1.8901	-1.3611	0.239751	2.07078	-0.169043	0.127701	1.8182	-0.451752	0.111505	1.96541	-0.0548505	0.163204	1.98451	-1.40627	0.0557903	1.88035	-0.663857	0.0608971	1.94937	-0.300923	0.10778	1.94398	-0.0308001	0.220694	2.00974	-0.0522916	0.344394	2.06055	-0.0242517	0.306911	1.93552	-0.44875	0.384196	1.85424	-0.0122546	0.334223	1.89792	-0.644052	0.433083	1.97388	-0.287416	0.382972	1.81836	-0.00878854	0.265819
54	3.44942	1.87858	-1.36167	0.239531	2.03707	-0.1599	0.129918	1.79738	-0.454933	0.112173	1.92401	-0.0527622	0.16346	1.97399	-1.40653	0.0561173	1.86279	-0.666863	0.0607201	1.92227	-0.297626	0.109218	1.90056	-0.0298508	0.22042	2.00952	-0.0525392	0.344194	2.06041	-0.0251807	0.307329	1.93217	-0.448656	0.384341	1.85421	-0.0122224	0.334185	1.89123	-0.643694	0.433121	1.97209	-0.287426	0.382948	1.81824	-0.00872885	0.265807
55	3.45941	1.86704	-1.36188	0.239262	2.00272	-0.150614	0.132164	1.77728	-0.457917	0.112645	1.88258	-0.0508026	0.163533	1.96329	-1.40644	0.0562947	1.84552	-0.669768	0.0606208	1.89532	-0.294111	0.110546	1.85697	-0.0291516	0.220001	2.00938	-0.0527896	0.344074	2.06038	-0.0256572	0.307304	1.92889	-0.448526	0.384516	1.85421	-0.0121917	0.334165	1.88447	-0.643182	0.433094	1.97049	-0.287473	0.382975	1.81816	-0.00871855	0.265814
56	3.4694	1.85548	-1.36178	0.239059	1.96741	-0.141076	0.134209	1.75806	-0.460722	0.113003	1.84105	-0.0489275	0.16364	1.95238	-1.40597	0.0563378	1.82847	-0.672495	0.0605212	1.8684	-0.290415	0.111665	1.81326	-0.0286473	0.219379	2.00924	-0.0530389	0.343969	2.06038	-0.0259419	0.3071	1.92561	-0.44842	0.384713	1.85418	-0.0120998	0.334107	1.87735	-0.642798	0.432796	1.96889	-0.287545	0.383059	1.81812	-0.00877457	0.265865
57	3.47939	1.84387	-1.36135	0.238859	1.93127	-0.131577	0.135975	1.73976	-0.463193	0.113225	1.79927	-0.0473307	0.163726	1.94146	-1.4052	0.0564161	1.8119	-0.674859	0.0605748	1.84139	-0.286571	0.112475	1.76957	-0.0284809	0.218682	2.00909	-0.053326	0.343823	2.06045	-0.026029	0.306528	1.92229	-0.44832	0.384889	1.8541	-0.0119425	0.333998	1.8704	-0.642286	0.432632	1.96714	-0.287603	0.383145	1.81812	-0.00884989	0.26594
58	3.48938	1.83221	-1.36062	0.238607	1.89447	-0.122259	0.137442	1.72237	-0.465203	0.113395	1.75746	-0.0462818	0.163733	1.93062	-1.40423	0.0566647	1.79609	-0.67669	0.060831	1.81425	-0.282537	0.113077	1.72605	-0.0288689	0.217999	2.00894	-0.0536874	0.343655	2.06062	-0.0257922	0.30534	1.91886	-0.448206	0.385055	1.8541	-0.0118527	0.333963	1.86379	-0.641647	0.432865	1.96517	-0.287651	0.383267	1.8181	-0.00885078	0.265981
59	3.49937	1.82049	-1.3596	0.238313	1.85707	-0.113251	0.138538	1.70574	-0.466545	0.113529	1.71554	-0.0459269	0.163726	1.9197	-1.40299	0.0568294	1.78126	-0.677812	0.0612616	1.78716	-0.278292	0.11367	1.68271	-0.0300059	0.217495	2.0088	-0.0540941	0.343525	2.06066	-0.0260965	0.304634	1.91525	-0.448061	0.385331	1.85419	-0.0118306	0.334017	1.85745	-0.640889	0.433406	1.96298	-0.28768	0.383423	1.81808	-0.0087476	0.265936
60	3.50936	1.80871	-1.35832	0.238027	1.8192	-0.104798	0.139539	1.68979	-0.467157	0.113608	1.67368	-0.0463797	0.163809	1.90863	-1.40154	0.0568592	1.76751	-0.678134	0.0618501	1.76006	-0.273993	0.114165	1.63953	-0.032008	0.217197	2.00868	-0.0545033	0.343457	2.06061	-0.0267893	0.304361	1.91148	-0.447899	0.385733	1.85435	-0.0118523	0.33416	1.85107	-0.640136	0.433899	1.96077	-0.287771	0.383704	1.8181	-0.00863199	0.265802
61	3.51935	1.79691	-1.35683	0.237748	1.781	-0.0969172	0.140667	1.67442	-0.467011	0.113674	1.63196	-0.047815	0.164017	1.89754	-1.39986	0.0568597	1.75485	-0.677599	0.0625137	1.73304	-0.269831	0.114545	1.59672	-0.0353443	0.217092	2.00851	-0.0549557	0.343483	2.06056	-0.0276053	0.304398	1.90761	-0.447735	0.386259	1.85442	-0.0118035	0.334305	1.84427	-0.639643	0.434199	1.95865	-0.287955	0.384172	1.81816	-0.00868184	0.265858
62	3.52933	1.78511	-1.35516	0.237402	1.74278	-0.0900246	0.14139	1.65963	-0.466265	0.113938	1.59068	-0.0504992	0.164216	1.88641	-1.39798	0.0568314	1.74326	-0.676144	0.0631797	1.70625	-0.265925	0.114758	1.55454	-0.0402919	0.217205	2.00826	-0.0554011	0.343564	2.0605	-0.0284818	0.304641	1.9037	-0.447587	0.386919	1.85441	-0.0117116	0.334439	1.83756	-0.639021	0.434713	1.95654	-0.28817	0.384741	1.81828	-0.00886735	0.266055
63	3.53932	1.7732	-1.35336	0.236962	1.70464	-0.0843435	0.141726	1.64545	-0.465153	0.11423	1.55021	-0.0543474	0.164491	1.87521	-1.39594	0.0567108	1.73257	-0.67382	0.0637974	1.6797	-0.262354	0.114874	1.51343	-0.0467757	0.217557	2.00795	-0.0558821	0.343717	2.06042	-0.0293202	0.304845	1.89964	-0.447391	0.387643	1.85441	-0.0116477	0.334617	1.831	-0.638191	0.435464	1.95428	-0.288417	0.385391	1.81836	-0.00886538	0.266091
64	3.54931	1.76125	-1.35146	0.236464	1.66711	-0.0799144	0.141811	1.63193	-0.463703	0.114727	1.51098	-0.0590915	0.16475	1.86394	-1.39377	0.0565591	1.72251	-0.670714	0.0642504	1.65349	-0.259178	0.114959	1.4738	-0.0543832	0.217939	2.00767	-0.0564424	0.344023	2.06023	-0.0301772	0.304867	1.89532	-0.447119	0.388336	1.85443	-0.0115696	0.3348	1.82413	-0.637404	0.436182	1.95179	-0.288671	0.386059	1.81845	-0.00883973	0.266078
65	3.5593	1.74924	-1.34949	0.235926	1.63058	-0.0767998	0.141541	1.61891	-0.461864	0.115404	1.47319	-0.0646577	0.164775	1.85254	-1.39149	0.0562421	1.71287	-0.666977	0.0645288	1.62783	-0.256577	0.114973	1.43588	-0.0625639	0.217964	2.00745	-0.0571232	0.344414	2.05999	-0.03115	0.304838	1.89068	-0.446774	0.38897	1.85447	-0.0114773	0.334977	1.81717	-0.636446	0.436936	1.94899	-0.288873	0.386595	1.81856	-0.00883173	0.266086
66	3.56929	1.73714	-1.34746	0.235388	1.59536	-0.074898	0.141048	1.6062	-0.459638	0.116286	1.43717	-0.070798	0.164246	1.84104	-1.38916	0.0558124	1.70339	-0.662993	0.0645093	1.60315	-0.254536	0.115135	1.39975	-0.0709799	0.21744	2.00718	-0.0579259	0.344808	2.05991	-0.0324081	0.305217	1.88556	-0.446263	0.389483	1.85454	-0.0114107	0.335158	1.80995	-0.635359	0.437589	1.94581	-0.289005	0.386985	1.81865	-0.00882442	0.266119
67	3.57928	1.72495	-1.34538	0.234824	1.56177	-0.0740907	0.140374	1.5938	-0.457155	0.117387	1.40301	-0.077379	0.163028	1.82935	-1.38673	0.0552636	1.69383	-0.659025	0.0642417	1.57981	-0.252953	0.115458	1.36536	-0.0794131	0.216191	2.00679	-0.0587899	0.345083	2.0598	-0.0336843	0.305487	1.87998	-0.445565	0.389832	1.85462	-0.0113857	0.335347	1.80246	-0.634115	0.438172	1.94225	-0.289074	0.387244	1.81871	-0.00880885	0.266162
68	3.58927	1.71269	-1.34329	0.234166	1.53008	-0.0741241	0.139867	1.58185	-0.454498	0.118688	1.3708	-0.0842711	0.161188	1.81756	-1.38426	0.0547299	1.68398	-0.655227	0.0637466	1.55793	-0.251823	0.115886	1.33284	-0.0876313	0.214292	2.00618	-0.0595791	0.345043	2.05959	-0.0350566	0.305647	1.87361	-0.444777	0.389989	1.85468	-0.0113426	0.335521	1.79471	-0.632726	0.438653	1.93833	-0.289091	0.387377	1.81873	-0.00875527	0.266175
