Coordinates
version=1
nRows=230
nColumns=38
inDegrees=no

Units are S.I. units (second, meters, Newtons, ...)
If the header above contains a line with 'inDegrees', this indicates whether rotational values are in degrees (yes) or radians (no).

endheader
time	pelvis_tilt	pelvis_list	pelvis_rotation	pelvis_tx	pelvis_ty	pelvis_tz	hip_flexion_r	hip_adduction_r	hip_rotation_r	knee_angle_r	ankle_angle_r	subtalar_angle_r	mtp_angle_r	hip_flexion_l	hip_adduction_l	hip_rotation_l	knee_angle_l	ankle_angle_l	subtalar_angle_l	mtp_angle_l	lumbar_extension	lumbar_bending	lumbar_rotation	arm_flex_r	arm_add_r	arm_rot_r	elbow_flex_r	pro_sup_r	wrist_flex_r	wrist_dev_r	arm_flex_l	arm_add_l	arm_rot_l	elbow_flex_l	pro_sup_l	wrist_flex_l	wrist_dev_l
3.49	-2.58733	-0.259591	-0.0883867	1.80457	-0.94968	0.247102	-0.338179	0.18146	0.0497483	0.624386	0.308391	0	0	0.013997	-0.299272	-0.215921	0.174372	0.112497	0	0	-1.18371	0.121872	0.300667	0.560756	-0.542023	-0.0893035	1.05402	0.626088	0	0	0.570177	0.50859	0.125158	1.06347	0.6296	0	0
3.49999	-2.59438	-0.265154	-0.0897121	1.79231	-0.948135	0.245353	-0.338386	0.182879	0.0556633	0.637137	0.321929	0	0	0.0222449	-0.302692	-0.205639	0.175593	0.10262	0	0	-1.17686	0.128412	0.293852	0.559573	-0.541767	-0.0892503	1.05361	0.626024	0	0	0.568969	0.50805	0.125134	1.06309	0.629535	0	0
3.50997	-2.60147	-0.270571	-0.0910555	1.78004	-0.946601	0.243614	-0.338592	0.18418	0.0616082	0.649835	0.335351	0	0	0.0304673	-0.305973	-0.195533	0.17712	0.0924746	0	0	-1.16984	0.134726	0.287403	0.55839	-0.541512	-0.089197	1.05321	0.62596	0	0	0.567762	0.50751	0.12511	1.06272	0.62947	0	0
3.51996	-2.60856	-0.275614	-0.0924586	1.76775	-0.945097	0.241903	-0.338796	0.185142	0.0675722	0.662577	0.348423	0	0	0.038513	-0.308886	-0.185865	0.179356	0.0815939	0	0	-1.16261	0.140475	0.281686	0.557206	-0.541256	-0.0891437	1.0528	0.625896	0	0	0.566554	0.50697	0.125087	1.06235	0.629406	0	0
3.52995	-2.61552	-0.279989	-0.0939668	1.75543	-0.943649	0.240244	-0.338998	0.185452	0.0734459	0.675598	0.360803	0	0	0.0461465	-0.311133	-0.176921	0.182691	0.0693994	0	0	-1.15524	0.145271	0.276895	0.556022	-0.541	-0.0890904	1.0524	0.625832	0	0	0.565346	0.506429	0.125063	1.06198	0.629341	0	0
3.53994	-2.62228	-0.283351	-0.0956377	1.74305	-0.942285	0.23866	-0.339196	0.184742	0.0790485	0.689055	0.372047	0	0	0.0531966	-0.312365	-0.169011	0.187474	0.0553048	0	0	-1.14774	0.148715	0.273021	0.554838	-0.540745	-0.0890371	1.052	0.625768	0	0	0.564138	0.505889	0.125039	1.06161	0.629276	0	0
3.54992	-2.62873	-0.285329	-0.0975202	1.7306	-0.941038	0.237176	-0.339392	0.182608	0.084104	0.703083	0.381605	0	0	0.0595387	-0.312211	-0.162467	0.193966	0.0388153	0	0	-1.14007	0.150422	0.269878	0.553654	-0.540489	-0.0889838	1.05159	0.625704	0	0	0.56293	0.505348	0.125016	1.06124	0.629212	0	0
3.55991	-2.63481	-0.285518	-0.0996537	1.71808	-0.93994	0.235813	-0.339585	0.178604	0.0882307	0.717763	0.388825	0	0	0.0651181	-0.310268	-0.157631	0.202324	0.0196461	0	0	-1.13216	0.150017	0.267135	0.55247	-0.540233	-0.0889305	1.05119	0.62564	0	0	0.561721	0.504807	0.124992	1.06087	0.629147	0	0
3.5699	-2.64045	-0.283495	-0.102079	1.70547	-0.93902	0.234588	-0.339777	0.172253	0.0909622	0.733129	0.392947	0	0	0.0699353	-0.306122	-0.154822	0.212616	-0.00214881	0	0	-1.12388	0.147131	0.264363	0.551285	-0.539977	-0.0888771	1.05079	0.625575	0	0	0.560512	0.504266	0.124968	1.0605	0.629082	0	0
3.57988	-2.6456	-0.278871	-0.104796	1.69278	-0.938306	0.233511	-0.339971	0.163125	0.0917933	0.749168	0.393167	0	0	0.0740351	-0.299401	-0.154218	0.224821	-0.0260458	0	0	-1.11509	0.141462	0.261103	0.5501	-0.539721	-0.0888237	1.05038	0.625511	0	0	0.559304	0.503725	0.124944	1.06013	0.629018	0	0
3.58987	-2.65006	-0.27145	-0.107703	1.68001	-0.937818	0.232583	-0.340173	0.150987	0.090232	0.766123	0.388719	0	0	0.0772687	-0.289921	-0.155742	0.238744	-0.0510246	0	0	-1.10602	0.132942	0.256975	0.548915	-0.539465	-0.0887703	1.04998	0.625447	0	0	0.558094	0.503184	0.124921	1.05975	0.628953	0	0
3.59986	-2.65361	-0.261228	-0.11064	1.66719	-0.937572	0.2318	-0.34039	0.135827	0.0859334	0.784258	0.378921	0	0	0.0794225	-0.277692	-0.159125	0.254095	-0.0757202	0	0	-1.09698	0.121711	0.25169	0.54773	-0.539209	-0.0887169	1.04957	0.625383	0	0	0.556885	0.502642	0.124897	1.05938	0.628888	0	0
3.60985	-2.65601	-0.24843	-0.113413	1.65433	-0.93758	0.231148	-0.34063	0.117883	0.0787687	0.803885	0.363238	0	0	0.0801634	-0.262943	-0.163968	0.270455	-0.0987943	0	0	-1.08841	0.108138	0.245086	0.546544	-0.538952	-0.0886635	1.04917	0.625319	0	0	0.555675	0.5021	0.124873	1.05901	0.628824	0	0
3.61983	-2.65704	-0.23345	-0.115854	1.64146	-0.937846	0.230606	-0.340907	0.0975728	0.0688713	0.825234	0.341286	0	0	0.079116	-0.24605	-0.169823	0.287304	-0.119159	0	0	-1.08076	0.092729	0.237124	0.545359	-0.538696	-0.08861	1.04877	0.625255	0	0	0.554465	0.501558	0.124849	1.05864	0.628759	0	0
3.62982	-2.65643	-0.216849	-0.11781	1.62862	-0.938368	0.230149	-0.341233	0.0754816	0.0566174	0.848514	0.31295	0	0	0.0757957	-0.227516	-0.176127	0.303953	-0.136061	0	0	-1.07459	0.0761374	0.227876	0.544172	-0.538439	-0.0885565	1.04836	0.625191	0	0	0.553255	0.501016	0.124825	1.05827	0.628695	0	0
3.63981	-2.65402	-0.199184	-0.119203	1.61585	-0.939142	0.22975	-0.341624	0.0521941	0.0425696	0.87375	0.27835	0	0	0.069767	-0.207814	-0.182383	0.319723	-0.149017	0	0	-1.07033	0.0589814	0.217469	0.542986	-0.538182	-0.088503	1.04796	0.625127	0	0	0.552044	0.500473	0.124801	1.0579	0.62863	0	0
3.64979	-2.64967	-0.180975	-0.120029	1.60318	-0.940157	0.229379	-0.342094	0.0282645	0.0274469	0.900794	0.237922	0	0	0.0606858	-0.187368	-0.188209	0.33405	-0.15776	0	0	-1.06837	0.0418082	0.206053	0.541799	-0.537925	-0.0884494	1.04755	0.625063	0	0	0.550833	0.49993	0.124778	1.05753	0.628565	0	0
3.65978	-2.64328	-0.16267	-0.120359	1.59065	-0.941401	0.229009	-0.342659	0.00418302	0.0120603	0.929335	0.192476	0	0	0.0483364	-0.166539	-0.193398	0.346553	-0.162242	0	0	-1.06895	0.0250526	0.193783	0.540612	-0.537668	-0.0883958	1.04715	0.624999	0	0	0.549621	0.499387	0.124754	1.05715	0.628501	0	0
3.66977	-2.63483	-0.144634	-0.120348	1.57829	-0.942859	0.228618	-0.343326	-0.0196546	-0.00277928	0.958943	0.143223	0	0	0.0326265	-0.145627	-0.197934	0.35702	-0.162664	0	0	-1.07226	0.00900259	0.180805	0.539424	-0.537411	-0.0883422	1.04675	0.624936	0	0	0.54841	0.498843	0.124729	1.05678	0.628436	0	0
3.67976	-2.62427	-0.127264	-0.120201	1.56613	-0.944515	0.228186	-0.344099	-0.0428699	-0.0163483	0.989235	0.0918789	0	0	0.0134563	-0.124965	-0.201818	0.365275	-0.15947	0	0	-1.0785	-0.00608098	0.167274	0.538236	-0.537153	-0.0882885	1.04634	0.624872	0	0	0.547197	0.4983	0.124705	1.05641	0.628372	0	0
3.68974	-2.61165	-0.110869	-0.120115	1.55418	-0.94635	0.227701	-0.344966	-0.0651366	-0.0280759	1.0197	0.0405241	0	0	-0.00908197	-0.104843	-0.205113	0.371332	-0.15322	0	0	-1.08771	-0.0200428	0.153361	0.537047	-0.536895	-0.0882348	1.04594	0.624808	0	0	0.545985	0.497755	0.124681	1.05604	0.628307	0	0
3.69973	-2.59713	-0.0956415	-0.120249	1.54246	-0.948346	0.227157	-0.345897	-0.0862163	-0.0376311	1.04973	-0.00852155	0	0	-0.0346871	-0.0854735	-0.207915	0.375412	-0.144512	0	0	-1.0997	-0.0328385	0.139234	0.535858	-0.536637	-0.088181	1.04553	0.624744	0	0	0.544772	0.497211	0.124657	1.05567	0.628243	0	0
3.70972	-2.58094	-0.0816952	-0.120688	1.53096	-0.950481	0.226553	-0.34684	-0.105928	-0.0449504	1.07871	-0.0528098	0	0	-0.0629446	-0.0670218	-0.210239	0.377816	-0.13396	0	0	-1.11417	-0.0444511	0.125046	0.534669	-0.536379	-0.0881272	1.04513	0.62468	0	0	0.543558	0.496665	0.124633	1.05529	0.628179	0	0
3.7197	-2.56341	-0.0690315	-0.121411	1.51968	-0.952733	0.225891	-0.347706	-0.124145	-0.0502148	1.10597	-0.0899823	0	0	-0.0932885	-0.0495823	-0.211994	0.378936	-0.122145	0	0	-1.13071	-0.0548897	0.110914	0.533478	-0.53612	-0.0880733	1.04472	0.624616	0	0	0.542344	0.49612	0.124608	1.05492	0.628114	0	0
3.72969	-2.54501	-0.0575014	-0.122288	1.5086	-0.95508	0.225181	-0.34837	-0.14081	-0.0537945	1.13078	-0.118112	0	0	-0.124971	-0.0331492	-0.212995	0.379262	-0.109572	0	0	-1.14868	-0.0642087	0.0969042	0.532287	-0.535862	-0.0880193	1.04432	0.624553	0	0	0.541129	0.495573	0.124584	1.05455	0.62805	0	0
3.73968	-2.5262	-0.04694	-0.123123	1.4977	-0.957497	0.224432	-0.348659	-0.15587	-0.0561315	1.1525	-0.136072	0	0	-0.157232	-0.0177085	-0.212938	0.379243	-0.0966626	0	0	-1.16751	-0.072401	0.0830395	0.531096	-0.535602	-0.0879653	1.04391	0.624489	0	0	0.539913	0.495027	0.12456	1.05418	0.627985	0	0
3.74967	-2.50762	-0.0370052	-0.123638	1.48694	-0.959958	0.223657	-0.348348	-0.169344	-0.0576907	1.17039	-0.14377	0	0	-0.18912	-0.00312226	-0.211478	0.379419	-0.0837286	0	0	-1.18639	-0.0795417	0.069298	0.529904	-0.535343	-0.0879113	1.04351	0.624425	0	0	0.538697	0.494479	0.124535	1.0538	0.627921	0	0
3.75965	-2.4899	-0.0274161	-0.123622	1.47632	-0.962438	0.222871	-0.347161	-0.181259	-0.0587727	1.1838	-0.142028	0	0	-0.219684	0.0107329	-0.208348	0.380316	-0.0709724	0	0	-1.20448	-0.0856784	0.055673	0.528711	-0.535083	-0.0878571	1.0431	0.624361	0	0	0.53748	0.493931	0.12451	1.05343	0.627857	0	0
3.76964	-2.47364	-0.0179282	-0.122882	1.46579	-0.96491	0.222089	-0.344773	-0.19165	-0.0596422	1.19225	-0.132249	0	0	-0.248087	0.0239602	-0.203293	0.382298	-0.0585288	0	0	-1.22111	-0.0908471	0.0421517	0.527517	-0.534823	-0.0878029	1.0427	0.624298	0	0	0.536262	0.493382	0.124486	1.05306	0.627792	0	0
3.77963	-2.45941	-0.0083476	-0.121246	1.45533	-0.967345	0.22133	-0.340826	-0.200567	-0.0605555	1.19544	-0.11609	0	0	-0.273613	0.0366263	-0.196096	0.385587	-0.0464717	0	0	-1.23578	-0.0950882	0.02872	0.526322	-0.534562	-0.0877486	1.04229	0.624234	0	0	0.535043	0.492833	0.124461	1.05268	0.627728	0	0
3.78961	-2.44769	0.00143909	-0.118609	1.44491	-0.969718	0.220612	-0.334953	-0.208073	-0.0617447	1.19326	-0.0952637	0	0	-0.295711	0.0487479	-0.186654	0.390253	-0.0348139	0	0	-1.24805	-0.0984725	0.0153763	0.525127	-0.534301	-0.0876942	1.04188	0.624171	0	0	0.533824	0.492283	0.124436	1.05231	0.627664	0	0
3.7996	-2.43886	0.0114661	-0.114936	1.43452	-0.972001	0.219955	-0.326822	-0.214281	-0.0634461	1.1858	-0.0714403	0	0	-0.314053	0.0603091	-0.175002	0.396181	-0.0235204	0	0	-1.25763	-0.101099	0.00213794	0.52393	-0.53404	-0.0876397	1.04148	0.624107	0	0	0.532603	0.491732	0.124411	1.05194	0.6276	0	0
3.80959	-2.4331	0.0216883	-0.110264	1.42414	-0.974167	0.219379	-0.316191	-0.219375	-0.0659242	1.17333	-0.0462048	0	0	-0.328635	0.0712742	-0.161308	0.403027	-0.012524	0	0	-1.26438	-0.103078	-0.0109779	0.522733	-0.533778	-0.0875852	1.04107	0.624044	0	0	0.531382	0.49118	0.124386	1.05156	0.627536	0	0
3.81958	-2.43044	0.0320483	-0.104674	1.41375	-0.976193	0.218904	-0.302996	-0.22364	-0.0695011	1.15622	-0.0209347	0	0	-0.339755	0.081632	-0.145857	0.410308	-0.00171991	0	0	-1.26818	-0.104542	-0.0239489	0.521535	-0.533516	-0.0875305	1.04066	0.62398	0	0	0.53016	0.490628	0.12436	1.05119	0.627471	0	0
3.82956	-2.43068	0.0425487	-0.0982196	1.40334	-0.978055	0.218548	-0.287456	-0.227392	-0.074497	1.13487	0.00328559	0	0	-0.347876	0.0914189	-0.128922	0.417633	0.00902809	0	0	-1.26898	-0.105637	-0.0367612	0.520336	-0.533253	-0.0874757	1.04026	0.623917	0	0	0.528937	0.490074	0.124335	1.05081	0.627407	0	0
3.83955	-2.43353	0.0532323	-0.0909873	1.39289	-0.979732	0.218328	-0.269978	-0.230944	-0.0810858	1.10954	0.025577	0	0	-0.353529	0.100739	-0.110696	0.424683	0.0198191	0	0	-1.26703	-0.106535	-0.0494777	0.519136	-0.532989	-0.0874209	1.03985	0.623853	0	0	0.527713	0.48952	0.12431	1.05044	0.627343	0	0
3.84954	-2.4386	0.0641895	-0.0831327	1.3824	-0.981205	0.21826	-0.251069	-0.234615	-0.0892451	1.08041	0.0452581	0	0	-0.357251	0.109789	-0.0912864	0.431213	0.0307041	0	0	-1.26298	-0.107462	-0.0622402	0.517935	-0.532725	-0.0873659	1.03944	0.62379	0	0	0.526488	0.488965	0.124284	1.05006	0.627279	0	0
3.85953	-2.44552	0.0755751	-0.0748051	1.37186	-0.982459	0.218355	-0.231199	-0.23875	-0.0988837	1.04769	0.0619296	0	0	-0.359534	0.118825	-0.0707219	0.437037	0.0417358	0	0	-1.25732	-0.108679	-0.0751887	0.516733	-0.532461	-0.0873108	1.03904	0.623727	0	0	0.525262	0.488408	0.124258	1.04969	0.627215	0	0
3.86951	-2.454	0.087573	-0.0661229	1.36126	-0.983479	0.218621	-0.210762	-0.243674	-0.109847	1.01169	0.0754185	0	0	-0.360807	0.128113	-0.0489685	0.442019	0.0529602	0	0	-1.25047	-0.110447	-0.0884534	0.51553	-0.532196	-0.0872556	1.03863	0.623664	0	0	0.524035	0.487851	0.124232	1.04931	0.627151	0	0
3.8795	-2.46379	0.100363	-0.0571661	1.35059	-0.984256	0.219065	-0.190056	-0.249655	-0.121914	0.972712	0.0857146	0	0	-0.361421	0.137893	-0.0259549	0.446071	0.0644143	0	0	-1.24273	-0.113	-0.102147	0.514325	-0.53193	-0.0872003	1.03822	0.6236	0	0	0.522807	0.487293	0.124206	1.04894	0.627087	0	0
3.88949	-2.47478	0.114096	-0.047903	1.33983	-0.984782	0.219688	-0.169192	-0.256919	-0.134963	0.931266	0.0930129	0	0	-0.361651	0.148303	-0.00165472	0.449042	0.0761808	0	0	-1.23406	-0.116474	-0.116308	0.51312	-0.531664	-0.0871449	1.03781	0.623537	0	0	0.521578	0.486734	0.12418	1.04856	0.627023	0	0
3.89947	-2.48693	0.128845	-0.0382481	1.32899	-0.985054	0.220489	-0.148222	-0.26556	-0.148818	0.887833	0.0975743	0	0	-0.361701	0.159378	0.0239204	0.450844	0.0883239	0	0	-1.22441	-0.120915	-0.130942	0.511913	-0.531397	-0.0870893	1.0374	0.623474	0	0	0.520347	0.486173	0.124153	1.04818	0.626959	0	0
3.90946	-2.50021	0.144616	-0.0280992	1.31805	-0.985069	0.221464	-0.127167	-0.27556	-0.163221	0.842868	0.0996983	0	0	-0.361715	0.171077	0.0507252	0.451459	0.100891	0	0	-1.2137	-0.126308	-0.146013	0.510705	-0.53113	-0.0870336	1.037	0.623411	0	0	0.519116	0.485612	0.124127	1.04781	0.626895	0	0
3.91945	-2.51456	0.161348	-0.0173675	1.30701	-0.984831	0.222608	-0.106044	-0.286807	-0.17781	0.796773	0.0997093	0	0	-0.361782	0.18331	0.078689	0.450952	0.113903	0	0	-1.20193	-0.132602	-0.161457	0.509495	-0.530861	-0.0869777	1.03659	0.623348	0	0	0.517882	0.485049	0.1241	1.04743	0.626831	0	0
3.92944	-2.52994	0.178938	-0.00601609	1.29586	-0.984346	0.223912	-0.084901	-0.29913	-0.192096	0.749868	0.0979324	0	0	-0.361956	0.195982	0.107737	0.449492	0.127348	0	0	-1.18919	-0.139746	-0.177196	0.508284	-0.530592	-0.0869217	1.03618	0.623285	0	0	0.516648	0.484484	0.124073	1.04705	0.626767	0	0
3.93942	-2.54619	0.197264	0.00589681	1.2846	-0.983624	0.225367	-0.0638592	-0.312328	-0.205427	0.702354	0.0946644	0	0	-0.362259	0.209048	0.137831	0.447368	0.141169	0	0	-1.17581	-0.147729	-0.193166	0.507072	-0.530322	-0.0868656	1.03577	0.623222	0	0	0.515412	0.483919	0.124046	1.04667	0.626704	0	0
3.94941	-2.5631	0.216216	0.0181771	1.27323	-0.982678	0.226962	-0.0431548	-0.326201	-0.216942	0.654258	0.0901478	0	0	-0.362692	0.222568	0.169023	0.445017	0.155252	0	0	-1.16236	-0.156623	-0.209347	0.505858	-0.530052	-0.0868093	1.03536	0.623159	0	0	0.514174	0.483352	0.124019	1.0463	0.62664	0	0
3.9594	-2.58052	0.235685	0.0306798	1.26175	-0.981527	0.228686	-0.0228723	-0.340634	-0.225994	0.605839	0.0847257	0	0	-0.363244	0.23657	0.201329	0.44274	0.169525	0	0	-1.14921	-0.166469	-0.225668	0.504643	-0.52978	-0.0867528	1.03495	0.623096	0	0	0.512935	0.482784	0.123991	1.04592	0.626576	0	0
3.96938	-2.59835	0.255523	0.0433335	1.25018	-0.980189	0.230527	-0.00302857	-0.355533	-0.232186	0.557514	0.0788036	0	0	-0.363896	0.250991	0.234615	0.440756	0.183936	0	0	-1.13654	-0.177215	-0.242053	0.503425	-0.529508	-0.0866961	1.03454	0.623033	0	0	0.511695	0.482214	0.123964	1.04554	0.626512	0	0
3.97937	-2.61652	0.275544	0.0561173	1.2385	-0.978688	0.232471	0.0163786	-0.370804	-0.235343	0.50981	0.0727917	0	0	-0.364625	0.265685	0.268595	0.439244	0.198448	0	0	-1.12443	-0.188721	-0.258446	0.502207	-0.529235	-0.0866393	1.03412	0.62297	0	0	0.510452	0.481642	0.123936	1.04516	0.626448	0	0
3.98936	-2.63494	0.295546	0.0690267	1.22673	-0.977048	0.234506	0.0353313	-0.386346	-0.235449	0.463293	0.067049	0	0	-0.365408	0.280463	0.302848	0.438372	0.213027	0	0	-1.11294	-0.200794	-0.274837	0.500986	-0.528961	-0.0865822	1.03371	0.622908	0	0	0.509208	0.481069	0.123907	1.04478	0.626385	0	0
3.99935	-2.6535	0.315321	0.0820563	1.21487	-0.975298	0.236618	0.0537826	-0.402047	-0.232598	0.418545	0.0618524	0	0	-0.366224	0.295114	0.336845	0.438307	0.227643	0	0	-1.10207	-0.213211	-0.291269	0.499764	-0.528686	-0.086525	1.0333	0.622845	0	0	0.507963	0.480495	0.123879	1.0444	0.626321	0	0
4.00933	-2.67206	0.334671	0.0951809	1.20293	-0.973466	0.238792	0.0716426	-0.417776	-0.226943	0.376119	0.0573667	0	0	-0.367053	0.309432	0.369988	0.439229	0.24226	0	0	-1.09182	-0.22574	-0.307834	0.49854	-0.52841	-0.0864676	1.03289	0.622782	0	0	0.506715	0.479918	0.12385	1.04402	0.626257	0	0
4.01932	-2.6905	0.35338	0.108405	1.1909	-0.971583	0.241013	0.0888703	-0.433386	-0.21886	0.336652	0.0536779	0	0	-0.36788	0.323146	0.401508	0.441222	0.256876	0	0	-1.0821	-0.238096	-0.324647	0.497314	-0.528133	-0.08641	1.03248	0.62272	0	0	0.505466	0.47934	0.123821	1.04363	0.626194	0	0
4.02931	-2.70863	0.371241	0.121691	1.17879	-0.969681	0.243266	0.105342	-0.448686	-0.208743	0.300681	0.0507308	0	0	-0.368694	0.336011	0.430593	0.444434	0.271475	0	0	-1.07282	-0.249997	-0.341862	0.496086	-0.527854	-0.0863522	1.03206	0.622657	0	0	0.504215	0.47876	0.123792	1.04325	0.62613	0	0
4.03929	-2.72613	0.388118	0.134816	1.16659	-0.967791	0.245535	0.12074	-0.463469	-0.196748	0.268445	0.0482851	0	0	-0.369483	0.347979	0.456721	0.449246	0.28595	0	0	-1.06423	-0.261275	-0.359705	0.494856	-0.527575	-0.0862942	1.03165	0.622595	0	0	0.502962	0.478179	0.123763	1.04287	0.626067	0	0
4.04928	-2.74279	0.403945	0.147599	1.15431	-0.965946	0.247803	0.134852	-0.477592	-0.1831	0.240165	0.0460274	0	0	-0.370243	0.359054	0.47965	0.455874	0.300203	0	0	-1.05646	-0.27184	-0.378312	0.493624	-0.527295	-0.0862359	1.03123	0.622532	0	0	0.501707	0.477595	0.123733	1.04249	0.626003	0	0
4.05927	-2.75848	0.418679	0.159956	1.14194	-0.964177	0.25005	0.147524	-0.49094	-0.168189	0.216037	0.0436115	0	0	-0.370967	0.369223	0.499362	0.464405	0.314142	0	0	-1.04949	-0.281606	-0.39771	0.492391	-0.527014	-0.0861774	1.03082	0.62247	0	0	0.50045	0.47701	0.123703	1.0421	0.62594	0	0
4.06926	-2.7732	0.432219	0.171979	1.12948	-0.962514	0.252256	0.158742	-0.503376	-0.152904	0.196376	0.0407378	0	0	-0.371654	0.378295	0.515772	0.474689	0.327732	0	0	-1.04307	-0.290374	-0.417802	0.491155	-0.526731	-0.0861187	1.0304	0.622408	0	0	0.499191	0.476422	0.123673	1.04172	0.625876	0	0
4.07924	-2.78692	0.444493	0.183766	1.11693	-0.960985	0.2544	0.168367	-0.514764	-0.138049	0.181242	0.0370529	0	0	-0.3723	0.386156	0.529139	0.486704	0.340874	0	0	-1.03709	-0.297959	-0.438407	0.489917	-0.526447	-0.0860598	1.02999	0.622345	0	0	0.497931	0.475833	0.123642	1.04133	0.625813	0	0
4.08923	-2.79966	0.455457	0.195439	1.10427	-0.959616	0.256462	0.176338	-0.525007	-0.124426	0.170629	0.0322102	0	0	-0.372907	0.39269	0.539768	0.50031	0.353426	0	0	-1.03136	-0.304237	-0.459166	0.488677	-0.526162	-0.0860006	1.02957	0.622283	0	0	0.496667	0.475241	0.123611	1.04095	0.625749	0	0
4.09922	-2.81148	0.465049	0.207134	1.09152	-0.95843	0.258421	0.182663	-0.534009	-0.112868	0.164488	0.025895	0	0	-0.373473	0.397737	0.547894	0.515273	0.365188	0	0	-1.02566	-0.309116	-0.479492	0.487434	-0.525876	-0.0859411	1.02916	0.622221	0	0	0.495402	0.474647	0.12358	1.04056	0.625686	0	0
4.1092	-2.82236	0.473206	0.21892	1.07867	-0.957445	0.26026	0.187361	-0.541658	-0.10408	0.162677	0.0178322	0	0	-0.373998	0.401158	0.553721	0.531408	0.375851	0	0	-1.01984	-0.312568	-0.498526	0.486189	-0.525589	-0.0858814	1.02874	0.622159	0	0	0.494134	0.474051	0.123548	1.04018	0.625623	0	0
4.11919	-2.83217	0.479914	0.230634	1.06573	-0.956677	0.261963	0.190404	-0.547862	-0.0982753	0.164881	0.00776649	0	0	-0.374483	0.40299	0.557497	0.548738	0.385004	0	0	-1.01407	-0.314669	-0.515521	0.484942	-0.5253	-0.0858215	1.02832	0.622097	0	0	0.492864	0.473453	0.123516	1.03979	0.625559	0	0
4.12918	-2.84069	0.485162	0.242015	1.05271	-0.956136	0.26352	0.191803	-0.552529	-0.0953661	0.170696	-0.00449398	0	0	-0.374928	0.403297	0.559354	0.567292	0.392162	0	0	-1.00852	-0.315523	-0.529893	0.483692	-0.525009	-0.0857612	1.0279	0.622035	0	0	0.491592	0.472852	0.123484	1.0394	0.625496	0	0
4.13917	-2.84772	0.488882	0.252796	1.03962	-0.955828	0.264923	0.191637	-0.555517	-0.0952249	0.179746	-0.0190083	0	0	-0.375334	0.402039	0.559196	0.587012	0.396788	0	0	-1.00327	-0.315162	-0.541193	0.482439	-0.524718	-0.0857007	1.02748	0.621973	0	0	0.490317	0.472249	0.123451	1.03901	0.625433	0	0
4.14915	-2.85302	0.490952	0.262715	1.02648	-0.955753	0.26617	0.190008	-0.556637	-0.0976694	0.191684	-0.0356123	0	0	-0.375701	0.399076	0.556722	0.607808	0.398295	0	0	-0.998359	-0.313538	-0.549094	0.481184	-0.524425	-0.0856398	1.02706	0.621911	0	0	0.489039	0.471643	0.123419	1.03862	0.625369	0	0
4.15914	-2.85633	0.491219	0.271521	1.01331	-0.955908	0.267261	0.186987	-0.55566	-0.102426	0.206184	-0.0538026	0	0	-0.376031	0.394202	0.551479	0.629604	0.39604	0	0	-0.993794	-0.310535	-0.55338	0.479927	-0.52413	-0.0855787	1.02664	0.621849	0	0	0.487759	0.471035	0.123385	1.03823	0.625306	0	0
4.16913	-2.8573	0.489568	0.278921	1.00015	-0.956283	0.268204	0.182489	-0.552365	-0.108968	0.222835	-0.0727198	0	0	-0.376325	0.387273	0.542988	0.652511	0.389331	0	0	-0.989779	-0.306029	-0.554006	0.478666	-0.523834	-0.0855173	1.02622	0.621787	0	0	0.486476	0.470424	0.123351	1.03784	0.625243	0	0
4.17911	-2.85565	0.485815	0.28471	0.987019	-0.956863	0.26901	0.176512	-0.546486	-0.117094	0.241416	-0.0912301	0	0	-0.376586	0.377987	0.530611	0.67646	0.377505	0	0	-0.986314	-0.299834	-0.550992	0.477403	-0.523536	-0.0854555	1.0258	0.621725	0	0	0.48519	0.46981	0.123317	1.03745	0.62518	0	0
4.1891	-2.85098	0.479946	0.288572	0.973953	-0.957629	0.269694	0.168713	-0.537849	-0.126302	0.261361	-0.108306	0	0	-0.376818	0.366317	0.513872	0.701777	0.360037	0	0	-0.983904	-0.291894	-0.544657	0.476136	-0.523236	-0.0853934	1.02538	0.621664	0	0	0.483902	0.469194	0.123283	1.03706	0.625116	0	0
4.19909	-2.84298	0.472	0.290277	0.960986	-0.958558	0.270274	0.158718	-0.526348	-0.136156	0.281998	-0.123156	0	0	-0.377025	0.352265	0.492425	0.728717	0.336524	0	0	-0.983011	-0.282215	-0.535428	0.474867	-0.522935	-0.085331	1.02495	0.621602	0	0	0.482611	0.468575	0.123248	1.03666	0.625053	0	0
4.20908	-2.83148	0.462013	0.28974	0.948152	-0.959624	0.270771	0.146209	-0.511906	-0.146517	0.302671	-0.13523	0	0	-0.377215	0.335767	0.466044	0.757335	0.306676	0	0	-0.983941	-0.27081	-0.523761	0.473595	-0.522632	-0.0852683	1.02453	0.621541	0	0	0.481316	0.467953	0.123212	1.03627	0.62499	0	0
4.21906	-2.81646	0.450139	0.286985	0.935483	-0.9608	0.271205	0.130802	-0.494563	-0.157089	0.322526	-0.144247	0	0	-0.377395	0.316928	0.434952	0.787692	0.27046	0	0	-0.987091	-0.257809	-0.510153	0.47232	-0.522328	-0.0852052	1.02411	0.621479	0	0	0.480019	0.467327	0.123176	1.03587	0.624927	0	0
4.22905	-2.79806	0.4365	0.282205	0.923007	-0.962058	0.271597	0.112325	-0.47442	-0.167927	0.340944	-0.150062	0	0	-0.377575	0.295797	0.399629	0.819558	0.228096	0	0	-0.992597	-0.243334	-0.495102	0.471041	-0.522022	-0.0851417	1.02368	0.621418	0	0	0.478719	0.466699	0.12314	1.03548	0.624864	0	0
4.23904	-2.77665	0.421395	0.275681	0.910748	-0.96337	0.271963	0.090715	-0.451805	-0.178843	0.357296	-0.15277	0	0	-0.377766	0.272733	0.361136	0.852649	0.180265	0	0	-1.0006	-0.227701	-0.479129	0.46976	-0.521713	-0.0850779	1.02325	0.621356	0	0	0.477416	0.466068	0.123103	1.03508	0.624801	0	0
4.24902	-2.75276	0.405263	0.267741	0.898727	-0.964712	0.272316	0.0661093	-0.42727	-0.189524	0.371105	-0.152663	0	0	-0.377979	0.248346	0.320905	0.886549	0.128122	0	0	-1.01111	-0.211403	-0.46274	0.468475	-0.521403	-0.0850137	1.02283	0.621295	0	0	0.476109	0.465434	0.123066	1.03468	0.624738	0	0
4.25901	-2.72697	0.388605	0.258698	0.886958	-0.966059	0.272663	0.0387794	-0.401492	-0.199603	0.382081	-0.150145	0	0	-0.378226	0.223373	0.280402	0.92078	0.0732741	0	0	-1.0241	-0.195018	-0.446381	0.467187	-0.521092	-0.0849492	1.0224	0.621234	0	0	0.4748	0.464796	0.123028	1.03428	0.624675	0	0
4.269	-2.69989	0.371858	0.248789	0.875451	-0.967393	0.273004	0.00922897	-0.375179	-0.208902	0.390322	-0.145581	0	0	-0.378516	0.19852	0.240828	0.95473	0.0176779	0	0	-1.03931	-0.179114	-0.430384	0.465896	-0.520778	-0.0848842	1.02197	0.621172	0	0	0.473487	0.464156	0.12299	1.03388	0.624612	0	0
4.27899	-2.67198	0.355479	0.238204	0.864215	-0.968695	0.273332	-0.0221692	-0.349027	-0.217212	0.395952	-0.139363	0	0	-0.378854	0.174482	0.203102	0.987942	-0.0364616	0	0	-1.05663	-0.164203	-0.415023	0.464601	-0.520462	-0.0848189	1.02154	0.621111	0	0	0.472171	0.463511	0.122951	1.03348	0.624549	0	0
4.28897	-2.64364	0.339838	0.227095	0.853256	-0.969951	0.273631	-0.0550026	-0.323668	-0.224466	0.399279	-0.131838	0	0	-0.379238	0.151839	0.167818	1.01995	-0.0868516	0	0	-1.07588	-0.150692	-0.400457	0.463303	-0.520144	-0.0847532	1.02111	0.62105	0	0	0.470851	0.462864	0.122912	1.03308	0.624486	0	0
4.29896	-2.61523	0.325175	0.21558	0.842581	-0.971151	0.27388	-0.0887939	-0.299627	-0.230755	0.400781	-0.123286	0	0	-0.379655	0.131006	0.135243	1.05022	-0.131278	0	0	-1.09672	-0.138854	-0.386737	0.462001	-0.519824	-0.084687	1.02068	0.620989	0	0	0.469528	0.462213	0.122872	1.03268	0.624423	0	0
4.30895	-2.58711	0.311563	0.20376	0.832205	-0.972283	0.274048	-0.12296	-0.277288	-0.236318	0.401098	-0.113904	0	0	-0.380076	0.112208	0.105373	1.07816	-0.167844	0	0	-1.11857	-0.128811	-0.373822	0.460695	-0.519502	-0.0846204	1.02025	0.620928	0	0	0.468201	0.461558	0.122832	1.03227	0.62436	0	0
4.31893	-2.55964	0.298966	0.191722	0.822148	-0.973338	0.2741	-0.156883	-0.256911	-0.241411	0.400901	-0.103846	0	0	-0.380453	0.095536	0.0780252	1.10312	-0.195247	0	0	-1.14078	-0.120581	-0.361603	0.459386	-0.519178	-0.0845534	1.01981	0.620867	0	0	0.466871	0.4609	0.122791	1.03187	0.624297	0	0
4.32892	-2.5332	0.287221	0.179556	0.812443	-0.974307	0.273992	-0.189858	-0.238624	-0.246298	0.400903	-0.0932307	0	0	-0.380712	0.0809414	0.0529111	1.12437	-0.212988	0	0	-1.16248	-0.114084	-0.349891	0.458072	-0.518851	-0.084486	1.01938	0.620806	0	0	0.465537	0.460237	0.12275	1.03146	0.624234	0	0
4.33891	-2.50806	0.27618	0.167242	0.803135	-0.975179	0.27368	-0.221366	-0.222494	-0.251088	0.401586	-0.0822052	0	0	-0.380747	0.0683791	0.0296288	1.14142	-0.221337	0	0	-1.18323	-0.109256	-0.33855	0.456755	-0.518523	-0.084418	1.01894	0.620746	0	0	0.464199	0.459571	0.122708	1.03106	0.624171	0	0
4.3489	-2.4845	0.265677	0.154763	0.794286	-0.975937	0.273112	-0.250862	-0.208538	-0.255819	0.40338	-0.0709042	0	0	-0.380418	0.0577688	0.00776838	1.1538	-0.221095	0	0	-1.20255	-0.10603	-0.327401	0.455433	-0.518192	-0.0843497	1.01851	0.620685	0	0	0.462857	0.458901	0.122665	1.03065	0.624108	0	0
4.35888	-2.46277	0.255567	0.142075	0.78597	-0.976559	0.272237	-0.277903	-0.196731	-0.260447	0.406568	-0.0594609	0	0	-0.379548	0.0490255	-0.0131015	1.16122	-0.213427	0	0	-1.22016	-0.10434	-0.316292	0.454108	-0.517858	-0.0842808	1.01807	0.620624	0	0	0.461511	0.458227	0.122622	1.03024	0.624045	0	0
4.36887	-2.44332	0.245717	0.129066	0.777528	-0.976982	0.271364	-0.302199	-0.187035	-0.26486	0.411325	-0.0479905	0	0	-0.377978	0.0420695	-0.0333893	1.16353	-0.199692	0	0	-1.23607	-0.104067	-0.3051	0.452779	-0.517527	-0.084212	1.01763	0.620563	0	0	0.460162	0.457554	0.122578	1.02983	0.623982	0	0
4.37886	-2.42641	0.236036	0.11579	0.768965	-0.977214	0.270489	-0.323387	-0.179336	-0.268952	0.417752	-0.036552	0	0	-0.375465	0.0367443	-0.0534406	1.16061	-0.181254	0	0	-1.24999	-0.105095	-0.293686	0.451446	-0.517198	-0.0841433	1.01719	0.620503	0	0	0.45881	0.45688	0.122535	1.02941	0.623919	0	0
4.38884	-2.41227	0.226466	0.102366	0.76029	-0.977268	0.26961	-0.341227	-0.173458	-0.272594	0.425803	-0.0251709	0	0	-0.371748	0.0328465	-0.0735332	1.15246	-0.15947	0	0	-1.26172	-0.107261	-0.281944	0.450108	-0.516871	-0.0840746	1.01675	0.620442	0	0	0.457454	0.456208	0.122491	1.029	0.623856	0	0
4.39883	-2.40107	0.216991	0.0889817	0.751513	-0.977162	0.268729	-0.355654	-0.169159	-0.275626	0.435261	-0.0138395	0	0	-0.366572	0.0301333	-0.0938671	1.1392	-0.135617	0	0	-1.27115	-0.110356	-0.269807	0.448765	-0.516547	-0.0840061	1.0163	0.620381	0	0	0.456096	0.455535	0.122448	1.02859	0.623793	0	0
4.40882	-2.39284	0.207622	0.0758658	0.742653	-0.976925	0.267849	-0.366845	-0.166116	-0.277839	0.445691	-0.00252725	0	0	-0.359726	0.0283332	-0.114553	1.12115	-0.110881	0	0	-1.27835	-0.11412	-0.257251	0.447417	-0.516225	-0.0839378	1.01585	0.620321	0	0	0.454734	0.454864	0.122404	1.02817	0.62373	0	0
4.41881	-2.3875	0.198371	0.0632819	0.733718	-0.976583	0.266972	-0.375173	-0.163933	-0.279012	0.456541	0.0088174	0	0	-0.351088	0.0271248	-0.135647	1.09868	-0.0862766	0	0	-1.2834	-0.118249	-0.244267	0.446063	-0.515906	-0.0838696	1.0154	0.62026	0	0	0.45337	0.454193	0.12236	1.02775	0.623668	0	0
4.42879	-2.38488	0.189204	0.0514591	0.724705	-0.976163	0.266095	-0.381106	-0.162182	-0.278966	0.467304	0.020252	0	0	-0.340701	0.0261455	-0.157198	1.07218	-0.0626174	0	0	-1.28641	-0.122421	-0.230848	0.444702	-0.51559	-0.0838018	1.01495	0.620199	0	0	0.452003	0.453524	0.122317	1.02733	0.623605	0	0
4.43878	-2.38469	0.180007	0.0405408	0.715614	-0.97569	0.265211	-0.385137	-0.16042	-0.277576	0.477617	0.0318219	0	0	-0.328804	0.0250252	-0.179232	1.04193	-0.0405448	0	0	-1.28758	-0.126305	-0.216993	0.443334	-0.515276	-0.0837342	1.01449	0.620138	0	0	0.450633	0.452855	0.122273	1.02691	0.623542	0	0
4.44877	-2.38658	0.170612	0.0306039	0.70644	-0.975185	0.264318	-0.387733	-0.158233	-0.274757	0.487253	0.0435607	0	0	-0.315741	0.0234051	-0.201763	1.00819	-0.0205103	0	0	-1.28714	-0.129594	-0.202691	0.44196	-0.514965	-0.0836668	1.01403	0.620078	0	0	0.44926	0.452188	0.12223	1.02649	0.62348	0	0
4.45875	-2.39024	0.160819	0.0216764	0.697175	-0.974669	0.263413	-0.389313	-0.155239	-0.270451	0.496097	0.0554897	0	0	-0.30189	0.0209631	-0.224762	0.971205	-0.00278815	0	0	-1.28529	-0.132017	-0.187917	0.44058	-0.514657	-0.0835998	1.01357	0.620017	0	0	0.447885	0.451522	0.122187	1.02607	0.623417	0	0
4.46874	-2.39535	0.150408	0.0137529	0.687813	-0.974156	0.262492	-0.390228	-0.151107	-0.264607	0.504131	0.0676246	0	0	-0.287618	0.0174315	-0.248127	0.931208	0.0124944	0	0	-1.28226	-0.133343	-0.172644	0.439195	-0.514352	-0.083533	1.01311	0.619956	0	0	0.446507	0.450856	0.122143	1.02565	0.623354	0	0
4.47873	-2.4016	0.13916	0.00680825	0.678352	-0.973659	0.261551	-0.390753	-0.145555	-0.257179	0.511412	0.0799788	0	0	-0.27325	0.012609	-0.271652	0.888463	0.0253219	0	0	-1.27825	-0.133385	-0.156852	0.437803	-0.51405	-0.0834666	1.01264	0.619895	0	0	0.445127	0.450192	0.1221	1.02522	0.623292	0	0
4.48872	-2.40871	0.126865	0.000811586	0.668806	-0.973185	0.260591	-0.391087	-0.138358	-0.248129	0.518068	0.0925641	0	0	-0.259069	0.00636734	-0.294988	0.843229	0.0357432	0	0	-1.27355	-0.131988	-0.140533	0.436408	-0.513751	-0.0834007	1.01217	0.619834	0	0	0.443744	0.449529	0.122057	1.0248	0.623229	0	0
4.4987	-2.41637	0.113354	-0.00428449	0.659193	-0.97274	0.259609	-0.391366	-0.12933	-0.237436	0.524289	0.105391	0	0	-0.245323	-0.0013587	-0.317623	0.795749	0.0438403	0	0	-1.26849	-0.129012	-0.123702	0.43501	-0.513454	-0.0833351	1.01171	0.619774	0	0	0.442358	0.448866	0.122014	1.02438	0.623167	0	0
4.50869	-2.42439	0.0985359	-0.00853749	0.649522	-0.972327	0.258607	-0.391682	-0.118393	-0.225122	0.530258	0.118479	0	0	-0.232134	-0.0105632	-0.339021	0.746399	0.0498065	0	0	-1.26329	-0.124396	-0.10639	0.433611	-0.513162	-0.0832698	1.01124	0.619713	0	0	0.440968	0.448205	0.12197	1.02395	0.623104	0	0
4.51868	-2.43264	0.0824112	-0.0120217	0.639791	-0.97194	0.257591	-0.392092	-0.105592	-0.211264	0.536127	0.131853	0	0	-0.219503	-0.021161	-0.358644	0.695682	0.0539304	0	0	-1.25808	-0.118172	-0.0886559	0.432211	-0.512873	-0.0832048	1.01077	0.619652	0	0	0.439574	0.447545	0.121926	1.02352	0.623042	0	0
4.52866	-2.44095	0.0650223	-0.0148203	0.630013	-0.971575	0.256558	-0.392616	-0.0910311	-0.195984	0.542108	0.145538	0	0	-0.207449	-0.0330116	-0.375823	0.64403	0.0564661	0	0	-1.25308	-0.110381	-0.0706053	0.43081	-0.512587	-0.0831399	1.0103	0.619591	0	0	0.438177	0.446886	0.121882	1.0231	0.62298	0	0
4.53865	-2.44924	0.0464943	-0.0170145	0.620195	-0.971224	0.255508	-0.393257	-0.0749027	-0.17946	0.548371	0.159569	0	0	-0.195909	-0.0459366	-0.389936	0.591971	0.0576981	0	0	-1.24843	-0.101122	-0.0523666	0.429408	-0.512304	-0.0830752	1.00982	0.619531	0	0	0.436776	0.446229	0.121838	1.02267	0.622917	0	0
4.54864	-2.45744	0.0270274	-0.0186949	0.610333	-0.970877	0.254441	-0.394006	-0.0574802	-0.161914	0.555049	0.173979	0	0	-0.184769	-0.0597241	-0.400443	0.540096	0.0579289	0	0	-1.24422	-0.0905534	-0.0340887	0.428005	-0.512025	-0.0830107	1.00935	0.61947	0	0	0.435371	0.445573	0.121794	1.02224	0.622855	0	0
4.55863	-2.46556	0.00687834	-0.0199625	0.600421	-0.970516	0.253355	-0.394849	-0.0391064	-0.143602	0.562214	0.188788	0	0	-0.173864	-0.0741365	-0.406927	0.489059	0.0574743	0	0	-1.2404	-0.0788927	-0.0159314	0.426599	-0.511748	-0.0829463	1.00888	0.619409	0	0	0.433964	0.444918	0.12175	1.02182	0.622793	0	0
4.56861	-2.47366	-0.0136247	-0.0209308	0.59044	-0.970124	0.252254	-0.395777	-0.0201704	-0.124808	0.569863	0.204	0	0	-0.162992	-0.0889237	-0.409121	0.439569	0.056655	0	0	-1.23686	-0.0663966	0.00194639	0.42519	-0.511473	-0.0828818	1.00841	0.619348	0	0	0.432553	0.444262	0.121705	1.02139	0.622731	0	0
4.5786	-2.48186	-0.0341169	-0.0217353	0.580355	-0.969681	0.251154	-0.396777	-0.00109891	-0.105821	0.577897	0.219605	0	0	-0.151909	-0.103826	-0.406948	0.392375	0.0557843	0	0	-1.23332	-0.0533728	0.0193951	0.423777	-0.5112	-0.0828172	1.00793	0.619288	0	0	0.431142	0.443608	0.12166	1.02096	0.622669	0	0
4.58859	-2.49021	-0.0542734	-0.0224975	0.570159	-0.969166	0.250061	-0.397829	0.0177233	-0.0869166	0.586246	0.235572	0	0	-0.140474	-0.118617	-0.400445	0.34809	0.0550954	0	0	-1.22963	-0.0400966	0.0362868	0.422358	-0.510929	-0.0827525	1.00745	0.619227	0	0	0.429728	0.442953	0.121615	1.02053	0.622607	0	0
4.59858	-2.4987	-0.0738294	-0.0233047	0.559859	-0.968574	0.248983	-0.398906	0.0359955	-0.0683237	0.59487	0.251865	0	0	-0.128639	-0.133134	-0.389783	0.307187	0.0547194	0	0	-1.22574	-0.0267749	0.0525316	0.420934	-0.510659	-0.0826877	1.00698	0.619167	0	0	0.428313	0.442298	0.121569	1.0201	0.622544	0	0
4.60856	-2.50739	-0.0925265	-0.02425	0.549442	-0.967889	0.247934	-0.399985	0.0534421	-0.0502134	0.603611	0.268444	0	0	-0.116305	-0.147226	-0.375413	0.270175	0.054705	0	0	-1.22141	-0.0136292	0.068069	0.419504	-0.51039	-0.0826226	1.00649	0.619106	0	0	0.426895	0.441643	0.121524	1.01967	0.622483	0	0
4.61855	-2.51628	-0.110175	-0.025406	0.538912	-0.967099	0.246926	-0.401042	0.0698645	-0.032696	0.61236	0.285254	0	0	-0.103452	-0.160783	-0.358003	0.237441	0.0549745	0	0	-1.21651	-0.00083173	0.0828799	0.418069	-0.510121	-0.0825573	1.00601	0.619045	0	0	0.425476	0.440988	0.121478	1.01924	0.622421	0	0
4.62854	-2.52531	-0.126672	-0.0268072	0.528284	-0.966201	0.245971	-0.402051	0.0851681	-0.0158083	0.621079	0.302243	0	0	-0.0901528	-0.173751	-0.338411	0.20924	0.0553275	0	0	-1.21103	0.0115186	0.0969872	0.416628	-0.509854	-0.0824917	1.00553	0.618985	0	0	0.424054	0.440334	0.121432	1.01881	0.622359	0	0
4.63852	-2.53436	-0.142008	-0.0284446	0.517582	-0.965197	0.245076	-0.402988	0.0993578	0.000490048	0.629824	0.319356	0	0	-0.0765887	-0.186117	-0.31763	0.185668	0.0554634	0	0	-1.20511	0.0233921	0.110449	0.415182	-0.509587	-0.0824258	1.00504	0.618924	0	0	0.42263	0.439679	0.121385	1.01838	0.622297	0	0
4.64851	-2.54341	-0.15618	-0.0303515	0.506815	-0.964088	0.244251	-0.40384	0.112434	0.0163019	0.638587	0.33653	0	0	-0.0629282	-0.197846	-0.296741	0.166762	0.055026	0	0	-1.19875	0.0347146	0.123311	0.41373	-0.509321	-0.0823596	1.00456	0.618864	0	0	0.421203	0.439024	0.121339	1.01795	0.622235	0	0
4.6585	-2.55238	-0.169204	-0.0325866	0.495997	-0.962876	0.243504	-0.404599	0.124393	0.0317446	0.647463	0.353666	0	0	-0.0494512	-0.208876	-0.276757	0.152389	0.0536209	0	0	-1.19206	0.0453925	0.135607	0.412274	-0.509055	-0.0822931	1.00407	0.618804	0	0	0.419774	0.43837	0.121292	1.01751	0.622174	0	0
4.66849	-2.56117	-0.181128	-0.0351873	0.485148	-0.961562	0.242844	-0.405262	0.135267	0.0469388	0.6566	0.370669	0	0	-0.0364609	-0.21917	-0.258416	0.142327	0.050853	0	0	-1.18517	0.0553641	0.14736	0.410812	-0.508789	-0.0822263	1.00358	0.618743	0	0	0.418342	0.437715	0.121244	1.01708	0.622112	0	0
4.67847	-2.56977	-0.19192	-0.0382353	0.47427	-0.96013	0.242282	-0.405827	0.145011	0.06196	0.665996	0.387389	0	0	-0.0241516	-0.228627	-0.242198	0.136326	0.0463666	0	0	-1.178	0.0644866	0.158546	0.409346	-0.508523	-0.082159	1.00309	0.618683	0	0	0.416907	0.43706	0.121197	1.01665	0.62205	0	0
4.68846	-2.57813	-0.201512	-0.0417963	0.463378	-0.958564	0.241825	-0.406298	0.153524	0.0767754	0.675759	0.403605	0	0	-0.0127341	-0.237108	-0.228325	0.13408	0.0398321	0	0	-1.17058	0.0725938	0.169098	0.407875	-0.508257	-0.0820914	1.0026	0.618623	0	0	0.41547	0.436404	0.121149	1.01622	0.621989	0	0
4.69845	-2.58632	-0.209862	-0.0458009	0.452084	-0.957498	0.241466	-0.406723	0.160602	0.0912103	0.68615	0.418995	0	0	-0.00251595	-0.24442	-0.216856	0.13527	0.0309453	0	0	-1.16314	0.0794107	0.178884	0.406403	-0.507989	-0.0820233	1.00211	0.618563	0	0	0.414032	0.435746	0.1211	1.01579	0.621927	0	0
4.70843	-2.59428	-0.216677	-0.0503641	0.440443	-0.956844	0.241196	-0.407103	0.165831	0.104902	0.697164	0.433066	0	0	0.0064551	-0.250196	-0.207912	0.139556	0.0194704	0	0	-1.15555	0.08457	0.187661	0.40493	-0.507719	-0.0819548	1.00162	0.618502	0	0	0.412593	0.435084	0.121051	1.01536	0.621866	0	0
4.71842	-2.60205	-0.221425	-0.0556913	0.428508	-0.956523	0.241009	-0.407439	0.16848	0.117213	0.708572	0.445091	0	0	0.0142974	-0.253832	-0.201761	0.146626	0.00525476	0	0	-1.14742	0.0874694	0.195049	0.403456	-0.507447	-0.0818858	1.00113	0.618442	0	0	0.411153	0.434419	0.121001	1.01493	0.621804	0	0
4.72841	-2.60952	-0.223529	-0.0619037	0.416328	-0.95647	0.240902	-0.407733	0.167741	0.127253	0.720379	0.454239	0	0	0.0210456	-0.254677	-0.198567	0.156142	-0.0117772	0	0	-1.13861	0.0875129	0.200628	0.401981	-0.507173	-0.0818165	1.00064	0.618382	0	0	0.409712	0.433751	0.120951	1.0145	0.621743	0	0
4.7384	-2.61639	-0.222391	-0.0690303	0.403946	-0.956637	0.240869	-0.407985	0.162771	0.133927	0.73285	0.459571	0	0	0.0266104	-0.25206	-0.198328	0.167734	-0.0315519	0	0	-1.12931	0.084137	0.203939	0.400505	-0.506897	-0.0817468	1.00014	0.618322	0	0	0.40827	0.43308	0.1209	1.01406	0.621681	0	0
4.74838	-2.62241	-0.217599	-0.0769808	0.391407	-0.956986	0.240907	-0.408199	0.153022	0.136399	0.746189	0.460265	0	0	0.0309648	-0.245531	-0.200719	0.181037	-0.0536995	0	0	-1.11969	0.0770171	0.204632	0.399028	-0.506618	-0.0816767	0.999653	0.618262	0	0	0.406828	0.432406	0.120848	1.01363	0.62162	0	0
4.75837	-2.62733	-0.209016	-0.0855322	0.37875	-0.957494	0.241004	-0.408378	0.138351	0.134182	0.760664	0.455686	0	0	0.0340389	-0.234947	-0.205121	0.195688	-0.0774391	0	0	-1.11007	0.0661361	0.202544	0.39755	-0.506338	-0.0816063	0.999161	0.618202	0	0	0.405385	0.431729	0.120796	1.0132	0.621558	0	0
4.76836	-2.63094	-0.196757	-0.0944109	0.366016	-0.958142	0.241149	-0.408526	0.118955	0.127164	0.776487	0.445334	0	0	0.0357671	-0.220433	-0.210825	0.211395	-0.101569	0	0	-1.10075	0.0517212	0.197691	0.396071	-0.506057	-0.0815354	0.998669	0.618143	0	0	0.40394	0.431049	0.120743	1.01276	0.621497	0	0
4.77834	-2.63311	-0.181193	-0.103325	0.353248	-0.958919	0.241321	-0.40865	0.0953657	0.115625	0.793792	0.428879	0	0	0.0360829	-0.20239	-0.217195	0.227921	-0.124725	0	0	-1.09202	0.0342457	0.190251	0.394591	-0.505773	-0.0814642	0.998176	0.618083	0	0	0.402496	0.430367	0.12069	1.01233	0.621436	0	0
4.78833	-2.63364	-0.163108	-0.111861	0.340486	-0.959819	0.241498	-0.408758	0.0686468	0.100287	0.812916	0.406414	0	0	0.0347067	-0.181629	-0.22348	0.244829	-0.145694	0	0	-1.08448	0.0146212	0.180619	0.393111	-0.505487	-0.0813927	0.997684	0.618023	0	0	0.40105	0.429682	0.120636	1.01189	0.621374	0	0
4.79832	-2.6325	-0.143383	-0.119672	0.327773	-0.960833	0.241652	-0.408861	0.0399968	0.0822079	0.833895	0.378143	0	0	0.0314843	-0.159064	-0.229156	0.261708	-0.163454	0	0	-1.07849	-0.00615207	0.169279	0.391629	-0.5052	-0.0813208	0.997191	0.617964	0	0	0.399604	0.428994	0.120582	1.01146	0.621313	0	0
4.80831	-2.62967	-0.122823	-0.126553	0.31515	-0.961957	0.24175	-0.408969	0.0104252	0.0624226	0.856682	0.344311	0	0	0.0261885	-0.135486	-0.233956	0.278053	-0.177281	0	0	-1.07438	-0.0272049	0.156715	0.390147	-0.504911	-0.0812485	0.996698	0.617904	0	0	0.398157	0.428304	0.120527	1.01102	0.621252	0	0
4.81829	-2.62511	-0.102117	-0.132424	0.302659	-0.963186	0.241762	-0.409096	-0.0192766	0.0418928	0.881143	0.305325	0	0	0.0185579	-0.111526	-0.237826	0.293355	-0.186754	0	0	-1.07241	-0.047817	0.143346	0.388665	-0.504621	-0.081176	0.996206	0.617845	0	0	0.396709	0.427612	0.120472	1.01059	0.62119	0	0
4.82828	-2.61878	-0.0817682	-0.137345	0.290336	-0.964512	0.241656	-0.409256	-0.0486155	0.021435	0.907071	0.261789	0	0	0.00834097	-0.0876076	-0.24094	0.307178	-0.191788	0	0	-1.07285	-0.0675041	0.129495	0.387181	-0.504329	-0.0811031	0.995713	0.617785	0	0	0.395261	0.426917	0.120416	1.01015	0.621129	0	0
4.83827	-2.61058	-0.0622512	-0.141444	0.278216	-0.965931	0.241405	-0.409464	-0.0772206	0.00172748	0.934371	0.214714	0	0	-0.00483999	-0.0640907	-0.243414	0.319019	-0.192684	0	0	-1.07612	-0.0858399	0.115404	0.385697	-0.504035	-0.0810299	0.99522	0.617726	0	0	0.393812	0.426219	0.12036	1.00972	0.621068	0	0
4.84825	-2.6004	-0.0439671	-0.144866	0.266325	-0.967434	0.240988	-0.40973	-0.104781	-0.0166434	0.962867	0.165501	0	0	-0.0212689	-0.0412812	-0.245311	0.328476	-0.189995	0	0	-1.08254	-0.102476	0.101238	0.384213	-0.503739	-0.0809564	0.994726	0.617666	0	0	0.392363	0.425519	0.120303	1.00928	0.621006	0	0
4.85824	-2.58823	-0.0272243	-0.147793	0.254682	-0.969012	0.240392	-0.41006	-0.131072	-0.0332045	0.992278	0.115856	0	0	-0.0410826	-0.0194243	-0.246734	0.33533	-0.184391	0	0	-1.09229	-0.117195	0.0871066	0.382727	-0.503443	-0.0808826	0.994233	0.617607	0	0	0.390914	0.424818	0.120246	1.00884	0.620945	0	0
4.86823	-2.57413	-0.0122422	-0.150421	0.243297	-0.970658	0.239613	-0.410453	-0.155938	-0.0476226	1.02222	0.0677054	0	0	-0.0642482	0.00128629	-0.247816	0.339563	-0.176556	0	0	-1.10535	-0.129904	0.0730956	0.381242	-0.503144	-0.0808085	0.99374	0.617548	0	0	0.389463	0.424113	0.120188	1.00841	0.620884	0	0
4.87822	-2.55824	0.000870978	-0.152933	0.232168	-0.97236	0.238653	-0.410893	-0.179281	-0.0597122	1.0522	0.0230734	0	0	-0.0905262	0.0207236	-0.248688	0.341382	-0.167121	0	0	-1.12143	-0.14063	0.0592789	0.379755	-0.502845	-0.0807341	0.993246	0.617489	0	0	0.388013	0.423407	0.12013	1.00797	0.620823	0	0
4.8882	-2.54084	0.0121565	-0.155465	0.221288	-0.974106	0.237526	-0.411346	-0.201057	-0.0694224	1.08156	-0.0161034	0	0	-0.119428	0.0388555	-0.249469	0.341235	-0.156632	0	0	-1.13996	-0.14953	0.0457228	0.378269	-0.502544	-0.0806595	0.992753	0.617429	0	0	0.386562	0.422699	0.120072	1.00753	0.620761	0	0
4.89819	-2.5223	0.0217623	-0.158093	0.210639	-0.975884	0.236252	-0.411753	-0.221227	-0.0768033	1.10955	-0.0481562	0	0	-0.150294	0.0557154	-0.250185	0.339712	-0.145543	0	0	-1.16015	-0.156821	0.0324824	0.376781	-0.502241	-0.0805846	0.992259	0.61737	0	0	0.385111	0.421989	0.120013	1.0071	0.6207	0	0
4.90818	-2.50312	0.0299737	-0.160825	0.2002	-0.977679	0.234857	-0.412024	-0.239752	-0.0819428	1.13531	-0.0719768	0	0	-0.182247	0.0714214	-0.250788	0.33756	-0.134198	0	0	-1.18093	-0.162793	0.0196038	0.375294	-0.501937	-0.0805094	0.991766	0.617311	0	0	0.383659	0.421276	0.119954	1.00666	0.620639	0	0
4.91816	-2.48396	0.0372485	-0.163616	0.189946	-0.979473	0.233372	-0.412031	-0.256621	-0.0849246	1.15782	-0.0872635	0	0	-0.214163	0.086206	-0.251203	0.335694	-0.122823	0	0	-1.20083	-0.167842	0.00712369	0.373805	-0.501632	-0.0804339	0.991272	0.617252	0	0	0.382206	0.420562	0.119894	1.00622	0.620578	0	0
4.92815	-2.46522	0.0438779	-0.166304	0.179853	-0.981249	0.231829	-0.411603	-0.271733	-0.0859622	1.17653	-0.0944346	0	0	-0.245326	0.10016	-0.251169	0.334637	-0.11156	0	0	-1.21955	-0.172163	-0.00502603	0.372317	-0.501326	-0.0803582	0.990778	0.617193	0	0	0.380754	0.419846	0.119834	1.00578	0.620517	0	0
4.93814	-2.44726	0.0500928	-0.168665	0.169899	-0.982987	0.230263	-0.410523	-0.284932	-0.085308	1.19102	-0.0944232	0	0	-0.275084	0.113303	-0.250311	0.334788	-0.100491	0	0	-1.23688	-0.175819	-0.0169196	0.370827	-0.501018	-0.0802823	0.990285	0.617134	0	0	0.3793	0.419128	0.119774	1.00534	0.620455	0	0
4.94813	-2.43049	0.0561025	-0.170453	0.160065	-0.984667	0.228707	-0.408527	-0.296085	-0.0832704	1.20103	-0.0884948	0	0	-0.302822	0.125635	-0.248209	0.336445	-0.0896434	0	0	-1.25275	-0.178821	-0.0286323	0.369338	-0.500709	-0.0802061	0.989791	0.617076	0	0	0.377847	0.418408	0.119713	1.0049	0.620394	0	0
4.95811	-2.4153	0.0621039	-0.171442	0.150335	-0.986268	0.227192	-0.405318	-0.305132	-0.0802317	1.20637	-0.0780516	0	0	-0.327969	0.137154	-0.244464	0.339809	-0.079005	0	0	-1.26704	-0.181168	-0.0402368	0.367847	-0.500399	-0.0801297	0.989297	0.617017	0	0	0.376393	0.417686	0.119652	1.00447	0.620333	0	0
4.9681	-2.40208	0.0682756	-0.171448	0.140695	-0.987768	0.225748	-0.400573	-0.312129	-0.0766523	1.20694	-0.0644885	0	0	-0.350029	0.147876	-0.238748	0.344961	-0.0685466	0	0	-1.27967	-0.182868	-0.051802	0.366357	-0.500088	-0.080053	0.988803	0.616958	0	0	0.374939	0.416963	0.119591	1.00403	0.620272	0	0
4.97809	-2.39118	0.0747625	-0.170356	0.131132	-0.989147	0.224401	-0.393978	-0.317257	-0.0730618	1.20279	-0.0490821	0	0	-0.368642	0.157829	-0.230851	0.351831	-0.0582284	0	0	-1.29052	-0.183953	-0.0633918	0.364866	-0.499775	-0.0799761	0.988309	0.616899	0	0	0.373484	0.416238	0.119529	1.00359	0.620211	0	0
4.98807	-2.38283	0.0816524	-0.168134	0.121638	-0.990386	0.223174	-0.385269	-0.320825	-0.0700411	1.19406	-0.0329167	0	0	-0.383679	0.167065	-0.220716	0.360148	-0.0480074	0	0	-1.29952	-0.184479	-0.075068	0.363375	-0.499462	-0.079899	0.987815	0.61684	0	0	0.372029	0.415511	0.119467	1.00315	0.62015	0	0
4.99806	-2.37716	0.0889873	-0.164842	0.112202	-0.991467	0.222087	-0.374294	-0.323282	-0.068234	1.18102	-0.0168051	0	0	-0.395318	0.175667	-0.208493	0.369398	-0.0378324	0	0	-1.30654	-0.184543	-0.0868779	0.361883	-0.499147	-0.0798217	0.987321	0.616782	0	0	0.370574	0.414783	0.119404	1.00271	0.620089	0	0
5.00805	-2.3741	0.0968048	-0.160569	0.102815	-0.992375	0.221155	-0.361093	-0.325126	-0.0682565	1.16395	-0.0012786	0	0	-0.403944	0.183751	-0.194424	0.379032	-0.0276413	0	0	-1.31143	-0.184266	-0.0988553	0.360391	-0.498832	-0.0797442	0.986827	0.616723	0	0	0.369119	0.414053	0.119342	1.00227	0.620028	0	0
5.01804	-2.37349	0.105171	-0.155386	0.0934675	-0.993097	0.220392	-0.34595	-0.326826	-0.0706109	1.1431	0.0133648	0	0	-0.410043	0.191463	-0.178732	0.388632	-0.0173664	0	0	-1.31405	-0.183782	-0.111028	0.358899	-0.498515	-0.0796665	0.986332	0.616665	0	0	0.367663	0.413322	0.119279	1.00183	0.619967	0	0
5.02802	-2.37503	0.114152	-0.149403	0.0841511	-0.993626	0.219804	-0.329283	-0.328783	-0.0755658	1.11862	0.0269051	0	0	-0.414126	0.19898	-0.161585	0.397863	-0.00697247	0	0	-1.31456	-0.183242	-0.123468	0.357407	-0.498197	-0.0795886	0.985838	0.616606	0	0	0.366208	0.412589	0.119215	1.00139	0.619906	0	0
5.03801	-2.37839	0.123811	-0.142796	0.0748556	-0.993954	0.219398	-0.311583	-0.331327	-0.0831168	1.09052	0.0391425	0	0	-0.416681	0.206523	-0.143109	0.406478	0.0035415	0	0	-1.31346	-0.182836	-0.136291	0.355914	-0.497879	-0.0795105	0.985344	0.616548	0	0	0.364752	0.411855	0.119152	1.00095	0.619845	0	0
5.048	-2.38325	0.13423	-0.135734	0.0655705	-0.99408	0.219176	-0.293284	-0.334743	-0.0931348	1.05893	0.0499676	0	0	-0.41814	0.214317	-0.1234	0.414309	0.0141909	0	0	-1.31111	-0.18277	-0.149576	0.354422	-0.49756	-0.0794322	0.98485	0.616489	0	0	0.363296	0.411119	0.119088	1.00051	0.619784	0	0
5.05798	-2.38936	0.145482	-0.128355	0.0562844	-0.994004	0.219137	-0.274738	-0.339244	-0.105392	1.02404	0.0593296	0	0	-0.418867	0.222554	-0.102536	0.421248	0.0249958	0	0	-1.30777	-0.183229	-0.163369	0.352929	-0.497239	-0.0793538	0.984356	0.616431	0	0	0.36184	0.410383	0.119024	1.00007	0.619723	0	0
5.06797	-2.39651	0.157622	-0.120758	0.0469857	-0.99373	0.219279	-0.256197	-0.344952	-0.119568	0.986121	0.0671917	0	0	-0.419152	0.231372	-0.0805889	0.427233	0.0359772	0	0	-1.30359	-0.184361	-0.177678	0.351436	-0.496918	-0.0792752	0.983862	0.616372	0	0	0.360383	0.409645	0.118959	0.999628	0.619662	0	0
5.07796	-2.40455	0.170676	-0.113	0.0376621	-0.993263	0.219597	-0.237815	-0.351898	-0.135254	0.945515	0.0734998	0	0	-0.419214	0.240851	-0.0576322	0.432236	0.0471525	0	0	-1.29863	-0.186269	-0.192477	0.349942	-0.496596	-0.0791964	0.983368	0.616314	0	0	0.358927	0.408906	0.118895	0.999188	0.619601	0	0
5.08795	-2.41341	0.18463	-0.105103	0.0283021	-0.992612	0.220082	-0.219663	-0.360021	-0.15195	0.902607	0.0781755	0	0	-0.419211	0.251008	-0.0337513	0.436261	0.0585314	0	0	-1.29291	-0.189004	-0.207709	0.348449	-0.496273	-0.0791175	0.982874	0.616256	0	0	0.357471	0.408165	0.11883	0.998747	0.619541	0	0
5.09793	-2.42301	0.199435	-0.0970687	0.018895	-0.991787	0.220728	-0.20175	-0.369188	-0.169074	0.857808	0.0811405	0	0	-0.419248	0.261811	-0.00904381	0.439347	0.0701157	0	0	-1.28644	-0.192578	-0.223288	0.346956	-0.49595	-0.0790384	0.98238	0.616198	0	0	0.356014	0.407424	0.118765	0.998306	0.61948	0	0
5.10792	-2.43331	0.215006	-0.0888915	0.00943164	-0.990793	0.221524	-0.184054	-0.379212	-0.185979	0.811524	0.0823508	0	0	-0.419388	0.273194	0.0163902	0.44158	0.0818993	0	0	-1.27927	-0.19697	-0.23912	0.345462	-0.495625	-0.0789591	0.981886	0.616139	0	0	0.354558	0.406681	0.118699	0.997866	0.619419	0	0
5.11791	-2.44426	0.231242	-0.0805845	-9.48812e-05	-0.98964	0.22246	-0.166557	-0.389893	-0.20197	0.764128	0.081827	0	0	-0.419663	0.28509	0.0424728	0.443108	0.0938598	0	0	-1.27149	-0.202156	-0.255116	0.343968	-0.4953	-0.0788797	0.981392	0.616081	0	0	0.353101	0.405938	0.118634	0.997425	0.619358	0	0
5.12789	-2.45576	0.248041	-0.072204	-0.00968952	-0.988335	0.223526	-0.149284	-0.401045	-0.216302	0.715911	0.0796631	0	0	-0.42008	0.29747	0.0691866	0.444155	0.105948	0	0	-1.26337	-0.208131	-0.271211	0.342474	-0.494974	-0.0788002	0.980898	0.616023	0	0	0.351644	0.405193	0.118568	0.996984	0.619297	0	0
5.13788	-2.46766	0.265319	-0.0638754	-0.0193552	-0.98689	0.224709	-0.132339	-0.412517	-0.228177	0.667047	0.0760102	0	0	-0.420633	0.310376	0.0966185	0.44504	0.118075	0	0	-1.25536	-0.214942	-0.287393	0.34098	-0.494648	-0.0787205	0.980404	0.615965	0	0	0.350187	0.404447	0.118502	0.996543	0.619236	0	0
5.14787	-2.47994	0.283006	-0.0556232	-0.0290935	-0.985316	0.226	-0.115656	-0.424275	-0.237144	0.617956	0.0712357	0	0	-0.421305	0.3238	0.124833	0.445898	0.130213	0	0	-1.2476	-0.22258	-0.30361	0.339486	-0.494321	-0.0786407	0.97991	0.615907	0	0	0.34873	0.4037	0.118435	0.996102	0.619176	0	0
5.15786	-2.49269	0.301003	-0.0473417	-0.038905	-0.983626	0.227388	-0.0990613	-0.43633	-0.243135	0.569257	0.0658761	0	0	-0.422076	0.33761	0.153791	0.446721	0.142385	0	0	-1.23999	-0.230924	-0.319795	0.337992	-0.493993	-0.0785608	0.979416	0.615849	0	0	0.347273	0.402953	0.118369	0.995661	0.619115	0	0
5.16784	-2.50583	0.319203	-0.0390103	-0.0487899	-0.981832	0.22886	-0.08261	-0.448651	-0.245998	0.521306	0.0604035	0	0	-0.422922	0.351732	0.183505	0.447694	0.154527	0	0	-1.23278	-0.239865	-0.336013	0.336497	-0.493664	-0.0784808	0.978922	0.615791	0	0	0.345815	0.402204	0.118302	0.995219	0.619054	0	0
5.17783	-2.51932	0.337551	-0.0306397	-0.0587488	-0.97995	0.230408	-0.0663879	-0.461253	-0.245554	0.474416	0.0552118	0	0	-0.423822	0.366161	0.214096	0.449018	0.166565	0	0	-1.22618	-0.249368	-0.352362	0.335003	-0.493335	-0.0784006	0.978428	0.615733	0	0	0.344358	0.401454	0.118236	0.994778	0.618993	0	0
5.18782	-2.53314	0.355994	-0.022194	-0.0687835	-0.977995	0.23202	-0.0504285	-0.474166	-0.241753	0.428995	0.0506197	0	0	-0.424757	0.380855	0.245645	0.450806	0.178453	0	0	-1.22025	-0.259378	-0.368929	0.333508	-0.493005	-0.0783203	0.977934	0.615675	0	0	0.342901	0.400704	0.118169	0.994337	0.618933	0	0
5.1978	-2.54736	0.374412	-0.0135224	-0.0788973	-0.975986	0.233686	-0.0346483	-0.487388	-0.234876	0.385662	0.0468962	0	0	-0.425711	0.39561	0.277966	0.453013	0.190226	0	0	-1.21476	-0.269729	-0.385763	0.332014	-0.492675	-0.0782399	0.977441	0.615617	0	0	0.341443	0.399953	0.118101	0.993895	0.618872	0	0
5.20779	-2.56202	0.392625	-0.00442133	-0.089095	-0.973938	0.235395	-0.0190008	-0.500827	-0.225328	0.34507	0.0441719	0	0	-0.426672	0.410104	0.310622	0.455605	0.201954	0	0	-1.20933	-0.280164	-0.402895	0.330519	-0.492344	-0.0781594	0.976947	0.615559	0	0	0.339986	0.399201	0.118034	0.993454	0.618811	0	0
5.21778	-2.57719	0.41041	0.0053528	-0.099383	-0.971872	0.237134	-0.00346248	-0.514317	-0.213607	0.307892	0.042439	0	0	-0.427628	0.423928	0.342941	0.458554	0.213754	0	0	-1.20343	-0.290371	-0.420302	0.329024	-0.492013	-0.0780788	0.976453	0.615501	0	0	0.338529	0.398448	0.117967	0.993013	0.618751	0	0
5.22777	-2.59289	0.42751	0.016083	-0.109769	-0.969807	0.238891	0.0119643	-0.527625	-0.200316	0.274824	0.0415665	0	0	-0.428575	0.436592	0.374028	0.461845	0.225784	0	0	-1.19635	-0.29999	-0.437863	0.32753	-0.491681	-0.0779981	0.975959	0.615443	0	0	0.337072	0.397695	0.117899	0.992571	0.61869	0	0
5.23775	-2.60856	0.443558	0.0273894	-0.12026	-0.967764	0.240652	0.0267284	-0.540327	-0.185763	0.245893	0.0412613	0	0	-0.429504	0.447914	0.40302	0.466093	0.237947	0	0	-1.18905	-0.308719	-0.455879	0.326035	-0.491349	-0.0779173	0.975466	0.615385	0	0	0.335615	0.396941	0.117831	0.99213	0.618629	0	0
5.24774	-2.62378	0.458458	0.0388362	-0.130866	-0.965762	0.2424	0.0404747	-0.552273	-0.169907	0.221051	0.0411166	0	0	-0.430414	0.458042	0.429713	0.471724	0.250197	0	0	-1.18223	-0.316599	-0.474574	0.324541	-0.491016	-0.0778364	0.974972	0.615327	0	0	0.334157	0.396186	0.117763	0.991688	0.618569	0	0
5.25773	-2.63826	0.472199	0.0500788	-0.141596	-0.963822	0.244116	0.0528966	-0.563385	-0.152723	0.200178	0.0406555	0	0	-0.4313	0.467188	0.454216	0.479088	0.262412	0	0	-1.17638	-0.323728	-0.493975	0.323047	-0.490683	-0.0777554	0.974479	0.61527	0	0	0.3327	0.395431	0.117695	0.991247	0.618508	0	0
5.26772	-2.65185	0.484752	0.0610075	-0.152462	-0.961966	0.245777	0.0638079	-0.573582	-0.134604	0.183241	0.0393876	0	0	-0.432162	0.475398	0.476494	0.488323	0.27449	0	0	-1.17154	-0.330117	-0.513796	0.321552	-0.490349	-0.0776743	0.973985	0.615212	0	0	0.331244	0.394675	0.117627	0.990805	0.618448	0	0
5.2777	-2.66455	0.495997	0.0717707	-0.163473	-0.960212	0.24736	0.0731132	-0.582704	-0.116503	0.170315	0.0368208	0	0	-0.433	0.482434	0.496102	0.499375	0.286365	0	0	-1.16731	-0.335602	-0.533384	0.320058	-0.490015	-0.0775932	0.973492	0.615154	0	0	0.329787	0.393919	0.117559	0.990364	0.618387	0	0
5.28769	-2.67644	0.505885	0.0826148	-0.174635	-0.958582	0.248838	0.0807961	-0.590677	-0.0992906	0.161388	0.0324061	0	0	-0.433813	0.488097	0.512746	0.512112	0.297998	0	0	-1.163	-0.34007	-0.551865	0.318564	-0.489681	-0.077512	0.972998	0.615097	0	0	0.32833	0.393162	0.11749	0.989923	0.618326	0	0
5.29768	-2.68783	0.514375	0.0939857	-0.185948	-0.957095	0.25019	0.0870282	-0.597469	-0.0839744	0.156473	0.0256055	0	0	-0.434602	0.492068	0.526075	0.526111	0.309348	0	0	-1.1574	-0.343379	-0.568161	0.31707	-0.489346	-0.0774308	0.972505	0.615039	0	0	0.326874	0.392404	0.117422	0.989481	0.618266	0	0
5.30766	-2.69912	0.521466	0.106382	-0.197404	-0.955771	0.251397	0.0920679	-0.603101	-0.0713464	0.15551	0.0158919	0	0	-0.435367	0.494066	0.535909	0.540925	0.320322	0	0	-1.14907	-0.34541	-0.58106	0.315576	-0.489011	-0.0773494	0.972012	0.614981	0	0	0.325417	0.391646	0.117353	0.98904	0.618205	0	0
5.31765	-2.70971	0.527032	0.119231	-0.208985	-0.954625	0.252449	0.0956417	-0.607331	-0.0614587	0.15812	0.00280679	0	0	-0.436108	0.494183	0.542469	0.556915	0.330441	0	0	-1.13939	-0.346159	-0.59052	0.314082	-0.488676	-0.077268	0.971519	0.614924	0	0	0.323961	0.390888	0.117284	0.988598	0.618145	0	0
5.32764	-2.71919	0.530949	0.132037	-0.220661	-0.953677	0.253341	0.0976809	-0.609954	-0.0542524	0.163946	-0.0139207	0	0	-0.436826	0.492412	0.545753	0.574146	0.339262	0	0	-1.12921	-0.345593	-0.596718	0.312588	-0.48834	-0.0771865	0.971025	0.614866	0	0	0.322504	0.390129	0.117215	0.988157	0.618084	0	0
5.33763	-2.72725	0.53301	0.144457	-0.232396	-0.952939	0.254076	0.0982697	-0.610711	-0.0499037	0.172771	-0.0342105	0	0	-0.437521	0.488521	0.545394	0.592461	0.346294	0	0	-1.1189	-0.34354	-0.599817	0.311094	-0.488004	-0.077105	0.970532	0.614808	0	0	0.321048	0.38937	0.117146	0.987715	0.618024	0	0
5.34761	-2.73344	0.533025	0.156046	-0.244148	-0.952424	0.254664	0.0973962	-0.609334	-0.0482243	0.184313	-0.0575392	0	0	-0.438192	0.482389	0.541105	0.611983	0.350947	0	0	-1.10903	-0.339828	-0.600062	0.3096	-0.487668	-0.0770234	0.970039	0.614751	0	0	0.319591	0.38861	0.117077	0.987273	0.617963	0	0
5.3576	-2.73734	0.530826	0.166389	-0.255873	-0.95214	0.255118	0.0950348	-0.605571	-0.0488352	0.198303	-0.0827965	0	0	-0.438841	0.473901	0.532554	0.632857	0.352553	0	0	-1.10006	-0.334284	-0.59767	0.308106	-0.487331	-0.0769418	0.969546	0.614693	0	0	0.318135	0.38785	0.117008	0.986832	0.617903	0	0
5.36759	-2.73857	0.526294	0.175128	-0.267524	-0.952093	0.255458	0.091108	-0.59921	-0.0512997	0.214492	-0.108359	0	0	-0.439466	0.46297	0.519423	0.65527	0.350392	0	0	-1.0924	-0.326754	-0.592859	0.306612	-0.486994	-0.0768601	0.969053	0.614636	0	0	0.316679	0.387089	0.116939	0.98639	0.617842	0	0
5.37757	-2.73679	0.519408	0.181951	-0.279057	-0.952284	0.255708	0.0854854	-0.590132	-0.0551523	0.232585	-0.132478	0	0	-0.440069	0.449609	0.50151	0.679454	0.343812	0	0	-1.08645	-0.317177	-0.585897	0.305118	-0.486657	-0.0767783	0.96856	0.614578	0	0	0.315222	0.386328	0.11687	0.985949	0.617782	0	0
5.38756	-2.7318	0.510223	0.186674	-0.290433	-0.952707	0.255897	0.0780644	-0.578314	-0.0601658	0.252276	-0.15361	0	0	-0.44065	0.433848	0.478717	0.70551	0.332251	0	0	-1.08244	-0.305569	-0.577082	0.303625	-0.486319	-0.0766965	0.968067	0.614521	0	0	0.313766	0.385567	0.1168	0.985507	0.617722	0	0
5.39755	-2.72352	0.498965	0.189201	-0.301615	-0.953357	0.256054	0.0686378	-0.563896	-0.0659875	0.272986	-0.170665	0	0	-0.441209	0.415922	0.451337	0.73357	0.315302	0	0	-1.08069	-0.292117	-0.566795	0.302131	-0.485982	-0.0766147	0.967574	0.614463	0	0	0.31231	0.384806	0.116731	0.985066	0.617661	0	0
5.40754	-2.71206	0.485886	0.189622	-0.312575	-0.95422	0.256212	0.0570759	-0.547068	-0.072565	0.294125	-0.183035	0	0	-0.441747	0.396002	0.419805	0.763489	0.292683	0	0	-1.08128	-0.277058	-0.555422	0.300638	-0.485644	-0.0765328	0.967081	0.614406	0	0	0.310855	0.384044	0.116661	0.984624	0.617601	0	0
5.41752	-2.69764	0.471497	0.188033	-0.323291	-0.955282	0.256405	0.0431077	-0.528266	-0.0794027	0.314771	-0.1907	0	0	-0.442267	0.37466	0.385126	0.795245	0.264399	0	0	-1.08454	-0.260902	-0.543438	0.299144	-0.485306	-0.0764509	0.966588	0.614348	0	0	0.309399	0.383282	0.116592	0.984183	0.61754	0	0
5.42751	-2.68064	0.456385	0.184623	-0.333747	-0.956526	0.256665	0.0266065	-0.508061	-0.0860448	0.33406	-0.19402	0	0	-0.442771	0.35256	0.348575	0.828572	0.230709	0	0	-1.09061	-0.244296	-0.531272	0.297651	-0.484968	-0.076369	0.966096	0.614291	0	0	0.307943	0.38252	0.116522	0.983741	0.61748	0	0
5.4375	-2.66155	0.441089	0.179619	-0.343935	-0.957934	0.257019	0.00761703	-0.487038	-0.0922703	0.351342	-0.193552	0	0	-0.443262	0.330307	0.311388	0.863	0.192166	0	0	-1.09944	-0.227884	-0.519287	0.296158	-0.484629	-0.076287	0.965603	0.614233	0	0	0.306488	0.381757	0.116452	0.9833	0.61742	0	0
5.44748	-2.64086	0.426014	0.173294	-0.353853	-0.959489	0.257492	-0.0136759	-0.465709	-0.0982071	0.366262	-0.189902	0	0	-0.443745	0.30832	0.274583	0.897916	0.149629	0	0	-1.11082	-0.212166	-0.507774	0.294665	-0.484291	-0.076205	0.965111	0.614176	0	0	0.305033	0.380994	0.116383	0.982859	0.617359	0	0
5.45747	-2.61901	0.41153	0.165917	-0.363507	-0.961172	0.258098	-0.0370549	-0.444564	-0.103966	0.378623	-0.183676	0	0	-0.444224	0.286981	0.23901	0.932698	0.104349	0	0	-1.12452	-0.19758	-0.496942	0.293172	-0.483952	-0.076123	0.964618	0.614119	0	0	0.303577	0.380232	0.116313	0.982417	0.617299	0	0
5.46746	-2.59641	0.397935	0.157752	-0.372904	-0.962964	0.258847	-0.0622799	-0.424016	-0.109659	0.388389	-0.175449	0	0	-0.444704	0.266578	0.205277	0.966742	0.0578962	0	0	-1.14028	-0.184446	-0.486914	0.29168	-0.483613	-0.0760409	0.964126	0.614061	0	0	0.302123	0.379469	0.116243	0.981976	0.617239	0	0
5.47745	-2.5734	0.385421	0.149036	-0.382059	-0.964851	0.259735	-0.0890407	-0.404405	-0.115425	0.395723	-0.165755	0	0	-0.445192	0.247292	0.173718	0.999443	0.0120678	0	0	-1.15778	-0.17295	-0.477724	0.290187	-0.483274	-0.0759588	0.963633	0.614004	0	0	0.300668	0.378706	0.116173	0.981535	0.617178	0	0
5.48743	-2.55031	0.374065	0.139971	-0.390988	-0.966814	0.260752	-0.116929	-0.38598	-0.121438	0.401002	-0.155058	0	0	-0.445693	0.229192	0.144407	1.03017	-0.0312352	0	0	-1.17656	-0.163146	-0.469332	0.288695	-0.482935	-0.0758767	0.963141	0.613946	0	0	0.299213	0.377942	0.116103	0.981094	0.617118	0	0
5.49742	-2.52739	0.363881	0.130704	-0.399709	-0.968838	0.261879	-0.145532	-0.36893	-0.12776	0.404683	-0.143753	0	0	-0.44621	0.212314	0.117235	1.05835	-0.0701343	0	0	-1.19619	-0.15501	-0.461659	0.287203	-0.482596	-0.0757946	0.962649	0.613889	0	0	0.297759	0.377179	0.116033	0.980652	0.617058	0	0
5.50741	-2.50489	0.354817	0.121343	-0.408239	-0.970907	0.26309	-0.174391	-0.353379	-0.134364	0.407297	-0.132146	0	0	-0.446746	0.196659	0.0919748	1.08343	-0.102982	0	0	-1.21619	-0.148456	-0.454577	0.285711	-0.482257	-0.0757125	0.962156	0.613832	0	0	0.296304	0.376416	0.115963	0.980211	0.616997	0	0
5.51739	-2.48307	0.346733	0.111982	-0.416597	-0.973003	0.264352	-0.202973	-0.339374	-0.141176	0.409447	-0.120446	0	0	-0.447297	0.182183	0.0683517	1.10483	-0.128617	0	0	-1.23596	-0.143322	-0.447907	0.284219	-0.481918	-0.0756304	0.961664	0.613774	0	0	0.29485	0.375652	0.115893	0.97977	0.616937	0	0
5.52738	-2.46201	0.339524	0.10256	-0.424797	-0.975107	0.265631	-0.23096	-0.326956	-0.147957	0.411512	-0.108836	0	0	-0.447857	0.168939	0.0460444	1.12222	-0.146538	0	0	-1.25542	-0.139496	-0.441555	0.282727	-0.481578	-0.0755482	0.961172	0.613717	0	0	0.293396	0.374888	0.115823	0.979329	0.616877	0	0
5.53737	-2.44189	0.333013	0.0930381	-0.432856	-0.977203	0.26689	-0.257906	-0.316117	-0.154527	0.413929	-0.0974073	0	0	-0.448409	0.156954	0.024807	1.13523	-0.156878	0	0	-1.27428	-0.136834	-0.435353	0.281235	-0.481239	-0.075466	0.96068	0.61366	0	0	0.291941	0.374124	0.115753	0.978888	0.616816	0	0
5.54736	-2.42289	0.326995	0.0834054	-0.440785	-0.97927	0.268093	-0.283371	-0.306796	-0.160758	0.417071	-0.0862125	0	0	-0.448925	0.146207	0.00444033	1.14347	-0.160259	0	0	-1.29218	-0.135169	-0.429117	0.279743	-0.480899	-0.0753838	0.960188	0.613602	0	0	0.290487	0.373361	0.115683	0.978447	0.616756	0	0
5.55734	-2.40525	0.321245	0.0736986	-0.448594	-0.98129	0.269206	-0.306912	-0.298888	-0.166591	0.421254	-0.0752756	0	0	-0.449368	0.136622	-0.0152193	1.14658	-0.157563	0	0	-1.30867	-0.134311	-0.422648	0.278251	-0.48056	-0.0753016	0.959695	0.613545	0	0	0.289033	0.372597	0.115613	0.978005	0.616696	0	0
5.56733	-2.38917	0.315559	0.0639444	-0.456292	-0.983242	0.2702	-0.328184	-0.292262	-0.172003	0.426675	-0.0646161	0	0	-0.449679	0.128096	-0.0343406	1.14435	-0.149814	0	0	-1.3235	-0.134086	-0.415797	0.27676	-0.48022	-0.0752194	0.959203	0.613488	0	0	0.287579	0.371832	0.115543	0.977564	0.616635	0	0
5.57732	-2.37478	0.309763	0.0541717	-0.463884	-0.985107	0.271048	-0.346926	-0.286776	-0.176978	0.433436	-0.0542385	0	0	-0.449788	0.120504	-0.0530927	1.13666	-0.138072	0	0	-1.33654	-0.134349	-0.408452	0.275268	-0.47988	-0.0751372	0.958711	0.613431	0	0	0.286125	0.371068	0.115473	0.977123	0.616575	0	0
5.5873	-2.3622	0.303722	0.0444369	-0.471375	-0.986865	0.27173	-0.362956	-0.282268	-0.181496	0.441552	-0.0441286	0	0	-0.449603	0.113688	-0.0716236	1.12354	-0.123377	0	0	-1.34775	-0.134968	-0.400531	0.273777	-0.47954	-0.0750549	0.958219	0.613373	0	0	0.284672	0.370304	0.115403	0.976682	0.616515	0	0
5.59729	-2.35153	0.297335	0.0348458	-0.478768	-0.988499	0.272232	-0.376191	-0.27854	-0.185518	0.450943	-0.0342507	0	0	-0.449015	0.107457	-0.09003	1.10508	-0.106731	0	0	-1.35712	-0.135806	-0.391976	0.272286	-0.479201	-0.0749727	0.957727	0.613316	0	0	0.283218	0.36954	0.115332	0.976241	0.616455	0	0
5.60728	-2.34282	0.290543	0.0255563	-0.486064	-0.989991	0.272544	-0.38667	-0.275358	-0.188969	0.461417	-0.0245514	0	0	-0.447904	0.101602	-0.108323	1.08153	-0.0890813	0	0	-1.36469	-0.136714	-0.382759	0.270794	-0.478861	-0.0748904	0.957235	0.613259	0	0	0.281764	0.368776	0.115262	0.9758	0.616394	0	0
5.61727	-2.33604	0.283325	0.0167451	-0.493267	-0.991327	0.272659	-0.394602	-0.272455	-0.191718	0.472637	-0.0149665	0	0	-0.446143	0.0959325	-0.126392	1.0533	-0.0713467	0	0	-1.3707	-0.137523	-0.3729	0.269303	-0.478521	-0.0748082	0.956744	0.613201	0	0	0.280311	0.368011	0.115192	0.975359	0.616334	0	0
5.62725	-2.3311	0.275693	0.00863077	-0.500377	-0.992495	0.272576	-0.400324	-0.269533	-0.193599	0.484175	-0.00542539	0	0	-0.443612	0.0902657	-0.144021	1.0209	-0.0543265	0	0	-1.37532	-0.13805	-0.362432	0.267812	-0.478181	-0.0747259	0.956252	0.613144	0	0	0.278858	0.367247	0.115122	0.974918	0.616274	0	0
5.63724	-2.32791	0.267671	0.00143468	-0.507398	-0.993484	0.272296	-0.40423	-0.266295	-0.194456	0.495609	0.00413554	0	0	-0.440219	0.0844277	-0.16093	0.984925	-0.0386327	0	0	-1.3787	-0.138108	-0.351394	0.266321	-0.477841	-0.0746437	0.95576	0.613087	0	0	0.277405	0.366483	0.115052	0.974477	0.616214	0	0
5.64723	-2.32629	0.25927	-0.00465732	-0.514334	-0.994291	0.271824	-0.406714	-0.26247	-0.194187	0.506604	0.0137678	0	0	-0.435926	0.0782656	-0.176811	0.946015	-0.0246482	0	0	-1.38089	-0.137525	-0.339829	0.264831	-0.477501	-0.0745614	0.955268	0.61303	0	0	0.275951	0.365719	0.114981	0.974037	0.616153	0	0
5.65721	-2.32606	0.250493	-0.00953067	-0.521191	-0.994913	0.271164	-0.408142	-0.257854	-0.19277	0.516973	0.0235085	0	0	-0.430782	0.071655	-0.191383	0.904772	-0.0125269	0	0	-1.38186	-0.136169	-0.327776	0.26334	-0.477161	-0.0744792	0.954777	0.612972	0	0	0.274498	0.364955	0.114911	0.973596	0.616093	0	0
5.6672	-2.32699	0.241327	-0.0131502	-0.527973	-0.995353	0.270327	-0.408832	-0.252309	-0.190241	0.526664	0.0333749	0	0	-0.424911	0.0645179	-0.204379	0.861759	-0.00227273	0	0	-1.38153	-0.133953	-0.315284	0.261849	-0.476821	-0.0743969	0.954285	0.612915	0	0	0.273046	0.36419	0.114841	0.973155	0.616033	0	0
5.67719	-2.32883	0.231715	-0.0155656	-0.534689	-0.995616	0.269323	-0.409043	-0.245717	-0.186631	0.535631	0.0433704	0	0	-0.418478	0.0568443	-0.215436	0.817428	0.00613445	0	0	-1.38022	-0.130785	-0.302464	0.260359	-0.476481	-0.0743147	0.953793	0.612858	0	0	0.271593	0.363426	0.114771	0.972714	0.615973	0	0
5.68718	-2.33136	0.22163	-0.0168687	-0.541344	-0.995714	0.268163	-0.408979	-0.238046	-0.182018	0.543923	0.0534919	0	0	-0.411644	0.0486501	-0.22431	0.772221	0.0128186	0	0	-1.37808	-0.12664	-0.289405	0.258869	-0.476141	-0.0742324	0.953302	0.612801	0	0	0.27014	0.362662	0.114701	0.972274	0.615912	0	0
5.69716	-2.33438	0.211088	-0.0171847	-0.547947	-0.995662	0.266864	-0.408787	-0.229355	-0.176514	0.551643	0.0637221	0	0	-0.404535	0.0399772	-0.230919	0.726567	0.0180166	0	0	-1.37515	-0.12157	-0.276179	0.257379	-0.475802	-0.0741502	0.95281	0.612744	0	0	0.268688	0.361898	0.11463	0.971833	0.615852	0	0
5.70715	-2.33777	0.200158	-0.0166579	-0.554505	-0.995475	0.265442	-0.408571	-0.219787	-0.170262	0.558933	0.0740335	0	0	-0.397235	0.0308844	-0.235365	0.680883	0.0220639	0	0	-1.37131	-0.115701	-0.26284	0.255888	-0.475462	-0.074068	0.952318	0.612686	0	0	0.267235	0.361134	0.11456	0.971392	0.615792	0	0
5.71714	-2.34139	0.188889	-0.0154559	-0.561025	-0.995171	0.263914	-0.40839	-0.209482	-0.163393	0.565894	0.0843926	0	0	-0.389837	0.0214403	-0.237776	0.635426	0.0252718	0	0	-1.36672	-0.109149	-0.24947	0.254398	-0.475122	-0.0739857	0.951827	0.612629	0	0	0.265783	0.36037	0.11449	0.970951	0.615732	0	0
5.72712	-2.34511	0.177294	-0.0137452	-0.567514	-0.994771	0.262299	-0.408278	-0.198544	-0.156016	0.572592	0.0947768	0	0	-0.382461	0.0116977	-0.238288	0.590272	0.0278828	0	0	-1.36187	-0.10199	-0.236163	0.252908	-0.474782	-0.0739035	0.951335	0.612572	0	0	0.26433	0.359606	0.11442	0.970511	0.615671	0	0
5.73711	-2.34883	0.165409	-0.0116677	-0.573977	-0.994295	0.260617	-0.408241	-0.18709	-0.148241	0.579104	0.105177	0	0	-0.375187	0.00170078	-0.237152	0.545443	0.0301123	0	0	-1.3571	-0.0943163	-0.222979	0.251418	-0.474442	-0.0738213	0.950844	0.612515	0	0	0.262878	0.358842	0.11435	0.97007	0.615611	0	0
5.7471	-2.3525	0.153286	-0.00934365	-0.580421	-0.993765	0.258885	-0.408273	-0.175246	-0.140174	0.585498	0.115588	0	0	-0.368061	-0.00850155	-0.234699	0.500902	0.0321289	0	0	-1.35267	-0.0862353	-0.20994	0.249928	-0.474102	-0.073739	0.950352	0.612457	0	0	0.261425	0.358078	0.114279	0.969629	0.615551	0	0
5.75709	-2.35609	0.14099	-0.00686913	-0.586852	-0.993199	0.257122	-0.408355	-0.163136	-0.131915	0.591828	0.126003	0	0	-0.361093	-0.0188538	-0.231302	0.456566	0.0340449	0	0	-1.34868	-0.0778623	-0.197038	0.248437	-0.473762	-0.0736568	0.94986	0.6124	0	0	0.259973	0.357314	0.114209	0.969188	0.615491	0	0
5.76707	-2.3596	0.128588	-0.00431505	-0.593275	-0.992615	0.255343	-0.408468	-0.150869	-0.123551	0.598135	0.136419	0	0	-0.354257	-0.0292991	-0.227333	0.41233	0.0359202	0	0	-1.34512	-0.0693097	-0.184236	0.246947	-0.473422	-0.0735746	0.949369	0.612343	0	0	0.25852	0.35655	0.114139	0.968747	0.61543	0	0
5.77706	-2.36307	0.116138	-0.00172977	-0.599695	-0.992024	0.253556	-0.408593	-0.138535	-0.115148	0.604438	0.146832	0	0	-0.3475	-0.0397864	-0.223122	0.368106	0.0377804	0	0	-1.34185	-0.0606767	-0.171483	0.245457	-0.473083	-0.0734923	0.948877	0.612285	0	0	0.257067	0.355786	0.114069	0.968307	0.61537	0	0
