nColumns=19
nRows=384
DataType=double
version=3
OpenSimVersion=4.1
endheader
time	ground_force_calcn_l_vx	ground_force_calcn_l_vy	ground_force_calcn_l_vz	ground_force_calcn_l_px	ground_force_calcn_l_py	ground_force_calcn_l_pz	ground_force_calcn_l_mx	ground_force_calcn_l_my	ground_force_calcn_l_mz	ground_force_calcn_r_vx	ground_force_calcn_r_vy	ground_force_calcn_r_vz	ground_force_calcn_r_px	ground_force_calcn_r_py	ground_force_calcn_r_pz	ground_force_calcn_r_mx	ground_force_calcn_r_my	ground_force_calcn_r_mz
2.75	0	0	0	0	-0.196386	0	0	0	0	0	0	0	0	0.0218388	0	0	0	0
2.75998	0	0	0	0	-0.515	0	0	0	0	2.67786	-3.66184	1.83035	-3.05731	-0.515	1.27573	0.725162	-0.991622	0.495656
2.76997	0	0	0	0	-0.515	0	0	0	0	2.62644	-3.58702	1.78855	-3.05845	-0.515	1.27735	0.706572	-0.964993	0.481161
2.77995	0	0	0	0	-0.515	0	0	0	0	2.57892	-3.51779	1.74878	-3.05958	-0.515	1.2793	0.688966	-0.939788	0.467191
2.78994	0	0	0	0	-0.515	0	0	0	0	2.53797	-3.45755	1.71246	-3.06069	-0.515	1.28165	0.673096	-0.916979	0.454161
2.79992	0	0	0	0	-0.515	0	0	0	0	2.50579	-3.40886	1.68085	-3.06182	-0.515	1.28435	0.659668	-0.897407	0.442496
2.80991	0	0	0	0	-0.515	0	0	0	0	2.48399	-3.37333	1.65513	-3.06303	-0.515	1.28723	0.649279	-0.881739	0.432626
2.81989	0	0	0	0	-0.515	0	0	0	0	2.47347	-3.35164	1.63626	-3.06437	-0.515	1.28999	0.642344	-0.870397	0.424924
2.82988	0	0	0	0	-0.515	0	0	0	0	2.47404	-3.34306	1.62465	-3.06594	-0.515	1.29232	0.638938	-0.863367	0.419577
2.83986	0	0	0	0	-0.515	0	0	0	0	2.48411	-3.34507	1.61978	-3.06781	-0.515	1.29396	0.638694	-0.860059	0.416465
2.84985	0	0	0	0	-0.515	0	0	0	0	2.50087	-3.35364	1.62013	-3.07009	-0.515	1.29475	0.640844	-0.859366	0.415156
2.85983	0	0	0	0	-0.515	0	0	0	0	2.52076	-3.36394	1.62351	-3.07285	-0.515	1.29472	0.644338	-0.859864	0.414989
2.86982	0	0	0	0	-0.515	0	0	0	0	2.53988	-3.37105	1.62745	-3.07611	-0.515	1.29398	0.647976	-0.860026	0.415197
2.8798	0	0	0	0	-0.515	0	0	0	0	2.55415	-3.37025	1.62941	-3.07984	-0.515	1.29271	0.650505	-0.858356	0.414987
2.88979	0	0	0	0	-0.515	0	0	0	0	2.55926	-3.35674	1.62672	-3.08395	-0.515	1.29109	0.650648	-0.853392	0.413564
2.89977	0	0	0	0	-0.515	0	0	0	0	2.55087	-3.32572	1.61669	-3.08833	-0.515	1.28928	0.647194	-0.843784	0.410178
2.90976	0	0	0	0	-0.515	0	0	0	0	2.5253	-3.27327	1.59702	-3.09291	-0.515	1.28737	0.63923	-0.828563	0.404254
2.91974	0	0	0	0	-0.515	0	0	0	0	2.48111	-3.19827	1.56675	-3.09757	-0.515	1.28539	0.626539	-0.807642	0.395642
2.92973	0	0	0	0	-0.515	0	0	0	0	2.42063	-3.10457	1.52734	-3.10215	-0.515	1.28337	0.609993	-0.782346	0.384885
2.93971	0	0	0	0	-0.515	0	0	0	0	2.35065	-3.0019	1.48322	-3.10633	-0.515	1.28128	0.591653	-0.755571	0.373324
2.9497	1.3019	-5.78083	0.150785	1.30894	-1.45333e-16	0.208387	-0.00505352	0.0224391	-0.000585295	2.28159	-2.90488	1.44144	-2.70514	-1.45333e-16	1.53468	0.574498	-0.731441	0.362951
2.95968	2.41367	-10.3118	0.368165	1.30914	-1.4536e-16	0.208456	-0.010167	0.0434358	-0.0015508	2.22545	-2.83031	1.41024	-2.70648	-1.4536e-16	1.53356	0.561814	-0.714512	0.356016
2.96967	3.68989	-15.0317	0.722843	1.3093	-1.45386e-16	0.208426	-0.0170893	0.0696175	-0.00334776	2.19337	-2.79391	1.39744	-2.70673	-1.45386e-16	1.53249	0.556516	-0.708891	0.354569
2.97965	4.99626	-19.1451	1.24276	1.3094	-1.45409e-16	0.208256	-0.0259218	0.0993293	-0.00644776	2.19376	-2.80783	1.40901	-2.7057	-1.45409e-16	1.53166	0.56063	-0.717558	0.360081
2.98964	6.16215	-21.7271	1.94784	1.30935	-1.45426e-16	0.20792	-0.0368712	0.130004	-0.0116549	2.23123	-2.87911	1.44823	-2.70341	-1.45426e-16	1.53134	0.57501	-0.741977	0.373224
2.99962	6.97112	-21.7077	2.84338	1.30898	-1.45432e-16	0.207485	-0.0504739	0.157173	-0.0205873	2.30638	-3.00936	1.5155	-2.70012	-1.45432e-16	1.53174	0.599339	-0.782019	0.393822
3.00961	7.15495	-17.8786	3.912	1.30774	-1.4542e-16	0.207441	-0.0683018	0.17067	-0.0373443	2.41664	-3.19553	1.60874	-2.69622	-1.4542e-16	1.53295	0.632399	-0.836224	0.420984
3.01959	6.39388	-8.93196	5.10447	1.30162	-1.45383e-16	0.21138	-0.0881001	0.123072	-0.0703336	2.55735	-3.43125	1.72411	-2.69208	-1.45383e-16	1.53492	0.67243	-0.902212	0.453337
3.02958	4.32559	6.46443	6.33078	1.29441	-1.45312e-16	0.208658	0.0638122	0.0953648	0.0933932	2.72238	-3.70768	1.85652	-2.68795	-1.45312e-16	1.53749	0.71736	-0.976991	0.489202
3.03956	0.565141	29.5556	7.45291	1.30615	-1.45196e-16	0.19554	0.0037233	0.19472	0.0491017	2.90421	-4.01381	1.99987	-2.68394	-1.45196e-16	1.54047	0.764881	-1.05711	0.526704
3.04954	-5.263	61.3584	8.28184	1.30593	-1.45023e-16	0.191249	-0.0124812	0.145512	0.0196404	3.09402	-4.3366	2.14726	-2.68004	-1.45023e-16	1.54368	0.812479	-1.13878	0.563863
3.05953	-13.4812	102.508	8.58169	1.30406	-1.44784e-16	0.187006	-0.00563722	0.0428644	0.00358847	3.28171	-4.66108	2.29115	-2.67621	-1.44784e-16	1.54696	0.857452	-1.21786	0.598636
3.06951	-24.3064	153.122	8.08359	1.30131	-1.44471e-16	0.182664	0.0182523	-0.114984	-0.00607019	3.45647	-4.97087	2.42372	-2.67237	-1.44471e-16	1.55022	0.897022	-1.29004	0.629003
3.0795	-37.7959	212.709	6.51183	1.2978	-1.44079e-16	0.178404	0.0592489	-0.333442	-0.0102079	3.60802	-5.24962	2.53769	-2.6685	-1.44079e-16	1.55339	0.928642	-1.35116	0.653157
3.08948	-53.8006	280.165	3.62202	1.2936	-1.43615e-16	0.174357	0.118195	-0.615496	-0.00795725	3.72813	-5.48304	2.62725	-2.66462	-1.43615e-16	1.55641	0.950411	-1.39779	0.669763
3.09947	-71.9382	353.876	-0.751725	1.2888	-1.43086e-16	0.170589	0.195191	-0.960177	0.00203967	3.81184	-5.66054	2.6888	-2.6608	-1.43086e-16	1.55924	0.961369	-1.42762	0.678131
3.10945	-91.5993	431.899	-6.65012	1.2835	-1.42503e-16	0.167116	0.28883	-1.36186	0.0209691	3.85768	-5.77604	2.72109	-2.6571	-1.42503e-16	1.56183	0.961541	-1.4397	0.67824
3.11944	-111.992	512.145	-13.9578	1.27782	-1.41878e-16	0.163929	0.395837	-1.81019	0.049334	3.86712	-5.82809	2.72504	-2.65359	-1.41878e-16	1.56413	0.951756	-1.43438	0.670673
3.12942	-132.215	592.502	-22.4027	1.27189	-1.41224e-16	0.161007	0.511157	-2.29068	0.0866116	3.84367	-5.8196	2.70342	-2.65025	-1.41224e-16	1.5661	0.933388	-1.41322	0.656492
3.13941	-151.336	670.878	-31.5858	1.26585	-1.40559e-16	0.158335	0.628436	-2.78588	0.131163	3.7918	-5.75677	2.66013	-2.647	-1.40559e-16	1.5677	0.908035	-1.37859	0.637032
3.14939	-168.458	745.22	-41.0284	1.25984	-1.39897e-16	0.155898	0.740743	-3.27687	0.180409	3.71583	-5.64734	2.59945	-2.6437	-1.39897e-16	1.56885	0.87724	-1.33323	0.613683
3.15938	-182.784	813.536	-50.2306	1.254	-1.39253e-16	0.153688	0.841426	-3.74502	0.231231	3.61963	-5.49918	2.52542	-2.64022	-1.39253e-16	1.5695	0.842388	-1.27981	0.587735
3.16936	-193.677	873.951	-58.7288	1.24844	-1.3864e-16	0.151696	0.924887	-4.17347	0.280454	3.5071	-5.32	2.44177	-2.63655	-1.3864e-16	1.56954	0.804854	-1.2209	0.560369
3.17935	-200.71	924.8	-66.1403	1.24323	-1.38065e-16	0.149908	0.987081	-4.54811	0.325274	3.38306	-5.11781	2.35218	-2.63287	-1.38065e-16	1.56888	0.766258	-1.15918	0.532764
3.18933	-203.698	964.726	-72.1895	1.23841	-1.37532e-16	0.148302	1.02571	-4.85784	0.363507	3.25416	-4.90198	2.26076	-2.6296	-1.37532e-16	1.56744	0.728747	-1.09776	0.506282
3.19932	-202.697	992.779	-76.7188	1.23396	-1.37042e-16	0.146849	1.04019	-5.0947	0.393702	3.12914	-4.68412	2.17255	-2.62752	-1.37042e-16	1.56523	0.695144	-1.04058	0.482635
3.2093	-197.984	1008.48	-79.6836	1.22986	-1.36588e-16	0.145511	1.0314	-5.25371	0.415115	3.0182	-4.47792	2.09337	-2.62777	-1.36588e-16	1.56238	0.668925	-0.992443	0.463954
3.21929	-190.013	1011.85	-81.1375	1.22603	-1.36163e-16	0.144247	1.00141	-5.3327	0.427613	2.9316	-4.29783	2.02928	-2.63189	-1.36163e-16	1.55924	0.654066	-0.958884	0.452752
3.22927	-179.361	1003.43	-81.2102	1.22238	-1.3576e-16	0.143015	0.953106	-5.33214	0.431543	2.87777	-4.15648	1.98545	-2.64168	-1.3576e-16	1.5564	0.654803	-0.94576	0.451767
3.23926	-166.67	984.212	-80.0833	1.21884	-1.35366e-16	0.141774	0.889928	-5.25516	0.427602	2.86143	-4.06175	1.96492	-2.65901	-1.35366e-16	1.55458	0.675317	-0.9586	0.463734
3.24924	-152.594	955.571	-77.9665	1.2153	-1.34974e-16	0.140489	0.815619	-5.10756	0.416733	2.88247	-4.01443	1.96781	-2.6856	-1.34974e-16	1.55445	0.719478	-1.00202	0.491174
3.25923	-137.755	919.192	-75.0778	1.2117	-1.34574e-16	0.139133	0.734034	-4.89795	0.400055	2.93596	-4.00778	1.99131	-2.72282	-1.34574e-16	1.55648	0.790697	-1.07935	0.536287
3.26921	-122.714	876.938	-71.6296	1.20796	-1.34159e-16	0.137686	0.648973	-4.63769	0.378813	3.01307	-4.02848	2.03021	-2.77176	-1.34159e-16	1.56073	0.891883	-1.19245	0.60095
3.2792	-107.947	830.752	-67.8201	1.20406	-1.33725e-16	0.13614	0.564015	-4.34063	0.354356	3.10209	-4.05841	2.07771	-2.83337	-1.33725e-16	1.56687	1.02534	-1.34143	0.68675
3.28918	-93.8376	782.552	-63.8291	1.19995	-1.33268e-16	0.134494	0.48235	-4.02252	0.328098	3.18967	-4.07721	2.12643	-2.90855	-1.33268e-16	1.57417	1.19254	-1.52437	0.795021
3.29917	-80.6753	734.146	-59.8172	1.19563	-1.32787e-16	0.132755	0.406597	-3.70004	0.301474	3.26227	-4.06569	2.16952	-2.998	-1.32787e-16	1.58149	1.39346	-1.73663	0.926698
3.30915	-68.6545	687.171	-55.9253	1.19111	-1.32284e-16	0.130938	0.338653	-3.38962	0.275864	3.30765	-4.00946	2.20173	-3.10151	-1.32284e-16	1.5873	1.62506	-1.96986	1.08172
3.31914	-57.8808	643.054	-52.2754	1.1864	-1.31761e-16	0.129063	0.279593	-3.10626	0.252515	3.31628	-3.90261	2.2201	-3.21653	-1.31761e-16	1.58977	1.87831	-2.2104	1.25744
3.32912	-48.3785	602.991	-48.9705	1.18154	-1.3122e-16	0.127153	0.229652	-2.86239	0.232462	3.28275	-3.75123	2.22434	-3.33536	-1.3122e-16	1.58726	2.13302	-2.43743	1.44531
3.3391	-40.0985	567.946	-46.0954	1.17656	-1.30667e-16	0.125234	0.188306	-2.66713	0.216468	3.20645	-3.57573	2.21657	-3.44106	-1.30667e-16	1.57964	2.35035	-2.62104	1.62476
3.34909	-32.9288	538.665	-43.7169	1.17152	-1.30108e-16	0.123337	0.15442	-2.52608	0.205011	3.09203	-3.4125	2.20059	-3.50254	-1.30108e-16	1.57055	2.4652	-2.7207	1.75448
3.35907	-26.705	515.694	-41.8845	1.16648	-1.29548e-16	0.121491	0.126428	-2.44142	0.198291	2.94987	-3.31518	2.1814	-3.47293	-1.29548e-16	1.56789	2.38705	-2.68266	1.7652
3.36906	-21.2206	499.407	-40.6307	1.16148	-1.28994e-16	0.119728	0.10251	-2.41248	0.196274	2.79631	-3.35485	2.16465	-3.29964	-1.28994e-16	1.57506	2.02681	-2.43165	1.56898
3.37904	-16.2375	490.025	-39.9719	1.15661	-1.28454e-16	0.118079	0.0807342	-2.43644	0.198743	2.65349	-3.61833	2.15608	-2.95035	-1.28454e-16	1.56894	1.36743	-1.86465	1.1111
3.38903	-11.4966	487.639	-39.9092	1.15191	-1.27934e-16	0.116572	0.0591532	-2.50903	0.205344	2.54897	-4.20424	2.16079	-2.4405	-1.27934e-16	1.49553	0.546753	-0.901808	0.463488
3.39901	-6.7266	492.216	-40.4296	1.14745	-1.27441e-16	0.115233	0.0358755	-2.62517	0.215626	2.51445	-5.21559	2.18222	-1.84267	-1.27441e-16	1.32517	-0.178889	0.371062	-0.155253
3.409	-1.65454	503.604	-41.5078	1.14328	-1.2698e-16	0.114079	0.00913085	-2.77923	0.229068	2.58318	-6.74791	2.22035	-1.26463	-1.2698e-16	1.10054	-0.638725	1.66851	-0.549012
3.41898	3.98381	521.523	-43.1092	1.13944	-1.26556e-16	0.113121	-0.0226497	-2.96508	0.245094	2.78662	-8.87278	2.2697	-0.790511	-1.26556e-16	0.889593	-0.857349	2.72985	-0.698311
3.42897	10.4319	545.552	-45.1924	1.13596	-1.2617e-16	0.112358	-0.0607272	-3.17582	0.263078	3.15085	-11.6175	2.31757	-0.443666	-1.2617e-16	0.726545	-0.945272	3.4853	-0.695283
3.43895	17.8986	575.114	-47.7121	1.13284	-1.25825e-16	0.111782	-0.105913	-3.40317	0.28233	3.69253	-14.9402	2.3426	-0.205394	-1.25825e-16	0.612228	-0.987532	3.99561	-0.626506
3.44894	26.543	609.455	-50.6202	1.13007	-1.25518e-16	0.111373	-0.158393	-3.63687	0.302071	4.41405	-18.7012	2.31393	-0.0461825	-1.25518e-16	0.535534	-1.02576	4.34587	-0.537723
3.45892	36.4586	647.633	-53.8636	1.12761	-1.25245e-16	0.111107	-0.217547	-3.8644	0.321402	5.29808	-22.632	2.19155	0.0587417	-1.25245e-16	0.485484	-1.07636	4.59793	-0.445235
3.46891	47.6595	688.5	-57.3782	1.12543	-1.25003e-16	0.110955	-0.281815	-4.07115	0.339282	6.30122	-26.3055	1.92822	0.126091	-1.25003e-16	0.454524	-1.14621	4.78506	-0.35075
3.47889	60.0716	730.71	-61.0804	1.12347	-1.24784e-16	0.110887	-0.348676	-4.24129	0.354531	7.34692	-29.1097	1.47334	0.165321	-1.24784e-16	0.438744	-1.24184	4.92039	-0.249038
3.48888	73.5293	772.73	-64.8578	1.12166	-1.24582e-16	0.110876	-0.414787	-4.35906	0.36587	8.31814	-30.2321	0.778489	0.179291	-1.24582e-16	0.438131	-1.37693	5.00444	-0.128866
3.49886	87.7798	812.868	-68.5638	1.11993	-1.24389e-16	0.1109	-0.476262	-4.41034	0.372003	9.05067	-28.6609	-0.194982	0.161813	-1.24389e-16	0.459394	-1.58586	5.02198	0.0341649
3.50885	102.492	849.332	-72.0175	1.11824	-1.24198e-16	0.110944	-0.529043	-4.3841	0.371741	9.32844	-23.2095	-1.46666	0.0818127	-1.24198e-16	0.531766	-1.96575	4.89086	0.309065
3.51883	117.267	880.286	-75.0096	1.11651	-1.24004e-16	0.110995	-0.56931	-4.27364	0.364159	8.88315	-12.5729	-3.02622	-0.258505	-1.24004e-16	0.852084	-2.78757	3.94542	0.949641
3.52882	131.654	903.942	-77.315	1.11471	-1.23801e-16	0.111049	-0.593861	-4.07747	0.34875	7.40082	4.57936	-4.8216	3.11398	-1.23801e-16	-0.586589	1.18433	0.732823	-0.771588
3.5388	145.163	918.646	-78.71	1.1128	-1.23585e-16	0.111105	-0.600433	-3.79976	0.325565	4.53757	29.4748	-6.74804	0.952565	-1.23585e-16	0.0991597	0.767843	4.9877	-1.1419
3.54879	157.276	922.973	-78.991	1.11073	-1.23352e-16	0.111169	-0.587953	-3.4504	0.295296	-0.0541877	63.083	-8.64066	0.725767	-0.515	0.0956734	-0.00487654	5.67705	-0.777603
3.55877	167.464	915.82	-77.9948	1.1085	-1.231e-16	0.111246	-0.556719	-3.04457	0.259287	-6.68836	105.951	-10.2741	0.615006	-0.515	0.14836	-0.385571	6.10788	-0.592279
3.56876	175.209	896.495	-75.6182	1.10608	-1.22827e-16	0.111344	-0.508493	-2.60182	0.21946	-15.5982	158.062	-11.3725	0.557917	-0.515	0.180125	-0.649515	6.58175	-0.473556
3.57874	180.035	864.788	-71.8352	1.10346	-1.22532e-16	0.111476	-0.446466	-2.14458	0.178143	-26.8841	218.743	-11.6341	0.522254	-0.515	0.202416	-0.878601	7.14876	-0.380214
3.58873	181.543	821.03	-66.7104	1.10065	-1.22215e-16	0.111649	-0.37508	-1.6963	0.137828	-40.4652	286.681	-10.7697	0.496903	-0.515	0.219648	-1.10258	7.81137	-0.293449
3.59871	179.459	766.12	-60.4044	1.09763	-1.21877e-16	0.111876	-0.299682	-1.27936	0.10087	-56.0452	360.04	-8.55481	0.477158	-0.515	0.233849	-1.33097	8.55029	-0.203161
3.60869	173.672	701.528	-53.1698	1.09443	-1.21517e-16	0.112166	-0.22602	-0.91298	0.0691961	-73.1077	436.678	-4.88226	0.460806	-0.515	0.246049	-1.56239	9.33227	-0.104339
3.61868	164.279	629.246	-45.3346	1.09105	-1.21139e-16	0.112526	-0.159633	-0.611451	0.0440525	-90.95	514.377	0.200789	0.446768	-0.515	0.25679	-1.78868	10.1161	0.00394884
3.62866	151.601	551.703	-37.2731	1.08753	-1.20745e-16	0.112964	-0.105186	-0.382791	0.0258614	-108.752	590.991	6.49058	0.434521	-0.515	0.266355	-1.99813	10.8584	0.119253
3.63865	136.187	471.619	-29.3684	1.08391	-1.2034e-16	0.113483	-0.0658826	-0.228152	0.0142074	-125.657	664.524	13.657	0.423821	-0.515	0.274892	-2.17803	11.5183	0.23672
3.64863	118.785	391.83	-21.9719	1.08025	-1.1993e-16	0.114083	-0.0430669	-0.142063	0.00796618	-140.84	733.145	21.2945	0.414554	-0.515	0.282487	-2.31665	12.0593	0.350268
3.65862	100.281	315.086	-15.3671	1.07662	-1.19525e-16	0.114753	-0.0361313	-0.113526	0.00553677	-153.575	795.193	28.9813	0.406659	-0.515	0.289207	-2.40488	12.4522	0.453828
3.6686	81.6173	243.836	-9.74497	1.07314	-1.19133e-16	0.11547	-0.0427633	-0.127757	0.00510586	-163.286	849.181	36.3346	0.400075	-0.515	0.295129	-2.43767	12.6773	0.542433
3.67859	63.6918	180.052	-5.19551	1.06995	-1.1877e-16	0.116177	-0.0594888	-0.16817	0.00485266	-169.595	893.839	43.0476	0.394712	-0.515	0.300349	-2.41459	12.7259	0.612886
3.68857	47.2669	125.099	-1.71561	1.06719	-1.18446e-16	0.11676	-0.0823819	-0.218037	0.00299016	-172.338	928.155	48.9051	0.390449	-0.515	0.304976	-2.3398	12.6014	0.663977
3.69856	32.9062	79.6827	0.771369	1.06511	-1.18174e-16	0.116962	-0.107843	-0.261142	-0.00252799	-171.57	951.444	53.7824	0.387133	-0.515	0.309131	-2.22147	12.3192	0.696368
3.70854	20.9459	43.8652	2.39127	1.06418	-1.17957e-16	0.116064	-0.13355	-0.279683	-0.0152467	-167.542	963.392	57.6319	0.38459	-0.515	0.31293	-2.07047	11.9055	0.712209
3.71853	11.5003	17.1566	3.29557	1.06738	-1.17792e-16	0.110489	-0.15743	-0.234862	-0.045114	-160.662	964.097	60.4621	0.382638	-0.515	0.31648	-1.89879	11.3942	0.714574
3.72851	4.49356	-1.35458	3.64179	1.06898	-1.17673e-16	0.0546514	0.0938296	-0.0282849	0.0760438	-151.449	954.079	62.3178	0.3811	-0.515	0.319867	-1.71794	10.8224	0.706891
3.7385	-0.294096	-12.8529	3.57912	1.06194	-1.17593e-16	0.121879	-0.00736746	-0.321981	0.0896613	-140.486	934.268	63.2624	0.379814	-0.515	0.323153	-1.53787	10.2272	0.69252
3.74848	-3.17701	-18.6543	3.23942	1.05962	-1.17544e-16	0.124043	-0.0478977	-0.281239	0.0488385	-128.369	905.951	63.3675	0.378643	-0.515	0.326373	-1.36623	9.64202	0.674419
3.75847	-4.5187	-20.09	2.73303	1.06033	-1.17519e-16	0.124111	-0.0509151	-0.226366	0.0307948	-115.667	870.706	62.7095	0.377483	-0.515	0.329531	-1.20801	9.09353	0.654929
3.76845	-4.69627	-18.4229	2.14853	1.06301	-1.17512e-16	0.123811	-0.0424355	-0.16647	0.0194141	-102.894	830.304	61.3726	0.376265	-0.515	0.332604	-1.06591	8.60137	0.635778
3.77844	-4.07628	-14.8009	1.55519	1.06929	-1.17516e-16	0.123082	-0.0287592	-0.104424	0.0109723	-90.4786	786.607	59.4542	0.374964	-0.515	0.33555	-0.940799	8.17916	0.618207
3.78842	-3.00201	-10.2402	1.00721	1.08467	-1.17529e-16	0.121338	-0.012835	-0.0437815	0.00430628	-78.7563	741.47	57.071	0.373594	-0.515	0.338309	-0.832296	7.83585	0.603126
3.79841	-1.79019	-5.63534	0.548751	1.131	-1.17545e-16	0.116181	0.00342034	0.0107669	-0.00104844	-67.9606	696.652	54.361	0.372213	-0.515	0.34082	-0.739167	7.57707	0.591252
3.80839	0	0	0	0	-0.515	0	0	0	0	-58.2261	653.747	51.4806	0.370911	-0.515	0.34303	-0.659638	7.40622	0.583218
3.81838	0	0	0	0	-0.515	0	0	0	0	-49.5966	614.128	48.597	0.369805	-0.515	0.344904	-0.591541	7.32474	0.579619
3.82836	0	0	0	0	-0.515	0	0	0	0	-42.0356	578.928	45.8762	0.36902	-0.515	0.34644	-0.532387	7.3322	0.581029
3.83835	0	0	0	0	-0.515	0	0	0	0	-35.4396	549.03	43.4704	0.368679	-0.515	0.347666	-0.479382	7.42658	0.588012
3.84833	0	0	0	0	-0.515	0	0	0	0	-29.65	525.086	41.5066	0.368888	-0.515	0.348644	-0.429351	7.60358	0.601042
3.85832	0	0	0	0	-0.515	0	0	0	0	-24.4648	507.542	40.0792	0.369729	-0.515	0.349452	-0.378699	7.85643	0.620401
3.8683	0	0	0	0	-0.515	0	0	0	0	-19.6483	496.672	39.2465	0.371251	-0.515	0.350175	-0.323462	8.17654	0.646102
3.87829	0	0	0	0	-0.515	0	0	0	0	-14.9405	492.613	39.0329	0.373481	-0.515	0.350881	-0.259434	8.55398	0.677787
3.88827	0	0	0	0	-0.515	0	0	0	0	-10.0665	495.389	39.4333	0.376415	-0.515	0.35161	-0.182435	8.9779	0.714647
3.89825	0	0	0	0	-0.515	0	0	0	0	-4.74787	504.926	40.4197	0.38003	-0.515	0.352372	-0.0887355	9.43683	0.755426
3.90824	0	0	0	0	-0.515	0	0	0	0	1.28398	521.051	41.9474	0.384271	-0.515	0.353146	0.0244422	9.91889	0.798524
3.91822	0	0	0	0	-0.515	0	0	0	0	8.2722	543.475	43.9589	0.389056	-0.515	0.353896	0.158478	10.4119	0.842161
3.92821	0.298687	-4.54396	-0.577151	-0.276496	3.06826e-17	0.217522	0.000309493	-0.00470834	-0.000598031	16.4183	571.765	46.3863	0.394272	-0.515	0.354582	0.313092	10.9034	0.884573
3.93819	0.703621	-7.0546	-0.667003	-0.276285	3.06708e-17	0.217768	0.000200098	-0.00200621	-0.000189684	25.8665	605.315	49.1536	0.399785	-0.515	0.35517	0.486354	11.3814	0.92421
3.94818	1.24762	-10.0758	-0.721376	-0.276108	3.06562e-17	0.218005	-0.000309618	0.00250048	0.000179022	36.6902	643.314	52.1771	0.405451	-0.515	0.355641	0.674971	11.8347	0.959875
3.95816	1.93916	-13.5071	-0.713042	-0.275933	3.06388e-17	0.218183	-0.00132305	0.00921565	0.000486495	48.8817	684.725	55.3669	0.411133	-0.515	0.35599	0.8747	12.2526	0.990747
3.96815	2.77231	-17.1417	-0.607907	-0.275756	3.06193e-17	0.218252	-0.00299254	0.0185034	0.000656199	62.3455	728.282	58.6283	0.41671	-0.515	0.356228	1.08076	12.6248	1.01632
3.97813	3.71952	-20.6361	-0.365955	-0.275584	3.05989e-17	0.218152	-0.00552652	0.0306614	0.000543741	76.8976	772.507	61.8631	0.422092	-0.515	0.356373	1.28835	12.9427	1.03646
3.98812	4.72349	-23.4833	0.0563962	-0.275443	3.05798e-17	0.217816	-0.00918285	0.0456535	-0.000109639	92.2712	815.746	64.971	0.427225	-0.515	0.356444	1.4933	13.2019	1.05148
3.9981	5.68855	-24.9935	0.702108	-0.275375	3.05649e-17	0.217181	-0.014321	0.0629215	-0.00176756	108.127	856.233	67.8492	0.432097	-0.515	0.356459	1.69256	13.403	1.06207
4.00809	6.47283	-24.2885	1.60717	-0.275468	3.05586e-17	0.216218	-0.0215719	0.0809459	-0.00535617	124.072	892.158	70.3917	0.43673	-0.515	0.356426	1.88473	13.5525	1.0693
4.01807	6.88252	-20.3176	2.79195	-0.275966	3.05665e-17	0.215088	-0.0324099	0.095676	-0.0131473	139.669	921.757	72.4887	0.441176	-0.515	0.35635	2.07002	13.6612	1.07435
4.02806	6.67022	-11.9012	4.25057	-0.278248	3.05956e-17	0.215191	-0.0498082	0.0888695	-0.0317401	154.464	943.392	74.0266	0.445502	-0.515	0.356224	2.24984	13.7409	1.07823
4.03804	5.53933	2.19348	5.93911	-0.288084	3.06543e-17	0.218983	0.0244983	0.0097009	0.0262663	167.988	955.637	74.8898	0.449784	-0.515	0.356039	2.42584	13.7999	1.08145
4.04803	3.15696	23.1442	7.76415	-0.278883	3.07521e-17	0.204687	0.0178117	0.13058	0.0438056	179.777	957.344	74.966	0.454095	-0.515	0.355779	2.59916	13.8409	1.08383
4.05801	-0.823345	51.9387	9.57432	-0.278783	3.08987e-17	0.19936	-0.00210779	0.132965	0.0245106	189.378	947.703	74.1543	0.458502	-0.515	0.355423	2.7701	13.8624	1.08468
4.068	-6.72818	89.2288	11.1578	-0.280301	3.11037e-17	0.194392	-0.00774582	0.102725	0.0128454	196.365	926.291	72.3766	0.463069	-0.515	0.354944	2.93842	13.8611	1.08305
4.07798	-14.8217	135.198	12.2499	-0.282624	3.13743e-17	0.189499	-0.00484392	0.0441844	0.00400343	200.359	893.105	69.5901	0.467861	-0.515	0.354313	3.10399	13.8361	1.0781
4.08797	-25.2577	189.474	12.5535	-0.285639	3.17141e-17	0.18486	0.00602364	-0.045187	-0.00299383	201.056	848.588	65.7996	0.472951	-0.515	0.353495	3.26764	13.7916	1.0694
4.09795	-38.0336	251.121	11.7746	-0.289277	3.21197e-17	0.180602	0.0254304	-0.167907	-0.00787288	198.255	793.642	61.068	0.478434	-0.515	0.352453	3.43177	13.7379	1.05708
4.10794	-52.9559	318.736	9.67179	-0.29347	3.25851e-17	0.176774	0.0540403	-0.325263	-0.00986984	191.896	729.614	55.5211	0.484449	-0.515	0.351148	3.60096	13.6913	1.04186
4.11792	-69.6303	390.625	6.10957	-0.298143	3.31028e-17	0.173367	0.0921178	-0.516779	-0.00808268	182.093	658.27	49.3468	0.491214	-0.515	0.34954	3.78239	13.6734	1.02502
4.12791	-87.485	465.006	1.10163	-0.30321	3.36635e-17	0.170342	0.13922	-0.73999	-0.00175308	169.154	581.733	42.7848	0.499081	-0.515	0.347588	3.98591	13.7079	1.00817
4.13789	-105.824	540.128	-5.17729	-0.308568	3.4256e-17	0.167648	0.194049	-0.990429	0.00949356	153.584	502.389	36.1072	0.508617	-0.515	0.34525	4.22348	13.8154	0.992928
4.14788	-123.888	614.296	-12.4137	-0.314095	3.48669e-17	0.165237	0.254482	-1.26184	0.0254993	136.062	422.756	29.5924	0.520743	-0.515	0.342484	4.50828	14.0076	0.980511
4.15786	-140.902	685.837	-20.2006	-0.319659	3.54819e-17	0.16307	0.317737	-1.54657	0.0455527	117.387	345.332	23.4958	0.536963	-0.515	0.339256	4.85392	14.2794	0.971549
4.16785	-156.117	753.058	-28.0939	-0.325129	3.60865e-17	0.161121	0.380656	-1.83616	0.0685006	98.4036	272.424	18.0238	0.559797	-0.515	0.335571	5.27545	14.6047	0.966261
4.17783	-168.862	814.242	-35.6705	-0.330392	3.66682e-17	0.159366	0.440046	-2.12187	0.0929552	79.9245	205.99	13.315	0.593713	-0.515	0.33156	5.79413	14.9333	0.965274
4.18781	-178.597	867.698	-42.5755	-0.335363	3.72177e-17	0.157784	0.492963	-2.39501	0.117516	62.6536	147.506	9.43429	0.647394	-0.515	0.327825	6.45115	15.188	0.971406
4.1978	-184.96	911.876	-48.5503	-0.340001	3.77305e-17	0.15635	0.536922	-2.6471	0.140937	47.1379	97.8823	6.37739	0.740342	-0.515	0.326825	7.34429	15.2505	0.993626
4.20778	-187.793	945.487	-53.4418	-0.344307	3.82067e-17	0.15503	0.570039	-2.86999	0.162221	33.7407	57.444	4.08511	0.92785	-0.515	0.340154	8.73312	14.8683	1.05735
4.21777	-187.154	967.622	-57.1973	-0.348322	3.86508e-17	0.153786	0.591135	-3.05628	0.180661	22.638	25.969	2.46103	1.4555	-0.515	0.446415	11.3298	12.9969	1.23169
4.22775	-183.291	977.839	-59.848	-0.352122	3.90711e-17	0.152573	0.599768	-3.1997	0.195836	13.8347	2.78179	1.38953	6.74986	3.90711e-17	1.7098	12.7446	2.56259	1.28004
4.23774	-176.604	976.211	-61.4869	-0.355797	3.94778e-17	0.151346	0.596199	-3.2956	0.207574	7.19576	-13.1232	0.75139	-1.14286	3.94778e-17	1.17652	-2.84987	5.19743	-0.297587
4.24772	-167.595	963.317	-62.2431	-0.359452	3.98823e-17	0.150061	0.581309	-3.34129	0.215892	2.48618	-22.9462	0.435681	-0.486626	3.98823e-17	0.713206	-1.147	10.5862	-0.201001
4.25771	-156.814	940.202	-62.2585	-0.363183	4.02953e-17	0.148677	0.556467	-3.33638	0.220929	-0.587591	-27.9544	0.347278	-0.3104	4.02953e-17	0.575001	0.235555	11.2064	-0.139218
4.26769	-144.809	908.285	-61.6685	-0.367075	4.07263e-17	0.147165	0.523395	-3.28289	0.222894	-2.34102	-29.3757	0.410005	-0.207252	-0.515	0.517854	0.864755	10.8511	-0.151453
4.27768	-132.092	869.256	-60.5895	-0.371194	4.11825e-17	0.145503	0.484024	-3.18521	0.222018	-3.08267	-28.319	0.566333	-0.182217	-0.515	0.499137	1.11384	10.2323	-0.204629
4.28766	-119.111	824.95	-59.1129	-0.375579	4.16682e-17	0.143682	0.440352	-3.04983	0.21854	-3.09428	-25.7249	0.774771	-0.265481	4.16682e-17	0.514741	1.14988	9.55977	-0.287917
4.29765	-106.236	777.234	-57.3064	-0.380242	4.2185e-17	0.141707	0.39431	-2.8848	0.2127	-2.61885	-22.3427	1.00644	-0.329911	4.2185e-17	0.539397	1.04337	8.90149	-0.400974
4.30763	-93.7545	727.907	-55.2174	-0.385168	4.27311e-17	0.139592	0.347632	-2.69901	0.204741	-1.85516	-18.7309	1.24178	-0.43963	4.27311e-17	0.588075	0.816935	8.24831	-0.546826
4.31762	-81.8674	678.621	-52.8793	-0.390316	4.33019e-17	0.137363	0.30176	-2.50137	0.194911	-0.957483	-15.2737	1.46765	-0.608823	4.33019e-17	0.670825	0.471649	7.52371	-0.722955
4.3276	-70.6989	630.827	-50.3176	-0.39562	4.38904e-17	0.135056	0.257774	-2.30005	0.183462	-0.0389972	-12.2064	1.6752	-0.855199	4.38904e-17	0.801888	0.0210392	6.58541	-0.903782
4.33759	-60.3015	585.746	-47.5553	-0.400998	4.44874e-17	0.132714	0.216387	-2.10189	0.170648	0.822879	-9.64613	1.85837	-1.19176	4.44874e-17	0.991992	-0.448489	5.25738	-1.01286
4.34757	-50.6665	544.362	-44.617	-0.406353	4.50822e-17	0.130386	0.177973	-1.91215	0.156724	1.57971	-7.62213	2.01277	-1.60912	4.50822e-17	1.22652	-0.71584	3.45395	-0.91208
4.35756	-41.7348	507.432	-41.5327	-0.411582	4.56637e-17	0.128119	0.142658	-1.73451	0.141967	2.20489	-6.10252	2.13474	-2.06033	4.56637e-17	1.44311	-0.500105	1.38415	-0.484193
4.36754	-33.4096	475.503	-38.3405	-0.416583	4.62204e-17	0.125962	0.110413	-1.57145	0.126708	2.68771	-5.01833	2.22132	-2.47952	4.62204e-17	1.56281	0.247297	-0.461739	0.204385
4.37753	-25.5678	448.943	-35.0886	-0.421263	4.67421e-17	0.123957	0.0811394	-1.42472	0.111354	3.02928	-4.28395	2.27098	-2.82186	4.67421e-17	1.56803	1.21419	-1.71709	0.910251
4.38751	-18.0715	427.964	-31.8382	-0.425543	4.72197e-17	0.122139	0.054715	-1.29574	0.0963963	3.23987	-3.81306	2.28453	-3.07009	4.72197e-17	1.51145	2.02513	-2.38342	1.42798
4.3975	-10.7776	412.651	-28.6641	-0.429364	4.76468e-17	0.120533	0.0309729	-1.18589	0.0823759	3.33675	-3.52932	2.26576	-3.22083	4.76468e-17	1.45335	2.50322	-2.64769	1.69977
4.40748	-3.54507	402.976	-25.6549	-0.432692	4.80193e-17	0.119148	0.00964618	-1.0965	0.0698074	3.34237	-3.3723	2.22141	-3.28214	4.80193e-17	1.4233	2.65383	-2.67759	1.76379
4.41747	3.75866	398.804	-22.9091	-0.435518	4.83358e-17	0.117985	-0.00969551	-1.02872	0.0590943	3.28204	-3.29874	2.16039	-3.27261	4.83358e-17	1.42338	2.56116	-2.57419	1.68587
4.42745	11.254	399.89	-20.5284	-0.437856	4.85978e-17	0.117028	-0.0276676	-0.983118	0.0504685	3.18105	-3.27994	2.09221	-3.21526	4.85978e-17	1.44328	2.32187	-2.39405	1.52712
4.43744	19.0453	405.862	-18.6074	-0.439741	4.8809e-17	0.116254	-0.0450176	-0.959339	0.0439824	3.06205	-3.29766	2.02537	-3.13154	4.8809e-17	1.47105	2.01774	-2.173	1.33462
4.44742	27.2167	416.207	-17.2193	-0.441224	4.89752e-17	0.115633	-0.0625109	-0.955938	0.039549	2.94324	-3.34016	1.96616	-3.03842	4.89752e-17	1.49784	1.70759	-1.93787	1.14071
4.45741	35.8269	430.254	-16.4022	-0.442369	4.91033e-17	0.115131	-0.080808	-0.970444	0.0369954	2.83721	-3.39876	1.918	-2.94784	4.91033e-17	1.51897	1.4274	-1.70991	0.964945
4.46739	44.9031	447.167	-16.1474	-0.443242	4.92008e-17	0.114717	-0.100378	-0.99961	0.0360965	2.75066	-3.46555	1.88137	-2.86724	4.92008e-17	1.53327	1.1942	-1.50457	0.816801
4.47737	54.4337	465.945	-16.3947	-0.443913	4.92756e-17	0.114364	-0.121464	-1.03971	0.0365832	2.68506	-3.53253	1.85437	-2.80035	4.92756e-17	1.54163	1.01157	-1.33084	0.698613
4.48736	64.3618	485.449	-17.0352	-0.444446	4.93347e-17	0.114049	-0.144089	-1.08679	0.0381373	2.63806	-3.5918	1.83362	-2.74818	4.93347e-17	1.5458	0.875157	-1.19155	0.608289
4.49734	74.5793	504.435	-17.9237	-0.444898	4.93847e-17	0.113759	-0.168073	-1.1368	0.0403932	2.6052	-3.63672	1.81544	-2.70992	4.93847e-17	1.54742	0.777153	-1.08486	0.54156
4.50733	84.9246	521.606	-18.896	-0.445317	4.9431e-17	0.113485	-0.193041	-1.18566	0.0429523	2.58179	-3.66334	1.797	-2.68378	4.9431e-17	1.54777	0.709194	-1.00629	0.493621
4.51731	95.1834	535.676	-19.7889	-0.445741	4.94778e-17	0.113226	-0.218425	-1.22926	0.0454113	2.56434	-3.67149	1.77721	-2.66759	4.94778e-17	1.54761	0.663922	-0.950569	0.46013
4.5273	105.094	545.441	-20.4594	-0.446198	4.95283e-17	0.112988	-0.243458	-1.26356	0.0473957	2.55108	-3.66457	1.75676	-2.65919	4.95283e-17	1.54738	0.635505	-0.912887	0.437628
4.53728	114.356	549.84	-20.7968	-0.446705	4.95845e-17	0.112781	-0.267189	-1.28468	0.0485911	2.54208	-3.64882	1.73791	-2.6566	4.95845e-17	1.54726	0.619658	-0.889438	0.423635
4.54727	122.642	548.021	-20.7297	-0.447274	4.96475e-17	0.112618	-0.288523	-1.28926	0.0487681	2.53924	-3.63269	1.72424	-2.65805	4.96475e-17	1.54726	0.613507	-0.877696	0.416596
4.55725	129.612	539.391	-20.2247	-0.447906	4.97177e-17	0.112519	-0.306302	-1.2747	0.0477955	2.54603	-3.62601	1.7201	-2.66203	4.97177e-17	1.54735	0.61531	-0.876314	0.415705
4.56724	134.93	523.65	-19.2815	-0.448599	4.97948e-17	0.112504	-0.319414	-1.23961	0.045644	2.5667	-3.63876	1.72993	-2.66721	4.97948e-17	1.54747	0.62408	-0.884745	0.420624
4.57722	138.285	500.821	-17.927	-0.449346	4.98781e-17	0.112599	-0.326912	-1.18396	0.0423804	2.60529	-3.6796	1.75743	-2.67254	4.98781e-17	1.54759	0.639184	-0.902757	0.43117
4.58721	139.408	471.262	-16.211	-0.450137	4.99663e-17	0.112826	-0.328138	-1.10926	0.0381575	2.66489	-3.75489	1.80496	-2.67724	4.99663e-17	1.54775	0.66006	-0.930041	0.447067
4.59719	138.101	435.662	-14.2032	-0.45096	5.00581e-17	0.113209	-0.3228	-1.01832	0.0331987	2.74701	-3.86777	1.87311	-2.68081	5.00581e-17	1.54798	0.686014	-0.965904	0.467773
4.60718	134.263	395.024	-11.9919	-0.4518	5.01521e-17	0.113768	-0.31102	-0.915072	0.0277792	2.85093	-4.01728	1.9603	-2.68306	5.01521e-17	1.54835	0.716036	-1.00898	0.492346
4.61716	127.912	350.624	-9.68122	-0.452644	5.02466e-17	0.114519	-0.293319	-0.804031	0.0222004	2.97325	-4.19798	2.06276	-2.68397	5.02466e-17	1.54887	0.748698	-1.0571	0.519426
4.62715	119.203	303.951	-7.38432	-0.453476	5.03399e-17	0.115464	-0.270559	-0.689884	0.0167604	3.10793	-4.40024	2.17478	-2.68363	5.03399e-17	1.5495	0.78215	-1.10738	0.547311
4.63713	108.443	256.612	-5.21326	-0.45428	5.04301e-17	0.116596	-0.243842	-0.577012	0.0117224	3.24638	-4.61077	2.28907	-2.68212	5.04301e-17	1.55018	0.814152	-1.15632	0.574071
4.64712	96.0746	210.233	-3.26682	-0.455037	5.05154e-17	0.11789	-0.214385	-0.469121	0.00728972	3.3781	-4.81363	2.39737	-2.67954	5.05154e-17	1.55087	0.842218	-1.20012	0.597707
4.6571	82.6546	166.329	-1.61934	-0.45573	5.05938e-17	0.119303	-0.183365	-0.368992	0.00359243	3.49185	-4.99187	2.49127	-2.67601	5.05938e-17	1.55152	0.863922	-1.23504	0.616366
4.66709	68.8084	126.198	-0.313369	-0.456342	5.06635e-17	0.120772	-0.151794	-0.278398	0.000691305	3.5773	-5.12956	2.5631	-2.67171	5.06635e-17	1.55207	0.877295	-1.25797	0.628573
4.67707	55.1715	90.8241	0.642059	-0.456856	5.07229e-17	0.122217	-0.120405	-0.198212	-0.00140121	3.62684	-5.21433	2.60706	-2.6669	5.07229e-17	1.55251	0.881239	-1.26696	0.633456
4.68706	42.3273	60.8216	1.26787	-0.45726	5.07709e-17	0.123547	-0.0895995	-0.128749	-0.00268386	3.63722	-5.23971	2.62013	-2.66193	5.07709e-17	1.55284	0.875835	-1.26171	0.630923
4.69704	30.7517	36.4175	1.60751	-0.457552	5.08079e-17	0.124691	-0.0594502	-0.0704034	-0.00310768	3.61015	-5.20626	2.60262	-2.65721	5.08079e-17	1.55306	0.862394	-1.24367	0.621715
4.70703	20.7742	17.4817	1.71754	-0.457739	5.08349e-17	0.125702	-0.0298648	-0.0251316	-0.00246913	3.55169	-5.12134	2.558	-2.65313	5.08349e-17	1.55319	0.843201	-1.21585	0.607291
4.71701	12.5644	3.59158	1.65865	-0.457901	5.08534e-17	0.127171	-0.00395639	-0.00113095	-0.000522289	3.47117	-4.99815	2.49252	-2.65003	5.08534e-17	1.55327	0.821149	-1.18237	0.589637
4.727	6.14202	-5.88254	1.48837	-0.458495	5.08649e-17	0.130347	-0.00837402	0.00802024	-0.00202924	3.37971	-4.85361	2.41426	-2.64811	5.08649e-17	1.55334	0.799323	-1.14791	0.570988
4.73698	1.40329	-11.6866	1.25641	-0.458552	5.0871e-17	0.129774	-0.00452825	0.0377112	-0.00405427	3.28851	-4.70559	2.33182	-2.64749	5.0871e-17	1.55343	0.78061	-1.11699	0.553516
4.74697	-1.84356	-14.6002	1.00213	-0.458463	5.08733e-17	0.129259	0.00635308	0.0503138	-0.00345344	3.20784	-4.57074	2.25336	-2.64817	5.08733e-17	1.55358	0.767458	-1.09353	0.539104
4.75695	-3.84162	-15.3707	0.75411	-0.458395	5.08729e-17	0.128999	0.0134859	0.0539585	-0.00264729	3.14689	-4.46385	2.1862	-2.65009	5.08729e-17	1.5538	0.76187	-1.08071	0.529286
4.76693	-4.85244	-14.666	0.53088	-0.458334	5.08708e-17	0.128769	0.0175366	0.0530023	-0.00191858	3.11376	-4.39757	2.13679	-2.65311	5.08708e-17	1.55414	0.765378	-1.08094	0.525232
4.77692	-5.13006	-13.0476	0.342556	-0.458276	5.08678e-17	0.128499	0.0194094	0.0493654	-0.00129605	3.11452	-4.38139	2.11012	-2.65699	5.08678e-17	1.55465	0.778814	-1.0956	0.527654
4.7869	-4.90294	-10.9606	0.19274	-0.458217	5.08645e-17	0.128165	0.0197092	0.04406	-0.00077479	3.1518	-4.41993	2.1091	-2.66142	5.08645e-17	1.55538	0.802002	-1.12469	0.536676
4.79689	-4.36349	-8.73525	0.0804321	-0.458157	5.08612e-17	0.127765	0.0187677	0.0375709	-0.000345944	3.22341	-4.51108	2.13367	-2.66601	5.08612e-17	1.55634	0.83349	-1.16645	0.551711
4.80687	-3.66399	-6.59937	0.00173196	-0.458092	5.08583e-17	0.127323	0.0166804	0.0300438	-7.8848e-06	3.32167	-4.64501	2.18045	-2.67034	5.08583e-17	1.55747	0.870505	-1.21731	0.571426
4.81686	-2.91733	-4.69393	-0.0487818	-0.458017	5.08557e-17	0.126802	0.0140001	0.0225258	0.0002341	3.43404	-4.80469	2.24292	-2.67404	5.08557e-17	1.55862	0.909203	-1.2721	0.593839
4.82684	-2.20097	-3.09158	-0.077019	-0.457923	5.08536e-17	0.126125	0.0111178	0.0156166	0.000389049	3.54504	-4.96843	2.3124	-2.67685	5.08536e-17	1.55961	0.945239	-1.32477	0.616572
4.83683	0	0	0	0	-0.515	0	0	0	0	3.63886	-5.11337	2.37944	-3.04509	-0.515	1.32057	0.974454	-1.36931	0.637191
4.84681	0	0	0	0	-0.515	0	0	0	0	3.70227	-5.21953	2.43529	-3.04456	-0.515	1.32002	0.993602	-1.4008	0.653575
4.8568	0	0	0	0	-0.515	0	0	0	0	3.72706	-5.27331	2.4734	-3.04293	-0.515	1.31823	1.00094	-1.41621	0.664259
4.86678	0	0	0	0	-0.515	0	0	0	0	3.71054	-5.26852	2.4897	-3.0405	-0.515	1.31526	0.99626	-1.41457	0.668472
4.87677	0	0	0	0	-0.515	0	0	0	0	3.65427	-5.20492	2.48217	-3.03764	-0.515	1.31128	0.980395	-1.39642	0.665936
4.88675	0	0	0	0	-0.515	0	0	0	0	3.56263	-5.08656	2.45029	-3.03478	-0.515	1.30658	0.954789	-1.36321	0.65668
4.89674	0	0	0	0	-0.515	0	0	0	0	3.44153	-4.92024	2.39468	-3.03234	-0.515	1.30149	0.921113	-1.31688	0.640927
4.90672	0	0	0	0	-0.515	0	0	0	0	3.29718	-4.71382	2.31666	-3.03076	-0.515	1.29643	0.880982	-1.2595	0.618995
4.91671	0	0	0	0	-0.515	0	0	0	0	3.13559	-4.47545	2.21817	-3.03044	-0.515	1.29181	0.835913	-1.1931	0.59134
4.92669	0	0	0	0	-0.515	0	0	0	0	2.96275	-4.21368	2.1021	-3.0318	-0.515	1.28799	0.787452	-1.11993	0.558706
4.93668	0	0	0	0	-0.515	0	0	0	0	2.78461	-3.9374	1.97248	-3.03523	-0.515	1.28521	0.737227	-1.04243	0.522216
4.94666	0	0	0	0	-0.515	0	0	0	0	2.60684	-3.65543	1.83425	-3.0411	-0.515	1.28355	0.686892	-0.96319	0.483317
4.95665	0	0	0	0	-0.515	0	0	0	0	2.43453	-3.376	1.69285	-3.04967	-0.515	1.28288	0.638023	-0.884756	0.44365
4.96663	0	0	0	0	-0.515	0	0	0	0	2.27203	-3.10652	1.55385	-3.06111	-0.515	1.28282	0.592051	-0.809506	0.404906
4.97662	0	0	0	0	-0.515	0	0	0	0	2.12317	-2.85382	1.4227	-3.07538	-0.515	1.28276	0.550276	-0.739642	0.368731
4.9866	0	0	0	0	-0.515	0	0	0	0	1.99219	-2.62528	1.30511	-3.09211	-0.515	1.28191	0.514059	-0.67742	0.336766
4.99659	0	0	0	0	-0.515	0	0	0	0	1.88459	-2.43012	1.20731	-3.11047	-0.515	1.27941	0.48502	-0.625416	0.310714
5.00657	0	0	0	0	-0.515	0	0	0	0	1.80735	-2.27957	1.13599	-3.12892	-0.515	1.27458	0.465034	-0.586538	0.292293
5.01656	0	0	0	0	-0.515	0	0	0	0	1.76789	-2.1858	1.09748	-3.14512	-0.515	1.26745	0.455913	-0.563688	0.283026
5.02654	0	0	0	0	-0.515	0	0	0	0	1.77261	-2.16012	1.09685	-3.15621	-0.515	1.25907	0.458963	-0.559295	0.283995
5.03653	0	0	0	0	-0.515	0	0	0	0	1.82538	-2.21119	1.1371	-3.15968	-0.515	1.25147	0.474572	-0.574877	0.295631
5.04651	0	0	0	0	-0.515	0	0	0	0	1.92646	-2.34381	1.21891	-3.15434	-0.515	1.2468	0.50197	-0.610717	0.317606
5.05649	0	0	0	0	-0.515	0	0	0	0	2.07247	-2.55868	1.34078	-3.1407	-0.515	1.24637	0.539254	-0.665764	0.348868
5.06648	0	0	0	0	-0.515	0	0	0	0	2.25709	-2.85299	1.49968	-3.1204	-0.515	1.25026	0.583679	-0.737777	0.387815
5.07646	0	0	0	0	-0.515	0	0	0	0	2.47219	-3.22135	1.69174	-3.09539	-0.515	1.25755	0.632117	-0.823669	0.432562
5.08645	0	0	0	0	-0.515	0	0	0	0	2.70873	-3.65606	1.91253	-3.06745	-0.515	1.26689	0.681495	-0.919837	0.481178
5.09643	0	0	0	0	-0.515	0	0	0	0	2.95719	-4.14692	2.15701	-3.03798	-0.515	1.27698	0.729106	-1.02244	0.531818
5.10642	0	0	0	0	-0.515	0	0	0	0	3.20775	-4.68058	2.41899	-3.00809	-0.515	1.28679	0.77278	-1.1276	0.582758
5.1164	0	0	0	0	-0.515	0	0	0	0	3.45035	-5.24003	2.69063	-2.97865	-0.515	1.29572	0.810916	-1.23153	0.632362
5.12639	0	0	0	0	-0.515	0	0	0	0	3.67526	-5.80505	2.96239	-2.9504	-0.515	1.3035	0.842533	-1.33077	0.679112
5.13637	0	0	0	0	-0.515	0	0	0	0	3.87437	-6.35377	3.22372	-2.92399	-0.515	1.31014	0.867405	-1.4225	0.721736
5.14636	0	0	0	0	-0.515	0	0	0	0	4.04241	-6.8649	3.464	-2.9001	-0.515	1.31581	0.886142	-1.50486	0.759348
5.15634	0	0	0	0	-0.515	0	0	0	0	4.17805	-7.32043	3.67401	-2.87939	-0.515	1.32076	0.900153	-1.57717	0.791558
5.16633	0	0	0	0	-0.515	0	0	0	0	4.28424	-7.70818	3.8472	-2.8625	-0.515	1.32525	0.91143	-1.63984	0.818453
5.17631	0	0	0	0	-0.515	0	0	0	0	4.36765	-8.02319	3.98045	-2.84999	-0.515	1.32954	0.922204	-1.69405	0.840449
5.1863	0	0	0	0	-0.515	0	0	0	0	4.43691	-8.26676	4.07358	-2.8423	-0.515	1.33383	0.934578	-1.74129	0.858048
5.19628	0	0	0	0	-0.515	0	0	0	0	4.50016	-8.44403	4.12819	-2.83963	-0.515	1.33827	0.950096	-1.78274	0.871563
5.20627	0	0	0	0	-0.515	0	0	0	0	4.56277	-8.56182	4.14667	-2.84184	-0.515	1.34298	0.969344	-1.81893	0.880945
5.21625	0	0	0	0	-0.515	0	0	0	0	4.62617	-8.62709	4.13183	-2.84841	-0.515	1.34804	0.991783	-1.84952	0.885804
5.22624	0	0	0	0	-0.515	0	0	0	0	4.68802	-8.64557	4.08675	-2.85849	-0.515	1.35345	1.01587	-1.87345	0.885577
5.23622	0	0	0	0	-0.515	0	0	0	0	4.74348	-8.62204	4.01507	-2.87103	-0.515	1.35916	1.03946	-1.88938	0.879838
5.24621	0	0	0	0	-0.515	0	0	0	0	4.78764	-8.56228	3.92201	-2.88493	-0.515	1.36508	1.06044	-1.89651	0.86871
5.25619	0	0	0	0	-0.515	0	0	0	0	4.8177	-8.47479	3.8151	-2.89915	-0.515	1.37103	1.07736	-1.89519	0.853156
5.26618	0	0	0	0	-0.515	0	0	0	0	4.83445	-8.37149	3.70429	-2.91281	-0.515	1.37672	1.08987	-1.88725	0.835085
5.27616	0	0	0	0	-0.515	0	0	0	0	4.84271	-8.26714	3.60114	-2.92526	-0.515	1.38174	1.09898	-1.87611	0.817227
5.28615	0	0	0	0	-0.515	0	0	0	0	4.85014	-8.17702	3.51713	-2.93611	-0.515	1.38561	1.1069	-1.86616	0.80268
5.29613	0	0	0	0	-0.515	0	0	0	0	4.86477	-8.11328	3.4613	-2.94527	-0.515	1.38786	1.11624	-1.86163	0.794211
5.30612	0	0	0	0	-0.515	0	0	0	0	4.89253	-8.08213	3.43835	-2.95286	-0.515	1.38818	1.12927	-1.86547	0.79362
5.3161	0	0	0	0	-0.515	0	0	0	0	4.93543	-8.08242	3.44762	-2.95915	-0.515	1.38651	1.14715	-1.87861	0.801334
5.32608	0	0	0	0	-0.515	0	0	0	0	4.99058	-8.10535	3.48311	-2.96443	-0.515	1.38309	1.16955	-1.89951	0.816273
5.33607	0	0	0	0	-0.515	0	0	0	0	5.05049	-8.13597	3.53457	-2.96899	-0.515	1.37834	1.19465	-1.92449	0.836072
5.34605	0	0	0	0	-0.515	0	0	0	0	5.10471	-8.15615	3.58946	-2.97303	-0.515	1.37279	1.21955	-1.94857	0.857549
5.35604	0	0	0	0	-0.515	0	0	0	0	5.1416	-8.14735	3.63465	-2.97672	-0.515	1.36691	1.24089	-1.96631	0.877199
5.36602	0	0	0	0	-0.515	0	0	0	0	5.14993	-8.09264	3.65793	-2.98018	-0.515	1.3611	1.25533	-1.97264	0.891646
5.37601	0	0	0	0	-0.515	0	0	0	0	5.12061	-7.97914	3.64953	-2.98357	-0.515	1.35561	1.26017	-1.96364	0.89814
5.38599	0	0	0	0	-0.515	0	0	0	0	5.04842	-7.8002	3.60353	-2.98702	-0.515	1.35059	1.2538	-1.93721	0.894953
5.39598	0	0	0	0	-0.515	0	0	0	0	4.93225	-7.55563	3.51805	-2.9907	-0.515	1.3461	1.23577	-1.89305	0.881441
5.40596	0	0	0	0	-0.515	0	0	0	0	4.77464	-7.2508	3.3948	-2.99476	-0.515	1.34215	1.20659	-1.83234	0.857895
5.41595	0	0	0	0	-0.515	0	0	0	0	4.58126	-6.89589	3.23863	-2.99929	-0.515	1.33877	1.16757	-1.75747	0.825392
5.42593	0	0	0	0	-0.515	0	0	0	0	4.35993	-6.50431	3.05667	-3.00432	-0.515	1.33601	1.12052	-1.67164	0.78558
5.43592	0	0	0	0	-0.515	0	0	0	0	4.11943	-6.09075	2.8573	-3.00981	-0.515	1.3339	1.06749	-1.57833	0.740428
5.4459	0	0	0	0	-0.515	0	0	0	0	3.86926	-5.67056	2.64976	-3.01567	-0.515	1.33245	1.01071	-1.48124	0.692159
5.45589	0	0	0	0	-0.515	0	0	0	0	3.61981	-5.25996	2.44409	-3.02172	-0.515	1.33159	0.952712	-1.38439	0.643269
5.46587	0	0	0	0	-0.515	0	0	0	0	3.38175	-4.87505	2.25042	-3.02775	-0.515	1.33114	0.896173	-1.2919	0.596368
5.47586	0	0	0	0	-0.515	0	0	0	0	3.16502	-4.53039	2.07792	-3.03346	-0.515	1.3308	0.843693	-1.20766	0.553907
5.48584	0	0	0	0	-0.515	0	0	0	0	2.97816	-4.23813	1.93398	-3.0385	-0.515	1.33023	0.7976	-1.13504	0.517951
5.49583	0	0	0	0	-0.515	0	0	0	0	2.82754	-4.00686	1.82346	-3.0425	-0.515	1.32913	0.759733	-1.07661	0.489945
5.50581	0	0	0	0	-0.515	0	0	0	0	2.71617	-3.83983	1.74785	-3.04526	-0.515	1.32734	0.731111	-1.03356	0.470467
5.5158	0	0	0	0	-0.515	0	0	0	0	2.64301	-3.73378	1.70494	-3.04682	-0.515	1.32487	0.711697	-1.00541	0.459097
5.52578	0	0	0	0	-0.515	0	0	0	0	2.60265	-3.67875	1.68897	-3.0475	-0.515	1.32188	0.700283	-0.989825	0.454443
5.53577	0	0	0	0	-0.515	0	0	0	0	2.58605	-3.65948	1.69161	-3.04777	-0.515	1.31862	0.694644	-0.982978	0.454386
5.54575	0	0	0	0	-0.515	0	0	0	0	2.58277	-3.65897	1.70388	-3.04803	-0.515	1.31529	0.692096	-0.980484	0.456583
5.55574	0	0	0	0	-0.515	0	0	0	0	2.58403	-3.66334	1.71862	-3.04855	-0.515	1.31204	0.690299	-0.978627	0.459112
5.56572	0	0	0	0	-0.515	0	0	0	0	2.58536	-3.66566	1.73239	-3.04935	-0.515	1.3089	0.687939	-0.975395	0.460972
5.57571	0	0	0	0	-0.515	0	0	0	0	2.58758	-3.66739	1.74621	-3.05028	-0.515	1.30584	0.685034	-0.970901	0.462289
5.58569	0	0	0	0	-0.515	0	0	0	0	2.59608	-3.67731	1.76488	-3.051	-0.515	1.3028	0.682796	-0.96717	0.464181
5.59568	0	0	0	0	-0.515	0	0	0	0	2.61891	-3.70882	1.79548	-3.05101	-0.515	1.29979	0.683176	-0.967494	0.468374
5.60566	0	0	0	0	-0.515	0	0	0	0	2.66409	-3.77615	1.84534	-3.04969	-0.515	1.29693	0.688172	-0.975432	0.476676
5.61564	0	0	0	0	-0.515	0	0	0	0	2.73729	-3.89083	1.92019	-3.04639	-0.515	1.29445	0.699163	-0.993803	0.490458
5.62563	0	0	0	0	-0.515	0	0	0	0	2.84029	-4.05931	2.02296	-3.04056	-0.515	1.29268	0.716508	-1.02403	0.510324
5.63561	0	0	0	0	-0.515	0	0	0	0	2.97091	-4.28227	2.15336	-3.03193	-0.515	1.2919	0.73952	-1.06594	0.536015
5.6456	0	0	0	0	-0.515	0	0	0	0	3.124	-4.55544	2.30823	-3.02053	-0.515	1.29237	0.76678	-1.11812	0.56655
5.65558	0	0	0	0	-0.515	0	0	0	0	3.2926	-4.8708	2.48203	-3.00667	-0.515	1.29422	0.796535	-1.17833	0.600445
5.66557	0	0	0	0	-0.515	0	0	0	0	3.46882	-5.21728	2.66719	-2.9909	-0.515	1.29754	0.827049	-1.24392	0.635922
5.67555	0	0	0	0	-0.515	0	0	0	0	3.64454	-5.58147	2.85447	-2.97393	-0.515	1.30232	0.856855	-1.31224	0.671105
5.68554	0	0	0	0	-0.515	0	0	0	0	3.81205	-5.94831	3.03351	-2.95657	-0.515	1.30852	0.88493	-1.38084	0.7042
5.69552	0	0	0	0	-0.515	0	0	0	0	3.96456	-6.30196	3.19365	-2.93968	-0.515	1.31605	0.910729	-1.44767	0.733638
5.70551	0	0	0	0	-0.515	0	0	0	0	4.09694	-6.62736	3.3252	-2.92411	-0.515	1.32477	0.934207	-1.51121	0.758232
5.71549	0	0	0	0	-0.515	0	0	0	0	4.20659	-6.91255	3.42116	-2.9106	-0.515	1.3345	0.955811	-1.57065	0.777349
5.72548	0	0	0	0	-0.515	0	0	0	0	4.29391	-7.15056	3.47852	-2.89978	-0.515	1.34501	0.976412	-1.626	0.790996
5.73546	0	0	0	0	-0.515	0	0	0	0	4.36163	-7.33918	3.49823	-2.89211	-0.515	1.35598	0.997032	-1.67767	0.799666
5.74545	0	0	0	0	-0.515	0	0	0	0	4.41368	-7.47988	3.48432	-2.88788	-0.515	1.36705	1.01856	-1.72616	0.804091
5.75543	0	0	0	0	-0.515	0	0	0	0	4.45485	-7.57777	3.44337	-2.88718	-0.515	1.37784	1.04169	-1.77192	0.80517
5.76542	0	0	0	0	-0.515	0	0	0	0	4.49066	-7.64161	3.3842	-2.88989	-0.515	1.38796	1.06687	-1.81546	0.804003
5.7754	0	0	0	0	-0.515	0	0	0	0	4.52659	-7.68232	3.31674	-2.89567	-0.515	1.39702	1.09434	-1.85726	0.80185
5.78539	0	0	0	0	-0.515	0	0	0	0	4.56749	-7.71153	3.25093	-2.904	-0.515	1.40462	1.12412	-1.89791	0.800096
5.79537	0	0	0	0	-0.515	0	0	0	0	4.61717	-7.74036	3.19585	-2.91423	-0.515	1.41042	1.15607	-1.93807	0.800192
5.80536	0	0	0	0	-0.515	0	0	0	0	4.67768	-7.77757	3.15874	-2.92559	-0.515	1.4142	1.18978	-1.97824	0.803433
5.81534	0	0	0	0	-0.515	0	0	0	0	4.74893	-7.82851	3.1444	-2.93729	-0.515	1.41585	1.22447	-2.01851	0.810755
5.82533	0	0	0	0	-0.515	0	0	0	0	4.82926	-7.89567	3.1551	-2.94857	-0.515	1.41543	1.25917	-2.0587	0.822653
5.83531	0	0	0	0	-0.515	0	0	0	0	4.91581	-7.97895	3.19066	-2.95877	-0.515	1.41317	1.29276	-2.09831	0.839082
5.8453	0	0	0	0	-0.515	0	0	0	0	5.00453	-8.07518	3.24829	-2.96738	-0.515	1.40947	1.32401	-2.13639	0.859375
5.85528	0	0	0	0	-0.515	0	0	0	0	5.09051	-8.17851	3.32287	-2.9741	-0.515	1.40479	1.35161	-2.17152	0.882273
5.86527	0	0	0	0	-0.515	0	0	0	0	5.16799	-8.2806	3.40723	-2.9788	-0.515	1.39964	1.3742	-2.20186	0.906003
5.87525	0	0	0	0	-0.515	0	0	0	0	5.23006	-8.37044	3.49254	-2.9815	-0.515	1.39452	1.39025	-2.22502	0.928381
5.88524	0	0	0	0	-0.515	0	0	0	0	5.2693	-8.43564	3.56947	-2.98234	-0.515	1.38981	1.39818	-2.23834	0.947137
5.89522	0	0	0	0	-0.515	0	0	0	0	5.27959	-8.46539	3.62988	-2.98153	-0.515	1.38577	1.39684	-2.23971	0.960368
5.9052	0	0	0	0	-0.515	0	0	0	0	5.25733	-8.45229	3.6677	-2.97938	-0.515	1.38253	1.38582	-2.228	0.966796
5.91519	0	0	0	0	-0.515	0	0	0	0	5.20179	-8.39254	3.67908	-2.97626	-0.515	1.38013	1.36552	-2.20312	0.965794
5.92517	0	0	0	0	-0.515	0	0	0	0	5.11565	-8.28656	3.66254	-2.97265	-0.515	1.37853	1.33726	-2.16616	0.95741
5.93516	0	0	0	0	-0.515	0	0	0	0	5.00457	-8.13865	3.61869	-2.96913	-0.515	1.37767	1.30313	-2.11921	0.942265
5.94514	0	0	0	0	-0.515	0	0	0	0	4.87558	-7.95499	3.54944	-2.96629	-0.515	1.37748	1.26547	-2.06474	0.921269
5.95513	0	0	0	0	-0.515	0	0	0	0	4.73575	-7.74242	3.45754	-2.96467	-0.515	1.37788	1.22647	-2.00515	0.89544
5.96511	0	0	0	0	-0.515	0	0	0	0	4.59196	-7.5088	3.34691	-2.9647	-0.515	1.3788	1.18806	-1.94272	0.865934
5.9751	0	0	0	0	-0.515	0	0	0	0	4.45044	-7.2626	3.22252	-2.96665	-0.515	1.38014	1.15178	-1.87957	0.83399
5.98508	0	0	0	0	-0.515	0	0	0	0	4.31599	-7.01164	3.08961	-2.97063	-0.515	1.38175	1.11862	-1.81728	0.800769
5.99507	0	0	0	0	-0.515	0	0	0	0	4.19174	-6.76257	2.95329	-2.97656	-0.515	1.38351	1.08905	-1.75697	0.76729
6.00505	0	0	0	0	-0.515	0	0	0	0	4.07907	-6.52058	2.81805	-2.9842	-0.515	1.38526	1.06299	-1.69924	0.734374
6.01504	0	0	0	0	-0.515	0	0	0	0	3.97698	-6.288	2.68692	-2.99314	-0.515	1.38689	1.0398	-1.64403	0.702509
6.02502	0	0	0	0	-0.515	0	0	0	0	3.88208	-6.06406	2.56127	-3.00288	-0.515	1.38834	1.01828	-1.59062	0.67183
6.03501	0	0	0	0	-0.515	0	0	0	0	3.7897	-5.84606	2.44131	-3.01283	-0.515	1.38956	0.997065	-1.53809	0.642305
6.04499	0	0	0	0	-0.515	0	0	0	0	3.69496	-5.63061	2.32675	-3.0224	-0.515	1.39048	0.974874	-1.48557	0.613886
6.05498	0	0	0	0	-0.515	0	0	0	0	3.59361	-5.41425	2.21729	-3.03107	-0.515	1.391	0.950701	-1.43236	0.586592
6.06496	0	0	0	0	-0.515	0	0	0	0	3.48281	-5.19442	2.11306	-3.03843	-0.515	1.39091	0.923959	-1.37804	0.560576
6.07495	0	0	0	0	-0.515	0	0	0	0	3.36143	-4.9699	2.01468	-3.04419	-0.515	1.38992	0.894494	-1.32252	0.536117
6.08493	0	0	0	0	-0.515	0	0	0	0	3.22959	-4.74032	1.92293	-3.0482	-0.515	1.38768	0.862408	-1.26582	0.513485
6.09492	0	0	0	0	-0.515	0	0	0	0	3.08819	-4.50578	1.83829	-3.05043	-0.515	1.38382	0.82789	-1.20792	0.492813
6.1049	0	0	0	0	-0.515	0	0	0	0	2.9392	-4.26778	1.7611	-3.05092	-0.515	1.37807	0.791269	-1.14894	0.474109
6.11489	0	0	0	0	-0.515	0	0	0	0	2.78631	-4.03023	1.69197	-3.04978	-0.515	1.37024	0.753205	-1.08947	0.45738
6.12487	0	0	0	0	-0.515	0	0	0	0	2.63524	-3.80009	1.63225	-3.04717	-0.515	1.36028	0.714824	-1.0308	0.442757
6.13486	0	0	0	0	-0.515	0	0	0	0	2.49364	-3.58721	1.58412	-3.04334	-0.515	1.3484	0.67776	-0.974988	0.430555
6.14484	0	0	0	0	-0.515	0	0	0	0	2.37039	-3.40344	1.55032	-3.03861	-0.515	1.33513	0.644041	-0.924722	0.421226
6.15483	0	0	0	0	-0.515	0	0	0	0	2.27418	-3.2605	1.53337	-3.03344	-0.515	1.32149	0.615764	-0.882823	0.415179
6.16481	0	0	0	0	-0.515	0	0	0	0	2.21209	-3.16802	1.53483	-3.02836	-0.515	1.30889	0.59475	-0.851764	0.412659
6.1748	0	0	0	0	-0.515	0	0	0	0	2.18883	-3.13234	1.55508	-3.02391	-0.515	1.29886	0.582352	-0.833377	0.413736
6.18478	0	0	0	0	-0.515	0	0	0	0	2.20636	-3.15589	1.5932	-3.02049	-0.515	1.29259	0.57935	-0.828677	0.418345
6.19476	0	0	0	0	-0.515	0	0	0	0	2.26388	-3.23701	1.64717	-3.01834	-0.515	1.29054	0.585929	-0.83779	0.426314
6.20475	0	0	0	0	-0.515	0	0	0	0	2.35798	-3.37016	1.71403	-3.01749	-0.515	1.29239	0.601683	-0.85996	0.437366
6.21473	0	0	0	0	-0.515	0	0	0	0	2.48275	-3.54614	1.78993	-3.01784	-0.515	1.29722	0.625603	-0.893554	0.451025
6.22472	0	0	0	0	-0.515	0	0	0	0	2.62981	-3.75229	1.8701	-3.01927	-0.515	1.30393	0.656031	-0.936044	0.466514
6.2347	0	0	0	0	-0.515	0	0	0	0	2.78882	-3.97345	1.94903	-3.02163	-0.515	1.31152	0.690723	-0.984127	0.482729
6.24469	0	0	0	0	-0.515	0	0	0	0	2.94838	-4.19329	2.02096	-3.0248	-0.515	1.31931	0.727009	-1.03398	0.498327
6.25467	0	0	0	0	-0.515	0	0	0	0	3.09707	-4.3958	2.08046	-3.02871	-0.515	1.32685	0.762046	-1.0816	0.511905
6.26466	0	0	0	0	-0.515	0	0	0	0	3.2247	-4.56699	2.12323	-3.03328	-0.515	1.33389	0.793151	-1.1233	0.522233
6.27464	0	0	0	0	-0.515	0	0	0	0	3.32366	-4.69678	2.14699	-3.03839	-0.515	1.34027	0.818183	-1.1562	0.528523
6.28463	0	0	0	0	-0.515	0	0	0	0	3.38981	-4.78007	2.15191	-3.04389	-0.515	1.34585	0.8358	-1.17859	0.53058
6.29461	0	0	0	0	-0.515	0	0	0	0	3.42236	-4.81657	2.14034	-3.04957	-0.515	1.35046	0.845542	-1.19	0.528802
6.3046	0	0	0	0	-0.515	0	0	0	0	3.42371	-4.81042	2.11642	-3.05518	-0.515	1.35389	0.847829	-1.19123	0.524099
6.31458	0	0	0	0	-0.515	0	0	0	0	3.39882	-4.76939	2.08533	-3.06039	-0.515	1.35592	0.843816	-1.18408	0.517719
6.32457	0	0	0	0	-0.515	0	0	0	0	3.35452	-4.70382	2.05263	-3.06486	-0.515	1.35639	0.835177	-1.17111	0.511045
6.33455	0	0	0	0	-0.515	0	0	0	0	3.29909	-4.62618	2.02384	-3.06821	-0.515	1.3552	0.823971	-1.15542	0.505469
6.34454	0	0	0	0	-0.515	0	0	0	0	3.24176	-4.55038	2.00416	-3.07007	-0.515	1.35246	0.812498	-1.14048	0.502313
6.35452	0	0	0	0	-0.515	0	0	0	0	3.19205	-4.49059	1.99814	-3.07015	-0.515	1.34842	0.803099	-1.1298	0.502719
6.36451	0	0	0	0	-0.515	0	0	0	0	3.1592	-4.46023	2.00948	-3.06833	-0.515	1.34358	0.798035	-1.12668	0.507609
6.37449	0	0	0	0	-0.515	0	0	0	0	3.15155	-4.47082	2.04085	-3.06472	-0.515	1.33852	0.799333	-1.13394	0.517624
6.38448	0	0	0	0	-0.515	0	0	0	0	3.17487	-4.52991	2.09314	-3.05966	-0.515	1.33389	0.808399	-1.15343	0.532964
6.39446	0	0	0	0	-0.515	0	0	0	0	3.23092	-4.6393	2.165	-3.05359	-0.515	1.33023	0.825662	-1.18557	0.553265
6.40445	0	0	0	0	-0.515	0	0	0	0	3.31701	-4.79474	2.2529	-3.04691	-0.515	1.32786	0.850463	-1.22934	0.57763
6.41443	0	0	0	0	-0.515	0	0	0	0	3.42625	-4.98637	2.35151	-3.03994	-0.515	1.3268	0.881087	-1.28228	0.604709
6.42442	0	0	0	0	-0.515	0	0	0	0	3.5483	-5.19953	2.45412	-3.03284	-0.515	1.32687	0.914928	-1.3407	0.632794
6.4344	0	0	0	0	-0.515	0	0	0	0	3.67089	-5.41652	2.55339	-3.02574	-0.515	1.32776	0.948853	-1.40006	0.660002
6.44439	0	0	0	0	-0.515	0	0	0	0	3.78156	-5.61881	2.64211	-3.01874	-0.515	1.32911	0.979646	-1.4556	0.684463
6.45437	0	0	0	0	-0.515	0	0	0	0	3.86864	-5.7884	2.7134	-3.01192	-0.515	1.33066	1.00429	-1.50266	0.704394
6.46436	0	0	0	0	-0.515	0	0	0	0	3.92217	-5.90901	2.76098	-3.00539	-0.515	1.33222	1.02022	-1.53703	0.718176
6.47434	0	0	0	0	-0.515	0	0	0	0	3.93513	-5.96817	2.78002	-2.99926	-0.515	1.33368	1.02564	-1.55552	0.724577
6.48432	0	0	0	0	-0.515	0	0	0	0	3.90488	-5.95957	2.76823	-2.99364	-0.515	1.335	1.01993	-1.5566	0.723042
6.49431	0	0	0	0	-0.515	0	0	0	0	3.83339	-5.88396	2.72626	-2.98863	-0.515	1.33616	1.00366	-1.54054	0.713791
6.50429	0	0	0	0	-0.515	0	0	0	0	3.72645	-5.74814	2.65742	-2.98431	-0.515	1.33714	0.978401	-1.50921	0.697722
6.51428	0	0	0	0	-0.515	0	0	0	0	3.59236	-5.56351	2.56702	-2.98074	-0.515	1.33792	0.946335	-1.46559	0.67623
6.52426	0	0	0	0	-0.515	0	0	0	0	3.44005	-5.34332	2.46116	-2.97794	-0.515	1.33848	0.909765	-1.41311	0.650885
6.53425	0	0	0	0	-0.515	0	0	0	0	3.27721	-5.09989	2.34545	-2.97587	-0.515	1.33878	0.870637	-1.35486	0.623102
6.54423	0	0	0	0	-0.515	0	0	0	0	3.10949	-4.84321	2.22436	-2.97442	-0.515	1.33884	0.830351	-1.29332	0.593988
6.55422	0	0	0	0	-0.515	0	0	0	0	2.94059	-4.5808	2.10117	-2.97342	-0.515	1.33868	0.789803	-1.23034	0.564345
6.5642	0	0	0	0	-0.515	0	0	0	0	2.77224	-4.31716	1.97772	-2.97267	-0.515	1.33834	0.749413	-1.16705	0.534631
6.57419	0	0	0	0	-0.023062	0	0	0	0	0	0	0	0	-0.0138594	0	0	0	0
