nColumns=19
nRows=238
DataType=double
version=3
OpenSimVersion=4.1
endheader
time	ground_force_calcn_l_vx	ground_force_calcn_l_vy	ground_force_calcn_l_vz	ground_force_calcn_l_px	ground_force_calcn_l_py	ground_force_calcn_l_pz	ground_force_calcn_l_mx	ground_force_calcn_l_my	ground_force_calcn_l_mz	ground_force_calcn_r_vx	ground_force_calcn_r_vy	ground_force_calcn_r_vz	ground_force_calcn_r_px	ground_force_calcn_r_py	ground_force_calcn_r_pz	ground_force_calcn_r_mx	ground_force_calcn_r_my	ground_force_calcn_r_mz
2.7	0	0	0	0	-0.236432	0	0	0	0	0	0	0	0	-0.00907042	0	0	0	0
2.70999	0	0	0	0	-0.22638	0	0	0	0	0	0	0	0	-0.00918532	0	0	0	0
2.71997	0	0	0	0	-0.216594	0	0	0	0	0	0	0	0	-0.00946176	0	0	0	0
2.72996	0	0	0	0	-0.206911	0	0	0	0	0	0	0	0	-0.00986576	0	0	0	0
2.73995	0	0	0	0	-0.197146	0	0	0	0	0	0	0	0	-0.0103529	0	0	0	0
2.74993	0	0	0	0	-0.18713	0	0	0	0	0	0	0	0	-0.0108815	0	0	0	0
2.75992	0	0	0	0	-0.176744	0	0	0	0	0	0	0	0	-0.0114143	0	0	0	0
2.76991	0	0	0	0	-0.165938	0	0	0	0	0	0	0	0	-0.0119195	0	0	0	0
2.77989	0	0	0	0	-0.154739	0	0	0	0	0	0	0	0	-0.0123719	0	0	0	0
2.78988	0	0	0	0	-0.143246	0	0	0	0	0	0	0	0	-0.0127539	0	0	0	0
2.79987	0	0	0	0	-0.131613	0	0	0	0	0	0	0	0	-0.0130576	0	0	0	0
2.80985	0	0	0	0	-0.120033	0	0	0	0	0	0	0	0	-0.0132846	0	0	0	0
2.81984	0	0	0	0	-0.10874	0	0	0	0	0	0	0	0	-0.0134367	0	0	0	0
2.82983	0	0	0	0	-0.0979609	0	0	0	0	0	0	0	0	-0.0135242	0	0	0	0
2.83981	0	0	0	0	-0.0878963	0	0	0	0	0	0	0	0	-0.0135683	0	0	0	0
2.8498	0	0	0	0	-0.0787044	0	0	0	0	0	0	0	0	-0.0136028	0	0	0	0
2.85979	0	0	0	0	-0.0705117	0	0	0	0	0	0	0	0	-0.013659	0	0	0	0
2.86977	0	0	0	0	-0.0634028	0	0	0	0	0	0	0	0	-0.0137628	0	0	0	0
2.87976	0	0	0	0	-0.0574124	0	0	0	0	0	0	0	0	-0.0139362	0	0	0	0
2.88975	-0.310992	-3.51972	0.147133	-0.31818	3.53221e-17	0.349651	0.000197433	0.0022345	-9.34072e-05	0	0	0	0	3.53221e-17	0	0	0	0
2.89973	-0.634395	-5.44904	0.158276	-0.318257	3.5332e-17	0.349644	0.000321956	0.0027654	-8.03254e-05	0	0	0	0	3.5332e-17	0	0	0	0
2.90972	-1.05936	-7.76667	0.155367	-0.318362	3.53444e-17	0.34964	0.000443456	0.00325117	-6.50375e-05	0	0	0	0	3.53444e-17	0	0	0	0
2.91971	-1.58862	-10.3935	0.130757	-0.318489	3.53589e-17	0.349637	0.000550383	0.00360086	-4.53013e-05	0	0	0	0	3.53589e-17	0	0	0	0
2.92969	-2.21296	-13.1679	0.0753304	-0.318633	3.53752e-17	0.349634	0.000620321	0.00369112	-2.1116e-05	0	0	0	0	3.53752e-17	0	0	0	0
2.93968	-2.90597	-15.8229	-0.0210816	-0.318783	3.5392e-17	0.349632	0.000621228	0.00338256	4.50675e-06	0	0	0	0	3.5392e-17	0	0	0	0
2.94967	-3.61808	-17.9653	-0.168886	-0.318923	3.54078e-17	0.349633	0.00050024	0.00248391	2.33504e-05	0	0	0	0	3.54078e-17	0	0	0	0
2.95966	-4.27069	-19.0613	-0.377419	-0.319032	3.54197e-17	0.349642	0.000173879	0.00077607	1.53664e-05	0	0	0	0	3.54197e-17	0	0	0	0
2.96964	-4.75096	-18.4328	-0.653057	-0.319078	3.54243e-17	0.349671	-0.000501291	-0.00194491	-6.89063e-05	0	0	0	0	3.54243e-17	0	0	0	0
2.97963	-4.90859	-15.2709	-0.996729	-0.319031	3.54168e-17	0.349761	-0.00184066	-0.00572639	-0.000373762	0	0	0	0	3.54168e-17	0	0	0	0
2.98962	-4.55564	-8.67063	-1.40089	-0.31895	3.53913e-17	0.35021	-0.00491186	-0.0093486	-0.00151042	0	0	0	0	3.53913e-17	0	0	0	0
2.9996	-3.47115	2.30812	-1.84613	-0.320065	3.53407e-17	0.352937	0.00756971	-0.00503343	0.00402596	0	0	0	0	3.53407e-17	0	0	0	0
3.00959	-1.41163	18.5548	-2.29791	-0.317755	3.52572e-17	0.3498	0.00213158	-0.0280179	0.00346986	0	0	0	0	3.52572e-17	0	0	0	0
3.01958	1.87142	40.8011	-2.70379	-0.316509	3.51326e-17	0.349689	-0.00176419	-0.0384632	0.00254887	0	0	0	0	3.51326e-17	0	0	0	0
3.02956	6.60725	69.5051	-2.9922	-0.314915	3.49592e-17	0.349737	-0.00464251	-0.048837	0.00210244	0	0	0	0	3.49592e-17	0	0	0	0
3.03955	12.9759	104.747	-3.07349	-0.312845	3.4731e-17	0.349837	-0.00710067	-0.0573196	0.00168187	0	0	0	0	3.4731e-17	0	0	0	0
3.04954	21.0759	146.161	-2.84425	-0.310266	3.44455e-17	0.349977	-0.00879456	-0.06099	0.00118685	0	0	0	0	3.44455e-17	0	0	0	0
3.05952	30.8947	192.934	-2.1956	-0.307202	3.41059e-17	0.350161	-0.00902667	-0.0563707	0.000641502	0	0	0	0	3.41059e-17	0	0	0	0
3.06951	42.2874	243.886	-1.02535	-0.303701	3.37176e-17	0.350392	-0.0068894	-0.0397336	0.000167048	0	0	0	0	3.37176e-17	0	0	0	0
3.0795	54.9723	297.633	0.747102	-0.299824	3.32872e-17	0.350676	-0.00139212	-0.00753728	-1.89197e-05	0	0	0	0	3.32872e-17	0	0	0	0
3.08948	68.5441	352.765	3.166	-0.295642	3.28227e-17	0.351014	0.00835107	0.0429792	0.000385729	0	0	0	0	3.28227e-17	0	0	0	0
3.09947	82.5057	407.995	6.2291	-0.291243	3.2334e-17	0.351407	0.0228718	0.113102	0.0017268	0	0	0	0	3.2334e-17	0	0	0	0
3.10946	96.3065	462.221	9.88462	-0.286733	3.18327e-17	0.351848	0.042094	0.202029	0.0043204	0	0	0	0	3.18327e-17	0	0	0	0
3.11944	109.379	514.545	14.0346	-0.282229	3.13319e-17	0.352329	0.0651687	0.306569	0.00836189	0	0	0	0	3.13319e-17	0	0	0	0
3.12943	121.174	564.245	18.5432	-0.277859	3.08458e-17	0.352835	0.0904833	0.421333	0.0138466	0	0	0	0	3.08458e-17	0	0	0	0
3.13942	131.199	610.737	23.2484	-0.273746	3.03881e-17	0.353351	0.115866	0.539363	0.0205315	0	0	0	0	3.03881e-17	0	0	0	0
3.1494	139.054	653.536	27.9758	-0.269999	2.99712e-17	0.35386	0.138927	0.652941	0.0279503	0	0	0	0	2.99712e-17	0	0	0	0
3.15939	144.466	692.227	32.5551	-0.266705	2.96045e-17	0.35435	0.157437	0.754375	0.0354779	0	0	0	0	2.96045e-17	0	0	0	0
3.16938	147.306	726.45	36.8351	-0.263917	2.92942e-17	0.354808	0.169667	0.836726	0.0424268	0	0	0	0	2.92942e-17	0	0	0	0
3.17936	147.583	755.909	40.6958	-0.261658	2.90428e-17	0.355229	0.174627	0.894426	0.0481531	0	0	0	0	2.90428e-17	0	0	0	0
3.18935	145.436	780.385	44.0543	-0.259918	2.88492e-17	0.35561	0.172156	0.92376	0.052148	0	0	0	0	2.88492e-17	0	0	0	0
3.19934	141.106	799.768	46.8656	-0.258663	2.87098e-17	0.355951	0.162876	0.923159	0.0540962	0	0	0	0	2.87098e-17	0	0	0	0
3.20932	134.904	814.076	49.1182	-0.257841	2.86187e-17	0.356255	0.148027	0.893265	0.0538962	0	0	0	0	2.86187e-17	0	0	0	0
3.21931	127.183	823.479	50.827	-0.257387	2.85687e-17	0.356526	0.129233	0.836748	0.051646	0	0	0	0	2.85687e-17	0	0	0	0
3.2293	118.307	828.3	52.0256	-0.257232	2.85521e-17	0.356767	0.108253	0.757906	0.0476041	0	0	0	0	2.85521e-17	0	0	0	0
3.23928	108.627	829.009	52.7588	-0.257306	2.85611e-17	0.356983	0.0867556	0.662091	0.042136	0	0	0	0	2.85611e-17	0	0	0	0
3.24927	98.4654	826.195	53.0776	-0.257541	2.8588e-17	0.357176	0.0661488	0.555035	0.0356574	0	0	0	0	2.8588e-17	0	0	0	0
3.25926	88.102	820.537	53.0352	-0.257873	2.86258e-17	0.357347	0.0474752	0.442159	0.0285789	0	0	0	0	2.86258e-17	0	0	0	0
3.26924	77.7698	812.764	52.685	-0.258245	2.8668e-17	0.357498	0.0313831	0.327981	0.0212604	0	0	0	0	2.8668e-17	0	0	0	0
3.27923	67.653	803.61	52.0811	-0.258603	2.87087e-17	0.357629	0.0181586	0.215695	0.013979	0	0	0	0	2.87087e-17	0	0	0	0
3.28922	57.8903	793.774	51.2787	-0.258895	2.87422e-17	0.357742	0.00780326	0.106996	0.00691205	0	0	0	0	2.87422e-17	0	0	0	0
3.2992	48.5812	783.883	50.3359	-0.259074	2.87629e-17	0.357839	0.000134553	0.00217108	0.000139413	0	0	0	0	2.87629e-17	0	0	0	0
3.30919	39.7937	774.47	49.3143	-0.259087	2.87654e-17	0.357925	-0.00511546	-0.0995576	-0.00633933	0	0	0	0	2.87654e-17	0	0	0	0
3.31918	31.5724	765.953	48.2787	-0.258884	2.87437e-17	0.358006	-0.00822392	-0.199514	-0.0125755	0	0	0	0	2.87437e-17	0	0	0	0
3.32916	23.946	758.636	47.2951	-0.258409	2.86919e-17	0.35809	-0.00943672	-0.298965	-0.0186382	0	0	0	0	2.86919e-17	0	0	0	0
3.33915	16.933	752.707	46.4278	-0.257607	2.86037e-17	0.358185	-0.00896624	-0.398567	-0.0245841	0	0	0	0	2.86037e-17	0	0	0	0
3.34914	10.546	748.256	45.7342	-0.256419	2.84728e-17	0.358302	-0.00701838	-0.497967	-0.0304363	0	0	0	0	2.84728e-17	0	0	0	0
3.35912	4.79388	745.284	45.2609	-0.25479	2.82928e-17	0.358449	-0.00383144	-0.595658	-0.0361741	0	0	0	0	2.82928e-17	0	0	0	0
3.36911	-0.317193	743.731	45.0388	-0.25267	2.80582e-17	0.358635	0.000293907	-0.689131	-0.0417324	0	0	0	0	2.80582e-17	0	0	0	0
3.3791	-4.78484	743.487	45.0813	-0.250014	2.77642e-17	0.358866	0.00498936	-0.775265	-0.0470082	0	0	0	0	2.77642e-17	0	0	0	0
3.38908	-8.61251	744.419	45.3834	-0.246793	2.74073e-17	0.359145	0.00984416	-0.850876	-0.0518735	0	0	0	0	2.74073e-17	0	0	0	0
3.39907	-11.8126	746.39	45.9237	-0.242991	2.69858e-17	0.359475	0.0144541	-0.913292	-0.0561928	0	0	0	0	2.69858e-17	0	0	0	0
3.40906	-14.4102	749.273	46.6681	-0.23861	2.64999e-17	0.359858	0.018479	-0.96083	-0.0598448	0	0	0	0	2.64999e-17	0	0	0	0
3.41905	-16.4467	752.968	47.5752	-0.233671	2.5952e-17	0.360293	0.0216916	-0.993095	-0.0627472	0	0	0	0	2.5952e-17	0	0	0	0
3.42903	-17.983	757.409	48.6024	-0.228215	2.53465e-17	0.360781	0.0240058	-1.01108	-0.0648802	0	0	0	0	2.53465e-17	0	0	0	0
3.43902	-19.1028	762.567	49.7124	-0.222302	2.46901e-17	0.361323	0.0254783	-1.01707	-0.0663037	0	0	0	0	2.46901e-17	0	0	0	0
3.44901	-19.9143	768.445	50.8781	-0.216009	2.39915e-17	0.361918	0.0262893	-1.01444	-0.067165	0	0	0	0	2.39915e-17	0	0	0	0
3.45899	-20.5515	775.074	52.0852	-0.20943	2.32611e-17	0.362567	0.0267099	-1.00733	-0.0676929	0	0	0	0	2.32611e-17	0	0	0	0
3.46898	-21.1729	782.503	53.332	-0.202673	2.25109e-17	0.36327	0.0270681	-1.00038	-0.0681813	0	0	0	0	2.25109e-17	0	0	0	0
3.47897	-21.9591	790.782	54.6261	-0.195854	2.17538e-17	0.364024	0.0277231	-0.998355	-0.068965	-0.497246	-4.61384	-0.409848	0.337959	2.17538e-17	0.22047	-0.000264996	-0.00245884	-0.000218419
3.48895	-23.1059	799.96	55.9792	-0.189094	2.10034e-17	0.364823	0.0290551	-1.00593	-0.0703926	-0.863232	-6.92449	-0.485187	0.33791	2.10034e-17	0.220537	-0.000338087	-0.00271199	-0.000190024
3.49894	-24.8152	810.066	57.4015	-0.182516	2.02734e-17	0.365659	0.0314723	-1.02738	-0.0728004	-1.32533	-9.64922	-0.540459	0.337834	-3.75089e-17	0.220596	-0.000381079	-0.0027745	-0.000155401
3.50893	-27.2829	821.101	58.896	-0.176234	1.95763e-17	0.366521	0.0354318	-1.06635	-0.0764873	-1.87822	-12.6712	-0.55711	0.337735	-3.74971e-17	0.220637	-0.000375083	-0.00253045	-0.000111256
3.51891	-30.6848	833.019	60.4548	-0.170351	1.89236e-17	0.367394	0.0414641	-1.12565	-0.081692	-2.50196	-15.7722	-0.511372	0.337619	-3.74837e-17	0.220643	-0.000291621	-0.00183836	-5.96038e-05
3.5289	-35.1637	845.706	62.0562	-0.164948	1.83245e-17	0.36826	0.050187	-1.20703	-0.0885691	-3.15665	-18.6076	-0.374672	0.337492	-3.74692e-17	0.220592	-0.000108351	-0.0006387	-1.28605e-05
3.53889	-40.816	858.959	63.6628	-0.160085	1.77855e-17	0.3691	0.0622953	-1.31098	-0.0971651	-3.7769	-20.6842	-0.114979	0.337365	-3.7455e-17	0.220454	0.000213203	0.00116761	6.49047e-06
3.54887	-47.6825	872.464	65.2219	-0.155792	1.73101e-17	0.369897	0.0785147	-1.43661	-0.107395	-4.26688	-21.3476	0.300618	0.337254	-3.7443e-17	0.220195	0.000738335	0.00369396	-5.20186e-05
3.55886	-55.7405	885.771	66.6659	-0.152074	1.68985e-17	0.370633	0.0995186	-1.58145	-0.119025	-4.49683	-19.784	0.90182	0.337175	-3.74358e-17	0.219765	0.00159453	0.00701517	-0.000319775
3.56885	-64.9002	898.283	67.914	-0.148904	1.6548e-17	0.371293	0.125816	-1.74142	-0.131658	-4.30236	-15.0425	1.7094	0.337121	-3.74371e-17	0.219068	0.00312786	0.0109361	-0.00124276
3.57883	-75.0034	909.257	68.8745	-0.146233	1.62528e-17	0.371865	0.157629	-1.91092	-0.144749	-3.48768	-6.08471	2.728	0.336485	-3.74516e-17	0.217402	0.00660473	0.0115228	-0.00516609
3.58882	-85.8251	917.81	69.4479	-0.143992	1.60054e-17	0.372342	0.194791	-2.08309	-0.157621	-1.83445	8.13716	3.93785	0.336511	-3.74849e-17	0.216931	-0.00425635	0.0188801	0.00913674
3.59881	-97.0757	922.949	69.5307	-0.142101	1.57967e-17	0.372715	0.23668	-2.25024	-0.169523	0.883242	28.5724	5.28655	0.337965	-3.75435e-17	0.216199	0.00094335	0.0305168	0.00564632
3.60879	-108.406	923.608	69.0201	-0.140471	1.5617e-17	0.372981	0.282218	-2.40447	-0.179683	4.87714	55.9441	6.68234	0.3389	-3.76345e-17	0.2147	0.00333294	0.038231	0.00456658
3.61878	-119.413	918.703	67.8203	-0.139017	1.54566e-17	0.373133	0.329928	-2.53829	-0.187381	10.3177	90.6168	7.99114	0.340111	-3.77647e-17	0.21299	0.0051382	0.0451272	0.00397959
3.62877	-129.65	907.191	65.8519	-0.137656	1.53064e-17	0.373163	0.378035	-2.6452	-0.192012	17.3039	132.486	9.03971	0.341709	-3.79402e-17	0.211203	0.00648136	0.0496239	0.00338592
3.63875	-138.635	888.145	63.0621	-0.136314	1.51581e-17	0.373057	0.424577	-2.71998	-0.19313	25.8354	180.917	9.62754	0.343742	-3.81646e-17	0.209423	0.00699655	0.0489947	0.00260726
3.64874	-145.878	860.832	59.4371	-0.134928	1.50046e-17	0.37279	0.467508	-2.75878	-0.190483	35.792	234.774	9.54852	0.346208	-3.84376e-17	0.207697	0.00603369	0.0395774	0.00160966
3.65873	-150.902	824.803	55.0124	-0.133444	1.48401e-17	0.372329	0.504798	-2.75914	-0.184028	46.929	292.542	8.6217	0.349091	-3.87571e-17	0.206044	0.00271323	0.0169134	0.000498468
3.66871	-153.281	779.97	49.8801	-0.13182	1.46597e-17	0.371627	0.534503	-2.71981	-0.173936	58.8927	352.532	6.72592	0.35236	-3.91197e-17	0.20447	-0.00400363	-0.0239658	-0.00045724
3.6787	-152.688	726.682	44.1898	-0.130025	1.44602e-17	0.370618	0.554855	-2.6407	-0.160582	71.2558	413.107	3.82863	0.355971	-3.95205e-17	0.202968	-0.0151829	-0.0880232	-0.00081579
3.68869	-148.933	665.771	38.1416	-0.128038	1.42392e-17	0.369223	0.564352	-2.52281	-0.14453	83.5638	472.834	-0.000169211	0.359863	-3.99529e-17	0.201536	-0.0317128	-0.179443	6.42162e-08
3.69867	-142.008	598.562	31.9704	-0.125854	1.3996e-17	0.367344	0.561896	-2.36839	-0.1265	95.3707	530.576	-4.5912	0.363958	-4.0408e-17	0.200173	-0.0540429	-0.300657	0.00260166
3.70866	-132.115	526.838	25.9237	-0.12348	1.37316e-17	0.364873	0.546957	-2.18111	-0.107324	106.258	585.484	-9.69501	0.368156	-4.08749e-17	0.198886	-0.0819129	-0.451342	0.00747376
3.71865	-119.671	452.747	20.2351	-0.120941	1.34487e-17	0.361693	0.519747	-1.96634	-0.0878835	115.845	636.946	-15.0145	0.372344	-4.13411e-17	0.197689	-0.114151	-0.627635	0.014795
3.72863	-105.286	378.66	15.0998	-0.118283	1.31523e-17	0.357694	0.481342	-1.73114	-0.069033	123.798	684.502	-20.2453	0.376404	-4.17932e-17	0.1966	-0.148643	-0.821875	0.0243083
3.73862	-89.7113	306.977	10.6556	-0.115573	1.28498e-17	0.352789	0.433699	-1.48405	-0.0515134	129.849	727.769	-25.1158	0.380224	-4.22187e-17	0.195633	-0.182545	-1.02311	0.0353083
3.74861	-73.7644	239.926	6.97357	-0.1129	1.2551e-17	0.34694	0.379515	-1.23441	-0.0358788	133.813	766.391	-29.4179	0.38371	-4.26072e-17	0.194801	-0.212735	-1.21841	0.0467685
3.75859	-58.2375	179.365	4.06012	-0.11037	1.22674e-17	0.340194	0.321954	-0.991584	-0.0224455	135.592	800.006	-33.024	0.386796	-4.2951e-17	0.194107	-0.236375	-1.39464	0.0575703
3.76858	-43.8172	126.638	1.86803	-0.108099	1.20112e-17	0.33273	0.264306	-0.763883	-0.0112679	135.185	828.258	-35.8898	0.389446	-4.32461e-17	0.193545	-0.251419	-1.54041	0.0667483
3.77857	-31.0258	82.4959	0.312789	-0.106196	1.1793e-17	0.324929	0.209721	-0.557637	-0.00211432	132.684	850.824	-38.0439	0.391658	-4.34923e-17	0.1931	-0.256931	-1.64755	0.0736688
3.78855	-20.1913	47.0948	-0.709837	-0.104752	1.16164e-17	0.317539	0.161205	-0.375999	0.00566725	128.263	867.467	-39.57	0.393461	-4.3693e-17	0.192751	-0.253144	-1.71207	0.0780969
3.79854	-11.4479	20.065	-1.30911	-0.104103	1.14805e-17	0.312583	0.122135	-0.214069	0.0139666	122.166	878.1	-40.5831	0.394912	-4.38542e-17	0.192473	-0.241287	-1.73431	0.0801544
3.80853	-4.75928	0.624724	-1.58893	-0.112237	1.13813e-17	0.329021	0.0181939	-0.0023882	0.00607418	114.694	882.829	-41.2066	0.396089	-4.39848e-17	0.192238	-0.223254	-1.71844	0.0802091
3.81851	0.0418393	-12.2816	-1.64153	-0.102538	1.13136e-17	0.294463	0.00019876	-0.0583445	-0.00779819	106.181	881.997	-41.5523	0.397086	-4.40953e-17	0.192019	-0.201219	-1.67143	0.0787438
3.8285	3.20942	-19.8458	-1.54428	-0.101487	1.12713e-17	0.29032	-0.00148107	0.00915834	0.000712646	96.9772	876.185	-41.7078	0.398005	-4.41971e-17	0.19179	-0.177276	-1.60168	0.0762424
3.83849	5.04131	-23.2754	-1.3588	-0.101189	1.12486e-17	0.287585	-0.0111678	0.0515609	0.00301008	87.4268	866.191	-41.7304	0.398954	-4.43022e-17	0.191529	-0.153173	-1.51758	0.0731122
3.84847	5.84334	-23.7007	-1.13165	-0.101093	1.12403e-17	0.28569	-0.0183931	0.0746029	0.0035621	77.851	852.986	-41.6495	0.40004	-4.44225e-17	0.191216	-0.130178	-1.42632	0.069644
3.85846	5.9025	-22.1129	-0.896014	-0.101104	1.12418e-17	0.28451	-0.0222713	0.083436	0.00338083	68.5304	837.637	-41.4733	0.401362	-4.45688e-17	0.190834	-0.109063	-1.33306	0.0660028
3.86845	5.46958	-19.3299	-0.673803	-0.101177	1.12494e-17	0.283909	-0.0233039	0.0823575	0.00287083	59.6949	821.23	-41.2004	0.403006	-4.4751e-17	0.190369	-0.0901827	-1.24065	0.0622426
3.87844	4.75031	-15.988	-0.477961	-0.101284	1.12604e-17	0.28375	-0.022262	0.0749265	0.00223993	51.5175	804.794	-40.8313	0.405045	-4.4977e-17	0.18981	-0.0736073	-1.14988	0.058339
3.88842	3.90316	-12.5503	-0.314647	-0.101407	1.12726e-17	0.283915	-0.0198985	0.0639821	0.00160408	44.114	789.231	-40.3788	0.407531	-4.52527e-17	0.189147	-0.059252	-1.06006	0.0542352
3.89841	3.04215	-9.32752	-0.185188	-0.101533	1.12846e-17	0.284314	-0.0168574	0.0516863	0.00102618	37.5472	775.264	-39.8751	0.410498	-4.55816e-17	0.188372	-0.0469771	-0.96997	0.0498897
3.9084	2.24245	-6.50406	-0.0877148	-0.10166	-4.59647e-17	0.284894	-0.0136216	0.0395084	0.000532816	31.8334	763.413	-39.3719	0.413954	-4.59647e-17	0.187479	-0.036637	-0.87861	0.0453131
3.91838	1.54761	-4.16687	-0.0184673	-0.101796	-4.6401e-17	0.285673	-0.0105367	0.0283696	0.000125732	26.9503	753.991	-38.936	0.417889	-4.6401e-17	0.186464	-0.0280874	-0.785805	0.0405789
3.92837	0	0	0	0	-4.68868e-17	0	0	0	0	22.8439	747.118	-38.6389	0.422271	-4.68868e-17	0.185328	-0.0211683	-0.692318	0.0358047
3.93836	0	0	0	0	-4.74169e-17	0	0	0	0	19.4358	742.763	-38.5445	0.427052	-4.74169e-17	0.184074	-0.0156878	-0.599531	0.0311117
3.94834	0	0	0	0	-4.79844e-17	0	0	0	0	16.6279	740.779	-38.6987	0.432169	-4.79844e-17	0.182711	-0.0114212	-0.50882	0.026581
3.95833	0	0	0	0	-4.85812e-17	0	0	0	0	14.3071	740.96	-39.122	0.43755	-4.85812e-17	0.181252	-0.00812669	-0.42088	0.022222
3.96832	0	0	0	0	-4.91984e-17	0	0	0	0	12.3486	743.078	-39.8101	0.443115	-4.91984e-17	0.179713	-0.00557163	-0.335272	0.0179621
3.9783	0	0	0	0	-4.98268e-17	0	0	0	0	10.6195	746.916	-40.74	0.448781	-4.98268e-17	0.178113	-0.00355967	-0.250368	0.0136561
3.98829	0	0	0	0	-5.0457e-17	0	0	0	0	8.9811	752.29	-41.879	0.454464	-5.0457e-17	0.176473	-0.00195393	-0.163669	0.00911122
3.99828	0	0	0	0	-5.10799e-17	0	0	0	0	7.29282	759.054	-43.1953	0.460082	-5.10799e-17	0.174813	-0.000695128	-0.0723505	0.00411723
4.00826	0	0	0	0	-5.1687e-17	0	0	0	0	5.41438	767.101	-44.6644	0.465557	-5.1687e-17	0.173152	0.000184787	0.0261803	-0.00152435
4.01825	0	0	0	0	-5.22703e-17	0	0	0	0	3.20859	776.354	-46.2717	0.470819	-5.22703e-17	0.171508	0.000553373	0.133895	-0.00798028
4.02824	0	0	0	0	-5.28229e-17	0	0	0	0	0.544087	786.756	-48.0101	0.475806	-5.28229e-17	0.169897	0.000174259	0.25198	-0.0153766
4.03822	0	0	0	0	-5.33389e-17	0	0	0	0	-2.70166	798.252	-49.8762	0.480464	-5.33389e-17	0.168333	-0.00128912	0.380892	-0.0237988
4.04821	0	0	0	0	-5.38134e-17	0	0	0	0	-6.63859	810.78	-51.8643	0.484749	-5.38134e-17	0.166828	-0.00426194	0.520517	-0.0332966
4.0582	0	0	0	0	-5.42431e-17	0	0	0	0	-11.3596	824.249	-53.9613	0.488631	-5.42431e-17	0.165392	-0.00923881	0.670363	-0.0438868
4.06818	0	0	0	0	-5.4626e-17	0	0	0	0	-16.9359	838.525	-56.1428	0.492093	-5.4626e-17	0.164036	-0.0167576	0.8297	-0.0555519
4.07817	-1.03334	-4.97139	0.12799	1.02223	-1.12413e-16	0.267973	-0.000233648	-0.00112408	2.89398e-05	-23.4114	853.416	-58.3709	0.495132	-5.49618e-17	0.162768	-0.0273677	0.997636	-0.0682351
4.08816	-1.89763	-8.96651	0.183306	1.0126	-1.12387e-16	0.268206	-0.000360567	-0.00170372	3.48299e-05	-30.7987	868.652	-60.5928	0.497757	-5.52516e-17	0.161596	-0.0415946	1.17314	-0.0818325
4.09814	-2.91477	-13.1426	0.181791	1.01006	-1.12363e-16	0.268447	-0.000358354	-0.0016158	2.23501e-05	-39.0749	883.881	-62.7413	0.499995	-5.54985e-17	0.160527	-0.0599046	1.35505	-0.0961867
4.10813	-3.98743	-16.8244	0.0827501	1.00934	-1.12343e-16	0.268847	-0.000345291	-0.0014569	7.16573e-06	-48.1795	898.658	-64.7362	0.501884	-5.57065e-17	0.159567	-0.0826724	1.54203	-0.111082
4.11812	-4.9889	-19.2266	-0.151999	1.00917	-1.12331e-16	0.269495	-0.00041633	-0.00160449	-1.26845e-05	-58.0131	912.443	-66.4863	0.503473	-5.58814e-17	0.158719	-0.110155	1.73254	-0.126244
4.1281	-5.7548	-19.4389	-0.555812	1.00917	-1.1233e-16	0.270473	-0.000632863	-0.00213772	-6.11234e-05	-68.4381	924.607	-67.8931	0.50482	-5.60293e-17	0.157987	-0.142469	1.92477	-0.141334
4.13809	-6.07724	-16.4299	-1.15339	1.00908	-1.12349e-16	0.27186	-0.000949494	-0.00256697	-0.000180203	-79.2794	934.44	-68.8541	0.505985	-5.61571e-17	0.157373	-0.179567	2.1165	-0.155954
4.14808	-5.70349	-9.07878	-1.95548	1.00784	-1.12394e-16	0.273644	-0.000131462	-0.000209261	-4.50726e-05	-90.3258	941.166	-69.2683	0.50703	-5.62716e-17	0.156877	-0.221216	2.305	-0.169645
4.15806	-4.34133	3.76195	-2.95247	1.01929	-1.12474e-16	0.279875	0.0152666	-0.0132292	0.0103826	-101.331	943.967	-69.0415	0.508014	-5.63795e-17	0.156497	-0.266953	2.48685	-0.181887
4.16805	-1.67307	23.1711	-4.10774	1.01522	-1.12601e-16	0.278724	0.00130389	-0.0180581	0.00320131	-112.016	942.006	-68.0925	0.508991	-5.64867e-17	0.156235	-0.316046	2.65782	-0.19212
4.17804	2.6206	50.0367	-5.35173	1.01622	-1.12783e-16	0.28185	-0.000808859	-0.015444	0.00165183	-122.067	934.461	-66.3598	0.510006	-5.65983e-17	0.15609	-0.367445	2.81291	-0.199756
4.18802	8.8267	84.9202	-6.57876	1.01824	-1.13031e-16	0.28529	-0.00106737	-0.010269	0.000795535	-131.144	920.562	-63.808	0.5111	-5.67188e-17	0.156063	-0.419752	2.94643	-0.20423
4.19801	17.1581	127.931	-7.64843	1.02103	-1.13349e-16	0.288688	0.000180621	0.00134672	-8.05143e-05	-138.885	899.632	-60.4348	0.512304	-5.68519e-17	0.156158	-0.471214	3.0523	-0.205045
4.208	27.708	178.638	-8.3939	1.02451	-1.1374e-16	0.291844	0.00367597	0.0236995	-0.0011136	-144.916	871.141	-56.2764	0.513648	-5.70006e-17	0.156382	-0.519749	3.1244	-0.201839
4.21798	40.4088	236.054	-8.63844	1.02859	-1.14194e-16	0.294647	0.0105352	0.061543	-0.00225217	-148.874	834.771	-51.4127	0.515154	-5.71677e-17	0.156745	-0.563032	3.15706	-0.19444
4.22797	55.0047	298.713	-8.2198	1.03314	-1.14701e-16	0.297057	0.0220662	0.119835	-0.00329754	-150.431	790.472	-45.9684	0.516842	-5.73553e-17	0.15726	-0.598615	3.14554	-0.182923
4.23796	71.0486	364.817	-7.01894	1.03807	-1.15248e-16	0.299078	0.0395836	0.203252	-0.00391049	-149.332	738.531	-40.1117	0.518731	-5.75656e-17	0.157943	-0.624105	3.08656	-0.16764
4.24794	87.9317	432.424	-4.98543	1.04323	-1.15821e-16	0.300746	0.0641557	0.315501	-0.00363741	-145.423	679.622	-34.046	0.520836	-5.78e-17	0.158812	-0.63737	2.97869	-0.149219
4.25793	104.938	499.587	-2.1514	1.0485	-1.16407e-16	0.302104	0.0962947	0.45844	-0.00197421	-138.697	614.824	-27.997	0.523165	-5.80598e-17	0.159886	-0.636769	2.82271	-0.128536
4.26792	121.304	564.466	1.36892	1.05373	-1.16988e-16	0.303203	0.135643	0.631189	0.00153074	-129.312	545.62	-22.1932	0.52572	-5.8345e-17	0.161184	-0.621392	2.62191	-0.106647
4.2779	136.281	625.417	5.3933	1.05879	-1.17551e-16	0.304087	0.180747	0.829479	0.00715304	-117.608	473.833	-16.8442	0.528489	-5.86543e-17	0.162721	-0.591274	2.3822	-0.0846842
4.28789	149.184	681.057	9.69595	1.06354	-1.18079e-16	0.304795	0.229019	1.04552	0.0148847	-104.094	401.532	-12.118	0.531445	-5.89846e-17	0.164502	-0.547542	2.11208	-0.0637416
4.29788	159.45	730.315	14.0373	1.06786	-1.1856e-16	0.30536	0.276967	1.26857	0.024383	-89.4153	330.879	-8.1254	0.534536	-5.93304e-17	0.166524	-0.492422	1.8222	-0.0447476
4.30786	166.682	772.456	18.1936	1.07167	-1.18984e-16	0.305809	0.320676	1.48612	0.0350025	-74.289	263.958	-4.91126	0.537687	-5.96834e-17	0.168758	-0.429081	1.52458	-0.0283666
4.31785	170.674	807.076	21.9816	1.07489	-1.19344e-16	0.306166	0.356444	1.68554	0.0459074	-59.4315	202.597	-2.45799	0.540798	-6.00325e-17	0.171154	-0.361284	1.23159	-0.0149422
4.32784	171.417	834.064	25.2752	1.07752	-1.19637e-16	0.306453	0.381392	1.85574	0.0562357	-45.4842	148.219	-0.697353	0.543745	-6.03644e-17	0.17362	-0.292958	0.954659	-0.00449156
4.33782	169.08	853.567	28.0138	1.07957	-1.19865e-16	0.306691	0.393912	1.98859	0.0652649	-32.9564	101.745	0.47245	0.546389	-6.06649e-17	0.176015	-0.227776	0.703204	0.00326532
4.34781	163.976	865.94	30.1996	1.08107	-1.20032e-16	0.306902	0.393833	2.07979	0.0725327	-22.1919	63.556	1.16835	0.54859	-6.09213e-17	0.178111	-0.168916	0.483764	0.00889306
4.3578	156.53	871.718	31.8869	1.08209	-1.20146e-16	0.307105	0.382319	2.12914	0.0778825	-13.3603	33.5261	1.5065	0.550202	-6.11292e-17	0.179439	-0.119167	0.299037	0.0134373
4.36779	147.231	871.592	33.1642	1.08273	-1.20217e-16	0.307321	0.361526	2.14019	0.0814344	-6.47052	11.1009	1.59149	0.550229	-6.12894e-17	0.177467	-0.0820079	0.140693	0.0201707
4.37777	136.598	866.382	34.1347	1.08308	-1.20256e-16	0.307569	0.334148	2.11936	0.083501	-1.40106	-4.58908	1.51093	0.548706	-6.14065e-17	0.182261	0.0187028	0.0612596	-0.0201695
4.38776	125.138	857.019	34.8975	1.08324	-1.20275e-16	0.307863	0.302951	2.07479	0.0844845	2.06147	-14.6034	1.33382	0.553884	-6.14868e-17	0.187363	0.00137537	-0.00974306	0.0008899
4.39775	113.327	844.516	35.5328	1.08333	-1.20285e-16	0.308216	0.270396	2.015	0.0847807	4.18307	-20.0741	1.11142	0.554446	-6.1537e-17	0.187618	0.0128429	-0.061632	0.00341229
4.40773	101.58	829.926	36.0946	1.08345	-1.20298e-16	0.308638	0.238394	1.94772	0.0847092	5.24746	-22.1073	0.87944	0.554683	-6.15642e-17	0.187822	0.0213978	-0.0901477	0.00358613
4.41772	90.2412	814.293	36.6084	1.08368	-1.20324e-16	0.309134	0.208227	1.87894	0.084472	5.52872	-21.7094	0.660895	0.554755	-6.15743e-17	0.187919	0.0258493	-0.101501	0.00308998
4.42771	79.5777	798.6	37.0757	1.08412	-1.20373e-16	0.309705	0.180593	1.81233	0.0841393	5.27241	-19.7426	0.468937	0.554721	-6.15729e-17	0.187903	0.026921	-0.100806	0.0023944
4.43769	69.7766	783.716	37.4817	1.08483	-1.20452e-16	0.310352	0.155738	1.74922	0.0836576	4.68474	-16.9029	0.309518	0.554621	-6.15641e-17	0.187794	0.0255851	-0.092313	0.0016904
4.44768	60.9526	770.356	37.8053	1.08588	-1.20568e-16	0.31107	0.133625	1.68884	0.0828799	3.92853	-13.7195	0.183632	0.554483	-6.15514e-17	0.187614	0.0227429	-0.0794244	0.00106308
4.45767	53.1558	759.054	38.0288	1.0873	-1.20726e-16	0.311855	0.114077	1.629	0.0816135	3.12421	-10.5675	0.0891249	0.554329	-6.15372e-17	0.187379	0.0191329	-0.0647162	0.000545808
4.46765	46.3832	750.151	38.1462	1.08912	-1.20928e-16	0.312699	0.0968865	1.56693	0.0796808	2.35421	-7.68931	0.0220708	0.554169	-6.15231e-17	0.187093	0.015309	-0.0500021	0.000143522
4.47764	40.5897	743.798	38.1679	1.09134	-1.21175e-16	0.313594	0.0818605	1.50008	0.0769762	1.66913	-5.22035	-0.0222316	0.554005	-6.15102e-17	0.186738	0.0116596	-0.0364664	-0.000155298
4.48763	35.6981	739.98	38.1216	1.09397	-1.21467e-16	0.31453	0.0688307	1.42678	0.0735036	1.09464	-3.21493	-0.0485817	0.553819	-1.21467e-16	0.186242	0.0084336	-0.0247693	-0.000374296
4.49761	31.608	738.54	38.0486	1.09698	-1.218e-16	0.315497	0.0576358	1.3467	0.06938	0	0	0	0	-1.218e-16	0	0	0	0
4.5076	28.2047	739.221	37.9976	1.10034	-1.22172e-16	0.316483	0.048104	1.26077	0.0648062	0	0	0	0	-1.22172e-16	0	0	0	0
4.51759	25.366	741.702	38.0167	1.104	-1.22577e-16	0.317476	0.0400449	1.17091	0.0600164	0	0	0	0	-1.22577e-16	0	0	0	0
4.52757	22.9692	745.633	38.1459	1.10791	-1.23011e-16	0.318466	0.033254	1.0795	0.0552263	0	0	0	0	-1.23011e-16	0	0	0	0
4.53756	20.896	750.672	38.4125	1.11203	-1.23468e-16	0.319442	0.0275239	0.988775	0.0505964	0	0	0	0	-1.23468e-16	0	0	0	0
4.54755	19.0356	756.504	38.8294	1.11631	-1.23942e-16	0.320396	0.0226572	0.900432	0.0462169	0	0	0	0	-1.23942e-16	0	0	0	0
4.55753	17.2861	762.856	39.3971	1.1207	-1.24428e-16	0.321318	0.018477	0.815409	0.0421111	0	0	0	0	-1.24428e-16	0	0	0	0
4.56752	15.5551	769.51	40.107	1.12515	-1.24922e-16	0.322205	0.0148344	0.733858	0.0382488	0	0	0	0	-1.24922e-16	0	0	0	0
4.57751	13.759	776.296	40.9463	1.12962	-1.25418e-16	0.323053	0.0116134	0.655238	0.034561	0	0	0	0	-1.25418e-16	0	0	0	0
4.58749	11.8238	783.098	41.9019	1.13408	-1.25912e-16	0.323862	0.00873397	0.578456	0.0309519	0	0	0	0	-1.25912e-16	0	0	0	0
4.59748	9.68399	789.842	42.9621	1.13849	-1.26402e-16	0.324632	0.0061547	0.501988	0.0273048	0	0	0	0	-1.26402e-16	0	0	0	0
4.60747	7.28213	796.498	44.1176	1.14282	-1.26882e-16	0.325365	0.00387631	0.423979	0.023484	0	0	0	0	-1.26882e-16	0	0	0	0
4.61745	4.56745	803.07	45.3608	1.14705	-1.27352e-16	0.326066	0.00194709	0.342346	0.0193371	0	0	0	0	-1.27352e-16	0	0	0	0
4.62744	1.49388	809.597	46.6845	1.15116	-1.27807e-16	0.326736	0.00047035	0.254903	0.0146987	0	0	0	0	-1.27807e-16	0	0	0	0
4.63743	-1.98185	816.141	48.08	1.15512	-1.28246e-16	0.327376	-0.000387379	0.159526	0.0093979	0	0	0	0	-1.28246e-16	0	0	0	0
4.64741	-5.90162	822.777	49.5354	1.15891	-1.28667e-16	0.327985	-0.000389324	0.0542778	0.0032678	0	0	0	0	-1.28667e-16	0	0	0	0
4.6574	-10.3066	829.579	51.0329	1.16253	-1.29067e-16	0.328559	0.000776877	-0.0625309	-0.00384669	0	0	0	0	-1.29067e-16	0	0	0	0
4.66739	-15.2367	836.606	52.5476	1.16596	-1.29447e-16	0.329092	0.00350398	-0.192394	-0.0120843	0	0	0	0	-1.29447e-16	0	0	0	0
4.67737	-20.7291	843.873	54.045	1.16918	-1.29803e-16	0.329573	0.00827154	-0.336731	-0.0215656	0	0	0	0	-1.29803e-16	0	0	0	0
4.68736	-26.8146	851.334	55.4803	1.17219	-1.30136e-16	0.329994	0.0156547	-0.49702	-0.0323901	0	0	0	0	-1.30136e-16	0	0	0	0
4.69735	-33.5137	858.854	56.798	1.17498	-1.30444e-16	0.330344	0.0263323	-0.674817	-0.0446272	0	0	0	0	-1.30444e-16	0	0	0	0
4.70733	-40.8294	866.184	57.9337	1.17756	-1.30728e-16	0.330614	0.0410855	-0.871618	-0.0582972	0	0	0	0	-1.30728e-16	0	0	0	0
4.71732	-48.7402	872.943	58.816	1.17993	-1.30989e-16	0.330797	0.0607755	-1.0885	-0.0733392	0	0	0	0	-1.30989e-16	0	0	0	0
4.72731	-57.1915	878.611	59.3696	1.18211	-1.31227e-16	0.330891	0.0862872	-1.3256	-0.0895735	0	0	0	0	-1.31227e-16	0	0	0	0
4.73729	-66.086	882.526	59.5189	1.18411	-1.31445e-16	0.330893	0.118431	-1.58156	-0.106663	0	0	0	0	-1.31445e-16	0	0	0	0
4.74728	-75.2768	883.897	59.1911	1.18596	-1.31646e-16	0.330807	0.157806	-1.85295	-0.124085	0	0	0	0	-1.31646e-16	0	0	0	0
4.75727	-84.5611	881.839	58.3201	1.1877	-1.31833e-16	0.330633	0.204624	-2.13391	-0.141126	0	0	0	0	-1.31833e-16	0	0	0	0
4.76725	-93.6789	875.407	56.8503	1.18935	-1.3201e-16	0.330373	0.258543	-2.41603	-0.1569	0	0	0	0	-1.3201e-16	0	0	0	0
4.77724	-102.316	863.655	54.7409	1.19095	-1.32182e-16	0.330024	0.31851	-2.68857	-0.170409	0	0	0	0	-1.32182e-16	0	0	0	0
4.78723	-110.111	845.703	51.972	1.19253	-1.32352e-16	0.329577	0.382685	-2.93918	-0.180625	0	0	0	0	-1.32352e-16	0	0	0	0
4.79721	-116.675	820.807	48.5508	1.19414	-1.32524e-16	0.329019	0.448452	-3.15485	-0.18661	0	0	0	0	-1.32524e-16	0	0	0	0
4.8072	-121.608	788.443	44.5187	1.19579	-1.32704e-16	0.328324	0.512556	-3.32314	-0.187638	0	0	0	0	-1.32704e-16	0	0	0	0
4.81719	-124.534	748.38	39.9569	1.19752	-1.32894e-16	0.327463	0.571315	-3.43328	-0.183307	0	0	0	0	-1.32894e-16	0	0	0	0
4.82718	-125.133	700.751	34.9883	1.19935	-1.33097e-16	0.326392	0.620896	-3.47704	-0.173607	0	0	0	0	-1.33097e-16	0	0	0	0
4.83716	-123.182	646.106	29.7744	1.20127	-1.33318e-16	0.325065	0.657611	-3.44926	-0.158952	0	0	0	0	-1.33318e-16	0	0	0	0
4.84715	-118.59	585.434	24.5055	1.20331	-1.33559e-16	0.323426	0.678237	-3.34819	-0.140151	0	0	0	0	-1.33559e-16	0	0	0	0
4.85714	-111.432	520.149	19.3842	1.20546	-1.3382e-16	0.321418	0.680347	-3.17577	-0.118351	0	0	0	0	-1.3382e-16	0	0	0	0
4.86712	-101.959	452.032	14.6061	1.20769	-1.34102e-16	0.318985	0.662647	-2.93782	-0.0949267	0	0	0	0	-1.34102e-16	0	0	0	0
4.87711	-90.6053	383.129	10.3384	1.20998	-1.34404e-16	0.316082	0.625258	-2.64394	-0.0713442	0	0	0	0	-1.34404e-16	0	0	0	0
4.8871	-77.9508	315.595	6.70278	1.21227	-1.34722e-16	0.312684	0.569871	-2.3072	-0.0490017	0	0	0	0	-1.34722e-16	0	0	0	0
4.89708	-64.6748	251.518	3.76382	1.2145	-1.35048e-16	0.308802	0.499726	-1.94341	-0.0290821	0	0	0	0	-1.35048e-16	0	0	0	0
4.90707	-51.4811	192.738	1.52673	1.21658	-1.35374e-16	0.304495	0.419374	-1.57008	-0.012437	0	0	0	0	-1.35374e-16	0	0	0	0
4.91706	-39.0184	140.694	-0.0555969	1.21842	-1.35686e-16	0.299889	0.334262	-1.2053	0.000476286	0	0	0	0	-1.35686e-16	0	0	0	0
4.92704	-27.8131	96.3218	-1.06877	1.21994	-1.35971e-16	0.295197	0.250242	-0.866633	0.00961602	0	0	0	0	-1.35971e-16	0	0	0	0
4.93703	-18.2271	60.0216	-1.62009	1.22108	-1.36215e-16	0.290739	0.17317	-0.570247	0.015392	0	0	0	0	-1.36215e-16	0	0	0	0
4.94702	-10.446	31.6913	-1.8224	1.22173	-1.36414e-16	0.287027	0.108789	-0.330045	0.0189792	0	0	0	0	-1.36414e-16	0	0	0	0
4.957	-4.49305	10.8082	-1.78164	1.22071	-1.36569e-16	0.285882	0.0637632	-0.153385	0.0252841	0	0	0	0	-1.36569e-16	0	0	0	0
4.96699	-0.260297	-3.45921	-1.58911	1.21689	-1.36683e-16	0.27816	-0.00376559	-0.0500427	-0.0229889	0	0	0	0	-1.36683e-16	0	0	0	0
4.97698	2.45205	-12.1312	-1.3181	1.22396	-1.36762e-16	0.275072	-0.00284528	0.0140766	0.00152947	0	0	0	0	-1.36762e-16	0	0	0	0
4.98696	3.89715	-16.3064	-1.02341	1.22419	-1.36812e-16	0.273961	-0.0122566	0.0512838	0.00321864	0	0	0	0	-1.36812e-16	0	0	0	0
4.99695	4.34898	-17.074	-0.742912	1.22421	-1.3684e-16	0.273047	-0.0162737	0.0638902	0.00277995	0	0	0	0	-1.3684e-16	0	0	0	0
5.00694	4.0786	-15.4525	-0.500044	1.22415	-1.36852e-16	0.272424	-0.0160142	0.0606727	0.00196337	0	0	0	0	-1.36852e-16	0	0	0	0
5.01692	3.33974	-12.3577	-0.306651	1.22406	-1.36852e-16	0.272055	-0.0131559	0.0486798	0.00120796	0	0	0	0	-1.36852e-16	0	0	0	0
5.02691	2.36286	-8.59477	-0.165672	1.22394	-1.36844e-16	0.271882	-0.00917763	0.033383	0.000643487	0	0	0	0	-1.36844e-16	0	0	0	0
5.0369	1.35588	-4.86931	-0.0734149	1.22381	-1.36832e-16	0.271853	-0.00520965	0.0187091	0.000282079	0	0	0	0	-1.36832e-16	0	0	0	0
5.04688	0	0	0	0	-0.171566	0	0	0	0	0	0	0	0	-0.0338626	0	0	0	0
5.05687	0	0	0	0	-0.166018	0	0	0	0	0	0	0	0	-0.0368733	0	0	0	0
5.06686	0	0	0	0	-0.160886	0	0	0	0	0	0	0	0	-0.0399589	0	0	0	0
