Coordinates
version=1
nRows=188
nColumns=38
inDegrees=no

Units are S.I. units (second, meters, Newtons, ...)
If the header above contains a line with 'inDegrees', this indicates whether rotational values are in degrees (yes) or radians (no).

endheader
time	pelvis_tilt_moment	pelvis_list_moment	pelvis_rotation_moment	pelvis_tx_force	pelvis_ty_force	pelvis_tz_force	hip_flexion_r_moment	hip_adduction_r_moment	hip_rotation_r_moment	knee_angle_r_moment	ankle_angle_r_moment	subtalar_angle_r_moment	mtp_angle_r_moment	hip_flexion_l_moment	hip_adduction_l_moment	hip_rotation_l_moment	knee_angle_l_moment	ankle_angle_l_moment	subtalar_angle_l_moment	mtp_angle_l_moment	lumbar_extension_moment	lumbar_bending_moment	lumbar_rotation_moment	arm_flex_r_moment	arm_add_r_moment	arm_rot_r_moment	elbow_flex_r_moment	pro_sup_r_moment	wrist_flex_r_moment	wrist_dev_r_moment	arm_flex_l_moment	arm_add_l_moment	arm_rot_l_moment	elbow_flex_l_moment	pro_sup_l_moment	wrist_flex_l_moment	wrist_dev_l_moment
1.18667	0	0	0	0	0	0	0	0	0	0	0	0	0	0	0	0	0	0	0	0	0	0	0	0	0	0	0	0	0	0	0	0	0	0	0	0	0
1.19332	2.90856	27.2554	-1.07829	-1.55572	534.034	-1.74516	-7.92046	0.320738	0.389408	4.10886	0.599852	-0.163925	-0.0331033	14.8741	0.509315	-0.12604	-2.41273	0.484447	-0.0123043	-0.0230394	5.49741	1.83193	-0.97665	2.57067	-2.54811	-0.790983	0.924783	-0.0322321	0.00976549	-0.110223	-1.27698	-1.54633	0.03072	0.0350232	0.00620911	0.0113308	0.0101914
1.19998	3.51296	28.401	-1.09194	-0.106621	536.209	-3.19224	-6.93238	0.432079	0.399738	4.04893	0.574416	-0.148218	-0.0318258	12.4002	0.467735	-0.0929915	-1.26741	0.46015	-0.0160229	-0.0227898	5.80749	1.99258	-1.439	2.1952	-2.49061	-0.703766	0.872283	-0.029146	0.0113495	-0.0964638	-1.12005	-1.55948	0.0059021	0.0578125	0.005581	0.0143355	0.00458197
1.20663	4.17693	29.4566	-1.04442	1.38636	540.05	-4.14586	-5.42749	0.614735	0.388271	3.90631	0.544804	-0.12785	-0.0302428	9.58129	0.530788	-0.0390744	0.0407397	0.434516	-0.0186282	-0.0227002	6.12472	2.19165	-1.94105	1.73454	-2.42428	-0.592721	0.799532	-0.025397	0.0130656	-0.078916	-0.906431	-1.58081	-0.0300683	0.0892895	0.00474775	0.0186309	-0.00331827
1.21329	4.81853	30.2384	-0.955325	2.66694	545.376	-4.38291	-3.50671	0.857609	0.350962	3.69407	0.514578	-0.104721	-0.0285865	6.76255	0.727455	0.032586	1.34801	0.413425	-0.0195125	-0.022978	6.39043	2.42694	-2.43624	1.23472	-2.35589	-0.469358	0.714192	-0.0213857	0.0147049	-0.0593309	-0.656193	-1.60766	-0.0739006	0.126132	0.00382208	0.023882	-0.0127016
1.21994	5.39392	30.6379	-0.836867	3.58751	551.863	-3.86721	-1.26801	1.15223	0.285718	3.42548	0.486675	-0.0804573	-0.0270573	4.17145	1.06014	0.117242	2.54143	0.401367	-0.0188321	-0.0237778	6.56898	2.69645	-2.89525	0.729752	-2.29022	-0.342557	0.622306	-0.0173928	0.0161145	-0.0390562	-0.387141	-1.63714	-0.122514	0.165658	0.0028894	0.0297831	-0.0228413
1.22659	5.88773	30.6023	-0.695924	4.08691	559.137	-2.68486	1.19803	1.49128	0.192056	3.11323	0.463586	-0.0564317	-0.0258314	1.94142	1.51018	0.208563	3.55061	0.401398	-0.0173204	-0.0251928	6.64753	2.99861	-3.30418	0.244324	-2.23061	-0.219073	0.528652	-0.0136115	0.0171857	-0.0191128	-0.113886	-1.66655	-0.173244	0.205868	0.00201329	0.0360661	-0.0331325
1.23325	6.3065	30.1336	-0.529608	4.17452	566.823	-0.982813	3.80857	1.86791	0.0708054	2.76934	0.447447	-0.0338035	-0.0250643	0.131332	2.04304	0.299116	4.33999	0.415096	-0.0160824	-0.027248	6.62345	3.33089	-3.65424	-0.204546	-2.17909	-0.103769	0.436968	-0.0101656	0.0178633	-0.000243077	0.151851	-1.69371	-0.223916	0.245341	0.00123737	0.0425013	-0.0431015
1.2399	6.67736	29.2799	-0.323619	3.91236	574.563	1.06945	6.48769	2.27596	-0.0761527	2.40524	0.440062	-0.0135359	-0.0248902	-1.25554	2.61275	0.38088	4.90083	0.442551	-0.0163869	-0.0298951	6.49711	3.69197	-3.93528	-0.606661	-2.13618	8.57591e-05	0.350042	-0.00709923	0.018137	0.0170364	0.401007	-1.71583	-0.272206	0.283171	0.000575309	0.0488668	-0.0523384
1.24656	7.02381	28.1149	-0.0700904	3.40048	582.042	3.28301	9.16726	2.70735	-0.246184	2.03143	0.442965	0.00354596	-0.0254222	-2.25653	3.17287	0.447136	5.24444	0.482469	-0.0193132	-0.0330219	6.27896	4.07608	-4.14606	-0.956087	-2.10215	0.0905867	0.269976	-0.00444714	0.0180342	0.0324077	0.626995	-1.73244	-0.317012	0.318691	4.12234e-05	0.0549973	-0.0606286
1.25321	7.36761	26.7255	0.23472	2.76764	588.986	5.47432	11.7863	3.15322	-0.436042	1.65722	0.457326	0.0167783	-0.0267452	-2.93124	3.67949	0.492437	5.39465	0.532348	-0.0256185	-0.0364583	5.98383	4.47575	-4.28824	-1.25103	-2.07625	0.166936	0.198272	-0.00220312	0.0176137	0.0457012	0.825184	-1.74368	-0.357556	0.351482	-0.000361995	0.0607569	-0.0678447
1.25987	7.71869	25.2061	0.588846	2.14075	595.174	7.47921	14.2914	3.60221	-0.641921	1.29026	0.483908	0.0256393	-0.0289103	-3.34887	4.09966	0.513433	5.38244	0.588785	-0.0355377	-0.0399969	5.62638	4.88159	-4.36353	-1.4927	-2.05713	0.229225	0.135909	-0.000332584	0.0169591	0.0568674	0.992448	-1.75016	-0.39332	0.381312	-0.000638215	0.0660388	-0.0739275
1.26652	8.06927	23.6434	0.980362	1.62527	600.442	9.15288	16.6376	4.03949	-0.859464	0.935836	0.523004	0.0297495	-0.0319285	-3.57728	4.41553	0.509016	5.24141	0.64786	-0.0487223	-0.0434167	5.22414	5.28292	-4.37705	-1.68435	-2.04317	0.278159	0.0834406	0.00121586	0.0161624	0.0659446	1.12707	-1.75272	-0.423994	0.408104	-0.000794807	0.0707645	-0.0788705
1.27318	8.38689	22.109	1.38736	1.27345	604.684	10.3721	18.7893	4.44391	-1.08371	0.596347	0.574667	0.0287844	-0.0357844	-3.67627	4.62761	0.480361	5.00517	0.705733	-0.0642982	-0.0465213	4.79741	5.66791	-4.33847	-1.83021	-2.0333	0.314906	0.0410271	0.00249039	0.0153206	0.0730471	1.22851	-1.75261	-0.449735	0.431902	-0.000826693	0.0748956	-0.0827348
1.27983	8.63166	20.6536	1.78178	1.1259	607.844	11.0526	20.7236	4.79685	-1.31009	0.270777	0.638193	0.0227504	-0.0404056	-3.69243	4.74691	0.429799	4.70414	0.758751	-0.0810643	-0.0491348	4.36574	6.02272	-4.25916	-1.93513	-2.02606	0.34092	0.00866493	0.00353291	0.014536	0.078326	1.29729	-1.75171	-0.471017	0.45278	-0.000729609	0.0784258	-0.0856287
1.28649	8.74332	19.3153	2.14029	1.15453	609.893	11.1008	22.4207	5.06863	-1.53261	-0.0450069	0.713048	0.0114783	-0.0457181	-3.66291	4.79335	0.359988	4.36494	0.804066	-0.0977835	-0.0511374	3.95134	6.33428	-4.14813	-2.00468	-2.02074	0.3579	-0.0142158	0.00439982	0.0138906	0.0819975	1.3344	-1.75087	-0.488325	0.47094	-0.000498283	0.081362	-0.0876756
1.29314	8.67591	18.1114	2.44081	1.32534	610.847	10.5055	23.8775	5.23595	-1.74527	-0.358262	0.797379	-0.00470624	-0.0515551	-3.6079	4.78847	0.274706	4.00951	0.839335	-0.113152	-0.0524409	3.56656	6.59143	-4.01481	-2.04399	-2.01598	0.367416	-0.0279562	0.00512996	0.0134743	0.0842379	1.34223	-1.75125	-0.502128	0.486558	-0.000135599	0.0837214	-0.0890109
1.2998	8.39132	17.0467	2.66952	1.5723	610.741	9.26344	25.0969	5.2774	-1.94222	-0.678201	0.889014	-0.0253238	-0.0577258	-3.54011	4.75221	0.177913	3.65538	0.863124	-0.126135	-0.0530091	3.22318	6.78561	-3.86583	-2.0582	-2.01094	0.370953	-0.0331984	0.00576066	0.0133495	0.0852351	1.32379	-1.75331	-0.512838	0.499838	0.000346752	0.08552	-0.0897785
1.30645	7.87017	16.1161	2.82014	1.81548	609.629	7.4021	26.088	5.17809	-2.11794	-1.01461	0.985074	-0.0496056	-0.0639946	-3.46424	4.70028	0.0741568	3.3159	0.874865	-0.135994	-0.0528523	2.9293	6.91201	-3.70575	-2.05197	-2.00504	0.369738	-0.0306337	0.00631865	0.013556	0.0851526	1.28297	-1.7573	-0.520805	0.510954	0.000924842	0.0867701	-0.090129
1.31311	7.11452	15.307	2.89381	1.9692	607.577	4.96352	26.8624	4.93082	-2.26746	-1.3762	1.08228	-0.0765836	-0.0701078	-3.37972	4.64142	-0.0317415	3.00039	0.874848	-0.142385	-0.0520231	2.69195	6.97012	-3.53768	-2.02956	-1.99819	0.364742	-0.0210668	0.00682159	0.014106	0.0841357	1.22424	-1.76315	-0.526315	0.520027	0.00156337	0.087472	-0.0902124
1.31976	6.14859	14.603	2.89751	1.95274	604.647	2.00115	27.4303	4.53745	-2.38666	-1.76901	1.17716	-0.105146	-0.0758111	-3.28207	4.57745	-0.134979	2.71444	0.864101	-0.145338	-0.0506081	2.51718	6.96383	-3.36348	-1.99478	-1.99064	0.356695	-0.00539662	0.00727812	0.0149873	0.0823118	1.15244	-1.77058	-0.529559	0.527089	0.0022168	0.0876074	-0.090166
1.32641	5.0268	13.9793	2.83862	1.71265	600.902	-1.42701	27.8012	4.01873	-2.47545	-2.19464	1.26615	-0.133846	-0.0808711	-3.1643	4.50332	-0.230894	2.46021	0.844215	-0.145212	-0.0487163	2.41374	6.90101	-3.18609	-1.95103	-1.98309	0.34608	0.0154223	0.00768742	0.0161629	0.0797893	1.07246	-1.779	-0.53059	0.532106	0.00283298	0.0871392	-0.0900966
1.33307	3.80778	13.4183	2.72991	1.19924	596.391	-5.26152	27.9772	3.39162	-2.53165	-2.65058	1.34585	-0.161534	-0.0850765	-3.0188	4.40897	-0.315169	2.23714	0.817147	-0.142615	-0.0464683	2.3892	6.79296	-3.00769	-1.90121	-1.9763	0.333236	0.0403961	0.00804203	0.0175818	0.0766642	0.988866	-1.78752	-0.529265	0.535003	0.00335594	0.0860162	-0.0900594
1.33972	2.55302	12.906	2.58608	0.370748	591.158	-9.4406	27.9559	2.67535	-2.55284	-3.13007	1.41318	-0.187245	-0.0882541	-2.83747	4.28506	-0.38454	2.04271	0.784997	-0.138219	-0.0439872	2.44998	6.65374	-2.82932	-1.84786	-1.97107	0.318391	0.0685188	0.00832908	0.0191832	0.0730226	0.905349	-1.79461	-0.525145	0.535768	0.00373326	0.0841858	-0.090031
1.34638	1.33065	12.4318	2.42144	-0.794923	585.241	-13.8962	27.7343	1.89779	-2.53919	-3.62206	1.46545	-0.210009	-0.0902811	-2.61353	4.12453	-0.436929	1.87321	0.749829	-0.132691	-0.0413899	2.6	6.49919	-2.65018	-1.79308	-1.96809	0.301725	0.0987899	0.00853256	0.0209027	0.0689444	0.824303	-1.79771	-0.517376	0.534572	0.00392448	0.0816152	-0.0898822
1.35303	0.203753	11.9897	2.25133	-2.31273	578.674	-18.5578	27.3095	1.08788	-2.49192	-4.11254	1.50058	-0.229038	-0.0910871	-2.34273	3.92488	-0.471633	1.72448	0.713521	-0.126611	-0.0387806	2.83995	6.3459	-2.46732	-1.73866	-1.96788	0.283403	0.130226	0.00863536	0.0226763	0.0645066	0.746418	-1.79269	-0.504547	0.531921	0.003911	0.0783196	-0.0893537
1.35969	-0.774789	11.5769	2.09226	-4.19692	571.485	-23.3527	26.6824	0.273243	-2.41342	-4.58601	1.51714	-0.243746	-0.0906557	-2.02421	3.68957	-0.489375	1.59257	0.677649	-0.120416	-0.0362467	3.16673	6.21013	-2.27564	-1.6861	-1.97079	0.263601	0.161876	0.00862134	0.0244428	0.0597855	0.670464	-1.77323	-0.484554	0.528806	0.00370573	0.0743965	-0.0880383
1.36634	-1.55576	11.1915	1.95594	-6.41354	563.731	-28.1901	25.8628	-0.509152	-2.31127	-5.02673	1.51431	-0.253427	-0.0890195	-1.65946	3.4265	-0.492095	1.47402	0.643566	-0.114411	-0.0338642	3.57173	6.10212	-2.06852	-1.63622	-1.97668	0.242516	0.193014	0.00847151	0.0261547	0.054848	0.593326	-1.733	-0.455379	0.52666	0.00335621	0.0700904	-0.0854868
1.373	-2.12668	10.8418	1.85489	-8.94084	555.478	-32.9826	24.8618	-1.24324	-2.18783	-5.41902	1.49225	-0.258077	-0.08626	-1.25378	3.14821	-0.482771	1.36631	0.612252	-0.108756	-0.0316896	4.04227	6.02674	-1.84033	-1.58948	-1.98523	0.22038	0.22304	0.00816909	0.0277745	0.0497593	0.510924	-1.66549	-0.415217	0.527261	0.00294633	0.0657806	-0.0812665
1.37965	-2.48353	10.5432	1.7957	-11.6844	546.87	-37.6007	23.7013	-1.90794	-2.04714	-5.74762	1.45191	-0.257795	-0.0825091	-0.814231	2.86868	-0.464469	1.26798	0.584632	-0.103527	-0.0297796	4.55725	5.97822	-1.58463	-1.54488	-1.99516	0.197524	0.251726	0.00769865	0.0292861	0.0445845	0.419627	-1.56662	-0.36301	0.532461	0.00257109	0.0619666	-0.075082
1.38631	-2.69187	10.3013	1.73086	-14.3296	538.062	-41.9002	22.4126	-2.48453	-1.89726	-6.00047	1.39544	-0.252805	-0.0779637	-0.347588	2.59424	-0.440737	1.17755	0.561336	-0.0988243	-0.0281688	5.09643	5.89955	-1.32824	-1.4993	-2.0052	0.17412	0.279724	0.00701658	0.0306893	0.0393403	0.312374	-1.45529	-0.308367	0.541967	0.00255359	0.0593142	-0.0679701
1.39296	-2.77575	10.1116	1.65759	-16.8314	529.095	-45.7839	21.0319	-2.96634	-1.7458	-6.1713	1.32575	-0.243581	-0.0728471	0.129541	2.34303	-0.415306	1.09593	0.542229	-0.0945127	-0.026852	5.64627	5.78807	-1.0775	-1.4522	-2.01445	0.150535	0.306741	0.00612613	0.0319712	0.0340914	0.194141	-1.3348	-0.253163	0.555255	0.00290199	0.0578758	-0.0603368
1.39962	-2.75667	9.96917	1.57507	-19.1578	520.011	-49.1639	19.5987	-3.34806	-1.60139	-6.25734	1.24621	-0.230663	-0.0673936	0.599809	2.13247	-0.39156	1.0247	0.526974	-0.0904247	-0.025813	6.19226	5.64513	-0.837144	-1.40305	-2.02205	0.127123	0.332525	0.00503846	0.0331243	0.0288975	0.0709987	-1.20905	-0.19897	0.571432	0.00356361	0.0575655	-0.052576
1.40627	-2.653	9.87091	1.48377	-21.2843	510.859	-51.9667	18.1524	-3.62551	-1.47297	-6.25901	1.16044	-0.214642	-0.0618349	1.04632	1.97755	-0.372271	0.965741	0.515108	-0.0863948	-0.0250273	6.71884	5.47433	-0.610344	-1.35137	-2.02714	0.104215	0.356874	0.00377191	0.0341457	0.0238127	-0.0512178	-1.08224	-0.14708	0.589424	0.00445814	0.0582078	-0.045027
1.41292	-2.47914	9.81562	1.38476	-23.1898	501.694	-54.1361	16.7306	-3.79512	-1.3695	-6.17954	1.07207	-0.196116	-0.0563883	1.45386	1.88953	-0.359434	0.920973	0.506106	-0.082286	-0.0244662	7.20985	5.28018	-0.398954	-1.29669	-2.02901	0.0820988	0.379648	0.00235107	0.0350366	0.0188832	-0.167656	-0.958475	-0.0985078	0.608135	0.00549836	0.0595805	-0.0379519
1.41958	-2.25324	9.80495	1.27671	-24.8483	492.582	-55.6351	15.3659	-3.85761	-1.29748	-6.02449	0.984555	-0.175784	-0.051245	1.80999	1.87485	-0.354191	0.891976	0.499448	-0.0780102	-0.0240988	7.64964	5.0643	-0.206214	-1.2384	-2.0271	0.061008	0.400821	0.000802231	0.0358017	0.0141444	-0.275179	-0.842359	-0.0545283	0.626429	0.00662737	0.0614445	-0.0315925
1.42623	-1.98639	9.84386	1.16413	-26.2595	483.588	-56.4458	14.085	-3.81712	-1.26108	-5.80131	0.900972	-0.154371	-0.0465608	2.10532	1.9359	-0.356888	0.879875	0.494633	-0.0735215	-0.0238937	8.023	4.83328	-0.0308369	-1.17623	-2.02094	0.0411314	0.420376	-0.00083941	0.0364504	0.00962323	-0.370995	-0.73683	-0.0154444	0.643385	0.00775834	0.0635541	-0.0260341
1.43289	-1.68654	9.93774	1.05029	-27.4206	474.783	-56.5681	12.9083	-3.67807	-1.26304	-5.51861	0.823884	-0.132532	-0.0424549	2.33443	2.07052	-0.36715	0.885055	0.491224	-0.0688221	-0.0238211	8.31676	4.59232	0.128207	-1.10991	-2.01021	0.0225975	0.438371	-0.00253647	0.0369954	0.00533603	-0.453749	-0.644078	0.0185995	0.658296	0.00882854	0.0657032	-0.0212996
1.43954	-1.36162	10.0918	0.938379	-28.3343	466.242	-56.0173	11.85	-3.4479	-1.3033	-5.18577	0.755275	-0.110907	-0.0390058	2.49608	2.27271	-0.384023	0.907067	0.488859	-0.0639523	-0.0238542	8.52038	4.34584	0.272068	-1.03927	-1.99481	0.00547954	0.454931	-0.00425029	0.0374525	0.0012884	-0.52312	-0.56554	0.0476269	0.670651	0.00979577	0.067725	-0.0173632
1.4462	-1.01961	10.3097	0.831613	-29.0091	458.04	-54.8216	10.9179	-3.13657	-1.37909	-4.81246	0.696514	-0.0901019	-0.0362531	2.59325	2.53343	-0.40615	0.944576	0.487255	-0.0589773	-0.0239688	8.62658	4.0977	0.402038	-0.96421	-1.97475	-0.0102019	0.470231	-0.00594195	0.0378402	-0.00252399	-0.579474	-0.50195	0.0718034	0.680117	0.0106337	0.0694927	-0.0141648
1.45285	-0.669374	10.5925	0.733156	-29.4589	450.248	-53.0181	10.115	-2.75648	-1.4851	-4.40824	0.648386	-0.0706841	-0.0342008	2.63287	2.84164	-0.431947	0.995419	0.486203	-0.0539725	-0.0241448	8.63154	3.85134	0.519546	-0.884716	-1.95015	-0.0244711	0.484487	-0.00757318	0.038179	-0.0061144	-0.6236	-0.453444	0.0914	0.68652	0.0113277	0.0709163	-0.0116242
1.45951	-0.320808	10.9374	0.646258	-29.7053	442.944	-50.6528	9.43989	-2.32172	-1.61401	-3.98227	0.611151	-0.053164	-0.0328239	2.62546	3.18536	-0.459777	1.05668	0.485558	-0.0490117	-0.024365	8.53548	3.60995	0.626235	-0.800908	-1.92132	-0.0373963	0.497934	-0.00910751	0.0384899	-0.00950325	-0.65656	-0.419675	0.106758	0.689829	0.011872	0.071939	-0.0096516
1.46616	0.0150149	11.3381	0.573628	-29.7724	436.195	-47.7749	8.88808	-1.84768	-1.757	-3.54296	0.584629	-0.037994	-0.032074	2.58425	3.55234	-0.488066	1.12491	0.485228	-0.0441565	-0.0246157	8.34177	3.37638	0.72387	-0.712971	-1.88862	-0.0490745	0.510813	-0.0105111	0.0387945	-0.0127165	-0.679493	-0.399926	0.118254	0.690128	0.0122668	0.0725322	-0.00815693
1.47282	0.326384	11.7851	0.517559	-29.6876	430.07	-44.437	8.45244	-1.35006	-1.90442	-3.09773	0.568294	-0.0255557	-0.0318866	2.52445	3.93093	-0.515413	1.19627	0.48516	-0.0394509	-0.0248858	8.05704	3.15329	0.814409	-0.621184	-1.85248	-0.0596283	0.523354	-0.0117539	0.0391135	-0.0157836	-0.693561	-0.39322	0.126278	0.687595	0.0125163	0.0726902	-0.00705456
1.47947	0.600447	12.2662	0.47946	-29.4813	424.633	-40.6944	8.12387	-0.845184	-2.04637	-2.65284	0.561388	-0.0161624	-0.0321887	2.46219	4.3105	-0.540653	1.26683	0.485328	-0.0349194	-0.0251665	7.69051	2.94316	0.899974	-0.525902	-1.81346	-0.0691973	0.535763	-0.01281	0.0394661	-0.0187352	-0.699905	-0.398412	0.131217	0.68248	0.0126274	0.0724248	-0.00626695
1.48613	0.824864	12.769	0.45975	-29.183	419.945	-36.6035	7.89138	-0.34843	-2.17332	-2.21306	0.562991	-0.0100474	-0.0329038	2.41358	4.68201	-0.56291	1.33273	0.485719	-0.0305633	-0.0254509	7.25331	2.7484	0.982831	-0.427537	-1.77217	-0.0779298	0.548203	-0.0136587	0.0398688	-0.0216014	-0.699599	-0.414272	0.133439	0.675084	0.012608	0.0717609	-0.00572608
1.49278	0.98907	13.2824	0.45768	-28.8199	416.062	-32.2229	7.74197	0.125762	-2.27656	-1.78158	0.572104	-0.00736426	-0.0339572	2.39336	5.03723	-0.581502	1.39047	0.48633	-0.0263856	-0.0257331	6.75777	2.57136	1.06529	-0.326537	-1.72929	-0.0859781	0.560784	-0.0142848	0.0403354	-0.0244101	-0.693647	-0.43954	0.133292	0.665741	0.012467	0.0707321	-0.00537321
1.49944	1.0858	13.7988	0.471163	-28.4135	413.036	-27.6133	7.66029	0.565489	-2.34893	-1.3597	0.587688	-0.00815832	-0.0352792	2.41418	5.36946	-0.596009	1.43706	0.487154	-0.0223788	-0.0260079	6.21671	2.41441	1.14963	-0.223369	-1.6856	-0.0934933	0.57356	-0.0146794	0.0408756	-0.0271862	-0.682978	-0.472975	0.131096	0.654797	0.0122131	0.0693773	-0.00515846
1.50609	1.11395	14.3158	0.496837	-27.9765	410.914	-22.8381	7.62829	0.963085	-2.38566	-0.946779	0.608692	-0.0123261	-0.0368084	2.48568	5.67308	-0.606205	1.47023	0.488181	-0.0185398	-0.0262707	5.64286	2.27996	1.23793	-0.118499	-1.64189	-0.100623	0.586521	-0.01484	0.0414948	-0.0299506	-0.668438	-0.513386	0.127149	0.642604	0.011855	0.0677383	-0.00503936
1.51274	1.07297	14.8391	0.529808	-27.5206	409.734	-17.9656	7.62418	1.31017	-2.38207	-0.540125	0.63409	-0.0197662	-0.0384897	2.61381	5.94316	-0.612005	1.48851	0.489389	-0.014878	-0.0265168	5.04841	2.17051	1.33191	-0.0123707	-1.59904	-0.107507	0.599594	-0.0147706	0.0421937	-0.0327209	-0.650812	-0.559648	0.121724	0.629499	0.0114009	0.0658571	-0.00497982
1.5194	0.968934	15.383	0.563718	-27.0485	409.528	-13.0689	7.62232	1.60247	-2.33572	-0.134895	0.662856	-0.0302448	-0.0402764	2.80043	6.17532	-0.613418	1.49134	0.490754	-0.011421	-0.0267415	4.44468	2.08853	1.43282	0.0946042	-1.55798	-0.114281	0.612642	-0.0144821	0.0429675	-0.0355111	-0.630823	-0.610719	0.115073	0.615801	0.0108588	0.0637752	-0.00494884
1.52605	0.813211	15.971	0.590785	-26.5563	410.315	-8.22683	7.59286	1.83883	-2.24589	0.275858	0.693961	-0.04343	-0.0421282	3.04312	6.36536	-0.610496	1.47904	0.492242	-0.0082183	-0.0269402	3.84204	2.03641	1.54117	0.20206	-1.51964	-0.121073	0.625472	-0.0139919	0.0438061	-0.0383336	-0.609139	-0.665635	0.107428	0.601803	0.0102363	0.0615319	-0.00491975
1.53271	0.622807	16.6359	0.60213	-26.0341	412.1	-3.52361	7.50185	2.02172	-2.11346	0.701053	0.726345	-0.0588902	-0.0440099	3.33534	6.50924	-0.603297	1.45285	0.493818	-0.00534167	-0.0271081	3.24991	2.01637	1.65675	0.309688	-1.48501	-0.128002	0.637839	-0.013324	0.0446942	-0.0412	-0.586389	-0.723508	0.099007	0.587763	0.00954095	0.0591642	-0.00486924
1.53936	0.419999	17.418	0.588139	-25.4665	414.874	0.951999	7.31168	2.15761	-1.94085	1.15131	0.758905	-0.0760947	-0.0458891	3.66675	6.60296	-0.591846	1.41475	0.495445	-0.00288197	-0.0272407	2.6769	2.03022	1.77839	0.417248	-1.45507	-0.135189	0.649454	-0.0125083	0.0456107	-0.0441233	-0.563161	-0.783515	0.0900142	0.573906	0.00878021	0.0567061	-0.00477695
1.54602	0.231623	18.3635	0.539053	-24.8341	418.609	5.10881	6.98237	2.25713	-1.73189	1.63853	0.790473	-0.0944182	-0.0477341	4.02384	6.64269	-0.576119	1.36748	0.497089	-0.000943149	-0.0273339	2.13112	2.07923	1.90405	0.524566	-1.43081	-0.142748	0.659993	-0.0115802	0.04653	-0.0471195	-0.540019	-0.844885	0.0806459	0.560421	0.00796183	0.0541892	-0.00462514
1.55267	0.113204	19.5175	0.455696	-24.1006	423.255	8.87285	6.47966	2.35186	-1.49796	2.17418	0.819732	-0.112689	-0.0495174	4.39099	6.62485	-0.556086	1.31426	0.498724	0.000363114	-0.0273844	1.61668	2.16827	2.03525	0.630676	-1.41289	-0.150974	0.66909	-0.0105376	0.0474286	-0.0502244	-0.517344	-0.906651	0.0713239	0.547554	0.00707109	0.0516603	-0.00437542
1.55933	0.0766947	20.9299	0.323419	-23.2607	428.745	12.1457	5.7607	2.44653	-1.24	2.77139	0.845451	-0.130485	-0.0511987	4.75035	6.54644	-0.531506	1.2588	0.500324	0.00093243	-0.0273896	1.14386	2.29392	2.16513	0.735817	-1.40211	-0.159765	0.676425	-0.009444	0.048287	-0.053439	-0.495875	-0.968254	0.0621166	0.535361	0.006133	0.0491392	-0.00402641
1.56598	0.155535	22.646	0.140009	-22.3106	434.99	14.8556	4.7914	2.55953	-0.964309	3.44141	0.866295	-0.147034	-0.0527367	5.08418	6.40505	-0.502205	1.20497	0.501873	0.000668243	-0.0273478	0.717545	2.45829	2.29293	0.839097	-1.39893	-0.169373	0.681653	-0.00830681	0.0490879	-0.0568036	-0.476062	-1.02886	0.0533909	0.524002	0.00513925	0.0466667	-0.0035503
1.57264	0.370124	24.6944	-0.102263	-21.2367	441.877	16.9346	3.54524	2.71024	-0.677762	4.19322	0.880912	-0.161561	-0.0540839	5.3744	6.19949	-0.467789	1.15674	0.503355	-0.000497832	-0.0272584	0.348869	2.65479	2.41048	0.940986	-1.40383	-0.179617	0.684479	-0.00719724	0.0498139	-0.0603218	-0.458684	-1.08795	0.045211	0.513464	0.0041189	0.0442589	-0.00295128
1.57929	0.25811	26.2023	-0.567976	-20.4344	452.237	17.9497	3.12328	2.6986	-0.548768	4.33067	2.04362	-0.152514	-0.0551869	5.60507	5.9296	-0.427977	1.11784	0.504759	-0.0026116	-0.0271218	0.0432766	2.8831	2.5164	1.04067	-1.41698	-0.190757	0.684612	-0.00612328	0.0504563	-0.0640435	-0.444232	-1.14474	0.0379268	0.50386	0.00306592	0.0419544	-0.00221021
1.58595	0.728145	28.7404	-0.937747	-19.1733	460.895	18.5356	1.56555	2.97888	-0.298611	5.11666	2.27166	-0.125808	-0.0559974	5.76184	5.59691	-0.382308	1.09174	0.506067	-0.00567559	-0.0269391	-0.188156	3.13381	2.60303	1.13891	-1.43846	-0.202555	0.681825	-0.0051558	0.0510038	-0.0679759	-0.433499	-1.19869	0.0316165	0.495145	0.0020115	0.0397692	-0.00133646
1.5926	1.36763	31.5916	-1.35314	-17.821	469.894	18.4269	-0.253019	3.35191	-0.0596432	5.98958	2.4774	-0.0854734	-0.0564473	5.83373	5.20447	-0.330413	1.08132	0.50726	-0.00965863	-0.0267117	-0.336561	3.39902	2.66595	1.23644	-1.46843	-0.214969	0.675874	-0.00435096	0.0514378	-0.0721533	-0.427141	-1.24921	0.0264325	0.487326	0.000974347	0.0377253	-0.000336726
1.59926	2.16407	34.7268	-1.80097	-16.4404	479.074	17.6755	-2.31244	3.81149	0.167002	6.94555	2.64825	-0.0321876	-0.0564685	5.81417	4.75713	-0.272082	1.08876	0.508301	-0.0144876	-0.0264413	-0.39961	3.67718	2.70696	1.33281	-1.50681	-0.228378	0.666579	-0.0037058	0.0517661	-0.0766444	-0.425568	-1.29545	0.0227205	0.480532	-5.27687e-05	0.0358636	0.000795793
1.60591	3.09278	38.0921	-2.2699	-15.0732	488.271	16.3587	-4.57855	4.35185	0.378738	7.97654	2.77134	0.0324416	-0.055999	5.7002	4.26183	-0.207058	1.11548	0.509138	-0.0200404	-0.0261293	-0.371936	3.95832	2.72391	1.42947	-1.55327	-0.242519	0.65381	-0.0032787	0.0519876	-0.0814556	-0.429433	-1.33683	0.0205734	0.474746	-0.00103914	0.0342013	0.00204369
1.61256	4.12875	41.6261	-2.73978	-13.7871	497.332	14.5951	-7.00607	4.95756	0.573993	9.07015	2.83447	0.105569	-0.054986	5.49427	3.7273	-0.135403	1.16193	0.509693	-0.0261578	-0.0257765	-0.257382	4.24134	2.72288	1.52648	-1.60754	-0.257706	0.637495	-0.00306207	0.0521311	-0.0866332	-0.439025	-1.3726	0.0202757	0.470105	-0.00198883	0.0327749	0.00340374
1.61922	5.24751	45.2444	-3.18697	-12.6107	506.111	12.5377	-9.53275	5.62288	0.747647	10.2095	2.82692	0.183666	-0.0533942	5.20316	3.16424	-0.0572773	1.22767	0.509864	-0.0326378	-0.0253828	-0.0600415	4.51775	2.70828	1.62587	-1.66898	-0.273569	0.617592	-0.00310436	0.0522044	-0.092153	-0.454803	-1.40234	0.0218702	0.466597	-0.00287186	0.0315961	0.00485339
1.62587	6.38214	48.8843	-3.60151	-11.6535	514.483	10.3447	-12.1104	6.29114	0.904172	11.376	2.74105	0.261037	-0.0512001	4.83917	2.58484	0.0267231	1.31123	0.509524	-0.0392505	-0.0249471	0.204445	4.78893	2.69366	1.72804	-1.73722	-0.290381	0.59411	-0.00338664	0.0522506	-0.0980226	-0.476861	-1.42566	0.0255419	0.46434	-0.00369417	0.0306914	0.00638219
1.63253	7.46672	52.478	-3.97268	-11.014	522.343	8.20209	-14.6831	6.90569	1.04425	12.5475	2.57298	0.331454	-0.0484075	4.41898	2.00263	0.115669	1.4103	0.508534	-0.0457428	-0.0244682	0.513844	5.05606	2.69619	1.83332	-1.8114	-0.308144	0.567148	-0.00388582	0.0523277	-0.104181	-0.505397	-1.44251	0.0313669	0.463373	-0.00445191	0.030075	0.00797421
1.63918	8.4323	55.963	-4.29115	-10.7867	529.607	6.31323	-17.1956	7.40436	1.1672	13.6999	2.32374	0.388324	-0.04505	3.96349	1.43215	0.20819	1.52176	0.506754	-0.0518474	-0.0239448	0.837558	5.32121	2.73825	1.94172	-1.89035	-0.326687	0.536884	-0.00457057	0.0524993	-0.1105	-0.54067	-1.45324	0.0393307	0.463671	-0.0051395	0.0297516	0.00961008
1.64584	9.21069	59.2916	-4.54811	-11.0566	536.21	4.89212	-19.5982	7.72216	1.27174	14.8075	2.00009	0.425144	-0.0411943	3.49742	0.888696	0.302431	1.64175	0.504048	-0.0572891	-0.0233765	1.13506	5.58801	2.84831	2.05274	-1.97268	-0.345718	0.503555	-0.00539849	0.0528258	-0.116786	-0.582977	-1.45861	0.049341	0.46516	-0.0057524	0.029717	0.0112693
1.65249	9.76106	62.4367	-4.72267	-11.8919	542.11	4.16413	-21.8461	7.80846	1.35504	15.8451	1.61503	0.436382	-0.0369473	3.04862	0.388175	0.396026	1.76584	0.500283	-0.0617849	-0.0227628	1.35194	5.86897	3.0637	2.16303	-2.05707	-0.365409	0.467602	-0.00625995	0.0534198	-0.122775	-0.632521	-1.45951	0.0613763	0.467829	-0.00631075	0.0299757	0.0129401
1.65915	10.0471	65.3954	-4.79221	-13.3431	547.266	4.35014	-23.9071	7.61534	1.41577	16.7866	1.18812	0.417657	-0.0324467	2.64758	-0.0531584	0.486109	1.88909	0.495374	-0.0650611	-0.022107	1.42324	6.17743	3.42743	2.26792	-2.14145	-0.385558	0.429674	-0.00703219	0.0543872	-0.128061	-0.689726	-1.45694	0.075377	0.471608	-0.00681952	0.0305256	0.0146124
1.6658	10.0012	68.4015	-4.5854	-15.5783	551.652	6.07157	-25.7523	7.07991	1.45474	17.602	0.74554	0.366086	-0.0278672	2.3261	-0.3969	0.567861	2.00993	0.489225	-0.0666137	-0.0214277	1.08569	6.53994	4.15495	2.36831	-2.22433	-0.404984	0.390445	-0.00755173	0.05579	-0.13169	-0.761178	-1.44767	0.0925798	0.477124	-0.00722639	0.0315228	0.0162757
1.67246	9.68595	71.1863	-4.25872	-18.2835	555.168	8.93068	-27.3813	6.25356	1.47044	18.2732	0.318051	0.282651	-0.023404	2.11601	-0.658032	0.639586	2.1182	0.481959	-0.0665616	-0.0207198	0.529565	6.9307	5.05605	2.45035	-2.30582	-0.422428	0.349124	-0.00789478	0.0573197	-0.133585	-0.83999	-1.43821	0.111031	0.48307	-0.00754051	0.0327296	0.0179171
1.67911	9.18053	73.5503	-3.91268	-21.1251	557.674	12.6194	-28.798	5.214	1.46457	18.7815	-0.0591846	0.17116	-0.0192795	2.04833	-0.845617	0.69929	2.20432	0.473662	-0.0649509	-0.0199803	-0.105748	7.31698	5.98831	2.50709	-2.38414	-0.436899	0.305913	-0.00810311	0.0587148	-0.133813	-0.920257	-1.43219	0.129263	0.488896	-0.00779132	0.0340045	0.0194919
1.68577	8.5831	75.3514	-3.59885	-23.7561	558.975	16.8888	-30.0128	4.06161	1.44243	19.1077	-0.348448	0.0382595	-0.0157273	2.1519	-0.965468	0.744805	2.25942	0.464444	-0.0618144	-0.0192115	-0.719826	7.66279	6.84987	2.53774	-2.45662	-0.447809	0.261638	-0.00824045	0.0597671	-0.13262	-0.996992	-1.43172	0.146156	0.494372	-0.00800123	0.0352549	0.0209512
1.69242	7.99557	76.4856	-3.33896	-25.8275	558.822	21.5135	-31.0418	2.90789	1.41246	19.2306	-0.511841	-0.106868	-0.0129724	2.45085	-1.02086	0.774023	2.27589	0.454461	-0.0571892	-0.0184219	-1.2354	7.92641	7.5653	2.54628	-2.5204	-0.45487	0.217332	-0.00839501	0.0603152	-0.130425	-1.06604	-1.4382	0.160781	0.49939	-0.00818705	0.0364125	0.0222427
1.69908	7.50075	76.8512	-3.15852	-26.986	556.902	26.2315	-31.907	1.86152	1.38507	19.1268	-0.514191	-0.253029	-0.0112091	2.96267	-1.01397	0.785176	2.24752	0.443934	-0.0511386	-0.0176268	-1.56972	8.05183	8.05949	2.53935	-2.57233	-0.457939	0.173985	-0.00867469	0.0602502	-0.12783	-1.12377	-1.45281	0.172271	0.503796	-0.00836326	0.0374135	0.0233138
1.70573	7.20431	76.4841	-2.98557	-27.1661	552.899	31.058	-32.6215	0.990122	1.3705	18.7656	-0.325997	-0.388034	-0.0105844	3.69761	-0.933463	0.775725	2.17259	0.433227	-0.0436396	-0.0168629	-1.7532	8.05493	8.36399	2.52851	-2.61276	-0.457597	0.13233	-0.0091669	0.05958	-0.125298	-1.16869	-1.4743	0.1805	0.508214	-0.00853176	0.0382858	0.0241117
1.71238	7.18031	75.4199	-2.76582	-26.3927	546.499	35.9939	-33.1969	0.326108	1.3774	18.1125	0.072859	-0.499291	-0.011175	4.65665	-0.768099	0.743568	2.05154	0.422851	-0.0347236	-0.0161777	-1.81257	7.95571	8.50807	2.52128	-2.64424	-0.45552	0.0928955	-0.00988879	0.0584535	-0.123253	-1.19997	-1.50123	0.185601	0.513188	-0.00870926	0.0390692	0.0246098
1.71904	7.45494	73.693	-2.4697	-24.7457	537.397	41.0296	-33.6427	-0.137338	1.41278	17.1306	0.689626	-0.574609	-0.0129734	5.83139	-0.507953	0.687143	1.88689	0.413482	-0.0244957	-0.0156298	-1.77186	7.76975	8.51853	2.52253	-2.66763	-0.452654	0.056216	-0.0108304	0.0570321	-0.12194	-1.21784	-1.53211	0.187839	0.518983	-0.00889066	0.039795	0.0248042
1.72569	8.00753	71.3369	-2.09082	-22.3812	525.37	46.1479	-33.96	-0.449184	1.48199	15.7816	1.51566	-0.603156	-0.0158898	7.20349	-0.145438	0.605381	1.6834	0.405992	-0.0131543	-0.0152895	-1.65367	7.51305	8.42125	2.53359	-2.6839	-0.44997	0.0227978	-0.0119373	0.0555112	-0.121453	-1.22328	-1.56542	0.187622	0.525759	-0.00907546	0.0404989	0.0247061
1.73235	8.7706	68.3843	-1.64413	-19.5075	510.325	51.3193	-34.1384	-0.694641	1.58986	14.0283	2.52399	-0.576436	-0.0197599	8.74557	0.323757	0.497653	1.44777	0.401476	-0.00100133	-0.0152396	-1.47989	7.20015	8.24132	2.55302	-2.69356	-0.448164	-0.00683471	-0.013129	0.0540775	-0.121731	-1.21793	-1.59968	0.185457	0.533558	-0.00925833	0.0412182	0.024338
1.739	9.63029	64.8666	-1.15807	-16.4034	492.329	56.5084	-34.1529	-0.989685	1.74142	11.8411	3.66615	-0.489657	-0.0243514	10.4232	0.903266	0.363621	1.18842	0.401136	0.0116297	-0.0155697	-1.27405	6.84684	8.00573	2.57744	-2.69735	-0.447763	-0.0322702	-0.0143099	0.0528833	-0.122598	-1.20393	-1.63306	0.181973	0.542371	-0.00942651	0.041995	0.0237306
1.74566	10.4435	60.8225	-0.667376	-13.3921	471.64	61.6704	-33.9679	-1.46719	1.94232	9.20415	4.8764	-0.342537	-0.0293844	12.1947	1.59161	0.203659	0.915055	0.406266	0.0242911	-0.0163708	-1.0617	6.47019	7.74419	2.60269	-2.69627	-0.448977	-0.0532726	-0.0153908	0.0520207	-0.123803	-1.18378	-1.66337	0.177883	0.552188	-0.00955647	0.0428777	0.0229179
1.75231	11.0833	56.298	-0.216588	-10.7731	448.644	66.6934	-33.5604	-2.24314	2.19943	6.1276	6.07803	-0.139465	-0.0345551	14.0136	2.3783	0.0189991	0.637198	0.418203	0.0364244	-0.017729	-0.849317	6.0883	7.46922	2.62376	-2.69086	-0.451949	-0.0695367	-0.016299	0.0515608	-0.125111	-1.15949	-1.68916	0.173802	0.562697	-0.00962269	0.0438821	0.0219598
1.75897	11.4466	51.3757	0.160233	-8.79602	423.762	71.4426	-32.9384	-3.39993	2.51924	2.65451	7.19361	0.110978	-0.0395563	15.8309	3.24871	-0.18847	0.364419	0.438148	0.0474475	-0.0197169	-0.640185	5.71385	7.1909	2.63691	-2.68147	-0.456295	-0.0810283	-0.016996	0.051492	-0.126317	-1.13292	-1.70875	0.170314	0.573646	-0.00959691	0.0450268	0.0209083
1.76562	11.4936	46.1871	0.449234	-7.59116	397.392	75.7622	-32.149	-4.95972	2.9064	-1.13935	8.15515	0.39765	-0.0441123	17.598	4.17919	-0.416069	0.105296	0.46722	0.0566797	-0.0223936	-0.438264	5.35572	6.91794	2.63903	-2.66854	-0.461627	-0.0878013	-0.0174503	0.0517806	-0.127256	-1.10561	-1.72092	0.16788	0.58483	-0.00946234	0.0463265	0.0198047
1.77228	11.248	40.892	0.658037	-7.18463	369.912	79.5012	-31.2603	-6.88907	3.36081	-5.15683	8.91113	0.708446	-0.0479935	19.2706	5.13813	-0.660141	-0.133526	0.506301	0.0633978	-0.0257943	-0.249867	5.02146	6.65965	2.628	-2.65268	-0.467581	-0.0900031	-0.017641	0.0523771	-0.127803	-1.07876	-1.72468	0.166864	0.596113	-0.00920985	0.0477932	0.0186817
1.77893	10.7838	35.6554	0.811332	-7.51813	341.69	82.5358	-30.341	-9.11385	3.87683	-9.29325	9.43002	1.03169	-0.0510305	20.8115	6.08697	-0.915915	-0.348159	0.555932	0.066878	-0.0299231	-0.0847924	4.71879	6.42734	2.6029	-2.63459	-0.47382	-0.0878609	-0.0175572	0.0532223	-0.127881	-1.05314	-1.71928	0.167521	0.60745	-0.00883726	0.0494359	0.0175622
1.78559	10.2059	30.6281	0.943383	-8.47369	313.089	84.79	-29.4464	-11.5394	4.44425	-13.4483	9.70049	1.35719	-0.053125	22.1931	6.98152	-1.17746	-0.538086	0.616339	0.0664147	-0.0347552	0.0420365	4.45654	6.23451	2.56376	-2.61535	-0.480232	-0.0816518	-0.0171869	0.0542668	-0.127451	-1.02923	-1.70425	0.16992	0.618887	-0.00834357	0.0512547	0.0164501
1.79224	9.62535	25.935	1.09329	-9.91583	284.459	86.2468	-28.6135	-14.0727	5.05009	-17.5339	9.72868	1.67675	-0.0542444	23.3997	7.77666	-1.43788	-0.706555	0.687125	0.0614514	-0.0402181	0.112003	4.24558	6.0992	2.51234	-2.59604	-0.486689	-0.0717339	-0.0165348	0.0554531	-0.126523	-1.00716	-1.67913	0.174071	0.630591	-0.00773142	0.0532508	0.0153422
1.79889	9.13936	21.671	1.3013	-11.7154	256.115	86.9525	-27.8627	-16.6363	5.68069	-21.4773	9.53398	1.98441	-0.0544207	24.4277	8.4325	-1.6902	-0.860382	0.767297	0.0516919	-0.0461976	0.102553	4.09851	6.04434	2.45216	-2.5777	-0.493068	-0.0585342	-0.0156217	0.0567167	-0.125155	-0.986742	-1.64357	0.179886	0.642868	-0.00700852	0.0554262	0.0142214
1.80555	8.81823	17.8433	1.5592	-13.6773	228.336	86.8725	-27.2036	-19.162	6.32225	-25.2189	9.14403	2.27647	-0.0537364	25.2841	8.91094	-1.92686	-1.01049	0.855285	0.037064	-0.0525368	0.0398303	4.0044	6.05092	2.38631	-2.56071	-0.49955	-0.0424195	-0.0145034	0.0580306	-0.123582	-0.966405	-1.59873	0.186934	0.655667	-0.00619371	0.0577329	0.0130832
1.8122	8.71933	14.435	1.83679	-15.5555	201.32	85.9472	-26.6375	-21.596	6.96054	-28.7103	8.59004	2.55111	-0.0522942	25.9746	9.16725	-2.13803	-1.16889	0.950126	0.0172225	-0.0591138	-0.0427203	3.94125	6.0897	2.31895	-2.54443	-0.506327	-0.0238266	-0.0132538	0.0593399	-0.12212	-0.945429	-1.54727	0.194413	0.668585	-0.00529673	0.0600864	0.011899
1.81886	8.85701	11.4023	2.10947	-17.1805	175.302	84.1809	-26.1508	-23.9028	7.58262	-31.9126	7.9037	2.80817	-0.0502352	26.517	9.18232	-2.31612	-1.34852	1.0494	-0.00741501	-0.0657235	-0.116129	3.89223	6.13741	2.25531	-2.52905	-0.513438	-0.00343314	-0.0119517	0.0605531	-0.121086	-0.922809	-1.49188	0.201398	0.681253	-0.00433908	0.0623822	0.0106353
1.82551	9.21783	8.69254	2.35878	-18.4209	150.518	81.6009	-25.7194	-26.0561	8.17595	-34.7948	7.11468	3.04878	-0.0477183	26.9279	8.95431	-2.4553	-1.56024	1.15009	-0.0360373	-0.0721347	-0.155674	3.8412	6.17641	2.20105	-2.51499	-0.520785	0.0179142	-0.0106874	0.0615283	-0.120776	-0.897939	-1.43563	0.206921	0.693207	-0.00334446	0.0645056	0.00925772
1.83217	9.75972	6.25191	2.57143	-19.1839	127.196	78.2514	-25.3124	-28.04	8.72904	-37.3338	6.2492	3.27479	-0.0449057	27.2186	8.4984	-2.55196	-1.81099	1.24879	-0.0675046	-0.0781116	-0.141474	3.77168	6.19392	2.16144	-2.50269	-0.528074	0.0392667	-0.00955868	0.06207	-0.121411	-0.870689	-1.38189	0.21002	0.703878	-0.00233584	0.0663383	0.00773226
1.83882	10.4121	4.0314	2.73891	-19.4183	105.535	74.1869	-24.8972	-29.8484	9.23217	-39.5145	5.32928	3.48818	-0.0419516	27.3919	7.84769	-2.60575	-2.10236	1.34188	-0.100358	-0.0834282	-0.058384	3.66639	6.18066	2.1404	-2.49223	-0.53473	0.0596911	-0.00866254	0.0619357	-0.123093	-0.84139	-1.33412	0.209797	0.712615	-0.00133302	0.067765	0.00602559
1.84548	11.0716	1.98824	2.85738	-19.1239	85.6976	69.4649	-24.4442	-31.4826	9.67779	-41.3296	4.37258	3.69056	-0.0389941	27.4419	7.06082	-2.623	-2.42918	1.42564	-0.132631	-0.0878873	0.105869	3.50724	6.1277	2.13945	-2.48271	-0.539765	0.0784532	-0.00808206	0.0608596	-0.125747	-0.810724	-1.29569	0.205463	0.718714	-0.000350218	0.0686802	0.00410748
1.85213	11.6595	0.103327	2.91384	-18.2765	67.7938	64.1266	-23.9303	-32.9491	10.0607	-42.7791	3.39266	3.88282	-0.0361493	27.3505	6.16942	-2.60256	-2.78245	1.49658	-0.163178	-0.0913055	0.358985	3.27588	6.02644	2.15682	-2.47133	-0.54159	0.0952195	-0.00786939	0.0585879	-0.129057	-0.779731	-1.26955	0.196404	0.721478	0.000606258	0.0689993	0.0019506
1.85879	12.0825	-1.62934	2.89874	-16.8832	51.8933	58.2064	-23.3425	-34.2539	10.3776	-43.8689	2.3994	4.06499	-0.0335089	27.0957	5.22381	-2.54919	-3.14771	1.55149	-0.190541	-0.0935481	0.704193	2.95471	5.86738	2.18682	-2.45249	-0.537814	0.110263	-0.00802838	0.0549328	-0.132426	-0.749722	-1.25806	0.182225	0.720288	0.00154028	0.0686671	-0.000467608
1.86544	12.2583	-3.20228	2.80394	-14.9832	38.0545	51.73	-22.6767	-35.4028	10.6275	-44.6111	1.39974	4.2361	-0.0311451	26.6538	4.27474	-2.46892	-3.50721	1.58744	-0.213381	-0.0945126	1.1427	2.53292	5.64112	2.21921	-2.41831	-0.525638	0.124674	-0.00849476	0.0498953	-0.134985	-0.721598	-1.26232	0.163037	0.714874	0.00244215	0.0676946	-0.00314294
1.8721	12.1261	-4.59772	2.61575	-12.5852	26.2714	44.7131	-21.9393	-36.3965	10.8102	-45.0214	0.398036	4.39434	-0.029099	26.0046	3.36348	-2.36776	-3.84226	1.60246	-0.230729	-0.0941637	1.67005	2.00072	5.33631	2.24113	-2.35675	-0.501378	0.140348	-0.00914305	0.04367	-0.135651	-0.696755	-1.28277	0.139104	0.705029	0.00332092	0.0661199	-0.00607013
1.87875	11.6356	-5.79997	2.31965	-9.69744	16.4942	37.1735	-21.145	-37.231	10.9264	-45.119	-0.603256	4.53727	-0.0273885	25.1388	2.53354	-2.25591	-4.13583	1.59544	-0.241666	-0.0925271	2.27872	1.35132	4.94061	2.23838	-2.25212	-0.460552	0.159815	-0.00979551	0.0366812	-0.133213	-0.676876	-1.31882	0.110931	0.690743	0.00420628	0.0640227	-0.00923363
1.88541	10.7708	-6.79003	1.90549	-6.41644	8.76493	29.1565	-20.3096	-37.9058	10.9776	-44.9261	-1.60271	4.66205	-0.0260383	24.0556	1.81456	-2.13824	-4.37085	1.56601	-0.245885	-0.089657	2.96363	0.59584	4.44503	2.19688	-2.09073	-0.399082	0.185686	-0.010242	0.0296454	-0.126552	-0.661787	-1.36711	0.0797335	0.672745	0.00511991	0.0615629	-0.0125548
1.89206	9.7359	-7.47309	1.48509	-3.49058	3.33298	20.8306	-19.4401	-38.4453	10.9661	-44.4695	-2.59959	4.76551	-0.0250667	22.7711	1.22993	-2.02131	-4.53085	1.51532	-0.243464	-0.0856999	3.65928	-0.0595973	3.89941	2.06095	-1.89575	-0.33393	0.223006	-0.00938899	0.0254081	-0.115814	-0.645794	-1.41742	0.0504786	0.655025	0.00568183	0.0593077	-0.0156754
1.89871	8.54378	-7.84682	1.05291	-0.85034	0.0198531	12.307	-18.5669	-38.8352	10.8934	-43.7711	-3.59471	4.84515	-0.0244388	21.3081	0.777515	-1.90916	-4.60895	1.44574	-0.234919	-0.0808448	4.36082	-0.642885	3.3088	1.86188	-1.6775	-0.265974	0.267394	-0.00767868	0.0236431	-0.102449	-0.630892	-1.47074	0.0217971	0.636947	0.00605218	0.0571356	-0.0187234
1.90537	7.24073	-7.91235	0.62877	1.43298	-1.2552	3.72204	-17.7134	-39.0711	10.7614	-42.8548	-4.58897	4.89885	-0.0241255	19.7013	0.457032	-1.80734	-4.60199	1.36052	-0.220902	-0.0753206	5.05959	-1.14633	2.69265	1.61987	-1.44959	-0.198113	0.315503	-0.00540515	0.0241398	-0.087726	-0.616395	-1.52492	-0.00563223	0.619099	0.00626106	0.0551344	-0.021642
1.91202	5.87768	-7.68137	0.225345	3.32884	-0.621125	-4.78935	-16.9005	-39.1478	10.5721	-41.7444	-5.5835	4.92528	-0.0240887	17.9926	0.261977	-1.72093	-4.51164	1.26352	-0.202238	-0.0693681	5.74373	-1.5679	2.06589	1.35349	-1.22651	-0.133421	0.364039	-0.00286286	0.026488	-0.0728216	-0.60193	-1.57848	-0.0315666	0.601887	0.00633219	0.0533521	-0.0244126
1.91868	4.50428	-7.17589	-0.147706	4.81632	1.78617	-13.0911	-16.1431	-39.0628	10.3275	-40.4637	-6.57956	4.92398	-0.0242886	16.2287	0.184239	-1.65505	-4.34337	1.15893	-0.17983	-0.0632308	6.40025	-1.90699	1.44094	1.07811	-1.02204	-0.0747293	0.410114	-0.000318885	0.0301725	-0.0586976	-0.587051	-1.63014	-0.0558596	0.585672	0.00629452	0.0518247	-0.02702
1.92533	3.16565	-6.42672	-0.483405	5.88105	5.82132	-21.0456	-15.4492	-38.8167	10.0298	-39.0361	-7.57867	4.89548	-0.0246856	14.4572	0.216354	-1.61524	-4.10562	1.05102	-0.154574	-0.0571417	7.01531	-2.16349	0.827579	0.805472	-0.847703	-0.0243355	0.451495	0.00200873	0.0346598	-0.0460523	-0.57116	-1.67877	-0.0784305	0.570784	0.006177	0.0505787	-0.0294512
1.93199	1.91421	-5.46885	-0.779161	6.53238	11.3231	-28.5156	-14.82	-38.4137	9.6811	-37.4845	-8.58288	4.84125	-0.0252409	12.7239	0.340828	-1.6019	-3.80925	0.943918	-0.127631	-0.0513065	7.57445	-2.33713	0.233038	0.544008	-0.711793	0.0161731	0.486737	0.00396216	0.0394686	-0.0353184	-0.553457	-1.72339	-0.0992659	0.557514	0.00600567	0.0496302	-0.0316971
1.93864	0.789268	-4.34275	-1.03304	6.77504	18.105	-35.3565	-14.2516	-37.8611	9.28403	-35.8309	-9.59499	4.76367	-0.0259169	11.0716	0.547165	-1.61743	-3.46648	0.841339	-0.0999212	-0.0459016	8.06268	-2.4272	-0.337584	0.299456	-0.618972	0.0459703	0.515192	0.00544487	0.0442157	-0.0266937	-0.53285	-1.7632	-0.118426	0.546109	0.00580183	0.0489829	-0.0337555
1.9453	-0.176674	-3.09117	-1.24488	6.61748	25.9445	-41.4131	-13.7354	-37.1713	8.84184	-34.0968	-10.6188	4.66585	-0.0266771	9.53808	0.825083	-1.66298	-3.09045	0.746421	-0.0722857	-0.0410654	8.46434	-2.4324	-0.880775	0.0756904	-0.570381	0.0649424	0.536942	0.00641553	0.0486362	-0.02019	-0.507861	-1.79755	-0.136057	0.536768	0.00558033	0.0486276	-0.0356348
1.95195	-0.868041	-5.09313	-1.17969	1.6143	-3.10485	3.35855	-10.3953	-37.2225	8.30048	-33.1622	-11.689	4.5607	-0.0250563	11.2866	1.91693	-1.96697	-3.70801	0.687549	-0.0466541	-0.0371205	4.15724	-1.37029	-1.38104	0.706001	-0.519857	-0.00580481	0.620969	0.00231943	0.0539061	-0.0313759	0.202521	-1.6787	-0.231567	0.574173	0.00134356	0.0461042	-0.0486944
1.95861	-1.39496	-4.40849	-1.37737	1.52503	-3.12917	3.32596	-9.70189	-36.3115	7.77461	-31.4247	-12.7447	4.43887	-0.0254019	10.2997	2.2778	-2.06665	-3.47517	0.613097	-0.0222327	-0.0333581	3.95967	-1.25894	-1.8676	0.599281	-0.506569	-0.0115214	0.639131	0.00201502	0.0572918	-0.0296932	0.295851	-1.68908	-0.253132	0.563497	0.000696745	0.0453831	-0.0510582
1.96526	-1.7301	-3.71588	-1.56335	1.44667	-3.16439	3.29322	-9.07553	-35.3023	7.22286	-29.6662	-13.8145	4.31224	-0.0257388	9.4112	2.64148	-2.18061	-3.23577	0.549851	0.000187856	-0.0302572	3.73704	-1.1177	-2.32342	0.49576	-0.516812	-0.0224797	0.651853	0.00145751	0.0601592	-0.0290393	0.383935	-1.6979	-0.272222	0.552419	0.000102946	0.0447671	-0.0530661
1.97192	-1.8864	-3.03271	-1.74048	1.37709	-3.20969	3.26104	-8.50913	-34.2317	6.65354	-27.9065	-14.9061	4.18576	-0.0260552	8.62657	2.99835	-2.30469	-2.9942	0.498331	0.0202311	-0.0278204	3.49108	-0.946993	-2.7469	0.393652	-0.544795	-0.0369355	0.660351	0.000737482	0.062613	-0.0291054	0.46745	-1.70592	-0.289031	0.541097	-0.000437469	0.0442255	-0.054749
1.97857	-1.88881	-2.37796	-1.91287	1.31425	-3.26597	3.23101	-7.99421	-33.1431	6.07573	-26.1667	-16.0285	4.06405	-0.0263417	7.94866	3.33959	-2.43401	-2.75379	0.458618	0.0376081	-0.0260291	3.22504	-0.748802	-3.13647	0.291647	-0.584548	-0.0531846	0.665908	-5.51699e-05	0.0647848	-0.0296106	0.54715	-1.71403	-0.30378	0.529621	-0.000928435	0.0437217	-0.0561444
1.98523	-1.77332	-1.7733	-2.0854	1.25707	-3.33516	3.20512	-7.51984	-32.0855	5.4989	-24.4699	-17.1914	3.95128	-0.0265917	7.37797	3.65714	-2.56328	-2.51676	0.430457	0.0521058	-0.0248496	2.94362	-0.527094	-3.49056	0.189022	-0.630416	-0.0696732	0.669753	-0.0008388	0.0668083	-0.0303172	0.623785	-1.72313	-0.316692	0.518027	-0.00137705	0.0432168	-0.0572953
1.99188	-1.58409	-1.24201	-2.26278	1.20379	-3.41775	3.18484	-7.07222	-31.111	4.93238	-22.8412	-18.4045	3.85096	-0.0268006	6.91262	3.94362	-2.68697	-2.28406	0.413342	0.0635704	-0.0242379	2.65246	-0.28757	-3.80766	0.0856539	-0.677477	-0.085075	0.672955	-0.00154528	0.0687987	-0.0310387	0.698058	-1.73408	-0.327982	0.506304	-0.00179262	0.042672	-0.0582469
1.99853	-1.3676	-0.808101	-2.44848	1.15637	-3.51229	3.17042	-6.63474	-30.2707	4.38475	-21.3066	-19.6775	3.7659	-0.0269664	6.54875	4.19204	-2.79943	-2.05545	0.406617	0.0718907	-0.024145	2.35792	-0.0373425	-4.08637	-0.0179516	-0.721736	-0.0983423	0.676383	-0.00212327	0.0708415	-0.0316429	0.770559	-1.74758	-0.337833	0.494439	-0.0021848	0.0420554	-0.0590449
2.00519	-1.16456	-0.493638	-2.64291	1.11743	-3.61461	3.16067	-6.1886	-29.6088	3.86291	-19.8914	-21.0189	3.69824	-0.027089	6.28019	4.39578	-2.89512	-1.82933	0.409532	0.0769853	-0.0245203	2.06658	0.216423	-4.32541	-0.12073	-0.760361	-0.108729	0.680643	-0.00253978	0.0729835	-0.0320486	0.841748	-1.76402	-0.346397	0.482443	-0.00256265	0.0413438	-0.0597332
2.01184	-1.0032	-0.317046	-2.84238	1.08948	-3.71985	3.15398	-5.7139	-29.1569	3.37145	-18.6176	-22.4367	3.64952	-0.02717	6.09854	4.54881	-2.96873	-1.60284	0.42131	0.0787934	-0.025315	1.78504	0.467223	-4.52365	-0.221133	-0.791755	-0.115792	0.686059	-0.00278016	0.0752301	-0.0322199	0.91195	-1.78339	-0.353781	0.470392	-0.00293335	0.0405283	-0.0603528
2.0185	-0.895264	-0.290334	-3.03902	1.07402	-3.82406	3.14886	-5.19145	-28.9305	2.91238	-17.5019	-23.9378	3.62073	-0.0272121	5.99283	4.64593	-3.01545	-1.37192	0.441167	0.0772725	-0.0264831	1.51941	0.709595	-4.68031	-0.317252	-0.815517	-0.119373	0.692675	-0.00284659	0.0775467	-0.0321571	0.981397	-1.80518	-0.36006	0.458458	-0.00330148	0.0396165	-0.0609413
2.02515	-0.835396	-0.41629	-3.22145	1.0722	-3.92536	3.14476	-4.60497	-28.9278	2.48536	-16.5539	-25.5279	3.61246	-0.0272182	5.94907	4.68282	-3.03098	-1.13127	0.468329	0.072396	-0.0279823	1.27475	0.939001	-4.79509	-0.406969	-0.832276	-0.119559	0.700293	-0.00275503	0.0798658	-0.031886	1.05026	-1.82842	-0.365284	0.446915	-0.00366892	0.038633	-0.0615324
2.03181	-0.803145	-0.685024	-3.37618	1.08789	-4.02452	3.14187	-3.94377	-29.1315	2.08834	-15.7749	-27.2121	3.62484	-0.0271907	5.94967	4.6557	-3.01158	-0.874456	0.502025	0.0641502	-0.0297735	1.05449	1.15149	-4.86841	-0.488118	-0.843409	-0.116631	0.708532	-0.00253118	0.0820971	-0.0314466	1.11875	-1.85181	-0.369503	0.436121	-0.00403555	0.0376165	-0.0621575
2.03846	-0.773859	-1.07206	-3.48949	1.11312	-4.12419	3.14226	-3.20476	-29.5129	1.71842	-15.158	-28.9941	3.65767	-0.0271315	5.97296	4.56698	-2.95646	-0.593759	0.541439	0.0526888	-0.0318225	0.859756	1.34407	-4.90144	-0.558633	-0.850846	-0.111012	0.71688	-0.00220665	0.084138	-0.0308828	1.18713	-1.8738	-0.372778	0.42651	-0.0043998	0.0366183	-0.0628457
2.04512	-0.709968	-1.53587	-3.5476	1.1498	-4.22877	3.14771	-2.39305	-30.0365	1.37265	-14.6887	-30.8765	3.71038	-0.0270412	5.99234	4.4134	-2.86266	-0.280537	0.58575	0.0380179	-0.0340936	0.68906	1.51444	-4.89613	-0.61669	-0.856726	-0.103209	0.724779	-0.00181464	0.0858857	-0.0302341	1.25582	-1.89284	-0.375208	0.418541	-0.00476002	0.035696	-0.0636256
2.05177	-0.573836	-2.02006	-3.53826	1.1968	-4.34315	3.16038	-1.52078	-30.6659	1.04859	-14.3473	-32.8605	3.7821	-0.0269195	5.97598	4.19242	-2.72799	0.0748419	0.634064	0.0201808	-0.0365506	0.538182	1.66118	-4.85516	-0.660827	-0.86317	-0.0937672	0.731688	-0.00138631	0.0872483	-0.029529	1.32536	-1.90756	-0.376932	0.412664	-0.00511525	0.0349088	-0.064525
2.05843	-0.333166	-2.45642	-3.45194	1.25226	-4.47188	3.18219	-0.604725	-31.3675	0.744734	-14.111	-34.9453	3.87161	-0.0267656	5.88679	3.90274	-2.55131	0.482766	0.685371	-0.000717085	-0.0391546	0.400394	1.78334	-4.7819	-0.690045	-0.872022	-0.0832221	0.737138	-0.000948019	0.088153	-0.0287819	1.3964	-1.9169	-0.378139	0.409263	-0.00546652	0.0343114	-0.0655717
2.06508	0.0351775	-2.77031	-3.28252	1.31427	-4.61972	3.21524	0.337109	-32.1144	0.460572	-13.9568	-37.1288	3.97744	-0.0265781	5.68316	3.54432	-2.33252	0.953929	0.738513	-0.0245078	-0.0418619	0.267158	1.88006	-4.68032	-0.703843	-0.884713	-0.0720717	0.740779	-0.00051981	0.0885517	-0.0279932	1.46967	-1.92034	-0.379069	0.408628	-0.00581727	0.0339501	-0.0667938
2.07174	0.539565	-2.89089	-3.03082	1.39218	-4.79341	3.26107	1.28941	-32.8875	0.196467	-13.864	-39.4062	4.09777	-0.0263559	5.32067	3.11898	-2.0729	1.49865	0.792146	-0.0509346	-0.044621	0.131655	1.94786	-4.55733	-0.70168	-0.902048	-0.060596	0.742438	-0.000139957	0.0884211	-0.0271377	1.54594	-1.91826	-0.380164	0.410854	-0.00616581	0.0338544	-0.0682365
2.07839	1.16201	-2.75957	-2.7053	1.48344	-5.0047	3.32995	2.24178	-33.6734	-0.0465219	-13.8155	-41.7707	4.23047	-0.0260989	4.75909	2.64593	-1.78092	2.12515	0.844652	-0.0792355	-0.0473766	-0.0129641	1.98404	-4.41971	-0.683855	-0.924143	-0.0490103	0.742102	0.000174951	0.0877737	-0.0261781	1.62589	-1.91175	-0.381849	0.415859	-0.00652059	0.0340362	-0.069938
2.08505	1.89658	-2.32314	-2.31186	1.59272	-5.26473	3.43394	3.19065	-34.4646	-0.266988	-13.7995	-44.2126	4.37308	-0.0258083	3.95698	2.13323	-1.46092	2.84084	0.894278	-0.10891	-0.0500582	-0.173869	1.99074	-4.27327	-0.651213	-0.950759	-0.0374809	0.739867	0.000419863	0.0866496	-0.0250725	1.71017	-1.9021	-0.38452	0.423455	-0.00689421	0.034493	-0.0719302
2.0917	2.75202	-1.53038	-1.85366	1.74347	-5.56069	3.56939	4.13648	-35.2527	-0.463769	-13.808	-46.7193	4.5228	-0.0254897	2.87317	1.58173	-1.11588	3.65195	0.939114	-0.13956	-0.052582	-0.358993	1.97631	-4.12204	-0.60518	-0.981038	-0.0260389	0.735985	0.00060158	0.0851232	-0.0237703	1.79877	-1.89118	-0.388492	0.433226	-0.00730102	0.0351989	-0.0742264
2.09835	3.72434	-0.330611	-1.3383	1.93512	-5.83823	3.71071	5.07931	-36.0293	-0.636024	-13.8359	-49.275	4.67652	-0.025153	1.47245	1.00557	-0.753902	4.56301	0.977001	-0.170411	-0.0548565	-0.578518	1.95337	-3.96845	-0.547655	-1.01393	-0.0145926	0.730747	0.000734647	0.0832871	-0.0222136	1.89074	-1.881	-0.393921	0.444604	-0.00775077	0.0361145	-0.0768072
2.10501	4.77432	1.30861	-0.785116	2.16732	-6.04774	3.82156	6.02208	-36.7915	-0.78316	-13.8827	-51.8611	4.83077	-0.0248089	-0.269414	0.431208	-0.386594	5.5755	1.00559	-0.200407	-0.056781	-0.840942	1.92471	-3.81536	-0.480847	-1.04805	-0.00298366	0.72445	0.000836083	0.0812343	-0.0203494	1.98462	-1.87357	-0.400832	0.456942	-0.00824839	0.0371981	-0.0796318
2.11166	5.78001	3.35973	-0.238926	2.34278	-6.15928	3.89071	6.97845	-37.543	-0.905022	-13.9546	-54.4559	4.98183	-0.0244646	-2.34452	-0.0549449	-0.0407806	6.6867	1.02235	-0.22711	-0.0582725	-1.14505	1.88557	-3.66684	-0.407098	-1.08236	0.00887625	0.717288	0.000917679	0.0790363	-0.0181482	2.07901	-1.87019	-0.409183	0.469728	-0.00879456	0.0384205	-0.0826608
2.11832	6.71632	5.75998	0.283168	2.48591	-6.19483	3.92147	7.96942	-38.2841	-1.00219	-14.0616	-57.0351	5.12587	-0.024125	-4.73066	-0.452808	0.281435	7.88239	1.0252	-0.250135	-0.0592031	-1.48294	1.83334	-3.52636	-0.328824	-1.11575	0.0210729	0.709418	0.000989299	0.0767563	-0.0155985	2.17247	-1.87173	-0.418886	0.482459	-0.0093894	0.0397479	-0.0858535
2.12497	7.52937	8.40992	0.753272	2.59797	-6.17733	3.92691	9.01717	-39.0084	-1.07576	-14.2152	-59.572	5.25915	-0.0237931	-7.37651	-0.729953	0.568502	9.14435	1.01219	-0.268223	-0.0594687	-1.84354	1.76641	-3.39631	-0.248681	-1.14669	0.033788	0.700991	0.00106335	0.0744566	-0.0126949	2.2632	-1.87913	-0.429779	0.494495	-0.0100329	0.0411294	-0.0891565
2.13163	8.14978	13.1561	2.02728	-12.5687	11.7512	-25.5072	7.89671	-40.6509	-1.01313	-13.9685	-62.0213	5.36025	-0.0244063	-11.697	0.248478	0.744699	11.0128	0.992732	-0.274384	-0.0603389	0.524289	3.25998	-3.19503	-0.486776	-1.49579	0.0611584	0.628518	0.00199588	0.0695621	-0.00449404	1.88154	-1.68549	-0.376361	0.526362	-0.00659184	0.0465897	-0.0822244
2.13828	8.55987	15.655	2.21568	-9.23514	3.34295	-31.2297	8.7616	-41.1541	-1.04404	-14.1839	-64.4043	5.456	-0.0237316	-15.2075	0.116221	0.978796	12.408	0.937947	-0.280995	-0.0587394	0.62908	2.82896	-3.10832	-0.525724	-1.44223	0.0994844	0.611516	0.00317745	0.0683445	0.00176612	1.89693	-1.72458	-0.383167	0.515057	-0.00722099	0.0462733	-0.084162
2.14494	8.75047	18.0067	2.30378	-6.16726	-4.46108	-36.7154	9.74374	-41.6264	-1.05537	-14.475	-66.6658	5.52462	-0.0230752	-18.6743	0.171485	1.15379	13.7876	0.866151	-0.280026	-0.0563387	0.739336	2.41693	-3.03309	-0.567764	-1.38999	0.138502	0.592831	0.0043444	0.0671289	0.00825974	1.90647	-1.76637	-0.390396	0.503499	-0.00786814	0.0460248	-0.0860595
2.15159	8.74741	20.0611	2.29569	-3.40623	-11.4183	-41.7804	10.861	-42.0501	-1.04839	-14.849	-68.7754	5.56522	-0.0224358	-21.9607	0.393784	1.27403	15.1095	0.778797	-0.27161	-0.0531519	0.853199	2.03419	-2.96959	-0.611794	-1.34063	0.177452	0.572465	0.00546665	0.0658712	0.0148761	1.91015	-1.80919	-0.397776	0.491949	-0.00852254	0.0458561	-0.0878691
2.15825	8.58721	21.6738	2.20028	-0.976365	-17.2679	-46.2641	12.1241	-42.4013	-1.02453	-15.3094	-70.7015	5.578	-0.0218098	-24.9266	0.756888	1.34572	16.329	0.678343	-0.256069	-0.0492462	0.968559	1.68927	-2.91829	-0.65688	-1.29567	0.215539	0.550384	0.00651529	0.0645161	0.0215052	1.90809	-1.85133	-0.40503	0.480681	-0.00917345	0.0457777	-0.0895443
2.1649	8.31016	22.7131	2.02377	1.11229	-21.7135	-50.0549	13.5356	-42.6514	-0.985299	-15.8556	-72.4122	5.56426	-0.0211927	-27.4402	1.2322	1.37703	17.4016	0.568289	-0.233908	-0.0447487	1.0895	1.3872	-2.88641	-0.701501	-1.25707	0.252067	0.526548	0.00743569	0.0630001	0.0280594	1.90071	-1.89168	-0.412164	0.469966	-0.00981032	0.0458045	-0.0910715
2.17156	7.96777	23.0819	1.7817	2.86183	-24.4579	-53.0866	15.0894	-42.7689	-0.932354	-16.4825	-73.875	5.52629	-0.0205809	-29.3889	1.78572	1.37806	18.2852	0.453033	-0.205916	-0.0398394	1.21543	1.13284	-2.87715	-0.745072	-1.22635	0.286373	0.500939	0.00819256	0.0612753	0.0344568	1.8883	-1.92902	-0.419107	0.460066	-0.0104198	0.0459492	-0.0924302
2.17821	7.66388	22.7357	1.51671	4.34207	-25.2112	-55.3568	16.7708	-42.7218	-0.867375	-17.1812	-75.0575	5.46718	-0.0199736	-30.7015	2.3348	1.36438	18.9407	0.337937	-0.174237	-0.0347288	1.34418	0.930922	-2.89234	-0.787508	-1.20482	0.317835	0.473536	0.00876553	0.0593014	0.0406222	1.87121	-1.96213	-0.425743	0.451257	-0.0109883	0.0462239	-0.0935983
2.18486	7.46261	21.6668	1.25783	5.57375	-23.6878	-56.906	18.5574	-42.4793	-0.792075	-17.9384	-75.9279	5.39054	-0.0193743	-31.3317	2.8362	1.34598	19.3377	0.228586	-0.140325	-0.029676	1.47284	0.785884	-2.9331	-0.829031	-1.1936	0.345889	0.444341	0.0091447	0.0570462	0.0464895	1.84986	-1.98983	-0.431941	0.443813	-0.0115035	0.0466384	-0.0945571
2.19152	7.41941	19.9118	1.03342	6.57574	-19.6295	-57.8153	20.4203	-42.0139	-0.708246	-18.7382	-76.4552	5.30025	-0.0187932	-31.2689	3.25349	1.33115	19.4552	0.130602	-0.105722	-0.0249586	1.59803	0.701531	-2.9999	-0.870047	-1.19357	0.37006	0.413395	0.00932813	0.0544878	0.0520026	1.82482	-2.01115	-0.437583	0.437985	-0.0119555	0.047198	-0.095295
2.19817	7.57808	17.5465	0.868958	7.36636	-12.8217	-58.1923	22.3257	-41.3024	-0.617833	-19.5618	-76.6105	5.20025	-0.0182488	-30.5386	3.55784	1.32575	19.2834	0.0492442	-0.0720408	-0.0208496	1.71709	0.680857	-3.09329	-0.911003	-1.20528	0.389966	0.380798	0.00932014	0.0516152	0.0571154	1.79686	-2.02529	-0.442568	0.433994	-0.0123373	0.0479026	-0.0958099
2.20483	7.97005	14.6819	0.786957	7.96603	-3.10714	-58.1507	24.2367	-40.3278	-0.523032	-20.3888	-76.3668	5.09429	-0.0177695	-29.1994	3.72722	1.3326	18.8246	-0.0109824	-0.0409563	-0.0175942	1.8271	0.725823	-3.2129	-0.952295	-1.22892	0.405344	0.346734	0.00913056	0.0484324	0.0617923	1.76688	-2.0317	-0.446834	0.432014	-0.0126454	0.0487459	-0.0961108
2.21148	8.61408	11.4556	0.806063	8.39986	9.6042	-57.7938	26.1154	-39.0789	-0.426385	-21.1975	-75.7008	4.9857	-0.0173947	-27.3381	3.74548	1.35129	18.0937	-0.0466785	-0.0141888	-0.0153879	1.92494	0.837169	-3.35719	-0.994177	-1.26427	0.416056	0.311481	0.00877398	0.0449595	0.0660067	1.7359	-2.03007	-0.450347	0.432165	-0.0128792	0.0497156	-0.0962171
2.21814	9.51585	8.0234	0.940276	8.69946	25.3299	-57.1993	27.9241	-37.5522	-0.330835	-21.9653	-74.593	4.87714	-0.0171749	-25.0636	3.60166	1.37836	17.118	-0.0558204	0.00655785	-0.0143583	2.00709	1.0141	-3.52311	-1.03669	-1.31063	0.422089	0.275422	0.00826907	0.041233	0.0697398	1.70499	-2.02034	-0.453104	0.434504	-0.013041	0.0507931	-0.0961571
2.22479	10.6664	4.54969	1.19736	8.90235	44.0141	-56.4122	29.6265	-35.7515	-0.239759	-22.6695	-73.0287	4.77041	-0.0171717	-22.4987	3.29103	1.40792	15.9355	-0.0379326	0.0197233	-0.0145542	2.06972	1.25401	-3.70594	-1.07964	-1.36685	0.42356	0.23904	0.00763827	0.0373057	0.0729788	1.67519	-2.00275	-0.455122	0.439012	-0.0131352	0.0519541	-0.0959651
2.23145	12.0407	1.19717	1.57712	9.05088	65.5298	-55.4423	31.1891	-33.6885	-0.156968	-23.287	-70.9993	4.6663	-0.0174558	-19.7716	2.81653	1.43268	14.5926	0.00586199	0.0240529	-0.015941	2.10904	1.55218	-3.89942	-1.12264	-1.43134	0.420708	0.202914	0.00690715	0.0332453	0.0757154	1.64734	-1.97783	-0.456434	0.445583	-0.0131674	0.0531691	-0.0956769
2.2381	13.5952	-1.88212	2.06964	9.18739	89.6843	-54.2692	32.5825	-31.3831	-0.0866881	-23.7954	-68.5035	4.56451	-0.0181037	-17.0074	2.19192	1.44521	13.1417	0.0729077	0.0188088	-0.0184047	2.12126	1.90147	-4.09567	-1.16515	-1.50212	0.413888	0.167703	0.00610387	0.0291327	0.0779443	1.62199	-1.94648	-0.457075	0.454011	-0.0131436	0.0544032	-0.095326
2.24476	15.2654	-4.55985	2.65259	9.34868	116.224	-52.8545	33.7831	-28.8633	-0.0333972	-24.1731	-65.5484	4.4636	-0.0191941	-14.3199	1.44457	1.43901	11.637	0.159198	0.00396349	-0.0217617	2.10531	2.29245	-4.28749	-1.20649	-1.57696	0.40354	0.134125	0.00525822	0.0250553	0.0796617	1.59935	-1.90994	-0.457081	0.463985	-0.0130687	0.0556176	-0.0949389
2.25141	16.9665	-6.73502	3.2935	9.55751	144.847	-51.1511	34.774	-26.1657	-0.00156473	-24.4006	-62.1516	4.36102	-0.0208019	-11.8044	0.617138	1.4093	10.1316	0.259665	-0.0196729	-0.0257755	2.06072	2.71352	-4.46656	-1.24593	-1.65341	0.390182	0.10294	0.0044004	0.0211083	0.0808644	1.57907	-1.86978	-0.45648	0.475105	-0.0129457	0.0567725	-0.0945316
2.25807	18.5947	-8.34722	3.94902	9.82095	175.185	-49.1103	35.5486	-23.3352	0.00454611	-24.4619	-58.3422	4.25305	-0.0229909	-9.53315	-0.234113	1.35329	8.67347	0.36853	-0.0504417	-0.0301753	1.99092	3.15094	-4.62757	-1.28267	-1.72901	0.374355	0.0749009	0.00356004	0.0173826	0.0815497	1.56064	-1.82791	-0.455324	0.486886	-0.0127763	0.0578259	-0.094113
2.26472	20.0341	-9.37021	4.57246	10.1199	206.842	-46.7013	36.1088	-20.4259	-0.0185483	-24.3453	-54.1627	4.13487	-0.0258069	-7.55323	-1.04224	1.27007	7.30345	0.479752	-0.0859439	-0.0346795	1.89999	3.59009	-4.76461	-1.31581	-1.8014	0.356598	0.050775	0.00276357	0.0139689	0.0817117	1.54293	-1.78636	-0.453665	0.498819	-0.0125576	0.0587424	-0.09368
2.27138	21.1648	-9.8149	5.11764	10.414	239.369	-43.912	36.4666	-17.4998	-0.0732349	-24.0449	-49.6696	4.00067	-0.0292699	-5.88698	-1.73699	1.1601	6.05306	0.587451	-0.123289	-0.0390167	1.79327	4.01568	-4.87311	-1.34435	-1.86846	0.337393	0.0312905	0.00203327	0.0109487	0.0813411	1.52458	-1.74724	-0.451595	0.510394	-0.0122838	0.0594929	-0.0932251
2.27803	21.8767	-9.72335	5.54418	10.6473	272.282	-40.7563	36.6412	-14.6247	-0.160299	-23.5606	-44.9338	3.84403	-0.0333717	-4.53478	-2.25426	1.02477	4.9437	0.686392	-0.159459	-0.0429489	1.67703	4.41278	-4.9506	-1.36695	-1.92847	0.317174	0.0171315	0.00138012	0.00839543	0.0804296	1.50422	-1.71252	-0.449206	0.521134	-0.0119504	0.0600533	-0.0927343
2.28468	22.0851	-9.16544	5.8208	10.7615	305.052	-37.283	36.6537	-11.8697	-0.278638	-22.8973	-40.0391	3.65849	-0.0380832	-3.47835	-2.54701	0.865672	3.98639	0.772403	-0.19173	-0.0462897	1.56112	4.76845	-4.99915	-1.38205	-1.98027	0.296327	0.00888956	0.000802817	0.00637145	0.0789744	1.48072	-1.68341	-0.446455	0.53063	-0.0115576	0.0603974	-0.0921743
2.29134	21.7431	-8.21472	5.93074	10.7095	337.146	-33.5679	36.5229	-9.29697	-0.425587	-22.063	-35.0809	3.4386	-0.0433207	-2.68775	-2.5885	0.685524	3.18324	0.842358	-0.217854	-0.0488999	1.45101	5.0713	-5.0174	-1.38795	-2.02276	0.275125	0.007152	0.000290842	0.00493221	0.0769599	1.45296	-1.66084	-0.443234	0.538561	-0.0111058	0.0605095	-0.0915072
2.29799	20.8351	-6.93442	5.8731	10.4432	368.053	-29.7217	36.2533	-6.96934	-0.593984	-21.0659	-30.1616	3.18062	-0.0489517	-2.12489	-2.37628	0.48832	2.5288	0.894385	-0.236305	-0.0506972	1.35031	5.3124	-5.00246	-1.3829	-2.05522	0.253629	0.0124378	-0.000167949	0.0041127	0.0743539	1.4199	-1.64543	-0.439471	0.544711	-0.0105921	0.0603859	-0.0907034
2.30465	19.3922	-5.38979	5.65984	9.93013	397.241	-25.9054	35.8323	-4.93779	-0.774915	-19.9141	-25.385	2.88351	-0.0548717	-1.74637	-1.94061	0.277506	2.01011	0.92808	-0.246664	-0.0516602	1.26907	5.48757	-4.95553	-1.36575	-2.07796	0.231901	0.0248818	-0.000580976	0.00392392	0.0711501	1.38061	-1.63603	-0.434835	0.54895	-0.0100154	0.0600084	-0.0897016
2.3113	17.4856	-3.63157	5.30793	9.1665	424.291	-22.2473	35.2414	-3.2337	-0.957785	-18.615	-20.8508	2.55024	-0.0608877	-1.50387	-1.32672	0.0597173	1.61092	0.944034	-0.249074	-0.051815	1.211	5.59476	-4.87581	-1.33458	-2.09106	0.209733	0.0448388	-0.00096945	0.00437023	0.0673014	1.33465	-1.632	-0.429092	0.55121	-0.00937661	0.0593762	-0.0884592
2.31796	15.2145	-1.69511	4.84025	8.16418	448.903	-18.8547	34.4526	-1.87221	-1.13087	-17.1751	-16.6479	2.18785	-0.0667719	-1.34769	-0.594146	-0.156768	1.31252	0.943831	-0.244346	-0.0512328	1.17743	5.63451	-4.76085	-1.28732	-2.09483	0.186756	0.0726259	-0.001359	0.00544074	0.0627485	1.28167	-1.63259	-0.422056	0.551493	-0.00867848	0.0584992	-0.0869435
2.32461	12.6963	0.392748	4.28135	6.94926	470.901	-15.8027	33.4333	-0.852973	-1.28208	-15.5997	-12.8489	1.80742	-0.0722779	-1.22807	0.189651	-0.362729	1.09523	0.92985	-0.233796	-0.050021	1.16978	5.61	-4.60902	-1.22189	-2.08983	0.162474	0.108516	-0.00177833	0.00711011	0.0574233	1.22156	-1.63693	-0.413585	0.549836	-0.00792627	0.0573919	-0.0851293
2.33127	10.0615	2.61067	3.65343	5.56802	490.232	-13.1218	32.1524	-0.155458	-1.40186	-13.8947	-9.50642	1.42348	-0.0771568	-1.09714	0.957338	-0.548853	0.939707	0.904988	-0.219018	-0.0483117	1.1879	5.52642	-4.41865	-1.13618	-2.07669	0.136352	0.15274	-0.00225713	0.00934576	0.0512565	1.15433	-1.64422	-0.403576	0.546274	-0.00712898	0.0560705	-0.0829984
2.33792	7.43042	4.94191	2.97618	4.066	506.947	-10.8081	30.5825	0.246935	-1.48069	-12.0674	-6.6515	1.05248	-0.081162	-0.911252	1.64932	-0.706725	0.828198	0.872386	-0.201655	-0.0462501	1.23183	5.39067	-4.18956	-1.0282	-2.05599	0.10785	0.205488	-0.00282513	0.0121097	0.0441812	1.08016	-1.65376	-0.391964	0.540827	-0.00629916	0.0545506	-0.0805374
2.34458	4.89262	7.37985	2.26906	2.46685	521.189	-8.8309	28.7005	0.372901	-1.50576	-10.1275	-4.29296	0.710653	-0.0840546	-0.633726	2.21983	-0.8298	0.745555	0.835159	-0.183203	-0.0439839	1.29985	5.21065	-3.92182	-0.896201	-2.02816	0.076517	0.266889	-0.00350921	0.0153647	0.0361421	0.999308	-1.66503	-0.378706	0.533484	-0.00545356	0.0528472	-0.0777363
2.35123	2.52342	9.9218	1.54272	0.801619	533.172	-7.14155	26.4918	0.25307	-1.46789	-8.08454	-2.41907	0.41257	-0.0856268	-0.237429	2.64079	-0.914183	0.67991	0.796177	-0.164867	-0.0416533	1.39011	4.99505	-3.61705	-0.738848	-1.99344	0.0420257	0.336979	-0.00433153	0.0190739	0.0271019	0.912125	-1.67765	-0.363768	0.524213	-0.00461199	0.0509749	-0.0745861
2.35789	0.370957	12.5748	0.802071	-0.907201	543.161	-5.68509	23.949	-0.081554	-1.35927	-5.94661	-1.00035	0.169109	-0.0857092	0.293031	2.90325	-0.959071	0.623084	0.7579	-0.147489	-0.0393833	1.49891	4.75278	-3.27723	-0.555474	-1.9518	0.00425607	0.415641	-0.00530613	0.0232038	0.0170531	0.818967	-1.69134	-0.3471	0.51297	-0.00379706	0.0489492	-0.0710761
2.36454	-1.54197	15.3469	0.0494764	-2.67461	551.42	-4.42135	21.0758	-0.602515	-1.17397	-3.72019	0.00662421	-0.0136583	-0.0842006	0.958531	3.01761	-0.966781	0.570756	0.722125	-0.131509	-0.0372697	1.62387	4.49672	-2.90614	-0.346701	-1.90336	-0.0366567	0.502385	-0.00643525	0.0277163	0.00603471	0.720468	-1.70406	-0.328028	0.499848	-0.0030343	0.0467878	-0.0671227
2.3712	-3.19867	18.2468	-0.720609	-4.48595	558.244	-3.31276	17.891	-1.26667	-0.914516	-1.4097	0.654119	-0.134105	-0.0810538	1.74734	3.00867	-0.942328	0.52195	0.690197	-0.117054	-0.0353905	1.76074	4.23856	-2.50744	-0.114277	-1.84794	-0.0802914	0.596466	-0.00770904	0.0325739	-0.00586669	0.61699	-1.71399	-0.305824	0.485028	-0.00235015	0.0445361	-0.0626328
2.37785	-4.871	20.0662	-1.20698	-6.63668	562.911	-1.43116	15.5392	-2.26011	-0.596059	0.223896	1.17204	-0.244025	-0.076274	2.63601	2.90836	-0.892711	0.478301	0.663081	-0.104079	-0.0338069	1.90511	3.98564	-2.08765	0.13866	-1.78511	-0.125928	0.696854	-0.00910444	0.0377338	-0.0185097	0.508613	-1.72086	-0.280299	0.4687	-0.00176466	0.0422671	-0.057578
2.3845	-5.82887	24.4852	-2.34699	-8.12312	568.897	-1.50721	10.7177	-2.91217	-0.177844	3.45684	1.09642	-0.203113	-0.0699639	3.58887	2.75249	-0.826053	0.443619	0.641252	-0.0924262	-0.0325537	2.05264	3.74293	-1.65649	0.40697	-1.71463	-0.172491	0.80198	-0.010581	0.0431402	-0.0316768	0.395568	-1.7251	-0.251712	0.451111	-0.00128682	0.0400662	-0.0519933
2.39116	-6.84438	27.8149	-3.22717	-9.76411	573.347	-0.798274	6.85361	-3.81638	0.278965	6.00253	1.00059	-0.16501	-0.0623317	4.56061	2.57057	-0.750122	0.422774	0.625065	-0.08203	-0.0316572	2.19786	3.508	-1.22562	0.68403	-1.63555	-0.218413	0.909713	-0.0120815	0.0487149	-0.045044	0.279234	-1.72954	-0.221051	0.432461	-0.000934003	0.0380118	-0.046026
2.39781	-7.7037	31.2313	-4.17984	-11.0688	577.552	-0.241106	2.9328	-4.72004	0.769749	8.60229	0.758571	-0.0887419	-0.053726	5.49817	2.38492	-0.67253	0.420827	0.614414	-0.0729286	-0.0311106	2.34217	3.26648	-0.823027	0.960472	-1.54839	-0.261878	1.0173	-0.013546	0.0543523	-0.058214	0.159899	-1.74181	-0.192306	0.4126	-0.000625595	0.036131	-0.0401836
2.40447	-8.43627	34.6395	-5.20605	-11.9749	581.563	0.103172	-0.907184	-5.5877	1.2691	11.2199	0.410989	0.0185971	-0.0446203	6.3383	2.21878	-0.599464	0.443153	0.608522	-0.0651197	-0.0308661	2.49195	3.01985	-0.475128	1.22268	-1.45527	-0.300662	1.12058	-0.0148858	0.059892	-0.070659	0.0416706	-1.764	-0.167651	0.391908	-0.000332653	0.0343908	-0.0348126
2.41112	-9.04022	37.8989	-6.29162	-12.429	585.331	0.169459	-4.493	-6.36765	1.73982	13.7977	-0.00878928	0.15174	-0.0356088	7.01472	2.08812	-0.535527	0.493655	0.606361	-0.058722	-0.0308558	2.65457	2.77721	-0.206363	1.45331	-1.35946	-0.332201	1.21415	-0.0159914	0.0651194	-0.0817308	-0.0687982	-1.79566	-0.14842	0.371403	-8.10162e-05	0.032769	-0.0301981
2.41778	-9.51787	40.8259	-7.39726	-12.4376	588.717	-0.0944997	-7.61452	-7.01853	2.14651	16.2501	-0.473721	0.306595	-0.0273913	7.46273	2.00267	-0.483753	0.573562	0.606709	-0.0539427	-0.0309952	2.83595	2.55311	-0.0385294	1.63166	-1.26608	-0.353744	1.29138	-0.0167392	0.0697491	-0.0906625	-0.162575	-1.83404	-0.135491	0.352993	7.41783e-05	0.0312982	-0.0266098
2.42443	-9.8507	43.1885	-8.45496	-12.0555	591.54	-0.67099	-10.0172	-7.48337	2.44466	18.4574	-0.961518	0.480721	-0.0207834	7.62826	1.97005	-0.446067	0.679309	0.608217	-0.050977	-0.0311874	3.0329	2.36764	0.0163044	1.73517	-1.18282	-0.362686	1.34449	-0.0170081	0.0734091	-0.0965974	-0.227689	-1.87381	-0.129592	0.339889	6.0447e-05	0.0301036	-0.0243604
2.43109	0	0	0	0	0	0	0	0	0	0	0	0	0	0	0	0	0	0	0	0	0	0	0	0	0	0	0	0	0	0	0	0	0	0	0	0	0
