PathFileType	4	(X/Y/Z)	/tmp/tmpl7fqzvsy/P15/MarkerData/DB4_P15_T20_r_comf_relabeled_segment_3.trc
DataRate	CameraRate	NumFrames	NumMarkers	Units	OrigDataRate	OrigDataStartFrame	OrigNumFrames
100.111	100.111	109	21	m	100.111	0	109
Frame#	Time	C7			CLAV			LANK			LASI			LHEE			LKNE			LPSI			LSHO			LTHI			LTIB			LTOE			RANK			RASI			RHEE			RKNE			RMT5			RPSI			RSHO			RTHI			RTIB			RTOE		
		X1	Y1	Z1	X2	Y2	Z2	X3	Y3	Z3	X4	Y4	Z4	X5	Y5	Z5	X6	Y6	Z6	X7	Y7	Z7	X8	Y8	Z8	X9	Y9	Z9	X10	Y10	Z10	X11	Y11	Z11	X12	Y12	Z12	X13	Y13	Z13	X14	Y14	Z14	X15	Y15	Z15	X16	Y16	Z16	X17	Y17	Z17	X18	Y18	Z18	X19	Y19	Z19	X20	Y20	Z20	X21	Y21	Z21

1	2.96	-2.22213	-1.40495	0.095451	-2.09107	-1.35291	0.086148	-2.48653	-0.215674	0.195691	-2.3123	-1.08589	0.133149	-2.53879	-0.240629	0.14699	-2.17854	-0.441324	0.260859	-2.36573	-0.954626	0.126984	-2.14233	-1.38996	0.27813	-2.1704	-0.607555	0.302041	-2.31904	-0.348213	0.255434	-2.43307	-0.0485712	0.146635	-2.0951	-0.0668504	0.00725806	-2.30591	-1.0879	0.03193	-2.14353	-0.0382869	0.0446508	-2.08276	-0.471494	-0.0549318	-1.94956	-0.0347185	0.0118762	-2.35887	-0.956119	0.0250117	-2.14816	-1.35282	-0.0978178	-2.05507	-0.639414	-0.104566	-2.0924	-0.301368	-0.0469706	-1.91264	-0.0387587	0.0600151
2	2.96999	-2.21075	-1.40683	0.094789	-2.07964	-1.35442	0.0866974	-2.46096	-0.216264	0.192691	-2.30145	-1.08745	0.132176	-2.51396	-0.241009	0.14314	-2.15512	-0.443649	0.260436	-2.35509	-0.956289	0.125624	-2.13296	-1.39155	0.278153	-2.15353	-0.609269	0.301202	-2.29449	-0.350248	0.253861	-2.40247	-0.0507969	0.145666	-2.09516	-0.0668306	0.00721128	-2.29481	-1.08964	0.0309593	-2.14356	-0.0382105	0.0446053	-2.07853	-0.471789	-0.0554259	-1.94906	-0.0349655	0.0123572	-2.34794	-0.95797	0.0236896	-2.1349	-1.35481	-0.0977837	-2.04883	-0.639244	-0.105331	-2.09086	-0.301406	-0.0467013	-1.91266	-0.038661	0.0598371
3	2.97998	-2.19936	-1.40861	0.0942333	-2.06825	-1.35592	0.0874712	-2.43471	-0.215424	0.189689	-2.29065	-1.08927	0.130954	-2.4892	-0.239269	0.140516	-2.13165	-0.445988	0.260167	-2.34442	-0.958144	0.124213	-2.12343	-1.39309	0.278357	-2.13658	-0.611262	0.300616	-2.26987	-0.351844	0.25256	-2.37428	-0.0513912	0.143332	-2.09523	-0.0667664	0.00715569	-2.28364	-1.09145	0.0297857	-2.14361	-0.0381542	0.04458	-2.07421	-0.47198	-0.0555376	-1.94895	-0.0352363	0.0125909	-2.3369	-0.959835	0.0222976	-2.12177	-1.3568	-0.0976015	-2.04341	-0.638884	-0.106229	-2.08899	-0.30167	-0.0470768	-1.91273	-0.0386079	0.0597086
4	2.98997	-2.18803	-1.41034	0.0937574	-2.05699	-1.35744	0.0882027	-2.40828	-0.213668	0.187741	-2.27986	-1.09126	0.129559	-2.46369	-0.235648	0.138175	-2.10822	-0.448325	0.259999	-2.33376	-0.960166	0.122752	-2.11354	-1.39453	0.278698	-2.11961	-0.613384	0.300083	-2.24504	-0.35256	0.251247	-2.35326	-0.0502391	0.1403	-2.09533	-0.06675	0.00711964	-2.27246	-1.09335	0.0283869	-2.14365	-0.038121	0.0445334	-2.07021	-0.472158	-0.0554006	-1.94905	-0.0352032	0.012458	-2.3258	-0.961744	0.0208426	-2.10873	-1.35879	-0.0973301	-2.03739	-0.638553	-0.1072	-2.08473	-0.30208	-0.0476323	-1.91277	-0.0385395	0.059618
5	2.99996	-2.17684	-1.41199	0.0933778	-2.04581	-1.35902	0.0889786	-2.3812	-0.210542	0.185938	-2.26908	-1.09334	0.128053	-2.43804	-0.230145	0.136322	-2.08509	-0.450702	0.259839	-2.32311	-0.962274	0.121279	-2.10373	-1.39594	0.279019	-2.10283	-0.615831	0.299711	-2.22009	-0.352272	0.250032	nan	nan	nan	-2.09562	-0.0669234	0.00730498	-2.26123	-1.09523	0.0268786	-2.14371	-0.0381017	0.0445333	-2.06634	-0.472082	-0.055127	-1.9492	-0.0348983	0.012068	-2.31469	-0.963679	0.0193708	-2.09582	-1.36083	-0.0969973	-2.03084	-0.638206	-0.10747	-2.07942	-0.302516	-0.0482191	-1.91277	-0.0384491	0.0596292
6	3.00994	-2.16574	-1.41353	0.0930627	-2.03474	-1.36062	0.0896532	-2.35352	-0.206224	0.184642	-2.25833	-1.09543	0.126484	-2.41188	-0.223501	0.135302	-2.06251	-0.453265	0.259585	-2.31243	-0.964382	0.119819	-2.09399	-1.39726	0.279291	-2.08597	-0.618465	0.299511	-2.19531	-0.351254	0.249016	nan	nan	nan	-2.09616	-0.0672535	0.00775908	-2.24995	-1.09697	0.0253554	-2.14378	-0.0380656	0.0447882	-2.06308	-0.472034	-0.0551047	-1.94931	-0.0346016	0.011766	-2.30352	-0.965487	0.0179668	-2.08304	-1.36282	-0.0965965	-2.02405	-0.63788	-0.107129	-2.08304	-0.302682	-0.0475136	-1.91275	-0.0383734	0.0597034
7	3.01993	-2.15469	-1.41496	0.0928027	-2.02367	-1.36219	0.0905714	-2.32514	-0.20089	0.183529	-2.24757	-1.09744	0.124916	-2.38453	-0.215504	0.133951	-2.04075	-0.456148	0.25919	-2.30178	-0.966422	0.118448	-2.08402	-1.39838	0.27951	-2.06919	-0.621378	0.299491	-2.17078	-0.349681	0.248233	nan	nan	nan	-2.09628	-0.0672073	0.007915	-2.23863	-1.09857	0.0238499	-2.14377	-0.0376721	0.0453532	-2.06025	-0.472096	-0.0551481	-1.94934	-0.0345773	0.0117626	-2.29229	-0.967108	0.0166776	-2.0704	-1.36471	-0.0961317	-2.01715	-0.637315	-0.106408	-2.08548	-0.302883	-0.0470584	-1.91273	-0.0383215	0.0598197
8	3.02992	-2.14367	-1.41626	0.0926099	-2.01286	-1.36379	0.0912058	-2.29603	-0.194676	0.182672	-2.23674	-1.09927	0.123436	-2.35615	-0.206072	0.132964	-2.01985	-0.459393	0.258676	-2.2911	-0.968299	0.117216	-2.07419	-1.39938	0.279746	-2.05257	-0.624526	0.299648	-2.1465	-0.347783	0.247511	nan	nan	nan	-2.09658	-0.0670531	0.00827354	-2.22728	-1.10001	0.0223822	-2.14376	-0.0369893	0.0456579	-2.05764	-0.472249	-0.0551817	-1.94932	-0.0347377	0.0119406	-2.28106	-0.968545	0.015505	-2.05792	-1.36662	-0.0956939	-2.01052	-0.636533	-0.106271	-2.08501	-0.303074	-0.0470586	-1.91268	-0.0383009	0.0599434
9	3.03991	-2.13267	-1.4174	0.0924579	-2.00209	-1.36528	0.0915898	-2.26596	-0.187438	0.181685	-2.22582	-1.1009	0.122056	-2.32683	-0.19549	0.132258	-1.9999	-0.46287	0.258111	-2.28035	-0.969974	0.116123	-2.06445	-1.40024	0.280043	-2.03636	-0.627603	0.299663	-2.1224	-0.345746	0.246799	nan	nan	nan	-2.09689	-0.0672211	0.00847936	-2.21591	-1.10122	0.0210001	-2.14384	-0.0369145	0.0455925	-2.05502	-0.472374	-0.0553764	-1.94929	-0.0349814	0.0122113	-2.26985	-0.969784	0.0144397	-2.04556	-1.36852	-0.0952988	-2.00389	-0.635846	-0.106148	-2.08346	-0.303127	-0.0471131	-1.91263	-0.0382932	0.060054
10	3.0499	-2.12167	-1.41835	0.0923277	-1.99063	-1.36625	0.0931594	-2.23502	-0.179397	0.180669	-2.21481	-1.10231	0.120733	-2.29647	-0.18371	0.130915	-1.98078	-0.466341	0.257531	-2.26953	-0.971457	0.115137	-2.05473	-1.4009	0.280372	-2.02082	-0.630413	0.299505	-2.09848	-0.34361	0.246326	nan	nan	nan	nan	nan	nan	-2.20451	-1.10219	0.0197381	nan	nan	nan	-2.05211	-0.472428	-0.0556145	-1.94936	-0.0347653	0.0120681	-2.25867	-0.970835	0.0134789	-2.03329	-1.37025	-0.0949042	-1.99695	-0.635037	-0.105739	-2.08146	-0.303078	-0.047185	-1.91257	-0.0382182	0.0601398
11	3.05989	-2.11069	-1.41909	0.0922029	-1.97948	-1.3671	0.0941669	-2.20331	-0.17082	0.179725	-2.20374	-1.10345	0.119486	-2.26472	-0.171231	0.128586	-1.96243	-0.469671	0.256991	-2.25865	-0.972648	0.114277	-2.045	-1.40132	0.280628	-2.00532	-0.633186	0.299783	-2.07462	-0.341247	0.245901	nan	nan	nan	nan	nan	nan	-2.19311	-1.10288	0.0185793	-2.14431	-0.0382828	0.0448373	-2.04879	-0.472347	-0.0558417	-1.94941	-0.0345623	0.0119057	-2.24751	-0.97164	0.0126534	-2.02109	-1.37179	-0.094545	-1.98975	-0.633942	-0.105456	-2.07898	-0.302967	-0.0473621	-1.91245	-0.038118	0.0602858
12	3.06988	-2.09971	-1.4196	0.0920649	-1.96852	-1.36786	0.094691	-2.17084	-0.161818	0.178938	-2.19262	-1.10432	0.11839	-2.2318	-0.158107	0.126738	-1.94462	-0.472678	0.256613	-2.24773	-0.973551	0.113568	-2.03515	-1.40146	0.28083	-1.98992	-0.635876	0.300418	-2.05088	-0.338801	0.245698	nan	nan	nan	nan	nan	nan	-2.18172	-1.10332	0.0175057	nan	nan	nan	-2.04509	-0.47216	-0.0559169	-1.94941	-0.0345995	0.0119642	-2.23633	-0.972174	0.0119318	-2.00894	-1.37313	-0.0941981	-1.98299	-0.63305	-0.105219	-2.07609	-0.302729	-0.0475161	-1.91209	-0.0379691	0.0606611
13	3.07987	-2.08874	-1.41989	0.0919356	-1.95758	-1.36842	0.0950149	-2.13759	-0.152575	0.178393	-2.18146	-1.10491	0.117415	-2.19788	-0.145141	0.125364	-1.92736	-0.47539	0.256495	-2.23676	-0.974222	0.112974	-2.02525	-1.40132	0.280983	-1.97478	-0.638221	0.301185	-2.02734	-0.336246	0.245599	nan	nan	nan	-2.0968	-0.0682771	0.0100626	-2.17033	-1.10353	0.016534	nan	nan	nan	-2.04103	-0.471803	-0.0556423	-1.94937	-0.0348089	0.0122877	-2.22514	-0.972422	0.0113699	-1.99683	-1.37432	-0.093899	-1.97696	-0.631905	-0.10503	-2.07279	-0.302537	-0.0475031	-1.9114	-0.0377652	0.0614422
14	3.08986	-2.07772	-1.41992	0.0918016	-1.94644	-1.36872	0.0956212	-2.10379	-0.143383	0.178136	-2.17023	-1.10523	0.116584	-2.16307	-0.132271	0.124637	-1.91057	-0.477775	0.25654	-2.22574	-0.974632	0.112494	-2.01542	-1.40092	0.281124	-1.96005	-0.640277	0.301965	-2.00402	-0.333517	0.245647	nan	nan	nan	-2.09658	-0.0684166	0.0103636	-2.15893	-1.10349	0.0157059	-2.14502	-0.0387704	0.0464805	-2.03689	-0.471416	-0.0552834	-1.94934	-0.0347069	0.0123504	-2.21391	-0.972399	0.0109686	-1.98473	-1.37529	-0.0936221	-1.97054	-0.630645	-0.104448	-2.07001	-0.302306	-0.0472399	-1.91095	-0.0374235	0.062193
15	3.09984	-2.06665	-1.41968	0.0916688	-1.93552	-1.36873	0.0960502	-2.06947	-0.13439	0.178278	-2.15891	-1.10528	0.115924	-2.12758	-0.119568	0.124359	-1.8942	-0.479785	0.256628	-2.21466	-0.974753	0.11217	-2.00561	-1.40026	0.28121	-1.94565	-0.642021	0.302806	-1.98088	-0.330508	0.245623	nan	nan	nan	-2.09637	-0.0685371	0.0106008	-2.14751	-1.10321	0.0150928	-2.14424	-0.038261	0.0458677	-2.03283	-0.471051	-0.0549021	-1.94915	-0.0348599	0.0123728	-2.20271	-0.972182	0.0106568	-1.97263	-1.37601	-0.0933962	-1.9636	-0.629632	-0.103798	-2.06752	-0.302183	-0.0469391	-1.91197	-0.0372084	0.0620001
16	3.10983	-2.05559	-1.41921	0.0915081	-1.92454	-1.36842	0.0966045	-2.03426	-0.125659	0.178676	-2.14755	-1.10509	0.115448	-2.09138	-0.107343	0.124075	-1.87836	-0.481401	0.256683	-2.20351	-0.974628	0.112018	-1.9957	-1.39927	0.2813	-1.93143	-0.643313	0.303775	-1.95799	-0.327178	0.245466	nan	nan	nan	-2.0962	-0.0686969	0.0108113	-2.13607	-1.10271	0.0146693	-2.14398	-0.0382712	0.0457125	-2.02889	-0.470729	-0.0545324	-1.94883	-0.0354191	0.0123807	-2.19152	-0.971785	0.0105112	-1.96051	-1.37644	-0.0931562	-1.95637	-0.628559	-0.102712	-2.06518	-0.302199	-0.0465607	-1.91431	-0.0369402	0.0611858
17	3.11982	-2.04453	-1.41849	0.0913532	-1.91287	-1.36798	0.0974225	-1.9979	-0.117311	0.179611	-2.13611	-1.10464	0.115191	-2.0533	-0.0948779	0.123294	-1.86307	-0.482452	0.256645	-2.19227	-0.974272	0.112056	-1.98566	-1.39794	0.281458	-1.91743	-0.644144	0.304763	-1.93541	-0.323587	0.245229	nan	nan	nan	-2.09595	-0.0688705	0.0110162	-2.12465	-1.10201	0.0143991	-2.14436	-0.0389848	0.0463228	-2.02499	-0.47045	-0.0542295	-1.94907	-0.0354883	0.0121798	-2.18031	-0.971215	0.0105268	-1.94837	-1.37655	-0.0928921	-1.9492	-0.627059	-0.101747	-2.06309	-0.30226	-0.0460975	-1.91507	-0.0368422	0.0609387
18	3.12981	-2.03344	-1.4175	0.0912396	-1.90186	-1.3671	0.0976574	-1.96095	-0.109359	0.180886	-2.1246	-1.10397	0.115155	-2.0126	-0.0824919	0.122182	-1.84853	-0.482769	0.256458	-2.18096	-0.973687	0.112332	-1.97564	-1.39638	0.281562	-1.90401	-0.64452	0.305471	-1.91322	-0.31982	0.245013	nan	nan	nan	-2.09557	-0.0689215	0.0111945	-2.11322	-1.10113	0.0143514	-2.14482	-0.0397882	0.0471604	-2.0209	-0.470107	-0.0538471	-1.94982	-0.0351163	0.0119494	-2.16906	-0.970426	0.0107914	-1.93622	-1.37635	-0.0926246	-1.94182	-0.625555	-0.100798	-2.06135	-0.302351	-0.0456292	-1.91426	-0.0371674	0.0611206
19	3.1398	-2.02228	-1.41626	0.091141	-1.89163	-1.36582	0.0975087	-1.92474	-0.101459	0.181748	-2.113	-1.10313	0.115406	nan	nan	nan	-1.83485	-0.482382	0.256167	-2.16956	-0.972902	0.112859	-1.96559	-1.39455	0.281654	-1.89116	-0.644506	0.306061	-1.89151	-0.31593	0.244859	nan	nan	nan	-2.09517	-0.0689167	0.0113149	-2.10177	-1.10012	0.0145627	-2.14445	-0.0395811	0.0468267	-2.01655	-0.469634	-0.0534502	-1.94998	-0.0348238	0.0123502	-2.1578	-0.969465	0.0112912	-1.92415	-1.37594	-0.0924172	-1.93428	-0.624168	-0.0996219	-2.05967	-0.302571	-0.0451706	-1.91258	-0.0380145	0.0614199
20	3.14979	-2.01109	-1.41483	0.0910454	-1.88079	-1.36456	0.0976328	-1.88931	-0.0936441	0.18237	-2.10127	-1.1021	0.115933	nan	nan	nan	-1.82211	-0.481415	0.25586	-2.15809	-0.971962	0.113593	-1.95536	-1.39238	0.281769	-1.87882	-0.644085	0.306563	-1.87034	-0.31206	0.244699	nan	nan	nan	-2.09495	-0.0692561	0.0114926	-2.09026	-1.09898	0.0150576	-2.14419	-0.0395686	0.0466716	-2.01181	-0.468974	-0.0529017	-1.9499	-0.0350357	0.012785	-2.14656	-0.968425	0.0120016	-1.91231	-1.37542	-0.0924123	-1.92679	-0.622851	-0.0983854	-2.05752	-0.3028	-0.0447582	-1.91183	-0.0384395	0.0615575
21	3.15978	-1.99987	-1.41317	0.0910091	-1.86942	-1.36316	0.0979522	-1.85234	-0.0881075	0.184227	-2.08941	-1.10088	0.116782	nan	nan	nan	-1.81015	-0.479829	0.255571	-2.14647	-0.970848	0.114614	-1.9452	-1.39002	0.281902	-1.86677	-0.643068	0.307036	-1.8494	-0.308029	0.244624	nan	nan	nan	-2.09463	-0.0695309	0.0116236	-2.07875	-1.09774	0.01584	-2.14413	-0.0399161	0.0468574	-2.00664	-0.468262	-0.0524479	-1.94989	-0.0349817	0.0126744	-2.13528	-0.967271	0.01302	-1.9006	-1.37476	-0.092536	-1.91899	-0.621298	-0.0974054	-2.05442	-0.302858	-0.044593	-1.91201	-0.038427	0.0617521
22	3.16977	-1.98861	-1.41125	0.0910593	-1.85812	-1.36153	0.09826	-1.8137	-0.0847827	0.187374	-2.07744	-1.09946	0.117917	nan	nan	nan	-1.79891	-0.477636	0.255352	-2.1347	-0.969556	0.115963	-1.93492	-1.38745	0.282086	-1.85526	-0.641308	0.307301	-1.82866	-0.303893	0.244749	nan	nan	nan	-2.09414	-0.069693	0.0118013	-2.0672	-1.09633	0.0169597	-2.14414	-0.0403995	0.047088	-2.00116	-0.467577	-0.0522143	-1.94958	-0.0349382	0.0124411	-2.12398	-0.965975	0.0143274	-1.88867	-1.37368	-0.0923837	-1.91168	-0.619738	-0.096594	-2.0511	-0.302671	-0.0444217	-1.91199	-0.0382934	0.0617296
23	3.17976	-1.97728	-1.40907	0.0911957	-1.84679	-1.35975	0.0986488	-1.77831	-0.0806772	0.189084	-2.06537	-1.09784	0.11932	-1.8149	-0.04387	0.12676	-1.78825	-0.474909	0.255302	-2.12277	-0.967987	0.117612	-1.92458	-1.38469	0.282325	-1.84409	-0.638787	0.307477	-1.80803	-0.299865	0.245075	nan	nan	nan	-2.09362	-0.0699152	0.0121458	-2.05566	-1.09475	0.0183646	-2.14421	-0.0411086	0.0472241	-1.9954	-0.466761	-0.0519715	-1.94942	-0.0348528	0.0124159	-2.11259	-0.964448	0.0159384	-1.87659	-1.37226	-0.0919027	-1.904	-0.617935	-0.0959585	-2.04771	-0.30223	-0.0439194	-1.91148	-0.0379471	0.0616244
24	3.18974	-1.96592	-1.40668	0.0913851	-1.83541	-1.35777	0.0990171	-1.74685	-0.0756971	0.189152	-2.05326	-1.09601	0.121013	nan	nan	nan	-1.77792	-0.471798	0.25539	-2.11069	-0.966141	0.119539	-1.91407	-1.38175	0.282598	-1.83342	-0.635552	0.307668	-1.78739	-0.296163	0.245734	nan	nan	nan	-2.09315	-0.0704913	0.0125338	-2.04419	-1.09304	0.0199926	-2.14435	-0.0420767	0.0473878	-1.98917	-0.465768	-0.0513938	-1.94942	-0.0347286	0.0124439	-2.10118	-0.96276	0.0177765	-1.86455	-1.37069	-0.0913894	-1.89615	-0.615957	-0.0954867	-2.04409	-0.301723	-0.0433903	-1.91139	-0.0380417	0.0616989
25	3.19973	-1.95456	-1.40418	0.0916339	-1.82404	-1.35569	0.0995106	-1.71194	-0.0755782	0.193038	-2.04111	-1.09396	0.122944	-1.7399	-0.0365685	0.131806	-1.76764	-0.468417	0.255557	-2.09848	-0.964062	0.121695	-1.90347	-1.37868	0.282977	-1.8235	-0.631737	0.307729	-1.76684	-0.292877	0.246818	nan	nan	nan	-2.09252	-0.0708638	0.0124582	-2.03277	-1.09115	0.0218354	-2.1442	-0.0426226	0.0479234	-1.98261	-0.464611	-0.050481	-1.94948	-0.0345657	0.0124438	-2.08966	-0.96082	0.0198634	-1.85284	-1.36913	-0.0912581	-1.88892	-0.614129	-0.0948872	-2.03934	-0.301397	-0.043086	-1.91124	-0.0379641	0.0617858
26	3.20972	-1.94311	-1.40158	0.0920337	-1.81255	-1.35353	0.100093	-1.67529	-0.0782666	0.19965	-2.02896	-1.09171	0.125059	nan	nan	nan	-1.75733	-0.464961	0.255808	-2.08614	-0.961746	0.124064	-1.89281	-1.37555	0.28343	-1.81421	-0.627485	0.307647	-1.74667	-0.290163	0.248215	nan	nan	nan	-2.09166	-0.0711282	0.0121898	-2.02132	-1.08901	0.0239122	-2.14417	-0.0434101	0.0483567	-1.97607	-0.46343	-0.04973	-1.94956	-0.0345808	0.0124834	-2.07807	-0.958616	0.0221978	-1.84094	-1.36728	-0.0907916	-1.88117	-0.61248	-0.0940696	-2.035	-0.300894	-0.0422932	-1.9108	-0.0375314	0.0617845
27	3.21971	-1.93154	-1.39888	0.0925938	-1.80091	-1.35103	0.10068	-1.6429	-0.080257	0.204863	-2.0168	-1.08929	0.127339	nan	nan	nan	-1.74692	-0.461608	0.2561	-2.0737	-0.959177	0.126638	-1.88187	-1.37231	0.284032	-1.80518	-0.62305	0.30755	-1.72686	-0.28789	0.249774	nan	nan	nan	nan	nan	nan	-2.00988	-1.08667	0.0261579	-2.14433	-0.0447502	0.0486122	-1.96972	-0.46246	-0.0494465	-1.94965	-0.0345375	0.0125235	-2.0664	-0.956201	0.0247002	-1.82892	-1.36521	-0.0901254	-1.87294	-0.610849	-0.0931319	-2.03031	-0.300447	-0.0416788	-1.91053	-0.0372855	0.06178
28	3.2297	-1.91991	-1.39617	0.0931948	-1.78925	-1.34867	0.101247	-1.6144	-0.0814112	0.208984	-2.00457	-1.08669	0.129786	-1.64199	-0.0343743	0.144909	-1.73609	-0.458516	0.256408	-2.0612	-0.95645	0.129326	-1.87076	-1.36901	0.284709	-1.79608	-0.618718	0.307433	-1.70758	-0.286049	0.251554	nan	nan	nan	-2.09002	-0.0719238	0.012492	-1.99839	-1.08418	0.0285436	-2.14411	-0.0462297	0.0487141	-1.96313	-0.461626	-0.0490514	-1.94973	-0.0344357	0.0124609	-2.05463	-0.953616	0.0273335	-1.81726	-1.36333	-0.089877	-1.86507	-0.608981	-0.0926602	-2.02488	-0.300387	-0.0414251	-1.91043	-0.0371864	0.0617529
29	3.23969	-1.90816	-1.3935	0.0939016	-1.77755	-1.34617	0.101815	-1.58875	-0.0826649	0.212681	-1.99226	-1.08399	0.132328	nan	nan	nan	-1.72464	-0.455892	0.256929	-2.04865	-0.953657	0.132096	-1.85955	-1.36575	0.285428	-1.78652	-0.61477	0.307338	-1.68894	-0.284843	0.25355	nan	nan	nan	nan	nan	nan	-1.98681	-1.08162	0.0310061	-2.14377	-0.0478667	0.0482993	-1.95608	-0.460796	-0.048573	-1.94985	-0.0343647	0.0124505	-2.04276	-0.95093	0.0300713	-1.80544	-1.36133	-0.0894173	-1.85688	-0.607312	-0.0920964	-2.01996	-0.300474	-0.0411158	-1.91038	-0.0371596	0.0617417
30	3.24968	-1.8963	-1.39093	0.094774	-1.76553	-1.34351	0.102572	-1.56524	-0.0842319	0.216317	-1.97981	-1.08126	0.134894	-1.58853	-0.0314712	0.159308	-1.7124	-0.453836	0.257685	-2.03602	-0.95084	0.134899	-1.84817	-1.36257	0.286299	-1.77591	-0.611345	0.307395	-1.671	-0.28426	0.256015	nan	nan	nan	nan	nan	nan	-1.9751	-1.07904	0.0334762	-2.14335	-0.0497312	0.0479122	-1.94845	-0.459847	-0.0479354	-1.94997	-0.0342935	0.0125163	-2.0308	-0.948207	0.0328462	-1.7933	-1.35913	-0.0885435	-1.84761	-0.605677	-0.0915262	-2.0154	-0.300791	-0.0408084	-1.91025	-0.0370701	0.0618106
31	3.25967	-1.88435	-1.3885	0.095796	-1.75328	-1.34104	0.103744	-1.54464	-0.0852498	0.219142	-1.96717	-1.07857	0.137385	-1.56781	-0.0308561	0.163827	-1.69931	-0.452298	0.258611	-2.02324	-0.948099	0.137661	-1.83662	-1.35952	0.287355	-1.76416	-0.608629	0.307736	-1.65371	-0.283878	0.258637	nan	nan	nan	nan	nan	nan	-1.96316	-1.07646	0.0359049	-2.14288	-0.0521626	0.0478491	-1.9402	-0.458851	-0.0472194	-1.95001	-0.0344117	0.0125597	-2.01871	-0.94555	0.0355448	-1.78106	-1.35695	-0.087571	-1.83837	-0.603842	-0.0912876	-2.01049	-0.301278	-0.0404931	-1.91004	-0.0368992	0.0619836
32	3.26966	-1.87231	-1.38628	0.0969293	-1.74082	-1.33876	0.105289	-1.52724	-0.085275	0.221068	-1.95427	-1.07599	0.13967	-1.55134	-0.0300603	0.166309	-1.68522	-0.451152	0.259725	-2.0103	-0.94553	0.140257	-1.82496	-1.3567	0.288504	-1.75125	-0.606673	0.308441	-1.63697	-0.283503	0.261082	nan	nan	nan	-2.08684	-0.0777365	0.0120474	-1.95085	-1.07394	0.0381897	-2.14245	-0.0554256	0.0479908	-1.93122	-0.45783	-0.0465244	-1.95011	-0.0344616	0.012404	-2.00637	-0.942995	0.0381125	-1.76888	-1.35495	-0.0865975	-1.82863	-0.602011	-0.0908338	-2.00487	-0.301861	-0.0401687	-1.90985	-0.0368456	0.0620891
33	3.27964	-1.86014	-1.38428	0.0981946	-1.72866	-1.33669	0.106399	-1.5134	-0.0837942	0.221997	-1.94112	-1.07367	0.141655	-1.53874	-0.0283734	0.167555	-1.67011	-0.450477	0.26101	-1.9972	-0.943233	0.14257	-1.81313	-1.3541	0.289747	-1.73717	-0.605441	0.309504	-1.62101	-0.283059	0.262914	nan	nan	nan	-2.08569	-0.0799245	0.0116716	-1.93813	-1.07152	0.0401963	-2.14179	-0.0591306	0.0477177	-1.92145	-0.456741	-0.0458043	-1.95029	-0.0343755	0.0121331	-1.9937	-0.940632	0.0404431	-1.75656	-1.35301	-0.0854677	-1.81786	-0.60033	-0.0900653	-1.99847	-0.302455	-0.0397178	-1.90966	-0.0369626	0.061994
34	3.28963	-1.84792	-1.38244	0.0995659	-1.71641	-1.33488	0.107662	-1.50336	-0.0808686	0.221851	-1.92766	-1.07165	0.143316	-1.53041	-0.0258979	0.168024	-1.65407	-0.450378	0.262224	-1.98385	-0.941245	0.144588	-1.80119	-1.35182	0.291108	-1.72195	-0.604852	0.310925	-1.60607	-0.282263	0.264069	nan	nan	nan	-2.08406	-0.0826178	0.0108694	-1.92495	-1.06929	0.0418565	-2.14097	-0.0636857	0.0475863	-1.91094	-0.455542	-0.0450255	-1.95011	-0.0343936	0.0122332	-1.98061	-0.938465	0.0424767	-1.74428	-1.35124	-0.084155	-1.80632	-0.598792	-0.0891638	-1.99131	-0.303129	-0.0391867	-1.90945	-0.036952	0.0621117
35	3.29962	-1.83568	-1.3807	0.10108	-1.70409	-1.33332	0.109177	-1.49703	-0.0765554	0.220679	-1.91391	-1.06993	0.144647	nan	nan	nan	-1.63719	-0.450599	0.263224	-1.97012	-0.939527	0.146372	-1.78895	-1.34983	0.292625	-1.70569	-0.604759	0.312658	-1.59257	-0.280994	0.264745	nan	nan	nan	-2.08244	-0.0860695	0.0100962	-1.9113	-1.06725	0.0432276	-2.14005	-0.0694997	0.047816	-1.89962	-0.454337	-0.044309	-1.94983	-0.0345194	0.0124249	-1.96704	-0.936476	0.0442571	-1.73197	-1.34961	-0.0826372	-1.79443	-0.596739	-0.0888108	-1.98356	-0.304028	-0.0390463	-1.90912	-0.0367208	0.0624465
36	3.30961	-1.82346	-1.37905	0.102785	-1.6917	-1.33204	0.110817	-1.49405	-0.0711859	0.217926	-1.89978	-1.06847	0.145753	-1.52397	-0.0221398	0.168417	-1.61982	-0.450794	0.264098	-1.956	-0.93809	0.147993	-1.77654	-1.34816	0.294258	-1.68853	-0.604961	0.314626	-1.58063	-0.279111	0.265119	nan	nan	nan	-2.08095	-0.0902712	0.00950564	-1.89732	-1.06548	0.0443349	-2.13852	-0.0756567	0.0473726	-1.88747	-0.453073	-0.0437021	-1.94948	-0.034676	0.0126653	-1.95303	-0.934664	0.0458509	-1.71967	-1.34821	-0.0809322	-1.78209	-0.594979	-0.0881368	-1.97508	-0.305084	-0.039053	-1.90879	-0.0364869	0.0627911
37	3.3196	-1.81133	-1.37763	0.104625	-1.67929	-1.33101	0.112488	-1.48958	-0.0688882	0.215655	-1.88551	-1.06736	0.146569	-1.52141	-0.0235171	0.167664	-1.6027	-0.450651	0.265129	-1.9417	-0.937013	0.149377	-1.7641	-1.34689	0.295961	-1.6711	-0.605729	0.316656	-1.5702	-0.277221	0.264822	nan	nan	nan	-2.07849	-0.0947272	0.00861008	-1.88312	-1.06397	0.0451412	-2.13627	-0.0824232	0.046237	-1.87447	-0.451766	-0.0429381	-1.94908	-0.0348347	0.0129281	-1.93878	-0.933138	0.0472204	-1.70747	-1.34697	-0.079052	-1.76837	-0.593244	-0.0872754	-1.96581	-0.306326	-0.0390066	-1.90855	-0.0363451	0.0630642
38	3.32959	-1.79922	-1.37673	0.106628	-1.66679	-1.33034	0.113986	-1.48225	-0.0696483	0.215025	-1.87133	-1.06675	0.146919	-1.51714	-0.0280601	0.164308	-1.58695	-0.450386	0.266357	-1.92745	-0.936398	0.150474	-1.75151	-1.34592	0.29777	-1.65398	-0.607474	0.318691	-1.56076	-0.27609	0.263257	nan	nan	nan	-2.07491	-0.0997597	0.00735921	-1.86876	-1.06272	0.04551	-2.13295	-0.090115	0.0448012	-1.86049	-0.45048	-0.0420528	-1.94892	-0.0347926	0.0129164	-1.92436	-0.931881	0.0483466	-1.69584	-1.34616	-0.0775855	-1.75451	-0.591472	-0.0866209	-1.95565	-0.307926	-0.0389561	-1.9084	-0.0362798	0.0632456
39	3.33958	-1.78694	-1.37646	0.108796	-1.65426	-1.33047	0.115588	-1.47523	-0.0696638	0.215116	-1.85748	-1.06669	0.146707	-1.51192	-0.034303	0.158354	-1.57312	-0.45079	0.267919	-1.91338	-0.93624	0.1512	-1.73868	-1.34532	0.299723	-1.63748	-0.609969	0.320787	-1.55115	-0.276681	0.261686	nan	nan	nan	-2.07056	-0.105785	0.00610511	-1.85442	-1.06174	0.0453666	-2.1285	-0.0991883	0.0433504	-1.84537	-0.449313	-0.0409999	-1.94976	-0.0343723	0.0121484	-1.90981	-0.930827	0.0491464	-1.68432	-1.34572	-0.0761734	-1.73986	-0.590107	-0.085392	-1.94442	-0.31003	-0.0386999	-1.90822	-0.0360778	0.0633616
40	3.34957	-1.77451	-1.37672	0.110921	-1.64173	-1.33132	0.117388	-1.47174	-0.0686665	0.215362	-1.84399	-1.0671	0.146009	-1.51107	-0.0349398	0.160292	-1.56046	-0.452626	0.269789	-1.89941	-0.936475	0.151591	-1.72566	-1.34522	0.301732	-1.62184	-0.612715	0.322627	-1.54035	-0.27899	0.26235	nan	nan	nan	-2.06524	-0.112948	0.0050585	-1.84027	-1.06108	0.0447485	-2.12296	-0.109915	0.0423855	-1.82884	-0.448467	-0.0397298	-1.95065	-0.0339204	0.0115918	-1.89519	-0.929976	0.049604	-1.67278	-1.34571	-0.0747128	-1.72327	-0.589063	-0.0840222	-1.93199	-0.312895	-0.0383686	-1.90807	-0.0356263	0.0635764
41	3.35956	-1.76199	-1.37733	0.112997	-1.62918	-1.3327	0.119091	-1.47071	-0.0678107	0.215732	-1.83067	-1.06787	0.14504	-1.51289	-0.0317748	0.167334	-1.54777	-0.455443	0.271473	-1.88543	-0.937019	0.151747	-1.71253	-1.34577	0.30375	-1.60651	-0.615485	0.324373	-1.52874	-0.281414	0.265766	nan	nan	nan	-2.05852	-0.12127	0.00418979	-1.82629	-1.06072	0.0438689	-2.11575	-0.122153	0.0418586	-1.81066	-0.448002	-0.0386043	-1.95151	-0.0336633	0.0116234	-1.88055	-0.929419	0.049815	-1.66117	-1.34611	-0.0731473	-1.70542	-0.588246	-0.0824309	-1.9183	-0.316563	-0.038053	-1.90858	-0.0355941	0.0641818
42	3.36954	-1.74942	-1.37814	0.115049	-1.61667	-1.33417	0.120673	-1.46903	-0.0674333	0.216468	-1.8174	-1.06899	0.143984	-1.51307	-0.0309312	0.170638	-1.53429	-0.458164	0.27288	-1.87146	-0.937859	0.151759	-1.69934	-1.34691	0.305725	-1.59128	-0.618178	0.326017	-1.5173	-0.282789	0.270065	nan	nan	nan	-2.05007	-0.130549	0.00352409	-1.81238	-1.06073	0.0429233	-2.10622	-0.135545	0.042224	-1.79062	-0.447593	-0.0377898	-1.9522	-0.0338354	0.0122388	-1.86599	-0.929225	0.0499222	-1.64959	-1.34701	-0.0715664	-1.68669	-0.587519	-0.0807404	-1.90324	-0.320748	-0.0378827	-1.90994	-0.0360312	0.0646746
43	3.37953	-1.73691	-1.37905	0.1171	-1.60415	-1.3357	0.122244	-1.46733	-0.0672045	0.216915	-1.80415	-1.07026	0.143008	-1.51216	-0.0317151	0.171106	-1.52026	-0.460077	0.274153	-1.8576	-0.938958	0.151756	-1.68608	-1.34846	0.307584	-1.57637	-0.620833	0.327681	-1.50647	-0.283078	0.273284	nan	nan	nan	-2.03988	-0.140107	0.00329687	-1.79864	-1.06111	0.0420514	-2.094	-0.149385	0.0439303	-1.76893	-0.446805	-0.0373232	-1.95266	-0.034198	0.0131814	-1.85159	-0.929393	0.0500628	-1.63798	-1.34824	-0.069867	-1.66638	-0.586656	-0.0791619	-1.88662	-0.325012	-0.0378961	-1.91103	-0.0360304	0.0649149
44	3.38952	-1.72445	-1.37999	0.119159	-1.59164	-1.33727	0.123704	-1.46718	-0.0668595	0.216635	-1.79104	-1.07158	0.142229	-1.51149	-0.0323156	0.171106	-1.50654	-0.460991	0.27533	-1.84398	-0.940161	0.151848	-1.6727	-1.35032	0.309364	-1.56223	-0.623383	0.329446	-1.49672	-0.282976	0.275011	nan	nan	nan	-2.02801	-0.149305	0.00337832	-1.78516	-1.06173	0.0413599	-2.0795	-0.16301	0.0461007	-1.74602	-0.445475	-0.0374513	-1.95214	-0.0345755	0.014104	-1.83756	-0.929834	0.0502464	-1.62633	-1.34963	-0.0680592	-1.6451	-0.585915	-0.0777141	-1.86843	-0.329151	-0.0378631	-1.91107	-0.0359248	0.0649541
45	3.39951	-1.712	-1.38105	0.121222	-1.57913	-1.33885	0.125179	-1.46924	-0.0662367	0.215678	-1.7782	-1.07288	0.141675	-1.51128	-0.0323896	0.171461	-1.49416	-0.461387	0.276244	-1.8307	-0.941336	0.152052	-1.65918	-1.35238	0.311125	-1.54912	-0.625702	0.331319	-1.48857	-0.283086	0.275549	nan	nan	nan	-2.0141	-0.157837	0.00311021	-1.77198	-1.06233	0.0409271	-2.06331	-0.17586	0.047326	-1.7224	-0.443565	-0.0378265	-1.94956	-0.0352343	0.0146006	-1.82393	-0.930312	0.0505373	-1.61493	-1.35123	-0.0665658	-1.62388	-0.585258	-0.0766156	-1.84882	-0.33289	-0.0373997	-1.90967	-0.0357754	0.0649737
46	3.4095	-1.69954	-1.38226	0.12322	-1.5667	-1.3405	0.126436	-1.47278	-0.0653956	0.21455	-1.76568	-1.07401	0.141393	-1.51126	-0.0321411	0.172212	-1.48339	-0.461824	0.277025	-1.81779	-0.942386	0.152368	-1.64546	-1.35447	0.312846	-1.53712	-0.627687	0.333128	-1.48217	-0.283487	0.275836	nan	nan	nan	-1.99783	-0.166382	0.00230272	-1.75924	-1.06289	0.0407349	-2.04566	-0.188107	0.047346	-1.69846	-0.441165	-0.0380344	-1.94431	-0.0366846	0.0146014	-1.81073	-0.930746	0.0509792	-1.60349	-1.35282	-0.0651103	-1.60309	-0.584764	-0.0757693	-1.82808	-0.335903	-0.0367584	-1.90734	-0.0354963	0.0648941
47	3.41949	-1.68707	-1.38364	0.125119	-1.55418	-1.34203	0.127631	-1.47346	-0.0652161	0.214287	-1.75346	-1.07501	0.141339	-1.5112	-0.0319745	0.172699	-1.47429	-0.46244	0.277827	-1.80521	-0.943277	0.152904	-1.63158	-1.35648	0.314486	-1.52601	-0.629248	0.334747	-1.47741	-0.283836	0.276147	nan	nan	nan	-1.97984	-0.175336	0.00192785	-1.74697	-1.06344	0.0407077	-2.02647	-0.200241	0.0462149	-1.67433	-0.438663	-0.0379303	-1.93665	-0.0390716	0.0153871	-1.79808	-0.931234	0.051537	-1.59184	-1.35424	-0.0635575	-1.58269	-0.584643	-0.0747322	-1.80634	-0.338114	-0.0362163	-1.9041	-0.0349487	0.0642863
48	3.42948	-1.67457	-1.38519	0.126983	-1.54161	-1.34343	0.128735	-1.47339	-0.0650722	0.214209	-1.74144	-1.07591	0.141507	-1.51132	-0.0319099	0.172824	-1.46675	-0.462908	0.278862	-1.79289	-0.944112	0.153679	-1.61757	-1.35843	0.31602	-1.51569	-0.630326	0.336238	-1.47369	-0.283807	0.276734	nan	nan	nan	-1.96001	-0.184051	0.00204759	-1.73505	-1.06398	0.0408805	-2.0059	-0.211573	0.0447004	-1.65004	-0.436623	-0.0372472	-1.92685	-0.0430504	0.0169704	-1.78591	-0.931719	0.0523157	-1.58023	-1.35557	-0.06212	-1.56299	-0.584968	-0.0735024	-1.78285	-0.340564	-0.0355833	-1.89874	-0.0339253	0.0630704
49	3.43947	-1.66205	-1.38684	0.128843	-1.52903	-1.34476	0.129805	-1.47333	-0.0649422	0.214163	-1.72952	-1.07674	0.141856	-1.51142	-0.0319069	0.172817	-1.46053	-0.46284	0.280192	-1.78088	-0.945	0.154631	-1.60356	-1.36032	0.317458	-1.50608	-0.631096	0.33765	-1.47057	-0.28347	0.277507	nan	nan	nan	-1.93867	-0.19161	0.0024636	-1.7234	-1.06451	0.0412245	-1.9844	-0.221283	0.043662	-1.62569	-0.435629	-0.0359315	-1.91386	-0.0486793	0.0189312	-1.77418	-0.93224	0.05329	-1.56907	-1.35686	-0.060982	-1.5441	-0.585808	-0.0722081	-1.75636	-0.345603	-0.0350474	-1.8892	-0.0344159	0.0621001
50	3.44945	-1.64956	-1.38857	0.130606	-1.51654	-1.3462	0.130754	-1.47327	-0.0647839	0.214244	-1.71769	-1.07762	0.142388	-1.51146	-0.0318949	0.172841	-1.45547	-0.46217	0.281684	-1.76918	-0.94598	0.155791	-1.58953	-1.36212	0.318819	-1.49719	-0.631746	0.338984	-1.46798	-0.283191	0.278306	nan	nan	nan	-1.91669	-0.198088	0.00311272	-1.71195	-1.06503	0.0417607	-1.96263	-0.228922	0.0436985	-1.60143	-0.435888	-0.0341858	-1.89627	-0.0550972	0.0211826	-1.76283	-0.932839	0.0544725	-1.55801	-1.35809	-0.0599705	-1.52501	-0.587029	-0.0711035	-1.72826	-0.351441	-0.0347323	-1.87303	-0.0385751	0.0626698
51	3.45944	-1.63714	-1.39033	0.132256	-1.5044	-1.34774	0.131349	-1.47344	-0.0645869	0.214171	-1.70601	-1.07854	0.14311	-1.51149	-0.0318789	0.172838	-1.45133	-0.461228	0.283244	-1.75773	-0.947054	0.157182	-1.57554	-1.36386	0.320118	-1.48905	-0.632351	0.340155	-1.46587	-0.282985	0.278853	nan	nan	nan	-1.89451	-0.203891	0.00411227	-1.70068	-1.06555	0.0425364	-1.94079	-0.234681	0.0440548	-1.57743	-0.437143	-0.0324572	-1.87305	-0.0615345	0.0226283	-1.75176	-0.933514	0.0559174	-1.54703	-1.3592	-0.05902	-1.50626	-0.588695	-0.0700771	-1.70521	-0.347112	-0.0340272	-1.84989	-0.0439121	0.0639368
52	3.46943	-1.62483	-1.39207	0.133861	-1.49245	-1.34929	0.131723	-1.47358	-0.0645484	0.213925	-1.69453	-1.07951	0.144081	-1.51152	-0.031905	0.172723	-1.44778	-0.460349	0.284581	-1.74646	-0.948207	0.158799	-1.56165	-1.36554	0.321244	-1.48164	-0.632821	0.341167	-1.46425	-0.282837	0.278948	nan	nan	nan	-1.87149	-0.208687	0.00546628	-1.68963	-1.06618	0.0435475	-1.91803	-0.238652	0.0449086	-1.55373	-0.439238	-0.0309463	-1.84523	-0.0668744	0.0233852	-1.74099	-0.934307	0.0576155	-1.5362	-1.36028	-0.0581727	-1.48736	-0.590728	-0.0693532	-1.67866	-0.348496	-0.033982	-1.82188	-0.0481932	0.0650925
53	3.47942	-1.61259	-1.39384	0.135407	-1.47989	-1.35065	0.132329	-1.47341	-0.0646519	0.213677	-1.68321	-1.08059	0.145329	-1.51153	-0.0319705	0.172506	-1.44443	-0.459726	0.285557	-1.7353	-0.949406	0.160601	-1.54782	-1.36718	0.322241	-1.47473	-0.633096	0.342078	-1.46295	-0.282683	0.27881	nan	nan	nan	-1.84708	-0.211896	0.00713533	-1.67877	-1.06695	0.0448513	-1.89432	-0.240631	0.046647	-1.53015	-0.44203	-0.0294125	-1.81466	-0.0707394	0.0242958	-1.73039	-0.93525	0.0595421	-1.5256	-1.36141	-0.0574027	-1.46962	-0.593392	-0.0684543	-1.64772	-0.358457	-0.0343978	-1.79138	-0.0513703	0.0658512
54	3.48941	-1.60046	-1.39565	0.136817	-1.46767	-1.35192	0.132658	-1.47348	-0.0646006	0.213342	-1.67204	-1.0818	0.146853	-1.51151	-0.0320687	0.172229	-1.44099	-0.459427	0.28614	-1.72411	-0.950657	0.162606	-1.53418	-1.36887	0.323088	-1.46831	-0.633275	0.342833	-1.46197	-0.282656	0.278616	nan	nan	nan	-1.82145	-0.2135	0.0090483	-1.6681	-1.06798	0.0463695	-1.86983	-0.240564	0.0490239	-1.50672	-0.445289	-0.027904	-1.78366	-0.0735415	0.0251818	-1.71968	-0.936339	0.0615415	-1.51506	-1.36257	-0.0566418	-1.45201	-0.596716	-0.0676166	-1.62198	-0.361055	-0.0333789	-1.75976	-0.0535974	0.0661903
55	3.4994	-1.58838	-1.39744	0.138201	-1.45578	-1.35324	0.132759	-1.47351	-0.0645597	0.212976	-1.66093	-1.08316	0.148606	-1.51148	-0.0321569	0.171942	-1.43723	-0.459243	0.286489	-1.7129	-0.952042	0.164662	-1.52071	-1.37056	0.323774	-1.46198	-0.633373	0.343432	-1.46113	-0.282652	0.278403	nan	nan	nan	-1.79478	-0.213541	0.0111246	-1.65752	-1.0693	0.0480746	-1.84446	-0.238662	0.051629	-1.48334	-0.448694	-0.0265208	-1.75232	-0.0751317	0.0259396	-1.70894	-0.937671	0.0635318	-1.5045	-1.36379	-0.0558816	-1.43372	-0.600421	-0.0669051	-1.60204	-0.35498	-0.0308155	-1.72756	-0.0547724	0.066316
56	3.50939	-1.57635	-1.39922	0.139498	-1.44388	-1.3547	0.133028	-1.47356	-0.0645141	0.212594	-1.64989	-1.08465	0.150466	-1.5115	-0.032146	0.171758	-1.4331	-0.458928	0.286871	-1.70167	-0.953504	0.166679	-1.50728	-1.37228	0.324454	-1.45574	-0.633521	0.343782	-1.46036	-0.282703	0.278211	nan	nan	nan	-1.76732	-0.21193	0.0133233	-1.64694	-1.0709	0.0499079	-1.81831	-0.234948	0.0543315	-1.45996	-0.451968	-0.0253369	-1.71986	-0.0752097	0.0267739	-1.69817	-0.939206	0.0654831	-1.49438	-1.36512	-0.055427	-1.41568	-0.60408	-0.0664189	-1.57967	-0.353192	-0.0285813	-1.69441	-0.0551752	0.0667389
57	3.51938	-1.56445	-1.40093	0.140684	-1.43208	-1.35618	0.133224	-1.47389	-0.064347	0.212178	-1.63888	-1.08623	0.152404	-1.51164	-0.0319022	0.171944	-1.42894	-0.458472	0.287267	-1.69042	-0.954969	0.168586	-1.49375	-1.374	0.325197	-1.44964	-0.633635	0.343855	-1.45947	-0.282829	0.278162	nan	nan	nan	-1.7395	-0.208456	0.0155789	-1.63632	-1.07268	0.0518106	-1.79156	-0.229367	0.0571115	-1.43659	-0.454977	-0.0243056	-1.68593	-0.074541	0.0280827	-1.68729	-0.940857	0.0673724	-1.48422	-1.36651	-0.0549944	-1.39769	-0.607941	-0.0658106	-1.55488	-0.35469	-0.0262077	-1.65942	-0.0548968	0.0673063
58	3.52937	-1.55267	-1.40252	0.141832	-1.42062	-1.35752	0.133194	-1.47387	-0.0642689	0.211859	-1.62795	-1.08784	0.154385	-1.51166	-0.0319037	0.171816	-1.42515	-0.458069	0.287504	-1.67917	-0.956414	0.170301	-1.47992	-1.37577	0.326141	-1.4433	-0.633746	0.343907	-1.45829	-0.28301	0.278201	nan	nan	nan	-1.71129	-0.203481	0.0176911	-1.62559	-1.07453	0.0537563	-1.76438	-0.221951	0.0596572	-1.41385	-0.457896	-0.0236193	-1.65056	-0.0734374	0.0295384	-1.67638	-0.942628	0.0690538	-1.47398	-1.36792	-0.0545734	-1.37973	-0.612095	-0.065214	-1.5297	-0.356163	-0.0240326	-1.62262	-0.0543623	0.0682034
59	3.53935	-1.54095	-1.40398	0.14293	-1.40927	-1.35876	0.133099	-1.47128	-0.0649892	0.212124	-1.61708	-1.0894	0.156314	-1.51048	-0.0340377	0.168378	-1.42168	-0.457824	0.287748	-1.66792	-0.957807	0.17184	-1.46649	-1.37762	0.32676	-1.43676	-0.633911	0.344047	-1.45667	-0.28311	0.278336	nan	nan	nan	-1.68226	-0.197256	0.0198147	-1.61482	-1.07644	0.0556014	-1.73651	-0.213083	0.0619155	-1.39172	-0.460843	-0.0231528	-1.61398	-0.07213	0.0312203	-1.66544	-0.944424	0.0705118	-1.46367	-1.36913	-0.0540014	-1.36231	-0.616249	-0.064656	-1.50485	-0.356464	-0.0218039	-1.58428	-0.0537538	0.0691938
60	3.54934	-1.52927	-1.40532	0.143954	-1.39719	-1.36003	0.133588	-1.46603	-0.0663408	0.212885	-1.60602	-1.09082	0.15806	-1.50745	-0.0393307	0.160055	-1.4185	-0.457728	0.288042	-1.65669	-0.959116	0.173221	-1.45358	-1.3794	0.326996	-1.43002	-0.634028	0.344222	-1.45458	-0.283103	0.278495	nan	nan	nan	-1.65243	-0.189918	0.0218602	-1.60404	-1.07833	0.0572608	-1.70768	-0.202815	0.0640011	-1.37023	-0.463908	-0.0226298	-1.57712	-0.0697151	0.0331143	-1.65446	-0.946158	0.0717952	-1.45336	-1.37018	-0.0534456	-1.34554	-0.620333	-0.0641783	-1.48035	-0.355915	-0.0194939	-1.54497	-0.0527331	0.0701965
61	3.55933	-1.51765	-1.40652	0.144865	-1.38529	-1.36123	0.133996	-1.46351	-0.0668362	0.213121	-1.59487	-1.09208	0.159617	nan	nan	nan	-1.41558	-0.457668	0.288329	-1.64549	-0.960295	0.174372	-1.44057	-1.38108	0.327341	-1.42328	-0.634039	0.344303	-1.45226	-0.283033	0.278533	nan	nan	nan	-1.62169	-0.1815	0.0238578	-1.59318	-1.08005	0.058771	-1.67769	-0.191174	0.066193	-1.34954	-0.467115	-0.0219153	-1.53761	-0.0669401	0.0349324	-1.64348	-0.947756	0.0728786	-1.44303	-1.37117	-0.0529751	-1.32881	-0.624497	-0.063776	-1.45624	-0.354737	-0.0172728	-1.50524	-0.0514382	0.0713077
62	3.56932	-1.50605	-1.40756	0.145694	-1.3738	-1.36209	0.134087	-1.46208	-0.0669093	0.213248	-1.58373	-1.09317	0.161048	-1.50585	-0.0396688	0.159141	-1.41261	-0.457551	0.288622	-1.63436	-0.961332	0.175253	-1.42771	-1.38268	0.327698	-1.41677	-0.633984	0.344341	-1.44972	-0.282932	0.27847	nan	nan	nan	-1.5899	-0.172078	0.0260361	-1.58224	-1.08162	0.0601152	-1.64651	-0.178542	0.068423	-1.32964	-0.470385	-0.0209452	-1.4978	-0.063714	0.0367641	-1.63248	-0.949214	0.0737396	-1.43266	-1.37196	-0.05252	-1.31179	-0.628721	-0.0632561	-1.43276	-0.353245	-0.0155914	-1.46521	-0.0500532	0.0723402
63	3.57931	-1.49446	-1.40841	0.146488	-1.36269	-1.36278	0.13392	-1.46151	-0.0670181	0.213171	-1.57255	-1.09402	0.162282	nan	nan	nan	-1.4095	-0.457337	0.288748	-1.62323	-0.96212	0.175914	-1.41505	-1.38419	0.32804	-1.41003	-0.633745	0.344429	-1.44697	-0.282789	0.2784	nan	nan	nan	-1.55691	-0.162042	0.0283028	-1.57126	-1.08296	0.0612212	-1.61402	-0.165113	0.0707472	-1.31052	-0.473535	-0.019713	-1.45811	-0.0603002	0.0383817	-1.62146	-0.950501	0.0743498	-1.42223	-1.37251	-0.0520697	-1.2956	-0.632805	-0.0626824	-1.40983	-0.351389	-0.0142697	-1.4248	-0.0488093	0.0730685
64	3.5893	-1.4829	-1.40907	0.147217	-1.35151	-1.36334	0.134059	-1.46107	-0.0673169	0.213046	-1.56135	-1.09464	0.163309	-1.51881	-0.0427015	0.153824	-1.40626	-0.457007	0.288542	-1.61213	-0.962714	0.176389	-1.40255	-1.38554	0.328345	-1.40336	-0.633364	0.344383	-1.44439	-0.282799	0.278272	nan	nan	nan	-1.5228	-0.151653	0.0305485	-1.56014	-1.08402	0.0621928	-1.58028	-0.15119	0.0729694	-1.29242	-0.476421	-0.0183804	-1.41814	-0.0569886	0.0396667	-1.61043	-0.951566	0.0747555	-1.41163	-1.37273	-0.0515239	-1.28016	-0.636673	-0.0621134	-1.38713	-0.349069	-0.0129735	-1.38367	-0.0476823	0.0738251
65	3.59929	-1.47132	-1.40947	0.147941	-1.34013	-1.36376	0.134313	-1.46115	-0.0674951	0.21283	-1.55014	-1.09503	0.164166	nan	nan	nan	-1.40297	-0.456679	0.288088	-1.60105	-0.963108	0.176711	-1.39013	-1.38666	0.328671	-1.39689	-0.63301	0.344216	-1.44221	-0.282836	0.277905	nan	nan	nan	-1.488	-0.141098	0.0325509	-1.54891	-1.08481	0.063042	-1.54516	-0.136888	0.075325	-1.27542	-0.478947	-0.0170994	-1.3775	-0.053812	0.0406087	-1.59935	-0.952344	0.07506	-1.40098	-1.37265	-0.0509612	-1.26512	-0.640185	-0.0615687	-1.36451	-0.346306	-0.0117909	-1.34174	-0.046751	0.0746217
66	3.60928	-1.45972	-1.40964	0.148708	-1.3287	-1.36393	0.134516	-1.46337	-0.0670654	0.212076	-1.53894	-1.09521	0.164867	-1.55612	-0.0938763	0.0767058	-1.39972	-0.456408	0.287452	-1.58997	-0.963285	0.176922	-1.37778	-1.38752	0.329025	-1.39051	-0.632608	0.344005	-1.44053	-0.282947	0.277304	nan	nan	nan	-1.45246	-0.130485	0.0344394	-1.5376	-1.08533	0.0637577	-1.50879	-0.122339	0.0782278	-1.25924	-0.481013	-0.0158282	-1.33654	-0.0509469	0.0409887	-1.58822	-0.952865	0.0752831	-1.39035	-1.37238	-0.0504218	-1.25047	-0.643232	-0.0611623	-1.3418	-0.343058	-0.0105487	-1.29953	-0.0460896	0.0749497
67	3.61927	-1.44815	-1.4096	0.149427	-1.31723	-1.36386	0.134818	-1.4671	-0.066383	0.210861	-1.52767	-1.09514	0.165483	nan	nan	nan	-1.39652	-0.456159	0.286806	-1.57887	-0.963227	0.177065	-1.36544	-1.38809	0.329435	-1.3842	-0.632082	0.34375	-1.43931	-0.28317	0.276735	nan	nan	nan	-1.41604	-0.11993	0.0363074	-1.52622	-1.08557	0.0643852	-1.47114	-0.108037	0.0811792	-1.24378	-0.482599	-0.0145369	-1.29522	-0.0483844	0.0410212	-1.57703	-0.953131	0.075422	-1.37969	-1.37185	-0.0499592	-1.23617	-0.645754	-0.0608186	-1.31902	-0.339341	-0.00922988	-1.25743	-0.0459607	0.0743754
68	3.62925	-1.43655	-1.40928	0.150103	-1.30572	-1.36354	0.135181	-1.46594	-0.0667848	0.210846	-1.5163	-1.09478	0.166062	nan	nan	nan	-1.39345	-0.455876	0.286232	-1.56773	-0.962931	0.177172	-1.3531	-1.38839	0.329852	-1.37757	-0.631436	0.343469	-1.43848	-0.283433	0.276125	nan	nan	nan	-1.37888	-0.109758	0.0380489	-1.51479	-1.08553	0.0649355	-1.43222	-0.0944385	0.0837821	-1.22921	-0.483701	-0.0133427	-1.25371	-0.0460687	0.0406177	-1.5658	-0.95315	0.0754658	-1.36901	-1.37105	-0.0495017	-1.22229	-0.647644	-0.0603444	-1.29632	-0.335328	-0.00797018	-1.21539	-0.0463905	0.0730134
69	3.63924	-1.42491	-1.40868	0.150793	-1.29432	-1.36298	0.13539	-1.4694	-0.0662834	0.209845	-1.50491	-1.09419	0.166561	-1.51342	-0.0361818	0.164059	-1.3906	-0.455551	0.285697	-1.55656	-0.962408	0.177255	-1.34077	-1.38841	0.330279	-1.37093	-0.630601	0.343169	-1.43774	-0.283746	0.275522	nan	nan	nan	-1.34099	-0.100363	0.0393785	-1.50325	-1.0852	0.0654098	-1.39209	-0.0815121	0.0868684	-1.21517	-0.484258	-0.0121059	-1.21206	-0.0439526	0.0398979	-1.55454	-0.952894	0.0754763	-1.35828	-1.37001	-0.0490204	-1.20893	-0.64887	-0.0597688	-1.27382	-0.331172	-0.00674205	-1.17334	-0.0471373	0.0712057
70	3.64923	-1.41325	-1.40782	0.151466	-1.28286	-1.36221	0.135607	-1.47171	-0.0659476	0.208962	-1.49347	-1.09342	0.166978	-1.50994	-0.0315615	0.170866	-1.38783	-0.455199	0.285251	-1.54532	-0.96169	0.177321	-1.32849	-1.38815	0.330635	-1.36449	-0.629673	0.342849	-1.4369	-0.284035	0.274983	nan	nan	nan	-1.30216	-0.0916372	0.0406672	-1.49167	-1.08464	0.0657969	-1.35136	-0.0697841	0.0895336	-1.20177	-0.484225	-0.0108497	-1.17057	-0.0421675	0.0387368	-1.54319	-0.952406	0.0754987	-1.3475	-1.36868	-0.0485252	-1.19585	-0.649415	-0.0590065	-1.25162	-0.326909	-0.00528482	-1.13146	-0.0480134	0.0692287
71	3.65922	-1.40159	-1.40674	0.152069	-1.27115	-1.3611	0.135991	-1.4721	-0.0659977	0.208358	-1.48197	-1.09243	0.167326	-1.51081	-0.0329715	0.168501	-1.38488	-0.454816	0.284902	-1.53405	-0.960781	0.177339	-1.31621	-1.38761	0.330978	-1.35814	-0.628725	0.342524	-1.43575	-0.284254	0.274512	nan	nan	nan	-1.26289	-0.0837953	0.0416969	-1.48002	-1.08382	0.0661382	-1.31024	-0.0595063	0.0916152	-1.18903	-0.483535	-0.0096331	-1.12916	-0.0407637	0.0373733	-1.53173	-0.951652	0.0755416	-1.33668	-1.36709	-0.048009	-1.18336	-0.649191	-0.0582111	-1.22996	-0.322698	-0.00381622	-1.08998	-0.049076	0.0674343
72	3.66921	-1.3899	-1.40543	0.152694	-1.25936	-1.3597	0.136386	-1.47216	-0.066111	0.207789	-1.47047	-1.09128	0.167574	-1.51141	-0.0340834	0.166752	-1.3816	-0.454409	0.28462	-1.52271	-0.959669	0.177285	-1.30387	-1.38679	0.331295	-1.35175	-0.627705	0.342232	-1.43423	-0.284394	0.274042	nan	nan	nan	-1.22344	-0.0771997	0.0424046	-1.46831	-1.08277	0.0664203	-1.26891	-0.0511309	0.0930268	-1.177	-0.482186	-0.00852226	-1.08758	-0.0400561	0.0361943	-1.5202	-0.950671	0.0755093	-1.32565	-1.36522	-0.0473904	-1.17154	-0.648206	-0.0573096	-1.20888	-0.318489	-0.00223733	-1.04923	-0.0508627	0.0662254
73	3.6792	-1.37816	-1.40388	0.15332	-1.24765	-1.35807	0.136624	-1.47213	-0.0662636	0.207326	-1.45897	-1.08997	0.167684	-1.51133	-0.0343377	0.166434	-1.37789	-0.453961	0.284419	-1.51128	-0.958366	0.177172	-1.29148	-1.38567	0.331621	-1.34524	-0.62666	0.341943	-1.43228	-0.284475	0.273663	nan	nan	nan	-1.18399	-0.0720807	0.0428109	-1.45658	-1.08156	0.0665178	-1.22773	-0.0446285	0.0937362	-1.16563	-0.480086	-0.00742168	-1.04641	-0.040546	0.0353839	-1.50855	-0.94945	0.0753986	-1.31447	-1.36312	-0.0467828	-1.16037	-0.646497	-0.0564834	-1.18822	-0.31424	-0.000813273	-1.0096	-0.0539012	0.0658234
74	3.68919	-1.36639	-1.40217	0.153915	-1.23581	-1.35624	0.136866	-1.47141	-0.0667297	0.207122	-1.44746	-1.08848	0.167655	-1.51114	-0.0345329	0.166325	-1.37365	-0.453437	0.284227	-1.49975	-0.956858	0.176961	-1.27902	-1.38429	0.331928	-1.33869	-0.625614	0.341755	-1.42984	-0.284536	0.273327	nan	nan	nan	-1.14498	-0.0685116	0.0430572	-1.44478	-1.0801	0.0664357	-1.1872	-0.0396585	0.0938939	-1.15483	-0.477172	-0.00635683	-1.0059	-0.0427232	0.0355973	-1.49673	-0.94796	0.0751755	-1.30339	-1.36091	-0.0463783	-1.14984	-0.643989	-0.055753	-1.16757	-0.309899	0.000486118	-0.971307	-0.0584381	0.0659559
75	3.69918	-1.35457	-1.40024	0.154483	-1.22394	-1.3543	0.136936	-1.47051	-0.0673276	0.206883	-1.436	-1.08684	0.167363	-1.51103	-0.0349656	0.166026	-1.36895	-0.452873	0.283956	-1.48816	-0.955142	0.176579	-1.26654	-1.38274	0.332237	-1.33211	-0.624573	0.34157	-1.427	-0.284661	0.273034	nan	nan	nan	-1.10692	-0.0666465	0.0430732	-1.43292	-1.07836	0.0661595	-1.14781	-0.035924	0.0936099	-1.14445	-0.473535	-0.00527093	-0.966445	-0.0470429	0.0366087	-1.48473	-0.946165	0.0748261	-1.29225	-1.35845	-0.0459193	-1.1398	-0.640589	-0.0550224	-1.14661	-0.30567	0.00153341	-0.933756	-0.0644758	0.0668938
76	3.70917	-1.34273	-1.3981	0.155013	-1.21204	-1.35215	0.137169	-1.46965	-0.0679991	0.206704	-1.42461	-1.085	0.1668	-1.51093	-0.035582	0.165618	-1.36374	-0.452212	0.283684	-1.47651	-0.95318	0.175993	-1.25407	-1.38102	0.332472	-1.32543	-0.623516	0.341348	-1.42355	-0.284644	0.272806	nan	nan	nan	-1.07	-0.066364	0.0424547	-1.42106	-1.07637	0.0656454	-1.10984	-0.0331726	0.093063	-1.1343	-0.469425	-0.00419541	-0.928526	-0.0532711	0.0379141	-1.4726	-0.944064	0.0742696	-1.28123	-1.35597	-0.0455568	-1.13027	-0.636376	-0.0544567	-1.1253	-0.302114	0.00193469	-0.897138	-0.0722289	0.0685295
77	3.71915	-1.33089	-1.39576	0.155496	-1.20039	-1.34978	0.137276	-1.46921	-0.0685805	0.206424	-1.41326	-1.08296	0.165977	-1.51083	-0.036347	0.165243	-1.35793	-0.451412	0.283501	-1.46478	-0.951003	0.175195	-1.24162	-1.37914	0.332599	-1.31838	-0.622351	0.3412	-1.41982	-0.284658	0.27262	nan	nan	nan	-1.03374	-0.0676949	0.0404117	-1.40917	-1.07415	0.0648774	-1.07369	-0.0313813	0.092316	-1.1242	-0.465267	-0.0031451	-0.892958	-0.0608918	0.0393529	-1.46037	-0.941715	0.0734546	-1.27041	-1.35355	-0.0453609	-1.12093	-0.631402	-0.0539045	-1.10359	-0.299399	0.00188405	-0.862277	-0.0816602	0.0702348
78	3.72914	-1.31907	-1.3933	0.155868	-1.18852	-1.34733	0.137341	-1.46957	-0.0689143	0.205869	-1.40186	-1.08077	0.164901	-1.51071	-0.0372668	0.164935	-1.35151	-0.450496	0.283541	-1.45303	-0.948696	0.174138	-1.22916	-1.37714	0.332708	-1.31098	-0.621038	0.34116	-1.41584	-0.28464	0.272436	nan	nan	nan	-0.999036	-0.0698698	0.0381745	-1.39716	-1.07176	0.0638627	-1.03987	-0.0304805	0.0915052	-1.11397	-0.461478	-0.0021333	-0.859667	-0.0689711	0.0412878	-1.44803	-0.939203	0.0724098	-1.25937	-1.35101	-0.0452015	-1.11168	-0.626044	-0.0534683	-1.08201	-0.297504	0.0016555	-0.830191	-0.0919287	0.0721634
79	3.73913	-1.30726	-1.39078	0.156121	-1.17645	-1.3448	0.13742	-1.47035	-0.0692011	0.205118	-1.39033	-1.07849	0.163633	-1.51056	-0.0384624	0.16461	-1.34465	-0.449541	0.283691	-1.44124	-0.946328	0.172855	-1.21673	-1.37502	0.332725	-1.30323	-0.61963	0.341149	-1.41153	-0.284513	0.272311	nan	nan	nan	-0.97092	-0.0703909	0.0409487	-1.38496	-1.06925	0.0626062	-1.00888	-0.0303245	0.0905537	-1.10343	-0.458304	-0.00118422	-0.829615	-0.0770924	0.0434064	-1.4356	-0.936602	0.0711916	-1.24802	-1.34827	-0.0449251	-1.10235	-0.620915	-0.0531152	-1.0613	-0.296358	0.00150817	-0.801306	-0.101777	0.0747361
80	3.74912	-1.29538	-1.3883	0.156317	-1.16459	-1.34223	0.137346	-1.47054	-0.0698047	0.204475	-1.37852	-1.07617	0.162252	-1.51044	-0.0401315	0.164126	-1.33756	-0.448605	0.283724	-1.42932	-0.943971	0.171449	-1.20431	-1.37284	0.33267	-1.29503	-0.618277	0.341165	-1.40695	-0.28454	0.272141	nan	nan	nan	-0.945565	-0.0717479	0.0426487	-1.37253	-1.0667	0.0612214	-0.981228	-0.0306201	0.0895821	-1.09248	-0.455845	-0.000368098	-0.803083	-0.0845949	0.0460775	-1.42311	-0.934061	0.0698654	-1.23657	-1.34546	-0.0446375	-1.09252	-0.616542	-0.0526804	-1.04192	-0.29574	0.00168213	-0.775772	-0.110351	0.0781124
81	3.75911	-1.2834	-1.3859	0.156549	-1.15265	-1.33977	0.137168	-1.46708	-0.0716052	0.20491	-1.36642	-1.07387	0.160852	-1.51041	-0.0426007	0.163406	-1.33002	-0.447601	0.283687	-1.41737	-0.941725	0.169942	-1.19191	-1.37063	0.332512	-1.28635	-0.616949	0.341235	-1.4022	-0.284803	0.271963	nan	nan	nan	-0.922324	-0.0736098	0.0432771	-1.35988	-1.06422	0.059856	-0.95739	-0.0306156	0.0891514	-1.08085	-0.453884	0.000205703	-0.780142	-0.0908197	0.0491177	-1.41059	-0.931636	0.0684496	-1.2252	-1.34287	-0.0446666	-1.08195	-0.613353	-0.0522259	-1.02412	-0.295356	0.00214571	-0.753759	-0.116984	0.0821687
82	3.7691	-1.27128	-1.38364	0.156843	-1.14052	-1.33753	0.136939	-1.45905	-0.0748992	0.206694	-1.35406	-1.07163	0.159554	-1.51029	-0.0456097	0.162873	-1.322	-0.44661	0.283627	-1.40533	-0.939593	0.168513	-1.17953	-1.36845	0.332262	-1.27718	-0.615569	0.341351	-1.39723	-0.285234	0.271876	nan	nan	nan	-0.902412	-0.0747293	0.0443998	-1.34701	-1.06185	0.0586539	-0.937566	-0.0300896	0.0895501	-1.0683	-0.452245	0.000576216	-0.761173	-0.0950228	0.0521202	-1.398	-0.929358	0.067093	-1.21362	-1.34036	-0.0448096	-1.07039	-0.611238	-0.0514768	-1.00806	-0.294877	0.00280427	-0.735412	-0.121165	0.0862242
83	3.77909	-1.25918	-1.38166	0.156767	-1.12834	-1.33547	0.136583	-1.45468	-0.0779789	0.208051	-1.34147	-1.06947	0.15852	-1.50997	-0.0486706	0.163137	-1.3134	-0.445575	0.283554	-1.39319	-0.937591	0.167271	-1.16719	-1.36642	0.331993	-1.2675	-0.614169	0.341486	-1.39176	-0.285705	0.27202	nan	nan	nan	-0.886831	-0.0742966	0.0462843	-1.33405	-1.05966	0.0576816	-0.921974	-0.0287475	0.0905917	-1.05476	-0.451038	0.00112247	-0.746195	-0.0962671	0.0551138	-1.38545	-0.927316	0.0658865	-1.20175	-1.33798	-0.0450437	-1.05775	-0.609962	-0.0505199	-0.993996	-0.293883	0.00375688	-0.720791	-0.122645	0.0897021
84	3.78908	-1.24712	-1.37994	0.156318	-1.11626	-1.33358	0.136205	-1.45452	-0.0795509	0.208209	-1.3287	-1.06742	0.157841	-1.50952	-0.0520607	0.164193	-1.30384	-0.444442	0.28376	-1.38086	-0.935706	0.16633	-1.1549	-1.36463	0.33165	-1.25721	-0.612807	0.341677	-1.38572	-0.286192	0.27255	nan	nan	nan	-0.875903	-0.0719604	0.0483701	-1.32098	-1.05772	0.0570301	-0.911203	-0.0263633	0.0925802	-1.04043	-0.450384	0.00210195	-0.735302	-0.0942242	0.0580068	-1.37287	-0.925534	0.0649087	-1.18978	-1.33586	-0.0454922	-1.04415	-0.609327	-0.0496509	-0.981843	-0.29217	0.00503644	-0.709754	-0.120714	0.0926164
85	3.79907	-1.23508	-1.37834	0.155683	-1.1041	-1.33197	0.135781	-1.45337	-0.0815338	0.209119	-1.31574	-1.06557	0.157525	-1.50898	-0.0560775	0.16582	-1.29327	-0.443232	0.284168	-1.36824	-0.933961	0.165734	-1.14264	-1.3631	0.331205	-1.24621	-0.611439	0.341843	-1.37891	-0.286778	0.273432	nan	nan	nan	-0.869224	-0.067922	0.050669	-1.30784	-1.05605	0.0566987	-0.905306	-0.023458	0.0948604	-1.02558	-0.450109	0.00338732	-0.728562	-0.0890507	0.060812	-1.3601	-0.923979	0.064295	-1.17768	-1.334	-0.0458819	-1.02973	-0.609122	-0.0488478	-0.971101	-0.28989	0.00655106	-0.702329	-0.115259	0.0952799
86	3.80905	-1.22299	-1.37683	0.155014	-1.09188	-1.33064	0.135213	-1.45121	-0.084474	0.210635	-1.30257	-1.0639	0.157593	-1.50804	-0.0608496	0.167409	-1.28192	-0.441999	0.284628	-1.35532	-0.932358	0.165437	-1.13046	-1.36186	0.330673	-1.23451	-0.610034	0.341947	-1.37113	-0.287412	0.274576	nan	nan	nan	-0.866032	-0.063139	0.0534473	-1.29453	-1.05459	0.0567238	-0.903479	-0.0218017	0.0966127	-1.01035	-0.449708	0.00473596	-0.725044	-0.0809985	0.0637523	-1.34706	-0.922612	0.0640028	-1.16541	-1.33247	-0.046443	-1.0146	-0.609035	-0.0481072	-0.961294	-0.287322	0.00827693	-0.6973	-0.106414	0.0982587
87	3.81904	-1.2109	-1.37547	0.15427	-1.07961	-1.32957	0.134575	-1.4485	-0.0878361	0.212452	-1.28912	-1.06251	0.157988	-1.5066	-0.0661863	0.169202	-1.26985	-0.440737	0.28511	-1.3421	-0.931072	0.165402	-1.11843	-1.3609	0.330037	-1.22204	-0.60865	0.342076	-1.36242	-0.288215	0.27593	nan	nan	nan	-0.864382	-0.0599675	0.0564907	-1.28102	-1.05346	0.0570959	-0.902495	-0.0222985	0.0977464	-0.995206	-0.448983	0.00580954	-0.721869	-0.0710858	0.0668459	-1.3338	-0.921583	0.0639874	-1.15297	-1.33121	-0.0471511	-0.999237	-0.609174	-0.047356	-0.952458	-0.284807	0.010493	-0.691729	-0.094917	0.101929
88	3.82903	-1.19889	-1.37451	0.153434	-1.06718	-1.32886	0.13397	-1.44566	-0.0914573	0.214337	-1.27542	-1.06159	0.158718	-1.50457	-0.0722402	0.171208	-1.2571	-0.439556	0.285514	-1.32878	-0.930298	0.165614	-1.10656	-1.3602	0.329359	-1.20888	-0.607263	0.342069	-1.35288	-0.289145	0.27713	nan	nan	nan	-0.860135	-0.0602698	0.0587194	-1.26742	-1.05293	0.0578199	-0.899799	-0.0246487	0.0983561	-0.980994	-0.448258	0.00649196	-0.716497	-0.0625542	0.0696281	-1.32056	-0.921207	0.0641344	-1.14035	-1.33023	-0.0477489	-0.984212	-0.609837	-0.0468071	-0.944838	-0.28305	0.0135441	-0.68389	-0.083551	0.105212
89	3.83902	-1.18684	-1.37419	0.152492	-1.05481	-1.32869	0.133368	-1.4424	-0.0957734	0.21628	-1.26163	-1.06117	0.159967	-1.50206	-0.079517	0.173155	-1.24349	-0.438495	0.285855	-1.3154	-0.929994	0.166059	-1.09482	-1.35988	0.328729	-1.19494	-0.606014	0.341889	-1.34269	-0.290556	0.27818	nan	nan	nan	-0.85255	-0.0614823	0.0598908	-1.25398	-1.05311	0.0588703	-0.896391	-0.0270074	0.0985768	-0.968416	-0.448064	0.00706563	-0.710386	-0.0566575	0.0708263	-1.30741	-0.921493	0.0644904	-1.12754	-1.3296	-0.0483857	-0.969926	-0.611238	-0.0463942	-0.937251	-0.282664	0.0167085	-0.675897	-0.0746103	0.108747
90	3.84901	-1.17459	-1.37444	0.15148	-1.04241	-1.32923	0.132817	-1.43834	-0.100899	0.218296	-1.24786	-1.06116	0.16191	-1.49883	-0.088097	0.174879	-1.22897	-0.437633	0.286169	-1.30187	-0.930057	0.166819	-1.08318	-1.36003	0.328178	-1.18015	-0.604959	0.341603	-1.3318	-0.292558	0.279195	nan	nan	nan	-0.846711	-0.061218	0.0609117	-1.24086	-1.05401	0.0603315	-0.894185	-0.0285594	0.098542	-0.957515	-0.449091	0.00713797	-0.706366	-0.0513496	0.0720854	-1.29426	-0.922305	0.0651868	-1.11461	-1.32944	-0.0491926	-0.956468	-0.613175	-0.0462193	-0.927355	-0.284471	0.0181433	-0.670607	-0.0661616	0.112219
91	3.859	-1.16218	-1.37516	0.150449	-1.03006	-1.33029	0.132213	-1.43302	-0.106811	0.220389	-1.23444	-1.0617	0.163987	-1.4943	-0.0971759	0.177077	-1.21363	-0.437061	0.286687	-1.28811	-0.930442	0.167935	-1.07162	-1.36067	0.327682	-1.16455	-0.604038	0.341332	-1.32035	-0.295152	0.280338	nan	nan	nan	-0.845	-0.0604622	0.0613236	-1.22797	-1.0555	0.0622322	-0.893364	-0.0294153	0.0982135	-0.946545	-0.451291	0.00680103	-0.704917	-0.0455248	0.0746471	-1.28101	-0.923629	0.0662203	-1.10163	-1.32985	-0.0500624	-0.943431	-0.615292	-0.0462064	-0.915305	-0.287373	0.0174144	-0.668026	-0.0575188	0.115013
92	3.86899	-1.14982	-1.37615	0.149439	-1.0178	-1.3317	0.13165	-1.42704	-0.113406	0.222299	-1.2212	-1.06283	0.166032	-1.48854	-0.10726	0.178987	-1.19736	-0.436672	0.287562	-1.27418	-0.931241	0.169337	-1.06012	-1.36177	0.327194	-1.14815	-0.603274	0.34126	-1.30839	-0.298138	0.281561	nan	nan	nan	-0.844354	-0.0599486	0.0612263	-1.21509	-1.05744	0.0644032	-0.89262	-0.0300457	0.0975742	-0.934129	-0.454162	0.00639432	-0.703579	-0.0406327	0.0763747	-1.26759	-0.925347	0.0675172	-1.08859	-1.3308	-0.0507655	-0.930345	-0.617547	-0.046217	-0.902511	-0.289787	0.0156252	-0.666418	-0.0507862	0.117261
93	3.87898	-1.13764	-1.3773	0.148462	-1.00552	-1.33328	0.131326	-1.41959	-0.120689	0.224323	-1.2079	-1.06431	0.168237	-1.48129	-0.118534	0.180435	-1.17998	-0.436381	0.288856	-1.26019	-0.932377	0.170969	-1.04864	-1.3633	0.326672	-1.13102	-0.602721	0.341464	-1.29574	-0.301736	0.282972	nan	nan	nan	-0.842502	-0.0597129	0.0607836	-1.20213	-1.05968	0.066628	-0.891617	-0.0305966	0.0968853	-0.920314	-0.4571	0.00596592	-0.701336	-0.0371609	0.0758909	-1.25406	-0.927346	0.0689287	-1.0755	-1.33221	-0.0513532	-0.916948	-0.620023	-0.0458172	-0.890161	-0.291254	0.0139772	-0.664849	-0.0461537	0.118293
94	3.88897	-1.12562	-1.37857	0.147596	-0.993345	-1.3351	0.131078	-1.41043	-0.128931	0.226326	-1.19466	-1.06603	0.170344	-1.47211	-0.131095	0.180983	-1.16154	-0.43631	0.290612	-1.24626	-0.933736	0.17274	-1.0372	-1.36511	0.326124	-1.11334	-0.602474	0.341969	-1.28223	-0.306077	0.284434	nan	nan	nan	-0.840603	-0.0595691	0.0604402	-1.18915	-1.06209	0.0687081	-0.890855	-0.0310714	0.0964666	-0.906087	-0.45948	0.00550684	-0.699138	-0.0346153	0.0737868	-1.24054	-0.929498	0.0703109	-1.06245	-1.33399	-0.051991	-0.903471	-0.622764	-0.0454259	-0.879252	-0.292109	0.0127167	-0.66351	-0.0427639	0.118111
95	3.89895	-1.11365	-1.37995	0.146832	-0.981216	-1.33708	0.130868	-1.4002	-0.137399	0.227734	-1.18167	-1.06787	0.172168	-1.46055	-0.144365	0.180418	-1.14214	-0.436425	0.292862	-1.23272	-0.935355	0.174004	-1.02579	-1.36709	0.325662	-1.09534	-0.602404	0.342821	-1.2678	-0.311084	0.285792	-1.27774	-0.0296857	0.163219	-0.839842	-0.0594854	0.0603552	-1.17628	-1.06452	0.070552	-0.890503	-0.0313874	0.0962209	-0.892585	-0.46121	0.00489411	-0.697677	-0.0327489	0.072117	-1.22716	-0.931695	0.0715051	-1.04943	-1.3361	-0.0524574	-0.890498	-0.625764	-0.0454309	-0.870538	-0.292811	0.0115971	-0.662628	-0.0399947	0.117941
96	3.90894	-1.1017	-1.38144	0.146117	-0.96915	-1.33909	0.130732	-1.38815	-0.145332	0.228556	-1.16896	-1.06973	0.173727	-1.44645	-0.156937	0.179466	-1.12195	-0.436308	0.295499	-1.2196	-0.937117	0.174769	-1.01454	-1.3691	0.325237	-1.07714	-0.602387	0.343978	-1.25216	-0.316184	0.287137	-1.27547	-0.0295033	0.163143	-0.839446	-0.0594895	0.0604088	-1.16359	-1.06685	0.0721484	-0.890349	-0.031596	0.0959972	-0.880617	-0.462609	0.00405285	-0.696683	-0.031361	0.0716115	-1.21401	-0.933889	0.0724582	-1.03639	-1.33837	-0.0528112	-0.878402	-0.628584	-0.045671	-0.864173	-0.293399	0.010328	-0.661958	-0.0376207	0.118498
97	3.91893	-1.0898	-1.38297	0.14546	-0.957168	-1.3411	0.130757	-1.37377	-0.152199	0.229445	-1.15647	-1.07156	0.174998	-1.43018	-0.16811	0.179062	-1.1013	-0.435896	0.298103	-1.20679	-0.938852	0.175433	-1.00345	-1.37105	0.324894	-1.05886	-0.602394	0.345339	-1.23536	-0.320861	0.288423	-1.2748	-0.029288	0.163175	-0.838812	-0.059533	0.0603999	-1.15098	-1.06901	0.073632	-0.890248	-0.0317204	0.0958276	-0.870558	-0.463875	0.00330219	-0.695907	-0.0302642	0.0713172	-1.20115	-0.936017	0.0732042	-1.02333	-1.34079	-0.0532474	-0.867292	-0.630834	-0.045929	-0.859534	-0.293737	0.00925387	-0.661331	-0.035636	0.119027
98	3.92892	-1.078	-1.38449	0.144893	-0.945164	-1.34304	0.130992	-1.35797	-0.158333	0.230422	-1.14416	-1.07332	0.175975	-1.41281	-0.178475	0.179704	-1.0802	-0.435177	0.300244	-1.19431	-0.940535	0.176	-0.992503	-1.3729	0.32474	-1.04064	-0.602448	0.346687	-1.21721	-0.325002	0.289583	-1.273	-0.0287979	0.163404	-0.838315	-0.0595564	0.0602837	-1.13846	-1.07096	0.074983	-0.890195	-0.0317684	0.0956972	-0.862546	-0.464955	0.00263064	-0.695355	-0.0293994	0.0707887	-1.18862	-0.938041	0.0737661	-1.01008	-1.34308	-0.053456	-0.856542	-0.632563	-0.0462549	-0.855945	-0.293866	0.00831386	-0.660806	-0.033973	0.119126
99	3.93891	-1.06629	-1.38604	0.14442	-0.933299	-1.345	0.131238	-1.34064	-0.165214	0.232397	-1.13208	-1.07496	0.176694	-1.39446	-0.188394	0.181348	-1.0587	-0.434357	0.301894	-1.1822	-0.942149	0.176395	-0.981655	-1.37464	0.324765	-1.02262	-0.60256	0.347914	-1.19765	-0.32843	0.290614	-1.26906	-0.0278193	0.164141	-0.83815	-0.0596057	0.0600614	-1.12619	-1.07281	0.0758523	-0.890198	-0.0317803	0.0955185	-0.856268	-0.465491	0.00190845	-0.695062	-0.0288072	0.0703386	-1.17641	-0.939929	0.07413	-0.996446	-1.34509	-0.0529786	-0.846531	-0.633649	-0.0467551	-0.852909	-0.293809	0.00749296	-0.660439	-0.032766	0.119188
100	3.9489	-1.05462	-1.38773	0.143972	-0.92149	-1.34694	0.131599	-1.32237	-0.172506	0.234714	-1.12024	-1.07649	0.17724	-1.37549	-0.197535	0.183358	-1.03679	-0.433845	0.303262	-1.17045	-0.943688	0.176592	-0.970963	-1.37624	0.324933	-1.00494	-0.602808	0.348932	-1.17677	-0.331005	0.291586	-1.26057	-0.0264274	0.16556	-0.838153	-0.0597715	0.0598168	-1.11423	-1.07459	0.0763259	-0.890216	-0.0318858	0.0952758	-0.851343	-0.465418	0.00106699	-0.694922	-0.0284591	0.0701379	-1.16451	-0.941705	0.0743034	-0.983076	-1.34719	-0.0528001	-0.837707	-0.634099	-0.0473831	-0.850142	-0.293648	0.00688295	-0.660214	-0.0319643	0.119347
101	3.95889	-1.04293	-1.38954	0.143593	-0.909707	-1.34887	0.132104	-1.30446	-0.178807	0.235177	-1.10863	-1.07791	0.177636	-1.35648	-0.205478	0.18485	-1.01462	-0.43392	0.304581	-1.15905	-0.945207	0.17658	-0.960588	-1.37772	0.325173	-0.987613	-0.603214	0.349807	-1.15465	-0.332731	0.292798	-1.24513	-0.0260629	0.166849	-0.838093	-0.0597699	0.0598313	-1.10249	-1.07628	0.0765482	-0.890213	-0.0320512	0.0950686	-0.847342	-0.464934	9.00714e-05	-0.694835	-0.02824	0.0700374	-1.15283	-0.943387	0.07436	-0.969966	-1.34935	-0.0527865	-0.830001	-0.634043	-0.0481351	-0.847542	-0.293509	0.00643719	-0.660086	-0.0313778	0.119461
102	3.96888	-1.03128	-1.39136	0.143276	-0.898026	-1.35076	0.132781	-1.28557	-0.184124	0.234636	-1.09721	-1.07926	0.177828	-1.33684	-0.211534	0.186262	-0.992358	-0.434577	0.305988	-1.14791	-0.94673	0.176389	-0.950672	-1.37917	0.325493	-0.970527	-0.603857	0.350607	-1.13153	-0.333926	0.294487	-1.22321	-0.028397	0.167921	-0.838007	-0.0596175	0.0600317	-1.09076	-1.07782	0.0767894	-0.890289	-0.0321153	0.094996	-0.843984	-0.464365	-0.000802355	-0.694789	-0.0281025	0.0699456	-1.14136	-0.945034	0.0743769	-0.956893	-1.35144	-0.0526649	-0.823216	-0.633695	-0.0489907	-0.845112	-0.293467	0.00614187	-0.660006	-0.0309007	0.119513
103	3.97887	-1.01975	-1.39313	0.143014	-0.886488	-1.35257	0.133557	-1.2643	-0.18834	0.234097	-1.08596	-1.08057	0.177863	-1.31598	-0.215344	0.186569	-0.970116	-0.43575	0.307449	-1.13694	-0.948202	0.176062	-0.941133	-1.38065	0.32588	-0.953582	-0.604918	0.35136	-1.10792	-0.335109	0.296386	-1.1973	-0.031795	0.169341	-0.838049	-0.0596364	0.06006	-1.07908	-1.07934	0.0769402	-0.890373	-0.0320866	0.0949958	-0.841019	-0.464068	-0.00140685	-0.694774	-0.0279761	0.0698459	-1.12999	-0.946614	0.0744435	-0.943627	-1.35339	-0.0522777	-0.81713	-0.633172	-0.0498514	-0.842915	-0.293533	0.00603073	-0.659942	-0.0305129	0.119528
104	3.98885	-1.00835	-1.39487	0.142827	-0.874896	-1.35427	0.134523	-1.24093	-0.191725	0.234169	-1.07463	-1.08185	0.177942	-1.29396	-0.217018	0.184994	-0.947876	-0.437495	0.308807	-1.12614	-0.949667	0.17557	-0.931421	-1.38208	0.32641	-0.936711	-0.60641	0.352087	-1.08424	-0.336697	0.298067	-1.16928	-0.0343184	0.171991	-0.838162	-0.0597611	0.0600564	-1.06758	-1.08091	0.0769586	-0.890447	-0.0320619	0.095031	-0.838084	-0.464204	-0.00154448	-0.694807	-0.0278479	0.0696922	-1.11882	-0.948265	0.0741685	-0.930338	-1.35522	-0.0517743	-0.811547	-0.632544	-0.0506251	-0.841004	-0.293672	0.00618349	-0.659856	-0.0301957	0.119554
105	3.99884	-0.997018	-1.39666	0.142731	-0.863371	-1.35597	0.135564	-1.21657	-0.193158	0.233059	-1.06355	-1.08322	0.177879	-1.27059	-0.216761	0.182776	-0.925594	-0.439849	0.310051	-1.11544	-0.951155	0.17496	-0.921687	-1.38349	0.327054	-0.919809	-0.60824	0.352813	-1.06055	-0.338701	0.299286	-1.13959	-0.0359737	0.17565	-0.838207	-0.0597213	0.0602807	-1.0563	-1.08251	0.076863	-0.890515	-0.0320588	0.0951322	-0.834936	-0.464631	-0.00128846	-0.694899	-0.0277526	0.0694938	-1.10777	-0.949994	0.0735614	-0.917243	-1.35713	-0.051229	-0.806319	-0.631978	-0.0512563	-0.839364	-0.293847	0.00666878	-0.659751	-0.0299569	0.119572
106	4.00883	-0.985724	-1.39849	0.142746	-0.852008	-1.35763	0.136698	-1.19144	-0.19292	0.232155	-1.05278	-1.08473	0.177607	-1.246	-0.214507	0.181063	-0.9032	-0.442557	0.311276	-1.10482	-0.952731	0.174274	-0.912015	-1.38488	0.327754	-0.902911	-0.610361	0.3536	-1.03678	-0.340618	0.300075	-1.10829	-0.0371343	0.179501	-0.838265	-0.0597279	0.0605353	-1.04511	-1.08415	0.0766675	-0.890605	-0.0320314	0.0952997	-0.831319	-0.465077	-0.000704056	-0.694919	-0.0276714	0.0693646	-1.09676	-0.9518	0.0727703	-0.904306	-1.35915	-0.0506623	-0.801076	-0.631483	-0.0516021	-0.83811	-0.294062	0.00740399	-0.659634	-0.029767	0.119588
107	4.01882	-0.974452	-1.40033	0.142763	-0.840922	-1.35927	0.137888	-1.16558	-0.191285	0.231797	-1.04215	-1.08636	0.177269	-1.22054	-0.210398	0.179835	-0.880869	-0.445403	0.312501	-1.09418	-0.954355	0.173553	-0.902445	-1.38631	0.328428	-0.885985	-0.612715	0.354502	-1.01278	-0.341895	0.300639	-1.07555	-0.0379978	0.182821	-0.838357	-0.059791	0.0607618	-1.03399	-1.08588	0.0763085	-0.890732	-0.0319166	0.0955371	-0.827365	-0.4654	4.05994e-05	-0.694993	-0.0276035	0.0691639	-1.08574	-0.953533	0.0719555	-0.891402	-1.36113	-0.0500264	-0.795242	-0.631069	-0.0515419	-0.837296	-0.294403	0.00801832	-0.659526	-0.0296135	0.119622
108	4.02881	-0.963249	-1.4021	0.142806	-0.829835	-1.36091	0.13922	-1.13887	-0.188615	0.231817	-1.03159	-1.08809	0.176871	-1.19436	-0.204718	0.179123	-0.858625	-0.448161	0.313772	-1.08353	-0.956063	0.172876	-0.892965	-1.38793	0.329159	-0.869129	-0.615245	0.355474	-0.988454	-0.342062	0.301101	-1.04153	-0.0386001	0.185584	-0.838446	-0.0598889	0.0609376	-1.02299	-1.08763	0.0758369	-0.890813	-0.0318503	0.0957545	-0.823594	-0.46561	0.000669309	-0.695264	-0.0275611	0.0688256	-1.07464	-0.955208	0.0713099	-0.87854	-1.36304	-0.0492337	-0.789069	-0.630761	-0.0511005	-0.836751	-0.294777	0.00850172	-0.659444	-0.029478	0.119684
109	4.0388	-0.952152	-1.4038	0.142908	-0.818749	-1.36254	0.140549	-1.11127	-0.185193	0.232477	-1.02106	-1.08991	0.176397	-1.16737	-0.197741	0.178769	-0.836496	-0.450779	0.315126	-1.07286	-0.957832	0.17228	-0.883484	-1.3895	0.329914	-0.852512	-0.617904	0.356526	-0.964053	-0.341064	0.301578	-1.00602	-0.0388616	0.188219	-0.838515	-0.0601175	0.0610271	-1.01202	-1.08937	0.0753479	-0.890839	-0.0318458	0.0959473	-0.820152	-0.46571	0.00108424	-0.695192	-0.0274893	0.0688586	-1.06342	-0.956894	0.070787	-0.86572	-1.3649	-0.0482264	-0.782249	-0.630635	-0.0504101	-0.836263	-0.295095	0.00895959	-0.659376	-0.0293651	0.119773
