Coordinates
version=1
nRows=282
nColumns=38
inDegrees=no

Units are S.I. units (second, meters, Newtons, ...)
If the header above contains a line with 'inDegrees', this indicates whether rotational values are in degrees (yes) or radians (no).

endheader
time	pelvis_tilt_moment	pelvis_list_moment	pelvis_rotation_moment	pelvis_tx_force	pelvis_ty_force	pelvis_tz_force	hip_flexion_r_moment	hip_adduction_r_moment	hip_rotation_r_moment	knee_angle_r_moment	ankle_angle_r_moment	subtalar_angle_r_moment	mtp_angle_r_moment	hip_flexion_l_moment	hip_adduction_l_moment	hip_rotation_l_moment	knee_angle_l_moment	ankle_angle_l_moment	subtalar_angle_l_moment	mtp_angle_l_moment	lumbar_extension_moment	lumbar_bending_moment	lumbar_rotation_moment	arm_flex_r_moment	arm_add_r_moment	arm_rot_r_moment	elbow_flex_r_moment	pro_sup_r_moment	wrist_flex_r_moment	wrist_dev_r_moment	arm_flex_l_moment	arm_add_l_moment	arm_rot_l_moment	elbow_flex_l_moment	pro_sup_l_moment	wrist_flex_l_moment	wrist_dev_l_moment
0	0	0	0	0	0	0	0	0	0	0	0	0	0	0	0	0	0	0	0	0	0	0	0	0	0	0	0	0	0	0	0	0	0	0	0	0	0
0.00498227	98.8746	8.19936	-4.75736	20.5471	698.913	-7.48486	-24.6654	5.70384	-1.10581	12.1546	1.58698	-0.07142	-0.074673	-14.5284	21.6631	-4.79357	10.5244	8.35155	3.19595	-0.0682028	2.42726	7.20892	-0.532172	-0.405098	1.40625	0.273495	1.92526	0.0272787	0.212125	-0.0499076	-1.79633	0.153725	0.132371	1.39363	0.0207407	0.163321	-0.0315265
0.00996454	95.4789	11.237	-5.61605	10.0388	665.855	-7.86791	-23.2959	4.81813	-1.0277	12.0876	1.52778	-0.0706256	-0.0721138	-14.9922	21.1699	-4.55205	8.59746	10.8313	4.65791	-0.0716747	2.42116	7.29043	-0.636948	-0.413398	1.23922	0.23377	1.92183	0.0252598	0.208362	-0.0547676	-1.77081	0.337141	0.173867	1.41543	0.0229264	0.168282	-0.0263832
0.0149468	91.5997	14.1558	-6.03729	-0.900271	634.412	-9.2499	-21.1728	3.78686	-0.916947	11.818	1.4644	-0.071467	-0.0689712	-15.64	20.4093	-4.2565	6.70744	13.03	6.01355	-0.0763523	2.37507	7.41969	-0.774557	-0.456184	1.0466	0.189049	1.91006	0.0229179	0.2034	-0.0596888	-1.76825	0.546184	0.222428	1.43374	0.0254806	0.173403	-0.0198938
0.0199291	87.0814	16.8313	-6.08381	-12.2444	604.254	-11.266	-18.3537	2.7279	-0.788289	11.3448	1.40322	-0.0726317	-0.0655928	-16.3417	19.3624	-3.91092	4.78902	14.9382	7.27106	-0.0819144	2.30888	7.62105	-0.915731	-0.527686	0.847122	0.144247	1.89115	0.0205098	0.197777	-0.0640673	-1.7916	0.761274	0.273101	1.44638	0.0281244	0.178074	-0.0127167
0.0249113	81.8713	19.1651	-5.81518	-23.8601	574.947	-13.5763	-14.924	1.73901	-0.656569	10.6804	1.34929	-0.0729332	-0.0622813	-17.0286	18.0217	-3.52004	2.80699	16.5476	8.44305	-0.088049	2.23253	7.91252	-1.0373	-0.62597	0.656653	0.103625	1.8648	0.0182433	0.19182	-0.0673012	-1.8446	0.965056	0.321616	1.45057	0.0306166	0.18168	-0.00535972
0.0298936	75.9944	21.0912	-5.28646	-35.5424	546.054	-15.8604	-10.9877	0.895823	-0.535876	9.84756	1.30648	-0.0714253	-0.059295	-17.678	16.3892	-3.08902	0.749581	17.8502	9.54548	-0.0944426	2.15442	8.30178	-1.1207	-0.749823	0.488634	0.0707396	1.8305	0.0162888	0.185775	-0.0688838	-1.9302	1.14265	0.364368	1.44387	0.032755	0.18369	0.00176219
0.0348759	69.5248	22.5643	-4.54883	-47.0523	517.19	-17.821	-6.66059	0.254796	-0.43932	8.876	1.27768	-0.0673693	-0.0568512	-18.2902	14.4699	-2.62274	-1.38278	18.8399	10.596	-0.100791	2.08242	8.78809	-1.15115	-0.897801	0.354212	0.0484588	1.78793	0.0147839	0.179842	-0.0684218	-2.0501	1.28172	0.398391	1.42434	0.034375	0.183688	0.00830435
0.0398582	62.5593	23.5521	-3.65019	-58.146	488.069	-19.1903	-2.0646	-0.144423	-0.37882	7.80031	1.26494	-0.0602117	-0.0551287	-18.8677	12.2688	-2.12526	-3.58748	19.5135	11.6128	-0.106809	2.02373	9.36393	-1.11753	-1.06792	0.262109	0.0389299	1.73706	0.0138332	0.174187	-0.065645	-2.20459	1.37259	0.421374	1.39072	0.0353505	0.181377	0.0139876
0.0448404	55.2027	24.0326	-2.63532	-68.5939	458.52	-19.7406	2.67708	-0.277512	-0.364845	6.65754	1.26954	-0.0495782	-0.0542686	-19.4047	9.7909	-1.59979	-5.86422	19.8725	12.6124	-0.112241	1.98462	10.0164	-1.01252	-1.25759	0.218449	0.0435481	1.67819	0.0135067	0.168943	-0.0604091	-2.39252	1.4085	0.43169	1.34242	0.0355954	0.176585	0.0185995
0.0498227	47.5653	23.9974	-1.54593	-78.1875	428.482	-19.2983	7.44447	-0.134877	-0.406049	5.48523	1.29208	-0.0352861	-0.0543756	-19.8885	7.04495	-1.04906	-8.21304	19.9235	13.6097	-0.116865	1.9702	10.7287	-0.832615	-1.46371	0.226594	0.0629318	1.61187	0.0138384	0.164203	-0.0526955	-2.61132	1.38572	0.428426	1.27953	0.0350643	0.169267	0.0219976
0.054805	39.765	23.4563	-0.420206	-86.7403	397.981	-17.7566	12.1248	0.278442	-0.508834	4.31952	1.3326	-0.0173689	-0.0555169	-20.3077	4.04852	-0.47567	-10.6295	19.679	14.6165	-0.120501	1.98435	11.4816	-0.578225	-1.68272	0.287042	0.0969147	1.53891	0.0148263	0.160022	-0.0426078	-2.85711	1.30363	0.411398	1.20279	0.0337535	0.159498	0.024112
0.0597872	31.9304	22.4403	0.707876	-94.0867	367.102	-15.0855	16.6161	0.942742	-0.676862	3.19327	1.3906	0.00389234	-0.057723	-20.6598	0.830587	0.117738	-13.1009	19.1572	15.6415	-0.123011	2.02983	12.2546	-0.253586	-1.91079	0.397397	0.144556	1.46027	0.0164317	0.156405	-0.0303654	-3.12486	1.16476	0.381147	1.11351	0.0317	0.147471	0.0249461
0.0647695	24.1958	21.0011	1.80989	-100.085	335.966	-11.3354	20.8307	1.82391	-0.910588	2.13437	1.46516	0.0279406	-0.060987	-20.9536	-2.56938	0.728481	-15.6054	18.3813	16.6903	-0.124305	2.1087	13.0275	0.13336	-2.14393	0.552439	0.204177	1.37704	0.0185815	0.153314	-0.016294	-3.40853	0.974673	0.338914	1.01358	0.0289792	0.133483	0.0245746
0.0697518	16.6926	19.2101	2.86367	-104.622	304.714	-6.64084	24.698	2.87431	-1.20687	1.16422	1.55499	0.0539238	-0.065266	-21.2053	-6.10179	1.35366	-18.1151	17.379	17.7649	-0.124339	2.22271	13.7816	0.571246	-2.37807	0.744302	0.273419	1.29036	0.0211709	0.150663	-0.000813736	-3.70121	0.741767	0.286585	0.905332	0.0257024	0.117929	0.0231377
0.074734	9.5346	17.1422	3.8508	-107.621	273.496	-1.19961	28.1672	4.04543	-1.56117	0.296155	1.65849	0.0810537	-0.0704858	-21.4332	-9.71129	1.99003	-20.599	16.1809	18.8632	-0.123115	2.37391	14.5007	1.04569	-2.60917	0.962784	0.349342	1.2014	0.0240673	0.148331	0.015576	-3.99536	0.476929	0.226608	0.791508	0.0220115	0.101283	0.0208318
0.0797163	2.81547	14.8998	4.76833	-109.042	242.463	4.70125	31.2068	5.26306	-1.96165	-0.464545	1.77398	0.107727	-0.0765377	-21.6531	-13.34	2.63386	-23.027	14.8201	19.9797	-0.120679	2.56515	15.1722	1.53984	-2.83328	1.19579	0.428539	1.11138	0.0271168	0.146166	0.0323147	-4.28293	0.193069	0.161882	0.675162	0.0180726	0.0840822	0.017896
0.0846986	-3.4001	12.5863	5.62088	-108.887	211.756	10.7262	33.8051	6.45131	-2.39355	-1.12128	1.89973	0.132235	-0.083288	-21.877	-16.9302	3.28095	-25.3712	13.3304	21.106	-0.117118	2.80052	15.7874	2.03507	-3.04649	1.42991	0.507289	1.02149	0.0301514	0.143997	0.0488017	-4.55557	-0.095469	0.095615	0.559577	0.0140688	0.0669106	0.0145967
0.0896809	-9.07606	10.3027	6.42049	-107.198	181.494	16.5077	35.9697	7.5352	-2.83952	-1.68571	2.03398	0.152782	-0.0905845	-22.1139	-20.4263	3.92663	-27.6059	11.7449	22.2323	-0.112552	3.08552	16.3419	2.51183	-3.24498	1.65102	0.581725	0.932988	0.0329967	0.141653	0.0644186	-4.8049	-0.373579	0.0311723	0.448174	0.0101912	0.0503732	0.0112097
0.0946631	-14.2031	8.14493	7.18576	-104.056	151.77	21.6652	37.7242	8.4433	-3.27992	-2.17659	2.17512	0.167512	-0.0982628	-22.3706	-23.7764	4.56581	-29.7085	10.0947	23.3481	-0.107132	3.42692	16.8355	2.95054	-3.42496	1.84506	0.648015	0.847162	0.0354816	0.138973	0.078554	-5.02271	-0.626124	-0.0280915	0.344401	0.00662989	0.0350751	0.00800339
0.0996454	-18.8032	6.19714	7.93682	-99.5846	122.656	25.8372	39.1066	9.11635	-3.69476	-2.61862	2.32168	0.174693	-0.106156	-22.65	-26.9333	5.19291	-31.6604	8.40756	24.444	-0.101029	3.83749	17.2714	3.33079	-3.57988	1.99855	0.702343	0.766388	0.0374454	0.135919	0.0905257	-5.19775	-0.838243	-0.079023	0.252903	0.00357204	0.0217326	0.00513005
0.104628	-22.8997	4.52716	8.70365	-93.9224	94.1992	28.6862	40.1587	9.49744	-4.06172	-3.03761	2.47223	0.172569	-0.114091	-22.9523	-29.8654	5.80267	-33.4485	6.70694	25.5124	-0.0944265	4.31507	17.6571	3.63932	-3.71173	2.10004	0.741912	0.690067	0.0387515	0.132214	0.100014	-5.33006	-0.997854	-0.118729	0.174306	0.00116453	0.0106106	0.00297962
0.10961	-26.5521	3.18283	9.50665	-87.2616	66.4571	29.9486	40.9309	9.5568	-4.36225	-3.46183	2.6256	0.159883	-0.12191	-23.2688	-32.5436	6.3892	-35.0668	5.01182	26.5479	-0.0875159	4.87187	18.0007	3.86066	-3.81402	2.13965	0.763871	0.620766	0.0392879	0.127914	0.10647	-5.41024	-1.09361	-0.144864	0.112744	-0.000451709	0.00230807	0.00161734
0.114592	-29.8198	2.19157	10.3639	-79.811	39.5078	29.4337	41.4716	9.27995	-4.57971	-3.91671	2.78056	0.135723	-0.129465	-23.5858	-34.949	6.9466	-36.5147	3.33648	27.5478	-0.080486	5.5132	18.3118	3.98457	-3.88315	2.11036	0.766266	0.560138	0.0389777	0.123043	0.109543	-5.43371	-1.11723	-0.15564	0.0706905	-0.00117557	-0.00279591	0.00114325
0.119574	-32.7625	1.53144	11.2745	-71.797	13.4835	27.078	41.8244	8.69824	-4.70967	-4.42152	2.93575	0.100584	-0.136631	-23.8856	-37.0688	7.46886	-37.7957	1.69076	28.5117	-0.0735177	6.24154	18.6002	4.00506	-3.91564	2.00822	0.747938	0.509953	0.0377828	0.117692	0.108989	-5.39737	-1.06346	-0.149938	0.0501465	-0.000943827	-0.00442279	0.00159509
0.124557	-35.4233	1.20705	12.246	-63.4477	-11.4075	22.8614	42.0248	7.81887	-4.7393	-4.99056	3.0898	0.0540371	-0.143283	-24.147	-38.8965	7.95012	-38.9159	0.080545	29.4412	-0.0667794	7.05558	18.8744	3.92073	-3.90817	1.83264	0.708595	0.4721	0.0357063	0.112024	0.104688	-5.2998	-0.930352	-0.127363	0.0525992	0.000265941	-0.00240306	0.00294594
0.129539	-37.8284	1.19444	13.2709	-54.9961	-34.8549	16.8823	42.0975	6.67502	-4.66325	-5.62884	3.24098	-0.00346058	-0.149311	-24.3465	-40.4317	8.38495	-39.8835	-1.49148	30.3391	-0.0604225	7.94946	19.1411	3.73487	-3.85754	1.58648	0.648835	0.44859	0.0327939	0.106272	0.0966385	-5.14123	-0.719409	-0.0882684	0.0790125	0.00243438	0.00332106	0.00510387
0.134521	-39.9836	1.44664	14.3275	-46.6808	-56.4298	9.3542	42.0558	5.31975	-4.48333	-6.33115	3.38722	-0.070666	-0.154625	-24.4577	-41.6798	8.76869	-40.7084	-3.02511	31.2094	-0.0545795	8.91239	19.4046	3.45536	-3.76073	1.2761	0.570129	0.441569	0.029132	0.100736	0.0849597	-4.92344	-0.435542	-0.0337462	0.129863	0.00550126	0.0126996	0.00791278
0.139504	-41.8732	1.90374	15.3841	-38.7459	-75.5723	0.591635	41.9024	3.81579	-4.20631	-7.08203	3.52603	-0.145812	-0.159152	-24.4516	-42.653	9.09771	-41.4015	-4.5219	32.0564	-0.0493629	9.92881	19.6663	3.09425	-3.61481	0.911103	0.474775	0.453343	0.0248456	0.0957871	0.0698807	-4.64959	-0.0869155	0.0344077	0.20522	0.00936819	0.0255856	0.0111538
0.144486	-43.4613	2.49616	16.4	-31.4451	-91.5852	-8.99845	41.631	2.23152	-3.84349	-7.85607	3.65459	-0.226675	-0.162832	-24.2964	-43.3697	9.36959	-41.9747	-5.98454	32.8845	-0.0448651	10.9789	19.9248	2.66713	-3.41688	0.504068	0.36581	0.486411	0.0200937	0.0918572	0.0517258	-4.32381	0.315344	0.113751	0.304873	0.0139029	0.0417519	0.0145462
0.149468	-44.6956	3.14781	17.3279	-25.0453	-103.631	-18.9287	41.2295	0.637255	-3.41008	-8.6189	3.76983	-0.310666	-0.165626	-23.958	-43.8551	9.58329	-42.4408	-7.41619	33.6974	-0.0411604	12.0398	20.176	2.19236	-3.16393	0.0701545	0.246896	0.54352	0.0150636	0.0894409	0.0308936	-3.95075	0.75754	0.201275	0.428496	0.0189448	0.060914	0.0177488
0.15445	-45.5132	3.7753	18.1153	-19.8314	-110.731	-28.6412	40.6838	-0.895097	-2.92575	-9.32883	3.86856	-0.394829	-0.167515	-23.3995	-44.1406	9.73921	-42.8134	-8.81991	34.4986	-0.0383068	13.0867	20.4136	1.6901	-2.85268	-0.373406	0.12218	0.627721	0.00996506	0.0890908	0.00783381	-3.53513	1.2239	0.293498	0.575835	0.0243117	0.0827561	0.0203611
0.159433	-45.8548	4.26796	18.7003	-16.1175	-111.78	-37.4956	39.9868	-2.27509	-2.42251	-9.94	3.9477	-0.475243	-0.168516	-22.5815	-44.2641	9.83925	-43.1066	-10.1981	35.2901	-0.03635	14.0949	20.6296	1.18136	-2.47939	-0.807854	-0.00385134	0.742439	0.00502266	0.0914139	-0.0169799	-3.08111	1.6971	0.386578	0.7469	0.0298069	0.106959	0.0219262
0.164415	-45.6388	4.57885	19.0434	-14.2211	-105.519	-44.8932	39.123	-3.47556	-1.90977	-10.3995	4.00455	-0.550056	-0.168645	-21.4619	-44.2699	9.88672	-43.3355	-11.5519	36.0728	-0.0353274	15.0408	20.815	0.68702	-2.03971	-1.2135	-0.126538	0.891523	0.000469	0.097067	-0.0430764	-2.59185	2.15889	0.47643	0.942154	0.0352271	0.133229	0.0219349
0.169397	-44.8006	4.62656	19.0968	-14.4944	-90.5778	-50.1714	38.0921	-4.44504	-1.4105	-10.6545	4.03688	-0.616402	-0.16796	-19.9955	-44.2081	9.88634	-43.5162	-12.8811	36.8462	-0.0352718	15.9035	20.9602	0.226912	-1.52843	-1.57031	-0.241208	1.07929	-0.00346286	0.10675	-0.0700137	-2.06901	2.59068	0.558855	1.16268	0.0403696	0.161324	0.0198318
0.174379	-43.2939	4.33164	18.8181	-17.3163	-65.4896	-52.6642	36.909	-5.13993	-0.947938	-10.6541	4.04378	-0.671764	-0.166576	-18.1361	-44.1349	9.84426	-43.6656	-14.1839	37.6082	-0.0361986	16.669	21.0567	-0.183595	-0.939823	-1.85877	-0.343424	1.31051	-0.00655319	0.12119	-0.0974158	-1.51161	2.97423	0.629682	1.41054	0.0450454	0.191098	0.0150118
0.179362	-41.0782	3.61216	18.1711	-23.0883	-28.6855	-51.7022	35.597	-5.52234	-0.545449	-10.3483	4.02466	-0.713787	-0.164612	-15.8333	-44.1129	9.76777	-43.8022	-15.456	38.3551	-0.0381406	17.325	21.0952	-0.529259	-0.266576	-2.05998	-0.428964	1.59051	-0.00858912	0.141151	-0.124972	-0.917168	3.29212	0.684869	1.68844	0.0490756	0.222482	0.00685424
0.184344	-38.1282	2.38571	17.1278	-32.2299	21.4736	-46.6281	34.1923	-5.56017	-0.226007	-9.69044	3.97997	-0.740484	-0.162217	-13.0357	-44.2096	9.66523	-43.9457	-16.691	39.0819	-0.0411386	17.8648	21.0669	-0.796734	0.500046	-2.15609	-0.493958	1.92523	-0.00937199	0.167424	-0.152457	-0.281027	3.52814	0.720575	1.99992	0.0522981	0.255502	-0.00528278
0.189326	-34.4352	0.57035	15.6679	-45.1747	86.6687	-36.8068	32.7456	-5.22635	-0.0118842	-8.63925	3.91135	-0.750325	-0.159575	-9.6913	-44.4963	9.54587	-44.1165	-17.8804	39.782	-0.0452396	18.2868	20.9635	-0.975402	1.3701	-2.13083	-0.535011	2.32104	-0.00872368	0.200814	-0.179745	0.403752	3.66775	0.733267	2.34938	0.0545729	0.290294	-0.0220483
0.194309	-30.0067	-1.91331	13.779	-62.364	168.586	-21.6362	31.3216	-4.49796	0.0756254	-7.16011	3.82173	-0.742292	-0.156899	-5.74972	-45.0463	9.41944	-44.3356	-19.0138	40.4481	-0.0504967	18.5948	20.7773	-1.05782	2.35484	-1.96993	-0.549295	2.78469	-0.00649139	0.242118	-0.206812	1.14637	3.69846	0.719813	2.742	0.0557859	0.3271	-0.0440831
0.199291	-24.8768	-5.14751	11.4513	-84.2545	268.869	-0.548995	30.0019	-3.34452	0.0108442	-5.22688	3.7154	-0.715508	-0.154438	-1.16149	-45.9288	9.29561	-44.6247	-20.0794	41.0719	-0.0569672	18.8014	20.5003	-1.04176	3.46948	-1.66169	-0.534871	3.32415	-0.00255473	0.292196	-0.233849	1.96173	3.61069	0.677565	3.18489	0.0558605	0.366402	-0.0720917
0.204273	-19.0654	-9.19569	8.69131	-111.237	389.101	26.9617	28.8706	-1.7607	-0.219186	-2.81906	3.59765	-0.670402	-0.15245	4.11383	-47.2196	9.18503	-45.0045	-21.0637	41.644	-0.0647132	18.9099	20.1256	-0.9229	4.7211	-1.19592	-0.489715	3.94436	0.00318565	0.351595	-0.260822	2.8556	3.39552	0.604384	3.68177	0.054723	0.408356	-0.106472
0.209255	-12.6314	-14.1033	5.50824	-143.725	530.689	61.321	28.029	0.26415	-0.628977	0.0715066	3.47513	-0.607757	-0.151215	10.115	-48.979	9.09685	-45.496	-21.9524	42.1549	-0.0737937	18.9401	19.6441	-0.705423	6.12597	-0.566109	-0.413247	4.65303	0.0107859	0.421053	-0.288103	3.84592	3.04851	0.498716	4.2404	0.0523545	0.453591	-0.147827
0.214238	-5.6452	-19.903	1.90481	-182.101	694.84	102.872	27.591	2.73991	-1.23261	3.44193	3.35617	-0.528886	-0.151065	16.8714	-51.262	9.03992	-46.1195	-22.7303	42.5944	-0.0842767	18.9091	19.0439	-0.409502	7.69521	0.228727	-0.306274	5.45571	0.0202127	0.500989	-0.316133	4.95088	2.56959	0.360313	4.86796	0.0488053	0.502766	-0.196528
0.21922	1.81298	-26.6152	-2.10421	-226.667	882.44	151.874	27.6689	5.67558	-2.04214	7.28031	3.24903	-0.43534	-0.152297	24.4009	-54.1133	9.02222	-46.8932	-23.3823	42.9519	-0.0962056	18.8363	18.3133	-0.0497324	9.44022	1.1882	-0.169784	6.35734	0.0314289	0.591755	-0.345347	6.18699	1.96022	0.189175	5.57072	0.0441255	0.556474	-0.25288
0.224202	9.65063	-34.2421	-6.4954	-277.635	1093.96	208.469	28.3743	9.07712	-3.06687	11.5633	3.16216	-0.329	-0.15519	32.707	-57.5649	9.05075	-47.8339	-23.8932	43.2164	-0.109603	18.7404	17.4406	0.359925	11.3709	2.3093	-0.00526559	7.36148	0.0443704	0.693545	-0.376173	7.56929	1.22412	-0.0141769	6.35378	0.0383803	0.615237	-0.317071
0.229184	17.7613	-42.764	-11.237	-335.106	1329.36	272.663	29.8146	12.9462	-4.31277	16.2546	3.10385	-0.212029	-0.159989	41.7767	-61.6342	9.13134	-48.9554	-24.2483	43.3765	-0.124463	18.6387	16.4138	0.805203	13.4945	3.58588	0.185233	8.46971	0.0589388	0.806333	-0.40901	9.1107	0.367479	-0.24863	7.22068	0.0316517	0.67947	-0.389136
0.234167	26.0226	-52.1377	-16.2884	-399.042	1587.91	344.293	32.0883	17.2786	-5.78193	21.3037	3.08195	-0.0867992	-0.166895	51.5768	-66.3223	9.2686	-50.2689	-24.4336	43.4201	-0.140744	18.5458	15.2217	1.27175	15.8141	5.00846	0.399109	9.68096	0.0749989	0.929815	-0.444196	10.8209	-0.601054	-0.512449	8.17279	0.0240366	0.749429	-0.468934
0.239149	-9.63575	-2.34259	5.417	2.1418	-0.239652	-0.515489	10.2944	0.459539	0.352373	-4.73129	1.90716	-0.408072	-0.0759499	-7.65108	-34.9384	7.92401	-37.3117	-28.5757	44.3143	-0.0415169	15.4153	16.2324	1.56608	3.11756	-1.66916	-0.452488	2.53937	-0.00101645	0.221242	-0.179718	1.01608	3.36157	0.619721	2.28926	0.0435674	0.271839	-0.036586
0.244131	-9.03449	-2.326	4.78006	1.38522	-1.12832	0.127262	9.13651	0.8327	0.25601	-4.25383	1.74497	-0.360729	-0.0700053	-6.18496	-34.0222	7.75639	-37.0901	-29.1964	44.3758	-0.0417433	14.8415	16.1464	1.91656	3.23988	-1.55743	-0.42233	2.5507	0.000462745	0.223834	-0.175548	1.03814	3.24647	0.587342	2.27369	0.0415119	0.26686	-0.0400478
0.249113	-8.49759	-2.22928	4.15943	1.01116	-1.79607	0.636948	8.0874	1.15987	0.146014	-3.76924	1.59833	-0.314923	-0.0647881	-4.7978	-33.1224	7.58462	-36.8209	-29.8183	44.4218	-0.0419841	14.2819	16.0696	2.23313	3.32924	-1.44798	-0.392012	2.55258	0.0018427	0.225537	-0.170826	1.04581	3.12848	0.555515	2.25289	0.0395107	0.261414	-0.0430602
0.254096	-8.05875	-2.03085	3.58739	0.809486	-2.29021	0.796048	7.16632	1.42682	0.0305998	-3.28833	1.46853	-0.271686	-0.0603114	-3.4678	-32.2277	7.40744	-36.5123	-30.4419	44.4546	-0.0422306	13.7297	16.011	2.52814	3.39548	-1.34361	-0.362264	2.54737	0.00312062	0.22653	-0.165777	1.04262	3.01183	0.524734	2.22815	0.0375746	0.255656	-0.0456635
0.259078	-7.72979	-1.74986	3.06705	0.770991	-2.74058	0.71366	6.37239	1.64341	-0.0898651	-2.81667	1.35619	-0.231472	-0.0565801	-2.19848	-31.354	7.22699	-36.1661	-31.0676	44.4751	-0.0424749	13.1912	15.9604	2.80329	3.44209	-1.24385	-0.33316	2.5361	0.00430695	0.226904	-0.160486	1.03045	2.89668	0.494958	2.19996	0.0356995	0.249647	-0.0479059
0.26406	-7.50815	-1.38854	2.60222	0.761451	-2.82982	0.337142	5.71212	1.80564	-0.210237	-2.35321	1.26197	-0.194872	-0.0536064	-0.97304	-30.4997	7.04337	-35.7857	-31.6947	44.4839	-0.0427378	12.67	15.9231	3.05563	3.47613	-1.15119	-0.305634	2.5214	0.00537765	0.226845	-0.155229	1.01542	2.78656	0.466768	2.171	0.0339249	0.243689	-0.0498666
0.269043	-7.39976	-1.00728	2.17163	0.787251	-2.73331	0.126641	5.17428	1.95129	-0.33972	-1.89937	1.18515	-0.161488	-0.0513562	0.199665	-29.7093	6.86147	-35.3716	-32.3231	44.4804	-0.0430047	12.1736	15.8681	3.28441	3.49912	-1.05935	-0.278515	2.50402	0.00639334	0.226498	-0.14993	0.999177	2.67536	0.438916	2.14127	0.0321927	0.237719	-0.0517111
0.274025	-7.39903	-0.604294	1.77707	0.847681	-2.47659	0.0267979	4.75077	2.0774	-0.473306	-1.45661	1.12496	-0.131568	-0.0497822	1.32043	-28.9769	6.68138	-34.922	-32.9525	44.4643	-0.0432719	11.7062	15.7977	3.48793	3.51377	-0.970288	-0.252397	2.48473	0.0073349	0.225902	-0.14472	0.984263	2.56536	0.41181	2.11171	0.0305263	0.231863	-0.0534497
0.279007	-7.47978	-0.192772	1.41279	1.05526	-2.03658	0.109869	4.42095	2.1887	-0.608513	-1.02142	1.07994	-0.105027	-0.0488186	2.37806	-28.3048	6.50424	-34.431	-33.5827	44.4345	-0.0435378	11.2783	15.7083	3.66656	3.52069	-0.883474	-0.227214	2.46409	0.00821269	0.225125	-0.139632	0.970762	2.45644	0.385422	2.08263	0.0289266	0.226164	-0.0551116
0.283989	-7.66692	0.24648	1.0856	1.2266	-1.70688	0.203855	4.18976	2.27733	-0.739323	-0.604334	1.04898	-0.0820799	-0.0483911	3.38783	-27.6779	6.32911	-33.9016	-34.2141	44.3904	-0.0437773	10.8766	15.6057	3.81975	3.52389	-0.801451	-0.203667	2.44228	0.00899659	0.224132	-0.134774	0.962816	2.35088	0.360042	2.05459	0.0274058	0.220685	-0.0567099
0.288972	-7.96336	0.737932	0.802526	1.14455	-1.35817	0.0777174	4.06468	2.32753	-0.857388	-0.208602	1.03108	-0.0629958	-0.0484382	4.37309	-27.0722	6.15421	-33.336	-34.8463	44.3308	-0.0439933	10.4899	15.5057	3.94733	3.52966	-0.727349	-0.182652	2.42089	0.00965476	0.223012	-0.130344	0.966046	2.25221	0.336153	2.02947	0.0259925	0.215622	-0.058299
0.293954	-8.32145	1.25111	0.549019	1.08863	-1.09141	-0.0488091	4.00744	2.35337	-0.964036	0.17224	1.02372	-0.047203	-0.0488611	5.30224	-26.5008	5.9822	-32.7229	-35.4794	44.2544	-0.0441765	10.1327	15.3972	4.05335	3.53397	-0.657359	-0.163115	2.39917	0.0102355	0.221779	-0.126171	0.975707	2.15665	0.313072	2.00591	0.0246495	0.210818	-0.0598931
0.298936	-8.72081	1.78856	0.320986	1.13083	-1.00449	-0.203363	3.99937	2.35395	-1.05638	0.538382	1.02502	-0.034475	-0.0495748	6.16515	-25.9539	5.81313	-32.0568	-36.1139	44.1604	-0.044318	9.81013	15.2824	4.13866	3.53879	-0.591613	-0.145146	2.3777	0.0107425	0.220503	-0.122313	0.99391	2.06456	0.290741	1.98469	0.023379	0.206356	-0.0615658
0.303918	-9.16868	2.35232	0.121657	0.989762	-1.02639	-0.494757	4.05307	2.3216	-1.13014	0.884827	1.03401	-0.0248582	-0.0505217	6.99077	-25.4263	5.64651	-31.3441	-36.7499	44.0482	-0.0444212	9.49409	15.1732	4.20782	3.54431	-0.530149	-0.128569	2.35583	0.0111717	0.219099	-0.118668	1.0192	1.97552	0.269029	1.96476	0.0221619	0.202075	-0.0632474
0.308901	-9.64024	2.89908	-0.0704355	0.683095	-1.02506	-0.568155	4.15365	2.28379	-1.19322	1.21701	1.04907	-0.0175768	-0.0516446	7.77336	-24.9427	5.4848	-30.5829	-37.3874	43.9171	-0.0444953	9.19009	15.052	4.26345	3.55329	-0.466619	-0.11212	2.33519	0.0115915	0.217814	-0.115184	1.05411	1.88377	0.246605	1.94717	0.020944	0.198001	-0.0651713
0.313883	-10.0859	3.43676	-0.254673	0.526556	-1.08186	-0.539224	4.2662	2.22937	-1.23985	1.54003	1.06833	-0.0125145	-0.0528682	8.48372	-24.4873	5.32712	-29.763	-38.0278	43.7677	-0.0445432	8.90995	14.9295	4.30798	3.56002	-0.403146	-0.0959371	2.3142	0.01199	0.216508	-0.111776	1.09256	1.79132	0.224048	1.93046	0.0197466	0.194042	-0.0671827
0.318865	-10.5012	3.96204	-0.432513	0.439329	-1.1583	-0.447326	4.38989	2.15798	-1.26951	1.85249	1.09097	-0.00951254	-0.0541534	9.13111	-24.0562	5.17273	-28.8878	-38.672	43.6011	-0.044573	8.64541	14.8122	4.3426	3.56559	-0.340049	-0.0800772	2.29304	0.0123632	0.21519	-0.108453	1.13546	1.69856	0.201363	1.91491	0.0185702	0.190212	-0.0692926
0.323848	-10.8811	4.4699	-0.606348	0.366129	-1.22101	-0.308338	4.52299	2.07088	-1.28255	2.15345	1.11631	-0.00839133	-0.0554697	9.72227	-23.6481	5.02097	-27.9608	-39.3216	43.4187	-0.0445927	8.38997	14.7046	4.36801	3.57048	-0.277561	-0.0645794	2.2718	0.0127078	0.21386	-0.105214	1.18314	1.60576	0.178586	1.90063	0.0174163	0.186516	-0.0714981
0.32883	-11.2174	4.9606	-0.776781	0.282597	-1.22015	-0.180058	4.66292	1.96591	-1.27857	2.44264	1.14385	-0.00904481	-0.0567952	10.2612	-23.2581	4.87095	-26.9852	-39.9784	43.2228	-0.0446109	8.13949	14.6134	4.384	3.57482	-0.21697	-0.049719	2.2505	0.01301	0.212494	-0.102085	1.23565	1.51432	0.156019	1.8878	0.0162994	0.182983	-0.0737628
0.333812	-11.505	5.42705	-0.94657	0.178897	-1.16968	-0.0615528	4.80587	1.84618	-1.25918	2.71949	1.17315	-0.0112718	-0.0581125	10.7496	-22.8886	4.72245	-25.965	-40.6448	43.0159	-0.0446308	7.89067	14.5402	4.39006	3.57814	-0.158846	-0.0356151	2.22894	0.0132623	0.211064	-0.0990654	1.29256	1.42488	0.13384	1.87631	0.0152265	0.17961	-0.0760515
0.338794	-11.7366	5.86268	-1.11808	0.0949638	-1.12644	0.0424307	4.94414	1.71447	-1.22607	2.9842	1.20374	-0.0148673	-0.0594071	11.1843	-22.5425	4.57539	-24.9035	-41.3234	42.8011	-0.0446515	7.6432	14.4857	4.38513	3.57906	-0.104165	-0.022456	2.2067	0.0134535	0.209513	-0.0961509	1.35261	1.33842	0.112354	1.86581	0.0142102	0.176386	-0.0782998
0.343777	-11.9064	6.25823	-1.29421	0.0475119	-1.09203	0.145768	5.07275	1.5754	-1.18178	3.23766	1.23536	-0.0196088	-0.0606738	11.5648	-22.2252	4.42994	-23.8053	-42.0172	42.5816	-0.0446744	7.39722	14.4497	4.36769	3.57702	-0.0537364	-0.010448	2.18368	0.0135739	0.207814	-0.0933606	1.4153	1.25591	0.0918465	1.85627	0.0132634	0.17333	-0.0804628
0.348759	-12.022	6.59456	-1.48068	-0.0545782	-1.0418	0.345776	5.19582	1.4414	-1.13176	3.47924	1.26799	-0.0251702	-0.0619176	11.9008	-21.9514	4.28677	-22.6791	-42.7289	42.3609	-0.0447007	7.14807	14.4259	4.33612	3.57345	-0.00685775	0.00043137	2.16039	0.0136262	0.206007	-0.0907217	1.48208	1.17685	0.0722425	1.84812	0.0123838	0.170476	-0.0825641
0.353741	-12.0861	6.8748	-1.67543	-0.158146	-1.14013	0.55935	5.3049	1.31028	-1.07641	3.70814	1.30129	-0.0314408	-0.0631289	12.1904	-21.7198	4.14557	-21.5305	-43.462	42.1429	-0.044721	6.89685	14.4169	4.28782	3.5667	0.033863	0.00961359	2.13611	0.0135822	0.203984	-0.0882663	1.55163	1.10378	0.0541975	1.84089	0.0115989	0.167828	-0.0844944
0.358723	-12.0775	7.10695	-1.87587	-0.192172	-1.1292	0.665728	5.39531	1.1743	-1.0146	3.93033	1.33542	-0.0384459	-0.0643239	12.4313	-21.5219	4.00552	-20.3628	-44.2192	41.9316	-0.0447547	6.65251	14.4322	4.21974	3.55762	0.0649925	0.0162438	2.11165	0.0134097	0.201764	-0.0861362	1.62431	1.04082	0.0386479	1.83556	0.0109571	0.165548	-0.0861825
0.363706	-12.0033	7.28727	-2.08353	-0.185096	-1.0493	0.67244	5.46624	1.03768	-0.949115	4.14581	1.37034	-0.0460039	-0.0655059	12.6302	-21.3637	3.86676	-19.1845	-45.0036	41.7309	-0.0448003	6.41416	14.4686	4.12964	3.54688	0.0857229	0.0200406	2.08717	0.0130981	0.19934	-0.0843791	1.7007	0.988966	0.0258631	1.83234	0.0104702	0.163673	-0.0876009
0.368688	-11.8722	7.39439	-2.30181	-0.15043	-0.956809	0.66005	5.51549	0.918165	-0.888422	4.35558	1.40582	-0.0534898	-0.0666812	12.7923	-21.2565	3.72978	-18.0036	-45.8183	41.5444	-0.0448552	6.18205	14.5189	4.01607	3.5348	0.0963803	0.0209926	2.06283	0.0126494	0.19672	-0.0830094	1.78098	0.94803	0.0158742	1.83122	0.0101382	0.162213	-0.0887433
0.37367	-11.6892	7.42563	-2.53237	-0.0894804	-0.890327	0.660266	5.53915	0.818219	-0.833509	4.56086	1.44174	-0.0608331	-0.0678504	12.9233	-21.2085	3.59483	-16.8281	-46.6663	41.3756	-0.0449181	5.95741	14.5785	3.87792	3.52181	0.0969742	0.019033	2.03881	0.0120636	0.193915	-0.0820493	1.86534	0.918175	0.00876246	1.83228	0.0099639	0.161184	-0.0896027
0.378652	-11.4614	7.38354	-2.77524	-0.020933	-0.875445	0.666521	5.53511	0.737977	-0.784969	4.7626	1.47803	-0.0679821	-0.0690154	13.0313	-21.2232	3.46182	-15.6658	-47.5506	41.2279	-0.0449881	5.74057	14.6449	3.71428	3.50887	0.0871274	0.0140034	2.01543	0.0113373	0.19094	-0.081537	1.95438	0.899954	0.00466202	1.83575	0.0099525	0.160619	-0.0901746
0.383635	-11.1951	7.26849	-3.03073	0.0354059	-0.9166	0.686251	5.50148	0.67975	-0.744298	4.96223	1.5146	-0.074814	-0.0701794	13.1245	-21.3037	3.33067	-14.5242	-48.4738	41.1042	-0.0450644	5.53226	14.7152	3.52493	3.49719	0.0669264	0.00585379	1.99309	0.0104726	0.187831	-0.0815037	2.04882	0.89348	0.00359114	1.84188	0.0101042	0.160546	-0.0904732
0.388617	-10.8844	7.09609	-3.29523	0.140376	-0.973769	0.618995	5.43072	0.635228	-0.709669	5.16352	1.55138	-0.0813951	-0.0713456	13.2041	-21.4412	3.20066	-13.4076	-49.4386	41.0071	-0.0451499	5.33845	14.7939	3.30962	3.48726	0.0347505	-0.00578578	1.97207	0.00945805	0.184593	-0.0820073	2.14843	0.900655	0.00595788	1.85093	0.0104372	0.161019	-0.0904658
0.393599	-10.5279	6.88788	-3.56367	0.291929	-0.943329	0.330553	5.32176	0.592755	-0.678568	5.36917	1.58851	-0.0878938	-0.0725227	13.2772	-21.6221	3.07082	-12.3213	-50.4473	40.9391	-0.0452502	5.16262	14.8882	3.06833	3.48116	-0.0111818	-0.0213693	1.95311	0.00828001	0.181268	-0.083139	2.25448	0.923614	0.0121469	1.86363	0.0109705	0.162131	-0.0901505
0.398582	-10.0894	6.56735	-3.86255	0.77345	-0.864492	0.514114	5.13893	0.609162	-0.666001	5.59384	1.62506	-0.0931662	-0.0737131	13.3165	-21.9072	2.94479	-11.2626	-51.502	40.9011	-0.0453569	5.02736	14.9518	2.80737	3.47725	-0.0592643	-0.0383024	1.93715	0.00706767	0.178136	-0.08466	2.36467	0.951313	0.0198743	1.87959	0.0116016	0.163737	-0.0897946
0.403564	-9.69909	6.14979	-4.18163	0.77629	-1.17543	1.05554	4.94139	0.680474	-0.672048	5.81215	1.66146	-0.0974133	-0.0749038	13.4137	-22.2974	2.82152	-10.2648	-52.6053	40.895	-0.0454334	4.87309	14.987	2.53071	3.48154	-0.107811	-0.0562981	1.92352	0.00581891	0.175101	-0.0864832	2.48438	0.980536	0.0281585	1.89784	0.0122667	0.165611	-0.0894632
0.408546	-9.30722	5.79536	-4.47832	0.458482	-1.14469	0.770167	4.73205	0.701735	-0.669464	6.03222	1.69918	-0.102562	-0.0761325	13.5611	-22.6662	2.69397	-9.32077	-53.7587	40.9238	-0.0455336	4.7265	15.072	2.23048	3.50254	-0.17635	-0.0799485	1.91512	0.0043533	0.172166	-0.0893071	2.62059	1.03253	0.0411662	1.92312	0.0131786	0.168472	-0.0889358
0.413528	-8.87466	5.38357	-4.78001	0.261937	-1.14886	0.56756	4.45604	0.765574	-0.684374	6.27141	1.73635	-0.10637	-0.0773886	13.7169	-23.0917	2.56692	-8.42327	-54.9646	40.9879	-0.0456277	4.61033	15.1457	1.91869	3.53123	-0.249327	-0.105367	1.91046	0.00284443	0.169467	-0.0925902	2.76299	1.09149	0.0558259	1.95191	0.0141821	0.171826	-0.0883934
0.418511	-8.4112	4.93991	-5.08116	0.107286	-1.20216	0.359892	4.11097	0.855649	-0.710436	6.53198	1.77305	-0.109356	-0.0786739	13.8963	-23.5654	2.43983	-7.5786	-56.2248	41.0884	-0.0457122	4.52282	15.2129	1.59962	3.57085	-0.326072	-0.132407	1.91033	0.00130548	0.167094	-0.0963565	2.91376	1.15681	0.0717742	1.98479	0.0152606	0.175695	-0.0879302
0.423493	-9.36925	4.78266	-5.50474	-0.00508101	-1.20207	0.0897656	5.29667	1.16312	-1.05022	5.75184	3.48884	0.051835	-0.0797375	14.0999	-24.048	2.31009	-6.78878	-57.5482	41.2286	-0.0455653	4.32692	15.1515	1.26944	3.6064	-0.397386	-0.158888	1.90282	-0.000224653	0.163978	-0.0997875	3.05946	1.21393	0.0870436	2.00838	0.0162231	0.178713	-0.0870461
0.428475	-9.10211	4.35832	-5.80826	-0.160113	-1.18155	-0.197259	5.09782	1.35441	-1.1406	5.87486	3.83901	0.0934909	-0.0810399	14.3562	-24.5948	2.18172	-6.06108	-58.9226	41.4054	-0.0455876	4.26484	15.184	0.949107	3.67292	-0.475358	-0.187687	1.9116	-0.00175002	0.162337	-0.104344	3.22874	1.28486	0.103689	2.04798	0.0173434	0.183341	-0.0869313
0.433457	-8.81871	3.92815	-6.0996	-0.348321	-1.17173	-0.481946	4.82618	1.5718	-1.23865	6.02338	4.199	0.14061	-0.0823781	14.6636	-25.1802	2.05296	-5.39703	-60.3548	41.6206	-0.0455968	4.23182	15.2067	0.638291	3.75751	-0.550875	-0.21659	1.92696	-0.0032181	0.161336	-0.109307	3.40965	1.35614	0.119739	2.09248	0.0184494	0.188425	-0.087215
0.43844	-8.52289	3.49527	-6.37398	-0.611424	-1.26888	-0.738466	4.4685	1.81533	-1.34263	6.204	4.56251	0.193271	-0.0837453	15.0341	-25.804	1.9239	-4.80093	-61.8453	41.8742	-0.0455881	4.2265	15.2172	0.343353	3.86197	-0.621395	-0.244949	1.94927	-0.00459548	0.16106	-0.114618	3.60284	1.42513	0.134428	2.14181	0.0195038	0.193904	-0.0880052
0.443422	-8.21441	3.07798	-6.62397	-0.982575	-1.55265	-1.03747	4.0098	2.07422	-1.44827	6.42419	4.9221	0.251272	-0.0851291	15.4788	-26.4557	1.79418	-4.27609	-63.3942	42.1656	-0.0455589	4.24769	15.2183	0.069499	3.98799	-0.686068	-0.272492	1.9788	-0.00586618	0.161562	-0.120257	3.8089	1.49092	0.147369	2.19601	0.0204869	0.199752	-0.0893663
0.448404	-7.87317	2.69153	-6.83162	-1.3678	-2.07982	-1.58456	3.42309	2.3482	-1.55634	6.69725	5.26902	0.314991	-0.0865235	15.9966	-27.1043	1.6626	-3.82074	-65.0006	42.494	-0.0455109	4.30081	15.222	-0.180297	4.13542	-0.747333	-0.299619	2.01532	-0.00704511	0.162807	-0.126252	4.0265	1.55593	0.158997	2.25487	0.0214157	0.205976	-0.0912469
0.453387	-7.41602	2.26075	-7.0105	-1.36026	-2.2311	-1.79123	2.67014	2.68021	-1.67171	7.04826	5.5941	0.384666	-0.0879562	16.5481	-27.7985	1.53204	-3.42239	-66.6617	42.8567	-0.0454874	4.4279	15.2018	-0.395215	4.30283	-0.795011	-0.32386	2.06109	-0.00800602	0.165187	-0.132413	4.2521	1.6114	0.167385	2.3192	0.0222141	0.21255	-0.0939124
0.458369	-6.91642	1.8276	-7.15564	-1.52991	-2.20475	-1.80237	1.77911	3.03317	-1.78245	7.46702	5.88694	0.458639	-0.0893693	17.1963	-28.53	1.40206	-3.10056	-68.3748	43.2518	-0.0454766	4.59464	15.1638	-0.572011	4.49844	-0.828239	-0.345247	2.11713	-0.00875047	0.168779	-0.138806	4.49405	1.65585	0.171759	2.39019	0.0228479	0.219501	-0.0975429
0.463351	-6.35529	1.42048	-7.25912	-1.70671	-2.2692	-1.78049	0.710486	3.37961	-1.88068	7.96747	6.13534	0.535677	-0.0907012	17.9331	-29.283	1.27244	-2.85195	-70.1375	43.6769	-0.0454673	4.80791	15.1161	-0.707949	4.71798	-0.848704	-0.363859	2.18187	-0.00928813	0.17345	-0.145352	4.7479	1.69051	0.172437	2.46643	0.0233257	0.226722	-0.102032
0.468333	-5.7263	1.05569	-7.3169	-1.92237	-2.34144	-1.80619	-0.545879	3.69781	-1.96061	8.55801	6.32726	0.614134	-0.0919011	18.7643	-30.048	1.14334	-2.677	-71.9456	44.1292	-0.0454712	5.07071	15.0656	-0.801008	4.96238	-0.856793	-0.379738	2.25571	-0.00961973	0.179237	-0.152068	5.01429	1.71588	0.16941	2.54838	0.0236508	0.234249	-0.107407
0.473316	-5.01566	0.748356	-7.33005	-2.11965	-2.4208	-1.98513	-2.00889	3.9625	-2.0164	9.24929	6.44984	0.691973	-0.0928898	19.6873	-30.8147	1.01502	-2.57363	-73.7946	44.6055	-0.0455032	5.38742	15.0228	-0.854662	5.22835	-0.854695	-0.393274	2.33776	-0.00977289	0.186032	-0.158945	5.29161	1.73388	0.163204	2.63576	0.0238512	0.242088	-0.11358
0.478298	-4.21592	0.488356	-7.30238	-2.24392	-2.55069	-2.21614	-3.69548	4.17109	-2.04708	10.0519	6.49025	0.76713	-0.0935882	20.6976	-31.5913	0.888677	-2.53996	-75.6794	45.1021	-0.0455697	5.76366	14.9809	-0.869061	5.51291	-0.841132	-0.404087	2.42743	-0.00973573	0.193806	-0.165903	5.57745	1.74315	0.153651	2.72799	0.0239202	0.250177	-0.120525
0.48328	-3.33714	0.223294	-7.22847	-2.2999	-2.67857	-2.31585	-5.60772	4.35633	-2.05855	10.9727	6.4362	0.838017	-0.0939246	21.795	-32.391	0.76574	-2.5758	-77.5941	45.6151	-0.0456836	6.20695	14.9328	-0.844122	5.81441	-0.814236	-0.411721	2.52476	-0.00949045	0.202592	-0.172886	5.87075	1.74196	0.140442	2.82505	0.023848	0.258498	-0.128268
0.488262	-2.41224	-0.0146919	-7.12597	-2.37936	-2.77934	-2.29491	-7.7382	4.45703	-2.03758	12.0149	6.27727	0.899398	-0.093798	22.9944	-33.2292	0.647732	-2.68671	-79.532	46.1403	-0.0458547	6.72231	14.8817	-0.780744	6.13212	-0.773666	-0.416086	2.62979	-0.00903763	0.212399	-0.179884	6.17207	1.72987	0.123466	2.92732	0.0236372	0.267077	-0.136838
0.493245	-1.45937	-0.214833	-6.99788	-2.29555	-2.95533	-2.24015	-10.0977	4.44243	-1.98027	13.1875	6.00406	0.946806	-0.0931135	24.2857	-34.105	0.535551	-2.87054	-81.4867	46.6736	-0.0460869	7.33028	14.8341	-0.683066	6.45976	-0.722315	-0.417637	2.74112	-0.00840568	0.223085	-0.186872	6.47655	1.70968	0.103582	3.03394	0.02333	0.275907	-0.146076
0.498227	-0.453938	-0.414246	-6.8625	-1.61484	-3.10272	-1.85089	-12.7126	4.31779	-1.88786	14.5072	5.60958	0.975767	-0.091805	25.6267	-35.0513	0.431871	-3.11573	-83.4506	47.2104	-0.0463944	8.07368	14.7729	-0.554445	6.79068	-0.658037	-0.415797	2.85865	-0.00756652	0.234705	-0.193788	6.77931	1.67996	0.0808085	3.14499	0.0229413	0.285042	-0.15597
0.503209	0.598814	-0.65206	-6.73878	-0.321386	-2.64877	-0.860967	-15.5497	4.08606	-1.76167	15.9736	5.0909	0.981088	-0.0898343	27.0079	-36.0987	0.338983	-3.41999	-85.4149	47.7453	-0.0468228	8.96712	14.6893	-0.397011	7.1201	-0.578288	-0.409872	2.98244	-0.00650039	0.247274	-0.20051	7.07585	1.63872	0.0550478	3.26017	0.0224693	0.294425	-0.166448
0.508191	1.66721	-0.944951	-6.64906	1.26207	-1.82319	0.997269	-18.5876	3.75341	-1.60329	17.5852	4.4469	0.957667	-0.0871197	28.4432	-37.2735	0.258872	-3.78874	-87.3717	48.2735	-0.0473599	9.98518	14.5571	-0.215875	7.45033	-0.479791	-0.399478	3.11266	-0.00519521	0.260803	-0.207026	7.37068	1.5825	0.0256273	3.37984	0.0218859	0.304051	-0.177596
0.513174	2.67002	-1.31017	-6.57071	2.0385	0.315312	3.48079	-21.6913	3.34991	-1.41923	19.3098	3.68272	0.901479	-0.0836671	30.0019	-38.5317	0.189881	-4.23977	-89.3106	48.7905	-0.0480735	11.077	14.3986	-0.023073	7.80332	-0.367958	-0.386979	3.25503	-0.00374099	0.275585	-0.213925	7.68632	1.51798	-0.00659069	3.5106	0.0212521	0.314526	-0.189639
0.518156	3.33787	-1.46115	-6.46982	0.74546	1.82523	4.53882	-24.7838	2.62535	-1.18884	21.1149	2.80402	0.803302	-0.0792592	31.8376	-39.715	0.124549	-4.82298	-91.2267	49.2945	-0.0488432	12.1224	14.3249	0.155045	8.18151	-0.274033	-0.379606	3.40214	-0.00250988	0.290433	-0.221693	8.03077	1.47169	-0.0359464	3.64942	0.0207895	0.325857	-0.2018
0.523138	3.68506	-1.38026	-6.36191	-1.919	1.57769	4.25477	-27.9431	1.56807	-0.918385	23.0285	1.8212	0.659303	-0.0738507	33.8995	-40.831	0.0641279	-5.52776	-93.1134	49.7811	-0.0495932	13.1384	14.3105	0.310969	8.5618	-0.199752	-0.377048	3.54681	-0.00151797	0.304721	-0.229916	8.38281	1.44377	-0.0612756	3.78914	0.0205202	0.337509	-0.213525
0.528121	3.74454	-1.08116	-6.27662	-5.61572	-0.720783	3.13605	-31.1946	0.215042	-0.618275	25.0639	0.751307	0.467462	-0.0674798	36.1469	-41.9063	0.0107475	-6.34464	-94.962	50.2455	-0.0502991	14.1313	14.3006	0.438024	8.9332	-0.139693	-0.378026	3.68662	-0.000716975	0.318288	-0.238325	8.73195	1.42878	-0.0829094	3.92643	0.0204129	0.349192	-0.224622
0.533103	3.70363	-0.597391	-6.25545	-9.59624	-4.37536	1.92692	-34.5805	-1.36997	-0.299717	27.2413	-0.381993	0.227654	-0.0602905	38.4615	-42.9726	-0.0327614	-7.23575	-96.762	50.683	-0.0510012	15.1383	14.2282	0.530229	9.28686	-0.0859019	-0.380806	3.82216	-2.10897e-05	0.331263	-0.246731	9.06774	1.42079	-0.101207	4.06018	0.0204461	0.360828	-0.234979
0.538085	3.76162	0.0324968	-6.32395	-13.5441	-8.43834	1.1052	-38.1082	-3.12426	0.0271265	29.5653	-1.54984	-0.0579901	-0.0524608	40.7422	-44.0389	-0.0647499	-8.1656	-98.5021	51.0888	-0.0517555	16.1607	14.0525	0.581792	9.62342	-0.0337564	-0.384673	3.95561	0.000611064	0.343826	-0.255133	9.38875	1.41716	-0.11625	4.19133	0.020612	0.372497	-0.244567
0.543067	4.08568	0.76125	-6.47239	-17.1758	-12.271	0.60159	-41.7846	-5.00188	0.353521	32.032	-2.71958	-0.384628	-0.0441795	42.9011	-45.0818	-0.0853117	-9.10298	-100.172	51.4589	-0.0525958	17.1918	13.7843	0.586536	9.94248	0.0125249	-0.39062	4.08734	0.00113387	0.355907	-0.263625	9.69326	1.42307	-0.126629	4.3203	0.020966	0.384297	-0.253184
0.54805	4.74665	1.50299	-6.67172	-20.2604	-15.6114	0.202614	-45.6007	-6.94723	0.670846	34.6231	-3.85553	-0.74416	-0.0356427	44.8847	-46.0852	-0.0944702	-10.0306	-101.762	51.789	-0.053525	18.2304	13.4557	0.54017	10.2416	0.0464861	-0.399924	4.21648	0.00148205	0.36733	-0.272272	9.97887	1.44503	-0.130809	4.4469	0.021572	0.396278	-0.26062
0.553032	5.69555	2.14474	-6.87682	-22.7479	-18.4713	-0.214393	-49.5122	-8.88252	0.969808	37.2995	-4.91981	-1.12497	-0.0270608	46.6873	-47.0483	-0.0918246	-10.9492	-103.262	52.0748	-0.0545171	19.2795	13.0936	0.449154	10.5207	0.0656056	-0.412844	4.34261	0.00164439	0.378063	-0.28106	10.2442	1.48534	-0.128525	4.57083	0.0224358	0.408412	-0.266854
0.558014	6.81465	2.58742	-7.05411	-24.7298	-20.9714	-0.685655	-53.4503	-10.7286	1.24301	40.0068	-5.87385	-1.51249	-0.0186473	48.3342	-47.9753	-0.0769888	-11.8702	-104.664	52.3115	-0.0555394	20.3412	12.7132	0.313025	10.7799	0.0680136	-0.429738	4.4653	0.00160232	0.38806	-0.290012	10.4903	1.54532	-0.119614	4.69214	0.0235663	0.420705	-0.271894
0.562996	7.97658	2.76498	-7.18127	-26.3368	-23.2352	-1.2174	-57.3371	-12.4185	1.48455	42.682	-6.67983	-1.88992	-0.0106248	49.8565	-48.8653	-0.0499594	-12.8058	-105.958	52.4948	-0.0565584	21.4138	12.3191	0.128446	11.0194	0.0524175	-0.450964	4.58414	0.00133805	0.397268	-0.299164	10.7186	1.62573	-0.103939	4.81082	0.0249702	0.43317	-0.275742
0.567979	9.07098	2.64121	-7.24441	-27.6771	-25.3531	-1.8175	-61.0944	-13.8996	1.68988	45.2578	-7.3026	-2.23929	-0.00322341	51.278	-49.711	-0.011147	-13.7648	-107.135	52.6201	-0.0575422	22.4922	11.91	-0.108733	11.2394	0.017831	-0.476851	4.6987	0.000835699	0.405628	-0.308546	10.9302	1.72705	-0.0813477	4.92664	0.0266518	0.445798	-0.278381
0.572961	10.0081	2.2036	-7.23678	-28.8193	-27.3822	-2.50308	-64.6457	-15.1329	1.85515	47.6638	-7.71156	-2.54093	0.00332557	52.6132	-50.5005	0.0387114	-14.7514	-108.184	52.6829	-0.05846	23.5677	11.4818	-0.402339	11.4396	-0.0364429	-0.507646	4.80839	8.27932e-05	0.413064	-0.318168	11.1256	1.84951	-0.0517093	5.03909	0.0286115	0.458554	-0.279774
0.577943	10.7155	1.46252	-7.1589	-29.7891	-29.3499	-3.29553	-67.9144	-16.0983	1.97904	49.8277	-7.88262	-2.7777	0.00879602	53.8673	-51.22	0.0987434	-15.766	-109.098	52.6787	-0.0592821	24.6288	11.0294	-0.755106	11.6192	-0.110724	-0.543459	4.91236	-0.000928168	0.419486	-0.328006	11.3041	1.9929	-0.0149634	5.14729	0.0308433	0.47136	-0.279871
0.582926	11.1315	0.449256	-7.01817	-30.5732	-31.2605	-4.21695	-70.8197	-16.7949	2.0627	51.6743	-7.79972	-2.93578	0.0129743	55.0365	-51.8559	0.168027	-16.8051	-109.864	52.603	-0.0599795	25.6618	10.5476	-1.16833	11.7765	-0.2049	-0.584226	5.00949	-0.00219859	0.424788	-0.337997	11.464	2.1565	0.0288554	5.24999	0.0333342	0.484097	-0.278611
0.587908	11.2064	-0.785083	-6.82902	-31.1227	-33.0975	-5.28745	-73.2805	-17.2415	2.10947	53.1298	-7.45659	-3.00506	0.015667	56.1093	-52.3951	0.245645	-17.8621	-110.474	52.4518	-0.0605251	26.6516	10.0312	-1.64172	11.9091	-0.318387	-0.629705	5.09842	-0.00372313	0.428853	-0.348037	11.6026	2.33907	0.0796022	5.34557	0.0360639	0.496601	-0.275928
0.59289	10.9858	-2.15853	-6.60499	-31.3749	-34.8403	-6.50561	-75.2745	-17.483	2.12427	54.1568	-6.86024	-2.97878	0.0167272	57.07	-52.828	0.330866	-18.9287	-110.918	52.2212	-0.0608899	27.5587	9.46104	-2.15544	12.0161	-0.44658	-0.678299	5.17763	-0.00542428	0.431623	-0.357813	11.7113	2.5358	0.136179	5.43026	0.038935	0.508423	-0.271748
0.597872	10.6572	-3.6418	-6.39842	-31.2602	-36.4589	-7.80452	-76.9557	-17.5733	2.11298	54.8222	-6.03546	-2.85259	0.0161304	57.9207	-53.1655	0.424487	-20.0009	-111.184	51.9079	-0.061062	28.3718	8.84579	-2.70911	12.1011	-0.586808	-0.729569	5.24772	-0.0072881	0.433196	-0.367331	11.7975	2.7432	0.19745	5.50553	0.0419133	0.519624	-0.266323
0.602855	10.3359	-5.23288	-6.25601	-30.7686	-37.9445	-9.05505	-78.4269	-17.5635	2.0816	55.1761	-5.01735	-2.62564	0.0138758	58.6796	-53.4398	0.52881	-21.082	-111.262	51.5087	-0.0610302	29.0682	8.19529	-3.2947	12.1586	-0.735265	-0.782166	5.30617	-0.009282	0.433414	-0.376263	11.8565	2.95587	0.262194	5.56877	0.0449313	0.529829	-0.259644
0.607837	10.0624	-6.93036	-6.21085	-29.9801	-39.3493	-10.1185	-79.7579	-17.5	2.03654	55.2594	-3.84883	-2.30045	0.00998676	59.3789	-53.6815	0.646201	-22.1803	-111.141	51.022	-0.0607792	29.6441	7.51834	-3.90025	12.1924	-0.887346	-0.834928	5.35368	-0.0113521	0.432456	-0.38453	11.8933	3.16856	0.328665	5.62084	0.0479219	0.53901	-0.252028
0.612819	9.80388	-8.66878	-6.27911	-29.0589	-40.7749	-10.9381	-80.9721	-17.4478	1.98426	55.094	-2.57581	-1.88365	0.00448435	60.072	-53.8998	0.777611	-23.3116	-110.81	50.4472	-0.0602979	30.0875	6.80653	-4.50238	12.2054	-1.03717	-0.886051	5.39029	-0.013404	0.430472	-0.391916	11.9049	3.3751	0.394999	5.66008	0.0507804	0.546887	-0.243659
0.617801	9.48271	-10.3303	-6.47406	-28.1286	-42.2891	-11.5569	-82.0556	-17.4914	1.92954	54.683	-1.24408	-1.38601	-0.00257719	60.8008	-54.0742	0.921875	-24.4865	-110.261	49.7859	-0.0595863	30.4032	6.05449	-5.0813	12.2003	-1.17969	-0.934007	5.41652	-0.0153542	0.427652	-0.398276	11.8896	3.57021	0.459512	5.68569	0.0534226	0.55329	-0.234755
0.622784	9.02295	-11.7585	-6.79868	-27.2311	-43.8933	-12.0646	-82.9626	-17.7209	1.87662	54.0099	0.103825	-0.821723	-0.01114	61.5796	-54.1641	1.07632	-25.7044	-109.484	49.0417	-0.0586576	30.5954	5.249	-5.61334	12.1792	-1.30953	-0.977055	5.43275	-0.0171034	0.424187	-0.403421	11.8425	3.74858	0.520581	5.69602	0.0557553	0.557974	-0.225474
0.627766	8.35721	-12.8062	-7.25071	-26.3235	-45.5149	-12.5455	-83.6214	-18.2145	1.82939	53.0413	1.42938	-0.207285	-0.0211176	62.3911	-54.1236	1.23769	-26.9528	-108.47	48.2199	-0.0575379	30.6712	4.37981	-6.07806	12.1424	-1.42215	-1.01364	5.43908	-0.0185656	0.420222	-0.407164	11.7577	3.90574	0.576869	5.68943	0.0577009	0.560711	-0.21593
0.632748	7.42837	-13.3803	-7.83639	-25.2987	-47.0238	-13.0403	-83.9452	-19.0223	1.79105	51.7344	2.69742	0.439867	-0.0323405	63.1898	-53.9145	1.40299	-28.2078	-107.213	47.3277	-0.0562622	30.6458	3.45061	-6.47491	12.0866	-1.51749	-1.04356	5.43486	-0.0197343	0.415741	-0.409459	11.6329	4.04116	0.628247	5.66544	0.0592598	0.561468	-0.20613
0.63773	6.225	-13.4897	-8.58019	-24.0229	-48.2607	-13.516	-83.8888	-20.154	1.76375	50.0711	3.87366	1.10312	-0.044466	63.9163	-53.5193	1.57025	-29.4393	-105.705	46.3738	-0.0548664	30.5488	2.49423	-6.83238	12.0051	-1.6015	-1.06859	5.41893	-0.0207209	0.41055	-0.410506	11.4745	4.15949	0.676053	5.62638	0.0605438	0.560572	-0.196036
0.642713	4.85427	-13.1379	-9.46772	-22.4618	-49.1327	-13.8948	-83.5186	-21.6	1.75106	48.0975	4.92861	1.76706	-0.057207	64.5392	-52.9204	1.73758	-30.6262	-103.941	45.3691	-0.0534116	30.3787	1.51373	-7.14243	11.8984	-1.6728	-1.08821	5.39135	-0.0214987	0.4047	-0.410236	11.281	4.25928	0.719776	5.57183	0.0615263	0.557952	-0.185702
0.647695	3.43119	-12.3933	-10.4771	-20.5767	-49.5262	-14.038	-82.9055	-23.3175	1.75504	45.8641	5.83787	2.41817	-0.070207	65.0172	-52.1125	1.90362	-31.7427	-101.916	44.3256	-0.0519613	30.1438	0.524875	-7.40152	11.7671	-1.73063	-1.10215	5.35248	-0.0220602	0.398266	-0.408641	11.0546	4.33956	0.758935	5.50271	0.0622003	0.553656	-0.175253
0.652677	2.06348	-11.3646	-11.5641	-18.3643	-49.3278	-13.7618	-82.1158	-25.2298	1.77806	43.4191	6.58408	3.04544	-0.0831376	65.3118	-51.0963	2.06716	-32.7623	-99.629	43.2573	-0.050591	29.8527	-0.457014	-7.59898	11.6131	-1.77268	-1.10966	5.30311	-0.0223725	0.391392	-0.405668	10.7972	4.39801	0.792583	5.41993	0.0625356	0.547697	-0.164875
0.65766	0.816223	-10.1815	-12.6723	-15.8971	-48.4606	-12.8917	-81.2	-27.2416	1.82158	40.8043	7.1561	3.64079	-0.095682	65.4004	-49.8726	2.22644	-33.6631	-97.0786	42.1788	-0.0493832	29.5197	-1.41474	-7.72406	11.4396	-1.79672	-1.11009	5.24453	-0.0224039	0.384272	-0.401306	10.5125	4.43254	0.819735	5.32505	0.0625056	0.540152	-0.154802
0.662642	-0.316607	-8.93941	-13.7404	-13.3452	-46.9384	-11.3742	-80.185	-29.2695	1.88564	38.0517	7.54841	4.19886	-0.107541	65.288	-48.4269	2.37724	-34.4317	-94.2674	41.1057	-0.0484239	29.1669	-2.33404	-7.77073	11.2518	-1.80233	-1.10338	5.17864	-0.0221422	0.377121	-0.395671	10.2059	4.44302	0.839869	5.22034	0.062109	0.531207	-0.145259
0.667624	-1.39435	-7.64416	-14.702	-10.9304	-44.8995	-9.37666	-79.0845	-31.2651	1.9692	35.1868	7.76013	4.71694	-0.11844	65.0009	-46.7049	2.50959	-35.0602	-91.2009	40.0539	-0.0478023	28.8217	-3.20724	-7.73853	11.0561	-1.7916	-1.09026	5.10778	-0.0215985	0.370151	-0.389008	9.88315	4.43211	0.853185	5.10829	0.0613739	0.521138	-0.136403
0.672606	-2.45813	-6.23909	-15.4856	-8.82679	-42.5251	-7.22966	-77.9199	-33.2071	2.07052	32.237	7.79395	5.19502	-0.128141	64.5582	-44.6262	2.60852	-35.5362	-87.8883	39.0392	-0.0476108	28.509	-4.0301	-7.62874	10.8594	-1.7679	-1.07178	5.0343	-0.0207934	0.363543	-0.381597	9.54901	4.40392	0.860312	4.99107	0.0603407	0.510221	-0.128319
0.677589	-3.47521	-4.68343	-16.0179	-7.0993	-39.9332	-5.27552	-76.735	-35.0713	2.18697	29.2369	7.65501	5.63603	-0.136451	63.9512	-42.1206	2.65785	-35.8363	-84.3421	38.0752	-0.0479417	28.2454	-4.79395	-7.44039	10.6673	-1.73428	-1.0488	4.96012	-0.0197443	0.357443	-0.373654	9.20667	4.36221	0.861815	4.87036	0.0590412	0.498661	-0.121057
0.682571	-4.34872	-2.99117	-16.2324	-5.72414	-37.178	-3.75824	-75.5901	-36.8191	2.31464	26.2261	7.35017	6.0455	-0.143232	63.1482	-39.1523	2.64341	-35.9286	-80.5784	37.1724	-0.0488798	28.0376	-5.48549	-7.16986	10.484	-1.6924	-1.0217	4.88655	-0.0184591	0.351955	-0.365283	8.85847	4.30913	0.857908	4.74737	0.0574903	0.486577	-0.11467
0.687553	-4.9597	-1.21698	-16.0781	-4.6446	-34.3333	-2.78634	-74.5507	-38.4037	2.44818	23.2454	6.88734	6.43087	-0.148388	62.1129	-35.7243	2.554	-35.7811	-76.6169	36.3367	-0.0504933	27.8839	-6.09418	-6.81209	10.3116	-1.64197	-0.990335	4.81423	-0.0169322	0.347145	-0.356487	8.50595	4.24459	0.848352	4.6228	0.0556821	0.474001	-0.109223
0.692535	-5.2114	0.567148	-15.5257	-3.80263	-31.5843	-2.32932	-73.6761	-39.7798	2.58118	20.3313	6.27509	6.80069	-0.151866	60.8218	-31.8739	2.38159	-35.3694	-72.4807	35.569	-0.0528252	27.7777	-6.61874	-6.36127	10.1504	-1.58052	-0.954027	4.74312	-0.0151404	0.34305	-0.347175	8.14947	4.16603	0.832438	4.49665	0.053589	0.460873	-0.104791
0.697518	-5.05626	2.27831	-14.5701	-3.15227	-29.2323	-2.24441	-73.0121	-40.9084	2.70655	17.5143	5.52258	7.16398	-0.153654	59.2723	-27.6721	2.12195	-34.6814	-68.1966	34.8638	-0.0558892	27.7155	-7.06638	-5.81183	10.0013	-1.50401	-0.911862	4.67365	-0.0130466	0.339777	-0.337277	7.79158	4.06936	0.809061	4.36954	0.0511752	0.447194	-0.10155
0.7025	-4.5221	3.83258	-13.2898	-2.65658	-27.5573	-2.36316	-72.5742	-41.7964	2.81759	14.8116	4.64007	7.52865	-0.153781	57.4963	-23.2436	1.78047	-33.7234	-63.7936	34.2083	-0.0596828	27.6918	-7.44472	-5.18939	9.8537	-1.41462	-0.864642	4.60296	-0.0107254	0.336963	-0.326749	7.4298	3.95553	0.779323	4.24018	0.0485025	0.432911	-0.0992169
0.707482	-3.62782	5.10487	-11.6522	-2.31984	-26.7523	-2.54183	-72.3629	-42.3919	2.90715	12.2366	3.6376	7.90396	-0.15233	55.5151	-18.6808	1.35669	-32.5029	-59.3041	33.5836	-0.0641828	27.7067	-7.74549	-4.45831	9.71215	-1.30226	-0.809409	4.5323	-0.00804454	0.334957	-0.31529	7.06568	3.81472	0.740044	4.1091	0.045439	0.417847	-0.0982463
0.712465	-2.44596	6.00864	-9.71254	-2.2045	-26.9217	-2.67375	-72.3534	-42.7064	2.97003	9.79279	2.52642	8.29692	-0.149422	53.3768	-14.1144	0.859574	-31.0434	-54.7617	32.9638	-0.0693506	27.7583	-7.96621	-3.61869	9.57655	-1.16424	-0.745658	4.4618	-0.00499737	0.333798	-0.30286	6.70327	3.64401	0.690472	3.97734	0.0419734	0.402044	-0.0987704
0.717447	-1.08612	6.50248	-7.5463	-2.41513	-28.0934	-2.68195	-72.4993	-42.7796	3.00373	7.47681	1.31859	8.71311	-0.145208	51.1441	-9.6727	0.30071	-29.38	-50.2017	32.3174	-0.0751342	27.8471	-8.11122	-2.67447	9.44807	-0.99827	-0.673155	4.39212	-0.00158504	0.333553	-0.289491	6.34811	3.44115	0.630059	3.84649	0.0381055	0.385617	-0.100921
0.722429	0.318732	6.61168	-5.24166	-3.06835	-30.1883	-2.57527	-72.7375	-42.6848	3.00965	5.28057	0.0269502	9.15646	-0.139867	48.8875	-5.46543	-0.307906	-27.5554	-45.6597	31.6091	-0.0814722	27.9773	-8.19183	-1.63412	9.32962	-0.803152	-0.59212	4.32467	0.00217916	0.33432	-0.275313	6.007	3.20534	0.558665	3.71869	0.0338535	0.368769	-0.104809
0.727411	1.64946	6.40845	-2.90012	-4.23714	-33.0354	-2.43644	-73.0028	-42.5252	2.99374	3.19707	-1.33519	9.62925	-0.133599	46.6662	-1.59651	-0.949826	-25.6144	-41.1715	30.8015	-0.0882859	28.1543	-8.22575	-0.510263	9.22511	-0.579043	-0.503221	4.26123	0.00626905	0.336197	-0.260536	5.68678	2.93752	0.476647	3.59626	0.0292532	0.351758	-0.110487
0.732394	2.84769	6.0265	-0.610877	-5.85063	-36.3101	-2.4548	-73.2468	-42.4211	2.96608	1.22794	-2.75443	10.1323	-0.126615	44.5112	1.86905	-1.61081	-23.5942	-36.7727	29.8584	-0.0954833	28.3849	-8.233	0.681636	9.1386	-0.327616	-0.407513	4.20385	0.0106464	0.339267	-0.245413	5.3931	2.64053	0.384918	3.48147	0.0243585	0.334868	-0.117926
0.737376	3.94731	5.59438	1.55742	-7.65642	-39.5666	-2.86338	-73.4514	-42.4832	2.9387	-0.612378	-4.2179	10.6653	-0.119133	42.4115	4.88453	-2.27445	-21.52	-32.4979	28.7474	-0.102949	28.673	-8.22541	1.92575	9.07258	-0.0520248	-0.306258	4.15403	0.0152598	0.343541	-0.230171	5.12952	2.31881	0.284836	3.3761	0.0192356	0.318349	-0.127005
0.742358	5.0322	5.16278	3.55357	-9.30226	-42.3248	-3.7803	-73.6165	-42.7771	2.92195	-2.30331	-5.71352	11.2278	-0.111371	40.3325	7.3947	-2.91733	-19.4124	-28.3799	27.4425	-0.110545	29.0201	-8.2026	3.20816	9.02703	0.244505	-0.200549	4.11249	0.0200548	0.348965	-0.214957	4.8982	1.97666	0.177732	3.28151	0.0139496	0.302392	-0.137575
0.74734	6.14885	4.69857	5.33104	-10.4975	-44.2415	-5.14268	-73.7354	-43.3199	2.92276	-3.83002	-7.23023	11.8185	-0.10354	38.2543	9.32995	-3.50866	-17.3008	-24.4481	25.9265	-0.118119	29.4272	-8.15731	4.51532	8.99963	0.55921	-0.0912839	4.07911	0.0249754	0.355429	-0.199852	4.70099	1.61755	0.0647489	3.19874	0.00856229	0.287146	-0.149501
0.752323	7.26132	4.14228	6.84148	-11.0975	-45.192	-6.76501	-73.7815	-44.1007	2.94542	-5.18913	-8.75809	12.4355	-0.0958266	36.192	10.6278	-4.01559	-15.2292	-20.728	24.1936	-0.125522	29.8961	-8.08543	5.83107	8.9869	0.889394	0.0205877	4.05335	0.029962	0.362792	-0.184942	4.53989	1.24453	-0.0529824	3.12866	0.00313803	0.27276	-0.162643
0.757305	8.27256	3.45924	8.03886	-11.0804	-45.193	-8.4144	-73.7139	-45.0981	2.99259	-6.38652	-10.2885	13.0761	-0.0883921	34.1869	11.2565	-4.40913	-13.2488	-17.2406	22.2515	-0.132615	30.4309	-7.99293	7.13578	8.98561	1.23213	0.133923	4.0348	0.0349525	0.370915	-0.170358	4.417	0.860915	-0.17418	3.07206	-0.00225301	0.259406	-0.176849
0.762287	9.0665	2.67685	8.89745	-10.5042	-44.3188	-9.88906	-73.4901	-46.2844	3.06536	-7.43212	-11.8145	13.737	-0.0813709	32.2926	11.2461	-4.67478	-11.408	-14.0031	20.1227	-0.139292	31.0348	-7.89534	8.40726	8.99342	1.58407	0.247368	4.02332	0.0398836	0.379669	-0.156282	4.33412	0.470533	-0.297355	3.02961	-0.00753681	0.247268	-0.191938
0.76727	9.53173	1.84355	9.39856	-9.51551	-42.7234	-11.0922	-73.0704	-47.639	3.16426	-8.33778	-13.3308	14.4142	-0.0748629	30.563	10.6495	-4.80122	-9.75051	-11.0289	17.8424	-0.145446	31.7032	-7.80768	9.62032	9.00936	1.93964	0.358974	4.01873	0.0446723	0.388881	-0.142966	4.29291	0.0793739	-0.420482	3.00167	-0.0126247	0.236545	-0.207656
0.772252	9.60281	1.01392	9.54095	-8.24181	-40.5299	-11.9226	-72.4323	-49.127	3.28714	-9.11242	-14.834	15.104	-0.0689415	29.0327	9.54466	-4.78379	-8.30662	-8.32732	15.4573	-0.150985	32.4278	-7.74815	10.7502	9.03288	2.29314	0.466775	4.02092	0.0492396	0.398379	-0.130662	4.29395	-0.306344	-0.541448	2.98828	-0.017432	0.227404	-0.223717
0.777234	9.26064	0.251592	9.34808	-6.79951	-37.8513	-12.3233	-71.57	-50.7009	3.42901	-9.76194	-16.3223	15.8028	-0.0636523	27.7194	8.04242	-4.62954	-7.09147	-5.90476	13.0234	-0.155827	33.1939	-7.7318	11.7735	9.06347	2.63827	0.568751	4.02956	0.0535046	0.40796	-0.119602	4.33675	-0.679952	-0.658046	2.98902	-0.021877	0.219968	-0.239803
0.782216	8.5264	-0.39122	8.85981	-5.29436	-34.8081	-12.2722	-70.4924	-52.3026	3.58227	-10.2901	-17.7954	16.5072	-0.0590147	26.6235	6.26627	-4.35283	-6.10697	-3.76415	10.6021	-0.159903	33.9813	-7.76809	12.6685	9.10047	2.9682	0.662852	4.04396	0.057385	0.417389	-0.109996	4.41977	-1.03439	-0.768006	3.00301	-0.025882	0.214315	-0.255566
0.787199	7.45558	-0.878754	8.12762	-3.8082	-31.5144	-11.7746	-69.2209	-53.868	3.73733	-10.6991	-19.254	17.2141	-0.0550255	25.7292	4.34236	-3.97379	-5.34251	-1.90453	8.25522	-0.163149	34.7666	-7.86048	13.4158	9.14288	3.27585	0.74709	4.06315	0.0608004	0.426412	-0.102022	4.5404	-1.36255	-0.869093	3.02898	-0.0293749	0.210473	-0.270648
0.792181	6.12805	-1.19496	7.21037	-2.4009	-28.0789	-10.8597	-67.7856	-55.3297	3.88327	-10.9899	-20.6994	17.9205	-0.0516627	25.0084	2.39165	-3.51716	-4.77706	-0.320538	6.0402	-0.16551	35.5249	-8.00627	13.9994	9.18928	3.55417	0.819626	4.08588	0.0636756	0.43476	-0.0958125	4.69507	-1.65753	-0.959192	3.06532	-0.0322924	0.208426	-0.284691
0.797163	4.64175	-1.35163	6.16758	-1.11945	-24.6088	-9.56435	-66.2256	-56.6202	4.00858	-11.1622	-22.1337	18.6237	-0.0488891	24.4228	0.516577	-3.00827	-4.38265	0.997631	4.00437	-0.166937	36.2334	-8.19734	14.4068	9.24045	3.79647	0.878681	4.11148	0.0659433	0.442242	-0.0915371	4.88247	-1.91274	-1.03646	3.1112	-0.0345767	0.208218	-0.297438
0.802145	3.08497	-1.35798	5.06757	0.0211863	-21.1503	-7.93858	-64.5762	-57.6752	4.10183	-11.2176	-23.5587	19.3211	-0.0466526	23.9437	-1.18035	-2.48181	-4.12948	2.06452	2.18301	-0.167438	36.865	-8.42305	14.6355	9.28934	3.99861	0.923768	4.13684	0.0675722	0.448499	-0.0890183	5.09094	-2.12491	-1.09964	3.16242	-0.0362203	0.20949	-0.308476
0.807128	1.55767	-1.26502	3.9626	0.967216	-17.817	-6.12436	-62.876	-58.4541	4.15446	-11.1567	-24.9768	20.0101	-0.044891	23.5271	-2.64607	-1.95677	-3.98509	2.89761	0.596896	-0.166995	37.3969	-8.66076	14.6849	9.33691	4.15522	0.953778	4.16102	0.0685222	0.453376	-0.0883133	5.31797	-2.2891	-1.14761	3.2177	-0.0371994	0.212184	-0.317631
0.81211	0.154138	-1.14089	2.89558	1.71269	-14.6408	-4.193	-61.1586	-58.9172	4.15859	-10.9814	-26.3893	20.6885	-0.0435499	23.1278	-3.84909	-1.44961	-3.9161	3.51684	-0.74552	-0.165599	37.8117	-8.88894	14.5569	9.38116	4.2628	0.968207	4.18247	0.0687703	0.456696	-0.0893616	5.55863	-2.40249	-1.17964	3.27513	-0.037508	0.216139	-0.324726
0.817092	-1.03375	-1.05533	1.9092	2.28081	-11.6256	-2.27805	-59.4577	-59.0387	4.10872	-10.693	-27.7978	21.354	-0.0425753	22.7016	-4.76887	-0.976064	-3.88951	3.94388	-1.84624	-0.163256	38.0952	-9.07823	14.2574	9.41988	4.3183	0.966792	4.1996	0.068301	0.458301	-0.092065	5.80804	-2.4628	-1.19527	3.3329	-0.0371483	0.22118	-0.329625
0.822074	-1.85783	-1.05287	1.0606	2.80468	-8.69595	-0.659916	-57.8256	-58.818	4.00294	-10.2837	-29.2031	22.0048	-0.041919	22.1831	-5.38263	-0.5519	-3.86392	4.20048	-2.71528	-0.159969	38.2307	-9.19027	13.7993	9.45075	4.31913	0.949609	4.21059	0.0671108	0.458036	-0.096253	6.05991	-2.46818	-1.19428	3.38878	-0.0361381	0.22706	-0.332205
0.827057	-2.09187	-1.14525	0.425018	3.38118	-5.68628	0.31579	-56.3312	-58.2749	3.84261	-9.73542	-30.6061	22.6394	-0.0415361	21.4888	-5.6646	-0.193348	-3.78891	4.3078	-3.36834	-0.155737	38.1789	-9.18819	13.2074	9.47333	4.26605	0.917777	4.21352	0.065238	0.455788	-0.101602	6.30746	-2.42035	-1.17756	3.43977	-0.0345541	0.233352	-0.332423
0.832039	-1.6276	-1.21304	-0.0852469	3.8485	-2.49315	1.13142	-55.0089	-57.4817	3.63712	-9.04037	-32.0067	23.2548	-0.0413699	20.5998	-5.66621	0.104874	-3.64378	4.28902	-3.82675	-0.150618	37.8985	-9.16109	12.4619	9.48599	4.1644	0.871791	4.20782	0.0627114	0.451443	-0.108063	6.54861	-2.32538	-1.14551	3.48378	-0.0324462	0.239881	-0.330142
0.837021	-1.17495	-1.37571	-0.665358	3.57526	0.230365	2.32209	-53.6468	-56.4562	3.3912	-8.29781	-33.4017	23.8482	-0.0413698	19.7537	-5.52201	0.3593	-3.52455	4.17588	-4.11729	-0.144885	37.4966	-9.13059	11.5359	9.48612	4.0132	0.810357	4.19568	0.0594956	0.445246	-0.116074	6.79312	-2.18257	-1.09764	3.52572	-0.0297137	0.247307	-0.325656
0.842004	-0.734963	-1.53106	-1.2684	3.12803	2.35732	3.19326	-52.285	-55.298	3.1171	-7.50232	-34.7903	24.4174	-0.0414956	18.9153	-5.18582	0.546823	-3.41321	3.98847	-4.26218	-0.138615	37.0265	-9.04828	10.4484	9.46808	3.80852	0.733618	4.17618	0.055609	0.437215	-0.125513	7.02997	-1.98795	-1.03341	3.56425	-0.0263415	0.255533	-0.318897
0.846986	-0.306617	-1.67429	-1.85685	2.71179	3.99475	3.68602	-50.9391	-54.0479	2.82137	-6.65605	-36.1706	24.9611	-0.0417361	18.0735	-4.67836	0.664347	-3.29937	3.74693	-4.28462	-0.131949	36.5205	-8.90305	9.25412	9.43296	3.5631	0.6459	4.15022	0.0512463	0.427783	-0.135865	7.25333	-1.75407	-0.956905	3.59861	-0.0225091	0.264186	-0.310373
0.851968	0.158353	-1.79403	-2.41314	2.30004	5.26048	3.75546	-49.6244	-52.7529	2.51114	-5.759	-37.5408	25.478	-0.0420682	17.2194	-4.02732	0.714358	-3.17195	3.46901	-4.20677	-0.125016	35.9705	-8.69127	7.98887	9.38257	3.28617	0.550185	4.11786	0.0465338	0.417167	-0.146741	7.46067	-1.49058	-0.871153	3.62774	-0.0183572	0.272927	-0.300409
0.85695	0.748588	-1.90646	-2.9261	2.27875	6.12852	3.56665	-48.3975	-51.4384	2.19089	-4.79879	-38.8995	25.9675	-0.0424681	16.3131	-3.28189	0.711612	-3.01845	3.16956	-4.0496	-0.117909	35.3894	-8.42311	6.6851	9.31123	2.98777	0.449829	4.07804	0.0416094	0.405512	-0.15765	7.64295	-1.20772	-0.778887	3.64943	-0.0140133	0.281358	-0.289219
0.861933	1.4917	-2.03916	-3.39745	2.28285	7.39929	3.34182	-47.2266	-50.1148	1.86392	-3.78854	-40.243	26.4288	-0.042965	15.3723	-2.48997	0.666939	-2.82628	2.86295	-3.83198	-0.110801	34.7716	-8.11755	5.37535	9.23293	2.68049	0.347831	4.03484	0.0366116	0.393367	-0.16844	7.81145	-0.917313	-0.684014	3.66672	-0.00963316	0.289454	-0.277433
0.866915	2.3382	-2.13006	-3.81389	2.11979	8.48191	2.62797	-46.1117	-48.8631	1.53969	-2.73629	-41.5704	26.861	-0.0434998	14.4348	-1.63874	0.571506	-2.61109	2.5609	-3.56981	-0.103818	34.0827	-7.74229	4.07725	9.14363	2.3641	0.244892	3.98521	0.0315534	0.380529	-0.178846	7.9606	-0.620857	-0.587236	3.67664	-0.00526344	0.296868	-0.26502
0.871897	3.25142	-2.16013	-4.17179	2.02661	8.55212	1.39244	-45.0868	-47.719	1.22263	-1.64201	-42.8812	27.2641	-0.0440078	13.5081	-0.744896	0.429072	-2.39036	2.27243	-3.27743	-0.0970438	33.3187	-7.29549	2.81213	9.031	2.04343	0.1432	3.92525	0.0265118	0.366833	-0.188392	8.07668	-0.324511	-0.489965	3.67484	-0.000978873	0.30312	-0.251943
0.876879	4.19938	-2.21116	-4.4956	2.31629	6.99866	0.499168	-44.1831	-46.6255	0.90823	-0.509013	-44.1758	27.64	-0.0444463	12.5884	0.106783	0.26764	-2.18149	2.00485	-2.96838	-0.0905504	32.4965	-6.84273	1.61474	8.88352	1.73721	0.0481156	3.85307	0.0217073	0.352488	-0.196372	8.14687	-0.0473651	-0.396652	3.65773	0.00302757	0.307644	-0.238524
0.881862	5.13798	-2.3187	-4.79377	1.96649	6.10411	0.00684144	-43.2646	-45.5695	0.597226	0.621632	-45.4478	27.9887	-0.0449483	11.7474	0.893638	0.0904794	-1.95894	1.76581	-2.65293	-0.0845698	31.6355	-6.39878	0.503598	8.74466	1.4539	-0.0399442	3.78189	0.0172087	0.338673	-0.203458	8.21275	0.205662	-0.310632	3.63814	0.00667134	0.311331	-0.225863
0.886844	6.08315	-2.42775	-5.03372	1.70808	5.48771	-0.585312	-42.3966	-44.6048	0.294826	1.7637	-46.6974	28.311	-0.0454864	10.9495	1.6464	-0.107925	-1.71857	1.55709	-2.33867	-0.0791237	30.7859	-5.927	-0.520133	8.60432	1.18692	-0.121808	3.70984	0.0129822	0.325241	-0.209624	8.26309	0.441521	-0.230124	3.61476	0.0100309	0.314198	-0.213716
0.891826	6.96637	-2.53868	-5.21868	1.55731	4.47747	-1.2385	-41.5825	-43.7362	0.00212538	2.90752	-47.9251	28.6085	-0.0460094	10.216	2.35604	-0.323935	-1.47876	1.38064	-2.03249	-0.074248	29.9414	-5.43349	-1.44575	8.45612	0.9394	-0.19625	3.6348	0.00907262	0.312109	-0.214628	8.29107	0.656308	-0.156031	3.58517	0.0130633	0.315992	-0.202085
0.896809	7.75599	-2.68337	-5.3536	1.41154	3.29822	-1.77606	-40.8058	-42.944	-0.281678	4.04148	-49.1305	28.8831	-0.0465238	9.56179	3.00001	-0.548125	-1.24012	1.2373	-1.73998	-0.0699904	29.1201	-4.9354	-2.26332	8.30935	0.716246	-0.262407	3.56014	0.0055362	0.299664	-0.218585	8.30562	0.84625	-0.0898378	3.55254	0.0157288	0.316935	-0.191343
0.901791	8.452	-2.85786	-5.42903	1.36421	2.28265	-2.27234	-40.0621	-42.2277	-0.555795	5.15983	-50.3129	29.1364	-0.0470452	8.98621	3.58502	-0.780069	-0.993936	1.12618	-1.46475	-0.0663767	28.3422	-4.43195	-2.96984	8.16487	0.51781	-0.320072	3.48673	0.0023827	0.287987	-0.22149	8.30608	1.01164	-0.0315893	3.51734	0.0180262	0.317038	-0.1815
0.906773	8.93628	-3.09384	-5.47353	0.942706	0.242331	-2.3248	-39.3217	-41.5591	-0.821396	6.24061	-51.4751	29.3708	-0.0474826	8.53928	4.07808	-1.00928	-0.778311	1.04661	-1.2104	-0.0633848	27.5511	-3.95961	-3.55273	8.01727	0.352182	-0.367063	3.41139	-0.000308851	0.276946	-0.222983	8.28775	1.14244	0.0164139	3.47578	0.0198471	0.315858	-0.172648
0.911755	9.34287	-3.38651	-5.45029	0.718923	-0.980898	-2.24978	-38.6147	-40.9464	-1.07705	7.29879	-52.6147	29.5875	-0.0479541	8.16071	4.49911	-1.23424	-0.5397	0.995006	-0.977976	-0.0610267	26.8531	-3.49655	-4.02042	7.88778	0.213725	-0.405636	3.34353	-0.00258349	0.267264	-0.223804	8.27015	1.24887	0.0557011	3.43776	0.0213065	0.314385	-0.165143
0.916738	9.65064	-3.70411	-5.39045	0.570097	-1.85227	-2.35386	-37.9345	-40.4172	-1.31963	8.3274	-53.7334	29.7876	-0.0484162	7.85758	4.87219	-1.46026	-0.286339	0.967436	-0.767831	-0.0592192	26.2183	-3.02167	-4.41991	7.7711	0.0878427	-0.440074	3.28054	-0.0046381	0.258401	-0.224355	8.25401	1.34433	0.0904778	3.40241	0.0225813	0.31284	-0.158428
0.92172	9.42134	-3.67492	-5.11068	0.44708	-2.69358	-2.41573	-37.1627	-39.8651	-1.55731	9.28674	-54.8284	29.9738	-0.0489891	8.05959	5.50728	-1.99802	-0.836512	1.25667	-0.0355313	-0.0580959	25.6569	-2.48551	-4.72092	7.70515	-0.0203044	-0.470101	3.23269	-0.00644166	0.2513	-0.225141	8.27919	1.42623	0.117585	3.38149	0.0236066	0.311991	-0.153556
0.926702	9.62801	-4.14805	-5.00086	0.410297	-3.25672	-2.3706	-36.5574	-39.4929	-1.77164	10.2487	-55.9105	30.1454	-0.0493515	7.77489	5.6661	-2.13756	-0.357716	1.21143	-0.00469628	-0.057234	25.1529	-2.06287	-4.95554	7.61058	-0.106153	-0.492147	3.17907	-0.007862	0.244347	-0.224701	8.25621	1.48495	0.13969	3.34837	0.0243442	0.309856	-0.148701
0.931684	9.71904	-4.63854	-4.8798	0.426676	-3.82546	-2.21922	-35.9782	-39.1828	-1.97256	11.1707	-56.976	30.3049	-0.0496686	7.5695	5.77363	-2.26997	0.104475	1.17743	0.0229837	-0.0567475	24.7076	-1.6606	-5.14135	7.53087	-0.180054	-0.51091	3.13109	-0.0090905	0.238214	-0.224192	8.23872	1.53352	0.157847	3.31861	0.0249299	0.307803	-0.144591
0.936667	9.69632	-5.14745	-4.75913	0.440911	-4.43075	-1.81387	-35.42	-38.9261	-2.16024	12.0491	-58.0265	30.4534	-0.0499352	7.4404	5.82039	-2.39035	0.546422	1.15363	0.047415	-0.056577	24.3182	-1.29539	-5.28367	7.4677	-0.24111	-0.526454	3.08931	-0.0101261	0.232936	-0.223672	8.22885	1.5711	0.171953	3.29259	0.0253611	0.305872	-0.14125
0.941649	9.58944	-5.62891	-4.63007	0.390107	-4.41438	-1.53974	-34.8693	-38.7582	-2.33162	12.8832	-59.062	30.5908	-0.0501915	7.38755	5.83728	-2.50754	0.980297	1.13908	0.0693028	-0.0567003	24.0004	-0.942466	-5.39614	7.43273	-0.29646	-0.541137	3.05715	-0.0110501	0.228664	-0.223592	8.23805	1.60601	0.183631	3.27429	0.0257208	0.304514	-0.138712
0.946631	9.36708	-6.00486	-4.49219	0.17193	-4.50616	-1.79739	-34.3171	-38.7317	-2.48276	13.6692	-60.0846	30.7172	-0.0503867	7.41781	5.86194	-2.63331	1.38965	1.13224	0.0894086	-0.0570388	23.7186	-0.578913	-5.49018	7.41884	-0.353103	-0.556423	3.03106	-0.0119372	0.224993	-0.223936	8.25952	1.64368	0.194587	3.2606	0.0260629	0.30356	-0.136632
0.951613	9.06683	-6.28409	-4.34773	0.122659	-4.90013	-2.30402	-33.795	-38.8295	-2.61566	14.4159	-61.096	30.8331	-0.0505146	7.49558	5.87679	-2.75799	1.77497	1.13146	0.107537	-0.0575184	23.491	-0.228117	-5.56416	7.42034	-0.407298	-0.57124	3.01044	-0.0127413	0.221941	-0.224553	8.28745	1.68059	0.204293	3.2504	0.0263635	0.302902	-0.134994
0.956596	8.6874	-6.43723	-4.19772	0.0559241	-5.35242	-3.22913	-33.2799	-39.0693	-2.72932	15.1182	-62.0964	30.9383	-0.0505925	7.63246	5.89712	-2.88657	2.13527	1.13635	0.124024	-0.058122	23.31	0.118904	-5.6234	7.44328	-0.461652	-0.586531	2.99654	-0.0134966	0.219554	-0.225622	8.32785	1.71952	0.213211	3.24516	0.0266458	0.30269	-0.133829
0.961578	8.18165	-6.4448	-4.05796	-0.363905	-6.38017	-4.49112	-32.7401	-39.4516	-2.82405	15.7649	-63.0868	31.0326	-0.0505873	7.85066	5.92112	-3.01948	2.45044	1.14649	0.138844	-0.0588065	23.132	0.448473	-5.66641	7.48414	-0.514203	-0.601709	2.98704	-0.0141916	0.217646	-0.226964	8.37755	1.75712	0.220709	3.2423	0.0268687	0.302653	-0.133071
0.96656	7.69109	-6.47444	-3.93539	-0.490543	-6.31069	-4.75126	-32.239	-39.8387	-2.91094	16.3764	-64.0656	31.1174	-0.0506279	8.08611	5.84135	-3.11715	2.75666	1.16225	0.150129	-0.0595973	23.071	0.6671	-5.66993	7.55796	-0.543877	-0.612381	2.99109	-0.0146003	0.217291	-0.228575	8.45051	1.77667	0.222136	3.24916	0.0268815	0.30319	-0.133579
0.971543	7.17649	-6.38452	-3.8116	-0.296324	-6.47896	-4.92119	-31.7758	-40.3336	-2.98341	16.9539	-65.0346	31.1911	-0.0506269	8.33681	5.74056	-3.20628	3.0333	1.18149	0.159474	-0.0604121	23.0704	0.838584	-5.65129	7.64622	-0.565334	-0.621233	3.00095	-0.0148676	0.217653	-0.230327	8.52883	1.78999	0.221135	3.25917	0.0268025	0.303929	-0.134615
0.976525	6.68105	-6.22455	-3.6866	0.113545	-5.60435	-4.78264	-31.3379	-40.8988	-3.04483	17.4976	-65.9914	31.2537	-0.0506745	8.6128	5.59894	-3.28154	3.29667	1.20547	0.166479	-0.0613131	23.1662	0.950909	-5.60652	7.76683	-0.574733	-0.628115	3.02287	-0.014964	0.219273	-0.232534	8.63021	1.79546	0.216524	3.27843	0.0266096	0.305325	-0.136625
0.981507	6.16475	-6.00497	-3.57222	0.613011	-4.58094	-4.06183	-30.9195	-41.512	-3.09753	18.0025	-66.9375	31.3054	-0.0507159	8.91678	5.40031	-3.3386	3.52528	1.23357	0.170849	-0.0622496	23.317	0.980688	-5.52776	7.90727	-0.567027	-0.631221	3.05224	-0.0148387	0.221848	-0.234753	8.74289	1.78617	0.207115	3.30196	0.0262326	0.306864	-0.139467
0.986489	5.57825	-5.68816	-3.47253	0.831416	-3.92588	-3.01922	-30.4854	-42.1928	-3.14063	18.4584	-67.8735	31.3459	-0.050716	9.27608	5.16923	-3.38761	3.70204	1.26559	0.173024	-0.0632039	23.4709	0.943673	-5.41777	8.06279	-0.54565	-0.631135	3.08582	-0.014536	0.225043	-0.236878	8.86288	1.76382	0.19348	3.32692	0.0256793	0.308308	-0.142933
0.991472	4.96472	-5.21081	-3.35885	0.826582	-2.90611	-2.51368	-30.0327	-43.0037	-3.17075	18.8735	-68.7977	31.3744	-0.0507245	9.69557	4.97449	-3.44981	3.84345	1.30153	0.174225	-0.0642191	23.6421	0.913065	-5.29399	8.24181	-0.524903	-0.631628	3.12567	-0.0142063	0.228809	-0.23941	8.99887	1.74368	0.178917	3.35686	0.0250996	0.310142	-0.146859
0.996454	4.36881	-4.60518	-3.21966	1.20146	-2.39792	-2.23747	-29.6272	-43.9176	-3.19125	19.266	-69.7125	31.3919	-0.0506934	10.1113	4.79858	-3.5152	3.9504	1.33935	0.174249	-0.0652207	23.8435	0.873961	-5.14918	8.42627	-0.50048	-0.630835	3.16769	-0.0137861	0.232936	-0.241924	9.13391	1.72089	0.162943	3.38762	0.024467	0.312011	-0.15107
1.00144	3.75972	-3.91719	-3.06919	1.31027	-1.56928	-2.12863	-29.2084	-44.894	-3.20497	19.6202	-70.6166	31.3991	-0.0506757	10.5837	4.6368	-3.58685	4.01979	1.38118	0.172905	-0.0662882	24.0447	0.823459	-4.9798	8.62696	-0.470431	-0.628664	3.21373	-0.0132817	0.237526	-0.244478	9.27894	1.69333	0.144557	3.42089	0.0237371	0.313922	-0.155737
1.00642	3.14818	-3.17065	-2.89958	1.42444	-1.26001	-2.13438	-28.8084	-45.9225	-3.21353	19.9451	-71.5129	31.3972	-0.0506205	11.076	4.48291	-3.6587	4.04774	1.42548	0.170006	-0.0673617	24.2334	0.765604	-4.78391	8.82963	-0.434711	-0.624468	3.25966	-0.0126839	0.242281	-0.246785	9.4213	1.65994	0.124027	3.45296	0.0229136	0.315592	-0.160638
1.0114	2.55169	-2.46375	-2.71552	1.43919	-0.983254	-1.85947	-28.4285	-46.9383	-3.22172	20.2419	-72.4019	31.3881	-0.0505634	11.5919	4.29716	-3.71844	4.03952	1.47318	0.164668	-0.0684737	24.4167	0.681141	-4.55287	9.03969	-0.387427	-0.617036	3.30744	-0.0119425	0.247431	-0.248813	9.56751	1.61548	0.0997801	3.48571	0.0219437	0.317079	-0.166032
1.01638	1.99702	-1.86815	-2.5121	1.4147	-0.591202	-1.16683	-28.0839	-47.9041	-3.23257	20.5163	-73.2853	31.3738	-0.0505181	12.1197	4.06006	-3.75875	4.00148	1.5244	0.15639	-0.0696337	24.5972	0.572921	-4.28426	9.25596	-0.327502	-0.606042	3.35692	-0.0110525	0.252976	-0.25051	9.71792	1.55904	0.0715817	3.51938	0.0208233	0.318376	-0.171945
1.02137	1.54864	-1.4062	-2.26555	1.65273	0.104221	-0.451066	-27.8092	-48.8343	-3.24604	20.7842	-74.1647	31.3561	-0.0505014	12.6303	3.79527	-3.78312	3.95023	1.57866	0.145433	-0.0708515	24.7857	0.489311	-3.9887	9.47547	-0.263367	-0.593404	3.40737	-0.0101026	0.258737	-0.252023	9.87121	1.49936	0.0416674	3.55446	0.0196507	0.319649	-0.178147
1.02635	1.14352	-1.11612	-1.99385	1.48881	0.727785	0.187777	-27.5491	-49.7102	-3.26312	21.0292	-75.0429	31.337	-0.0504841	13.168	3.49777	-3.79128	3.86779	1.63641	0.13149	-0.0721238	24.9083	0.440752	-3.66934	9.69651	-0.19755	-0.579743	3.45575	-0.00914554	0.264375	-0.253272	10.0281	1.43695	0.0102412	3.58864	0.018422	0.320673	-0.184495
1.03133	0.732502	-0.916483	-1.70542	0.453196	0.872333	0.0598562	-27.2528	-50.5877	-3.27997	21.2413	-75.9222	31.3178	-0.0504319	13.7689	3.22609	-3.8	3.74321	1.69724	0.115542	-0.0734439	24.9006	0.47061	-3.34465	9.91602	-0.141876	-0.567944	3.49866	-0.00832065	0.269392	-0.254397	10.1868	1.38174	-0.0200033	3.61959	0.0172303	0.321379	-0.190576
1.03631	0.48375	-0.842664	-1.36989	0.0835421	0.469186	-0.350316	-27.0693	-51.4422	-3.3002	21.4685	-76.8066	31.3017	-0.0503568	14.2915	2.95675	-3.7939	3.62136	1.7587	0.0973538	-0.0747737	24.8749	0.553177	-3.01443	10.1165	-0.0912093	-0.556129	3.53581	-0.00753799	0.273917	-0.255148	10.3294	1.33078	-0.0488312	3.6464	0.0160938	0.321768	-0.196263
1.04129	0.335498	-0.938215	-1.02994	-0.0796499	0.0173677	-0.211034	-26.9574	-52.1987	-3.32819	21.6969	-77.6975	31.2916	-0.0502883	14.7779	2.62948	-3.76032	3.49398	1.82257	0.075843	-0.0761577	24.838	0.60402	-2.66741	10.3099	-0.0315268	-0.541633	3.57114	-0.00666887	0.278424	-0.255481	10.4671	1.27076	-0.0798016	3.67143	0.014873	0.321852	-0.202054
1.04628	0.254765	-1.06261	-0.691305	-0.0945704	-0.334587	-0.12343	-26.8893	-52.9308	-3.35902	21.9261	-78.5965	31.2881	-0.0502286	15.2502	2.31538	-3.71983	3.36369	1.88875	0.0524043	-0.0776232	24.7953	0.648998	-2.32297	10.4997	0.0277438	-0.527112	3.60547	-0.00580986	0.282826	-0.255744	10.6023	1.21124	-0.110484	3.69575	0.0136649	0.321885	-0.207744
1.05126	0.205657	-1.17177	-0.373189	-0.0637097	-0.564471	0.0394427	-26.847	-53.6326	-3.39306	22.1528	-79.5056	31.2931	-0.0501751	15.7244	2.0277	-3.6783	3.22795	1.95727	0.0276484	-0.0791836	24.751	0.664222	-1.98271	10.6875	0.0891809	-0.512152	3.63947	-0.0049375	0.287196	-0.255941	10.7362	1.14971	-0.141404	3.71954	0.0124469	0.321865	-0.213393
1.05624	0.154752	-1.18097	-0.08492	-0.151354	-0.548129	0.0388613	-26.7964	-54.3496	-3.42704	22.3727	-80.4262	31.3073	-0.0501268	16.2176	1.78831	-3.63858	3.08624	2.0283	0.0017239	-0.0808512	24.7043	0.647668	-1.65551	10.8779	0.149838	-0.497793	3.67421	-0.00408203	0.291561	-0.256258	10.8716	1.08914	-0.171855	3.74347	0.0112433	0.321903	-0.218966
1.06122	0.0703387	-1.11711	0.174995	-0.310849	-0.503197	0.0349788	-26.7275	-55.0678	-3.4619	22.5829	-81.3602	31.3319	-0.0500661	16.7191	1.57483	-3.59239	2.93827	2.10144	-0.025799	-0.0826095	24.6612	0.590996	-1.33558	11.0672	0.21286	-0.483062	3.70904	-0.00320653	0.295938	-0.256557	11.0053	1.02628	-0.202545	3.76675	0.0100269	0.321895	-0.224498
1.06621	-0.0853678	-0.997729	0.425351	-0.436526	-0.464012	0.183499	-26.6258	-55.7833	-3.49748	22.7799	-82.3087	31.3678	-0.0499858	17.2166	1.36102	-3.53158	2.78665	2.17654	-0.0554232	-0.0844526	24.6461	0.485402	-1.00548	11.2555	0.284395	-0.466127	3.74493	-0.00222872	0.300559	-0.256681	11.136	0.955618	-0.235159	3.78971	0.00873745	0.321778	-0.230214
1.07119	-0.270579	-0.755767	0.670744	-0.497788	-0.447408	0.337318	-26.4923	-56.5346	-3.53124	22.9697	-83.2723	31.4143	-0.0498785	17.6918	1.1664	-3.45922	2.64098	2.25276	-0.0866233	-0.0863738	24.6495	0.328009	-0.669136	11.4421	0.363138	-0.447287	3.78141	-0.00116056	0.305354	-0.256631	11.2618	0.878226	-0.269313	3.81162	0.00738033	0.321502	-0.236023
1.07617	-0.43438	-0.435525	0.913154	-0.579495	-0.473323	0.479986	-26.3309	-57.3154	-3.56385	23.1564	-84.2512	31.4715	-0.049741	18.1265	0.975197	-3.36921	2.50848	2.32942	-0.119622	-0.0883583	24.6431	0.129626	-0.333398	11.6249	0.44638	-0.427247	3.81694	-4.82887e-05	0.310113	-0.256399	11.3828	0.796094	-0.304321	3.83162	0.00597906	0.32101	-0.241784
1.08115	-0.524811	-0.0904366	1.1624	-0.719313	-0.510844	0.533136	-26.1469	-58.1218	-3.59567	23.3441	-85.2453	31.5388	-0.0495749	18.4991	0.772497	-3.25641	2.39816	2.40578	-0.154592	-0.0903912	24.6042	-0.0885237	-0.00412513	11.8017	0.530519	-0.406888	3.85021	0.00105508	0.314645	-0.256	11.4995	0.712312	-0.339315	3.84927	0.0045682	0.320291	-0.247366
1.08613	-0.454623	0.198264	1.42136	-0.866813	-0.540085	0.51078	-25.9629	-58.9304	-3.62854	23.5406	-86.2546	31.6157	-0.0493764	18.7728	0.543617	-3.11792	2.325	2.48083	-0.191341	-0.0924604	24.5063	-0.303492	0.305116	11.968	0.610537	-0.387539	3.87909	0.00206904	0.318642	-0.255461	11.6116	0.631209	-0.372815	3.86376	0.0032074	0.319338	-0.252527
1.09112	-0.156213	0.312894	1.69565	-1.03308	-0.555945	0.524922	-25.7957	-59.699	-3.66535	23.7498	-87.2788	31.7018	-0.0491492	18.9147	0.256194	-2.94776	2.30091	2.55352	-0.230011	-0.0945442	24.3241	-0.494444	0.587094	12.1197	0.683333	-0.370015	3.90172	0.00293494	0.321863	-0.254768	11.7196	0.555269	-0.403951	3.87454	0.00193489	0.31813	-0.257117
1.0961	0.396122	0.214836	1.99512	-1.14059	-0.515179	0.524439	-25.6489	-60.4345	-3.70515	23.9736	-88.3168	31.7956	-0.0488977	18.8975	-0.115164	-2.74088	2.33457	2.62278	-0.270987	-0.0966094	24.0633	-0.645276	0.830903	12.2585	0.744493	-0.355727	3.91869	0.00359859	0.324279	-0.254125	11.8271	0.489205	-0.431476	3.88296	0.000811095	0.316884	-0.261076
1.10108	1.19189	-0.0902721	2.32568	-1.16503	-0.442964	0.510272	-25.5078	-61.13	-3.74752	24.2055	-89.3669	31.8954	-0.0486329	18.7101	-0.562142	-2.50349	2.43148	2.68714	-0.313423	-0.0986235	23.725	-0.754314	1.04094	12.38	0.794909	-0.344088	3.92869	0.00407354	0.325791	-0.253363	11.9284	0.431764	-0.455549	3.88731	-0.00018387	0.315401	-0.264308
1.10606	2.18722	-0.565095	2.683	-1.17333	-0.363027	0.485792	-25.3452	-61.7913	-3.79062	24.4353	-90.4271	31.9993	-0.0483549	18.3536	-1.07335	-2.24316	2.59252	2.74517	-0.35633	-0.10055	23.3235	-0.826446	1.21683	12.4887	0.834868	-0.33532	3.93342	0.00436687	0.326559	-0.252626	12.0277	0.38318	-0.476292	3.88924	-0.00104501	0.313854	-0.266941
1.11105	3.35492	-1.15504	3.05999	-1.2369	-0.302908	0.456236	-25.1363	-62.4252	-3.83243	24.6536	-91.4954	32.1055	-0.0480634	17.8264	-1.62681	-1.9693	2.82091	2.79514	-0.398407	-0.102351	22.8653	-0.872149	1.35896	12.587	0.865276	-0.329317	3.93368	0.00449283	0.326666	-0.251953	12.1261	0.342687	-0.493941	3.88908	-0.0017841	0.312268	-0.269024
1.11603	4.68924	-1.80608	3.45102	-1.38697	-0.272014	0.417791	-24.8663	-63.0374	-3.87097	24.854	-92.5692	32.2118	-0.0477605	17.12	-2.19584	-1.69112	3.12352	2.83506	-0.438213	-0.103978	22.3563	-0.900688	1.46828	12.6771	0.886974	-0.325938	3.93018	0.00446618	0.326185	-0.251369	12.224	0.309589	-0.508728	3.88706	-0.00241405	0.310656	-0.270602
1.12101	6.18893	-2.44058	3.83747	-1.62174	-0.250342	0.366872	-24.529	-63.6236	-3.90502	25.0322	-93.6456	32.3166	-0.0474528	16.2321	-2.71873	-1.42452	3.5079	2.86254	-0.47305	-0.105393	21.8059	-0.921129	1.54759	12.7608	0.901455	-0.324856	3.92376	0.00430864	0.325213	-0.250883	12.3222	0.282666	-0.521052	3.88358	-0.00295241	0.309033	-0.271744
1.12599	7.87755	-3.03353	4.22294	-1.86577	-0.215107	0.252998	-24.1272	-64.1912	-3.93264	25.1871	-94.7213	32.4177	-0.0471474	15.1394	-3.17976	-1.1718	3.98687	2.87543	-0.502033	-0.106535	21.2236	-0.932441	1.59734	12.8397	0.908221	-0.326178	3.91502	0.00402405	0.323803	-0.250533	12.4206	0.262679	-0.530801	3.87895	-0.0033977	0.307434	-0.272463
1.13098	9.77594	-3.55085	4.60507	-2.11105	-0.177979	0.0552463	-23.6624	-64.7444	-3.95207	25.3171	-95.7926	32.5134	-0.0468492	13.8258	-3.55821	-0.936025	4.57126	2.8715	-0.524116	-0.10734	20.6121	-0.939904	1.61988	12.9154	0.907804	-0.329732	3.9044	0.00362664	0.322005	-0.250317	12.5188	0.249176	-0.538186	3.87315	-0.0037643	0.305839	-0.272786
1.13596	11.9002	-3.95554	4.97758	-2.27487	-0.19343	-0.269173	-23.1436	-65.2841	-3.9619	25.4221	-96.8554	32.6017	-0.0465613	12.2766	-3.8209	-0.721587	5.27202	2.84841	-0.537894	-0.107742	19.9802	-0.943895	1.61755	12.988	0.900413	-0.33536	3.8922	0.00312945	0.319865	-0.250226	12.6155	0.24213	-0.543276	3.86615	-0.00405834	0.304243	-0.272727
1.14094	14.2813	-4.23147	5.33801	-2.06451	-0.320765	-0.618083	-22.6034	-65.8	-3.9618	25.508	-97.9057	32.6811	-0.0462883	10.462	-3.9489	-0.529442	6.10452	2.80395	-0.542339	-0.107678	19.3563	-0.952369	1.59565	13.056	0.888397	-0.342285	3.87901	0.00257372	0.317499	-0.250197	12.7077	0.239821	-0.546498	3.85806	-0.00429691	0.302643	-0.272343
1.14592	16.9222	-4.40844	5.67323	-1.41163	-0.385002	-0.575977	-22.0643	-66.2467	-3.95367	25.5753	-98.9384	32.7506	-0.0460494	8.38263	-3.96071	-0.356426	7.07279	2.73695	-0.537261	-0.107093	18.7674	-0.998967	1.56676	13.1233	0.879241	-0.348707	3.86688	0.00204574	0.315202	-0.250144	12.7978	0.235577	-0.549794	3.8501	-0.00455342	0.301038	-0.271908
1.1509	19.7507	-4.45264	5.94545	-0.843656	-0.251319	-0.217849	-21.4862	-66.6091	-3.93669	25.6078	-99.9473	32.8084	-0.0458529	6.10678	-3.81873	-0.206454	8.16069	2.64654	-0.521336	-0.105941	18.1876	-1.08745	1.53419	13.1979	0.873246	-0.354805	3.85675	0.00154176	0.313037	-0.250149	12.8928	0.228609	-0.553801	3.84298	-0.00485596	0.299438	-0.271554
1.15589	22.6951	-4.30206	6.12529	-0.735045	-0.0339587	0.0204671	-20.8333	-66.9093	-3.90788	25.5918	-100.926	32.8526	-0.0456883	3.69272	-3.45983	-0.0826425	9.35483	2.53153	-0.493052	-0.104166	17.5879	-1.18969	1.49217	13.2819	0.864388	-0.362086	3.84789	0.000998703	0.310855	-0.25034	12.9939	0.224115	-0.557387	3.8363	-0.00516504	0.297861	-0.271164
1.16087	25.7461	-3.9988	6.23494	-0.806065	0.244943	0.0611975	-20.1369	-67.1641	-3.86555	25.5336	-101.869	32.8816	-0.045556	1.13976	-2.92763	0.0257271	10.6535	2.39188	-0.454282	-0.101711	16.9962	-1.29186	1.43769	13.374	0.850175	-0.371023	3.84076	0.000408145	0.308692	-0.250782	13.0985	0.225144	-0.559757	3.8304	-0.00544727	0.296399	-0.270682
1.16585	28.868	-3.55897	6.27399	-0.8876	0.601289	-0.138142	-19.4185	-67.3753	-3.80904	25.4349	-102.768	32.894	-0.0454564	-1.52706	-2.23232	0.123061	12.0474	2.2281	-0.405738	-0.0985519	16.4363	-1.38574	1.36937	13.4739	0.829409	-0.381849	3.83598	-0.000230031	0.306609	-0.251534	13.2053	0.233369	-0.560512	3.82583	-0.00568298	0.295138	-0.270104
1.17083	31.972	-3.04792	6.22998	-1.18929	1.05281	-0.278626	-18.6695	-67.5051	-3.73999	25.2851	-103.616	32.8888	-0.0453863	-4.24503	-1.43131	0.215542	13.5093	2.04178	-0.34912	-0.0946683	15.9088	-1.49414	1.29371	13.5839	0.806472	-0.393561	3.83424	-0.000869672	0.304734	-0.252536	13.3161	0.244348	-0.560912	3.8228	-0.00592133	0.294032	-0.269586
1.17582	116.3	-4.6767	31.4706	625.031	861.038	-209.715	-84.9561	-92.8321	-3.02914	49.7949	-103.235	32.5317	-0.106659	-26.4073	20.5568	-0.466159	25.1893	3.36155	-0.2692	-0.160649	89.3349	32.1932	-7.32264	22.0525	-4.15901	-1.99543	8.03698	-0.0440903	0.589215	-0.62808	21.4446	7.56495	0.912581	8.51545	0.0749597	0.792776	-0.354264
1.1808	108.259	-3.25848	27.4465	530.739	699.299	-173.162	-74.6451	-89.1593	-3.05345	46.0544	-104.391	32.5305	-0.0952423	-27.6357	18.1676	-0.134686	25.2427	2.8488	-0.201399	-0.14271	76.1772	26.2946	-5.93642	20.4408	-3.32766	-1.71844	7.24044	-0.037014	0.532628	-0.558421	19.8762	6.30351	0.668712	7.62668	0.0606638	0.699156	-0.333489
1.18578	101.196	-1.90258	23.7235	445.066	552.26	-140.442	-65.2575	-85.7998	-3.07761	42.7212	-105.613	32.4871	-0.0848775	-29.0258	16.0841	0.14427	25.58	2.34315	-0.129633	-0.125251	64.2437	20.9511	-4.70923	18.9693	-2.5886	-1.47034	6.51652	-0.0307015	0.481002	-0.495491	18.4359	5.17403	0.451761	6.81796	0.0478446	0.614323	-0.314013
1.19076	95.0051	-0.692533	20.3156	368.315	420.409	-111.47	-56.827	-82.7373	-3.09968	39.7831	-106.868	32.4029	-0.0755821	-30.4756	14.2566	0.378225	26.1189	1.85196	-0.0567364	-0.108413	53.5844	16.1778	-3.64736	17.6462	-1.94336	-1.25203	5.8683	-0.0251716	0.434563	-0.439556	17.1326	4.17929	0.262157	6.09258	0.0365335	0.538598	-0.295979
1.19574	89.5436	0.303348	17.2233	300.578	303.912	-86.0995	-49.3626	-79.9488	-3.11812	37.2199	-108.124	32.2787	-0.0673467	-31.872	12.6381	0.573483	26.7683	1.3826	0.0148459	-0.0923352	44.2284	11.9788	-2.75475	16.4789	-1.39189	-1.06404	5.29808	-0.0204294	0.393505	-0.390831	15.9747	3.31987	0.0998354	5.45312	0.0267431	0.472233	-0.279565
1.20073	84.6805	1.03216	14.438	241.756	202.57	-64.1313	-42.8549	-77.4029	-3.13217	35.006	-109.347	32.1148	-0.0601366	-33.1041	11.1873	0.735551	27.4352	0.942178	0.0829769	-0.0771569	36.1508	8.34159	-2.03073	15.4611	-0.931666	-0.905548	4.80311	-0.0164595	0.357597	-0.349055	14.9565	2.59178	-0.0358057	4.89629	0.0184246	0.414857	-0.264637
1.20571	80.2381	1.44787	11.9445	191.632	116.057	-45.3307	-37.2776	-75.0671	-3.14118	33.1104	-110.507	31.9109	-0.0539034	-34.05	9.85944	0.869724	28.0192	0.538037	0.14573	-0.0630238	29.3356	5.25117	-1.47391	14.5937	-0.559677	-0.776058	4.38284	-0.013241	0.326835	-0.314189	14.0802	1.99125	-0.145649	4.42157	0.0115446	0.366403	-0.251295
1.21069	76.0416	1.52586	9.71719	149.881	43.8544	-29.4494	-32.5921	-72.9054	-3.14499	31.5	-111.573	31.6659	-0.0485852	-34.5887	8.62344	0.981116	28.4205	0.177245	0.201775	-0.0500867	23.7412	2.68411	-1.07997	13.8714	-0.27152	-0.674416	4.03454	-0.0107406	0.301042	-0.285988	13.3422	1.51219	-0.230903	4.02596	0.00604091	0.326539	-0.23952
1.21567	71.912	1.25996	7.7219	116.095	-14.676	-16.2363	-28.7499	-70.8811	-3.14376	30.1398	-112.515	31.3785	-0.0441111	-34.5989	7.45942	1.07518	28.54	-0.133443	0.250321	-0.0384986	19.3136	0.612204	-0.842397	13.2872	-0.0618928	-0.599126	3.75463	-0.00891593	0.279985	-0.264122	12.7367	1.14726	-0.293019	3.70557	0.00183811	0.294841	-0.229269
1.22066	67.6699	0.661244	5.91733	89.7995	-60.2575	-5.44417	-25.6946	-68.9576	-3.13799	28.9944	-113.304	31.0464	-0.040405	-33.9607	6.35816	1.15793	28.2818	-0.387763	0.291086	-0.028409	15.9889	-0.996122	-0.752487	12.8321	0.0752403	-0.548399	3.53892	-0.00771703	0.263392	-0.248198	12.2563	0.888145	-0.333649	3.45582	-0.00115008	0.270807	-0.220486
1.22564	63.1388	-0.2444	4.25715	70.4694	-93.6728	3.16553	-23.3642	-67.0999	-3.1284	28.0287	-113.914	30.6669	-0.0373889	-32.5576	5.31894	1.23596	27.555	-0.580144	0.324214	-0.0199564	13.6958	-2.17468	-0.799485	12.4961	0.146499	-0.520201	3.3827	-0.00708748	0.250959	-0.237762	11.8924	0.725777	-0.354603	3.27161	-0.00301863	0.253881	-0.213098
1.23062	58.6563	-1.38955	2.81063	57.9631	-115.947	9.86094	-21.688	-65.2777	-3.11549	27.208	-114.317	30.2364	-0.034994	-30.757	4.39642	1.31022	26.5395	-0.721185	0.351426	-0.0129861	12.3643	-2.96703	-0.93147	12.2719	0.168715	-0.509163	3.28202	-0.00683741	0.242688	-0.232011	11.6364	0.641527	-0.361112	3.14816	-0.00399044	0.243297	-0.207463
1.2356	54.4514	-2.73234	1.63052	51.9488	-128.074	14.9273	-20.5924	-63.4648	-3.09971	26.4995	-114.488	29.7511	-0.0331522	-28.8274	3.60455	1.37617	25.3705	-0.82014	0.3729	-0.0073073	11.9185	-3.4143	-1.11013	12.1516	0.155225	-0.511055	3.23262	-0.00682512	0.238468	-0.230257	11.4801	0.620006	-0.357276	3.08055	-0.00424549	0.238353	-0.20379
1.24059	50.6898	-4.24372	0.751689	51.9772	-131.053	18.6281	-20.0027	-61.6395	-3.0815	25.873	-114.406	29.2066	-0.0317974	-26.9754	2.93887	1.42793	24.1551	-0.885483	0.388306	-0.00271427	12.2714	-3.55438	-1.31049	12.1249	0.115676	-0.522711	3.2293	-0.00695679	0.238017	-0.231881	11.4137	0.649129	-0.345972	3.06309	-0.0039225	0.238354	-0.202095
1.24557	47.4779	-5.90157	0.197723	57.5066	-125.858	21.2064	-19.8435	-59.7843	-3.06122	25.3011	-114.049	28.5986	-0.0308676	-25.3491	2.38212	1.4591	22.9739	-0.924544	0.397011	0.000990223	13.3298	-3.423	-1.51297	12.1797	0.0580071	-0.541417	3.26635	-0.00715981	0.240974	-0.236284	11.4259	0.718346	-0.329522	3.0897	-0.00314214	0.242598	-0.202299
1.25055	44.8706	-7.68595	-0.0150297	67.9248	-113.425	22.884	-20.04	-57.8869	-3.03909	24.7595	-113.399	27.9224	-0.0303062	-24.0447	1.90986	1.46373	21.8831	-0.943317	0.398291	0.00397818	14.9975	-3.05471	-1.6982	12.3034	-0.0102271	-0.564494	3.33784	-0.00736523	0.246945	-0.242852	11.505	0.817466	-0.310132	3.15405	-0.00202241	0.250365	-0.204294
1.25553	42.8798	-9.57837	0.118009	82.5655	-94.6426	23.8532	-20.5189	-55.9388	-3.0152	24.2272	-112.441	27.1737	-0.0300636	-23.1119	1.49532	1.43726	20.9176	-0.946397	0.391536	0.0063848	17.1746	-2.48171	-1.85131	12.4826	-0.0829536	-0.589664	3.43751	-0.0075221	0.25548	-0.250996	11.6382	0.937681	-0.289539	3.24961	-0.000665397	0.26094	-0.207902
1.26051	41.483	-11.568	0.574072	100.721	-70.354	24.2512	-21.2092	-53.9355	-2.98939	23.6864	-111.161	26.3486	-0.0301011	-22.5619	1.11297	1.37714	20.0938	-0.937155	0.376413	0.00830952	19.7555	-1.72781	-1.97936	12.702	-0.160083	-0.616536	3.55853	-0.00765707	0.26594	-0.260315	11.8128	1.07576	-0.267537	3.36958	0.000898283	0.273711	-0.212695
1.2655	40.6211	-13.6551	1.30718	121.642	-41.3388	24.1621	-22.0427	-51.8754	-2.96125	23.1225	-109.55	25.4437	-0.0303949	-22.3654	0.737502	1.28249	19.4086	-0.917749	0.352796	0.0098197	22.6318	-0.805987	-2.10806	12.9454	-0.246798	-0.646417	3.69377	-0.00786713	0.277537	-0.270589	12.0167	1.23346	-0.242233	3.50726	0.00270369	0.288186	-0.218053
1.27048	40.2016	-15.8485	2.25438	144.541	-8.30276	23.6257	-22.9547	-49.7599	-2.93004	22.5241	-107.601	24.4566	-0.030937	-22.4539	0.343214	1.15374	18.8397	-0.889013	0.320667	0.010948	25.6933	0.279257	-2.27566	13.1962	-0.35195	-0.681823	3.83598	-0.00829871	0.289387	-0.281732	12.239	1.41602	-0.210588	3.65618	0.00483083	0.303962	-0.223228
1.27546	40.0984	-18.143	3.35897	168.636	28.1027	22.6926	-23.8846	-47.5928	-2.89518	21.8825	-105.31	23.3861	-0.03172	-22.7325	-0.0898694	0.994017	18.3513	-0.850211	0.280321	0.0116656	28.845	1.51614	-2.50331	13.4416	-0.479963	-0.723914	3.97924	-0.00903372	0.300837	-0.293573	12.47	1.62482	-0.171062	3.81071	0.00730588	0.320626	-0.227712
1.28044	40.1677	-20.5235	4.56503	193.144	67.2666	21.4071	-24.7765	-45.3784	-2.85624	21.1911	-102.677	22.2325	-0.0327403	-23.0852	-0.574211	0.808994	17.896	-0.799411	0.23241	0.0118964	31.9977	2.88902	-2.80163	13.6705	-0.632663	-0.773028	4.11822	-0.0101172	0.311347	-0.305878	12.7006	1.85892	-0.123009	3.96561	0.0101222	0.337739	-0.231128
1.28543	40.2519	-22.9687	5.81388	217.288	108.611	19.7999	-25.5804	-43.1214	-2.81302	20.4459	-99.7075	20.9979	-0.0339979	-23.3773	-1.1148	0.606382	17.4165	-0.733733	0.177887	0.0115298	35.066	4.38053	-3.17547	13.873	-0.810536	-0.829085	4.24802	-0.0115752	0.320448	-0.318384	12.9226	2.11624	-0.0662572	4.11598	0.0132563	0.354858	-0.233173
1.29041	40.1842	-25.4521	7.04251	240.293	151.588	17.8867	-26.2532	-40.8265	-2.76558	19.6455	-96.4079	19.6865	-0.0354962	-23.4582	-1.71004	0.395251	16.8464	-0.649569	0.11792	0.0104329	37.969	5.97243	-3.62689	14.0404	-1.01346	-0.891843	4.36416	-0.0134244	0.327723	-0.330835	13.1284	2.39421	-0.000875524	4.25723	0.0166775	0.371559	-0.233598
1.29539	39.7771	-27.9455	8.18475	261.407	195.69	15.6709	-26.759	-38.4993	-2.71417	18.7901	-92.7907	18.3049	-0.0372404	-23.1605	-2.35661	0.185181	16.1099	-0.542724	0.0537016	0.00846414	40.6394	7.64821	-4.15772	14.1683	-1.24144	-0.961331	4.46368	-0.0156812	0.332899	-0.343106	13.3148	2.69101	0.0730238	4.38654	0.0203663	0.387596	-0.232274
1.30037	38.8755	-30.4108	9.16695	279.875	240.395	13.1425	-27.0736	-36.1423	-2.65975	17.8843	-88.8721	16.8622	-0.0392358	-22.3121	-3.0394	-0.014386	15.1281	-0.408903	-0.0134351	0.00548668	42.9889	9.38424	-4.76798	14.2449	-1.49361	-1.03682	4.5409	-0.0183537	0.335452	-0.35479	13.4698	3.00276	0.155168	4.49765	0.0242682	0.402339	-0.228853
1.30535	37.2802	-32.814	9.91768	294.989	285.255	10.2891	-27.1812	-33.7627	-2.60299	16.9347	-84.6727	15.37	-0.0414854	-20.719	-3.75374	-0.195186	13.8092	-0.24332	-0.0825609	0.00137912	44.964	11.1629	-5.46029	14.2689	-1.77016	-1.11856	4.594	-0.0214579	0.335206	-0.365855	13.5931	3.32811	0.245429	4.58875	0.0283685	0.415644	-0.223271
1.31034	35.0193	-35.0093	10.4777	306.289	329.592	7.324	-27.0793	-31.3656	-2.54689	15.9512	-80.219	13.8423	-0.0438832	-18.3784	-4.45185	-0.346357	12.1614	-0.0482125	-0.150853	-0.00383741	46.5197	12.8812	-6.1115	14.2426	-2.03628	-1.19497	4.62235	-0.0245294	0.332886	-0.374917	13.6729	3.63239	0.332409	4.65579	0.0321949	0.426391	-0.216656
1.31532	32.2731	-36.9493	10.8697	313.446	372.829	4.34391	-26.7778	-28.9596	-2.4928	14.9485	-75.5394	12.2958	-0.0463917	-15.4181	-5.11004	-0.465508	10.2646	0.169464	-0.216636	-0.00999707	47.6077	14.4943	-6.67657	14.1667	-2.27904	-1.26192	4.62464	-0.0274143	0.328647	-0.381444	13.7063	3.90188	0.411724	4.69655	0.0355679	0.434095	-0.209402
1.3203	29.2134	-38.6088	11.1007	316.209	414.51	1.44274	-26.3009	-26.5575	-2.44156	13.9467	-70.665	10.7485	-0.0489807	-11.96	-5.72126	-0.553291	8.19338	0.402577	-0.278887	-0.0168923	48.2014	15.9676	-7.13921	14.045	-2.49252	-1.31786	4.60102	-0.030049	0.322609	-0.385307	13.6956	4.13	0.481238	4.71051	0.0384037	0.438597	-0.201742
1.32528	26.0157	-39.9486	11.1953	314.433	454.259	-1.22046	-25.689	-24.176	-2.39395	12.9707	-65.6296	9.2206	-0.0515846	-8.1241	-6.28509	-0.611874	6.01874	0.643315	-0.336745	-0.0242618	48.2969	17.2512	-7.46464	13.886	-2.66516	-1.35954	4.55341	-0.0322895	0.315178	-0.38628	13.6447	4.30533	0.536972	4.69828	0.0405536	0.439728	-0.194191
1.33027	22.8616	-40.9449	11.1591	308.085	491.809	-3.53063	-24.9957	-21.8348	-2.35005	12.0512	-60.4679	7.73288	-0.0541498	-4.03109	-6.79981	-0.643726	3.80812	0.883951	-0.389364	-0.0318356	47.9037	18.3108	-7.64429	13.6992	-2.79237	-1.38616	4.48436	-0.0340814	0.306656	-0.384457	13.5603	4.42335	0.577207	4.66148	0.0419613	0.437573	-0.18706
1.33525	19.9376	-41.5741	10.9917	297.257	527.001	-5.3861	-24.2862	-19.5572	-2.30934	11.2223	-55.2145	6.30671	-0.0566144	0.19831	-7.26062	-0.651635	1.62561	1.11674	-0.435842	-0.0393331	47.0472	19.1165	-7.67905	13.4953	-2.87187	-1.39769	4.39721	-0.0353949	0.297367	-0.380071	13.4505	4.48215	0.600979	4.6025	0.0426023	0.432339	-0.180614
1.34023	17.431	-41.8116	10.6912	282.166	559.777	-6.70118	-23.6322	-17.3693	-2.27061	10.5204	-49.9029	4.96324	-0.0589064	4.44304	-7.65841	-0.638647	-0.467926	1.3341	-0.475215	-0.0464736	45.7673	19.643	-7.57519	13.2865	-2.90284	-1.39462	4.29601	-0.0362127	0.287669	-0.373444	13.324	4.48152	0.607805	4.52437	0.0424724	0.424326	-0.175101
1.34521	15.5249	-41.6333	10.2561	263.162	590.191	-7.41284	-23.1087	-15.2991	-2.23191	9.9817	-44.5643	3.72283	-0.0609467	8.5822	-7.97961	-0.607994	-2.41491	1.52884	-0.506482	-0.0529906	44.1172	19.8711	-7.34347	13.0852	-2.88584	-1.37784	4.18533	-0.0365287	0.277946	-0.364969	13.1901	4.4229	0.597662	4.43064	0.0415866	0.41391	-0.170744
1.3502	14.3925	-41.0202	9.68713	240.724	618.394	-7.48722	-22.7892	-13.3742	-2.1906	9.64122	-39.2262	2.60473	-0.0626529	12.4968	-8.20712	-0.563031	-4.16169	1.69451	-0.52867	-0.0586466	42.1618	19.7906	-6.99887	12.9037	-2.82293	-1.34865	4.07	-0.0363503	0.268576	-0.355086	13.0577	4.30956	0.571053	4.32519	0.0399805	0.401526	-0.167721
1.35518	14.187	-39.9635	8.98915	215.449	644.634	-6.92514	-22.7418	-11.6198	-2.14352	9.53039	-33.9121	1.62688	-0.0639456	16.0733	-8.32247	-0.507172	-5.66008	1.82572	-0.540937	-0.0632491	39.9751	19.4021	-6.56032	12.7531	-2.71786	-1.30874	3.95487	-0.0357005	0.259916	-0.344268	12.9348	4.14663	0.529059	4.21209	0.0377128	0.387655	-0.166153
1.36016	15.0286	-38.4716	8.17259	188.043	669.241	-5.76573	-23.0231	-10.0548	-2.08728	9.67457	-28.6403	0.805851	-0.0647563	19.2093	-8.30886	-0.443813	-6.8699	1.91863	-0.542711	-0.0666641	37.6374	18.7192	-6.05018	12.6426	-2.5761	-1.26018	3.84452	-0.0346205	0.25227	-0.333	12.8282	3.94125	0.473394	4.09542	0.0348662	0.372807	-0.166083
1.36514	16.9882	-36.5769	7.25487	159.293	692.609	-4.08748	-23.6716	-8.68802	-2.01855	10.0896	-23.4239	0.156886	-0.065036	21.8204	-8.15474	-0.37626	-7.76232	1.97127	-0.53384	-0.0688292	35.2328	17.771	-5.49359	12.5785	-2.4049	-1.20538	3.74292	-0.0331712	0.245866	-0.321755	12.7429	3.70247	0.406429	3.97909	0.0315491	0.357503	-0.167463
1.37012	20.072	-34.3586	6.25521	130.029	715.166	-2.04432	-24.6982	-7.51273	-1.93438	10.7773	-18.2694	-0.306179	-0.0647912	23.8497	-7.85806	-0.307497	-8.32458	1.98452	-0.514857	-0.0697854	32.8354	16.6146	-4.92701	12.5603	-2.21635	-1.14794	3.65221	-0.0314799	0.240674	-0.31102	12.6806	3.44404	0.332253	3.86618	0.0279349	0.342275	-0.169985
1.37511	24.1984	-31.9164	5.20723	101.131	737.366	0.217136	-26.0852	-6.50401	-1.83303	11.7242	-13.1782	-0.570664	-0.0640443	25.2735	-7.42996	-0.24053	-8.56296	1.96142	-0.486972	-0.0696364	30.5289	15.3137	-4.37895	12.5864	-2.02101	-1.09083	3.57449	-0.0296511	0.236707	-0.301192	12.6419	3.17865	0.254585	3.75985	0.0241851	0.327626	-0.173387
1.38009	29.1836	-29.3885	4.15593	73.4917	759.653	2.53359	-27.7786	-5.61372	-1.71452	12.8968	-8.14651	-0.625206	-0.0628617	26.1093	-6.89813	-0.1782	-8.50707	1.90789	-0.452291	-0.0685722	28.396	13.9485	-3.87475	12.6506	-1.82993	-1.03689	3.51087	-0.0277987	0.233892	-0.292584	12.6251	2.91977	0.177453	3.66301	0.020477	0.314039	-0.177345
1.38507	34.7273	-26.9551	3.15619	47.9812	782.437	4.72797	-29.6828	-4.76793	-1.58125	14.2389	-3.16563	-0.460206	-0.0613664	26.4227	-6.30946	-0.12315	-8.21332	1.833	-0.413944	-0.0668738	26.5164	12.6174	-3.43776	12.742	-1.65493	-0.988994	3.46125	-0.0260527	0.232045	-0.285431	12.6263	2.68183	0.105342	3.57816	0.0170097	0.30197	-0.181449
1.39005	40.4052	-24.8367	2.27243	25.4247	806.059	6.61335	-31.6574	-3.86719	-1.43836	15.6703	1.77721	-0.0683951	-0.0597424	26.3305	-5.73145	-0.0777967	-7.76686	1.74905	-0.376152	-0.0649096	24.9645	11.4364	-3.08926	12.8451	-1.50857	-0.950037	3.42431	-0.024561	0.230866	-0.279895	12.6397	2.48021	0.0431893	3.50741	0.0140045	0.291852	-0.185204
1.39504	45.6605	-23.2881	1.58166	6.60128	830.791	7.99748	-33.5187	-2.79193	-1.29346	17.0866	6.6974	0.554818	-0.0582335	26.0016	-5.2541	-0.044156	-7.28174	1.67141	-0.344234	-0.0631264	23.8197	10.5394	-2.84856	12.9427	-1.40421	-0.92319	3.39874	-0.0234895	0.230052	-0.276178	12.6614	2.33175	-0.00364782	3.45389	0.0117151	0.284248	-0.188127
1.40002	0	0	0	0	0	0	0	0	0	0	0	0	0	0	0	0	0	0	0	0	0	0	0	0	0	0	0	0	0	0	0	0	0	0	0	0	0
