nColumns=19
nRows=223
DataType=double
version=3
OpenSimVersion=4.1
endheader
time	ground_force_calcn_l_vx	ground_force_calcn_l_vy	ground_force_calcn_l_vz	ground_force_calcn_l_px	ground_force_calcn_l_py	ground_force_calcn_l_pz	ground_force_calcn_l_mx	ground_force_calcn_l_my	ground_force_calcn_l_mz	ground_force_calcn_r_vx	ground_force_calcn_r_vy	ground_force_calcn_r_vz	ground_force_calcn_r_px	ground_force_calcn_r_py	ground_force_calcn_r_pz	ground_force_calcn_r_mx	ground_force_calcn_r_my	ground_force_calcn_r_mz
0	0	0	0	0	0.0442466	0	0	0	0	0	0	0	0	0.16681	0	0	0	0
0.00497758	65.2906	340.371	33.4553	1.49417	1.65902e-16	0.483934	0.0957698	0.499264	0.0490729	0	0	0	0	1.65902e-16	0	0	0	0
0.00995516	76.3497	380.984	31.0155	1.48838	1.65257e-16	0.482816	0.113118	0.564457	0.0459518	0	0	0	0	1.65257e-16	0	0	0	0
0.0149327	87.2903	421.278	28.5329	1.48265	1.64619e-16	0.481731	0.129827	0.626569	0.0424372	0	0	0	0	1.64619e-16	0	0	0	0
0.0199103	97.999	460.978	25.9753	1.47702	1.63991e-16	0.480698	0.145262	0.683298	0.0385026	0	0	0	0	1.63991e-16	0	0	0	0
0.0248879	108.343	499.754	23.3093	1.47153	1.6338e-16	0.479736	0.158662	0.73186	0.0341351	0	0	0	0	1.6338e-16	0	0	0	0
0.0298655	118.186	537.234	20.503	1.4662	1.62787e-16	0.478862	0.169214	0.76919	0.0293554	0	0	0	0	1.62787e-16	0	0	0	0
0.034843	127.403	573.025	17.5267	1.46109	1.62218e-16	0.478088	0.176141	0.792234	0.0242315	0	0	0	0	1.62218e-16	0	0	0	0
0.0398206	135.888	606.742	14.3559	1.45621	1.61675e-16	0.477423	0.178798	0.798335	0.0188891	0	0	0	0	1.61675e-16	0	0	0	0
0.0447982	143.559	638.04	10.976	1.45159	1.61161e-16	0.476875	0.176754	0.78557	0.0135139	0	0	0	0	1.61161e-16	0	0	0	0
0.0497758	150.359	666.645	7.38537	1.44725	1.60678e-16	0.476445	0.169828	0.752964	0.00834165	0	0	0	0	1.60678e-16	0	0	0	0
0.0547534	156.257	692.378	3.59795	1.44319	1.60227e-16	0.476132	0.158098	0.700539	0.00364036	0	0	0	0	1.60227e-16	0	0	0	0
0.0597309	161.243	715.162	-0.35757	1.43942	1.59807e-16	0.475933	0.141866	0.629221	-0.000314601	0	0	0	0	1.59807e-16	0	0	0	0
0.0647085	165.332	735.011	-4.43957	1.43594	1.5942e-16	0.47584	0.121599	0.540589	-0.00326524	0	0	0	0	1.5942e-16	0	0	0	0
0.0696861	168.562	752.018	-8.59646	1.43273	1.59065e-16	0.475843	0.0978609	0.436594	-0.00499078	0	0	0	0	1.59065e-16	0	0	0	0
0.0746637	170.984	766.334	-12.77	1.42981	1.5874e-16	0.475932	0.0712503	0.319337	-0.00532135	0	0	0	0	1.5874e-16	0	0	0	0
0.0796413	172.66	778.15	-16.8985	1.42714	1.58444e-16	0.476093	0.0423762	0.190982	-0.00414741	0	0	0	0	1.58444e-16	0	0	0	0
0.0846188	173.656	787.677	-20.9193	1.42472	1.58175e-16	0.476312	0.0118463	0.0537332	-0.00142705	0	0	0	0	1.58175e-16	0	0	0	0
0.0895964	174.036	795.134	-24.7711	1.42253	1.57933e-16	0.476576	-0.0197451	-0.0902115	0.00281039	0	0	0	0	1.57933e-16	0	0	0	0
0.094574	173.857	800.732	-28.396	1.42055	1.57714e-16	0.476871	-0.0518379	-0.238749	0.00846665	0	0	0	0	1.57714e-16	0	0	0	0
0.0995516	173.17	804.662	-31.7416	1.41878	1.57518e-16	0.477186	-0.0839285	-0.389987	0.0153839	0	0	0	0	1.57518e-16	0	0	0	0
0.104529	172.012	807.088	-34.7636	1.41719	1.57343e-16	0.477509	-0.115587	-0.542339	0.0233601	0	0	0	0	1.57343e-16	0	0	0	0
0.109507	170.416	808.145	-37.4288	1.41577	1.57186e-16	0.47783	-0.146483	-0.694651	0.0321724	0	0	0	0	1.57186e-16	0	0	0	0
0.114484	168.408	807.943	-39.717	1.4145	1.57047e-16	0.478141	-0.176396	-0.846265	0.0416009	0	0	0	0	1.57047e-16	0	0	0	0
0.119462	166.015	806.566	-41.6213	1.41338	1.56924e-16	0.478437	-0.205201	-0.99695	0.0514457	0	0	0	0	1.56924e-16	0	0	0	0
0.124439	163.265	804.081	-43.146	1.41238	1.56815e-16	0.478712	-0.232838	-1.14673	0.0615323	0	0	0	0	1.56815e-16	0	0	0	0
0.129417	160.186	800.539	-44.3052	1.4115	1.56718e-16	0.478963	-0.259268	-1.29571	0.0717098	0	0	0	0	1.56718e-16	0	0	0	0
0.134395	156.808	795.983	-45.12	1.41071	1.56632e-16	0.479188	-0.284449	-1.44391	0.0818476	0	0	0	0	1.56632e-16	0	0	0	0
0.139372	153.159	790.451	-45.6169	1.41001	1.56555e-16	0.479386	-0.308323	-1.59125	0.0918312	0	0	0	0	1.56555e-16	0	0	0	0
0.14435	149.269	783.977	-45.8262	1.40937	1.56486e-16	0.479557	-0.330818	-1.73749	0.101562	0	0	0	0	1.56486e-16	0	0	0	0
0.149327	145.171	776.6	-45.7809	1.40879	1.56423e-16	0.479703	-0.351855	-1.88227	0.110961	0	0	0	0	1.56423e-16	0	0	0	0
0.154305	140.895	768.368	-45.5154	1.40825	1.56364e-16	0.479824	-0.371364	-2.02522	0.119967	0	0	0	0	1.56364e-16	0	0	0	0
0.159283	136.476	759.336	-45.064	1.40774	1.56309e-16	0.479921	-0.389279	-2.1659	0.128539	0	0	0	0	1.56309e-16	0	0	0	0
0.16426	131.944	749.576	-44.4592	1.40724	1.56255e-16	0.479997	-0.405536	-2.30385	0.136647	0	0	0	0	1.56255e-16	0	0	0	0
0.169238	127.331	739.172	-43.7303	1.40674	1.56201e-16	0.480052	-0.420066	-2.43853	0.144266	0	0	0	0	1.56201e-16	0	0	0	0
0.174215	122.667	728.222	-42.9031	1.40623	1.56146e-16	0.480089	-0.432797	-2.56934	0.151372	0	0	0	0	1.56146e-16	0	0	0	0
0.179193	117.976	716.833	-41.9995	1.40571	1.56089e-16	0.480107	-0.443658	-2.6957	0.157942	0	0	0	0	1.56089e-16	0	0	0	0
0.18417	113.284	705.119	-41.038	1.40515	1.56029e-16	0.480108	-0.452586	-2.81704	0.163952	0	0	0	0	1.56029e-16	0	0	0	0
0.189148	108.613	693.197	-40.0339	1.40455	1.55964e-16	0.480093	-0.459537	-2.93289	0.169382	0	0	0	0	1.55964e-16	0	0	0	0
0.194126	103.981	681.18	-39.0001	1.40391	1.55893e-16	0.480063	-0.464493	-3.04288	0.174216	0	0	0	0	1.55893e-16	0	0	0	0
0.199103	99.4073	669.172	-37.9475	1.4032	1.55817e-16	0.480019	-0.467464	-3.14679	0.178448	0	0	0	0	1.55817e-16	0	0	0	0
0.204081	94.9055	657.267	-36.886	1.40244	1.55733e-16	0.479962	-0.468497	-3.24457	0.182087	0	0	0	0	1.55733e-16	0	0	0	0
0.209058	90.4891	645.544	-35.8254	1.40161	1.55642e-16	0.479894	-0.467682	-3.33641	0.185159	0	0	0	0	1.55642e-16	0	0	0	0
0.214036	86.1694	634.066	-34.7756	1.40071	1.55543e-16	0.479817	-0.465147	-3.42272	0.18772	0	0	0	0	1.55543e-16	0	0	0	0
0.219013	81.9563	622.883	-33.7471	1.39973	1.55436e-16	0.479732	-0.461056	-3.50412	0.189849	0	0	0	0	1.55436e-16	0	0	0	0
0.223991	77.8589	612.027	-32.7505	1.39868	1.55319e-16	0.479643	-0.455612	-3.58144	0.191648	0	0	0	0	1.55319e-16	0	0	0	0
0.228969	73.8867	601.52	-31.7964	1.39753	1.55193e-16	0.479551	-0.449049	-3.65576	0.193244	0	0	0	0	1.55193e-16	0	0	0	0
0.233946	70.0498	591.37	-30.8945	1.3963	1.55057e-16	0.479457	-0.441631	-3.72831	0.194775	0	0	0	0	1.55057e-16	0	0	0	0
0.238924	66.3594	581.582	-30.0524	1.39497	1.5491e-16	0.479362	-0.433627	-3.80037	0.196378	0	0	0	0	1.5491e-16	0	0	0	0
0.243901	62.8264	572.158	-29.2753	1.39353	1.54751e-16	0.479266	-0.425296	-3.87315	0.198176	0	0	0	0	1.54751e-16	0	0	0	0
0.248879	59.4612	563.099	-28.5646	1.39198	1.5458e-16	0.479167	-0.416863	-3.94771	0.200257	0	0	0	0	1.5458e-16	0	0	0	0
0.253857	56.2722	554.41	-27.9178	1.3903	1.54395e-16	0.479065	-0.408516	-4.02482	0.202673	0	0	0	0	1.54395e-16	0	0	0	0
0.258834	53.2657	546.101	-27.3286	1.3885	1.54196e-16	0.478955	-0.400396	-4.10502	0.205428	0	0	0	0	1.54196e-16	0	0	0	0
0.263812	50.4453	538.189	-26.7874	1.38656	1.53982e-16	0.478834	-0.392597	-4.18853	0.208477	0	0	0	0	1.53982e-16	0	0	0	0
0.268789	47.8117	530.701	-26.2822	1.38447	1.53752e-16	0.4787	-0.385168	-4.27529	0.211728	0	0	0	0	1.53752e-16	0	0	0	0
0.273767	45.3623	523.67	-25.7993	1.38224	1.53505e-16	0.478547	-0.378113	-4.365	0.215048	0	0	0	0	1.53505e-16	0	0	0	0
0.278744	43.0914	517.135	-25.3249	1.37984	1.5324e-16	0.478371	-0.371402	-4.45716	0.218274	0	0	0	0	1.5324e-16	0	0	0	0
0.283722	40.9905	511.144	-24.8463	1.37729	1.52958e-16	0.47817	-0.364975	-4.55116	0.221228	0	0	0	0	1.52958e-16	0	0	0	0
0.2887	39.0492	505.741	-24.3525	1.37458	1.52658e-16	0.477939	-0.358756	-4.64639	0.223734	-0.0771216	-3.74038	0.354768	0.65782	1.52658e-16	0.368607	0.000301954	0.0146447	-0.00138902
0.293677	37.2552	500.974	-23.8359	1.37171	1.52341e-16	0.477676	-0.352659	-4.74224	0.225632	-0.226492	-4.6645	0.387	0.658047	1.52341e-16	0.368556	0.000765008	0.015755	-0.00130715
0.298655	35.5954	496.886	-23.2919	1.36868	1.52005e-16	0.477379	-0.346596	-4.83824	0.226796	-0.406876	-5.6901	0.41656	0.658263	1.52005e-16	0.368538	0.00119289	0.0166824	-0.00122128
0.303632	34.0552	493.516	-22.7193	1.3655	1.51652e-16	0.477047	-0.340475	-4.93404	0.227141	-0.621019	-6.81413	0.441961	0.658479	1.51652e-16	0.368538	0.00158289	0.0173682	-0.00112649
0.30861	32.6193	490.898	-22.1198	1.36217	1.51283e-16	0.476681	-0.334199	-5.02945	0.226627	-0.871415	-8.03	0.461461	0.658697	1.51283e-16	0.368544	0.00192528	0.0177413	-0.00101954
0.313587	31.2712	489.057	-21.4979	1.3587	1.50897e-16	0.476282	-0.327664	-5.12439	0.225257	-1.16018	-9.32697	0.473048	0.658922	1.50897e-16	0.368551	0.00220407	0.0177191	-0.000898683
0.318565	29.9938	488.011	-20.8596	1.35509	1.50496e-16	0.475851	-0.320761	-5.21891	0.223078	-1.48889	-10.6894	0.474426	0.659152	1.50496e-16	0.368553	0.002397	0.017209	-0.000763789
0.323543	28.7693	487.774	-20.2133	1.35135	1.5008e-16	0.475392	-0.313374	-5.31315	0.220177	-1.85842	-12.0958	0.463008	0.659385	1.5008e-16	0.368546	0.00247498	0.0161088	-0.000616619
0.32852	27.5796	488.348	-19.5687	1.34749	1.49651e-16	0.474909	-0.305379	-5.40731	0.216677	-2.26871	-13.5182	0.435916	0.659619	1.49651e-16	0.368527	0.00240119	0.0143076	-0.000461371
0.333498	26.4069	489.735	-18.9369	1.34353	1.4921e-16	0.474408	-0.296651	-5.50159	0.212734	-2.71858	-14.9213	0.389988	0.65985	1.4921e-16	0.368492	0.00212955	0.0116884	-0.000305491
0.338475	25.2341	491.927	-18.3303	1.33947	1.48758e-16	0.473893	-0.287062	-5.59614	0.208525	-3.20545	-16.2614	0.321795	0.66007	1.48758e-16	0.368439	0.00160263	0.00813021	-0.000160888
0.343453	24.0445	494.918	-17.7624	1.33532	1.48297e-16	0.47337	-0.276487	-5.69105	0.20425	-3.72507	-17.4856	0.227667	0.660273	1.48297e-16	0.368366	0.000748368	0.00351286	-4.57384e-05
0.34843	22.8219	498.699	-17.2471	1.33111	1.47828e-16	0.472844	-0.264797	-5.78628	0.200114	-4.27122	-18.5311	0.103739	0.660449	1.47828e-16	0.368272	-0.00052471	-0.0022765	1.2744e-05
0.353408	21.5498	503.259	-16.7983	1.32685	1.47353e-16	0.47232	-0.251855	-5.88165	0.196323	-4.8354	-19.3243	-0.0539976	0.660585	1.47353e-16	0.36816	-0.00233518	-0.00933236	-2.60773e-05
0.358386	20.2108	508.594	-16.4292	1.32255	1.46874e-16	0.471803	-0.237511	-5.97682	0.19307	-5.40649	-19.7802	-0.249611	0.660667	1.46874e-16	0.368034	-0.00484123	-0.0177122	-0.000223514
0.363363	18.7861	514.698	-16.1517	1.31822	1.46393e-16	0.471296	-0.221601	-6.0714	0.190526	-5.97038	-19.8022	-0.487139	0.660676	1.46393e-16	0.367908	-0.00826166	-0.0274018	-0.000674091
0.368341	17.2557	521.569	-15.9753	1.31389	1.45912e-16	0.470803	-0.203962	-6.16492	0.188827	-6.50966	-19.2812	-0.770465	0.660587	1.45912e-16	0.367809	-0.0129122	-0.038245	-0.00152825
0.373318	15.5991	529.211	-15.9065	1.30958	1.45432e-16	0.470327	-0.184431	-6.25694	0.188065	-7.00327	-18.096	-1.10317	0.660361	1.45432e-16	0.367796	-0.0192663	-0.0497829	-0.00303487
0.378296	13.7948	537.626	-15.9487	1.30531	1.44957e-16	0.469869	-0.162858	-6.34708	0.188286	-7.42612	-16.1139	-1.48838	0.659928	1.44957e-16	0.368005	-0.0280366	-0.0608365	-0.00561921
0.383274	11.8215	546.821	-16.1019	1.30108	1.44488e-16	0.469431	-0.139116	-6.435	0.189488	-7.74884	-13.1907	-1.92851	0.659133	1.44488e-16	0.368778	-0.0401001	-0.0682618	-0.00997999
0.388251	9.65767	556.797	-16.3628	1.29694	1.44027e-16	0.469012	-0.113099	-6.52054	0.191622	-7.9375	-9.17254	-2.42509	0.657531	1.44027e-16	0.371085	-0.0544498	-0.062922	-0.0166356
0.393229	7.28248	567.555	-16.7247	1.29288	1.43576e-16	0.468611	-0.0847333	-6.60363	0.194596	-7.95341	-3.89732	-2.97845	0.653921	1.43576e-16	0.377043	-0.0488868	-0.0239555	-0.0183075
0.398206	4.6758	579.088	-17.1781	1.28893	1.43138e-16	0.468227	-0.053972	-6.68432	0.198284	-7.75301	2.80261	-3.58745	0.65045	1.43138e-16	0.379424	0.0438104	-0.0158369	0.0202718
0.403184	1.81864	591.379	-17.7108	1.28511	1.42714e-16	0.467858	-0.0207972	-6.76273	0.202533	-7.28786	11.0973	-4.24911	0.65236	7.28878e-17	0.37016	0.0790961	-0.120441	0.0461162
0.408161	-1.30643	604.4	-18.3085	1.28144	1.42306e-16	0.4675	0.0147829	-6.83907	0.207169	-6.50475	21.1551	-4.95824	0.65298	7.27293e-17	0.364993	0.0584734	-0.19017	0.0445712
0.413139	-4.7149	618.11	-18.955	1.27792	1.41916e-16	0.46715	0.052736	-6.91352	0.21201	-5.34601	33.1375	-5.70704	0.652153	7.25392e-17	0.362536	0.0379328	-0.235129	0.0404946
0.418117	-8.42007	632.447	-19.6328	1.27457	1.41544e-16	0.466804	0.0930112	-6.98624	0.216871	-3.74996	47.1931	-6.4847	0.650563	7.23148e-17	0.360993	0.0215756	-0.271528	0.0373101
0.423094	-12.4328	647.335	-20.3241	1.27139	1.41191e-16	0.46646	0.135543	-7.05724	0.221574	-1.65167	63.4501	-7.27686	0.648453	7.20538e-17	0.359806	0.00791667	-0.304125	0.034879
0.428072	-16.7612	662.677	-21.0115	1.2684	1.40859e-16	0.466113	0.180249	-7.12638	0.225956	1.01612	82.0076	-8.06522	0.645905	7.17543e-17	0.358801	-0.00413783	-0.333951	0.0328431
0.433049	-21.4097	678.358	-21.6786	1.2656	1.40547e-16	0.465759	0.227025	-7.19318	0.229876	4.32164	102.926	-8.82699	0.642949	7.14151e-17	0.357928	-0.0151458	-0.360719	0.0309355
0.438027	-26.3788	694.239	-22.3114	1.26298	1.40257e-16	0.465397	0.275731	-7.25672	0.233215	8.33272	126.215	-9.5344	0.639601	7.10355e-17	0.357167	-0.0253195	-0.383514	0.0289709
0.443004	-31.6637	710.165	-22.899	1.26056	1.39987e-16	0.465023	0.326172	-7.31551	0.235886	13.1151	151.821	-10.1542	0.635875	7.0616e-17	0.356514	-0.0346426	-0.401025	0.0268217
0.447982	-37.2536	725.961	-23.4341	1.25831	1.39736e-16	0.464637	0.378074	-7.36753	0.237825	18.7263	179.614	-10.6478	0.631793	7.01582e-17	0.355955	-0.0429413	-0.411873	0.0244164
0.45296	-43.131	741.437	-23.9127	1.25623	1.39505e-16	0.464238	0.431072	-7.41027	0.238995	25.2023	209.396	-10.9722	0.627386	6.96654e-17	0.355475	-0.0499356	-0.414895	0.0217402
0.457937	-49.2716	756.393	-24.3332	1.25432	1.39292e-16	0.463828	0.484704	-7.44093	0.239376	32.5424	240.907	-11.0823	0.622701	6.91424e-17	0.355058	-0.055272	-0.409171	0.0188228
0.462915	-55.6447	770.621	-24.6958	1.25256	1.39096e-16	0.463407	0.538422	-7.45657	0.238958	40.6992	273.855	-10.9335	0.617786	6.85944e-17	0.35469	-0.0585585	-0.394026	0.0157313
0.467892	-62.214	783.91	-25.0009	1.25094	1.38916e-16	0.462978	0.591607	-7.45438	0.23774	49.573	307.935	-10.4857	0.612687	6.80264e-17	0.354355	-0.0594154	-0.369074	0.0125676
0.47287	-68.9376	796.05	-25.2494	1.24945	1.38749e-16	0.462546	0.643588	-7.43177	0.235723	59.0205	342.849	-9.70548	0.607448	6.74434e-17	0.354041	-0.0575309	-0.334196	0.00946053
0.477848	-75.7682	806.834	-25.4416	1.24807	1.38595e-16	0.462117	0.693652	-7.38651	0.232916	68.8706	378.289	-8.56698	0.602113	6.68499e-17	0.353736	-0.0526981	-0.289458	0.00655524
0.482825	-82.6532	816.061	-25.5773	1.24679	1.38453e-16	0.461697	0.741072	-7.31684	0.229327	78.9428	413.937	-7.05266	0.596723	6.62507e-17	0.35343	-0.0448269	-0.23505	0.00400478
0.487803	-89.5351	823.536	-25.6554	1.2456	1.3832e-16	0.461294	0.785131	-7.22157	0.224972	89.0633	449.449	-5.15363	0.591321	6.56503e-17	0.353116	-0.0339476	-0.171313	0.00196437
0.49278	-96.3517	829.074	-25.6737	1.24449	1.38196e-16	0.460919	0.825141	-7.10006	0.219865	99.0733	484.48	-2.87078	0.585946	6.50532e-17	0.352789	-0.0202202	-0.0988792	0.000585908
0.497758	-103.037	832.501	-25.6289	1.24344	1.38079e-16	0.460583	0.860473	-6.95232	0.21403	108.832	518.692	-0.216971	0.580637	6.44637e-17	0.352446	-0.00396869	-0.0189147	7.91209e-06
0.502735	-109.52	833.655	-25.5169	1.24245	1.37967e-16	0.460301	0.890575	-6.77895	0.207493	118.215	551.783	2.78045	0.57543	6.38856e-17	0.352088	0.0142733	0.0666227	0.000335714
0.507713	-115.729	832.389	-25.3325	1.2415	1.37861e-16	0.460089	0.914991	-6.58114	0.200287	127.108	583.499	6.07832	0.570356	6.33226e-17	0.351715	0.0337574	0.154966	0.00161429
0.512691	-121.586	828.571	-25.0702	1.24058	1.37758e-16	0.459963	0.933369	-6.36062	0.192454	135.408	613.633	9.61828	0.565445	6.27777e-17	0.351329	0.053559	0.242715	0.0038044
0.517668	-127.013	822.088	-24.724	1.23969	1.37658e-16	0.459944	0.945475	-6.11957	0.184044	143.02	642.022	13.3289	0.560721	6.22537e-17	0.350935	0.0726369	0.32607	0.00676946
0.522646	-131.929	812.852	-24.288	1.23881	1.3756e-16	0.460055	0.951203	-5.86064	0.175116	149.857	668.526	17.1283	0.556206	6.1753e-17	0.350535	0.0899063	0.40108	0.0102761
0.527623	-136.253	800.794	-23.7566	1.23794	1.37462e-16	0.460318	0.950575	-5.58676	0.165738	155.841	693.022	20.9302	0.551921	6.12777e-17	0.350135	0.104361	0.464089	0.0140161
0.532601	-139.908	785.878	-23.125	1.23707	1.37364e-16	0.460761	0.943745	-5.30112	0.155989	160.904	715.406	24.6541	0.547879	6.08295e-17	0.34974	0.115266	0.512492	0.0176613
0.537578	-142.816	768.095	-22.3898	1.23618	1.37265e-16	0.461411	0.930994	-5.00708	0.145955	164.995	735.596	28.2352	0.54409	6.04092e-17	0.349354	0.122293	0.54522	0.0209278
0.542556	-144.908	747.474	-21.5496	1.23529	1.37165e-16	0.462297	0.912717	-4.70804	0.135732	168.087	753.538	31.6244	0.540556	6.00173e-17	0.34898	0.125474	0.562506	0.0236072
0.547534	-146.12	724.081	-20.6055	1.23437	1.37062e-16	0.463449	0.889409	-4.40735	0.125422	170.176	769.2	34.7824	0.537275	5.96532e-17	0.348622	0.125064	0.565292	0.0255619
0.552511	-146.4	698.024	-19.5622	1.23344	1.36957e-16	0.464898	0.861645	-4.10825	0.115134	171.278	782.566	37.6767	0.534239	5.93163e-17	0.34828	0.121404	0.554693	0.0267057
0.557489	-145.708	669.455	-18.4277	1.23247	1.36849e-16	0.466674	0.830058	-3.8137	0.104978	171.419	793.639	40.2797	0.531437	5.90051e-17	0.347956	0.114859	0.531775	0.0269893
0.562466	-144.018	638.573	-17.2141	1.23148	1.36738e-16	0.468806	0.795311	-3.5264	0.0950618	170.635	802.432	42.5691	0.528851	5.87179e-17	0.347649	0.105821	0.497635	0.0263996
0.567444	-141.323	605.621	-15.9373	1.23045	1.36623e-16	0.47132	0.758084	-3.24868	0.0854912	168.975	808.975	44.5291	0.526464	5.84526e-17	0.34736	0.0947422	0.453583	0.024967
0.572422	-137.635	570.888	-14.6164	1.2294	1.36505e-16	0.474242	0.719048	-2.98249	0.0763604	166.491	813.309	46.1514	0.524254	5.8207e-17	0.347086	0.0821264	0.401188	0.0227655
0.577399	-132.989	534.7	-13.2728	1.22831	1.36384e-16	0.47759	0.678837	-2.72935	0.06775	163.247	815.491	47.4358	0.5222	5.79785e-17	0.346826	0.0684917	0.342147	0.0199021
0.582377	-127.443	497.422	-11.9293	1.22721	1.36261e-16	0.481377	0.638037	-2.49032	0.0597232	159.308	815.596	48.3892	0.520277	5.77646e-17	0.346578	0.0543194	0.278094	0.0164993
0.587354	-121.078	459.444	-10.6088	1.22609	1.36136e-16	0.485609	0.597173	-2.26604	0.0523238	154.747	813.713	49.0254	0.518461	5.75624e-17	0.346338	0.0400253	0.210466	0.0126804
0.592332	-113.999	421.172	-9.33276	1.22497	1.36011e-16	0.490281	0.556698	-2.05674	0.0455754	149.638	809.946	49.3648	0.516728	5.73695e-17	0.346105	0.025964	0.140535	0.00856537
0.597309	-106.332	383.019	-8.12003	1.22386	1.35887e-16	0.495378	0.516993	-1.86227	0.0394803	144.058	804.414	49.435	0.515055	5.71832e-17	0.345874	0.0124376	0.0694513	0.00426811
0.602287	-98.2218	345.386	-6.98547	1.22277	1.35766e-16	0.500872	0.478351	-1.68207	0.03402	138.085	797.244	49.2693	0.513419	5.70009e-17	0.345641	-0.000309391	-0.00178629	-0.000110392
0.607265	-89.8258	308.653	-5.93953	1.22172	1.35649e-16	0.506722	0.440979	-1.51526	0.0291588	131.798	788.576	48.9045	0.511799	5.68204e-17	0.345402	-0.0120942	-0.0723619	-0.00448762
0.612242	-81.3037	273.167	-4.98827	1.22074	1.35539e-16	0.512872	0.404981	-1.36067	0.024847	125.276	778.555	48.3793	0.510174	5.66395e-17	0.345153	-0.0227903	-0.141635	-0.00880119
0.61722	-72.8096	239.234	-4.13363	1.21982	1.35437e-16	0.519247	0.370363	-1.21692	0.0210267	118.596	767.338	47.7316	0.508528	5.6456e-17	0.344891	-0.0323154	-0.209087	-0.0130061
0.622197	-64.4825	207.117	-3.37405	1.219	1.35345e-16	0.525759	0.337062	-1.08264	0.0176368	111.829	755.088	46.9971	0.506844	5.62684e-17	0.344612	-0.0406126	-0.274223	-0.0170678
0.627175	-56.4422	177.033	-2.70502	1.21827	1.35264e-16	0.532302	0.304986	-0.956599	0.0146166	105.046	741.978	46.2084	0.505108	5.60751e-17	0.344313	-0.0476366	-0.336475	-0.0209548
0.632152	-48.7874	149.147	-2.11998	1.21763	1.35193e-16	0.538756	0.274062	-0.837827	0.0119089	98.3097	728.19	45.3933	0.50331	5.58749e-17	0.34399	-0.0533509	-0.395176	-0.0246341
0.63713	-41.5957	123.577	-1.6113	1.2171	1.35134e-16	0.544991	0.244276	-0.725721	0.00946256	91.6771	713.911	44.5747	0.501441	5.56667e-17	0.343644	-0.0577301	-0.449557	-0.0280691
0.642108	-34.9241	100.392	-1.17135	1.21665	1.35084e-16	0.55088	0.215726	-0.620125	0.00723545	85.1975	699.329	43.7694	0.499493	5.54499e-17	0.343271	-0.0607608	-0.498745	-0.0312153
0.647085	-28.8118	79.6157	-0.793795	1.21629	1.35043e-16	0.556315	0.188665	-0.521339	0.00519792	78.9128	684.636	42.9883	0.497464	5.52241e-17	0.342874	-0.0624401	-0.54172	-0.0340146
0.652063	-23.2816	61.2236	-0.473942	1.21601	1.3501e-16	0.561253	0.163469	-0.429874	0.00332773	72.8585	670.015	42.2356	0.495352	5.49891e-17	0.342452	-0.0627766	-0.577301	-0.0363912
0.65704	-18.34	45.1483	-0.207437	1.2158	1.34984e-16	0.565769	0.14053	-0.345947	0.00158948	67.0637	655.645	41.51	0.493158	5.47451e-17	0.342009	-0.0617977	-0.604163	-0.0382505
0.662018	-13.979	31.2834	0.0104261	1.21566	1.34965e-16	0.57003	0.120261	-0.26913	-8.96949e-05	61.5521	641.692	40.8052	0.490885	5.44923e-17	0.341549	-0.0595577	-0.6209	-0.039483
0.666996	-10.1793	19.4947	0.184537	1.21563	1.34951e-16	0.574498	0.103204	-0.197649	-0.00187094	56.3422	628.308	40.1119	0.488537	5.42314e-17	0.341075	-0.0561438	-0.626096	-0.0399707
0.671973	-6.91299	9.62877	0.319778	1.21588	1.34942e-16	0.581034	0.0894322	-0.124566	-0.00413692	51.447	615.631	39.4189	0.486121	5.39632e-17	0.340594	-0.0516791	-0.618409	-0.0395968
0.676951	-4.1459	1.52013	0.420918	1.21828	1.34937e-16	0.602208	0.0431098	-0.0158066	-0.00437678	46.8744	603.78	38.7148	0.483645	5.36884e-17	0.34011	-0.0463236	-0.596684	-0.0382598
0.681928	-1.83966	-5.00248	0.492525	1.2169	1.34935e-16	0.581215	-0.0283111	-0.0769849	0.00757964	42.6274	592.856	37.9893	0.481117	5.3408e-17	0.33963	-0.0402688	-0.560052	-0.0358873
0.686906	0.0466869	-10.1113	0.538913	1.21565	1.34936e-16	0.576884	0.000225679	-0.0488768	0.00260504	38.7042	582.938	37.2344	0.478547	5.31232e-17	0.339157	-0.0337264	-0.507967	-0.0324457
0.691883	1.55519	-13.9755	0.56409	1.21547	1.34939e-16	0.577812	0.00182391	-0.0163903	0.000661557	35.0988	574.089	36.4448	0.475944	5.2835e-17	0.338699	-0.0269134	-0.440206	-0.0279455
0.696861	2.72791	-16.7581	0.571735	1.21544	1.34943e-16	0.578796	-0.00153233	0.00941342	-0.000321157	31.8014	566.347	35.6182	0.473318	5.25445e-17	0.338258	-0.0200412	-0.356911	-0.0224466
0.701839	3.6059	-18.6135	0.565181	1.21546	1.34949e-16	0.579535	-0.00569003	0.0293716	-0.000891842	28.7984	559.732	34.7555	0.47068	5.22528e-17	0.337838	-0.0133045	-0.258589	-0.0160566
0.706816	4.2286	-19.6856	0.54741	1.21551	1.34955e-16	0.580038	-0.00953921	0.0444084	-0.00123489	26.0725	554.244	33.8603	0.46804	5.19611e-17	0.337444	-0.0068721	-0.146086	-0.00892477
0.711794	4.63319	-20.1073	0.521056	1.21556	1.34962e-16	0.580343	-0.0127391	0.0552855	-0.00143265	23.6032	549.866	32.9388	0.465406	5.16702e-17	0.337076	-0.000881919	-0.0205454	-0.00123074
0.716771	4.85427	-19.9991	0.488417	1.21562	1.3497e-16	0.580488	-0.0152076	0.0626541	-0.00153013	21.3661	546.563	31.9993	0.462787	5.13811e-17	0.336738	0.00455971	0.116642	0.00682895
0.721749	4.9236	-19.4693	0.451472	1.21569	1.34977e-16	0.580506	-0.0169656	0.0670866	-0.00155567	19.334	544.287	31.0518	0.460192	5.10946e-17	0.33643	0.00937495	0.263923	0.0150569
0.726726	4.86995	-18.6137	0.411901	1.21575	1.34985e-16	0.580427	-0.0180768	0.0690926	-0.00152894	17.4772	542.978	30.1068	0.457626	5.08115e-17	0.336153	0.0135074	0.419646	0.0232683
0.731704	4.71908	-17.5165	0.371105	1.21581	1.34992e-16	0.580274	-0.0186229	0.0691256	-0.00146449	15.7645	542.568	29.1755	0.455096	5.05322e-17	0.335906	0.0169132	0.582105	0.0313015
0.736682	4.49375	-16.2503	0.330233	1.21587	1.34998e-16	0.58007	-0.0186903	0.0675877	-0.0013735	14.1639	542.984	28.2684	0.452605	5.02572e-17	0.33569	0.0195532	0.749587	0.0390244
0.741659	4.21384	-14.8768	0.290206	1.21593	1.35004e-16	0.579831	-0.0183638	0.0648327	-0.00126471	12.6433	544.15	27.3953	0.450158	4.9987e-17	0.335504	0.0213856	0.920408	0.0463381
0.746637	3.89644	-13.4479	0.251742	1.21598	1.3501e-16	0.579575	-0.0177232	0.0611687	-0.00114506	11.1713	545.993	26.5651	0.447756	4.97217e-17	0.335347	0.0223618	1.09292	0.0531757
0.751614	3.55608	-12.0064	0.215382	1.21603	1.35015e-16	0.579313	-0.0168412	0.0568611	-0.00102002	9.71783	548.442	25.7855	0.445402	4.94616e-17	0.335217	0.0224239	1.26553	0.0594999
0.756592	3.20489	-10.5867	0.181511	1.21607	1.3502e-16	0.579056	-0.0157828	0.0521355	-0.000893869	8.25395	551.433	25.0628	0.443097	4.92068e-17	0.335114	0.0215054	1.43674	0.0653003
0.76157	2.85282	-9.21599	0.150382	1.21611	1.35024e-16	0.578815	-0.014605	0.0471813	-0.000769883	6.75271	554.906	24.4023	0.440842	4.89574e-17	0.335036	0.0195342	1.60523	0.0705909
0.766547	2.50785	-7.9148	0.122139	1.21614	1.35028e-16	0.578598	-0.0133567	0.0421541	-0.000650511	5.18928	558.815	23.8083	0.438635	4.87133e-17	0.334982	0.0164354	1.76987	0.0754054
0.771525	2.1762	-6.69811	0.0968305	1.21617	1.35031e-16	0.578414	-0.0120795	0.0371793	-0.00053748	3.54131	563.118	23.284	0.436477	4.84744e-17	0.334952	0.0121356	1.92973	0.0797913
0.776502	1.86257	-5.57599	0.0744312	1.2162	1.35034e-16	0.57827	-0.0108079	0.0323556	-0.0004319	1.78917	567.786	22.8316	0.434366	4.82407e-17	0.334944	0.00656724	2.08409	0.0838047
0.78148	1.5703	-4.55444	0.0548566	1.21622	1.35036e-16	0.578178	-0.00957027	0.0277572	-0.000334326	-0.0839942	572.796	22.4522	0.4323	4.80119e-17	0.334959	-0.000327357	2.2324	0.0875047
0.786457	1.30161	-3.63601	0.0379764	1.21624	1.35038e-16	0.578154	-0.0083899	0.0234369	-0.000244787	-2.09235	578.137	22.146	0.430279	4.7788e-17	0.334996	-0.00859285	2.37429	0.0909489
0.791435	1.05775	-2.82045	0.0236264	1.21627	1.35039e-16	0.578224	-0.00728582	0.0194274	-0.000162739	-4.24749	583.805	21.912	0.4283	4.75687e-17	0.335055	-0.0182583	2.50955	0.0941914
0.796413	0	0	0	0	4.73539e-17	0	0	0	0	-6.55851	589.804	21.7484	0.426361	4.73539e-17	0.335137	-0.0293362	2.63819	0.0972807
0.80139	0	0	0	0	4.71433e-17	0	0	0	0	-9.03207	596.144	21.6521	0.424461	4.71433e-17	0.335243	-0.0418223	2.7604	0.100258
0.806368	0	0	0	0	4.69367e-17	0	0	0	0	-11.6727	602.838	21.6188	0.422597	4.69367e-17	0.335374	-0.0556964	2.87646	0.103155
0.811345	0	0	0	0	4.67341e-17	0	0	0	0	-14.4829	609.904	21.6436	0.420769	4.67341e-17	0.335532	-0.070924	2.98674	0.10599
0.816323	0	0	0	0	4.6535e-17	0	0	0	0	-17.4642	617.356	21.7201	0.418974	4.6535e-17	0.335718	-0.0874589	3.09166	0.108772
0.8213	0	0	0	0	4.63395e-17	0	0	0	0	-20.6167	625.211	21.8415	0.417211	4.63395e-17	0.335933	-0.105243	3.19155	0.111495
0.826278	0	0	0	0	4.61473e-17	0	0	0	0	-23.94	633.481	22.0003	0.415477	4.61473e-17	0.336179	-0.124207	3.28666	0.114143
0.831256	0	0	0	0	4.59582e-17	0	0	0	0	-27.433	642.17	22.1887	0.413773	4.59582e-17	0.336458	-0.144267	3.37709	0.116687
0.836233	0	0	0	0	4.57721e-17	0	0	0	0	-31.0941	651.277	22.3992	0.412096	4.57721e-17	0.336771	-0.165324	3.46277	0.119094
0.841211	0	0	0	0	4.5589e-17	0	0	0	0	-34.9216	660.792	22.6248	0.410445	4.5589e-17	0.337119	-0.18726	3.54335	0.121321
0.846188	0	0	0	0	4.54086e-17	0	0	0	0	-38.9135	670.69	22.8592	0.40882	4.54086e-17	0.337502	-0.209933	3.61828	0.123322
0.851166	0	0	0	0	4.52308e-17	0	0	0	0	-43.0678	680.939	23.0962	0.407219	4.52308e-17	0.33792	-0.233182	3.68681	0.12505
0.856143	0	0	0	0	4.50556e-17	0	0	0	0	-47.383	691.493	23.3305	0.405642	4.50556e-17	0.338372	-0.256824	3.74801	0.126456
0.861121	0	0	0	0	4.4883e-17	0	0	0	0	-51.858	702.295	23.5572	0.404089	4.4883e-17	0.338857	-0.280654	3.8008	0.127491
0.866099	0	0	0	0	4.47129e-17	0	0	0	0	-56.4915	713.277	23.7719	0.402559	4.47129e-17	0.339373	-0.304436	3.84389	0.128108
0.871076	0	0	0	0	4.45454e-17	0	0	0	0	-61.2824	724.361	23.9711	0.401052	4.45454e-17	0.339919	-0.327904	3.87584	0.128262
0.876054	0	0	0	0	4.43805e-17	0	0	0	0	-66.2294	735.459	24.1515	0.39957	4.43805e-17	0.340493	-0.35076	3.89509	0.12791
0.881031	0	0	0	0	4.42183e-17	0	0	0	0	-71.331	746.472	24.3108	0.398113	4.42183e-17	0.341092	-0.372675	3.90001	0.127014
0.886009	0	0	0	0	4.4059e-17	0	0	0	0	-76.5847	757.296	24.4467	0.396682	4.4059e-17	0.341713	-0.393292	3.889	0.125543
0.890987	0	0	0	0	4.39025e-17	0	0	0	0	-81.987	767.818	24.5575	0.395278	4.39025e-17	0.342354	-0.412217	3.86046	0.123471
0.895964	0	0	0	0	4.37491e-17	0	0	0	0	-87.5325	777.921	24.6416	0.393902	4.37491e-17	0.343012	-0.42903	3.81288	0.120778
0.900942	0	0	0	0	4.35989e-17	0	0	0	0	-93.2136	787.483	24.6976	0.392555	4.35989e-17	0.343683	-0.443281	3.7449	0.11745
0.905919	0	0	0	0	4.34519e-17	0	0	0	0	-99.0191	796.378	24.7236	0.391237	4.34519e-17	0.344364	-0.454498	3.65538	0.113482
0.910897	0	0	0	0	4.33081e-17	0	0	0	0	-104.934	804.479	24.7179	0.389949	4.33081e-17	0.345051	-0.462203	3.54349	0.108875
0.915874	0	0	0	0	4.31676e-17	0	0	0	0	-110.939	811.656	24.6779	0.388691	4.31676e-17	0.34574	-0.465921	3.40878	0.103642
0.920852	0	0	0	0	4.30302e-17	0	0	0	0	-117.011	817.777	24.6009	0.387462	4.30302e-17	0.346428	-0.465201	3.25125	0.0978061
0.92583	0	0	0	0	4.28958e-17	0	0	0	0	-123.119	822.71	24.4833	0.38626	4.28958e-17	0.347111	-0.459633	3.07138	0.0914022
0.930807	0	0	0	0	4.27642e-17	0	0	0	0	-129.229	826.324	24.321	0.385084	4.27642e-17	0.347784	-0.448886	2.87029	0.0844807
0.935785	0	0	0	0	4.2635e-17	0	0	0	0	-135.3	828.486	24.1096	0.383929	4.2635e-17	0.348444	-0.432721	2.64968	0.077108
0.940762	0	0	0	0	4.25078e-17	0	0	0	0	-141.285	829.066	23.8441	0.382793	4.25078e-17	0.349085	-0.411009	2.41182	0.0693646
0.94574	0	0	0	0	4.23819e-17	0	0	0	0	-147.129	827.937	23.5192	0.381669	4.23819e-17	0.349705	-0.383758	2.15952	0.0613454
0.950717	0	0	0	0	4.22567e-17	0	0	0	0	-152.773	824.974	23.1295	0.38055	4.22567e-17	0.350298	-0.351117	1.89603	0.0531583
0.955695	0	0	0	0	4.21312e-17	0	0	0	0	-158.153	820.062	22.6701	0.379429	4.21312e-17	0.350861	-0.313384	1.62498	0.0449215
0.960673	0	0	0	0	4.20044e-17	0	0	0	0	-163.198	813.09	22.1369	0.378297	4.20044e-17	0.351389	-0.271007	1.35022	0.0367606
0.96565	0	0	0	0	4.18751e-17	0	0	0	0	-167.835	803.96	21.5268	0.377141	4.18751e-17	0.351878	-0.224587	1.07581	0.0288059
0.970628	0	0	0	0	4.17419e-17	0	0	0	0	-171.987	792.588	20.8386	0.375951	4.17419e-17	0.352323	-0.174869	0.805872	0.0211879
0.975605	0	0	0	0	4.16033e-17	0	0	0	0	-175.575	778.905	20.0725	0.374711	4.16033e-17	0.352721	-0.122734	0.544486	0.0140315
0.980583	0	0	0	0	4.14576e-17	0	0	0	0	-178.52	762.864	19.2307	0.373407	4.14576e-17	0.353068	-0.0691674	0.295571	0.0074509
0.985561	0	0	0	0	4.1303e-17	0	0	0	0	-180.743	744.441	18.3173	0.372023	4.1303e-17	0.35336	-0.0152342	0.0627463	0.0015439
0.990538	0	0	0	0	4.11377e-17	0	0	0	0	-182.167	723.64	17.3386	0.370541	4.11377e-17	0.353593	0.0379533	-0.150765	-0.00361236
0.995516	0	0	0	0	4.09598e-17	0	0	0	0	-182.725	700.496	16.3029	0.368944	4.09598e-17	0.353766	0.0892617	-0.342195	-0.00796402
1.00049	0	0	0	0	4.07672e-17	0	0	0	0	-182.352	675.078	15.2202	0.367215	4.07672e-17	0.353874	0.137581	-0.509334	-0.0114834
1.00547	0	0	0	0	4.05581e-17	0	0	0	0	-180.999	647.49	14.1021	0.365337	4.05581e-17	0.353915	0.181869	-0.650602	-0.0141699
1.01045	0	0	0	0	4.03308e-17	0	0	0	0	-178.629	617.872	12.9608	0.363294	4.03308e-17	0.353888	0.221189	-0.765087	-0.0160489
1.01543	0	0	0	0	4.00837e-17	0	0	0	0	-175.221	586.402	11.8086	0.361071	4.00837e-17	0.353791	0.254755	-0.852575	-0.0171687
1.0204	0	0	0	0	3.98157e-17	0	0	0	0	-170.774	553.291	10.6572	0.35866	3.98157e-17	0.353623	0.281961	-0.913526	-0.0175959
1.02538	0	0	0	0	3.95259e-17	0	0	0	0	-165.308	518.778	9.51672	0.356051	3.95259e-17	0.353382	0.302417	-0.949062	-0.0174101
1.03036	0	0	0	0	3.92138e-17	0	0	0	0	-158.865	483.122	8.39596	0.353241	3.92138e-17	0.353069	0.315975	-0.960909	-0.0166992
1.03534	0	0	0	0	3.88797e-17	0	0	0	0	-151.509	446.592	7.30277	0.350232	3.88797e-17	0.352684	0.32274	-0.951316	-0.0155561
1.04031	0	0	0	0	3.85242e-17	0	0	0	0	-143.327	409.449	6.24468	0.347029	3.85242e-17	0.352227	0.323076	-0.922943	-0.0140762
1.04529	0	0	0	0	3.81484e-17	0	0	0	0	-134.424	371.938	5.22922	0.343643	3.81484e-17	0.3517	0.317578	-0.878705	-0.0123541
1.05027	0	0	0	0	3.7754e-17	0	0	0	0	-124.916	334.276	4.26357	0.340089	3.7754e-17	0.351106	0.307033	-0.821625	-0.0104795
1.05525	0	0	0	0	3.7343e-17	0	0	0	0	-114.92	296.642	3.35359	0.336384	3.7343e-17	0.350448	0.292346	-0.75463	-0.00853123
1.06022	0	0	0	0	3.69176e-17	0	0	0	0	-104.552	259.176	2.50271	0.33255	3.69176e-17	0.349733	0.274453	-0.680347	-0.00656971
1.0652	0	0	0	0	3.64803e-17	0	0	0	0	-93.9107	221.977	1.71139	0.328606	3.64803e-17	0.348972	0.254233	-0.600932	-0.00463304
1.07018	0	0	0	0	3.60334e-17	0	0	0	0	-83.0797	185.106	0.977169	0.324575	3.60334e-17	0.34818	0.23248	-0.517977	-0.00273439
1.07516	0	0	0	0	3.55791e-17	0	0	0	0	-72.1232	148.587	0.29465	0.320474	3.55791e-17	0.347387	0.209871	-0.432371	-0.0008574
1.08013	0	0	0	0	3.51197e-17	0	0	0	0	-61.0875	112.41	-0.344401	0.316321	3.51197e-17	0.346649	0.186884	-0.343892	0.00105362
1.08511	0	0	0	0	3.46572e-17	0	0	0	0	-50.003	76.5371	-0.950117	0.312124	3.46572e-17	0.346105	0.163297	-0.249951	0.00310284
1.09009	0	0	0	0	3.41932e-17	0	0	0	0	-38.8886	40.9105	-1.53298	0.307856	3.41932e-17	0.346212	0.133823	-0.140781	0.00527526
1.09507	0	0	0	0	3.37288e-17	0	0	0	0	-27.7558	5.4586	-2.10233	0.303332	3.37288e-17	0.348117	0.0338889	-0.00666476	0.00256687
1.10004	0	0	0	0	3.32646e-17	0	0	0	0	-16.6126	-29.8913	-2.66529	0.299413	3.32646e-17	0.342182	-0.038767	-0.0697542	-0.00621971
1.10502	0	0	0	0	0.0436577	0	0	0	0	0	0	0	0	0.123142	0	0	0	0
