nColumns=19
nRows=214
DataType=double
version=3
OpenSimVersion=4.1
endheader
time	ground_force_calcn_l_vx	ground_force_calcn_l_vy	ground_force_calcn_l_vz	ground_force_calcn_l_px	ground_force_calcn_l_py	ground_force_calcn_l_pz	ground_force_calcn_l_mx	ground_force_calcn_l_my	ground_force_calcn_l_mz	ground_force_calcn_r_vx	ground_force_calcn_r_vy	ground_force_calcn_r_vz	ground_force_calcn_r_px	ground_force_calcn_r_py	ground_force_calcn_r_pz	ground_force_calcn_r_mx	ground_force_calcn_r_my	ground_force_calcn_r_mz
2.06	0	0	0	0	-0.189906	0	0	0	0	0	0	0	0	-0.00458612	0	0	0	0
2.06998	0	0	0	0	-0.175024	0	0	0	0	0	0	0	0	-0.00570499	0	0	0	0
2.07997	0	0	0	0	-0.161011	0	0	0	0	0	0	0	0	-0.00693614	0	0	0	0
2.08995	0	0	0	0	-0.147823	0	0	0	0	0	0	0	0	-0.00825674	0	0	0	0
2.09994	0	0	0	0	-0.135411	0	0	0	0	0	0	0	0	-0.00963733	0	0	0	0
2.10992	0	0	0	0	-0.123746	0	0	0	0	0	0	0	0	-0.011045	0	0	0	0
2.11991	0	0	0	0	-0.112826	0	0	0	0	0	0	0	0	-0.0124462	0	0	0	0
2.12989	0	0	0	0	-0.102683	0	0	0	0	0	0	0	0	-0.0138105	0	0	0	0
2.13988	0	0	0	0	-0.0933683	0	0	0	0	0	0	0	0	-0.015115	0	0	0	0
2.14986	0	0	0	0	-0.0849417	0	0	0	0	0	0	0	0	-0.016348	0	0	0	0
2.15985	0	0	0	0	-0.0774603	0	0	0	0	0	0	0	0	-0.0175134	0	0	0	0
2.16983	0	0	0	0	-0.0709631	0	0	0	0	0	0	0	0	-0.0186328	0	0	0	0
2.17982	0	0	0	0	-0.0654543	0	0	0	0	0	0	0	0	-0.0197449	0	0	0	0
2.1898	0	0	0	0	-0.0609133	0	0	0	0	0	0	0	0	-0.0208698	0	0	0	0
2.19978	0	0	0	0	-0.0572849	0	0	0	0	0	0	0	0	-0.0220403	0	0	0	0
2.20977	-0.734357	-3.44816	-0.00575082	-0.403454	4.47926e-17	0.383468	0.000941497	0.00442079	7.37296e-06	0	0	0	0	4.47926e-17	0	0	0	0
2.21975	-1.08706	-5.17905	-0.0204526	-0.403546	4.4803e-17	0.383538	0.00110418	0.00526065	2.07749e-05	0	0	0	0	4.4803e-17	0	0	0	0
2.22974	-1.49908	-7.21944	-0.0407743	-0.403659	4.48157e-17	0.383594	0.00122449	0.00589703	3.33056e-05	0	0	0	0	4.48157e-17	0	0	0	0
2.23972	-1.95129	-9.48258	-0.0673125	-0.40379	4.48302e-17	0.383642	0.00126154	0.00613065	4.35187e-05	0	0	0	0	4.48302e-17	0	0	0	0
2.24971	-2.40907	-11.8063	-0.100225	-0.403931	4.48459e-17	0.383687	0.0011635	0.00570203	4.8405e-05	0	0	0	0	4.48459e-17	0	0	0	0
2.25969	-2.81857	-13.9341	-0.138978	-0.404072	4.48614e-17	0.383731	0.000870451	0.00430323	4.29201e-05	0	0	0	0	4.48614e-17	0	0	0	0
2.26968	-3.10356	-15.4989	-0.182052	-0.404195	4.48748e-17	0.383775	0.000316035	0.00157825	1.85384e-05	0	0	0	0	4.48748e-17	0	0	0	0
2.27966	-3.16353	-16.013	-0.226612	-0.404274	4.48831e-17	0.383822	-0.000563727	-0.00285345	-4.03813e-05	0	0	0	0	4.48831e-17	0	0	0	0
2.28965	-2.87406	-14.8692	-0.268171	-0.404277	4.48825e-17	0.383887	-0.00180916	-0.00935981	-0.000168807	0	0	0	0	4.48825e-17	0	0	0	0
2.29963	-2.0902	-11.3565	-0.300271	-0.404178	4.4868e-17	0.384021	-0.00335992	-0.0182552	-0.000482676	0	0	0	0	4.4868e-17	0	0	0	0
2.30962	-0.653702	-4.69583	-0.314236	-0.404251	4.48335e-17	0.384546	-0.00416109	-0.029891	-0.00200024	0	0	0	0	4.48335e-17	0	0	0	0
2.3196	1.59528	5.90276	-0.299021	-0.403628	4.47721e-17	0.381662	-0.011234	-0.0415676	0.00210572	0	0	0	0	4.47721e-17	0	0	0	0
2.32959	4.8024	21.1621	-0.241227	-0.402438	4.46761e-17	0.382815	-0.0130906	-0.0576846	0.000657545	0	0	0	0	4.46761e-17	0	0	0	0
2.33957	9.08008	41.6445	-0.125301	-0.401168	4.45379e-17	0.382877	-0.0161149	-0.0739086	0.000222377	0	0	0	0	4.45379e-17	0	0	0	0
2.34955	14.4875	67.6542	0.0660385	-0.399478	4.43511e-17	0.38277	-0.0191197	-0.0892858	-8.71535e-05	0	0	0	0	4.43511e-17	0	0	0	0
2.35954	21.0127	99.1547	0.351146	-0.397314	4.41112e-17	0.382588	-0.0215582	-0.101729	-0.000360261	0	0	0	0	4.41112e-17	0	0	0	0
2.36952	28.5612	135.722	0.74857	-0.394675	4.38182e-17	0.382362	-0.0228481	-0.108573	-0.000598832	0	0	0	0	4.38182e-17	0	0	0	0
2.37951	36.9537	176.554	1.27594	-0.391617	4.34787e-17	0.382113	-0.0223509	-0.106786	-0.000771736	0	0	0	0	4.34787e-17	0	0	0	0
2.38949	45.9356	220.552	1.94858	-0.388227	4.31022e-17	0.381854	-0.0194279	-0.0932801	-0.000824129	0	0	0	0	4.31022e-17	0	0	0	0
2.39948	55.1934	266.45	2.77767	-0.384605	4.27e-17	0.381596	-0.013534	-0.0653362	-0.000681115	0	0	0	0	4.27e-17	0	0	0	0
2.40946	64.3732	312.951	3.76856	-0.380861	4.22842e-17	0.381349	-0.00433944	-0.0210962	-0.000254041	0	0	0	0	4.22842e-17	0	0	0	0
2.41945	73.1032	358.846	4.92054	-0.37711	4.18674e-17	0.38112	0.00814604	0.0399869	0.000548306	0	0	0	0	4.18674e-17	0	0	0	0
2.42943	81.0175	403.061	6.22815	-0.373463	4.14622e-17	0.380915	0.0234882	0.116853	0.00180563	0	0	0	0	4.14622e-17	0	0	0	0
2.43942	87.78	444.665	7.68216	-0.370026	4.10802e-17	0.380743	0.0408215	0.206789	0.00357254	0	0	0	0	4.10802e-17	0	0	0	0
2.4494	93.1023	482.828	9.26924	-0.366889	4.07315e-17	0.38061	0.0589311	0.305616	0.00586716	0	0	0	0	4.07315e-17	0	0	0	0
2.45939	96.7599	516.795	10.9712	-0.364124	4.04241e-17	0.380524	0.0763945	0.408023	0.00866207	0	0	0	0	4.04241e-17	0	0	0	0
2.46937	98.6057	545.88	12.7647	-0.361778	4.0163e-17	0.38049	0.0917516	0.507936	0.0118774	0	0	0	0	4.0163e-17	0	0	0	0
2.47935	98.5824	569.502	14.6214	-0.359874	3.9951e-17	0.380515	0.103677	0.598936	0.0153771	0	0	0	0	3.9951e-17	0	0	0	0
2.48934	96.7253	587.234	16.509	-0.35841	3.97879e-17	0.380601	0.11114	0.674747	0.0189692	0	0	0	0	3.97879e-17	0	0	0	0
2.49932	93.1574	598.859	18.3908	-0.357364	3.96713e-17	0.380749	0.113519	0.729755	0.0224106	0	0	0	0	3.96713e-17	0	0	0	0
2.50931	88.0753	604.417	20.2262	-0.356698	3.95968e-17	0.380957	0.110666	0.759449	0.0254141	0	0	0	0	3.95968e-17	0	0	0	0
2.51929	81.7298	604.208	21.9698	-0.356361	3.9559e-17	0.381219	0.102899	0.760705	0.0276603	0	0	0	0	3.9559e-17	0	0	0	0
2.52928	74.4033	598.771	23.5731	-0.356295	3.95514e-17	0.381526	0.0909416	0.731866	0.0288129	0	0	0	0	3.95514e-17	0	0	0	0
2.53926	66.3871	588.838	24.9859	-0.356438	3.95671e-17	0.381867	0.0758362	0.672649	0.0285422	0	0	0	0	3.95671e-17	0	0	0	0
2.54925	57.9632	575.26	26.1608	-0.356725	3.95993e-17	0.382226	0.0588363	0.583925	0.0265548	0	0	0	0	3.95993e-17	0	0	0	0
2.55923	49.3894	558.943	27.0581	-0.357095	3.9641e-17	0.38259	0.0413058	0.46746	0.0226294	0	0	0	0	3.9641e-17	0	0	0	0
2.56922	40.8898	540.785	27.6515	-0.357486	3.96856e-17	0.382945	0.0246252	0.325678	0.0166526	0	0	0	0	3.96856e-17	0	0	0	0
2.5792	32.6497	521.623	27.9333	-0.357843	3.97267e-17	0.383278	0.0101072	0.161476	0.00864718	0	0	0	0	3.97267e-17	0	0	0	0
2.58919	24.8142	502.207	27.9163	-0.35811	3.97585e-17	0.383579	-0.00108227	-0.0219037	-0.00121757	0	0	0	0	3.97585e-17	0	0	0	0
2.59917	17.4892	483.173	27.6343	-0.358237	3.97753e-17	0.383841	-0.00799899	-0.220987	-0.012639	0	0	0	0	3.97753e-17	0	0	0	0
2.60916	10.7446	465.041	27.1385	-0.358178	3.97718e-17	0.38406	-0.00998535	-0.432178	-0.0252207	0	0	0	0	3.97718e-17	0	0	0	0
2.61914	4.61836	448.211	26.4914	-0.357888	3.97431e-17	0.384235	-0.00671717	-0.6519	-0.0385304	0	0	0	0	3.97431e-17	0	0	0	0
2.62912	-0.878994	432.975	25.7599	-0.357327	3.96847e-17	0.384368	0.00177993	-0.876757	-0.0521629	0	0	0	0	3.96847e-17	0	0	0	0
2.63911	-5.7596	419.529	25.0066	-0.356455	3.95919e-17	0.38446	0.0151527	-1.10372	-0.0657888	0	0	0	0	3.95919e-17	0	0	0	0
2.64909	-10.0538	407.992	24.2828	-0.355232	3.94602e-17	0.384514	0.0327815	-1.3303	-0.0791767	0	0	0	0	3.94602e-17	0	0	0	0
2.65908	-13.8059	398.427	23.6249	-0.353618	3.92852e-17	0.384534	0.0538697	-1.55464	-0.0921829	0	0	0	0	3.92852e-17	0	0	0	0
2.66906	-17.0695	390.864	23.0526	-0.35157	3.90618e-17	0.384522	0.0775412	-1.77557	-0.104721	0	0	0	0	3.90618e-17	0	0	0	0
2.67905	-19.9039	385.319	22.5722	-0.34904	3.87849e-17	0.384483	0.102925	-1.99253	-0.116723	0	0	0	0	3.87849e-17	0	0	0	0
2.68903	-22.3707	381.81	22.1823	-0.345981	3.84489e-17	0.384423	0.129213	-2.20533	-0.128124	0	0	0	0	3.84489e-17	0	0	0	0
2.69902	-24.5316	380.374	21.8808	-0.342344	3.80483e-17	0.384349	0.15568	-2.41389	-0.138858	0	0	0	0	3.80483e-17	0	0	0	0
2.709	-26.4481	381.075	21.673	-0.338084	3.75782e-17	0.384268	0.181689	-2.61785	-0.148886	0	0	0	0	3.75782e-17	0	0	0	0
2.71899	-28.1827	384.008	21.5758	-0.333167	3.70348e-17	0.384193	0.206683	-2.81618	-0.15823	0	0	0	0	3.70348e-17	0	0	0	0
2.72897	-29.804	389.299	21.6193	-0.327579	3.64162e-17	0.384131	0.230201	-3.00688	-0.166984	0	0	0	0	3.64162e-17	0	0	0	0
2.73896	-31.3928	397.094	21.8437	-0.321332	3.57241e-17	0.384095	0.251936	-3.18679	-0.175301	0	0	0	0	3.57241e-17	0	0	0	0
2.74894	-33.0506	407.544	22.292	-0.314478	3.4964e-17	0.384091	0.271814	-3.35171	-0.183333	0	0	0	0	3.4964e-17	0	0	0	0
2.75892	-34.907	420.772	23.0014	-0.307111	3.41466e-17	0.384126	0.290085	-3.49671	-0.191147	0	0	0	0	3.41466e-17	0	0	0	0
2.76891	-37.1226	436.842	23.9934	-0.29937	3.32872e-17	0.384202	0.307346	-3.6167	-0.198646	0	0	0	0	3.32872e-17	0	0	0	0
2.77889	-39.8861	455.712	25.2666	-0.291435	3.24059e-17	0.384317	0.32447	-3.70717	-0.205541	0	0	0	0	3.24059e-17	0	0	0	0
2.78888	-43.4029	477.191	26.7917	-0.283512	3.15253e-17	0.384466	0.34243	-3.76483	-0.211375	0	0	0	0	3.15253e-17	0	0	0	0
2.79886	-47.8754	500.9	28.5109	-0.275815	3.06694e-17	0.38464	0.362067	-3.78815	-0.215619	0	0	0	0	3.06694e-17	0	0	0	0
2.80885	-53.4774	526.242	30.3406	-0.268545	2.98604e-17	0.384828	0.383872	-3.77747	-0.217791	0	0	0	0	2.98604e-17	0	0	0	0
2.81883	-60.3248	552.391	32.1765	-0.261873	2.91175e-17	0.38502	0.407867	-3.73482	-0.217551	0	0	0	0	2.91175e-17	0	0	0	0
2.82882	-68.4476	578.303	33.9008	-0.255923	2.84543e-17	0.385208	0.433595	-3.66338	-0.214751	0	0	0	0	2.84543e-17	0	0	0	0
2.8388	-77.7662	602.746	35.3906	-0.250765	2.78791e-17	0.385386	0.460202	-3.56691	-0.209433	0	0	0	0	2.78791e-17	0	0	0	0
2.84879	-88.0773	624.353	36.5266	-0.246417	2.73937e-17	0.385555	0.486554	-3.44902	-0.201779	0	0	0	0	2.73937e-17	0	0	0	0
2.85877	-99.0493	641.691	37.2018	-0.242848	2.69948e-17	0.385717	0.511337	-3.3127	-0.192053	0	0	0	0	2.69948e-17	0	0	0	0
2.86876	-110.23	653.352	37.3301	-0.239989	2.66749e-17	0.385879	0.533122	-3.1599	-0.180545	1.83386	7.86513	0.108152	0.41545	-4.61213e-17	0.249019	-0.00349487	-0.014989	-0.00020611
2.87874	-121.068	658.041	36.8534	-0.237747	2.64235e-17	0.386046	0.550381	-2.9915	-0.167538	5.65945	24.1124	0.260731	0.417159	-4.63117e-17	0.248895	-0.0107739	-0.0459029	-0.000496355
2.88873	-130.94	654.669	35.7471	-0.236014	2.62288e-17	0.386225	0.561526	-2.80749	-0.153298	11.6164	49.1805	0.392938	0.419093	-4.6527e-17	0.248758	-0.0220911	-0.0935269	-0.000747254
2.89871	-139.196	642.445	34.022	-0.234679	2.60784e-17	0.386414	0.56499	-2.60765	-0.138093	19.7883	83.2688	0.437385	0.421346	-4.67777e-17	0.248606	-0.0375925	-0.158189	-0.000830916
2.90869	-145.202	620.953	31.7234	-0.233633	2.59603e-17	0.386606	0.559398	-2.39225	-0.122216	30.1429	126.087	0.322775	0.423994	-4.70723e-17	0.248435	-0.0572041	-0.239285	-0.000612552
2.91868	-148.398	590.222	28.9294	-0.232779	2.58636e-17	0.386785	0.543789	-2.1628	-0.106009	42.4825	176.756	-0.0256651	0.427071	-4.74144e-17	0.248248	-0.0804499	-0.334726	4.86025e-05
2.92866	-148.354	550.77	25.7459	-0.232029	2.57785e-17	0.386922	0.517842	-1.92251	-0.0898683	56.4277	233.775	-0.683995	0.430541	-4.78003e-17	0.248045	-0.106387	-0.440751	0.00128958
2.93865	-144.826	503.625	22.3009	-0.23131	2.56969e-17	0.386982	0.482055	-1.67632	-0.0742286	71.4271	295.107	-1.72464	0.434347	-4.82234e-17	0.247827	-0.133593	-0.551952	0.00322567
2.94863	-137.804	450.305	18.7361	-0.230566	2.56126e-17	0.386917	0.437797	-1.4306	-0.0595238	86.799	358.357	-3.20803	0.43842	-4.86762e-17	0.247593	-0.160245	-0.661586	0.00592255
2.95862	-127.536	392.74	15.1978	-0.229757	2.55212e-17	0.386677	0.387212	-1.19239	-0.0461419	101.801	421.03	-5.17045	0.442685	-4.91504e-17	0.247345	-0.184288	-0.762183	0.00935997
2.9686	-114.532	333.153	11.8252	-0.228863	2.54203e-17	0.386213	0.332958	-0.968513	-0.0343772	115.707	480.755	-7.60967	0.447061	-4.96369e-17	0.247082	-0.203703	-0.846371	0.0133968
2.97859	-99.5217	273.884	8.73928	-0.227885	2.53102e-17	0.38548	0.277844	-0.764628	-0.0243983	127.875	535.462	-10.474	0.451458	-5.01255e-17	0.246809	-0.216791	-0.907787	0.0177569
2.98857	-83.3855	217.181	6.03259	-0.226847	2.51934e-17	0.384453	0.224465	-0.584626	-0.0162391	137.776	583.472	-13.6577	0.45578	-5.0606e-17	0.246529	-0.222398	-0.941839	0.0220463
2.99856	-67.0561	164.995	3.76269	-0.225797	2.50751e-17	0.38313	0.174915	-0.430387	-0.00981491	145.015	623.538	-17.0072	0.459938	-5.1068e-17	0.246247	-0.220022	-0.946055	0.0258039
3.00854	-51.4088	118.82	1.95039	-0.224797	2.49621e-17	0.381549	0.130642	-0.301949	-0.00495639	149.338	654.832	-20.337	0.463854	-5.15029e-17	0.245964	-0.209785	-0.919884	0.0285687
3.01853	-37.1664	79.5894	0.583105	-0.223915	2.48616e-17	0.379797	0.0924269	-0.197926	-0.00145009	150.645	676.92	-23.4561	0.467471	-5.19046e-17	0.24568	-0.192307	-0.864124	0.029943
3.02851	-24.8369	47.6708	-0.378185	-0.22319	2.4777e-17	0.378025	0.060442	-0.11601	0.000920337	148.99	689.728	-26.1954	0.470768	-5.22705e-17	0.245391	-0.168587	-0.780454	0.0296411
3.03849	-14.6932	22.9194	-0.990407	-0.222662	2.47093e-17	0.376481	0.0342202	-0.053379	0.00230665	144.574	693.515	-28.4298	0.473759	-5.26022e-17	0.245088	-0.139954	-0.671355	0.0275213
3.04848	-6.79034	4.78404	-1.31963	-0.222522	2.46578e-17	0.375616	0.0104595	-0.00736907	0.00203268	137.733	688.846	-30.091	0.476497	-5.29056e-17	0.244758	-0.108028	-0.540282	0.0236013
3.05846	-1.00735	-7.56727	-1.43335	-0.221448	2.46207e-17	0.371907	0.00167792	0.0126045	0.00238749	128.914	676.566	-31.1706	0.479072	-5.31906e-17	0.244386	-0.0746593	-0.391828	0.0180522
3.06845	2.89977	-15.1205	-1.39464	-0.221331	2.45959e-17	0.371532	-0.00656501	0.0342325	0.00315744	118.635	657.77	-31.7118	0.4816	-5.34702e-17	0.243956	-0.0417986	-0.231752	0.011173
3.07843	5.2449	-18.9035	-1.25825	-0.221249	2.45808e-17	0.370967	-0.0122331	0.0440901	0.00293471	107.451	633.75	-31.7944	0.484212	-5.37589e-17	0.243455	-0.0113243	-0.0667911	0.00335082
3.08842	6.3657	-19.8976	-1.06867	-0.221209	2.45731e-17	0.370518	-0.0149589	0.046758	0.00251131	95.9106	605.932	-31.5153	0.487044	-5.40718e-17	0.24287	0.0151683	0.0958283	-0.00498416
3.0984	6.58825	-18.9772	-0.859729	-0.221207	2.45708e-17	0.370218	-0.0155109	0.0446784	0.00202408	84.5123	575.798	-30.9703	0.490219	-5.44226e-17	0.242198	0.0365641	0.249118	-0.0133993
3.10839	6.20329	-16.8746	-0.655232	-0.221234	2.45721e-17	0.370047	-0.0145882	0.0396837	0.0015409	73.6774	544.799	-30.2401	0.493835	-5.48223e-17	0.24144	0.0523608	0.387176	-0.021491
3.11837	5.45307	-14.1682	-0.470361	-0.22128	2.45756e-17	0.369979	-0.0127752	0.0331927	0.00110194	63.7254	514.283	-29.3823	0.497954	-5.52778e-17	0.240608	0.0626983	0.505993	-0.0289087
3.12836	4.52686	-11.2864	-0.313334	-0.221334	2.45802e-17	0.369986	-0.0105414	0.0262819	0.000729639	54.866	485.422	-28.4299	0.502595	-5.57912e-17	0.239721	0.0682707	0.604019	-0.0353758
3.13834	3.56277	-8.52333	-0.187134	-0.221393	2.45852e-17	0.370049	-0.00825418	0.0197467	0.00043355	47.2009	459.167	-27.396	0.50773	-5.63595e-17	0.238802	0.0701426	0.682342	-0.0407117
3.14833	2.65355	-6.06042	-0.0911014	-0.221452	2.459e-17	0.370149	-0.00611555	0.0139673	0.000209958	40.7372	436.221	-26.2816	0.513288	-5.6975e-17	0.237882	0.0695169	0.744399	-0.0448489
3.15831	1.8545	-3.99071	-0.0222879	-0.221513	2.45943e-17	0.370278	-0.00424246	0.00912935	5.09868e-05	35.4053	417.029	-25.0857	0.519165	-5.76261e-17	0.236991	0.0675147	0.795238	-0.0478362
3.16829	0	0	0	0	-5.82989e-17	0	0	0	0	31.0797	401.793	-23.8144	0.525234	-5.82989e-17	0.236158	0.0650157	0.840512	-0.0498174
3.17828	0	0	0	0	-5.89782e-17	0	0	0	0	27.5996	390.5	-22.4875	0.531359	-5.89782e-17	0.235408	0.0625813	0.885445	-0.0509898
3.18826	0	0	0	0	-5.96493e-17	0	0	0	0	24.7863	382.964	-21.141	0.537408	-5.96493e-17	0.234758	0.0604526	0.934033	-0.051562
3.19825	0	0	0	0	-6.02994e-17	0	0	0	0	22.457	378.875	-19.8247	0.543265	-6.02994e-17	0.234222	0.0585991	0.988636	-0.0517305
3.20823	0	0	0	0	-6.09183e-17	0	0	0	0	20.4359	377.848	-18.5972	0.54884	-6.09183e-17	0.233806	0.0567913	1.05004	-0.0516816
3.21822	0	0	0	0	-6.14988e-17	0	0	0	0	18.5603	379.469	-17.5181	0.554068	-6.14988e-17	0.233514	0.0546772	1.11788	-0.0516069
3.2282	0	0	0	0	-6.20369e-17	0	0	0	0	16.6844	383.341	-16.6402	0.558913	-6.20369e-17	0.233343	0.0518497	1.1913	-0.0517123
3.23819	0	0	0	0	-6.25312e-17	0	0	0	0	14.6794	389.121	-16.0032	0.563365	-6.25312e-17	0.233294	0.0478923	1.26953	-0.0522113
3.24817	0	0	0	0	-6.29824e-17	0	0	0	0	12.4322	396.543	-15.6294	0.567429	-6.29824e-17	0.233365	0.0424006	1.35243	-0.053305
3.25816	0	0	0	0	-6.33925e-17	0	0	0	0	9.84323	405.441	-15.5224	0.571125	-6.33925e-17	0.233555	0.0349777	1.44072	-0.0551584
3.26814	0	0	0	0	-6.37643e-17	0	0	0	0	6.8251	415.745	-15.6675	0.574477	-6.37643e-17	0.233862	0.0252148	1.53594	-0.0578824
3.27813	0	0	0	0	-6.41008e-17	0	0	0	0	3.30193	427.482	-16.0341	0.577513	-6.41008e-17	0.234284	0.0126694	1.64024	-0.0615222
3.28811	0	0	0	0	-6.4405e-17	0	0	0	0	-0.789685	440.749	-16.5779	0.580259	-6.4405e-17	0.234821	-0.00314626	1.75603	-0.0660495
3.2981	0	0	0	0	-6.46796e-17	0	0	0	0	-5.49918	455.682	-17.2447	0.582739	-6.46796e-17	0.235465	-0.0227548	1.88554	-0.0713559
3.30808	0	0	0	0	-6.49271e-17	0	0	0	0	-10.8609	472.407	-17.974	0.584975	-6.49271e-17	0.236211	-0.0466768	2.03027	-0.0772468
3.31806	0	0	0	0	-6.515e-17	0	0	0	0	-16.8935	490.99	-18.7036	0.586989	-6.515e-17	0.237047	-0.0753663	2.19043	-0.0834414
3.32805	0	0	0	0	-6.53506e-17	0	0	0	0	-23.6012	511.38	-19.3751	0.588801	-6.53506e-17	0.237958	-0.109124	2.36444	-0.0895838
3.33803	0	0	0	0	-6.55314e-17	0	0	0	0	-30.9738	533.353	-19.9393	0.590433	-6.55314e-17	0.238927	-0.147995	2.5484	-0.0952715
3.34802	0	0	0	0	-6.56948e-17	0	0	0	0	-38.9868	556.477	-20.3609	0.591906	-6.56948e-17	0.239931	-0.191671	2.7358	-0.1001
3.358	0	0	0	0	-6.58434e-17	0	0	0	0	-47.5981	580.086	-20.6213	0.593243	-6.58434e-17	0.240949	-0.239391	2.9175	-0.103713
3.36799	0	0	0	0	-6.59794e-17	0	0	0	0	-56.7405	603.288	-20.7182	0.594465	-6.59794e-17	0.241955	-0.289888	3.08221	-0.105849
3.37797	0	0	0	0	-6.61051e-17	0	0	0	0	-66.3107	624.988	-20.6607	0.595592	-6.61051e-17	0.242928	-0.341376	3.21752	-0.106364
3.38796	0	0	0	0	-6.62221e-17	0	0	0	0	-76.1565	643.943	-20.4629	0.596639	-6.62221e-17	0.243847	-0.39162	3.31135	-0.105226
3.39794	0	0	0	0	-6.63319e-17	0	0	0	0	-86.0651	658.826	-20.1361	0.597621	-6.63319e-17	0.244692	-0.438077	3.35347	-0.102494
3.40793	0	0	0	0	-6.64355e-17	0	0	0	0	-95.7552	668.307	-19.6821	0.598545	-6.64355e-17	0.245451	-0.478116	3.33693	-0.0982748
3.41791	1.3353	7.42181	-0.24818	1.19746	-1.32605e-16	0.337314	-0.000890936	-0.00495198	0.000165591	-104.878	671.146	-19.0904	0.599418	-6.65334e-17	0.246112	-0.509273	3.25899	-0.0927006
3.4279	4.13742	22.6718	-0.662923	1.197	-1.32814e-16	0.338034	-0.00171663	-0.00940658	0.000275049	-113.026	666.277	-18.3389	0.600241	-6.66258e-17	0.246666	-0.52953	3.12152	-0.0859179
3.43788	8.54824	46.0239	-1.16164	1.19864	-1.3305e-16	0.338727	-0.0021462	-0.0115552	0.000291653	-119.756	652.899	-17.3991	0.601012	-6.67125e-17	0.247107	-0.537541	2.93062	-0.0780978
3.44786	14.6601	77.5483	-1.65457	1.20096	-1.33324e-16	0.339442	-0.00151891	-0.00803469	0.000171427	-124.619	630.555	-16.245	0.601729	-6.67932e-17	0.247427	-0.532789	2.69585	-0.0694532
3.45785	22.4803	116.858	-2.04038	1.2038	-1.33645e-16	0.340172	0.000887913	0.00461557	-8.05897e-05	-127.198	599.205	-14.8632	0.602388	-6.68673e-17	0.24762	-0.515622	2.42899	-0.0602508
3.46783	31.8939	163.06	-2.21049	1.20712	-1.34016e-16	0.340883	0.00585393	0.0299288	-0.000405723	-127.163	559.278	-13.262	0.602982	-6.69344e-17	0.247675	-0.487188	2.14272	-0.0508097
3.47782	42.6446	214.747	-2.05709	1.21086	-1.34433e-16	0.341546	0.01421	0.0715576	-0.00068546	-124.308	511.703	-11.4776	0.603509	-6.69939e-17	0.247581	-0.44927	1.84938	-0.0414818
3.4878	54.3341	270.064	-1.48592	1.21494	-1.34886e-16	0.342143	0.0267857	0.133137	-0.00073253	-118.604	457.898	-9.57431	0.603966	-6.70458e-17	0.247325	-0.404074	1.56002	-0.0326189
3.49779	66.4448	326.889	-0.432992	1.21927	-1.35367e-16	0.342666	0.0442983	0.217934	-0.000288672	-110.22	399.714	-7.63892	0.604353	-6.70898e-17	0.246892	-0.354014	1.28384	-0.0245353
3.50777	78.3868	383.041	1.11803	1.22375	-1.35864e-16	0.343113	0.0671767	0.328263	0.000958138	-99.535	339.329	-5.76848	0.604673	-6.71264e-17	0.246268	-0.301514	1.0279	-0.017474
3.51776	89.5583	436.487	3.12378	1.22825	-1.36365e-16	0.343485	0.0953555	0.464742	0.00332599	-87.1137	279.079	-4.05533	0.604929	-6.7156e-17	0.245441	-0.248852	0.797226	-0.0115846
3.52774	99.4039	485.493	5.47994	1.23268	-1.36857e-16	0.343781	0.128099	0.625641	0.00706184	-73.6573	221.261	-2.57242	0.605128	-6.71793e-17	0.244408	-0.198053	0.594936	-0.00691685
3.53773	107.456	528.714	8.03238	1.23692	-1.37329e-16	0.344003	0.163908	0.806472	0.0122522	-59.9276	167.921	-1.36353	0.605277	-6.71969e-17	0.243178	-0.150807	0.422571	-0.00343132
3.54771	113.364	565.218	10.5994	1.24085	-1.37766e-16	0.34415	0.20054	0.999865	0.0187503	-46.6592	120.671	-0.440826	0.60538	-6.72097e-17	0.24178	-0.108401	0.28035	-0.00102415
3.5577	116.909	594.453	13.0005	1.2444	-1.38161e-16	0.344226	0.235179	1.19582	0.0261523	-34.4793	80.5694	0.210509	0.605444	-6.72184e-17	0.240276	-0.071641	0.167407	0.000437396
3.56768	118.011	616.194	15.0838	1.24748	-1.38505e-16	0.344235	0.264778	1.38254	0.0338432	-23.8508	48.0873	0.623854	0.605476	-6.72238e-17	0.238782	-0.0407227	0.0821041	0.00106517
3.57767	116.722	630.494	16.7462	1.25007	-1.38793e-16	0.344183	0.286533	1.54776	0.0411091	-15.0485	23.1516	0.842508	0.605488	-6.72266e-17	0.237556	-0.0148825	0.0228963	0.000833215
3.58765	113.215	637.635	17.9405	1.25215	-1.39024e-16	0.344084	0.298338	1.68027	0.0472759	-8.16602	5.24466	0.912531	0.605673	-6.72276e-17	0.238206	0.00658476	-0.00422909	-0.000735829
3.59763	107.756	638.105	18.6729	1.25373	-1.39201e-16	0.343949	0.299106	1.77123	0.0518318	-3.14308	-6.46811	0.877582	0.60625	-6.72273e-17	0.238495	-0.0166765	-0.0343184	0.00465627
3.60762	100.681	632.565	18.9931	1.25487	-1.39328e-16	0.343794	0.28889	1.81506	0.054498	0.195998	-13.0081	0.775739	0.605778	-6.72263e-17	0.235033	0.000848378	-0.0563058	0.0033578
3.6176	92.3634	621.833	18.9799	1.25562	-1.39411e-16	0.343632	0.268803	1.80971	0.0552369	2.10241	-15.4707	0.638016	0.60566	-6.72247e-17	0.233974	0.00781356	-0.0574963	0.00237117
3.62759	83.1853	606.842	18.7262	1.25604	-1.39458e-16	0.343477	0.240781	1.75651	0.0542034	2.8679	-14.9398	0.488168	0.605602	-6.7223e-17	0.233378	0.00977432	-0.0509176	0.00166377
3.63757	73.5127	588.599	18.3229	1.25621	-1.39477e-16	0.343338	0.207272	1.65958	0.0516621	2.79807	-12.4348	0.343375	0.605564	-6.72213e-17	0.232997	0.0090191	-0.0400814	0.00110681
3.64756	63.6746	568.133	17.8459	1.2562	-1.39476e-16	0.343221	0.170909	1.52493	0.0479001	2.19536	-8.8862	0.215404	0.605535	-6.72196e-17	0.232751	0.00680365	-0.0275392	0.000667558
3.65754	53.9497	546.435	17.3478	1.25609	-1.39462e-16	0.343131	0.134229	1.35956	0.0431622	1.35086	-5.1366	0.111981	0.605511	-6.72179e-17	0.232592	0.00406473	-0.015456	0.00033695
3.66753	44.5581	524.415	16.855	1.25592	-1.39443e-16	0.343065	0.0994649	1.17063	0.0376247	0	0	0	0	-1.39443e-16	0	0	0	0
3.67751	35.66	502.856	16.3701	1.25575	-1.39423e-16	0.343022	0.0684209	0.96483	0.0314093	0	0	0	0	-1.39423e-16	0	0	0	0
3.6875	27.359	482.394	15.8788	1.25564	-1.39409e-16	0.342995	0.0424253	0.748042	0.024623	0	0	0	0	-1.39409e-16	0	0	0	0
3.69748	19.7096	463.512	15.3592	1.25561	-1.39405e-16	0.342978	0.0223326	0.525197	0.0174033	0	0	0	0	-1.39405e-16	0	0	0	0
3.70747	12.7271	446.541	14.7917	1.25571	-1.39414e-16	0.342966	0.00856076	0.300361	0.00994951	0	0	0	0	-1.39414e-16	0	0	0	0
3.71745	6.39893	431.682	14.1668	1.25598	-1.39443e-16	0.342951	0.00113978	0.0768912	0.00252339	0	0	0	0	-1.39443e-16	0	0	0	0
3.72743	0.695115	419.027	13.4898	1.25646	-1.39494e-16	0.342931	-0.000236164	-0.142364	-0.00458315	0	0	0	0	-1.39494e-16	0	0	0	0
3.73742	-4.42254	408.585	12.783	1.2572	-1.39575e-16	0.342902	0.00384147	-0.354901	-0.0111034	0	0	0	0	-1.39575e-16	0	0	0	0
3.7474	-8.99397	400.309	12.0828	1.25826	-1.3969e-16	0.342862	0.0125473	-0.558463	-0.0168565	0	0	0	0	-1.3969e-16	0	0	0	0
3.75739	-13.0573	394.124	11.4359	1.25969	-1.39848e-16	0.342811	0.0248807	-0.751007	-0.0217911	0	0	0	0	-1.39848e-16	0	0	0	0
3.76737	-16.6481	389.955	10.8926	1.26158	-1.40056e-16	0.342749	0.0397348	-0.930726	-0.025998	0	0	0	0	-1.40056e-16	0	0	0	0
3.77736	-19.8012	387.746	10.5012	1.26398	-1.40322e-16	0.342677	0.0559743	-1.09609	-0.0296848	0	0	0	0	-1.40322e-16	0	0	0	0
3.78734	-22.5543	387.479	10.3018	1.26698	-1.40653e-16	0.342597	0.0725156	-1.2458	-0.0331219	0	0	0	0	-1.40653e-16	0	0	0	0
3.79733	-24.9524	389.186	10.324	1.27063	-1.41058e-16	0.342508	0.088399	-1.37877	-0.0365748	0	0	0	0	-1.41058e-16	0	0	0	0
3.80731	-27.0526	392.951	10.5849	1.27498	-1.41539e-16	0.342412	0.102849	-1.49393	-0.0402418	0	0	0	0	-1.41539e-16	0	0	0	0
3.8173	-28.9296	398.895	11.0904	1.28004	-1.421e-16	0.342308	0.115318	-1.59005	-0.0442079	0	0	0	0	-1.421e-16	0	0	0	0
3.82728	-30.6792	407.159	11.8366	1.28581	-1.42739e-16	0.342194	0.125511	-1.66572	-0.0484244	0	0	0	0	-1.42739e-16	0	0	0	0
3.83727	-32.4221	417.879	12.8116	1.29222	-1.43451e-16	0.342069	0.133395	-1.71928	-0.0527109	0	0	0	0	-1.43451e-16	0	0	0	0
3.84725	-34.3048	431.144	13.9961	1.29919	-1.44223e-16	0.341929	0.139172	-1.74912	-0.0567812	0	0	0	0	-1.44223e-16	0	0	0	0
3.85724	-36.4979	446.967	15.3627	1.30657	-1.45043e-16	0.341771	0.143227	-1.75401	-0.060287	0	0	0	0	-1.45043e-16	0	0	0	0
3.86722	-39.1905	465.24	16.874	1.3142	-1.4589e-16	0.341592	0.146038	-1.73365	-0.0628787	0	0	0	0	-1.4589e-16	0	0	0	0
3.8772	-42.5793	485.704	18.4813	1.32187	-1.46743e-16	0.341388	0.148075	-1.6891	-0.0642711	0	0	0	0	-1.46743e-16	0	0	0	0
3.88719	-46.8514	507.924	20.123	1.3294	-1.47579e-16	0.341158	0.149716	-1.6231	-0.0643042	0	0	0	0	-1.47579e-16	0	0	0	0
3.89717	-52.1631	531.267	21.7264	1.33657	-1.48377e-16	0.340904	0.151209	-1.54003	-0.0629802	0	0	0	0	-1.48377e-16	0	0	0	0
3.90716	-58.6144	554.901	23.2104	1.34322	-1.49117e-16	0.340627	0.15269	-1.44551	-0.0604627	0	0	0	0	-1.49117e-16	0	0	0	0
3.91714	-66.2221	577.8	24.4897	1.34921	-1.49785e-16	0.340337	0.154237	-1.34575	-0.0570387	0	0	0	0	-1.49785e-16	0	0	0	0
3.92713	-74.8974	598.778	25.4804	1.35446	-1.50371e-16	0.340042	0.155942	-1.2467	-0.053052	0	0	0	0	-1.50371e-16	0	0	0	0
3.93711	-84.4294	616.529	26.1041	1.35893	-1.5087e-16	0.339756	0.157941	-1.15334	-0.0488327	0	0	0	0	-1.5087e-16	0	0	0	0
3.9471	-94.4809	629.698	26.293	1.36263	-1.51283e-16	0.339494	0.160408	-1.06909	-0.0446398	0	0	0	0	-1.51283e-16	0	0	0	0
3.95708	-104.597	636.958	25.9941	1.36559	-1.51615e-16	0.339272	0.163484	-0.995557	-0.0406285	0	0	0	0	-1.51615e-16	0	0	0	0
3.96707	-114.228	637.11	25.1748	1.3679	-1.51875e-16	0.339105	0.167173	-0.93241	-0.0368433	0	0	0	0	-1.51875e-16	0	0	0	0
3.97705	-122.764	629.176	23.828	1.36964	-1.52071e-16	0.339003	0.171227	-0.877558	-0.0332346	0	0	0	0	-1.52071e-16	0	0	0	0
3.98704	-129.577	612.5	21.9774	1.37091	-1.52213e-16	0.338973	0.17508	-0.827588	-0.0296951	0	0	0	0	-1.52213e-16	0	0	0	0
3.99702	-134.079	586.83	19.6808	1.3718	-1.52312e-16	0.339015	0.177866	-0.778474	-0.026108	0	0	0	0	-1.52312e-16	0	0	0	0
4.007	-135.771	552.387	17.0306	1.37238	-1.52375e-16	0.339122	0.178544	-0.726409	-0.0223959	0	0	0	0	-1.52375e-16	0	0	0	0
4.01699	-134.307	509.901	14.1513	1.37274	-1.52409e-16	0.339278	0.176103	-0.668583	-0.0185553	0	0	0	0	-1.52409e-16	0	0	0	0
4.02697	-129.535	460.61	11.1916	1.37292	-1.5242e-16	0.339457	0.169786	-0.603737	-0.0146692	0	0	0	0	-1.5242e-16	0	0	0	0
4.03696	-121.544	406.216	8.31146	1.37298	-1.52412e-16	0.339628	0.159295	-0.532382	-0.0108929	0	0	0	0	-1.52412e-16	0	0	0	0
4.04694	-110.671	348.785	5.66535	1.37293	-1.52386e-16	0.339754	0.144894	-0.45664	-0.00741725	0	0	0	0	-1.52386e-16	0	0	0	0
4.05693	-97.4908	290.602	3.38417	1.37282	-1.52345e-16	0.339797	0.127388	-0.379722	-0.004422	0	0	0	0	-1.52345e-16	0	0	0	0
4.06691	-82.7683	233.982	1.55945	1.37266	-1.5229e-16	0.339723	0.107951	-0.305172	-0.00203392	0	0	0	0	-1.5229e-16	0	0	0	0
4.0769	-67.3825	181.065	0.233811	1.37246	-1.52223e-16	0.339506	0.0878687	-0.236114	-0.000304896	0	0	0	0	-1.52223e-16	0	0	0	0
4.08688	-52.2298	133.636	-0.600659	1.37224	-1.52148e-16	0.339139	0.0683028	-0.174761	0.000785503	0	0	0	0	-1.52148e-16	0	0	0	0
4.09687	-38.129	92.9853	-0.996685	1.37203	-1.52068e-16	0.338633	0.0501664	-0.122341	0.00131134	0	0	0	0	-1.52068e-16	0	0	0	0
4.10685	-25.7444	59.8453	-1.04148	1.37182	-1.51989e-16	0.338028	0.0341372	-0.0793553	0.00138101	0	0	0	0	-1.51989e-16	0	0	0	0
4.11684	-15.5437	34.4079	-0.845204	1.37164	-1.51915e-16	0.337386	0.0207604	-0.0459559	0.00112887	0	0	0	0	-1.51915e-16	0	0	0	0
4.12682	0	0	0	0	-0.189654	0	0	0	0	0	0	0	0	-0.00417283	0	0	0	0
4.1368	0	0	0	0	-0.196341	0	0	0	0	0	0	0	0	-0.00485979	0	0	0	0
4.14679	0	0	0	0	-0.201945	0	0	0	0	0	0	0	0	-0.00556001	0	0	0	0
4.15677	0	0	0	0	-0.206711	0	0	0	0	0	0	0	0	-0.00630237	0	0	0	0
4.16676	0	0	0	0	-0.210945	0	0	0	0	0	0	0	0	-0.00713585	0	0	0	0
4.17674	0	0	0	0	-0.214962	0	0	0	0	0	0	0	0	-0.00811983	0	0	0	0
4.18673	0	0	0	0	-0.219044	0	0	0	0	0	0	0	0	-0.00930904	0	0	0	0
