Coordinates
version=1
nRows=159
nColumns=38
inDegrees=no

Units are S.I. units (second, meters, Newtons, ...)
If the header above contains a line with 'inDegrees', this indicates whether rotational values are in degrees (yes) or radians (no).

endheader
time	pelvis_tilt	pelvis_list	pelvis_rotation	pelvis_tx	pelvis_ty	pelvis_tz	hip_flexion_r	hip_adduction_r	hip_rotation_r	knee_angle_r	ankle_angle_r	subtalar_angle_r	mtp_angle_r	hip_flexion_l	hip_adduction_l	hip_rotation_l	knee_angle_l	ankle_angle_l	subtalar_angle_l	mtp_angle_l	lumbar_extension	lumbar_bending	lumbar_rotation	arm_flex_r	arm_add_r	arm_rot_r	elbow_flex_r	pro_sup_r	wrist_flex_r	wrist_dev_r	arm_flex_l	arm_add_l	arm_rot_l	elbow_flex_l	pro_sup_l	wrist_flex_l	wrist_dev_l
0	0.0123371	0.10189	-1.56351	0.196235	0.981605	-1.56958	0.158824	0.000275907	-0.32187	0.254424	0.246319	0	0	0.576749	-0.0911952	-0.223327	0.868518	0.117777	0	0	-0.150401	0.0450777	-0.061217	0.184538	-0.500573	0.578834	0.845314	1.07367	0	0	-0.169067	-0.443528	0.449467	0.798011	0	0	0
0.00664966	0.0137648	0.10174	-1.56738	0.196202	0.980775	-1.56106	0.148863	-0.00143036	-0.322113	0.254089	0.252771	0	0	0.577066	-0.0878649	-0.235969	0.826596	0.112687	0	0	-0.150261	0.0430555	-0.0549493	0.189845	-0.505078	0.574259	0.857782	1.07823	0	0	-0.175212	-0.440631	0.447334	0.789926	0	0	0
0.0132993	0.0151936	0.101582	-1.57125	0.196171	0.979943	-1.55254	0.13889	-0.00314332	-0.322369	0.253764	0.259219	0	0	0.577343	-0.0845273	-0.248611	0.784681	0.107583	0	0	-0.150123	0.0410315	-0.0486926	0.195142	-0.509573	0.569702	0.870219	1.08278	0	0	-0.18136	-0.437735	0.445207	0.78184	0	0	0
0.019949	0.0166236	0.101404	-1.57513	0.196143	0.979109	-1.54401	0.128894	-0.00487376	-0.322661	0.253468	0.265656	0	0	0.577521	-0.0811703	-0.261246	0.742802	0.102448	0	0	-0.149985	0.0390044	-0.042463	0.200409	-0.514046	0.565183	0.882579	1.08729	0	0	-0.187511	-0.434842	0.443102	0.773749	0	0	0
0.0265986	0.0180538	0.101197	-1.57902	0.196121	0.97827	-1.53545	0.118871	-0.0066355	-0.323015	0.253233	0.27207	0	0	0.57754	-0.0777784	-0.27385	0.701018	0.0972678	0	0	-0.149842	0.0369743	-0.03628	0.205617	-0.51848	0.560727	0.894803	1.09172	0	0	-0.193659	-0.431955	0.441045	0.76565	0	0	0
0.0332483	0.0194832	0.100954	-1.5829	0.196107	0.977422	-1.52687	0.108821	-0.00844521	-0.323458	0.2531	0.278446	0	0	0.57734	-0.074334	-0.28638	0.659424	0.092038	0	0	-0.149688	0.0349419	-0.0301693	0.210736	-0.522855	0.556357	0.906829	1.09603	0	0	-0.199794	-0.429079	0.439071	0.75754	0	0	0
0.039898	0.0209116	0.100667	-1.58679	0.196105	0.976562	-1.51824	0.0987489	-0.0103227	-0.324013	0.253117	0.284763	0	0	0.576872	-0.0708183	-0.298777	0.618152	0.086768	0	0	-0.149516	0.0329085	-0.0241652	0.21574	-0.527147	0.552103	0.91859	1.10021	0	0	-0.205905	-0.426219	0.437214	0.749416	0	0	0
0.0465476	0.0223406	0.100331	-1.59068	0.196118	0.97569	-1.50958	0.0886649	-0.0122907	-0.324695	0.253338	0.290996	0	0	0.576093	-0.0672125	-0.310963	0.577377	0.0814823	0	0	-0.149319	0.0308742	-0.0183071	0.220605	-0.531329	0.547994	0.93002	1.1042	0	0	-0.211982	-0.42338	0.435512	0.741276	0	0	0
0.0531973	0.0237741	0.0999395	-1.59455	0.196149	0.974802	-1.50086	0.0785821	-0.0143752	-0.325509	0.25382	0.297114	0	0	0.574974	-0.0634998	-0.322847	0.537306	0.0762206	0	0	-0.149093	0.0288365	-0.0126368	0.225306	-0.535374	0.544054	0.941058	1.108	0	0	-0.218008	-0.420571	0.434005	0.733123	0	0	0
0.0598469	0.0252193	0.0994869	-1.59839	0.196202	0.9739	-1.49208	0.0685163	-0.016605	-0.326445	0.254623	0.30308	0	0	0.573499	-0.0596662	-0.33433	0.49818	0.0710346	0	0	-0.148832	0.0267892	-0.00719639	0.229815	-0.539254	0.540298	0.951651	1.11158	0	0	-0.223966	-0.4178	0.432736	0.724963	0	0	0
0.0664966	0.0266867	0.0989683	-1.60219	0.196279	0.972982	-1.48324	0.0584857	-0.0190118	-0.327478	0.255807	0.308847	0	0	0.57166	-0.0557014	-0.345309	0.460263	0.0659846	0	0	-0.148536	0.024722	-0.0020276	0.234104	-0.542938	0.536734	0.961749	1.11494	0	0	-0.229837	-0.41508	0.431747	0.716804	0	0	0
0.0731463	0.0281904	0.0983786	-1.60594	0.196383	0.972052	-1.47434	0.0485108	-0.0216302	-0.328569	0.257434	0.314359	0	0	0.56946	-0.0515999	-0.355683	0.423838	0.0611329	0	0	-0.148204	0.0226201	0.00282888	0.238143	-0.546399	0.533363	0.971313	1.11807	0	0	-0.235598	-0.412422	0.431082	0.708659	0	0	0
0.0797959	0.0297481	0.0977132	-1.60962	0.196516	0.971111	-1.46538	0.0386147	-0.0244968	-0.329663	0.259564	0.319551	0	0	0.566913	-0.0473605	-0.365365	0.389194	0.0565386	0	0	-0.147837	0.0204641	0.00733369	0.241899	-0.549606	0.530179	0.980308	1.12098	0	0	-0.241227	-0.409842	0.430784	0.700546	0	0	0
0.0864456	0.0313805	0.0969685	-1.61321	0.196681	0.970164	-1.45634	0.0288241	-0.0276496	-0.330694	0.26226	0.324344	0	0	0.564038	-0.0429869	-0.374279	0.356618	0.0522508	0	0	-0.147436	0.0182313	0.0114487	0.24534	-0.552533	0.527172	0.988705	1.12368	0	0	-0.2467	-0.407355	0.430894	0.692487	0	0	0
0.0930952	0.0331104	0.0961424	-1.61669	0.196879	0.969215	-1.44724	0.0191701	-0.0311269	-0.331584	0.265586	0.328647	0	0	0.560864	-0.0384869	-0.382373	0.326386	0.0483035	0	0	-0.147003	0.0158959	0.015137	0.248436	-0.555153	0.524333	0.996479	1.12616	0	0	-0.251993	-0.404978	0.43145	0.684506	0	0	0
0.0997449	0.0349627	0.0952343	-1.62004	0.197113	0.96827	-1.43806	0.00969022	-0.0349663	-0.332249	0.269607	0.332358	0	0	0.557421	-0.0338714	-0.389614	0.298749	0.0447107	0	0	-0.146538	0.0134307	0.0183631	0.251157	-0.557439	0.521649	1.00361	1.12844	0	0	-0.257082	-0.402727	0.432487	0.676634	0	0	0
0.106395	0.0369626	0.0942462	-1.62325	0.197384	0.967334	-1.42882	0.000429317	-0.039204	-0.332602	0.274394	0.335357	0	0	0.553749	-0.0291533	-0.395998	0.27393	0.0414635	0	0	-0.14604	0.0108077	0.0210933	0.253475	-0.55937	0.519109	1.01008	1.13054	0	0	-0.261946	-0.400621	0.434032	0.668903	0	0	0
0.113044	0.0391357	0.0931829	-1.62629	0.197693	0.966413	-1.41951	-0.0085587	-0.0438733	-0.332558	0.280022	0.337515	0	0	0.549887	-0.0243463	-0.401539	0.252108	0.0385296	0	0	-0.145506	0.00799973	0.0232956	0.255365	-0.560926	0.516705	1.01588	1.13246	0	0	-0.266562	-0.398674	0.43611	0.661351	0	0	0
0.119694	0.0415063	0.0920522	-1.62915	0.198043	0.965514	-1.41013	-0.0172096	-0.0490041	-0.332036	0.286576	0.338686	0	0	0.54588	-0.0194631	-0.406273	0.233418	0.0358551	0	0	-0.144931	0.00498134	0.0249407	0.256807	-0.56209	0.514431	1.02099	1.1342	0	0	-0.270909	-0.396904	0.438736	0.654017	0	0	0
0.126344	0.0440972	0.0908653	-1.63181	0.198435	0.964644	-1.40069	-0.0254482	-0.0546217	-0.330969	0.294144	0.338716	0	0	0.54177	-0.0145142	-0.410253	0.217939	0.0333686	0	0	-0.14431	0.00172994	0.0260022	0.257782	-0.56285	0.512283	1.02541	1.13579	0	0	-0.274967	-0.395324	0.441918	0.646943	0	0	0
0.132993	0.0469285	0.0896372	-1.63424	0.19887	0.963807	-1.39118	-0.0331875	-0.0607456	-0.3293	0.302824	0.337438	0	0	0.537602	-0.0095072	-0.413537	0.205693	0.0309881	0	0	-0.143634	-0.00177318	0.0264575	0.258277	-0.563197	0.510263	1.02912	1.13721	0	0	-0.278716	-0.393948	0.445656	0.640175	0	0	0
0.139643	0.0500169	0.0883857	-1.63643	0.199349	0.963011	-1.38163	-0.0403296	-0.0673889	-0.326989	0.31272	0.334678	0	0	0.533417	-0.00444586	-0.416193	0.196643	0.028629	0	0	-0.142893	-0.00554215	0.0262884	0.258283	-0.563129	0.508374	1.03213	1.13848	0	0	-0.282137	-0.392786	0.449939	0.633759	0	0	0
0.146293	0.0533751	0.0871323	-1.63837	0.199875	0.962261	-1.37202	-0.0467662	-0.0745569	-0.324011	0.323941	0.330257	0	0	0.529254	0.000669964	-0.418284	0.190695	0.0262135	0	0	-0.142076	-0.00958584	0.0254824	0.257793	-0.562647	0.506622	1.03443	1.1396	0	0	-0.285211	-0.391848	0.45475	0.627741	0	0	0
0.152942	0.0570114	0.0859006	-1.64005	0.200447	0.961561	-1.36237	-0.0523806	-0.0822469	-0.32036	0.336596	0.323996	0	0	0.525147	0.00584408	-0.419872	0.187698	0.0236807	0	0	-0.14117	-0.0139074	0.0240337	0.256803	-0.561758	0.505016	1.03602	1.14057	0	0	-0.287917	-0.391142	0.460059	0.622169	0	0	0
0.159592	0.0609286	0.0847164	-1.64146	0.201067	0.960917	-1.35269	-0.0570498	-0.0904466	-0.316043	0.350795	0.315723	0	0	0.521124	0.0110832	-0.421012	0.187454	0.0209955	0	0	-0.140165	-0.018504	0.0219444	0.25531	-0.560476	0.503563	1.03691	1.14138	0	0	-0.290235	-0.390675	0.46583	0.617089	0	0	0
0.166241	0.0651241	0.0836068	-1.64259	0.201735	0.960333	-1.34297	-0.0606476	-0.0991337	-0.311081	0.366638	0.305279	0	0	0.517205	0.0163959	-0.421755	0.189723	0.0181562	0	0	-0.139049	-0.0233663	0.0192243	0.253315	-0.558819	0.502271	1.0371	1.14205	0	0	-0.292144	-0.390451	0.472018	0.612548	0	0	0
0.172891	0.0695894	0.0825989	-1.64344	0.20245	0.959812	-1.33324	-0.0630483	-0.108275	-0.305505	0.384217	0.292528	0	0	0.513406	0.0217912	-0.422143	0.19423	0.0151988	0	0	-0.137813	-0.0284783	0.0158903	0.250822	-0.556809	0.501148	1.03659	1.14256	0	0	-0.293621	-0.390472	0.478568	0.608588	0	0	0
0.179541	0.0743093	0.0817192	-1.64401	0.203212	0.959357	-1.3235	-0.0641305	-0.117827	-0.299352	0.403605	0.277366	0	0	0.509731	0.0272771	-0.422218	0.200681	0.012199	0	0	-0.13645	-0.0338174	0.0119662	0.247837	-0.554474	0.50021	1.0354	1.14292	0	0	-0.294647	-0.390741	0.485415	0.60525	0	0	0
0.18619	0.0792624	0.0809926	-1.64432	0.20402	0.958971	-1.31376	-0.0637811	-0.127734	-0.292662	0.424853	0.259732	0	0	0.50618	0.0328592	-0.422014	0.208766	0.00926935	0	0	-0.134954	-0.0393542	0.0074821	0.244373	-0.551843	0.499472	1.03354	1.14312	0	0	-0.295201	-0.391257	0.492487	0.602573	0	0	0
0.19284	0.0844206	0.0804413	-1.64435	0.20487	0.958656	-1.30403	-0.0618991	-0.137929	-0.285475	0.447987	0.239624	0	0	0.502739	0.0385388	-0.421567	0.218174	0.00655269	0	0	-0.133323	-0.0450526	0.002474	0.240446	-0.548951	0.498955	1.031	1.14316	0	0	-0.295267	-0.392016	0.499706	0.600588	0	0	0
0.19949	0.0897492	0.0800842	-1.64414	0.205761	0.958413	-1.29432	-0.0583993	-0.148334	-0.277828	0.473	0.217103	0	0	0.499392	0.0443126	-0.420911	0.228597	0.00421271	0	0	-0.131558	-0.0508701	-0.00301669	0.236079	-0.545833	0.498684	1.02781	1.14304	0	0	-0.294827	-0.393015	0.506983	0.599327	0	0	0
0.206139	0.0952075	0.0799362	-1.64369	0.206689	0.958244	-1.28463	-0.0532157	-0.158863	-0.269753	0.499853	0.19231	0	0	0.49611	0.0501709	-0.42008	0.239739	0.00242176	0	0	-0.129663	-0.0567586	-0.00894371	0.231297	-0.542527	0.49869	1.02395	1.14274	0	0	-0.293868	-0.394247	0.514229	0.598812	0	0	0
0.212789	0.100749	0.0800076	-1.64301	0.20765	0.958147	-1.27498	-0.0463038	-0.16942	-0.26128	0.528471	0.165467	0	0	0.492859	0.0560977	-0.419109	0.251322	0.00134776	0	0	-0.127645	-0.0626648	-0.0152567	0.226129	-0.539073	0.499004	1.01944	1.14227	0	0	-0.292379	-0.395704	0.521348	0.599063	0	0	0
0.219439	0.106322	0.0803037	-1.64214	0.20864	0.958124	-1.26537	-0.0376426	-0.179903	-0.252433	0.558744	0.136887	0	0	0.489598	0.0620701	-0.418032	0.263087	0.00114157	0	0	-0.125517	-0.0685311	-0.021902	0.220608	-0.535509	0.499664	1.01428	1.14161	0	0	-0.290351	-0.397377	0.528246	0.600093	0	0	0
0.226088	0.111872	0.0808247	-1.64108	0.209652	0.958174	-1.2558	-0.0272353	-0.190207	-0.243235	0.590526	0.106966	0	0	0.486281	0.0680591	-0.416882	0.274803	0.00192614	0	0	-0.123294	-0.0742972	-0.0288236	0.21477	-0.531875	0.500708	1.00846	1.14076	0	0	-0.287776	-0.399254	0.534828	0.601909	0	0	0
0.232738	0.11734	0.0815658	-1.63987	0.210683	0.958296	-1.2463	-0.0151102	-0.200225	-0.233714	0.623639	0.0761832	0	0	0.482859	0.0740296	-0.415689	0.286262	0.00378829	0	0	-0.120993	-0.0799005	-0.0359644	0.208654	-0.52821	0.502178	1.002	1.13969	0	0	-0.284652	-0.401325	0.541003	0.604511	0	0	0
0.239388	0.122669	0.0825172	-1.63851	0.211725	0.958488	-1.23685	-0.00131918	-0.209851	-0.223898	0.657875	0.0450816	0	0	0.479279	0.0799418	-0.414482	0.297285	0.00677393	0	0	-0.118636	-0.0852787	-0.0432672	0.202298	-0.52455	0.504117	0.994896	1.13839	0	0	-0.280977	-0.403574	0.546686	0.607895	0	0	0
0.246037	0.127797	0.0836646	-1.63704	0.212774	0.958749	-1.22747	0.0140631	-0.218987	-0.213826	0.693002	0.0142516	0	0	0.47549	0.0857521	-0.413281	0.307718	0.0108866	0	0	-0.116247	-0.09037	-0.0506764	0.195743	-0.520931	0.506569	0.98714	1.13684	0	0	-0.276754	-0.405989	0.551799	0.61205	0	0	0
0.252687	0.132669	0.0849902	-1.63546	0.213824	0.959077	-1.21816	0.0309413	-0.22754	-0.203549	0.728765	-0.015695	0	0	0.471442	0.091415	-0.412104	0.317437	0.0160895	0	0	-0.113851	-0.0951158	-0.0581387	0.189031	-0.517383	0.50958	0.978733	1.13501	0	0	-0.271986	-0.408555	0.55627	0.616957	0	0	0
0.259337	0.137229	0.0864727	-1.63381	0.214869	0.959468	-1.20891	0.0492023	-0.23543	-0.193128	0.764894	-0.0441535	0	0	0.467088	0.0968843	-0.410958	0.326342	0.0223096	0	0	-0.111472	-0.0994614	-0.0656047	0.182203	-0.513934	0.513196	0.969676	1.13289	0	0	-0.266681	-0.411255	0.56004	0.622596	0	0	0
0.265986	0.141428	0.0880889	-1.63208	0.215903	0.959921	-1.19974	0.0687174	-0.242588	-0.182641	0.801105	-0.0705559	0	0	0.462387	0.102115	-0.409844	0.334358	0.0294448	0	0	-0.109137	-0.103357	-0.0730299	0.1753	-0.510608	0.51746	0.959965	1.13043	0	0	-0.260853	-0.414075	0.563058	0.628939	0	0	0
0.272636	0.145221	0.0898142	-1.6303	0.216923	0.960432	-1.19064	0.0893466	-0.248963	-0.172178	0.837109	-0.0943994	0	0	0.457304	0.107065	-0.408757	0.341433	0.0373714	0	0	-0.106869	-0.106761	-0.0803757	0.168361	-0.507423	0.522417	0.9496	1.1276	0	0	-0.254515	-0.416998	0.565284	0.635957	0	0	0
0.279286	0.148572	0.0916225	-1.62847	0.217924	0.960997	-1.18161	0.110938	-0.254517	-0.161839	0.872614	-0.115263	0	0	0.451809	0.111696	-0.40768	0.347538	0.0459505	0	0	-0.104694	-0.109637	-0.0876098	0.161424	-0.504394	0.528108	0.938583	1.12437	0	0	-0.247687	-0.420009	0.56669	0.643617	0	0	0
0.285935	0.151447	0.0934865	-1.62659	0.218903	0.961613	-1.17265	0.133332	-0.259229	-0.151738	0.907327	-0.132826	0	0	0.44588	0.115974	-0.406592	0.352661	0.0550363	0	0	-0.102633	-0.111955	-0.0947068	0.154523	-0.501531	0.534566	0.926916	1.12068	0	0	-0.240389	-0.423091	0.567255	0.651882	0	0	0
0.292585	0.153823	0.0953788	-1.62467	0.219856	0.962275	-1.16376	0.156365	-0.263093	-0.14199	0.940962	-0.146879	0	0	0.4395	0.119872	-0.405465	0.356806	0.0644828	0	0	-0.100711	-0.113693	-0.101648	0.147685	-0.498837	0.541818	0.914608	1.11651	0	0	-0.232647	-0.426227	0.56697	0.660716	0	0	0
0.299235	0.155682	0.097272	-1.62269	0.220783	0.962979	-1.15493	0.179869	-0.266119	-0.132714	0.973244	-0.157328	0	0	0.432657	0.123369	-0.404263	0.359993	0.0741499	0	0	-0.0989483	-0.114839	-0.10842	0.140932	-0.496315	0.549879	0.901672	1.11181	0	0	-0.224487	-0.429403	0.565837	0.67008	0	0	0
0.305884	0.157015	0.0991397	-1.62066	0.221681	0.963721	-1.14616	0.203679	-0.268329	-0.124026	1.00391	-0.164193	0	0	0.425346	0.126451	-0.402951	0.362252	0.0839084	0	0	-0.0973642	-0.115385	-0.115016	0.13428	-0.493959	0.558751	0.888128	1.10656	0	0	-0.215935	-0.432603	0.563868	0.679937	0	0	0
0.312534	0.15782	0.100958	-1.61856	0.222551	0.964497	-1.13745	0.227635	-0.269758	-0.116033	1.03272	-0.167601	0	0	0.417569	0.129113	-0.401492	0.363623	0.0936445	0	0	-0.0959754	-0.115333	-0.121435	0.127735	-0.491761	0.568425	0.874	1.10073	0	0	-0.207023	-0.435813	0.561087	0.690249	0	0	0
0.319184	0.158103	0.102704	-1.61638	0.223393	0.9653	-1.12879	0.251583	-0.270455	-0.108834	1.05946	-0.167772	0	0	0.409329	0.131355	-0.399847	0.364151	0.103262	0	0	-0.094795	-0.114691	-0.127678	0.121298	-0.489709	0.578876	0.859318	1.09429	0	0	-0.19778	-0.43902	0.557528	0.700981	0	0	0
0.325833	0.157876	0.10436	-1.61411	0.224206	0.966125	-1.12019	0.275382	-0.270474	-0.102512	1.08393	-0.165001	0	0	0.400641	0.133185	-0.397982	0.36389	0.112684	0	0	-0.09383	-0.113477	-0.133752	0.114966	-0.487787	0.590079	0.844114	1.08724	0	0	-0.188243	-0.442213	0.553227	0.7121	0	0	0
0.332483	0.157161	0.105915	-1.61173	0.224993	0.966966	-1.11163	0.298904	-0.26988	-0.0971347	1.10596	-0.159637	0	0	0.391521	0.134619	-0.395869	0.362895	0.121855	0	0	-0.0930818	-0.111716	-0.139668	0.108733	-0.485976	0.602004	0.828421	1.07954	0	0	-0.178453	-0.445383	0.548223	0.723582	0	0	0
0.339133	0.155985	0.107357	-1.60924	0.225754	0.967817	-1.10311	0.322035	-0.268743	-0.0927543	1.12542	-0.152065	0	0	0.381991	0.135678	-0.393483	0.361222	0.130739	0	0	-0.0925461	-0.109439	-0.145441	0.102589	-0.484253	0.614621	0.812275	1.07117	0	0	-0.168453	-0.448521	0.542553	0.735404	0	0	0
0.345782	0.154382	0.108683	-1.60662	0.22649	0.968671	-1.09462	0.344673	-0.267136	-0.0894077	1.1422	-0.142687	0	0	0.372078	0.136388	-0.390806	0.358929	0.139312	0	0	-0.0922137	-0.106685	-0.151086	0.0965231	-0.482596	0.627898	0.795711	1.0621	0	0	-0.158293	-0.45162	0.536258	0.747551	0	0	0
0.352432	0.152388	0.109891	-1.60388	0.227203	0.96952	-1.08617	0.366732	-0.265134	-0.0871177	1.1562	-0.1319	0	0	0.36181	0.136778	-0.387826	0.356073	0.147567	0	0	-0.0920712	-0.103496	-0.156622	0.0905224	-0.480977	0.641801	0.778764	1.05229	0	0	-0.148021	-0.454676	0.529377	0.760012	0	0	0
0.359082	0.150044	0.110982	-1.60099	0.227893	0.970357	-1.07774	0.388133	-0.262813	-0.0858941	1.16737	-0.120089	0	0	0.351215	0.136882	-0.384537	0.35271	0.155507	0	0	-0.0921016	-0.0999203	-0.162066	0.0845703	-0.479371	0.656295	0.761472	1.04172	0	0	-0.137692	-0.457685	0.521949	0.77278	0	0	0
0.365731	0.147396	0.11196	-1.59797	0.228562	0.971175	-1.06933	0.408814	-0.260247	-0.0857362	1.17566	-0.107609	0	0	0.340326	0.136734	-0.380939	0.348894	0.163143	0	0	-0.0922847	-0.0960084	-0.167435	0.0786487	-0.477751	0.671342	0.743872	1.03034	0	0	-0.127356	-0.460648	0.514017	0.785852	0	0	0
0.372381	0.144489	0.112832	-1.5948	0.229211	0.971965	-1.06094	0.428718	-0.257504	-0.0866337	1.18103	-0.0947814	0	0	0.329174	0.136369	-0.37704	0.344677	0.17049	0	0	-0.0925982	-0.0918128	-0.172745	0.0727384	-0.47609	0.686907	0.725999	1.01813	0	0	-0.117065	-0.463565	0.505624	0.799228	0	0	0
0.379031	0.141368	0.113606	-1.59149	0.229838	0.972722	-1.05256	0.447799	-0.254649	-0.0885688	1.18347	-0.0818851	0	0	0.317789	0.135821	-0.372851	0.34011	0.177567	0	0	-0.093018	-0.0873873	-0.17801	0.066819	-0.47436	0.702951	0.707889	1.00507	0	0	-0.10687	-0.46644	0.496815	0.81291	0	0	0
0.38568	0.13808	0.114293	-1.58804	0.230446	0.973437	-1.04419	0.466016	-0.251738	-0.0915182	1.18298	-0.0691566	0	0	0.306203	0.135123	-0.36839	0.33524	0.184395	0	0	-0.0935193	-0.0827861	-0.183242	0.0608703	-0.472537	0.719439	0.689575	0.991123	0	0	-0.0968183	-0.469276	0.487636	0.826899	0	0	0
0.39233	0.13467	0.114902	-1.58445	0.231032	0.974103	-1.03582	0.483336	-0.248822	-0.095454	1.17956	-0.0567897	0	0	0.294447	0.134306	-0.363678	0.330113	0.190995	0	0	-0.0940767	-0.0780623	-0.188449	0.0548727	-0.470595	0.736338	0.671089	0.976284	0	0	-0.0869548	-0.47208	0.478139	0.841198	0	0	0
0.39898	0.131181	0.115446	-1.58075	0.231596	0.974715	-1.02745	0.49973	-0.245941	-0.100346	1.1732	-0.0449382	0	0	0.28255	0.133395	-0.358741	0.324776	0.197386	0	0	-0.0946652	-0.073268	-0.193639	0.0488078	-0.468511	0.753618	0.65246	0.960537	0	0	-0.0773203	-0.474859	0.468374	0.855808	0	0	0
0.405629	0.127655	0.115938	-1.57693	0.232137	0.975265	-1.01908	0.515171	-0.243126	-0.106161	1.16393	-0.0337203	0	0	0.270542	0.132416	-0.353609	0.319271	0.203584	0	0	-0.0952605	-0.0684532	-0.198815	0.0426593	-0.466265	0.771252	0.633718	0.943875	0	0	-0.0679517	-0.477622	0.458396	0.870729	0	0	0
0.412279	0.124128	0.116388	-1.573	0.232652	0.975749	-1.01069	0.529637	-0.2404	-0.112867	1.15175	-0.0232237	0	0	0.258449	0.131389	-0.348315	0.313642	0.209603	0	0	-0.0958395	-0.063665	-0.203978	0.0364135	-0.463837	0.789219	0.614886	0.926297	0	0	-0.0588812	-0.480378	0.448262	0.885956	0	0	0
0.418929	0.120638	0.11681	-1.56899	0.233141	0.976161	-1.0023	0.543108	-0.237777	-0.12043	1.13669	-0.0135109	0	0	0.2463	0.13033	-0.342897	0.307928	0.215457	0	0	-0.0963806	-0.0589477	-0.209126	0.0300595	-0.461211	0.807502	0.59599	0.907809	0	0	-0.0501364	-0.483135	0.438027	0.901482	0	0	0
0.425578	0.117216	0.117215	-1.5649	0.233601	0.976497	-0.993883	0.555566	-0.235261	-0.128818	1.11874	-0.00462534	0	0	0.234119	0.129251	-0.337394	0.302172	0.221152	0	0	-0.0968644	-0.054342	-0.214256	0.0235899	-0.458372	0.826088	0.577052	0.888423	0	0	-0.0417404	-0.485903	0.42775	0.917297	0	0	0
0.432228	0.113891	0.117614	-1.56076	0.234028	0.976754	-0.985449	0.566996	-0.232849	-0.137998	1.09795	0.00340435	0	0	0.221931	0.128162	-0.331847	0.296411	0.226696	0	0	-0.0972734	-0.049885	-0.21936	0.0170007	-0.455312	0.844969	0.558096	0.868158	0	0	-0.0337118	-0.48869	0.417487	0.933385	0	0	0
0.438878	0.110689	0.118017	-1.55657	0.234422	0.976928	-0.976992	0.577385	-0.23053	-0.147938	1.07434	0.0105601	0	0	0.209759	0.12707	-0.326302	0.290685	0.232091	0	0	-0.0975925	-0.0456096	-0.224431	0.0102916	-0.452023	0.86414	0.539143	0.847041	0	0	-0.0260648	-0.491505	0.407295	0.949728	0	0	0
0.445527	0.107633	0.118435	-1.55236	0.234778	0.977017	-0.96851	0.586724	-0.228287	-0.158605	1.04795	0.0168318	0	0	0.197623	0.125977	-0.320805	0.285031	0.237339	0	0	-0.0978091	-0.0415449	-0.229457	0.00346528	-0.448501	0.883595	0.52022	0.825107	0	0	-0.01881	-0.494354	0.397228	0.966301	0	0	0
0.452177	0.10474	0.118876	-1.54814	0.235095	0.977019	-0.959999	0.595008	-0.226098	-0.169964	1.01884	0.0222159	0	0	0.185546	0.124885	-0.315401	0.279487	0.242439	0	0	-0.0979127	-0.0377157	-0.234427	-0.0034722	-0.444748	0.903332	0.501351	0.802402	0	0	-0.0119543	-0.497243	0.387335	0.983078	0	0	0
0.458827	0.102027	0.119346	-1.54394	0.235369	0.976935	-0.951458	0.602236	-0.223935	-0.181977	0.987071	0.026715	0	0	0.173545	0.123792	-0.310138	0.274089	0.247387	0	0	-0.0978956	-0.0341426	-0.239325	-0.0105122	-0.440769	0.923342	0.482568	0.778979	0	0	-0.00550213	-0.500174	0.377666	1.00003	0	0	0
0.465476	0.0995057	0.119853	-1.53978	0.235598	0.976763	-0.942883	0.608413	-0.221765	-0.194599	0.952739	0.0303391	0	0	0.161639	0.122696	-0.305062	0.268874	0.252179	0	0	-0.0977523	-0.0308418	-0.244135	-0.0176436	-0.436572	0.943613	0.463905	0.754906	0	0	0.000544654	-0.503151	0.368262	1.01711	0	0	0
0.472126	0.0971855	0.120401	-1.53566	0.23578	0.976504	-0.934274	0.613551	-0.219554	-0.207776	0.915961	0.0331061	0	0	0.149844	0.12159	-0.300219	0.263878	0.256811	0	0	-0.0974793	-0.0278254	-0.24884	-0.0248536	-0.432173	0.964127	0.445402	0.730258	0	0	0.00618588	-0.506171	0.359161	1.0343	0	0	0
0.478776	0.0950717	0.120993	-1.53162	0.235913	0.97616	-0.925628	0.617666	-0.217264	-0.221443	0.876887	0.0350444	0	0	0.138177	0.120467	-0.295648	0.259138	0.261278	0	0	-0.0970757	-0.0251008	-0.253421	-0.0321278	-0.42759	0.984855	0.427102	0.705127	0	0	0.0114226	-0.509232	0.350396	1.05155	0	0	0
0.485425	0.0931668	0.121631	-1.52767	0.235993	0.975731	-0.916942	0.620787	-0.214857	-0.235518	0.835699	0.0361938	0	0	0.126652	0.119319	-0.291389	0.254693	0.265575	0	0	-0.0965424	-0.0226711	-0.257857	-0.0394508	-0.422847	1.00576	0.409059	0.679616	0	0	0.0162567	-0.512329	0.341993	1.06883	0	0	0
0.492075	0.0914693	0.122314	-1.52383	0.23602	0.975221	-0.908216	0.622947	-0.212292	-0.249904	0.792618	0.0366071	0	0	0.115284	0.118132	-0.287471	0.250581	0.269695	0	0	-0.0958829	-0.0205345	-0.262127	-0.0468061	-0.417972	1.02678	0.391329	0.653843	0	0	0.0206904	-0.515454	0.333975	1.08608	0	0	0
0.498724	0.0899744	0.123041	-1.52012	0.235991	0.974632	-0.899446	0.624189	-0.20953	-0.264481	0.747909	0.0363496	0	0	0.104084	0.116894	-0.283919	0.246843	0.273635	0	0	-0.0951028	-0.0186845	-0.266209	-0.0541764	-0.412998	1.04785	0.373974	0.627937	0	0	0.024726	-0.518595	0.326357	1.10327	0	0	0
0.505374	0.0886731	0.123804	-1.51655	0.235906	0.973968	-0.890631	0.624564	-0.206533	-0.279107	0.701877	0.0354986	0	0	0.0930657	0.115586	-0.280748	0.243524	0.277387	0	0	-0.0942102	-0.0171094	-0.270081	-0.0615437	-0.407961	1.0689	0.357063	0.60204	0	0	0.0283659	-0.52174	0.319149	1.12035	0	0	0
0.512024	0.0875527	0.124597	-1.51314	0.235763	0.973233	-0.881768	0.624129	-0.203269	-0.293619	0.654877	0.0341409	0	0	0.0822385	0.114188	-0.277964	0.24067	0.280943	0	0	-0.0932163	-0.015792	-0.273721	-0.0688885	-0.4029	1.08982	0.340665	0.576301	0	0	0.0316121	-0.524872	0.312359	1.13727	0	0	0
0.518673	0.0865959	0.125406	-1.50989	0.235563	0.972431	-0.872855	0.622949	-0.19971	-0.307835	0.607305	0.0323698	0	0	0.0716117	0.112674	-0.275561	0.238329	0.284294	0	0	-0.0921351	-0.0147093	-0.277108	-0.0761902	-0.397859	1.11053	0.324853	0.550879	0	0	0.034467	-0.527971	0.30599	1.154	0	0	0
0.525323	0.0857812	0.126217	-1.50682	0.235306	0.971569	-0.863887	0.621093	-0.195836	-0.32156	0.559602	0.0302798	0	0	0.0611929	0.111017	-0.273523	0.236555	0.287421	0	0	-0.0909841	-0.0138325	-0.280222	-0.0834257	-0.392883	1.13091	0.309699	0.52593	0	0	0.0369327	-0.531016	0.30004	1.17049	0	0	0
0.531973	0.0850824	0.127009	-1.50392	0.234991	0.970652	-0.854863	0.618637	-0.191641	-0.334595	0.512244	0.0279619	0	0	0.0509885	0.109184	-0.271822	0.235406	0.290304	0	0	-0.0897844	-0.0131261	-0.283044	-0.0905694	-0.388016	1.15085	0.295271	0.501612	0	0	0.0390122	-0.533981	0.294508	1.18668	0	0	0
0.538622	0.0844688	0.127758	-1.5012	0.234622	0.969689	-0.84578	0.615654	-0.18713	-0.346747	0.465742	0.0254974	0	0	0.0410043	0.107136	-0.270419	0.234941	0.292909	0	0	-0.0885607	-0.0125487	-0.285559	-0.0975925	-0.383304	1.17025	0.281632	0.47807	0	0	0.0407091	-0.53684	0.289389	1.20254	0	0	0
0.545272	0.0839053	0.128438	-1.49866	0.2342	0.968688	-0.836634	0.612222	-0.182323	-0.357849	0.420629	0.0229522	0	0	0.0312459	0.104834	-0.269263	0.235227	0.295191	0	0	-0.0873412	-0.0120523	-0.287751	-0.104462	-0.378791	1.18901	0.268836	0.455434	0	0	0.0420281	-0.539562	0.284679	1.21801	0	0	0
0.551922	0.0833526	0.129017	-1.49628	0.233728	0.967658	-0.827421	0.608418	-0.17726	-0.367773	0.377449	0.0203719	0	0	0.0217202	0.102231	-0.2683	0.236335	0.297094	0	0	-0.086157	-0.0115833	-0.289608	-0.11114	-0.374517	1.20707	0.256928	0.433808	0	0	0.0429754	-0.542115	0.280375	1.23303	0	0	0
0.558571	0.0827679	0.129463	-1.49406	0.23321	0.966608	-0.81814	0.604316	-0.171994	-0.37645	0.336745	0.0177781	0	0	0.0124372	0.0992796	-0.267466	0.23834	0.298542	0	0	-0.0850412	-0.0110832	-0.291122	-0.117586	-0.370519	1.22437	0.245937	0.413276	0	0	0.0435589	-0.544466	0.276472	1.24756	0	0	0
0.565221	0.0821059	0.129742	-1.49197	0.23265	0.965551	-0.808788	0.599993	-0.166595	-0.383876	0.299046	0.0151675	0	0	0.00341181	0.0959302	-0.266695	0.241323	0.299442	0	0	-0.0840276	-0.0104897	-0.292283	-0.123755	-0.36683	1.24086	0.235886	0.393907	0	0	0.0437886	-0.546582	0.27297	1.26155	0	0	0
0.571871	0.0813197	0.129825	-1.49002	0.232052	0.964497	-0.799365	0.595523	-0.161142	-0.390127	0.264847	0.0125126	0	0	-0.00533334	0.0921324	-0.265925	0.245371	0.299684	0	0	-0.0831487	-0.00973897	-0.293085	-0.129602	-0.363481	1.25651	0.226786	0.375758	0	0	0.0436763	-0.548429	0.26987	1.27492	0	0	0
0.57852	0.0803625	0.129682	-1.48818	0.23142	0.963457	-0.789868	0.590981	-0.155721	-0.39535	0.234594	0.00976536	0	0	-0.0137656	0.0878377	-0.265094	0.250573	0.299138	0	0	-0.0824341	-0.008767	-0.293522	-0.135079	-0.360497	1.27128	0.218643	0.358882	0	0	0.0432354	-0.549976	0.267174	1.28763	0	0	0
0.58517	0.0791887	0.129292	-1.48645	0.230757	0.962443	-0.780301	0.586444	-0.150416	-0.399757	0.208667	0.00686317	0	0	-0.02184	0.0830002	-0.264149	0.257026	0.297656	0	0	-0.0819083	-0.00751244	-0.293588	-0.140139	-0.357896	1.28515	0.211451	0.343321	0	0	0.0424797	-0.551195	0.264886	1.29961	0	0	0
0.59182	0.0777551	0.12864	-1.4848	0.230069	0.961464	-0.770664	0.581983	-0.145306	-0.403597	0.187355	0.00373568	0	0	-0.0294982	0.0775792	-0.263048	0.264829	0.295075	0	0	-0.0815892	-0.00591856	-0.29328	-0.144731	-0.355694	1.29809	0.205196	0.329098	0	0	0.0414223	-0.552059	0.26301	1.31082	0	0	0
0.598469	0.0760225	0.127719	-1.48325	0.229356	0.960532	-0.760961	0.577663	-0.140451	-0.40713	0.170843	0.000313526	0	0	-0.0366679	0.0715402	-0.26176	0.274082	0.29122	0	0	-0.081487	-0.00393521	-0.292594	-0.148802	-0.353896	1.31014	0.199851	0.316205	0	0	0.0400753	-0.552551	0.261552	1.32118	0	0	0
0.605119	0.0739572	0.126531	-1.48177	0.228622	0.959656	-0.751199	0.573538	-0.135895	-0.410601	0.159194	-0.00346245	0	0	-0.0432634	0.0648575	-0.260265	0.284884	0.285907	0	0	-0.081604	-0.00152048	-0.291529	-0.1523	-0.352501	1.32132	0.195378	0.304607	0	0	0.0384497	-0.552657	0.260515	1.33066	0	0	0
0.611769	0.0715316	0.125086	-1.48038	0.227867	0.958844	-0.741383	0.569644	-0.131657	-0.414206	0.152345	-0.00763114	0	0	-0.0491879	0.057515	-0.258556	0.297332	0.278955	0	0	-0.0819347	0.00135803	-0.290087	-0.15517	-0.351501	1.3317	0.191731	0.294235	0	0	0.0365557	-0.55237	0.259906	1.33919	0	0	0
0.618418	0.068726	0.123405	-1.47907	0.227091	0.958104	-0.731521	0.565997	-0.127732	-0.418082	0.150105	-0.0121996	0	0	-0.0543351	0.0495087	-0.256636	0.311513	0.270185	0	0	-0.0824664	0.00472197	-0.288267	-0.15736	-0.350878	1.34136	0.188856	0.284998	0	0	0.0344027	-0.55169	0.259731	1.34672	0	0	0
0.625068	0.0655293	0.121514	-1.47785	0.226294	0.957442	-0.721623	0.562597	-0.124096	-0.422299	0.152169	-0.017133	0	0	-0.0585923	0.0408483	-0.254511	0.327504	0.259436	0	0	-0.0831786	0.00858078	-0.286075	-0.158819	-0.350614	1.35038	0.186698	0.276803	0	0	0.0319995	-0.550625	0.259999	1.35321	0	0	0
0.631718	0.0619404	0.119447	-1.47673	0.225474	0.956864	-0.711697	0.559421	-0.120701	-0.426853	0.158132	-0.0223473	0	0	-0.0618435	0.0315587	-0.252194	0.345362	0.246574	0	0	-0.0840445	0.0129313	-0.283517	-0.159502	-0.350686	1.35883	0.185202	0.269562	0	0	0.0293543	-0.549189	0.260718	1.35861	0	0	0
0.638367	0.0579674	0.117245	-1.47572	0.224631	0.956375	-0.701755	0.556434	-0.117486	-0.431674	0.167513	-0.0277057	0	0	-0.0639743	0.02168	-0.249697	0.365127	0.231501	0	0	-0.0850329	0.0177577	-0.280602	-0.159368	-0.351067	1.36675	0.184321	0.263204	0	0	0.0264749	-0.547402	0.261897	1.36288	0	0	0
0.645017	0.0536278	0.114949	-1.47484	0.223761	0.955979	-0.691807	0.553585	-0.114375	-0.436645	0.179776	-0.0330201	0	0	-0.0648757	0.011267	-0.24703	0.386815	0.214172	0	0	-0.0861102	0.0230328	-0.277341	-0.158383	-0.351735	1.37415	0.184014	0.257688	0	0	0.0233689	-0.54529	0.263548	1.36597	0	0	0
0.651667	0.048948	0.112605	-1.47409	0.222863	0.955679	-0.681865	0.550815	-0.111286	-0.441622	0.194365	-0.0380598	0	0	-0.0644478	0.000388747	-0.2442	0.410414	0.1946	0	0	-0.0872418	0.0287177	-0.273752	-0.156517	-0.352666	1.38102	0.184252	0.253	0	0	0.0200428	-0.542884	0.265678	1.36787	0	0	0
0.658316	0.0439633	0.110256	-1.47349	0.221935	0.955476	-0.67194	0.548059	-0.108141	-0.446451	0.210721	-0.042565	0	0	-0.0626034	-0.0108721	-0.241207	0.435885	0.172874	0	0	-0.0883938	0.0347628	-0.269854	-0.153749	-0.35384	1.38732	0.185016	0.249161	0	0	0.0165022	-0.540218	0.268293	1.36853	0	0	0
0.664966	0.0387165	0.107944	-1.47305	0.220977	0.955374	-0.662043	0.545252	-0.104863	-0.450984	0.228308	-0.0462669	0	0	-0.0592714	-0.0224203	-0.238046	0.463159	0.149165	0	0	-0.0895341	0.0411081	-0.265673	-0.150063	-0.355242	1.39295	0.186307	0.246229	0	0	0.0127507	-0.53733	0.271398	1.36794	0	0	0
0.671616	0.033258	0.105707	-1.47279	0.219987	0.955372	-0.652183	0.542328	-0.101389	-0.455097	0.246618	-0.0489099	0	0	-0.0543987	-0.0341498	-0.234702	0.492135	0.123728	0	0	-0.0906334	0.0476856	-0.26124	-0.145453	-0.35686	1.3978	0.188134	0.244292	0	0	0.00879144	-0.53426	0.274993	1.36609	0	0	0
0.678265	0.0276445	0.103581	-1.47271	0.218967	0.95547	-0.642371	0.53922	-0.0976705	-0.458696	0.265193	-0.0502739	0	0	-0.0479522	-0.0459455	-0.231158	0.522683	0.0969064	0	0	-0.0916667	0.0544202	-0.25659	-0.139919	-0.358687	1.40173	0.190524	0.243467	0	0	0.00462826	-0.531047	0.27908	1.36297	0	0	0
0.684915	0.0219383	0.101594	-1.47283	0.217916	0.955669	-0.632616	0.535865	-0.0936757	-0.461722	0.283617	-0.0501905	0	0	-0.0399197	-0.0576858	-0.227389	0.55464	0.0691266	0	0	-0.0926136	0.0612322	-0.25176	-0.133475	-0.36072	1.40457	0.193514	0.243891	0	0	0.000267081	-0.527733	0.28366	1.35858	0	0	0
0.691565	0.0162058	0.0997694	-1.47313	0.216839	0.955967	-0.622924	0.532201	-0.0893913	-0.464147	0.301531	-0.0485555	0	0	-0.0303111	-0.0692451	-0.223374	0.587817	0.0408875	0	0	-0.0934596	0.0680396	-0.246789	-0.12614	-0.362957	1.40612	0.19715	0.24572	0	0	-0.00428346	-0.524358	0.288737	1.35292	0	0	0
0.698214	0.0105155	0.0981239	-1.47363	0.215737	0.956362	-0.613304	0.52817	-0.084822	-0.465974	0.318623	-0.0453333	0	0	-0.0191575	-0.0804978	-0.219094	0.621998	0.0127459	0	0	-0.0941962	0.0747594	-0.241718	-0.117949	-0.365402	1.40619	0.201491	0.249124	0	0	-0.00901133	-0.52096	0.294317	1.34601	0	0	0
0.704864	0.00493674	0.0966678	-1.47432	0.214613	0.956851	-0.603759	0.523717	-0.0799886	-0.467227	0.334636	-0.0405565	0	0	-0.00651113	-0.0913211	-0.214538	0.656943	-0.014705	0	0	-0.0948209	0.0813104	-0.236583	-0.108945	-0.36806	1.40454	0.2066	0.254278	0	0	-0.0139007	-0.517574	0.300406	1.33785	0	0	0
0.711514	-0.000462144	0.0954047	-1.4752	0.213473	0.957433	-0.594294	0.518794	-0.0749267	-0.467949	0.349362	-0.0343185	0	0	0.00755581	-0.101599	-0.209708	0.692393	-0.0408592	0	0	-0.0953367	0.0876148	-0.231421	-0.0991811	-0.370937	1.40095	0.212549	0.261364	0	0	-0.0189321	-0.514233	0.307017	1.32846	0	0	0
0.718163	-0.00561571	0.0943325	-1.47625	0.21232	0.958103	-0.584912	0.513361	-0.0696836	-0.46819	0.362643	-0.0267636	0	0	0.0229531	-0.111225	-0.204622	0.728072	-0.0651258	0	0	-0.0957525	0.0936001	-0.226262	-0.0887226	-0.374042	1.39521	0.21941	0.270556	0	0	-0.0240823	-0.510966	0.31416	1.31787	0	0	0
0.724813	-0.0104627	0.0934433	-1.47748	0.211159	0.958857	-0.575615	0.507385	-0.0643157	-0.468007	0.374366	-0.0180747	0	0	0.0395739	-0.120106	-0.199312	0.763692	-0.0869538	0	0	-0.0960817	0.0992	-0.221132	-0.0776415	-0.37738	1.38708	0.227254	0.282014	0	0	-0.0293255	-0.507797	0.321847	1.3061	0	0	0
0.731463	-0.0149475	0.0927243	-1.47888	0.209995	0.959691	-0.566404	0.500841	-0.0588852	-0.467452	0.384463	-0.00845952	0	0	0.0572968	-0.128162	-0.19383	0.798956	-0.105858	0	0	-0.0963422	0.104356	-0.21605	-0.0660171	-0.380958	1.3764	0.236147	0.295874	0	0	-0.0346339	-0.504745	0.330092	1.29319	0	0	0
0.738112	-0.0190212	0.0921588	-1.48044	0.208832	0.960599	-0.557279	0.493715	-0.0534576	-0.466576	0.392903	0.00186312	0	0	0.0759888	-0.135333	-0.188244	0.833565	-0.12144	0	0	-0.096555	0.109018	-0.211029	-0.0539326	-0.384776	1.36301	0.246142	0.312225	0	0	-0.0399792	-0.501825	0.338903	1.27916	0	0	0
0.744762	-0.0226425	0.0917268	-1.48216	0.207673	0.961576	-0.548237	0.486003	-0.0480981	-0.465421	0.399694	0.0126757	0	0	0.0955075	-0.141574	-0.182636	0.867219	-0.133411	0	0	-0.096743	0.113144	-0.206076	-0.0414718	-0.388827	1.34684	0.257276	0.331101	0	0	-0.0453336	-0.499047	0.348285	1.26407	0	0	0
0.751412	-0.0257775	0.0914059	-1.48403	0.206523	0.962616	-0.539277	0.477708	-0.0428705	-0.464023	0.404872	0.0237695	0	0	0.115703	-0.146856	-0.177097	0.899622	-0.141592	0	0	-0.0969309	0.1167	-0.20119	-0.0287152	-0.393094	1.3279	0.269557	0.352448	0	0	-0.0506729	-0.496414	0.358238	1.24796	0	0	0
0.758061	-0.0284	0.0911715	-1.48605	0.205384	0.963712	-0.530397	0.468841	-0.0378345	-0.462408	0.408501	0.0349528	0	0	0.13642	-0.151171	-0.17173	0.930489	-0.145925	0	0	-0.097144	0.119662	-0.196368	-0.0157337	-0.397549	1.30632	0.282957	0.376106	0	0	-0.0559781	-0.493929	0.368748	1.23088	0	0	0
0.764711	-0.0304922	0.0909992	-1.48824	0.204259	0.964857	-0.521592	0.459421	-0.0330437	-0.460597	0.410664	0.0460587	0	0	0.157504	-0.154522	-0.166637	0.959546	-0.146474	0	0	-0.0974058	0.122011	-0.191604	-0.00258421	-0.402143	1.28237	0.297405	0.401783	0	0	-0.0612375	-0.491586	0.379791	1.21289	0	0	0
0.771361	-0.0320451	0.0908657	-1.49058	0.203148	0.966043	-0.512858	0.449474	-0.028544	-0.458606	0.411461	0.0569498	0	0	0.178801	-0.156931	-0.161921	0.986541	-0.143415	0	0	-0.0977362	0.123739	-0.18689	0.0106946	-0.406817	1.25646	0.312785	0.42905	0	0	-0.0664478	-0.489377	0.391329	1.19407	0	0	0
0.77801	-0.0330589	0.0907489	-1.49309	0.202052	0.967264	-0.504192	0.439028	-0.0243716	-0.456447	0.411001	0.0675191	0	0	0.200166	-0.158432	-0.157679	1.01124	-0.13702	0	0	-0.0981528	0.124845	-0.182213	0.0240617	-0.411516	1.22898	0.328995	0.457516	0	0	-0.0716084	-0.48729	0.403318	1.17447	0	0	0
0.78466	-0.0335431	0.0906285	-1.49576	0.200973	0.968511	-0.495588	0.428119	-0.0205526	-0.45413	0.409399	0.0776889	0	0	0.221457	-0.159076	-0.154	1.03345	-0.127644	0	0	-0.0986702	0.125339	-0.177557	0.0374772	-0.41619	1.20029	0.345936	0.486821	0	0	-0.0767225	-0.48531	0.415709	1.15418	0	0	0
0.79131	-0.0335152	0.0904866	-1.4986	0.19991	0.969774	-0.487041	0.416782	-0.0171029	-0.451662	0.406776	0.0874082	0	0	0.242545	-0.158921	-0.150964	1.05297	-0.115702	0	0	-0.0992998	0.12524	-0.172903	0.050905	-0.420799	1.17074	0.363518	0.516623	0	0	-0.0817982	-0.483419	0.42844	1.13326	0	0	0
0.797959	-0.0330006	0.0903076	-1.50162	0.198863	0.971046	-0.478546	0.405054	-0.0140285	-0.449055	0.403246	0.0966497	0	0	0.263308	-0.158035	-0.14864	1.06968	-0.101646	0	0	-0.100049	0.124576	-0.168231	0.0643121	-0.425307	1.14066	0.381659	0.546612	0	0	-0.086848	-0.481596	0.441443	1.11179	0	0	0
0.804609	-0.0320315	0.0900785	-1.50482	0.197831	0.972318	-0.470099	0.392974	-0.0113261	-0.446315	0.398924	0.105406	0	0	0.283637	-0.156496	-0.147085	1.08344	-0.0859483	0	0	-0.100923	0.123378	-0.163521	0.0776688	-0.429687	1.11036	0.400286	0.57651	0	0	-0.0918886	-0.479818	0.454642	1.08986	0	0	0
0.811259	-0.0306454	0.0897891	-1.50819	0.196815	0.97358	-0.461693	0.380577	-0.00898427	-0.443453	0.393919	0.113686	0	0	0.303435	-0.154382	-0.146344	1.09417	-0.0690769	0	0	-0.101922	0.121689	-0.158753	0.0909473	-0.433922	1.08009	0.419337	0.606081	0	0	-0.09694	-0.478062	0.467952	1.06755	0	0	0
0.817908	-0.0288849	0.089432	-1.51175	0.195813	0.974823	-0.453323	0.367902	-0.00698453	-0.440478	0.388331	0.12151	0	0	0.322617	-0.151777	-0.14645	1.1018	-0.0514821	0	0	-0.103044	0.119553	-0.153908	0.104121	-0.438	1.05009	0.438765	0.635129	0	0	-0.102025	-0.476303	0.481286	1.04494	0	0	0
0.824558	-0.0267956	0.0890023	-1.51549	0.194827	0.976038	-0.444986	0.354985	-0.00530323	-0.437399	0.382257	0.128908	0	0	0.341108	-0.148764	-0.147426	1.10629	-0.0335815	0	0	-0.104283	0.117019	-0.148968	0.117164	-0.441921	1.02054	0.458533	0.663509	0	0	-0.107166	-0.474517	0.494549	1.0221	0	0	0
0.831207	-0.0244252	0.0884981	-1.51941	0.193855	0.977217	-0.436675	0.341861	-0.00391315	-0.434223	0.375784	0.135918	0	0	0.358845	-0.145424	-0.149284	1.10764	-0.0157503	0	0	-0.105631	0.114142	-0.143919	0.130052	-0.445691	0.991595	0.478613	0.691107	0	0	-0.112389	-0.472681	0.507646	0.999131	0	0	0
0.837857	-0.021822	0.0879198	-1.52351	0.192898	0.978349	-0.428386	0.328568	-0.00278531	-0.430956	0.368996	0.14258	0	0	0.375778	-0.141835	-0.152029	1.10585	0.00168521	0	0	-0.107076	0.110973	-0.138748	0.142763	-0.449321	0.963386	0.498985	0.717844	0	0	-0.117718	-0.470773	0.520478	0.976102	0	0	0
0.844507	-0.0190339	0.0872703	-1.52778	0.191957	0.979427	-0.420115	0.315141	-0.00189065	-0.427605	0.361971	0.148936	0	0	0.391863	-0.138066	-0.155657	1.10093	0.0184506	0	0	-0.108606	0.107568	-0.133446	0.155276	-0.452826	0.936011	0.519633	0.743668	0	0	-0.123178	-0.468771	0.532948	0.953095	0	0	0
0.851156	-0.0161072	0.086555	-1.53221	0.191034	0.980442	-0.411858	0.301615	-0.00120149	-0.424171	0.354784	0.15503	0	0	0.407068	-0.134184	-0.160159	1.09294	0.0343235	0	0	-0.110205	0.103978	-0.128009	0.167573	-0.456228	0.909546	0.540547	0.768547	0	0	-0.128792	-0.466659	0.54496	0.930188	0	0	0
0.857806	-0.0130857	0.0857809	-1.53679	0.190129	0.981386	-0.40361	0.288029	-0.000692811	-0.420659	0.347507	0.160906	0	0	0.421367	-0.130244	-0.16552	1.08192	0.0491312	0	0	-0.111856	0.100256	-0.122435	0.179638	-0.459547	0.884048	0.561717	0.792473	0	0	-0.13458	-0.464421	0.556423	0.907455	0	0	0
0.864456	-0.0100101	0.0849567	-1.54152	0.189245	0.982252	-0.395367	0.27442	-0.000343154	-0.417071	0.340209	0.166607	0	0	0.434743	-0.126292	-0.171724	1.06795	0.0627471	0	0	-0.11354	0.0964492	-0.116725	0.191456	-0.462807	0.859554	0.583136	0.815453	0	0	-0.140558	-0.462046	0.567251	0.884971	0	0	0
0.871105	-0.00691736	0.0840925	-1.54639	0.188383	0.983033	-0.387126	0.260825	-0.000135191	-0.413409	0.332961	0.172174	0	0	0.447186	-0.122368	-0.178748	1.0511	0.075086	0	0	-0.115238	0.0926022	-0.110883	0.203012	-0.466033	0.836084	0.604794	0.837511	0	0	-0.14674	-0.459525	0.577367	0.862805	0	0	0
0.877755	-0.00384018	0.0831993	-1.55138	0.187546	0.983722	-0.378883	0.247282	-5.60314e-05	-0.409678	0.325829	0.177647	0	0	0.458689	-0.1185	-0.186569	1.03146	0.086098	0	0	-0.116931	0.0887556	-0.104918	0.214293	-0.469247	0.813646	0.62668	0.858675	0	0	-0.153133	-0.456855	0.586701	0.841025	0	0	0
0.884405	-0.000807085	0.0822885	-1.55649	0.186736	0.984314	-0.370635	0.23383	-9.71359e-05	-0.405884	0.318882	0.183064	0	0	0.469254	-0.114708	-0.195162	1.00915	0.0957643	0	0	-0.1186	0.0849454	-0.0988407	0.225288	-0.472471	0.792241	0.64878	0.878979	0	0	-0.159744	-0.454035	0.595194	0.819697	0	0	0
0.891054	0.00215777	0.0813716	-1.56169	0.185955	0.984803	-0.362379	0.220504	-0.000253934	-0.402035	0.312184	0.18846	0	0	0.478886	-0.111004	-0.204497	0.984268	0.104091	0	0	-0.120226	0.0812029	-0.0926644	0.235988	-0.475724	0.771865	0.671075	0.898453	0	0	-0.16657	-0.451069	0.602799	0.798884	0	0	0
0.897704	0.00503442	0.0804597	-1.56698	0.185206	0.985186	-0.354111	0.207341	-0.000525225	-0.398143	0.305801	0.193866	0	0	0.487593	-0.107391	-0.214544	0.956957	0.111108	0	0	-0.121791	0.0775545	-0.0864055	0.246386	-0.479022	0.752505	0.693539	0.917129	0	0	-0.173608	-0.447964	0.60948	0.778644	0	0	0
0.904354	0.00780688	0.0795635	-1.57235	0.184492	0.98546	-0.345828	0.194374	-0.000912427	-0.394223	0.299793	0.199311	0	0	0.49539	-0.103865	-0.225266	0.927361	0.116859	0	0	-0.123278	0.0740223	-0.0800824	0.256473	-0.482378	0.734147	0.716146	0.935034	0	0	-0.180847	-0.444732	0.615212	0.759033	0	0	0
0.911003	0.0104628	0.0786923	-1.57777	0.183813	0.985622	-0.337528	0.181634	-0.00141877	-0.390293	0.294217	0.204819	0	0	0.502296	-0.100418	-0.236622	0.89564	0.121406	0	0	-0.124672	0.0706237	-0.0737148	0.266243	-0.4858	0.716767	0.738861	0.952196	0	0	-0.188274	-0.441387	0.619987	0.740104	0	0	0
0.917653	0.0129933	0.0778543	-1.58323	0.183173	0.98567	-0.329207	0.169148	-0.0020485	-0.386375	0.289125	0.210411	0	0	0.508333	-0.0970349	-0.248566	0.861972	0.124822	0	0	-0.125961	0.067372	-0.0673236	0.275689	-0.489296	0.700339	0.76165	0.968638	0	0	-0.195868	-0.437947	0.623809	0.721904	0	0	0
0.924303	0.0153924	0.0770563	-1.58873	0.182571	0.985606	-0.320863	0.15694	-0.00280612	-0.382492	0.284564	0.216102	0	0	0.513529	-0.0936967	-0.261038	0.826549	0.127193	0	0	-0.127134	0.0642763	-0.0609303	0.284802	-0.492867	0.68483	0.784471	0.984384	0	0	-0.203608	-0.434434	0.626697	0.704475	0	0	0
0.930952	0.0176568	0.0763035	-1.59424	0.18201	0.985429	-0.312492	0.145028	-0.00369578	-0.378672	0.280573	0.221902	0	0	0.517914	-0.0903815	-0.273975	0.789581	0.128609	0	0	-0.128181	0.0613424	-0.054557	0.293575	-0.496511	0.670203	0.807284	0.999455	0	0	-0.211466	-0.430868	0.628683	0.687854	0	0	0
0.937602	0.0197857	0.0755991	-1.59975	0.181489	0.985141	-0.304094	0.133426	-0.00472082	-0.374942	0.277185	0.227817	0	0	0.521525	-0.0870649	-0.287297	0.751289	0.129173	0	0	-0.129097	0.0585725	-0.0482255	0.302	-0.500223	0.656416	0.830046	1.01387	0	0	-0.219414	-0.427275	0.629811	0.67207	0	0	0
0.944252	0.0217803	0.0749449	-1.60525	0.18101	0.984746	-0.295665	0.122143	-0.00588342	-0.371331	0.274423	0.233847	0	0	0.524402	-0.0837215	-0.300915	0.711908	0.128989	0	0	-0.129878	0.0559656	-0.0419574	0.310067	-0.503997	0.643424	0.852712	1.02765	0	0	-0.227419	-0.42368	0.63014	0.657146	0	0	0
0.950901	0.0236439	0.0743409	-1.61071	0.180571	0.984247	-0.287203	0.111183	-0.00718448	-0.367866	0.272302	0.239988	0	0	0.526589	-0.0803256	-0.314729	0.671678	0.128165	0	0	-0.130521	0.0535182	-0.0357731	0.31777	-0.507821	0.631176	0.87524	1.04082	0	0	-0.235449	-0.420108	0.629736	0.643096	0	0	0
0.957551	0.0253814	0.0737858	-1.61614	0.180173	0.983649	-0.278706	0.100543	-0.0086235	-0.364574	0.270827	0.246232	0	0	0.528135	-0.0768526	-0.328628	0.630844	0.12681	0	0	-0.131028	0.0512238	-0.0296918	0.325101	-0.511684	0.61962	0.89759	1.05339	0	0	-0.243472	-0.416582	0.628675	0.629922	0	0	0
0.964201	0.0269993	0.0732767	-1.6215	0.179814	0.982959	-0.270174	0.0902173	-0.0101987	-0.361476	0.269995	0.252566	0	0	0.529089	-0.0732805	-0.342495	0.58965	0.125031	0	0	-0.1314	0.0490741	-0.0237306	0.332055	-0.515573	0.608701	0.919723	1.0654	0	0	-0.251455	-0.413127	0.62704	0.61762	0	0	0
0.97085	0.0285057	0.0728098	-1.6268	0.179494	0.982182	-0.261606	0.0801928	-0.0119069	-0.358592	0.269794	0.258973	0	0	0.529506	-0.0695905	-0.356209	0.548327	0.122931	0	0	-0.131643	0.0470583	-0.0179041	0.338629	-0.519473	0.598362	0.941609	1.07686	0	0	-0.259368	-0.409761	0.624919	0.606171	0	0	0
0.9775	0.0299097	0.0723804	-1.63202	0.179209	0.981326	-0.253	0.0704537	-0.0137438	-0.355932	0.270202	0.265436	0	0	0.529441	-0.0657687	-0.369653	0.507093	0.120604	0	0	-0.131762	0.0451642	-0.0122234	0.344825	-0.523371	0.588542	0.96322	1.0878	0	0	-0.267184	-0.406503	0.6224	0.595547	0	0	0
0.98415	0.0312217	0.0719833	-1.63715	0.178958	0.980399	-0.244359	0.0609799	-0.0157038	-0.353503	0.271189	0.271934	0	0	0.528948	-0.0618065	-0.382719	0.46614	0.118134	0	0	-0.131764	0.0433782	-0.00669582	0.350648	-0.527254	0.579183	0.984539	1.09826	0	0	-0.274881	-0.403366	0.61957	0.585706	0	0	0
0.990799	0.0324525	0.0716135	-1.64218	0.178737	0.979409	-0.235682	0.051748	-0.01778	-0.351302	0.272714	0.278447	0	0	0.528084	-0.057702	-0.395315	0.42563	0.115594	0	0	-0.13166	0.0416859	-0.00132371	0.356107	-0.531111	0.570224	1.00555	1.10827	0	0	-0.282441	-0.400358	0.616512	0.576598	0	0	0
0.997449	0.0336136	0.0712658	-1.64712	0.178546	0.978366	-0.226972	0.0427325	-0.019964	-0.349319	0.274732	0.284957	0	0	0.526902	-0.0534593	-0.407374	0.385687	0.113042	0	0	-0.131459	0.0400725	0.0038958	0.361218	-0.534934	0.561602	1.02627	1.11788	0	0	-0.289851	-0.397484	0.613302	0.568159	0	0	0
1.0041	0.0347162	0.0709363	-1.65197	0.178379	0.977277	-0.218231	0.0339066	-0.0222456	-0.347536	0.27719	0.291446	0	0	0.525455	-0.0490891	-0.418859	0.34639	0.110521	0	0	-0.131172	0.0385236	0.0089715	0.366002	-0.538717	0.553255	1.04669	1.12714	0	0	-0.297107	-0.394742	0.610006	0.560315	0	0	0
1.01075	0.0357713	0.0706215	-1.65673	0.178233	0.97615	-0.209463	0.0252428	-0.0246132	-0.345929	0.280028	0.297901	0	0	0.523796	-0.0446076	-0.429769	0.307772	0.108059	0	0	-0.130809	0.0370256	0.0139173	0.370487	-0.542459	0.545126	1.06685	1.13609	0	0	-0.304208	-0.392126	0.606679	0.552986	0	0	0
1.0174	0.036789	0.0703195	-1.66141	0.178105	0.974995	-0.200671	0.0167138	-0.0270531	-0.344469	0.283184	0.304314	0	0	0.521972	-0.0400351	-0.440137	0.269818	0.105668	0	0	-0.130382	0.0355664	0.0187517	0.374708	-0.546162	0.537158	1.08676	1.14479	0	0	-0.311165	-0.389622	0.60336	0.546084	0	0	0
1.02405	0.0377781	0.0700289	-1.66602	0.177991	0.973817	-0.191862	0.00829325	-0.0295505	-0.343122	0.286592	0.310683	0	0	0.52003	-0.035394	-0.450032	0.232465	0.103349	0	0	-0.129902	0.0341361	0.0234964	0.378707	-0.549829	0.529304	1.10648	1.15329	0	0	-0.317994	-0.387214	0.600076	0.539518	0	0	0
1.0307	0.0387466	0.0697494	-1.67058	0.177888	0.972624	-0.183039	-4.40594e-05	-0.0320898	-0.341856	0.290187	0.317009	0	0	0.518009	-0.030707	-0.459548	0.195611	0.101093	0	0	-0.129379	0.0327262	0.0281752	0.382532	-0.55347	0.521521	1.12605	1.16164	0	0	-0.324717	-0.384883	0.596838	0.533199	0	0	0
1.03735	0.0397008	0.0694804	-1.6751	0.177791	0.971422	-0.174208	-0.00832187	-0.0346557	-0.340641	0.293908	0.323302	0	0	0.515946	-0.0259942	-0.468798	0.159125	0.0988847	0	0	-0.128824	0.0313304	0.0328116	0.386234	-0.557092	0.513776	1.14552	1.1699	0	0	-0.331362	-0.382604	0.593646	0.527042	0	0	0
1.044	0.0406464	0.06922	-1.67959	0.177698	0.970214	-0.165372	-0.0165626	-0.0372351	-0.339452	0.297699	0.329573	0	0	0.513865	-0.0212709	-0.477893	0.122861	0.0967041	0	0	-0.128249	0.0299434	0.0374267	0.389863	-0.560705	0.506047	1.16492	1.1781	0	0	-0.337958	-0.380357	0.590488	0.520973	0	0	0
1.05065	0.0415882	0.0689647	-1.68408	0.177607	0.969004	-0.156535	-0.024787	-0.0398185	-0.338271	0.301518	0.335835	0	0	0.511782	-0.0165456	-0.48693	0.0866876	0.0945344	0	0	-0.127665	0.0285605	0.0420354	0.393462	-0.564315	0.49832	1.1843	1.18628	0	0	-0.344533	-0.378121	0.587345	0.514935	0	0	0
