Coordinates
version=1
nRows=75
nColumns=38
inDegrees=no

Units are S.I. units (second, meters, Newtons, ...)
If the header above contains a line with 'inDegrees', this indicates whether rotational values are in degrees (yes) or radians (no).

endheader
time	pelvis_tilt	pelvis_list	pelvis_rotation	pelvis_tx	pelvis_ty	pelvis_tz	hip_flexion_r	hip_adduction_r	hip_rotation_r	knee_angle_r	ankle_angle_r	subtalar_angle_r	mtp_angle_r	hip_flexion_l	hip_adduction_l	hip_rotation_l	knee_angle_l	ankle_angle_l	subtalar_angle_l	mtp_angle_l	lumbar_extension	lumbar_bending	lumbar_rotation	arm_flex_r	arm_add_r	arm_rot_r	elbow_flex_r	pro_sup_r	wrist_flex_r	wrist_dev_r	arm_flex_l	arm_add_l	arm_rot_l	elbow_flex_l	pro_sup_l	wrist_flex_l	wrist_dev_l
2.6	-2.83069	0.0133929	-0.181207	2.22409	-1.00859	0.194545	-0.445386	-0.204241	-0.153934	0.667242	0.0945451	0	0	-0.463913	0.175341	-0.182625	0.00210616	0.00753707	0	0	0.0845812	0.0118302	-0.0988968	0	0	0	0	0	0	0	0	0	0	0	0	0	0
2.60999	-2.82841	-0.0102598	-0.165998	2.22268	-1.01029	0.190815	-0.414152	-0.173708	-0.157312	0.669409	0.101957	0	0	-0.472697	0.15179	-0.177769	-0.000517712	0.00781118	0	0	0.0390315	0.0434299	-0.0593302	0	0	0	0	0	0	0	0	0	0	0	0	0	0
2.61998	-2.82606	-0.0337088	-0.151043	2.22129	-1.01197	0.187144	-0.382923	-0.143445	-0.160558	0.671393	0.109108	0	0	-0.481406	0.128473	-0.173098	-0.00316254	0.00807604	0	0	-0.00694538	0.0748622	-0.0201869	0	0	0	0	0	0	0	0	0	0	0	0	0	0
2.62997	-2.82345	-0.0564638	-0.136683	2.21998	-1.0136	0.183642	-0.351894	-0.113974	-0.163668	0.672618	0.115619	0	0	-0.489959	0.105859	-0.168825	-0.00584415	0.00833186	0	0	-0.0535468	0.105501	0.018053	0	0	0	0	0	0	0	0	0	0	0	0	0	0
2.63995	-2.82037	-0.0777932	-0.123278	2.21882	-1.01517	0.180456	-0.32126	-0.0859968	-0.166619	0.672547	0.121178	0	0	-0.498103	0.0845402	-0.165186	-0.00854687	0.00855093	0	0	-0.10077	0.134307	0.0544503	0	0	0	0	0	0	0	0	0	0	0	0	0	0
2.64994	-2.81664	-0.0966376	-0.111286	2.21794	-1.01666	0.177795	-0.291207	-0.0604331	-0.169273	0.670367	0.125606	0	0	-0.505336	0.0653142	-0.162562	-0.0111969	0.00873417	0	0	-0.14848	0.159842	0.0872392	0	0	0	0	0	0	0	0	0	0	0	0	0	0
2.65993	-2.81217	-0.112286	-0.101144	2.21743	-1.01802	0.175856	-0.261968	-0.0378277	-0.171304	0.665341	0.128832	0	0	-0.511411	0.048732	-0.161159	-0.0136352	0.00900339	0	0	-0.196758	0.180901	0.115518	0	0	0	0	0	0	0	0	0	0	0	0	0	0
2.66992	-2.80705	-0.124265	-0.0932669	2.2173	-1.01923	0.174817	-0.233681	-0.0184496	-0.172256	0.656841	0.130913	0	0	-0.516262	0.0351701	-0.161042	-0.0155915	0.00951607	0	0	-0.245416	0.196003	0.138903	0	0	0	0	0	0	0	0	0	0	0	0	0	0
2.67991	-2.80161	-0.132207	-0.0880165	2.21752	-1.02022	0.174829	-0.206307	-0.00243796	-0.17169	0.64439	0.132171	0	0	-0.519944	0.0249273	-0.162092	-0.0166596	0.0105072	0	0	-0.293923	0.203752	0.157485	0	0	0	0	0	0	0	0	0	0	0	0	0	0
2.6899	-2.796	-0.136108	-0.0856373	2.21806	-1.02094	0.175962	-0.179939	0.0103269	-0.169109	0.62772	0.132647	0	0	-0.522588	0.0180706	-0.164217	-0.0162783	0.0122707	0	0	-0.342175	0.203407	0.171698	0	0	0	0	0	0	0	0	0	0	0	0	0	0
2.69989	-2.79012	-0.13627	-0.0862382	2.21891	-1.02134	0.178192	-0.15488	0.0201324	-0.164052	0.6068	0.132183	0	0	-0.524357	0.0145053	-0.167377	-0.0137205	0.015174	0	0	-0.390529	0.194825	0.18217	0	0	0	0	0	0	0	0	0	0	0	0	0	0
2.70987	-2.78352	-0.133255	-0.0898127	2.22003	-1.02135	0.181403	-0.131687	0.027373	-0.156131	0.581831	0.130499	0	0	-0.525426	0.0140316	-0.171562	-0.0080968	0.0196623	0	0	-0.439702	0.1784	0.189605	0	0	0	0	0	0	0	0	0	0	0	0	0	0
2.71986	-2.77563	-0.127659	-0.0962239	2.22144	-1.02094	0.185409	-0.110962	0.0324041	-0.145014	0.55318	0.12724	0	0	-0.525964	0.016353	-0.176878	0.00161837	0.0262764	0	0	-0.490716	0.154884	0.194726	0	0	0	0	0	0	0	0	0	0	0	0	0	0
2.72985	-2.76581	-0.12013	-0.105294	2.22322	-1.02008	0.189957	-0.0933236	0.0355308	-0.130465	0.521335	0.122056	0	0	-0.52612	0.0211152	-0.183428	0.0165314	0.0354961	0	0	-0.544752	0.125355	0.198214	0	0	0	0	0	0	0	0	0	0	0	0	0	0
2.73984	-2.75341	-0.11137	-0.116798	2.22541	-1.01879	0.194743	-0.0793554	0.0370357	-0.112388	0.486886	0.114662	0	0	-0.526019	0.027903	-0.191278	0.0377326	0.0477282	0	0	-0.602985	0.0911962	0.200689	0	0	0	0	0	0	0	0	0	0	0	0	0	0
2.74983	-2.73791	-0.102113	-0.130435	2.22806	-1.01706	0.19944	-0.0695444	0.0372215	-0.09086	0.45048	0.104865	0	0	-0.525763	0.0362307	-0.200443	0.0661476	0.0632904	0	0	-0.666388	0.0540378	0.202694	0	0	0	0	0	0	0	0	0	0	0	0	0	0
2.75982	-2.71906	-0.0930657	-0.145812	2.23115	-1.01494	0.203753	-0.0642173	0.0364411	-0.0661442	0.412763	0.0926046	0	0	-0.525428	0.0455551	-0.210854	0.102326	0.0823705	0	0	-0.73548	0.0156156	0.204684	0	0	0	0	0	0	0	0	0	0	0	0	0	0
2.76981	-2.69698	-0.0848237	-0.162408	2.23453	-1.0125	0.207455	-0.0634626	0.0350793	-0.0387241	0.374346	0.0779801	0	0	-0.525068	0.0553197	-0.222275	0.14621	0.104948	0	0	-0.810027	-0.0223552	0.207008	0	0	0	0	0	0	0	0	0	0	0	0	0	0
2.77979	-2.67232	-0.0777292	-0.179507	2.23795	-1.00982	0.210404	-0.0670026	0.0334528	-0.009406	0.335807	0.0612887	0	0	-0.524722	0.0650551	-0.234161	0.196829	0.130656	0	0	-0.888692	-0.0582824	0.209849	0	0	0	0	0	0	0	0	0	0	0	0	0	0
2.78978	-2.64641	-0.0716505	-0.196091	2.24097	-1.00704	0.212555	-0.0740301	0.0316208	0.0205372	0.297704	0.043081	0	0	-0.524411	0.0745511	-0.245424	0.251932	0.158599	0	0	-0.968632	-0.09082	0.213132	0	0	0	0	0	0	0	0	0	0	0	0	0	0
2.79977	-2.62149	-0.0656864	-0.210736	2.24294	-1.00434	0.213971	-0.0830085	0.029119	0.0491906	0.260604	0.0242464	0	0	-0.524147	0.0840932	-0.254154	0.307551	0.187132	0	0	-1.04505	-0.119035	0.216361	0	0	0	0	0	0	0	0	0	0	0	0	0	0
2.80976	-2.59974	-0.0571503	-0.222136	2.24335	-1.00185	0.214911	-0.0917895	0.0238654	0.0746321	0.225408	0.00602115	0	0	-0.523931	0.0956286	-0.257095	0.358733	0.213767	0	0	-1.11325	-0.143549	0.218117	0	0	0	0	0	0	0	0	0	0	0	0	0	0
2.81975	-2.58292	-0.0424288	-0.229486	2.24206	-0.999771	0.215618	-0.0981165	0.0127592	0.0955382	0.192895	-0.0107883	0	0	-0.523763	0.112491	-0.250082	0.400077	0.235479	0	0	-1.17033	-0.166052	0.215913	0	0	0	0	0	0	0	0	0	0	0	0	0	0
2.82974	-2.57143	-0.0195663	-0.231888	2.23917	-0.998178	0.216242	-0.101206	-0.00590657	0.110697	0.163885	-0.0257671	0	0	-0.523636	0.136142	-0.230542	0.429806	0.250765	0	0	-1.21532	-0.187595	0.207465	0	0	0	0	0	0	0	0	0	0	0	0	0	0
2.83973	-2.56457	0.011362	-0.228229	2.23489	-0.997057	0.216835	-0.101649	-0.0320053	0.118818	0.139162	-0.0388362	0	0	-0.523543	0.165648	-0.197845	0.449627	0.259589	0	0	-1.24851	-0.208061	0.191284	0	0	0	0	0	0	0	0	0	0	0	0	0	0
2.84971	-2.56078	0.0479817	-0.21717	2.2295	-0.996289	0.21735	-0.10133	-0.063268	0.118483	0.119422	-0.0501668	0	0	-0.523475	0.197373	-0.153559	0.464577	0.263336	0	0	-1.27096	-0.225894	0.167072	0	0	0	0	0	0	0	0	0	0	0	0	0	0
2.8597	-2.55845	0.0878658	-0.19788	2.22327	-0.995771	0.217752	-0.102214	-0.097442	0.108733	0.104773	-0.060274	0	0	-0.523427	0.227826	-0.100887	0.479556	0.263674	0	0	-1.28453	-0.239514	0.135353	0	0	0	0	0	0	0	0	0	0	0	0	0	0
2.86969	-2.55628	0.128857	-0.170329	2.21646	-0.995433	0.218051	-0.105762	-0.132546	0.0895644	0.0949692	-0.0698356	0	0	-0.523391	0.254308	-0.0434747	0.498177	0.261966	0	0	-1.29123	-0.247985	0.097265	0	0	0	0	0	0	0	0	0	0	0	0	0	0
2.87968	-2.55363	0.168991	-0.135404	2.20917	-0.995232	0.218305	-0.112448	-0.166713	0.0620808	0.0896551	-0.0795261	0	0	-0.523364	0.274889	0.0147706	0.522054	0.259004	0	0	-1.29229	-0.251223	0.0546472	0	0	0	0	0	0	0	0	0	0	0	0	0	0
2.88967	-2.55098	0.205278	-0.0972356	2.20116	-0.995176	0.218546	-0.121405	-0.197033	0.0303095	0.0883696	-0.0899302	0	0	-0.523343	0.288799	0.0683989	0.54957	0.254709	0	0	-1.28745	-0.249958	0.0109203	0	0	0	0	0	0	0	0	0	0	0	0	0	0
2.89966	-2.54911	0.236288	-0.0589959	2.19232	-0.99527	0.218825	-0.131251	-0.222166	-0.00206472	0.0906642	-0.10139	0	0	-0.523328	0.296315	0.11433	0.578321	0.248635	0	0	-1.27728	-0.245492	-0.030611	0	0	0	0	0	0	0	0	0	0	0	0	0	0
2.90964	-2.54927	0.261996	-0.0223349	2.1826	-0.995527	0.219152	-0.14015	-0.24221	-0.0328035	0.0962312	-0.113887	0	0	-0.523323	0.298376	0.152029	0.60518	0.240088	0	0	-1.26297	-0.23904	-0.0677975	0	0	0	0	0	0	0	0	0	0	0	0	0	0
2.91963	-2.55145	0.282187	0.0115743	2.17205	-0.99595	0.219526	-0.147562	-0.256993	-0.0608171	0.104669	-0.127013	0	0	-0.523333	0.2954	0.180882	0.629247	0.228597	0	0	-1.24605	-0.23107	-0.0994284	0	0	0	0	0	0	0	0	0	0	0	0	0	0
2.92962	-2.5544	0.29619	0.0416723	2.1608	-0.996526	0.219944	-0.154187	-0.265825	-0.085742	0.115519	-0.140014	0	0	-0.523365	0.287202	0.199757	0.651756	0.213981	0	0	-1.22846	-0.221376	-0.124843	0	0	0	0	0	0	0	0	0	0	0	0	0	0
2.93961	-2.55698	0.303829	0.0673445	2.14899	-0.997245	0.220404	-0.160772	-0.268475	-0.107459	0.128192	-0.152066	0	0	-0.52343	0.273855	0.208214	0.673845	0.196086	0	0	-1.21178	-0.209897	-0.143785	0	0	0	0	0	0	0	0	0	0	0	0	0	0
2.9496	-2.55827	0.305452	0.0882993	2.1368	-0.998096	0.220907	-0.168067	-0.265227	-0.125919	0.14196	-0.162451	0	0	-0.523543	0.25587	0.206766	0.696499	0.174794	0	0	-1.19733	-0.196829	-0.156431	0	0	0	0	0	0	0	0	0	0	0	0	0	0
2.95959	-2.55773	0.301692	0.104651	2.12436	-0.999066	0.22145	-0.176567	-0.256665	-0.141348	0.156178	-0.170606	0	0	-0.523716	0.233905	0.196577	0.720181	0.150018	0	0	-1.18576	-0.18244	-0.163223	0	0	0	0	0	0	0	0	0	0	0	0	0	0
2.96958	-2.55513	0.293311	0.116827	2.11179	-1.00014	0.222024	-0.186558	-0.243509	-0.154213	0.170307	-0.176179	0	0	-0.523967	0.208631	0.179176	0.744912	0.121759	0	0	-1.17717	-0.166977	-0.164789	0	0	0	0	0	0	0	0	0	0	0	0	0	0
2.97956	-2.55031	0.28125	0.125325	2.0992	-1.00132	0.222634	-0.198399	-0.226634	-0.164893	0.183741	-0.179092	0	0	-0.524308	0.180908	0.15637	0.770709	0.0902659	0	0	-1.17173	-0.150788	-0.161951	0	0	0	0	0	0	0	0	0	0	0	0	0	0
2.98955	-2.54326	0.266521	0.130709	2.08668	-1.00258	0.223291	-0.21234	-0.206991	-0.173729	0.196003	-0.179449	0	0	-0.524751	0.151696	0.13014	0.79738	0.0560563	0	0	-1.16949	-0.134278	-0.15557	0	0	0	0	0	0	0	0	0	0	0	0	0	0
2.99954	-2.53391	0.250171	0.133541	2.07435	-1.00392	0.224014	-0.228711	-0.185552	-0.181017	0.206656	-0.17751	0	0	-0.525298	0.122012	0.102474	0.824763	0.0198318	0	0	-1.17065	-0.117865	-0.146533	0	0	0	0	0	0	0	0	0	0	0	0	0	0
3.00953	-2.52241	0.233097	0.134439	2.06225	-1.00533	0.224811	-0.247559	-0.163186	-0.187161	0.215563	-0.173569	0	0	-0.525943	0.0926797	0.075007	0.852511	-0.0172823	0	0	-1.1751	-0.101865	-0.135626	0	0	0	0	0	0	0	0	0	0	0	0	0	0
3.01952	-2.50897	0.216033	0.133989	2.05043	-1.00681	0.225686	-0.268761	-0.140631	-0.192541	0.222794	-0.167942	0	0	-0.52666	0.0643274	0.0488983	0.880237	-0.0538076	0	0	-1.18258	-0.0865078	-0.12354	0	0	0	0	0	0	0	0	0	0	0	0	0	0
3.02951	-2.49381	0.199608	0.13264	2.03893	-1.00834	0.226646	-0.292157	-0.118539	-0.197366	0.228484	-0.160955	0	0	-0.5274	0.0375068	0.0248885	0.907638	-0.0880457	0	0	-1.19303	-0.0720367	-0.110881	0	0	0	0	0	0	0	0	0	0	0	0	0	0
3.0395	-2.47721	0.184284	0.130713	2.02776	-1.00991	0.227692	-0.31739	-0.097453	-0.201734	0.232948	-0.152889	0	0	-0.528085	0.0126898	0.00341952	0.934287	-0.118385	0	0	-1.20623	-0.0586659	-0.0981168	0	0	0	0	0	0	0	0	0	0	0	0	0	0
3.04948	-2.45957	0.170329	0.1284	2.01691	-1.01151	0.228816	-0.34391	-0.0777835	-0.205653	0.236645	-0.143961	0	0	-0.528599	-0.00974913	-0.0153254	0.959652	-0.143593	0	0	-1.22172	-0.0465556	-0.0855706	0	0	0	0	0	0	0	0	0	0	0	0	0	0
3.05947	-2.44139	0.157814	0.125784	2.00635	-1.01313	0.229998	-0.370993	-0.0597996	-0.209062	0.240144	-0.13433	0	0	-0.52878	-0.0295506	-0.0313492	0.983086	-0.163006	0	0	-1.23887	-0.035789	-0.073423	0	0	0	0	0	0	0	0	0	0	0	0	0	0
3.06946	-2.42326	0.146616	0.122876	1.99603	-1.01476	0.231208	-0.397761	-0.0436209	-0.211858	0.244076	-0.124109	0	0	-0.528417	-0.0465871	-0.0447777	1.00384	-0.176513	0	0	-1.25673	-0.0263513	-0.0617247	0	0	0	0	0	0	0	0	0	0	0	0	0	0
3.07945	-2.4058	0.136511	0.11963	1.98589	-1.01639	0.232411	-0.423324	-0.0292695	-0.213887	0.248998	-0.113399	0	0	-0.527248	-0.0608281	-0.055844	1.02125	-0.184394	0	0	-1.27438	-0.0181869	-0.0504356	0	0	0	0	0	0	0	0	0	0	0	0	0	0
3.08944	-2.38955	0.127269	0.115928	1.97588	-1.01798	0.233575	-0.446937	-0.0167381	-0.214945	0.255277	-0.102304	0	0	-0.524962	-0.0722903	-0.0648932	1.03486	-0.187157	0	0	-1.29118	-0.0112622	-0.0394731	0	0	0	0	0	0	0	0	0	0	0	0	0	0
3.09943	-2.37504	0.118639	0.111675	1.96596	-1.01954	0.234666	-0.467925	-0.00595171	-0.214842	0.263137	-0.090915	0	0	-0.521212	-0.0810793	-0.0723029	1.04435	-0.185444	0	0	-1.30643	-0.00551223	-0.0287173	0	0	0	0	0	0	0	0	0	0	0	0	0	0
3.10942	-2.36279	0.11038	0.106858	1.95606	-1.02102	0.23565	-0.48575	0.00324171	-0.213432	0.272605	-0.0793045	0	0	-0.515638	-0.0874126	-0.0784537	1.04949	-0.179972	0	0	-1.31936	-0.000823126	-0.0180344	0	0	0	0	0	0	0	0	0	0	0	0	0	0
3.1194	-2.35315	0.102326	0.101527	1.94614	-1.02241	0.2365	-0.50015	0.0110282	-0.210619	0.283459	-0.0675338	0	0	-0.507903	-0.0915874	-0.0837326	1.05028	-0.1715	0	0	-1.32947	0.0029358	-0.00730684	0	0	0	0	0	0	0	0	0	0	0	0	0	0
3.12939	-2.34627	0.0944077	0.0957867	1.9362	-1.02368	0.2372	-0.511215	0.0176153	-0.20637	0.295228	-0.0556431	0	0	-0.497749	-0.0939547	-0.0885082	1.04694	-0.1608	0	0	-1.33677	0.00591126	0.00355372	0	0	0	0	0	0	0	0	0	0	0	0	0	0
3.13938	-2.34211	0.0866001	0.0897932	1.92625	-1.0248	0.237739	-0.519268	0.0232425	-0.200726	0.307364	-0.0436359	0	0	-0.485076	-0.0949226	-0.0931184	1.03977	-0.148586	0	0	-1.34139	0.00827663	0.0146056	0	0	0	0	0	0	0	0	0	0	0	0	0	0
3.14937	-2.34047	0.0788675	0.0836879	1.91628	-1.02575	0.238114	-0.524756	0.0281568	-0.193785	0.319441	-0.0314863	0	0	-0.470039	-0.0949068	-0.0978648	1.02895	-0.135495	0	0	-1.34359	0.0102223	0.0258813	0	0	0	0	0	0	0	0	0	0	0	0	0	0
3.15936	-2.34101	0.0711482	0.0775801	1.90632	-1.02651	0.238328	-0.52817	0.0326084	-0.185662	0.331181	-0.0191525	0	0	-0.453011	-0.0943089	-0.103004	1.01459	-0.122098	0	0	-1.34366	0.0119439	0.0373991	0	0	0	0	0	0	0	0	0	0	0	0	0	0
3.16935	-2.34339	0.0633517	0.0715534	1.89635	-1.02707	0.238389	-0.529987	0.0368484	-0.176472	0.342415	-0.00658546	0	0	-0.434472	-0.0935104	-0.108749	0.996701	-0.108906	0	0	-1.34195	0.0136316	0.0491754	0	0	0	0	0	0	0	0	0	0	0	0	0	0
3.17934	-2.34724	0.0553613	0.0656733	1.88638	-1.02743	0.238307	-0.530639	0.0411297	-0.166304	0.353044	0.00625884	0	0	-0.414939	-0.0928637	-0.11526	0.975241	-0.0963827	0	0	-1.33875	0.0154659	0.0612313	0	0	0	0	0	0	0	0	0	0	0	0	0	0
3.18932	-2.35224	0.0470389	0.0599952	1.87641	-1.02756	0.238093	-0.530497	0.0457052	-0.155221	0.363018	0.0194099	0	0	-0.394905	-0.0926834	-0.12262	0.950161	-0.0849366	0	0	-1.33431	0.017619	0.0735978	0	0	0	0	0	0	0	0	0	0	0	0	0	0
3.19931	-2.35814	0.038233	0.054572	1.86642	-1.02749	0.237759	-0.529859	0.0508239	-0.143248	0.372329	0.0328756	0	0	-0.374825	-0.0932353	-0.130824	0.921408	-0.0749199	0	0	-1.32889	0.0202595	0.0863153	0	0	0	0	0	0	0	0	0	0	0	0	0	0
3.2093	-2.36468	0.0287862	0.0494595	1.85642	-1.02721	0.237312	-0.528956	0.0567267	-0.130382	0.381016	0.0466377	0	0	-0.3551	-0.0947301	-0.139755	0.888936	-0.0666244	0	0	-1.32272	0.0235584	0.0994312	0	0	0	0	0	0	0	0	0	0	0	0	0	0
3.21929	-2.37167	0.0185342	0.0447246	1.84641	-1.02672	0.236759	-0.527956	0.0636531	-0.116594	0.389187	0.0606435	0	0	-0.336104	-0.0973209	-0.149164	0.852686	-0.0602966	0	0	-1.31616	0.0277018	0.112999	0	0	0	0	0	0	0	0	0	0	0	0	0	0
3.22928	-2.37896	0.00734806	0.0404111	1.83636	-1.02605	0.236104	-0.526974	0.0717829	-0.101849	0.396908	0.0748498	0	0	-0.318057	-0.101107	-0.158799	0.812762	-0.0560758	0	0	-1.30934	0.0328262	0.127052	0	0	0	0	0	0	0	0	0	0	0	0	0	0
3.23927	-2.38652	-0.00484944	0.0365268	1.82627	-1.02521	0.235354	-0.52608	0.0812134	-0.0861346	0.404228	0.0892065	0	0	-0.301056	-0.106115	-0.168406	0.769415	-0.0540137	0	0	-1.30225	0.0390003	0.141599	0	0	0	0	0	0	0	0	0	0	0	0	0	0
3.24926	-2.39421	-0.0181309	0.0330847	1.81612	-1.02419	0.234509	-0.525313	0.0920252	-0.0694392	0.411316	0.103619	0	0	-0.285247	-0.112308	-0.177604	0.722819	-0.0541587	0	0	-1.29513	0.0463051	0.156655	0	0	0	0	0	0	0	0	0	0	0	0	0	0
3.25924	-2.40186	-0.0325844	0.0301219	1.80594	-1.02304	0.233568	-0.524686	0.104317	-0.0517373	0.418482	0.117977	0	0	-0.270839	-0.119626	-0.185902	0.673091	-0.0565574	0	0	-1.28847	0.0548701	0.172243	0	0	0	0	0	0	0	0	0	0	0	0	0	0
3.26923	-2.4094	-0.0482173	0.0276304	1.79574	-1.02177	0.232532	-0.524196	0.118084	-0.0330513	0.425863	0.132242	0	0	-0.257821	-0.127986	-0.192993	0.620612	-0.0610998	0	0	-1.28247	0.0647177	0.188334	0	0	0	0	0	0	0	0	0	0	0	0	0	0
3.27922	-2.41687	-0.0649262	0.0255422	1.78551	-1.02038	0.231412	-0.523826	0.133178	-0.013491	0.433461	0.146407	0	0	-0.246014	-0.137241	-0.198782	0.565962	-0.0675224	0	0	-1.27707	0.0757291	0.204848	0	0	0	0	0	0	0	0	0	0	0	0	0	0
3.28921	-2.42435	-0.0824913	0.0237335	1.77523	-1.0189	0.230224	-0.523557	0.149301	0.00673398	0.44114	0.160486	0	0	-0.235097	-0.147178	-0.203417	0.509877	-0.07542	0	0	-1.27198	0.0876453	0.221648	0	0	0	0	0	0	0	0	0	0	0	0	0	0
3.2992	-2.43192	-0.100632	0.0220631	1.76489	-1.01735	0.228988	-0.523365	0.16608	0.027355	0.448794	0.174464	0	0	-0.224784	-0.157537	-0.207186	0.45304	-0.0843274	0	0	-1.26694	0.100154	0.238568	0	0	0	0	0	0	0	0	0	0	0	0	0	0
3.30919	-2.43964	-0.119121	0.0204329	1.75449	-1.01574	0.227723	-0.523228	0.183225	0.0481709	0.456358	0.188343	0	0	-0.214826	-0.168134	-0.210488	0.396059	-0.0937295	0	0	-1.26177	0.113021	0.255478	0	0	0	0	0	0	0	0	0	0	0	0	0	0
3.31918	-2.44761	-0.137703	0.0186997	1.74401	-1.01408	0.226451	-0.523126	0.200394	0.0689872	0.463594	0.202169	0	0	-0.204828	-0.178772	-0.213585	0.339378	-0.103391	0	0	-1.25603	0.12595	0.27224	0	0	0	0	0	0	0	0	0	0	0	0	0	0
3.32916	-2.45581	-0.156235	0.0168529	1.73347	-1.01241	0.22518	-0.523043	0.217437	0.0896828	0.470535	0.215952	0	0	-0.194696	-0.18934	-0.21662	0.283044	-0.113158	0	0	-1.24979	0.138796	0.288857	0	0	0	0	0	0	0	0	0	0	0	0	0	0
3.33915	-2.46413	-0.174695	0.0149342	1.72291	-1.01072	0.223914	-0.522965	0.234359	0.110273	0.477278	0.229722	0	0	-0.184436	-0.19984	-0.219674	0.226941	-0.122941	0	0	-1.24325	0.151553	0.305383	0	0	0	0	0	0	0	0	0	0	0	0	0	0
