nColumns=19
nRows=331
DataType=double
version=3
OpenSimVersion=4.1
endheader
time	ground_force_calcn_l_vx	ground_force_calcn_l_vy	ground_force_calcn_l_vz	ground_force_calcn_l_px	ground_force_calcn_l_py	ground_force_calcn_l_pz	ground_force_calcn_l_mx	ground_force_calcn_l_my	ground_force_calcn_l_mz	ground_force_calcn_r_vx	ground_force_calcn_r_vy	ground_force_calcn_r_vz	ground_force_calcn_r_px	ground_force_calcn_r_py	ground_force_calcn_r_pz	ground_force_calcn_r_mx	ground_force_calcn_r_my	ground_force_calcn_r_mz
0	0	0	0	0	0.0401801	0	0	0	0	0	0	0	0	0.0310903	0	0	0	0
0.00398792	0	0	0	0	-0.00544474	0	0	0	0	-0.80944	-63.2187	21.139	0.280739	-0.00544474	0.423394	0.00604341	0.472001	-0.157827
0.00797583	0	0	0	0	-0.00544474	0	0	0	0	-1.45022	-43.5897	17.4809	0.282608	-0.00544474	0.460921	0.0169601	0.509776	-0.204436
0.0119637	0	0	0	0	-0.00544474	0	0	0	0	-2.0902	-23.9157	13.8057	0.281712	-0.00544474	0.553317	0.0573246	0.655896	-0.378627
0.0159517	0	0	0	0	-0.00544474	0	0	0	0	-2.7282	-4.16175	10.0984	0.0419591	-0.00544474	1.41775	0.405124	0.618	-1.49957
0.0199396	0	0	0	0	-0.00544474	0	0	0	0	-3.36233	15.7088	6.34071	0.268646	-0.00544474	0.0685868	0.216269	-1.01041	-0.407842
0.0239275	0	0	0	0	-0.00544474	0	0	0	0	-3.98988	35.7298	2.51206	0.262965	-0.00544474	0.232118	0.0680029	-0.608973	-0.0428151
0.0279154	0	0	0	0	-0.00544474	0	0	0	0	-4.60719	55.9272	-1.40939	0.267177	-0.00544474	0.283288	0.0404808	-0.491401	0.0123835
0.0319033	0	0	0	0	-0.00544474	0	0	0	0	-5.20937	76.3132	-5.44582	0.269788	-0.00544474	0.30974	0.0317408	-0.464977	0.0331814
0.0358912	0	0	0	0	-0.00544474	0	0	0	0	-5.79032	96.8819	-9.61871	0.271507	-0.00544474	0.326852	0.028327	-0.473959	0.047056
0.0398792	0	0	0	0	-0.00544474	0	0	0	0	-6.34245	117.604	-13.9479	0.272745	-0.00544474	0.339459	0.0269275	-0.499301	0.059217
0.0438671	0	0	0	0	-0.00544474	0	0	0	0	-6.85656	138.423	-18.4503	0.273696	-0.00544474	0.349543	0.026383	-0.53263	0.070994
0.047855	0	0	0	0	-0.00544474	0	0	0	0	-7.32136	159.247	-23.1391	0.27446	-0.00544474	0.358054	0.0261757	-0.569347	0.082728
0.0518429	0	0	0	0	-0.00544474	0	0	0	0	-7.72282	179.951	-28.0213	0.27509	-0.00544474	0.365517	0.0260268	-0.606454	0.0944348
0.0558308	0	0	0	0	-0.00544474	0	0	0	0	-8.04191	200.396	-33.0937	0.275615	-0.00544474	0.372238	0.0257449	-0.641537	0.105944
0.0598187	0	0	0	0	-0.00544474	0	0	0	0	-8.25591	220.506	-38.3361	0.276053	-0.00544474	0.378415	0.0251762	-0.672427	0.116905
0.0638066	0	0	0	0	-0.00544474	0	0	0	0	-8.34595	240.255	-43.7148	0.276416	-0.00544474	0.38418	0.0242428	-0.697878	0.12698
0.0677946	0	0	0	0	-0.00544474	0	0	0	0	-8.29618	259.651	-49.1886	0.27671	-0.00544474	0.389624	0.0229085	-0.716984	0.135826
0.0717825	0	0	0	0	-0.00544474	0	0	0	0	-8.09469	278.731	-54.7142	0.27694	-0.00544474	0.394812	0.0211756	-0.729158	0.143132
0.0757704	0	0	0	0	-0.00544474	0	0	0	0	-7.7345	297.554	-60.2531	0.277107	-0.00544474	0.399789	0.0190813	-0.734077	0.148647
0.0797583	0	0	0	0	-0.00544474	0	0	0	0	-7.2135	316.198	-65.7769	0.277214	-0.00544474	0.404591	0.0166879	-0.731501	0.15217
0.0837462	0	0	0	0	-0.00544474	0	0	0	0	-6.53409	334.747	-71.2684	0.277264	-0.00544474	0.409242	0.0140822	-0.721441	0.153597
0.0877341	0	0	0	0	-0.00544474	0	0	0	0	-5.70328	353.279	-76.7158	0.277259	-0.00544474	0.413762	0.0113661	-0.704049	0.152887
0.0917221	0	0	0	0	-0.00544474	0	0	0	0	-4.73206	371.854	-82.1057	0.277203	-0.00544474	0.418165	0.00864945	-0.67969	0.150076
0.09571	0	0	0	0	-0.00544474	0	0	0	0	-3.63502	390.516	-87.4202	0.277101	-0.00544474	0.422458	0.00603969	-0.648853	0.145251
0.0996979	0	0	0	0	-0.00544474	0	0	0	0	-2.4305	409.284	-92.6354	0.276957	-0.00544474	0.426647	0.003636	-0.612284	0.138582
0.103686	0	0	0	0	-0.00544474	0	0	0	0	-1.14089	428.157	-97.724	0.276777	-0.00544474	0.430732	0.00152197	-0.571172	0.130366
0.107674	0	0	0	0	-0.00544474	0	0	0	0	0.207963	447.117	-102.657	0.276565	-0.00544474	0.434714	-0.000245146	-0.527058	0.121011
0.111662	0	0	0	0	-0.00544474	0	0	0	0	1.58827	466.123	-107.405	0.276327	-0.00544474	0.43859	-0.00164097	-0.48159	0.110968
0.11565	0	0	0	0	-0.00544474	0	0	0	0	2.97176	485.12	-111.937	0.276069	-0.00544474	0.442359	-0.00267269	-0.436299	0.100672
0.119637	0	0	0	0	-0.00544474	0	0	0	0	4.33158	504.035	-116.227	0.275794	-0.00544474	0.446019	-0.00337272	-0.392459	0.0904981
0.123625	0	0	0	0	-0.00544474	0	0	0	0	5.64446	522.783	-120.245	0.275507	-0.00544474	0.449567	-0.0037908	-0.3511	0.0807563
0.127613	0	0	0	0	-0.00544474	0	0	0	0	6.893	541.272	-123.968	0.275212	-0.00544474	0.453005	-0.00398387	-0.312833	0.0716487
0.131601	0	0	0	0	-0.00544474	0	0	0	0	8.06672	559.405	-127.375	0.274911	-0.00544474	0.456332	-0.00400738	-0.277901	0.0632771
0.135589	0	0	0	0	-0.00544474	0	0	0	0	9.16148	577.081	-130.446	0.274606	-0.00544474	0.459551	-0.00391145	-0.246382	0.0556932
0.139577	0	0	0	0	-0.00544474	0	0	0	0	10.178	594.196	-133.167	0.274297	-0.00544474	0.462666	-0.00374069	-0.218383	0.0489425
0.143565	0	0	0	0	-0.00544474	0	0	0	0	11.1201	610.647	-135.527	0.273984	-0.00544474	0.46568	-0.00353517	-0.194129	0.0430849
0.147553	0	0	0	0	-0.00544474	0	0	0	0	11.9934	626.332	-137.517	0.273667	-0.00544474	0.468598	-0.00332943	-0.173874	0.0381755
0.151541	0	0	0	0	-0.00544474	0	0	0	0	12.8041	641.155	-139.133	0.273346	-0.00544474	0.471427	-0.0031512	-0.157793	0.0342417
0.155529	0	0	0	0	-0.00544474	0	0	0	0	13.5596	655.022	-140.375	0.273019	-0.00544474	0.474173	-0.00302031	-0.145902	0.0312676
0.159517	0	0	0	0	-0.00544474	0	0	0	0	14.2672	667.851	-141.245	0.272685	-0.00544474	0.476841	-0.00295073	-0.138125	0.0292122
0.163505	0	0	0	0	-0.00544474	0	0	0	0	14.9344	679.566	-141.747	0.272342	-0.00544474	0.479438	-0.00295282	-0.134364	0.0280263
0.167492	0	0	0	0	-0.00544474	0	0	0	0	15.5681	690.104	-141.889	0.271991	-0.00544474	0.481967	-0.00303534	-0.134551	0.0276645
0.17148	0	0	0	0	-0.00544474	0	0	0	0	16.1741	699.411	-141.681	0.271629	-0.00544474	0.484436	-0.00320599	-0.138635	0.0280835
0.175468	0	0	0	0	-0.00544474	0	0	0	0	16.7572	707.449	-141.131	0.271257	-0.00544474	0.486849	-0.00347186	-0.146574	0.0292405
0.179456	0	0	0	0	-0.00544474	0	0	0	0	17.3207	714.191	-140.254	0.270874	-0.00544474	0.489209	-0.00384122	-0.158386	0.0311041
0.183444	0	0	0	0	-0.00544474	0	0	0	0	17.8673	719.621	-139.061	0.270479	-0.00544474	0.491522	-0.00432176	-0.174062	0.0336362
0.187432	0	0	0	0	-0.00544474	0	0	0	0	18.3988	723.736	-137.569	0.270073	-0.00544474	0.49379	-0.00491991	-0.19353	0.0367866
0.19142	0	0	0	0	-0.00544474	0	0	0	0	18.916	726.547	-135.793	0.269656	-0.00544474	0.496016	-0.0056444	-0.216797	0.0405198
0.195408	0	0	0	0	-0.00544474	0	0	0	0	19.419	728.071	-133.75	0.269229	-0.00544474	0.498201	-0.00650485	-0.243885	0.0448029
0.199396	0	0	0	0	-0.00544474	0	0	0	0	19.9072	728.34	-131.458	0.268792	-0.00544474	0.500348	-0.00751346	-0.274894	0.0496156
0.203384	0	0	0	0	-0.00544474	0	0	0	0	20.3794	727.393	-128.935	0.268347	-0.00544474	0.502459	-0.00868298	-0.309917	0.0549349
0.207372	0	0	0	0	-0.00544474	0	0	0	0	20.8343	725.277	-126.201	0.267896	-0.00544474	0.504534	-0.0100247	-0.348976	0.0607232
0.21136	0	0	0	0	-0.00544474	0	0	0	0	21.2696	722.044	-123.274	0.267439	-0.00544474	0.506576	-0.0115492	-0.392064	0.0669369
0.215347	0	0	0	0	-0.00544474	0	0	0	0	21.6829	717.751	-120.175	0.266979	-0.00544474	0.508584	-0.0132643	-0.439078	0.0735158
0.219335	0	0	0	0	-0.00544474	0	0	0	0	22.0712	712.459	-116.923	0.266518	-0.00544474	0.510558	-0.0151736	-0.489804	0.0803825
0.223323	0	0	0	0	-0.00544474	0	0	0	0	22.4314	706.232	-113.538	0.266058	-0.00544474	0.512499	-0.0172754	-0.543902	0.0874408
0.227311	0	0	0	0	-0.00544474	0	0	0	0	22.76	699.138	-110.04	0.2656	-0.00544474	0.514406	-0.0195625	-0.600917	0.0945808
0.231299	0	0	0	0	-0.00544474	0	0	0	0	23.0538	691.245	-106.449	0.265147	-0.00544474	0.516277	-0.0220236	-0.660357	0.101692
0.235287	0	0	0	0	-0.00544474	0	0	0	0	23.3095	682.623	-102.783	0.264701	-0.00544474	0.518111	-0.0246444	-0.721717	0.108669
0.239275	0	0	0	0	-0.00544474	0	0	0	0	23.5244	673.342	-99.0601	0.264264	-0.00544474	0.519906	-0.0274064	-0.784455	0.115407
0.243263	0	0	0	0	-0.00544474	0	0	0	0	23.6967	663.473	-95.2986	0.263839	-0.00544474	0.52166	-0.0302895	-0.848062	0.121812
0.247251	0	0	0	0	-0.00544474	0	0	0	0	23.8253	653.089	-91.515	0.263426	-0.00544474	0.523375	-0.0332756	-0.912139	0.127815
0.251239	0	0	0	0	-0.00544474	0	0	0	0	23.9102	642.26	-87.7256	0.263028	-0.00544474	0.525048	-0.0363498	-0.976405	0.133366
0.255227	0	0	0	0	-0.00544474	0	0	0	0	23.9527	631.055	-83.9454	0.262647	-0.00544474	0.526681	-0.0395028	-1.04073	0.138442
0.259215	0	0	0	0	-0.00544474	0	0	0	0	23.9556	619.542	-80.1888	0.262284	-0.00544474	0.528272	-0.0427318	-1.10513	0.14304
0.263202	0	0	0	0	-0.00544474	0	0	0	0	23.9227	607.785	-76.4694	0.261939	-0.00544474	0.529823	-0.0460405	-1.16972	0.14717
0.26719	0	0	0	0	-0.00544474	0	0	0	0	23.8589	595.849	-72.7994	0.261615	-0.00544474	0.531334	-0.0494399	-1.23471	0.150853
0.271178	0	0	0	0	-0.00544474	0	0	0	0	23.7702	583.796	-69.1903	0.26131	-0.00544474	0.532806	-0.0529478	-1.3004	0.15412
0.275166	0	0	0	0	-0.00544474	0	0	0	0	23.6633	571.687	-65.6522	0.261026	-0.00544474	0.534241	-0.0565907	-1.36719	0.157007
0.279154	0	0	0	0	-0.00544474	0	0	0	0	23.5452	559.582	-62.1941	0.260762	-0.00544474	0.53564	-0.0604002	-1.43549	0.159546
0.283142	0	0	0	0	-0.00544474	0	0	0	0	23.4229	547.538	-58.8235	0.260518	-0.00544474	0.537004	-0.0644152	-1.50578	0.16177
0.28713	0	0	0	0	-0.00544474	0	0	0	0	23.3036	535.612	-55.5467	0.260295	-0.00544474	0.538334	-0.0686782	-1.5785	0.163702
0.291118	0	0	0	0	-0.00544474	0	0	0	0	23.1941	523.861	-52.3685	0.260091	-0.00544474	0.539633	-0.0732347	-1.65407	0.165352
0.295106	0	0	0	0	-0.00544474	0	0	0	0	23.1008	512.339	-49.2926	0.259907	-0.00544474	0.540901	-0.0781318	-1.73284	0.166719
0.299094	0	0	0	0	-0.00544474	0	0	0	0	23.0291	501.099	-46.3213	0.259743	-0.00544474	0.542141	-0.0834165	-1.81509	0.167786
0.303082	0	0	0	0	-0.00544474	0	0	0	0	22.9842	490.192	-43.4558	0.259599	-0.00544474	0.543351	-0.0891328	-1.90097	0.168522
0.307069	0	0	0	0	-0.00544475	0	0	0	0	22.9702	479.664	-40.6962	0.259475	-0.00544475	0.544533	-0.0953182	-1.99044	0.168875
0.311057	0	0	0	0	-0.00544475	0	0	0	0	22.9904	469.559	-38.0412	0.259371	-0.00544475	0.545684	-0.102003	-2.08333	0.16878
0.315045	0	0	0	0	-0.00544475	0	0	0	0	23.0473	459.917	-35.4888	0.259287	-0.00544475	0.546805	-0.109207	-2.17925	0.168159
0.319033	0	0	0	0	-0.00544475	0	0	0	0	23.1425	450.772	-33.0361	0.259222	-0.00544475	0.547895	-0.116935	-2.27766	0.166925
0.323021	0	0	0	0	-0.00544475	0	0	0	0	23.2766	442.159	-30.679	0.259178	-0.00544475	0.548951	-0.125182	-2.37794	0.164992
0.327009	0	0	0	0	-0.00544475	0	0	0	0	23.4492	434.104	-28.413	0.259155	-0.00544475	0.549972	-0.133926	-2.4793	0.162275
0.330997	0	0	0	0	-0.00544475	0	0	0	0	23.6594	426.633	-26.2327	0.259154	-0.00544475	0.550956	-0.143128	-2.58092	0.158695
0.334985	0	0	0	0	-0.00544475	0	0	0	0	23.9053	419.765	-24.1322	0.259174	-0.00544475	0.551901	-0.152732	-2.68189	0.154181
0.338973	0	0	0	0	-0.00544475	0	0	0	0	24.184	413.517	-22.1046	0.259218	-0.00544475	0.552805	-0.162658	-2.78125	0.148672
0.342961	0	0	0	0	-0.00544475	0	0	0	0	24.4923	407.904	-20.1429	0.259285	-0.00544475	0.553667	-0.172805	-2.87797	0.142118
0.346949	0	0	0	0	-0.00544475	0	0	0	0	24.8257	402.939	-18.2393	0.259375	-0.00544475	0.554486	-0.183046	-2.97097	0.134483
0.350937	0	0	0	0	-0.00544475	0	0	0	0	25.1794	398.632	-16.386	0.25949	-0.00544475	0.555263	-0.193229	-3.05915	0.125748
0.354924	0	0	0	0	-0.00544475	0	0	0	0	25.5477	394.993	-14.5748	0.25963	-0.00544475	0.555998	-0.203176	-3.1413	0.115911
0.358912	0	0	0	0	-0.00544475	0	0	0	0	25.9247	392.029	-12.7972	0.259796	-0.00544475	0.556691	-0.212686	-3.21621	0.104989
0.3629	0	0	0	0	-0.00544475	0	0	0	0	26.3036	389.747	-11.0448	0.259986	-0.00544475	0.557342	-0.221538	-3.28258	0.0930231
0.366888	0	0	0	0	-0.00544475	0	0	0	0	26.6774	388.153	-9.30889	0.260201	-0.00544475	0.557951	-0.229495	-3.33912	0.0800807
0.370876	0	0	0	0	-0.00544475	0	0	0	0	27.0388	387.25	-7.58082	0.26044	-0.00544475	0.558519	-0.236314	-3.3845	0.0662551
0.374864	0	0	0	0	-0.00544475	0	0	0	0	27.3802	387.043	-5.85183	0.260701	-0.00544475	0.559044	-0.241754	-3.4174	0.0516688
0.378852	0	0	0	0	-0.00544475	0	0	0	0	27.6943	387.533	-4.11315	0.260985	-0.00544475	0.559527	-0.245583	-3.4365	0.0364739
0.38284	0	0	0	0	-0.00544475	0	0	0	0	27.9737	388.725	-2.35611	0.26129	-0.00544475	0.559965	-0.24759	-3.44054	0.0208535
0.386828	0	0	0	0	-0.00544475	0	0	0	0	28.2109	390.62	-0.572137	0.261616	-0.00544475	0.560357	-0.247597	-3.42834	0.00502145
0.390816	0	0	0	0	-0.00544474	0	0	0	0	28.3991	393.22	1.24729	0.26196	-0.00544474	0.560701	-0.245467	-3.39879	-0.010781
0.394804	0	0	0	0	-0.00544474	0	0	0	0	28.5318	396.525	3.1107	0.262321	-0.00544474	0.560996	-0.241111	-3.35088	-0.0262873
0.398792	0	0	0	0	-0.00544474	0	0	0	0	28.6029	400.533	5.0266	0.262698	-0.00544474	0.561238	-0.234494	-3.28368	-0.0412094
0.402779	0	0	0	0	-0.00544473	0	0	0	0	28.6071	405.242	7.00349	0.26309	-0.00544473	0.561427	-0.225648	-3.19648	-0.0552424
0.406767	0	0	0	0	-0.00544472	0	0	0	0	28.5396	410.647	9.04996	0.263496	-0.00544472	0.561562	-0.214669	-3.0888	-0.0680718
0.410755	0	0	0	0	-0.00544472	0	0	0	0	28.3963	416.741	11.1746	0.263915	-0.00544472	0.561644	-0.201715	-2.96036	-0.0793797
0.414743	0	0	0	0	-0.00544471	0	0	0	0	28.1741	423.514	13.3861	0.264345	-0.00544471	0.561673	-0.187002	-2.81103	-0.0888486
0.418731	0	0	0	0	-0.0054447	0	0	0	0	27.8707	430.953	15.6931	0.264786	-0.0054447	0.561648	-0.170791	-2.64087	-0.0961669
0.422719	0	0	0	0	-0.00544469	0	0	0	0	27.4849	439.041	18.1042	0.265237	-0.00544469	0.561571	-0.153383	-2.45013	-0.101033
0.426707	0	0	0	0	-0.00544468	0	0	0	0	27.0161	447.758	20.6281	0.265698	-0.00544468	0.561443	-0.13511	-2.23928	-0.103163
0.430695	0	0	0	0	-0.00544467	0	0	0	0	26.465	457.081	23.2733	0.266168	-0.00544467	0.561265	-0.116324	-2.00904	-0.102295
0.434683	0	0	0	0	-0.00544465	0	0	0	0	25.8331	466.978	26.0484	0.266647	-0.00544465	0.561039	-0.097383	-1.76037	-0.0981945
0.438671	0	0	0	0	-0.00544464	0	0	0	0	25.1233	477.418	28.9616	0.267135	-0.00544464	0.560768	-0.0786433	-1.49446	-0.0906585
0.442659	0	0	0	0	-0.00544462	0	0	0	0	24.339	488.361	32.0212	0.26763	-0.00544462	0.560453	-0.0604424	-1.21277	-0.07952
0.446647	0	0	0	0	-0.00544461	0	0	0	0	23.4852	499.768	35.2354	0.268132	-0.00544461	0.560098	-0.0430914	-0.916989	-0.064651
0.450634	0	0	0	0	-0.00544459	0	0	0	0	22.5677	511.591	38.6118	0.26864	-0.00544459	0.559708	-0.0268675	-0.609063	-0.0459685
0.454622	0	0	0	0	-0.00544457	0	0	0	0	21.5935	523.78	42.158	0.269155	-0.00544457	0.559288	-0.0120017	-0.291118	-0.0234315
0.45861	0	0	0	0	-0.00544455	0	0	0	0	20.571	536.28	45.8804	0.269675	-0.00544455	0.558842	0.00132672	0.0345873	0.00295904
0.462598	0	0	0	0	-0.00544453	0	0	0	0	19.5095	549.033	49.7846	0.270199	-0.00544453	0.558377	0.0129942	0.365681	0.0331588
0.466586	0	0	0	0	-0.00544451	0	0	0	0	18.4196	561.977	53.8748	0.270727	-0.00544451	0.557899	0.0229311	0.699621	0.0670703
0.470574	0	0	0	0	-0.00544449	0	0	0	0	17.3129	575.051	58.1531	0.271257	-0.00544449	0.557415	0.031125	1.03382	0.104547
0.474562	0	0	0	0	-0.00544447	0	0	0	0	16.2019	588.191	62.6191	0.271789	-0.00544447	0.556936	0.0376185	1.3657	0.145393
0.47855	0	0	0	0	-0.00544446	0	0	0	0	15.0997	601.335	67.2697	0.272322	-0.00544446	0.556473	0.0425051	1.69274	0.189362
0.482538	0	0	0	0	-0.00544444	0	0	0	0	14.0198	614.421	72.0984	0.272856	-0.00544444	0.556036	0.0459228	2.01258	0.236164
0.486526	0	0	0	0	-0.00544442	0	0	0	0	12.9755	627.389	77.0953	0.27339	-0.00544442	0.555643	0.0480461	2.32311	0.28547
0.490514	0	0	0	0	-0.00544441	0	0	0	0	11.9801	640.181	82.2468	0.273924	-0.00544441	0.555309	0.0490764	2.62251	0.336925
0.494502	0	0	0	0	-0.0054444	0	0	0	0	11.0457	652.743	87.5363	0.27446	-0.0054444	0.555054	0.0492326	2.90939	0.390165
0.498489	0	0	0	0	-0.00544439	0	0	0	0	10.1838	665.021	92.9437	0.274999	-0.00544439	0.554902	0.0487388	3.18272	0.444818
0.502477	0	0	0	0	-0.00544439	0	0	0	0	9.40476	676.967	98.4458	0.275543	-0.00544439	0.554879	0.0478172	3.44194	0.500534
0.506465	0	0	0	0	-0.0054444	0	0	0	0	8.7173	688.534	104.016	0.276092	-0.0054444	0.555014	0.0466793	3.68695	0.556982
0.510453	0	0	0	0	-0.00544441	0	0	0	0	8.12882	699.682	109.623	0.27665	-0.00544441	0.555339	0.0455193	3.91804	0.613863
0.514441	0	0	0	0	-0.00544443	0	0	0	0	7.64503	710.371	115.236	0.27722	-0.00544443	0.555893	0.0445098	4.13582	0.670908
0.518429	0	0	0	0	-0.00544446	0	0	0	0	7.27002	720.568	120.816	0.277804	-0.00544446	0.556713	0.0438007	4.3413	0.727893
0.522417	0	0	0	0	-0.0054445	0	0	0	0	7.00602	730.242	126.323	0.278405	-0.0054445	0.557846	0.0435169	4.53579	0.784638
0.526405	0	0	0	0	-0.00544455	0	0	0	0	6.85335	739.37	131.716	0.279029	-0.00544455	0.559341	0.0437584	4.72085	0.841003
0.530393	0	0	0	0	-0.00544462	0	0	0	0	6.81038	747.935	136.948	0.279679	-0.00544462	0.56125	0.0446021	4.89832	0.89689
0.534381	0	0	0	0	-0.0054447	0	0	0	0	6.87357	755.921	141.97	0.280361	-0.0054447	0.563632	0.0461027	5.07015	0.952225
0.538369	0	0	0	0	-0.0054448	0	0	0	0	7.03744	763.322	146.73	0.28108	-0.0054448	0.566549	0.0482945	5.2383	1.00694
0.542356	0	0	0	0	-0.00544491	0	0	0	0	7.29475	770.132	151.175	0.281842	-0.00544491	0.570067	0.051194	5.40474	1.06094
0.546344	0	0	0	0	-0.00544505	0	0	0	0	7.63625	776.353	155.249	0.282655	-0.00544505	0.574255	0.0547987	5.57121	1.11408
0.550332	0	0	0	0	-0.0054452	0	0	0	0	8.05096	781.988	158.892	0.283524	-0.0054452	0.579186	0.0590873	5.73914	1.16614
0.55432	0	0	0	0	-0.00544538	0	0	0	0	8.52627	787.044	162.047	0.284458	-0.00544538	0.584931	0.0640181	5.90939	1.2167
0.558308	0	0	0	0	-0.00544558	0	0	0	0	9.04816	791.527	164.653	0.285464	-0.00544558	0.591565	0.0695281	6.08227	1.26523
0.562296	0	0	0	0	-0.00544581	0	0	0	0	9.60126	795.447	166.648	0.286549	-0.00544581	0.59916	0.0755278	6.25734	1.31093
0.566284	0	0	0	0	-0.00544606	0	0	0	0	10.169	798.809	167.974	0.28772	-0.00544606	0.607783	0.0818976	6.43332	1.35281
0.570272	0	0	0	0	-0.00544634	0	0	0	0	10.7339	801.618	168.572	0.288985	-0.00544634	0.617501	0.0884851	6.60816	1.38962
0.57426	0	0	0	0	-0.00544664	0	0	0	0	11.2776	803.875	168.385	0.290348	-0.00544664	0.628367	0.0951015	6.77891	1.41995
0.578248	0	0	0	0	-0.00544698	0	0	0	0	11.7809	805.569	167.361	0.291816	-0.00544698	0.640427	0.101519	6.94175	1.44218
0.582236	0	0	0	0	-0.00544733	0	0	0	0	12.2243	806.685	165.451	0.293392	-0.00544733	0.65371	0.107474	7.09224	1.45462
0.586224	0	0	0	0	-0.00544771	0	0	0	0	12.5875	807.191	162.615	0.295079	-0.00544771	0.668231	0.112672	7.22522	1.45558
0.590211	0	0	0	0	-0.00544812	0	0	0	0	12.85	807.04	158.819	0.296878	-0.00544812	0.68399	0.116793	7.33512	1.4435
0.594199	0	0	0	0	-0.00544854	0	0	0	0	12.9911	806.167	154.04	0.298788	-0.00544854	0.70097	0.119506	7.41599	1.41702
0.598187	0	0	0	0	-0.00544898	0	0	0	0	12.9894	804.482	148.263	0.300804	-0.00544898	0.71913	0.120472	7.46128	1.37509
0.602175	0	0	0	0	-0.00544944	0	0	0	0	12.8231	801.874	141.492	0.30292	-0.00544944	0.738402	0.119364	7.46426	1.31708
0.606163	0	0	0	0	-0.0054499	0	0	0	0	12.4692	798.257	133.746	0.305133	-0.0054499	0.758725	0.115872	7.41791	1.24285
0.610151	0	0	0	0	-0.00545036	0	0	0	0	11.9104	793.617	125.066	0.30744	-0.00545036	0.780061	0.109829	7.31811	1.15326
0.614139	0	0	0	0	-0.00545082	0	0	0	0	11.1376	787.991	115.51	0.309841	-0.00545082	0.802379	0.101267	7.16468	1.05026
0.618127	0	0	0	0	-0.00545128	0	0	0	0	10.1494	781.456	105.153	0.312332	-0.00545128	0.825639	0.0904042	6.96073	0.936636
0.622115	0	0	0	0	-0.00545172	0	0	0	0	8.95148	774.123	94.0791	0.314912	-0.00545172	0.849788	0.0776209	6.71264	0.815787
0.626103	0	0	0	0	-0.00545216	0	0	0	0	7.5575	766.142	82.3792	0.317575	-0.00545216	0.874753	0.0634251	6.42972	0.691353
0.630091	0	0	0	0	-0.0054526	0	0	0	0	5.98773	757.686	70.1432	0.320315	-0.0054526	0.900437	0.0483903	6.1233	0.566868
0.634079	0	0	0	0	-0.00545302	0	0	0	0	4.26758	748.941	57.4615	0.323121	-0.00545302	0.926707	0.0330798	5.80535	0.445408
0.638066	0	0	0	0	-0.00545344	0	0	0	0	2.426	740.093	44.4296	0.325982	-0.00545344	0.953391	0.0179869	5.48723	0.329412
0.642054	0	0	0	0	-0.00545386	0	0	0	0	0.495152	731.327	31.153	0.32888	-0.00545386	0.980284	0.00350632	5.17875	0.220604
0.646042	0	0	0	0	-0.00545427	0	0	0	0	-1.49074	722.822	17.7489	0.331797	-0.00545427	1.00715	-0.0100799	4.88747	0.120012
0.65003	0	0	0	0	-0.00545469	0	0	0	0	-3.49782	714.752	4.34305	0.334713	-0.00545469	1.03372	-0.0225987	4.61787	0.0280596
0.654018	0	0	0	0	-0.00545511	0	0	0	0	-5.49386	707.279	-8.93636	0.337605	-0.00545511	1.05974	-0.0339538	4.37121	-0.0552295
0.658006	0	0	0	0	-0.00545553	0	0	0	0	-7.44884	700.54	-21.9636	0.340451	-0.00545553	1.08494	-0.0440831	4.14588	-0.129983
0.661994	0	0	0	0	-0.00545595	0	0	0	0	-9.33574	694.642	-34.6224	0.343226	-0.00545595	1.10904	-0.052925	3.93797	-0.196277
0.665982	0	0	0	0	-0.00545638	0	0	0	0	-11.1315	689.652	-46.809	0.345909	-0.00545638	1.13183	-0.0603981	3.74196	-0.25398
0.66997	0	0	0	0	-0.0054568	0	0	0	0	-12.8179	685.601	-58.4339	0.348479	-0.0054568	1.1531	-0.0663988	3.55153	-0.302698
0.673958	0	0	0	0	-0.00545723	0	0	0	0	-14.3821	682.49	-69.4212	0.350918	-0.00545723	1.17272	-0.0708152	3.36047	-0.341818
0.677946	0	0	0	0	-0.00545766	0	0	0	0	-15.8172	680.294	-79.7091	0.353211	-0.00545766	1.19057	-0.0735491	3.16334	-0.370644
0.681934	0	0	0	0	-0.00545808	0	0	0	0	-17.1211	678.965	-89.2491	0.355349	-0.00545808	1.20663	-0.0745411	2.95605	-0.388569
0.685921	0	0	0	0	-0.0054585	0	0	0	0	-18.2966	678.443	-98.0053	0.357325	-0.0054585	1.22091	-0.0737923	2.73625	-0.395268
0.689909	0	0	0	0	-0.00545891	0	0	0	0	-19.3497	678.65	-105.954	0.359136	-0.00545891	1.23346	-0.0713724	2.50324	-0.390816
0.693897	0	0	0	0	-0.00545932	0	0	0	0	-20.2893	679.496	-113.081	0.360784	-0.00545932	1.24439	-0.0674172	2.25782	-0.375745
0.697885	0	0	0	0	-0.00545971	0	0	0	0	-21.126	680.883	-119.385	0.362274	-0.00545971	1.25382	-0.0621087	2.00174	-0.350982
0.701873	0	0	0	0	-0.00546008	0	0	0	0	-21.871	682.704	-124.87	0.363614	-0.00546008	1.26194	-0.0557637	1.74066	-0.318377
0.705861	0	0	0	0	-0.00546044	0	0	0	0	-22.536	684.845	-129.551	0.364816	-0.00546044	1.2689	-0.0487095	1.48023	-0.280013
0.709849	0	0	0	0	-0.00546078	0	0	0	0	-23.1322	687.191	-133.446	0.365891	-0.00546078	1.27487	-0.0412582	1.22566	-0.238013
0.713837	0	0	0	0	-0.0054611	0	0	0	0	-23.6696	689.625	-136.581	0.366852	-0.0054611	1.28002	-0.0336868	0.98148	-0.194383
0.717825	0	0	0	0	-0.00546139	0	0	0	0	-24.1568	692.032	-138.985	0.367711	-0.00546139	1.28447	-0.0262271	0.751339	-0.150896
0.721813	0	0	0	0	-0.00546167	0	0	0	0	-24.6007	694.3	-140.69	0.368482	-0.00546167	1.28837	-0.0190641	0.538042	-0.109027
0.725801	0	0	0	0	-0.00546193	0	0	0	0	-25.0063	696.324	-141.734	0.369176	-0.00546193	1.29182	-0.0123386	0.343578	-0.0699342
0.729789	0	0	0	0	-0.00546216	0	0	0	0	-25.3778	698.004	-142.156	0.369803	-0.00546216	1.29491	-0.00614969	0.169144	-0.0344479
0.733776	0	0	0	0	-0.00546238	0	0	0	0	-25.7182	699.25	-141.995	0.370372	-0.00546238	1.29772	-0.000562488	0.0152934	-0.0031056
0.737764	0	0	0	0	-0.00546257	0	0	0	0	-26.0295	699.98	-141.294	0.370893	-0.00546257	1.30031	0.00438639	-0.117958	0.0238104
0.741752	0	0	0	0	-0.00546275	0	0	0	0	-26.3129	700.123	-140.097	0.371372	-0.00546275	1.30272	0.0086844	-0.231071	0.0462382
0.74574	0	0	0	0	-0.0054629	0	0	0	0	-26.5686	699.618	-138.447	0.371816	-0.0054629	1.305	0.012337	-0.324863	0.0642872
0.749728	0	0	0	0	-0.00546305	0	0	0	0	-26.7959	698.419	-136.388	0.372229	-0.00546305	1.30716	0.0153646	-0.400468	0.078204
0.753716	0	0	0	0	-0.00546317	0	0	0	0	-26.9936	696.491	-133.964	0.372617	-0.00546317	1.30925	0.0177988	-0.459246	0.0883317
0.757704	0	0	0	0	-0.00546329	0	0	0	0	-27.1594	693.809	-131.216	0.372981	-0.00546329	1.31126	0.0196761	-0.502644	0.0950617
0.761692	0	0	0	0	-0.00546339	0	0	0	0	-27.2906	690.361	-128.185	0.373325	-0.00546339	1.31321	0.0210385	-0.532204	0.0988188
0.76568	0	0	0	0	-0.00546349	0	0	0	0	-27.3841	686.146	-124.912	0.37365	-0.00546349	1.31512	0.0219309	-0.549509	0.100037
0.769668	0	0	0	0	-0.00546358	0	0	0	0	-27.4369	681.175	-121.434	0.373958	-0.00546358	1.31698	0.0224002	-0.556128	0.0991413
0.773656	0	0	0	0	-0.00546367	0	0	0	0	-27.4462	675.469	-117.786	0.37425	-0.00546367	1.3188	0.0224936	-0.553581	0.0965318
0.777644	0	0	0	0	-0.00546376	0	0	0	0	-27.4097	669.054	-114.003	0.374526	-0.00546376	1.32058	0.0222587	-0.543321	0.092579
0.781631	0	0	0	0	-0.00546386	0	0	0	0	-27.3255	661.969	-110.117	0.374787	-0.00546386	1.32233	0.0217424	-0.526716	0.0876178
0.785619	0	0	0	0	-0.00546395	0	0	0	0	-27.1929	654.257	-106.157	0.375032	-0.00546395	1.32404	0.0209896	-0.505007	0.0819402
0.789607	0	0	0	0	-0.00546405	0	0	0	0	-27.012	645.967	-102.151	0.375262	-0.00546405	1.32572	0.0200439	-0.479332	0.0758001
0.793595	0	0	0	0	-0.00546416	0	0	0	0	-26.7835	637.152	-98.1257	0.375477	-0.00546416	1.32737	0.0189466	-0.450721	0.069414
0.797583	0	0	0	0	-0.00546428	0	0	0	0	-26.5091	627.868	-94.1034	0.375677	-0.00546428	1.32899	0.0177364	-0.420088	0.0629618
0.801571	0	0	0	0	-0.0054644	0	0	0	0	-26.1912	618.176	-90.1055	0.375862	-0.0054644	1.33057	0.0164492	-0.388241	0.0565901
0.805559	0	0	0	0	-0.00546454	0	0	0	0	-25.8331	608.138	-86.1507	0.376033	-0.00546454	1.33213	0.0151179	-0.355892	0.0504167
0.809547	0	0	0	0	-0.00546469	0	0	0	0	-25.4383	597.819	-82.2555	0.376188	-0.00546469	1.33366	0.013773	-0.323676	0.0445354
0.813535	0	0	0	0	-0.00546485	0	0	0	0	-25.011	587.28	-78.4336	0.37633	-0.00546485	1.33516	0.0124439	-0.292194	0.0390237
0.817523	0	0	0	0	-0.00546501	0	0	0	0	-24.5558	576.589	-74.6965	0.376458	-0.00546501	1.33662	0.0111569	-0.261972	0.0339382
0.821511	0	0	0	0	-0.00546519	0	0	0	0	-24.0774	565.808	-71.0534	0.376573	-0.00546519	1.33806	0.00993456	-0.233458	0.0293173
0.825498	0	0	0	0	-0.00546538	0	0	0	0	-23.5807	555.002	-67.5116	0.376675	-0.00546538	1.33947	0.00879617	-0.207029	0.0251835
0.829486	0	0	0	0	-0.00546558	0	0	0	0	-23.0703	544.233	-64.0763	0.376766	-0.00546558	1.34085	0.00775727	-0.182995	0.0215453
0.833474	0	0	0	0	-0.00546578	0	0	0	0	-22.5508	533.56	-60.751	0.376844	-0.00546578	1.3422	0.00682994	-0.161599	0.0183996
0.837462	0	0	0	0	-0.005466	0	0	0	0	-22.0264	523.042	-57.5378	0.376911	-0.005466	1.34352	0.00602373	-0.14304	0.0157353
0.84145	0	0	0	0	-0.00546622	0	0	0	0	-21.501	512.73	-54.4373	0.376967	-0.00546622	1.3448	0.00534594	-0.127483	0.0135351
0.845438	0	0	0	0	-0.00546645	0	0	0	0	-20.9784	502.677	-51.4493	0.377012	-0.00546645	1.34605	0.0048029	-0.115085	0.0117791
0.849426	0	0	0	0	-0.00546668	0	0	0	0	-20.4617	492.928	-48.5715	0.377046	-0.00546668	1.34727	0.00439885	-0.105969	0.0104418
0.853414	0	0	0	0	-0.00546692	0	0	0	0	-19.954	483.528	-45.8004	0.37707	-0.00546692	1.34844	0.00413626	-0.10023	0.00949396
0.857402	0	0	0	0	-0.00546717	0	0	0	0	-19.4576	474.514	-43.1316	0.377083	-0.00546717	1.34958	0.00401758	-0.097977	0.00890577
0.86139	0	0	0	0	-0.00546742	0	0	0	0	-18.9748	465.92	-40.56	0.377086	-0.00546742	1.35067	0.00404482	-0.0993192	0.00864609
0.865378	0	0	0	0	-0.00546767	0	0	0	0	-18.5075	457.777	-38.08	0.377078	-0.00546767	1.35173	0.00421866	-0.104347	0.0086801
0.869366	0	0	0	0	-0.00546792	0	0	0	0	-18.0574	450.113	-35.6859	0.37706	-0.00546792	1.35274	0.00453938	-0.113152	0.00897096
0.873353	0	0	0	0	-0.00546817	0	0	0	0	-17.6259	442.951	-33.3716	0.377032	-0.00546817	1.3537	0.00500561	-0.125794	0.00947728
0.877341	0	0	0	0	-0.00546843	0	0	0	0	-17.2143	436.311	-31.1308	0.376994	-0.00546843	1.35462	0.00561411	-0.142294	0.0101527
0.881329	0	0	0	0	-0.00546869	0	0	0	0	-16.8237	430.212	-28.9568	0.376946	-0.00546869	1.35549	0.00636114	-0.162665	0.0109487
0.885317	0	0	0	0	-0.00546894	0	0	0	0	-16.4552	424.669	-26.8425	0.376889	-0.00546894	1.35632	0.0072415	-0.186886	0.0118127
0.889305	0	0	0	0	-0.0054692	0	0	0	0	-16.1094	419.696	-24.7809	0.376822	-0.0054692	1.35709	0.00825029	-0.214943	0.0126913
0.893293	0	0	0	0	-0.00546945	0	0	0	0	-15.7874	415.306	-22.7644	0.376744	-0.00546945	1.35782	0.00938288	-0.246828	0.0135295
0.897281	0	0	0	0	-0.00546971	0	0	0	0	-15.4898	411.509	-20.7856	0.376657	-0.00546971	1.3585	0.0106347	-0.282526	0.0142706
0.901269	0	0	0	0	-0.00546996	0	0	0	0	-15.2176	408.315	-18.8368	0.376558	-0.00546996	1.35913	0.0120013	-0.322017	0.0148556
0.905257	0	0	0	0	-0.00547022	0	0	0	0	-14.9712	405.73	-16.91	0.376448	-0.00547022	1.35971	0.0134782	-0.365267	0.0152235
0.909245	0	0	0	0	-0.00547047	0	0	0	0	-14.7515	403.762	-14.9971	0.376326	-0.00547047	1.36024	0.0150614	-0.412243	0.0153121
0.913233	0	0	0	0	-0.00547073	0	0	0	0	-14.5591	402.416	-13.0899	0.376192	-0.00547073	1.36073	0.0167477	-0.46291	0.0150577
0.917221	0	0	0	0	-0.00547099	0	0	0	0	-14.3945	401.694	-11.1798	0.376047	-0.00547099	1.36116	0.0185341	-0.517215	0.014395
0.921208	0	0	0	0	-0.00547124	0	0	0	0	-14.2584	401.6	-9.25834	0.375891	-0.00547124	1.36155	0.0204186	-0.575109	0.0132583
0.925196	0	0	0	0	-0.0054715	0	0	0	0	-14.1515	402.137	-7.31671	0.375723	-0.0054715	1.36189	0.022399	-0.636501	0.0115809
0.929184	0	0	0	0	-0.00547176	0	0	0	0	-14.0745	403.305	-5.34612	0.375545	-0.00547176	1.3622	0.024473	-0.701274	0.00929593
0.933172	0	0	0	0	-0.00547202	0	0	0	0	-14.0281	405.106	-3.33758	0.375356	-0.00547202	1.36246	0.0266404	-0.769328	0.00633832
0.93716	0	0	0	0	-0.00547228	0	0	0	0	-14.0129	407.54	-1.282	0.375158	-0.00547228	1.36268	0.0289029	-0.840585	0.00264423
0.941148	0	0	0	0	-0.00547254	0	0	0	0	-14.0298	410.605	0.829783	0.374949	-0.00547254	1.36286	0.0312628	-0.914957	-0.00184902
0.945136	0	0	0	0	-0.0054728	0	0	0	0	-14.0791	414.299	3.00689	0.374731	-0.0054728	1.36301	0.0337219	-0.992316	-0.00720199
0.949124	0	0	0	0	-0.00547307	0	0	0	0	-14.1614	418.62	5.25838	0.374504	-0.00547307	1.36312	0.0362818	-1.07251	-0.0134721
0.953112	0	0	0	0	-0.00547333	0	0	0	0	-14.2767	423.562	7.59323	0.374269	-0.00547333	1.3632	0.0389431	-1.15537	-0.0207124
0.9571	0	0	0	0	-0.0054736	0	0	0	0	-14.4246	429.117	10.0202	0.374027	-0.0054736	1.36325	0.0417059	-1.2407	-0.0289714
0.961088	0	0	0	0	-0.00547387	0	0	0	0	-14.6047	435.273	12.5479	0.373777	-0.00547387	1.36327	0.044569	-1.32832	-0.0382924
0.965076	0	0	0	0	-0.00547414	0	0	0	0	-14.8155	442.018	15.1846	0.373521	-0.00547414	1.36327	0.0475279	-1.41798	-0.0487118
0.969063	0	0	0	0	-0.00547441	0	0	0	0	-15.0556	449.335	17.9382	0.373258	-0.00547441	1.36324	0.0505758	-1.50944	-0.0602593
0.973051	0	0	0	0	-0.00547468	0	0	0	0	-15.3224	457.205	20.8162	0.372988	-0.00547468	1.36319	0.0537022	-1.60241	-0.0729567
0.977039	0	0	0	0	-0.00547496	0	0	0	0	-15.6133	465.603	23.8254	0.372713	-0.00547496	1.36313	0.0568935	-1.69661	-0.0868175
0.981027	0	0	0	0	-0.00547524	0	0	0	0	-15.9247	474.502	26.9719	0.372432	-0.00547524	1.36304	0.0601309	-1.7917	-0.101845
0.985015	0	0	0	0	-0.00547552	0	0	0	0	-16.2526	483.873	30.2609	0.372146	-0.00547552	1.36294	0.0633924	-1.88732	-0.118031
0.989003	0	0	0	0	-0.00547581	0	0	0	0	-16.5925	493.681	33.6967	0.371854	-0.00547581	1.36282	0.0666521	-1.98311	-0.135359
0.992991	0	0	0	0	-0.0054761	0	0	0	0	-16.9395	503.889	37.2827	0.371557	-0.0054761	1.3627	0.0698792	-2.07865	-0.153799
0.996979	0	0	0	0	-0.00547639	0	0	0	0	-17.2881	514.454	41.0209	0.371255	-0.00547639	1.36256	0.0730385	-2.17346	-0.173305
1.00097	0	0	0	0	-0.00547669	0	0	0	0	-17.6324	525.332	44.9126	0.370949	-0.00547669	1.36241	0.0760915	-2.26704	-0.193818
1.00495	0	0	0	0	-0.00547699	0	0	0	0	-17.9664	536.472	48.9573	0.370638	-0.00547699	1.36225	0.0789968	-2.35883	-0.215262
1.00894	0	0	0	0	-0.0054773	0	0	0	0	-18.2838	547.823	53.1536	0.370323	-0.0054773	1.36208	0.0817113	-2.44825	-0.237547
1.01293	0	0	0	0	-0.00547761	0	0	0	0	-18.5783	559.326	57.4983	0.370004	-0.00547761	1.36191	0.0841912	-2.5347	-0.260565
1.01692	0	0	0	0	-0.00547792	0	0	0	0	-18.8435	570.924	61.9869	0.369681	-0.00547792	1.36174	0.0863924	-2.61754	-0.284194
1.02091	0	0	0	0	-0.00547824	0	0	0	0	-19.073	582.553	66.6133	0.369356	-0.00547824	1.36156	0.0882703	-2.69607	-0.308288
1.02489	0	0	0	0	-0.00547856	0	0	0	0	-19.2608	594.15	71.3699	0.369027	-0.00547856	1.36138	0.0897834	-2.76961	-0.332688
1.02888	0	0	0	0	-0.00547889	0	0	0	0	-19.4009	605.649	76.2471	0.368695	-0.00547889	1.3612	0.0908937	-2.83748	-0.357219
1.03287	0	0	0	0	-0.00547922	0	0	0	0	-19.4881	616.982	81.2343	0.36836	-0.00547922	1.36102	0.0915687	-2.89902	-0.381696
1.03686	0	0	0	0	-0.00547956	0	0	0	0	-19.5174	628.075	86.3188	0.368022	-0.00547956	1.36084	0.0917833	-2.95361	-0.405926
1.04085	0	0	0	0	-0.0054799	0	0	0	0	-19.4847	638.855	91.4864	0.367682	-0.0054799	1.36066	0.0915191	-3.00068	-0.429708
1.04483	0	0	0	0	-0.00548024	0	0	0	0	-19.3866	649.243	96.7213	0.367339	-0.00548024	1.36049	0.0907652	-3.03966	-0.452834
1.04882	0	0	0	0	-0.00548059	0	0	0	0	-19.2203	659.16	102.006	0.366994	-0.00548059	1.36032	0.0895202	-3.0701	-0.4751
1.05281	0	0	0	0	-0.00548094	0	0	0	0	-18.9836	668.522	107.32	0.366647	-0.00548094	1.36016	0.0877897	-3.09158	-0.4963
1.0568	0	0	0	0	-0.0054813	0	0	0	0	-18.6751	677.242	112.642	0.366299	-0.0054813	1.36002	0.0855871	-3.10377	-0.516236
1.06079	0	0	0	0	-0.00548166	0	0	0	0	-18.2937	685.233	117.95	0.365951	-0.00548166	1.35989	0.0829327	-3.10644	-0.534715
1.06477	0	0	0	0	-0.00548203	0	0	0	0	-17.839	692.405	123.217	0.365601	-0.00548203	1.35977	0.0798527	-3.09941	-0.551557
1.06876	0	0	0	0	-0.0054824	0	0	0	0	-17.311	698.668	128.416	0.365252	-0.0054824	1.35968	0.0763792	-3.08265	-0.566595
1.07275	0	0	0	0	-0.00548278	0	0	0	0	-16.7101	703.932	133.517	0.364902	-0.00548278	1.35961	0.0725494	-3.05623	-0.579686
1.07674	0	0	0	0	-0.00548317	0	0	0	0	-16.0369	708.107	138.489	0.364553	-0.00548317	1.35957	0.0684029	-3.02031	-0.590702
1.08073	0	0	0	0	-0.00548356	0	0	0	0	-15.2923	711.102	143.296	0.364204	-0.00548356	1.35956	0.0639812	-2.97516	-0.599532
1.08471	0	0	0	0	-0.00548397	0	0	0	0	-14.4775	712.833	147.902	0.363855	-0.00548397	1.3596	0.0593279	-2.92114	-0.606093
1.0887	0	0	0	0	-0.00548438	0	0	0	0	-13.5941	713.216	152.268	0.363506	-0.00548438	1.35968	0.0544879	-2.85872	-0.610323
1.09269	0	0	0	0	-0.00548481	0	0	0	0	-12.6441	712.174	156.354	0.363156	-0.00548481	1.35982	0.0495069	-2.78845	-0.612189
1.09668	0	0	0	0	-0.00548526	0	0	0	0	-11.6304	709.636	160.116	0.362805	-0.00548526	1.36002	0.0444307	-2.71096	-0.611678
1.10066	0	0	0	0	-0.00548572	0	0	0	0	-10.5566	705.537	163.512	0.362452	-0.00548572	1.3603	0.0393058	-2.62695	-0.60881
1.10465	0	0	0	0	-0.00548621	0	0	0	0	-9.42704	699.822	166.495	0.362095	-0.00548621	1.36066	0.0341776	-2.53719	-0.603626
1.10864	0	0	0	0	-0.00548672	0	0	0	0	-8.24712	692.448	169.023	0.361734	-0.00548672	1.36112	0.0290899	-2.44246	-0.59619
1.11263	0	0	0	0	-0.00548727	0	0	0	0	-7.02306	683.383	171.05	0.361368	-0.00548727	1.36169	0.0240844	-2.34354	-0.586587
1.11662	0	0	0	0	-0.00548785	0	0	0	0	-5.76192	672.606	172.535	0.360995	-0.00548785	1.36238	0.0192001	-2.24128	-0.574925
1.1206	0	0	0	0	-0.00548847	0	0	0	0	-4.47162	660.112	173.436	0.360615	-0.00548847	1.36321	0.014473	-2.13654	-0.561349
1.12459	0	0	0	0	-0.00548913	0	0	0	0	-3.16092	645.914	173.719	0.360225	-0.00548913	1.3642	0.00993526	-2.03021	-0.546025
1.12858	0	0	0	0	-0.00548984	0	0	0	0	-1.83935	630.039	173.349	0.359825	-0.00548984	1.36536	0.00561434	-1.9231	-0.529121
1.13257	0	0	0	0	-0.00549061	0	0	0	0	-0.517191	612.535	172.301	0.359413	-0.00549061	1.3667	0.00153335	-1.81602	-0.510831
1.13656	0	0	0	0	-0.00549143	0	0	0	0	0.794591	593.466	170.555	0.358989	-0.00549143	1.36825	-0.00228919	-1.70975	-0.491361
1.14054	0	0	0	0	-0.00549232	0	0	0	0	2.08444	572.918	168.099	0.358552	-0.00549232	1.37002	-0.00583934	-1.60497	-0.470912
1.14453	0	0	0	0	-0.00549327	0	0	0	0	3.34041	550.993	164.933	0.358101	-0.00549327	1.37204	-0.00910761	-1.50228	-0.449689
1.14852	0	0	0	0	-0.00549429	0	0	0	0	4.55055	527.815	161.064	0.357638	-0.00549429	1.37431	-0.0120899	-1.4023	-0.427916
1.15251	0	0	0	0	-0.00549539	0	0	0	0	5.70265	503.527	156.51	0.357161	-0.00549539	1.37686	-0.0147867	-1.30563	-0.405825
1.1565	0	0	0	0	-0.00549655	0	0	0	0	6.78521	478.286	151.302	0.356673	-0.00549655	1.37969	-0.0172051	-1.21278	-0.383653
1.16048	0	0	0	0	-0.00549779	0	0	0	0	7.78743	452.267	145.481	0.356175	-0.00549779	1.38283	-0.0193577	-1.12423	-0.361631
1.16447	0	0	0	0	-0.0054991	0	0	0	0	8.69927	425.657	139.099	0.35567	-0.0054991	1.38628	-0.0212621	-1.04036	-0.339975
1.16846	0	0	0	0	-0.00550047	0	0	0	0	9.51199	398.654	132.22	0.355163	-0.00550047	1.39006	-0.0229404	-0.961448	-0.31888
1.17245	0	0	0	0	-0.00550192	0	0	0	0	10.2183	371.46	124.918	0.354656	-0.00550192	1.39418	-0.0244194	-0.887706	-0.298525
1.17644	0	0	0	0	-0.00550342	0	0	0	0	10.8128	344.281	117.273	0.354158	-0.00550342	1.39864	-0.02573	-0.819245	-0.279061
1.18042	0	0	0	0	-0.00550497	0	0	0	0	11.2923	317.319	109.376	0.353674	-0.00550497	1.40345	-0.0269065	-0.756088	-0.260613
1.18441	0	0	0	0	-0.00550655	0	0	0	0	11.6556	290.771	101.319	0.353215	-0.00550655	1.40861	-0.0279874	-0.6982	-0.243287
1.1884	0	0	0	0	-0.00550817	0	0	0	0	11.9035	264.817	93.199	0.35279	-0.00550817	1.41412	-0.0290147	-0.645492	-0.227172
1.19239	0	0	0	0	-0.0055098	0	0	0	0	12.0388	239.626	85.1131	0.352414	-0.0055098	1.42	-0.0300357	-0.597844	-0.212349
1.19637	0	0	0	0	-0.00551142	0	0	0	0	12.0659	215.34	77.1543	0.3521	-0.00551142	1.42624	-0.031104	-0.555113	-0.198892
1.20036	0	0	0	0	-0.00551303	0	0	0	0	11.9904	192.081	69.4068	0.351867	-0.00551303	1.43287	-0.0322854	-0.517198	-0.186885
1.20435	0	0	0	0	-0.0055146	0	0	0	0	11.8185	169.943	61.9426	0.351737	-0.0055146	1.43993	-0.0336702	-0.484159	-0.176471
1.20834	0	0	0	0	-0.00551613	0	0	0	0	11.5569	148.999	54.8207	0.351738	-0.00551613	1.44749	-0.0353837	-0.456187	-0.167844
1.21233	0	0	0	0	-0.00551759	0	0	0	0	11.2133	129.296	48.0876	0.351909	-0.00551759	1.45565	-0.0376075	-0.433636	-0.161277
1.21631	0	0	0	0	-0.00551899	0	0	0	0	10.7965	110.866	41.7773	0.352308	-0.00551899	1.46461	-0.0406237	-0.41715	-0.157194
1.2203	0	0	0	0	-0.00552031	0	0	0	0	10.3165	93.7204	35.9119	0.35302	-0.00552031	1.47465	-0.044885	-0.407759	-0.156246
1.22429	0	0	0	0	-0.00552155	0	0	0	0	9.78395	77.86	30.502	0.354182	-0.00552155	1.48623	-0.0511473	-0.407027	-0.159455
1.22828	0	0	0	0	-0.0055227	0	0	0	0	9.21005	63.2701	25.5488	0.356043	-0.0055227	1.50014	-0.0607715	-0.417481	-0.168581
1.23227	0	0	0	0	-0.00552376	0	0	0	0	8.60588	49.9238	21.0455	0.359084	-0.00552376	1.5178	-0.0764275	-0.443366	-0.186902
1.23625	0	0	0	0	-0.00552473	0	0	0	0	7.98216	37.7834	16.9789	0.364383	-0.00552473	1.54195	-0.103956	-0.492074	-0.221125
1.24024	0	0	0	0	-0.00552562	0	0	0	0	7.3488	26.8019	13.3312	0.374836	-0.00552562	1.57858	-0.158155	-0.576807	-0.286903
1.24423	0	0	0	0	-0.00552643	0	0	0	0	6.71448	16.9242	10.0805	0.400924	-0.00552643	1.64352	-0.284824	-0.717913	-0.427609
1.24822	0	0	0	0	-0.00552715	0	0	0	0	6.08641	8.08836	7.20235	0.507306	-0.00552715	1.79611	-0.663227	-0.881377	-0.78483
1.25221	0	0	0	0	-0.0055278	0	0	0	0	5.47032	0.22635	4.66998	8.96741	-0.0055278	8.83935	-1.65508	-0.0684834	-1.41293
1.25619	0	0	0	0	-0.00552839	0	0	0	0	4.87036	-6.73484	2.45529	0.191323	-0.00552839	1.12243	-0.961497	1.32958	-0.484719
1.26018	0	0	0	0	-0.0055289	0	0	0	0	4.28927	-12.8722	0.529279	0.298187	-0.0055289	1.24319	-0.330715	0.992484	-0.0408089
1.26417	0	0	0	0	-0.00552936	0	0	0	0	3.72867	-18.2646	-1.1374	0.3161	-0.00552936	1.30414	-0.147132	0.720715	0.0448814
1.26816	0	0	0	0	-0.00552977	0	0	0	0	3.18918	-22.9915	-2.57396	0.322406	-0.00552977	1.3391	-0.0784438	0.565519	0.0633114
1.27215	0	0	0	0	-0.00553012	0	0	0	0	2.67064	-27.1322	-3.809	0.325623	-0.00553012	1.36149	-0.0462768	0.470146	0.0660024
1.27613	0	0	0	0	-0.00553044	0	0	0	0	2.17224	-30.7647	-4.87014	0.327603	-0.00553044	1.37706	-0.0287036	0.40652	0.0643534
1.28012	0	0	0	0	-0.00553073	0	0	0	0	1.6926	-33.9649	-5.78378	0.328958	-0.00553073	1.38858	-0.0179936	0.361072	0.0614859
1.28411	0	0	0	0	-0.00553098	0	0	0	0	1.22991	-36.804	-6.57471	0.329953	-0.00553098	1.39752	-0.0109206	0.326792	0.0583785
1.2881	0	0	0	0	-0.00553121	0	0	0	0	0.782012	-39.3486	-7.26595	0.330723	-0.00553121	1.40475	-0.00595781	0.29978	0.0553561
1.29208	0	0	0	0	-0.00553143	0	0	0	0	0.346593	-41.6602	-7.87851	0.331344	-0.00553143	1.4108	-0.0023109	0.277769	0.0525299
1.29607	0	0	0	0	-0.00553162	0	0	0	0	-0.0787401	-43.7938	-8.43126	0.331864	-0.00553162	1.41602	0.000466398	0.259403	0.0499406
1.30006	0	0	0	0	-0.00553181	0	0	0	0	-0.496364	-45.7983	-8.94073	0.332314	-0.00553181	1.42065	0.00264254	0.24382	0.0475985
1.30405	0	0	0	0	-0.00553199	0	0	0	0	-0.908562	-47.7152	-9.42103	0.332713	-0.00553199	1.42485	0.00438848	0.230471	0.0455048
1.30804	0	0	0	0	-0.00553217	0	0	0	0	-1.31736	-49.5784	-9.88364	0.333076	-0.00553217	1.42875	0.00581899	0.218996	0.0436576
1.31202	0	0	0	0	-0.00553234	0	0	0	0	-1.72442	-51.4138	-10.3373	0.333411	-0.00553234	1.43243	0.00701497	0.209153	0.0420525
1.31601	0	0	0	0	0.247471	0	0	0	0	0	0	0	0	0.0350516	0	0	0	0
