Coordinates
version=1
nRows=244
nColumns=38
inDegrees=no

Units are S.I. units (second, meters, Newtons, ...)
If the header above contains a line with 'inDegrees', this indicates whether rotational values are in degrees (yes) or radians (no).

endheader
time	pelvis_tilt	pelvis_list	pelvis_rotation	pelvis_tx	pelvis_ty	pelvis_tz	hip_flexion_r	hip_adduction_r	hip_rotation_r	knee_angle_r	ankle_angle_r	subtalar_angle_r	mtp_angle_r	hip_flexion_l	hip_adduction_l	hip_rotation_l	knee_angle_l	ankle_angle_l	subtalar_angle_l	mtp_angle_l	lumbar_extension	lumbar_bending	lumbar_rotation	arm_flex_r	arm_add_r	arm_rot_r	elbow_flex_r	pro_sup_r	wrist_flex_r	wrist_dev_r	arm_flex_l	arm_add_l	arm_rot_l	elbow_flex_l	pro_sup_l	wrist_flex_l	wrist_dev_l
5.41	-2.60545	0.358849	0.198435	-0.930222	-1.10074	0.208274	-0.178149	-0.385661	-0.422661	0.0822839	-0.157268	0	0	-0.523636	0.290659	0.303385	0.303757	0.0857774	0	0	-1.06172	-0.176192	-0.4423	0	0	0	0	0	0	0	0	0	0	0	0	0	0
5.41999	-2.61224	0.366783	0.206584	-0.941295	-1.09909	0.209685	-0.173765	-0.393169	-0.413208	0.0707676	-0.155564	0	0	-0.523618	0.292895	0.312927	0.320461	0.0991585	0	0	-1.06061	-0.180319	-0.445295	0	0	0	0	0	0	0	0	0	0	0	0	0	0
5.42997	-2.61899	0.374636	0.214699	-0.952396	-1.09745	0.211107	-0.169461	-0.400596	-0.403958	0.0595625	-0.15398	0	0	-0.523601	0.295031	0.322334	0.337228	0.112507	0	0	-1.05944	-0.184402	-0.448299	0	0	0	0	0	0	0	0	0	0	0	0	0	0
5.43996	-2.62565	0.382285	0.222754	-0.963561	-1.09584	0.212551	-0.16536	-0.407815	-0.395265	0.0491581	-0.15275	0	0	-0.523582	0.296905	0.33143	0.35414	0.12574	0	0	-1.0581	-0.18836	-0.451259	0	0	0	0	0	0	0	0	0	0	0	0	0	0
5.44995	-2.63213	0.389593	0.230745	-0.97483	-1.09428	0.214026	-0.16161	-0.414678	-0.387551	0.0400962	-0.152195	0	0	-0.523562	0.298322	0.340037	0.371284	0.138722	0	0	-1.05646	-0.192085	-0.454065	0	0	0	0	0	0	0	0	0	0	0	0	0	0
5.45994	-2.63838	0.396427	0.238696	-0.986237	-1.09279	0.215535	-0.158381	-0.421025	-0.381237	0.032865	-0.152704	0	0	-0.52354	0.299078	0.348004	0.388744	0.151265	0	0	-1.05441	-0.195448	-0.456581	0	0	0	0	0	0	0	0	0	0	0	0	0	0
5.46992	-2.6443	0.402669	0.246658	-0.997806	-1.09141	0.217073	-0.155872	-0.426688	-0.376706	0.0278203	-0.154711	0	0	-0.523516	0.298969	0.355205	0.406607	0.163131	0	0	-1.05183	-0.198297	-0.458674	0	0	0	0	0	0	0	0	0	0	0	0	0	0
5.47991	-2.64986	0.408211	0.254747	-1.00956	-1.09015	0.218624	-0.154255	-0.431514	-0.374344	0.0252148	-0.158661	0	0	-0.523491	0.297778	0.361513	0.424915	0.174068	0	0	-1.0485	-0.200447	-0.460199	0	0	0	0	0	0	0	0	0	0	0	0	0	0
5.4899	-2.65491	0.412952	0.263022	-1.02149	-1.08905	0.220176	-0.15371	-0.435329	-0.374499	0.0251667	-0.164949	0	0	-0.523465	0.295321	0.366825	0.443774	0.183735	0	0	-1.04443	-0.201685	-0.46111	0	0	0	0	0	0	0	0	0	0	0	0	0	0
5.49989	-2.65926	0.416817	0.271476	-1.03359	-1.08813	0.221723	-0.154403	-0.437969	-0.377404	0.0276796	-0.173861	0	0	-0.523442	0.291473	0.371078	0.463357	0.19172	0	0	-1.03986	-0.201811	-0.461425	0	0	0	0	0	0	0	0	0	0	0	0	0	0
5.50987	-2.66264	0.419751	0.279995	-1.0458	-1.08742	0.223268	-0.156503	-0.43927	-0.383095	0.0326366	-0.185482	0	0	-0.523425	0.286188	0.374241	0.483926	0.197519	0	0	-1.0353	-0.200647	-0.461237	0	0	0	0	0	0	0	0	0	0	0	0	0	0
5.51986	-2.66477	0.421718	0.288442	-1.05809	-1.08695	0.224808	-0.160133	-0.439099	-0.391415	0.0398387	-0.199607	0	0	-0.523419	0.27946	0.37627	0.505708	0.200609	0	0	-1.03122	-0.198047	-0.460605	0	0	0	0	0	0	0	0	0	0	0	0	0	0
5.52985	-2.66539	0.422692	0.296656	-1.07038	-1.08674	0.226339	-0.165407	-0.437328	-0.401967	0.0490052	-0.215637	0	0	-0.523432	0.271315	0.377093	0.528907	0.200431	0	0	-1.02804	-0.193882	-0.459574	0	0	0	0	0	0	0	0	0	0	0	0	0	0
5.53983	-2.6643	0.422631	0.304495	-1.08265	-1.08681	0.227845	-0.172391	-0.433831	-0.414155	0.0598171	-0.232543	0	0	-0.523472	0.261762	0.376579	0.553593	0.196454	0	0	-1.02601	-0.188039	-0.458141	0	0	0	0	0	0	0	0	0	0	0	0	0	0
5.54982	-2.66133	0.4215	0.311804	-1.09485	-1.08718	0.229312	-0.181135	-0.428486	-0.427228	0.0719233	-0.248975	0	0	-0.52355	0.25084	0.374577	0.579766	0.188164	0	0	-1.02529	-0.180446	-0.45629	0	0	0	0	0	0	0	0	0	0	0	0	0	0
5.55981	-2.65635	0.419306	0.318407	-1.10695	-1.08785	0.230728	-0.191661	-0.421227	-0.440468	0.0849686	-0.263564	0	0	-0.523678	0.238652	0.370965	0.607364	0.175107	0	0	-1.026	-0.171125	-0.454007	0	0	0	0	0	0	0	0	0	0	0	0	0	0
5.5698	-2.64931	0.416111	0.324123	-1.11894	-1.08883	0.232088	-0.203953	-0.412087	-0.453368	0.0986015	-0.275219	0	0	-0.523867	0.22539	0.365703	0.636236	0.156939	0	0	-1.0282	-0.160215	-0.451277	0	0	0	0	0	0	0	0	0	0	0	0	0	0
5.57978	-2.64025	0.41205	0.328793	-1.13078	-1.0901	0.233398	-0.217962	-0.401204	-0.465639	0.112454	-0.283285	0	0	-0.52413	0.211338	0.35887	0.666151	0.133482	0	0	-1.03192	-0.14798	-0.448105	0	0	0	0	0	0	0	0	0	0	0	0	0	0
5.58977	-2.62929	0.407322	0.332289	-1.14247	-1.09164	0.234671	-0.233623	-0.388813	-0.477128	0.126131	-0.287596	0	0	-0.524474	0.196859	0.350671	0.696797	0.104788	0	0	-1.03713	-0.134788	-0.444526	0	0	0	0	0	0	0	0	0	0	0	0	0	0
5.59976	-2.61661	0.402175	0.334531	-1.15401	-1.09342	0.235935	-0.250849	-0.375223	-0.487787	0.139236	-0.288386	0	0	-0.524904	0.182363	0.34142	0.727799	0.0712057	0	0	-1.04379	-0.121077	-0.440606	0	0	0	0	0	0	0	0	0	0	0	0	0	0
5.60975	-2.60245	0.396883	0.335491	-1.16538	-1.09538	0.237225	-0.269547	-0.360781	-0.497638	0.151402	-0.286123	0	0	-0.525414	0.168275	0.33151	0.758759	0.0334311	0	0	-1.05187	-0.107313	-0.436441	0	0	0	0	0	0	0	0	0	0	0	0	0	0
5.61973	-2.58707	0.391699	0.335202	-1.1766	-1.09751	0.238579	-0.289587	-0.345834	-0.50676	0.162347	-0.281361	0	0	-0.525987	0.154985	0.32136	0.789246	-0.00745243	0	0	-1.06133	-0.0939238	-0.43213	0	0	0	0	0	0	0	0	0	0	0	0	0	0
5.62972	-2.57075	0.386824	0.333743	-1.18764	-1.09974	0.24003	-0.310791	-0.330696	-0.515266	0.1719	-0.274652	0	0	-0.526584	0.142811	0.311362	0.818815	-0.049978	0	0	-1.0721	-0.0812618	-0.427757	0	0	0	0	0	0	0	0	0	0	0	0	0	0
5.63971	-2.55379	0.382388	0.331227	-1.1985	-1.10205	0.2416	-0.332915	-0.315644	-0.523273	0.180023	-0.266496	0	0	-0.527148	0.131994	0.301823	0.847018	-0.0923563	0	0	-1.08401	-0.0695823	-0.423373	0	0	0	0	0	0	0	0	0	0	0	0	0	0
5.64969	-2.5365	0.378435	0.327777	-1.20919	-1.10441	0.243294	-0.355637	-0.300917	-0.530887	0.186804	-0.257325	0	0	-0.527588	0.122689	0.292928	0.873417	-0.132618	0	0	-1.09683	-0.0590477	-0.418985	0	0	0	0	0	0	0	0	0	0	0	0	0	0
5.65968	-2.51925	0.374933	0.32352	-1.21972	-1.10679	0.245102	-0.378547	-0.286717	-0.538195	0.192444	-0.247504	0	0	-0.527778	0.114978	0.284738	0.897589	-0.168833	0	0	-1.11019	-0.0497378	-0.414551	0	0	0	0	0	0	0	0	0	0	0	0	0	0
5.66967	-2.50239	0.371768	0.318588	-1.2301	-1.10916	0.246995	-0.401158	-0.273209	-0.545271	0.197234	-0.237327	0	0	-0.527555	0.108869	0.277207	0.919122	-0.199366	0	0	-1.12358	-0.0416589	-0.40998	0	0	0	0	0	0	0	0	0	0	0	0	0	0
5.67966	-2.48632	0.368799	0.313113	-1.24035	-1.11151	0.248937	-0.422972	-0.260519	-0.552129	0.201468	-0.227019	0	0	-0.526712	0.104331	0.270219	0.937673	-0.223123	0	0	-1.13654	-0.0347716	-0.405164	0	0	0	0	0	0	0	0	0	0	0	0	0	0
5.68964	-2.47139	0.365856	0.307252	-1.2505	-1.1138	0.250883	-0.443494	-0.248721	-0.558729	0.205416	-0.216748	0	0	-0.525002	0.101276	0.26362	0.952948	-0.239656	0	0	-1.14858	-0.0289927	-0.399979	0	0	0	0	0	0	0	0	0	0	0	0	0	0
5.69963	-2.458	0.362757	0.301205	-1.26056	-1.11601	0.252784	-0.462253	-0.23783	-0.565005	0.209315	-0.206628	0	0	-0.522151	0.0995402	0.257242	0.964708	-0.249091	0	0	-1.15919	-0.024191	-0.394301	0	0	0	0	0	0	0	0	0	0	0	0	0	0
5.70962	-2.44649	0.359317	0.295232	-1.27057	-1.11811	0.254588	-0.478823	-0.227798	-0.570884	0.213363	-0.196739	0	0	-0.517866	0.0988852	0.250914	0.972783	-0.251925	0	0	-1.16784	-0.0201917	-0.388021	0	0	0	0	0	0	0	0	0	0	0	0	0	0
5.71961	-2.43718	0.355382	0.289584	-1.28051	-1.12007	0.25625	-0.492902	-0.218524	-0.5763	0.217651	-0.18712	0	0	-0.511872	0.0990659	0.244501	0.977115	-0.248907	0	0	-1.17419	-0.0167936	-0.381079	0	0	0	0	0	0	0	0	0	0	0	0	0	0
5.72959	-2.43024	0.350842	0.284488	-1.29039	-1.12186	0.257737	-0.50434	-0.209869	-0.581183	0.222159	-0.177788	0	0	-0.50395	0.0998536	0.237929	0.977738	-0.240907	0	0	-1.17807	-0.0137883	-0.373469	0	0	0	0	0	0	0	0	0	0	0	0	0	0
5.73958	-2.42573	0.345649	0.280132	-1.3002	-1.12347	0.259026	-0.513179	-0.201657	-0.585447	0.22675	-0.168737	0	0	-0.493996	0.101041	0.231188	0.97474	-0.228843	0	0	-1.17951	-0.010968	-0.365231	0	0	0	0	0	0	0	0	0	0	0	0	0	0
5.74957	-2.42353	0.339796	0.276628	-1.30994	-1.12489	0.260107	-0.519655	-0.193685	-0.589008	0.231215	-0.15996	0	0	-0.482105	0.10244	0.224337	0.968187	-0.213653	0	0	-1.17873	-0.00813264	-0.356443	0	0	0	0	0	0	0	0	0	0	0	0	0	0
5.75955	-2.42338	0.333283	0.273978	-1.31959	-1.12612	0.260982	-0.524104	-0.185742	-0.591812	0.235341	-0.151454	0	0	-0.468568	0.103897	0.21751	0.958061	-0.196309	0	0	-1.17608	-0.00509542	-0.347208	0	0	0	0	0	0	0	0	0	0	0	0	0	0
5.76954	-2.42493	0.326124	0.272122	-1.32916	-1.12717	0.261659	-0.526905	-0.177646	-0.593817	0.238961	-0.143233	0	0	-0.453775	0.105249	0.210786	0.944328	-0.177709	0	0	-1.17195	-0.00171631	-0.337628	0	0	0	0	0	0	0	0	0	0	0	0	0	0
5.77953	-2.42784	0.318343	0.270961	-1.33866	-1.12804	0.262156	-0.528431	-0.169243	-0.594988	0.241954	-0.135327	0	0	-0.438148	0.106331	0.204197	0.926965	-0.158655	0	0	-1.16669	0.0020997	-0.327794	0	0	0	0	0	0	0	0	0	0	0	0	0	0
5.78952	-2.43177	0.309961	0.270377	-1.34807	-1.12875	0.262492	-0.529019	-0.160411	-0.595308	0.244266	-0.127761	0	0	-0.422101	0.10698	0.197745	0.905994	-0.139835	0	0	-1.16062	0.00641517	-0.317786	0	0	0	0	0	0	0	0	0	0	0	0	0	0
5.7995	-2.43639	0.300994	0.270249	-1.35741	-1.12931	0.262689	-0.528963	-0.15106	-0.594779	0.24591	-0.12054	0	0	-0.406007	0.107038	0.191423	0.881501	-0.121822	0	0	-1.15403	0.0112725	-0.307671	0	0	0	0	0	0	0	0	0	0	0	0	0	0
5.80949	-2.44141	0.291448	0.270463	-1.36668	-1.12972	0.262765	-0.5285	-0.141123	-0.593402	0.24694	-0.11366	0	0	-0.390176	0.106371	0.185224	0.853648	-0.105064	0	0	-1.14714	0.0166961	-0.297505	0	0	0	0	0	0	0	0	0	0	0	0	0	0
5.81948	-2.44662	0.281328	0.270915	-1.37589	-1.12999	0.262738	-0.527813	-0.130551	-0.591166	0.247424	-0.107103	0	0	-0.374842	0.104875	0.179145	0.822681	-0.0898985	0	0	-1.14014	0.0226948	-0.287334	0	0	0	0	0	0	0	0	0	0	0	0	0	0
5.82946	-2.45182	0.270636	0.271519	-1.38502	-1.13012	0.262621	-0.527039	-0.119317	-0.588047	0.247454	-0.100827	0	0	-0.36016	0.102471	0.173186	0.788924	-0.0765714	0	0	-1.13317	0.0292713	-0.277193	0	0	0	0	0	0	0	0	0	0	0	0	0	0
5.83945	-2.45689	0.259364	0.272212	-1.39409	-1.13011	0.262424	-0.52627	-0.107401	-0.584013	0.247139	-0.0947555	0	0	-0.346209	0.0990946	0.16734	0.752757	-0.0652738	0	0	-1.12632	0.036431	-0.267109	0	0	0	0	0	0	0	0	0	0	0	0	0	0
5.84944	-2.46172	0.247494	0.272955	-1.40309	-1.12995	0.262153	-0.525566	-0.0947828	-0.579018	0.246593	-0.0887915	0	0	-0.333011	0.0946755	0.161581	0.714591	-0.0562029	0	0	-1.11965	0.0441906	-0.257094	0	0	0	0	0	0	0	0	0	0	0	0	0	0
5.85943	-2.46625	0.234995	0.273727	-1.41204	-1.12965	0.261812	-0.52496	-0.0814324	-0.573001	0.245931	-0.0828214	0	0	-0.320534	0.0891227	0.155842	0.674841	-0.0496267	0	0	-1.11322	0.0525774	-0.247145	0	0	0	0	0	0	0	0	0	0	0	0	0	0
5.86941	-2.47044	0.221827	0.274518	-1.42095	-1.12918	0.261405	-0.524464	-0.0673133	-0.565895	0.245245	-0.0767225	0	0	-0.308716	0.0823134	0.149984	0.633907	-0.045947	0	0	-1.10703	0.0616219	-0.237242	0	0	0	0	0	0	0	0	0	0	0	0	0	0
5.8794	-2.47426	0.20795	0.275322	-1.42982	-1.12857	0.260936	-0.524079	-0.0523869	-0.557625	0.244602	-0.0703828	0	0	-0.297467	0.074085	0.143769	0.592146	-0.0457358	0	0	-1.10111	0.0713454	-0.227344	0	0	0	0	0	0	0	0	0	0	0	0	0	0
5.88939	-2.47771	0.193328	0.27613	-1.43867	-1.12779	0.26041	-0.523794	-0.03662	-0.548113	0.244034	-0.0637361	0	0	-0.286683	0.0642276	0.136843	0.549867	-0.0497416	0	0	-1.09544	0.0817499	-0.217398	0	0	0	0	0	0	0	0	0	0	0	0	0	0
5.89938	-2.48081	0.178058	0.276785	-1.4475	-1.12686	0.259826	-0.523597	-0.0202356	-0.537381	0.243631	-0.0567533	0	0	-0.276264	0.0531842	0.129621	0.507638	-0.0569341	0	0	-1.08998	0.0926784	-0.207403	0	0	0	0	0	0	0	0	0	0	0	0	0	0
5.90936	-2.48361	0.162264	0.277163	-1.45634	-1.12579	0.25918	-0.523471	-0.00347876	-0.525527	0.243488	-0.0494069	0	0	-0.266096	0.0413567	0.122437	0.465979	-0.0663733	0	0	-1.08463	0.103966	-0.197391	0	0	0	0	0	0	0	0	0	0	0	0	0	0
5.91935	-2.48617	0.146083	0.277173	-1.46518	-1.12458	0.25847	-0.523401	0.0133989	-0.5127	0.243713	-0.0416652	0	0	-0.256066	0.0290903	0.115531	0.425344	-0.0772486	0	0	-1.0793	0.115455	-0.187414	0	0	0	0	0	0	0	0	0	0	0	0	0	0
5.92934	-2.48856	0.129666	0.276755	-1.47404	-1.12325	0.257693	-0.523372	0.0301412	-0.4991	0.244424	-0.0334808	0	0	-0.246061	0.0166793	0.109064	0.38612	-0.0888678	0	0	-1.07381	0.126997	-0.17754	0	0	0	0	0	0	0	0	0	0	0	0	0	0
5.93932	-2.49086	0.113178	0.275879	-1.48292	-1.12182	0.256847	-0.523372	0.0464918	-0.484959	0.245745	-0.0247806	0	0	-0.235976	0.00437996	0.103127	0.348643	-0.100663	0	0	-1.06798	0.138448	-0.167855	0	0	0	0	0	0	0	0	0	0	0	0	0	0
5.94931	-2.49312	0.0967914	0.274545	-1.49181	-1.1203	0.255935	-0.523389	0.0622365	-0.470537	0.247773	-0.0155156	0	0	-0.225831	-0.00759258	0.0978984	0.313001	-0.11224	0	0	-1.06199	0.149661	-0.158437	0	0	0	0	0	0	0	0	0	0	0	0	0	0
5.9593	-2.49537	0.0806848	0.272773	-1.50071	-1.11871	0.254963	-0.523417	0.0771795	-0.456094	0.250578	-0.00563575	0	0	-0.215656	-0.0190495	0.093493	0.279243	-0.123354	0	0	-1.05599	0.160499	-0.149384	0	0	0	0	0	0	0	0	0	0	0	0	0	0
5.96929	-2.49765	0.0650534	0.270592	-1.50959	-1.11708	0.253938	-0.52345	0.0911301	-0.441894	0.254197	0.00487825	0	0	-0.205483	-0.0298128	0.0899289	0.247393	-0.133924	0	0	-1.05007	0.170817	-0.140808	0	0	0	0	0	0	0	0	0	0	0	0	0	0
5.97927	-2.5	0.0501092	0.268029	-1.51845	-1.11543	0.252866	-0.523482	0.103894	-0.428209	0.258638	0.0160041	0	0	-0.195348	-0.0397081	0.0871384	0.217469	-0.144055	0	0	-1.04434	0.180452	-0.132832	0	0	0	0	0	0	0	0	0	0	0	0	0	0
5.98926	-2.50246	0.036074	0.26511	-1.52728	-1.11378	0.251758	-0.523512	0.115273	-0.415317	0.263902	0.0276796	0	0	-0.185294	-0.0485648	0.0849761	0.189488	-0.154031	0	0	-1.03889	0.189229	-0.12559	0	0	0	0	0	0	0	0	0	0	0	0	0	0
5.99925	-2.50503	0.0231598	0.261862	-1.53607	-1.11214	0.250624	-0.523538	0.125087	-0.403486	0.269982	0.0398161	0	0	-0.175372	-0.0562291	0.0832208	0.16346	-0.164272	0	0	-1.03378	0.196978	-0.119209	0	0	0	0	0	0	0	0	0	0	0	0	0	0
6.00924	-2.50779	0.0115555	0.258274	-1.54482	-1.11053	0.249472	-0.52356	0.133163	-0.392946	0.276795	0.0523772	0	0	-0.165537	-0.0625493	0.0815015	0.139526	-0.175248	0	0	-1.02889	0.203529	-0.113836	0	0	0	0	0	0	0	0	0	0	0	0	0	0
6.01922	-2.51078	0.00141643	0.254327	-1.55353	-1.10895	0.248312	-0.523577	0.139355	-0.383883	0.284268	0.0653267	0	0	-0.155756	-0.0674019	0.0794072	0.117819	-0.187425	0	0	-1.02407	0.208731	-0.109588	0	0	0	0	0	0	0	0	0	0	0	0	0	0
6.02921	-2.51405	-0.00716333	0.250014	-1.56222	-1.10742	0.247147	-0.523589	0.14358	-0.376436	0.292346	0.0786203	0	0	-0.146019	-0.070724	0.0765496	0.0984495	-0.201183	0	0	-1.01922	0.212491	-0.106545	0	0	0	0	0	0	0	0	0	0	0	0	0	0
6.0392	-2.51761	-0.0141768	0.245361	-1.57089	-1.10594	0.24598	-0.523598	0.145856	-0.370657	0.300987	0.0922007	0	0	-0.136337	-0.0725447	0.0726163	0.0814911	-0.216687	0	0	-1.01428	0.214813	-0.104734	0	0	0	0	0	0	0	0	0	0	0	0	0	0
6.04918	-2.52142	-0.0197389	0.240441	-1.57955	-1.1045	0.244807	-0.523603	0.14635	-0.36647	0.31014	0.106	0	0	-0.12675	-0.0730227	0.0674261	0.0669684	-0.233796	0	0	-1.00925	0.21583	-0.104119	0	0	0	0	0	0	0	0	0	0	0	0	0	0
6.05917	-2.52544	-0.0241247	0.23539	-1.58822	-1.10308	0.243615	-0.523607	0.145435	-0.363623	0.319743	0.11994	0	0	-0.117334	-0.0724909	0.0610171	0.0548288	-0.251921	0	0	-1.00414	0.215852	-0.104575	0	0	0	0	0	0	0	0	0	0	0	0	0	0
6.06916	-2.52957	-0.0278068	0.230419	-1.59691	-1.10164	0.242387	-0.523608	0.143734	-0.361636	0.329721	0.13393	0	0	-0.108223	-0.0715039	0.0537723	0.0449036	-0.269874	0	0	-0.99906	0.215394	-0.105856	0	0	0	0	0	0	0	0	0	0	0	0	0	0
6.07915	-2.5338	-0.031026	0.225614	-1.60566	-1.10018	0.241114	-0.523608	0.141568	-0.360155	0.339948	0.147884	0	0	-0.09945	-0.0703353	0.0456626	0.0371318	-0.287495	0	0	-0.993978	0.214699	-0.107806	0	0	0	0	0	0	0	0	0	0	0	0	0	0
6.08913	-2.53807	-0.0342308	0.221076	-1.61448	-1.09867	0.239783	-0.523608	0.139471	-0.358675	0.35032	0.161729	0	0	-0.0911153	-0.0694931	0.0371523	0.0313682	-0.303687	0	0	-0.988852	0.214186	-0.110169	0	0	0	0	0	0	0	0	0	0	0	0	0	0
6.09912	-2.54235	-0.0377091	0.216854	-1.62341	-1.0971	0.238389	-0.523607	0.137784	-0.356798	0.360774	0.17535	0	0	-0.0833238	-0.0692982	0.0285749	0.0274593	-0.318004	0	0	-0.983685	0.214099	-0.112711	0	0	0	0	0	0	0	0	0	0	0	0	0	0
6.10911	-2.5466	-0.0415631	0.212924	-1.63244	-1.09548	0.236931	-0.523606	0.136603	-0.354315	0.371316	0.188609	0	0	-0.0761911	-0.0698516	0.0200934	0.0252379	-0.330595	0	0	-0.978501	0.214482	-0.115268	0	0	0	0	0	0	0	0	0	0	0	0	0	0
6.1191	-2.55079	-0.0457279	0.209209	-1.64157	-1.09385	0.235414	-0.523604	0.135807	-0.351221	0.382022	0.201337	0	0	-0.0698607	-0.0710556	0.0118675	0.024509	-0.342028	0	0	-0.973365	0.215204	-0.11775	0	0	0	0	0	0	0	0	0	0	0	0	0	0
6.12908	-2.55489	-0.0499929	0.20561	-1.65079	-1.09225	0.233846	-0.523603	0.135097	-0.347695	0.393024	0.213341	0	0	-0.0644982	-0.0726444	0.00418478	0.0250508	-0.353129	0	0	-0.968364	0.215996	-0.120137	0	0	0	0	0	0	0	0	0	0	0	0	0	0
6.13907	-2.55887	-0.0540231	0.202035	-1.66006	-1.09074	0.232237	-0.523603	0.134044	-0.344085	0.4045	0.224394	0	0	-0.0602942	-0.0742174	-0.00244498	0.0266181	-0.364852	0	0	-0.963628	0.21649	-0.122485	0	0	0	0	0	0	0	0	0	0	0	0	0	0
6.14906	-2.56276	-0.0573696	0.198363	-1.66935	-1.08939	0.230601	-0.523602	0.132084	-0.340884	0.416518	0.234259	0	0	-0.0573887	-0.0752452	-0.00724459	0.0289787	-0.37812	0	0	-0.959118	0.216189	-0.124946	0	0	0	0	0	0	0	0	0	0	0	0	0	0
6.15904	-2.56658	-0.0594868	0.19449	-1.67866	-1.08828	0.228957	-0.523602	0.128558	-0.338727	0.429189	0.242659	0	0	-0.0559508	-0.0751144	-0.0091412	0.0318998	-0.393732	0	0	-0.954854	0.21452	-0.127726	0	0	0	0	0	0	0	0	0	0	0	0	0	0
6.16903	-2.57032	-0.0597601	0.190353	-1.68791	-1.08749	0.227321	-0.523602	0.122746	-0.338367	0.442691	0.249281	0	0	-0.056195	-0.0731736	-0.00678381	0.0351563	-0.412329	0	0	-0.950964	0.210882	-0.131081	0	0	0	0	0	0	0	0	0	0	0	0	0	0
6.17902	-2.57394	-0.0575315	0.185918	-1.69707	-1.08712	0.225711	-0.523602	0.113893	-0.340636	0.45724	0.253786	0	0	-0.0583488	-0.0687732	0.00126575	0.038544	-0.434591	0	0	-0.94764	0.204667	-0.135308	0	0	0	0	0	0	0	0	0	0	0	0	0	0
6.18901	-2.57743	-0.0530828	0.181411	-1.70616	-1.08714	0.22412	-0.523601	0.102355	-0.345631	0.472803	0.255963	0	0	-0.0622287	-0.0620985	0.0149192	0.0419552	-0.457866	0	0	-0.944699	0.196283	-0.140503	0	0	0	0	0	0	0	0	0	0	0	0	0	0
6.19899	-2.58071	-0.0468481	0.177012	-1.71518	-1.08753	0.222541	-0.523601	0.0886597	-0.353076	0.489343	0.255529	0	0	-0.0676184	-0.0535711	0.0333942	0.0453401	-0.479946	0	0	-0.942111	0.18625	-0.146559	0	0	0	0	0	0	0	0	0	0	0	0	0	0
6.20898	-2.58364	-0.0392963	0.172904	-1.72415	-1.08824	0.220965	-0.5236	0.0733734	-0.362561	0.506886	0.252198	0	0	-0.0742657	-0.0437358	0.0549378	0.0486551	-0.499476	0	0	-0.940009	0.175122	-0.153262	0	0	0	0	0	0	0	0	0	0	0	0	0	0
6.21897	-2.58608	-0.03086	0.16918	-1.73304	-1.08926	0.219384	-0.523599	0.056973	-0.373641	0.525475	0.245706	0	0	-0.0819469	-0.033116	0.0774036	0.0519179	-0.515654	0	0	-0.93856	0.163381	-0.160364	0	0	0	0	0	0	0	0	0	0	0	0	0	0
6.22896	-2.58789	-0.0219121	0.165863	-1.74185	-1.09056	0.217791	-0.523597	0.0398282	-0.385874	0.545167	0.235828	0	0	-0.0904922	-0.0221735	0.0986303	0.0551598	-0.527974	0	0	-0.937953	0.151423	-0.167619	0	0	0	0	0	0	0	0	0	0	0	0	0	0
6.23894	-2.58892	-0.0127714	0.162947	-1.75057	-1.09211	0.21618	-0.523595	0.0222307	-0.398847	0.566027	0.222404	0	0	-0.0997968	-0.0113087	0.116668	0.0583811	-0.53601	0	0	-0.938398	0.139591	-0.174797	0	0	0	0	0	0	0	0	0	0	0	0	0	0
6.24893	-2.58915	-0.00367325	0.160341	-1.75919	-1.09387	0.214549	-0.523591	0.00437206	-0.412141	0.587901	0.205374	0	0	-0.109681	-0.000781232	0.130031	0.0616769	-0.539296	0	0	-0.939801	0.128087	-0.181731	0	0	0	0	0	0	0	0	0	0	0	0	0	0
6.25892	-2.5885	0.00520055	0.15798	-1.76772	-1.0958	0.212893	-0.523585	-0.0135974	-0.425399	0.610713	0.184802	0	0	-0.120113	0.00921395	0.137829	0.0649823	-0.537242	0	0	-0.942247	0.117094	-0.188278	0	0	0	0	0	0	0	0	0	0	0	0	0	0
6.2689	-2.58685	0.0136952	0.155859	-1.77611	-1.09787	0.211201	-0.523578	-0.0315199	-0.43831	0.634465	0.160934	0	0	-0.131209	0.0185204	0.139922	0.0680729	-0.529103	0	0	-0.945993	0.106822	-0.194325	0	0	0	0	0	0	0	0	0	0	0	0	0	0
6.27889	-2.58416	0.021708	0.153943	-1.78435	-1.10002	0.209464	-0.52357	-0.0492645	-0.450567	0.659	0.134232	0	0	-0.143087	0.0270997	0.137126	0.0707416	-0.514002	0	0	-0.951081	0.0974141	-0.199823	0	0	0	0	0	0	0	0	0	0	0	0	0	0
6.28888	-2.58048	0.0292103	0.152141	-1.79245	-1.10222	0.207679	-0.523561	-0.0667614	-0.461872	0.684005	0.105385	0	0	-0.155877	0.0350671	0.131356	0.0728062	-0.491007	0	0	-0.957323	0.088898	-0.204775	0	0	0	0	0	0	0	0	0	0	0	0	0	0
6.29887	-2.57592	0.0362584	0.150298	-1.80041	-1.10443	0.205848	-0.523552	-0.0840157	-0.47195	0.709014	0.0753277	0	0	-0.169728	0.0427112	0.125765	0.0741204	-0.459283	0	0	-0.964282	0.0811607	-0.209232	0	0	0	0	0	0	0	0	0	0	0	0	0	0
6.30885	-2.57069	0.0429484	0.148408	-1.80824	-1.10662	0.203982	-0.523543	-0.100923	-0.480613	0.733415	0.0452684	0	0	-0.184512	0.0501276	0.121835	0.0747952	-0.417812	0	0	-0.971321	0.0740997	-0.213321	0	0	0	0	0	0	0	0	0	0	0	0	0	0
6.31884	-2.56479	0.0493453	0.146587	-1.81593	-1.10877	0.202101	-0.523535	-0.11728	-0.48778	0.756894	0.0166745	0	0	-0.200229	0.0572834	0.120115	0.0748259	-0.365707	0	0	-0.978721	0.0676869	-0.217181	0	0	0	0	0	0	0	0	0	0	0	0	0	0
6.32883	-2.55815	0.0554746	0.144973	-1.82341	-1.11088	0.200227	-0.523532	-0.13282	-0.493396	0.779187	-0.00873447	0	0	-0.216853	0.0640842	0.120681	0.0742674	-0.30251	0	0	-0.986841	0.0619584	-0.220954	0	0	0	0	0	0	0	0	0	0	0	0	0	0
6.33882	-2.55074	0.0613428	0.143696	-1.83065	-1.11293	0.198382	-0.523534	-0.147256	-0.497447	0.800067	-0.0291112	0	0	-0.234358	0.0704118	0.123379	0.0731982	-0.228595	0	0	-0.996062	0.0569724	-0.22477	0	0	0	0	0	0	0	0	0	0	0	0	0	0
6.3488	-2.54247	0.0669436	0.142883	-1.8376	-1.11495	0.196587	-0.523546	-0.160298	-0.49996	0.819353	-0.0426171	0	0	-0.25273	0.0761366	0.127957	0.0716909	-0.145694	0	0	-1.00678	0.0528054	-0.228739	0	0	0	0	0	0	0	0	0	0	0	0	0	0
6.35879	-2.53335	0.0722957	0.142619	-1.84422	-1.11693	0.194864	-0.523572	-0.171695	-0.500965	0.836756	-0.0476304	0	0	-0.271852	0.0811913	0.13412	0.0699474	-0.0575251	0	0	-1.0191	0.0494746	-0.232948	0	0	0	0	0	0	0	0	0	0	0	0	0	0
6.36878	-2.5235	0.0774649	0.142934	-1.85053	-1.11891	0.193228	-0.523616	-0.181302	-0.500526	0.851885	-0.0430261	0	0	-0.29148	0.0856039	0.141516	0.0683111	0.029486	0	0	-1.03284	0.0469066	-0.23747	0	0	0	0	0	0	0	0	0	0	0	0	0	0
6.37876	-2.51305	0.0824082	0.143864	-1.85652	-1.12088	0.191687	-0.523682	-0.188932	-0.498706	0.864336	-0.0284526	0	0	-0.311401	0.0893029	0.149706	0.0668821	0.109943	0	0	-1.04776	0.0451296	-0.242303	0	0	0	0	0	0	0	0	0	0	0	0	0	0
6.38875	-2.50217	0.0870531	0.145408	-1.86222	-1.12284	0.190247	-0.523775	-0.1945	-0.495648	0.873704	-0.00453321	0	0	-0.331376	0.0922186	0.158279	0.0656738	0.180353	0	0	-1.06355	0.0441819	-0.247394	0	0	0	0	0	0	0	0	0	0	0	0	0	0
6.39874	-2.49113	0.0913552	0.147518	-1.86766	-1.12478	0.188902	-0.523898	-0.198131	-0.491646	0.879579	0.0270274	0	0	-0.351105	0.0943594	0.166906	0.0646778	0.239048	0	0	-1.07984	0.0440483	-0.252673	0	0	0	0	0	0	0	0	0	0	0	0	0	0
6.40873	-2.48028	0.0953275	0.150091	-1.87288	-1.12667	0.187644	-0.524055	-0.20022	-0.487203	0.881544	0.0633761	0	0	-0.370201	0.0958492	0.175353	0.0638878	0.285803	0	0	-1.09612	0.0446289	-0.258085	0	0	0	0	0	0	0	0	0	0	0	0	0	0
6.41871	-2.46995	0.0990249	0.153004	-1.87792	-1.12848	0.186463	-0.524243	-0.201152	-0.482722	0.879257	0.101582	0	0	-0.388322	0.0968641	0.183459	0.0633512	0.321413	0	0	-1.11188	0.0457736	-0.263585	0	0	0	0	0	0	0	0	0	0	0	0	0	0
6.4287	-2.46043	0.102531	0.156118	-1.88282	-1.13021	0.185355	-0.524457	-0.201295	-0.478479	0.872467	0.139072	0	0	-0.405166	0.097618	0.191116	0.0631789	0.347308	0	0	-1.12654	0.0472982	-0.269127	0	0	0	0	0	0	0	0	0	0	0	0	0	0
6.43869	-2.45188	0.105933	0.159311	-1.88762	-1.13185	0.184319	-0.524685	-0.200974	-0.47471	0.861082	0.173664	0	0	-0.420582	0.0982931	0.198254	0.0633839	0.36523	0	0	-1.13988	0.049019	-0.274671	0	0	0	0	0	0	0	0	0	0	0	0	0	0
6.44868	-2.44447	0.10934	0.16246	-1.89234	-1.13337	0.183348	-0.524906	-0.200499	-0.471569	0.845094	0.203565	0	0	-0.434428	0.0991003	0.20488	0.0640233	0.376907	0	0	-1.15155	0.0507409	-0.280177	0	0	0	0	0	0	0	0	0	0	0	0	0	0
6.45866	-2.43831	0.112869	0.165466	-1.89701	-1.13477	0.182442	-0.52509	-0.200155	-0.469189	0.824616	0.227267	0	0	-0.446639	0.100234	0.211012	0.0650928	0.383886	0	0	-1.16141	0.0522772	-0.285616	0	0	0	0	0	0	0	0	0	0	0	0	0	0
6.46865	-2.43345	0.116631	0.168256	-1.90165	-1.13604	0.181597	-0.525191	-0.200191	-0.46769	0.799865	0.243488	0	0	-0.457206	0.101861	0.216654	0.0665461	0.387467	0	0	-1.16941	0.0534639	-0.290982	0	0	0	0	0	0	0	0	0	0	0	0	0	0
6.47864	-2.42992	0.120734	0.170794	-1.90626	-1.13717	0.180816	-0.525152	-0.200808	-0.467169	0.771137	0.251175	0	0	-0.466153	0.104115	0.22179	0.0683129	0.388672	0	0	-1.17559	0.05417	-0.296286	0	0	0	0	0	0	0	0	0	0	0	0	0	0
6.48862	-2.42775	0.12527	0.173087	-1.91082	-1.13814	0.180099	-0.524895	-0.202134	-0.467673	0.7388	0.249577	0	0	-0.473521	0.107087	0.226409	0.070312	0.388237	0	0	-1.18006	0.0543041	-0.301564	0	0	0	0	0	0	0	0	0	0	0	0	0	0
6.49861	-2.4269	0.130297	0.175187	-1.91535	-1.13896	0.179451	-0.524332	-0.204198	-0.469152	0.703347	0.238686	0	0	-0.479386	0.110803	0.230507	0.0724543	0.386651	0	0	-1.18295	0.0538345	-0.30686	0	0	0	0	0	0	0	0	0	0	0	0	0	0
6.5086	-2.4273	0.135821	0.177187	-1.91982	-1.13963	0.178875	-0.523359	-0.206897	-0.471404	0.665441	0.219637	0	0	-0.483869	0.115204	0.234108	0.0746443	0.384153	0	0	-1.18445	0.052803	-0.312209	0	0	0	0	0	0	0	0	0	0	0	0	0	0
6.51859	-2.42878	0.141778	0.179226	-1.92423	-1.14015	0.178377	-0.521865	-0.209966	-0.474026	0.625952	0.195086	0	0	-0.487156	0.120124	0.237271	0.0767886	0.380785	0	0	-1.18481	0.0513411	-0.317615	0	0	0	0	0	0	0	0	0	0	0	0	0	0
6.52857	-2.43113	0.148032	0.181485	-1.92855	-1.14054	0.177965	-0.519741	-0.212967	-0.476381	0.585947	0.169257	0	0	-0.489498	0.125286	0.240073	0.0788067	0.376503	0	0	-1.18432	0.0496686	-0.323032	0	0	0	0	0	0	0	0	0	0	0	0	0	0
6.53856	-2.43421	0.154459	0.184076	-1.93278	-1.14082	0.177647	-0.516898	-0.215673	-0.478176	0.546317	0.144836	0	0	-0.491029	0.13049	0.242581	0.080636	0.371228	0	0	-1.18317	0.0479227	-0.328426	0	0	0	0	0	0	0	0	0	0	0	0	0	0
6.54855	-2.43798	0.160961	0.187049	-1.93691	-1.141	0.177436	-0.513281	-0.21804	-0.479424	0.507789	0.123144	0	0	-0.491788	0.135608	0.244845	0.082252	0.364912	0	0	-1.18147	0.0461629	-0.333784	0	0	0	0	0	0	0	0	0	0	0	0	0	0
6.55854	-2.44244	0.167474	0.1904	-1.94095	-1.14107	0.177343	-0.508906	-0.220163	-0.48036	0.470949	0.104441	0	0	-0.491773	0.140581	0.246904	0.0836719	0.357629	0	0	-1.17926	0.0443811	-0.339117	0	0	0	0	0	0	0	0	0	0	0	0	0	0
6.56852	-2.4475	0.17401	0.194088	-1.9449	-1.14104	0.177383	-0.503889	-0.222185	-0.481268	0.436194	0.0881641	0	0	-0.491068	0.145418	0.248816	0.0849649	0.349654	0	0	-1.17663	0.0425086	-0.344447	0	0	0	0	0	0	0	0	0	0	0	0	0	0
6.57851	-2.453	0.180648	0.198045	-1.94877	-1.14091	0.177566	-0.498492	-0.224284	-0.482477	0.403784	0.0731174	0	0	-0.489846	0.150197	0.250789	0.0862133	0.341495	0	0	-1.1737	0.0404354	-0.349822	0	0	0	0	0	0	0	0	0	0	0	0	0	0
6.5885	-2.45883	0.187439	0.202222	-1.95258	-1.14069	0.177903	-0.493009	-0.226594	-0.484346	0.373888	0.0576624	0	0	-0.48824	0.154954	0.252821	0.0874947	0.332988	0	0	-1.17053	0.0380868	-0.355276	0	0	0	0	0	0	0	0	0	0	0	0	0	0
6.59848	-2.46486	0.194401	0.206584	-1.95634	-1.14037	0.178398	-0.487709	-0.229205	-0.487244	0.346614	0.0398632	0	0	-0.486316	0.159688	0.254689	0.0888683	0.323314	0	0	-1.16712	0.0354163	-0.36081	0	0	0	0	0	0	0	0	0	0	0	0	0	0
6.60847	-2.47107	0.201516	0.211093	-1.96007	-1.13993	0.179049	-0.482795	-0.232173	-0.491519	0.32201	0.0176008	0	0	-0.484059	0.164368	0.255943	0.0903638	0.311047	0	0	-1.1634	0.0323928	-0.366383	0	0	0	0	0	0	0	0	0	0	0	0	0	0
6.61846	-2.47728	0.208625	0.215841	-1.96378	-1.13938	0.179838	-0.478505	-0.235373	-0.497492	0.300451	-0.00737504	0	0	-0.481567	0.168729	0.256038	0.0919531	0.294344	0	0	-1.15942	0.0292422	-0.371856	0	0	0	0	0	0	0	0	0	0	0	0	0	0
6.62845	-2.48342	0.21554	0.220908	-1.96749	-1.1387	0.180738	-0.474963	-0.238651	-0.505382	0.282203	-0.0332584	0	0	-0.478822	0.172502	0.254258	0.0935845	0.270932	0	0	-1.15512	0.0261918	-0.377071	0	0	0	0	0	0	0	0	0	0	0	0	0	0
6.63843	-2.48948	0.222108	0.226316	-1.97122	-1.13791	0.181723	-0.472212	-0.241877	-0.515196	0.267364	-0.0581183	0	0	-0.475754	0.17552	0.250085	0.0952086	0.239206	0	0	-1.15042	0.0233922	-0.381893	0	0	0	0	0	0	0	0	0	0	0	0	0	0
6.64842	-2.4952	0.228066	0.232183	-1.97493	-1.13702	0.182751	-0.470404	-0.244733	-0.527008	0.256129	-0.0810011	0	0	-0.472594	0.177421	0.243445	0.0967797	0.19846	0	0	-1.14548	0.0212544	-0.386092	0	0	0	0	0	0	0	0	0	0	0	0	0	0
6.65841	-2.50036	0.233233	0.238545	-1.97863	-1.13609	0.183782	-0.469642	-0.246898	-0.540366	0.248369	-0.100891	0	0	-0.469584	0.177991	0.234595	0.098221	0.149152	0	0	-1.14049	0.0200642	-0.389479	0	0	0	0	0	0	0	0	0	0	0	0	0	0
6.66839	-2.50483	0.237483	0.245372	-1.9823	-1.13516	0.184785	-0.469948	-0.248055	-0.554409	0.243635	-0.116968	0	0	-0.466912	0.177128	0.223891	0.0994659	0.0923277	0	0	-1.1356	0.0199999	-0.39191	0	0	0	0	0	0	0	0	0	0	0	0	0	0
6.67838	-2.50854	0.240815	0.252555	-1.98591	-1.13427	0.185734	-0.47129	-0.248069	-0.568345	0.241303	-0.128949	0	0	-0.464717	0.174931	0.211947	0.100507	0.0300765	0	0	-1.13091	0.021073	-0.393334	0	0	0	0	0	0	0	0	0	0	0	0	0	0
6.68837	-2.51147	0.243427	0.259889	-1.98946	-1.13346	0.186613	-0.473641	-0.247103	-0.581687	0.240657	-0.137146	0	0	-0.463172	0.171775	0.1998	0.101374	-0.033835	0	0	-1.12656	0.0230753	-0.393862	0	0	0	0	0	0	0	0	0	0	0	0	0	0
6.69836	-2.51362	0.24578	0.267045	-1.99291	-1.13278	0.187418	-0.477044	-0.245669	-0.594241	0.24096	-0.142269	0	0	-0.462569	0.168367	0.189067	0.102139	-0.0933217	0	0	-1.12279	0.0255313	-0.393796	0	0	0	0	0	0	0	0	0	0	0	0	0	0
6.70834	-2.51506	0.248168	0.273823	-1.99626	-1.13227	0.188144	-0.481407	-0.244139	-0.606029	0.241626	-0.145006	0	0	-0.462999	0.16519	0.180755	0.10284	-0.144583	0	0	-1.11967	0.0281252	-0.393409	0	0	0	0	0	0	0	0	0	0	0	0	0	0
6.71833	-2.51595	0.250749	0.280111	-1.99949	-1.13193	0.188788	-0.486533	-0.24276	-0.617136	0.242284	-0.145786	0	0	-0.464397	0.162549	0.175423	0.103524	-0.185455	0	0	-1.11718	0.0306525	-0.392913	0	0	0	0	0	0	0	0	0	0	0	0	0	0
6.72832	-2.51648	0.253586	0.285851	-2.00262	-1.13176	0.189352	-0.492135	-0.241694	-0.627627	0.242748	-0.144751	0	0	-0.466594	0.160621	0.173331	0.104238	-0.214867	0	0	-1.11523	0.0329707	-0.392465	0	0	0	0	0	0	0	0	0	0	0	0	0	0
6.73831	-2.51685	0.256677	0.291012	-2.00563	-1.13174	0.189846	-0.497881	-0.241047	-0.637544	0.242977	-0.141766	0	0	-0.469359	0.159503	0.174565	0.105033	-0.232396	0	0	-1.11371	0.0349738	-0.392179	0	0	0	0	0	0	0	0	0	0	0	0	0	0
6.74829	-2.51726	0.259985	0.295589	-2.00853	-1.13186	0.190281	-0.503453	-0.240883	-0.646914	0.243039	-0.136426	0	0	-0.472453	0.15923	0.179143	0.105956	-0.237961	0	0	-1.11251	0.0365835	-0.392138	0	0	0	0	0	0	0	0	0	0	0	0	0	0
6.75828	-2.51789	0.26345	0.299582	-2.01133	-1.13211	0.190676	-0.508577	-0.241233	-0.655742	0.243035	-0.128136	0	0	-0.475662	0.159801	0.187067	0.107041	-0.231623	0	0	-1.11155	0.037744	-0.392394	0	0	0	0	0	0	0	0	0	0	0	0	0	0
6.76827	-2.51887	0.267004	0.303003	-2.01401	-1.13249	0.191046	-0.513046	-0.242094	-0.664002	0.243056	-0.116177	0	0	-0.478807	0.161186	0.198338	0.108318	-0.213503	0	0	-1.11076	0.0384247	-0.392974	0	0	0	0	0	0	0	0	0	0	0	0	0	0
6.77825	-2.52028	0.270579	0.305875	-2.01659	-1.13298	0.191407	-0.516741	-0.24344	-0.67162	0.2432	-0.0997493	0	0	-0.481762	0.163331	0.212951	0.109809	-0.183809	0	0	-1.11014	0.0386261	-0.393888	0	0	0	0	0	0	0	0	0	0	0	0	0	0
6.78824	-2.52214	0.274111	0.308235	-2.01905	-1.13358	0.191766	-0.519648	-0.245221	-0.67848	0.243561	-0.0780465	0	0	-0.484462	0.166155	0.230837	0.111535	-0.14299	0	0	-1.10969	0.0383852	-0.395129	0	0	0	0	0	0	0	0	0	0	0	0	0	0
6.79823	-2.52439	0.27754	0.310138	-2.02141	-1.13429	0.192128	-0.521819	-0.247339	-0.684427	0.244204	-0.0503908	0	0	-0.486919	0.169527	0.251761	0.113511	-0.0920081	0	0	-1.10943	0.0377867	-0.39667	0	0	0	0	0	0	0	0	0	0	0	0	0	0
6.80822	-2.52685	0.280806	0.311683	-2.02368	-1.1351	0.192489	-0.523347	-0.249605	-0.689317	0.245097	-0.0164303	0	0	-0.489231	0.173231	0.275199	0.115751	-0.0327057	0	0	-1.1094	0.0369873	-0.39845	0	0	0	0	0	0	0	0	0	0	0	0	0	0
6.8182	-2.52937	0.283773	0.313044	-2.02585	-1.13597	0.192842	-0.524343	-0.251728	-0.693142	0.246176	0.0236186	0	0	-0.49143	0.176921	0.300194	0.118204	0.0317259	0	0	-1.1096	0.0362465	-0.400372	0	0	0	0	0	0	0	0	0	0	0	0	0	0
6.82819	-2.53181	0.286188	0.31448	-2.02797	-1.13686	0.193173	-0.52492	-0.25328	-0.695983	0.247349	0.0686967	0	0	-0.493434	0.180077	0.32518	0.120763	0.0961821	0	0	-1.1099	0.0359459	-0.402287	0	0	0	0	0	0	0	0	0	0	0	0	0	0
6.83818	-2.53411	0.287908	0.316106	-2.03004	-1.13771	0.193474	-0.525183	-0.25404	-0.697968	0.248554	0.116536	0	0	-0.495169	0.182378	0.348756	0.123278	0.156223	0	0	-1.11014	0.0362739	-0.404084	0	0	0	0	0	0	0	0	0	0	0	0	0	0
6.84817	-2.5363	0.28897	0.31786	-2.03208	-1.13847	0.193751	-0.525224	-0.254074	-0.699249	0.249691	0.163139	0	0	-0.496561	0.183827	0.369916	0.125622	0.208875	0	0	-1.1101	0.0371217	-0.405728	0	0	0	0	0	0	0	0	0	0	0	0	0	0
6.85815	-2.53842	0.28944	0.319652	-2.03412	-1.13912	0.194007	-0.525121	-0.253499	-0.699978	0.250635	0.205372	0	0	-0.497571	0.184496	0.388023	0.127712	0.252428	0	0	-1.10965	0.038357	-0.407212	0	0	0	0	0	0	0	0	0	0	0	0	0	0
6.86814	-2.54049	0.289417	0.321403	-2.03616	-1.13962	0.194248	-0.524934	-0.252457	-0.700296	0.251302	0.241347	0	0	-0.498206	0.184507	0.402872	0.129502	0.286517	0	0	-1.10869	0.0398448	-0.408555	0	0	0	0	0	0	0	0	0	0	0	0	0	0
6.87813	-2.54252	0.288999	0.323075	-2.03818	-1.14	0.194476	-0.524708	-0.251063	-0.700327	0.251647	0.270275	0	0	-0.49849	0.183975	0.414509	0.130978	0.311501	0	0	-1.10723	0.04149	-0.409788	0	0	0	0	0	0	0	0	0	0	0	0	0	0
6.88811	-2.54453	0.288269	0.324675	-2.04019	-1.14025	0.194693	-0.524476	-0.249388	-0.700172	0.251653	0.292171	0	0	-0.498454	0.18299	0.423102	0.132132	0.328048	0	0	-1.1053	0.0432417	-0.410946	0	0	0	0	0	0	0	0	0	0	0	0	0	0
6.8981	-2.54653	0.287326	0.326209	-2.04217	-1.14039	0.194906	-0.524257	-0.247502	-0.69991	0.251308	0.307568	0	0	-0.498143	0.18166	0.428989	0.132965	0.337298	0	0	-1.10301	0.0450387	-0.412071	0	0	0	0	0	0	0	0	0	0	0	0	0	0
6.90809	-2.54854	0.286265	0.327703	-2.04411	-1.14043	0.19512	-0.524065	-0.245448	-0.699601	0.250597	0.317263	0	0	-0.497595	0.180086	0.432537	0.133484	0.340396	0	0	-1.10049	0.0468241	-0.413207	0	0	0	0	0	0	0	0	0	0	0	0	0	0
6.91808	-2.55057	0.285177	0.329198	-2.046	-1.14038	0.195346	-0.523905	-0.24323	-0.699286	0.249478	0.322126	0	0	-0.496832	0.178348	0.434052	0.133685	0.338274	0	0	-1.09793	0.0485445	-0.414399	0	0	0	0	0	0	0	0	0	0	0	0	0	0
6.92806	-2.55267	0.284146	0.330735	-2.04783	-1.14025	0.195595	-0.523779	-0.240824	-0.698994	0.247874	0.322954	0	0	-0.495861	0.176515	0.433744	0.133542	0.331571	0	0	-1.09557	0.0501379	-0.415685	0	0	0	0	0	0	0	0	0	0	0	0	0	0
6.93805	-2.55482	0.283166	0.332366	-2.04959	-1.14005	0.19587	-0.523684	-0.23819	-0.698738	0.24581	0.32056	0	0	-0.494694	0.174558	0.43177	0.133069	0.320621	0	0	-1.09343	0.0516471	-0.417055	0	0	0	0	0	0	0	0	0	0	0	0	0	0
6.94804	-2.55698	0.282139	0.334152	-2.05129	-1.13978	0.196157	-0.523616	-0.235282	-0.698526	0.243418	0.31582	0	0	-0.493351	0.17236	0.42825	0.132319	0.305505	0	0	-1.09135	0.0532175	-0.418443	0	0	0	0	0	0	0	0	0	0	0	0	0	0
6.95803	-2.5591	0.280982	0.33614	-2.05294	-1.13948	0.196449	-0.523572	-0.232032	-0.69836	0.240788	0.309489	0	0	-0.491838	0.169815	0.423239	0.131324	0.286161	0	0	-1.08921	0.0549642	-0.419777	0	0	0	0	0	0	0	0	0	0	0	0	0	0
6.96801	-2.56117	0.279641	0.338356	-2.05453	-1.13913	0.196745	-0.523545	-0.228387	-0.698235	0.237963	0.302142	0	0	-0.490157	0.166854	0.416759	0.130102	0.262557	0	0	-1.08702	0.0569482	-0.420991	0	0	0	0	0	0	0	0	0	0	0	0	0	0
6.978	-2.56317	0.278107	0.340787	-2.05608	-1.13875	0.197047	-0.523533	-0.224324	-0.698147	0.234953	0.294175	0	0	-0.488313	0.163472	0.408865	0.128663	0.234896	0	0	-1.08484	0.0591605	-0.422041	0	0	0	0	0	0	0	0	0	0	0	0	0	0
6.98799	-2.56506	0.27634	0.343381	-2.05758	-1.13835	0.19735	-0.52353	-0.2199	-0.69809	0.231879	0.286024	0	0	-0.486348	0.159669	0.39977	0.127085	0.20387	0	0	-1.08256	0.0616197	-0.42286	0	0	0	0	0	0	0	0	0	0	0	0	0	0
6.99797	-2.56683	0.274372	0.346041	-2.05905	-1.13796	0.197651	-0.523534	-0.215249	-0.698057	0.228856	0.278096	0	0	-0.484328	0.155555	0.389909	0.125462	0.170909	0	0	-1.08017	0.0642502	-0.423415	0	0	0	0	0	0	0	0	0	0	0	0	0	0
7.00796	-2.56846	0.272332	0.348615	-2.06047	-1.13759	0.197958	-0.523541	-0.210611	-0.698042	0.225994	0.270735	0	0	-0.482365	0.151382	0.380049	0.12391	0.138485	0	0	-1.0778	0.0668601	-0.423721	0	0	0	0	0	0	0	0	0	0	0	0	0	0
7.01795	-2.56997	0.270473	0.3509	-2.06184	-1.13728	0.198284	-0.523551	-0.206367	-0.698039	0.223401	0.264212	0	0	-0.480618	0.147584	0.371415	0.122589	0.110434	0	0	-1.07574	0.0691214	-0.423856	0	0	0	0	0	0	0	0	0	0	0	0	0	0
7.02794	-2.57137	0.268828	0.352858	-2.06316	-1.13704	0.198625	-0.523561	-0.20259	-0.698045	0.221137	0.258675	0	0	-0.479107	0.144233	0.364263	0.121545	0.0874058	0	0	-1.07392	0.0709901	-0.423853	0	0	0	0	0	0	0	0	0	0	0	0	0	0
7.03792	-2.57267	0.26745	0.354439	-2.06443	-1.13686	0.198982	-0.52357	-0.199359	-0.698055	0.219223	0.254195	0	0	-0.477876	0.141419	0.358822	0.120774	0.0700455	0	0	-1.07242	0.0724052	-0.423748	0	0	0	0	0	0	0	0	0	0	0	0	0	0
7.04791	-2.57386	0.266192	0.355722	-2.06566	-1.13674	0.199337	-0.523578	-0.196492	-0.698068	0.217646	0.250748	0	0	-0.476849	0.138918	0.354467	0.120183	0.0562922	0	0	-1.071	0.0735499	-0.423513	0	0	0	0	0	0	0	0	0	0	0	0	0	0
7.0579	-2.57492	0.264946	0.356758	-2.06686	-1.13665	0.199681	-0.523585	-0.193852	-0.698081	0.216364	0.248286	0	0	-0.475984	0.13656	0.350655	0.119657	0.0444777	0	0	-1.06956	0.0745565	-0.423117	0	0	0	0	0	0	0	0	0	0	0	0	0	0
7.06789	-2.57586	0.263737	0.357525	-2.06804	-1.13659	0.20001	-0.523591	-0.191467	-0.698094	0.215345	0.246741	0	0	-0.475305	0.134377	0.347361	0.11915	0.0346284	0	0	-1.06818	0.0754019	-0.422572	0	0	0	0	0	0	0	0	0	0	0	0	0	0
7.07787	-2.57672	0.262768	0.357919	-2.06916	-1.13659	0.200335	-0.523595	-0.189588	-0.698105	0.214573	0.24603	0	0	-0.474913	0.132672	0.345309	0.118714	0.0290726	0	0	-1.06717	0.0758613	-0.42197	0	0	0	0	0	0	0	0	0	0	0	0	0	0
7.08786	-2.57753	0.262079	0.357953	-2.07024	-1.13665	0.200653	-0.523598	-0.188256	-0.698114	0.214011	0.246017	0	0	-0.474802	0.1315	0.344621	0.118353	0.0280452	0	0	-1.06651	0.0759072	-0.421372	0	0	0	0	0	0	0	0	0	0	0	0	0	0
7.09785	-2.57832	0.261783	0.357592	-2.07126	-1.13676	0.20097	-0.5236	-0.187592	-0.698121	0.213606	0.246562	0	0	-0.475016	0.131014	0.34567	0.118077	0.0326244	0	0	-1.06639	0.0754274	-0.420862	0	0	0	0	0	0	0	0	0	0	0	0	0	0
7.10783	-2.57915	0.262139	0.35672	-2.07219	-1.13697	0.201304	-0.523601	-0.187912	-0.698127	0.213324	0.247531	0	0	-0.475682	0.1316	0.349469	0.117978	0.0458529	0	0	-1.06717	0.0741313	-0.420573	0	0	0	0	0	0	0	0	0	0	0	0	0	0
7.11782	-2.58006	0.263253	0.355328	-2.07302	-1.13727	0.201663	-0.523602	-0.189317	-0.698131	0.213122	0.248778	0	0	-0.476823	0.133397	0.356434	0.118096	0.0686948	0	0	-1.06899	0.0719254	-0.420595	0	0	0	0	0	0	0	0	0	0	0	0	0	0
7.12781	-2.58105	0.26504	0.353508	-2.07377	-1.13765	0.20204	-0.523602	-0.191673	-0.698133	0.212954	0.25017	0	0	-0.478362	0.136259	0.366236	0.118402	0.0998269	0	0	-1.07165	0.0689363	-0.420941	0	0	0	0	0	0	0	0	0	0	0	0	0	0
7.1378	-2.58211	0.267204	0.351445	-2.07446	-1.13807	0.202417	-0.523602	-0.194584	-0.698135	0.21276	0.251588	0	0	-0.480112	0.139733	0.377711	0.118788	0.13542	0	0	-1.07467	0.065526	-0.421527	0	0	0	0	0	0	0	0	0	0	0	0	0	0
7.14778	-2.5832	0.269456	0.349304	-2.07512	-1.1385	0.20278	-0.523601	-0.197661	-0.698135	0.212476	0.252957	0	0	-0.48191	0.143373	0.389652	0.11912	0.171781	0	0	-1.07769	0.0620348	-0.422233	0	0	0	0	0	0	0	0	0	0	0	0	0	0
7.15777	-2.58429	0.271574	0.347205	-2.07575	-1.13891	0.203121	-0.523601	-0.200599	-0.698136	0.212049	0.254229	0	0	-0.483634	0.146833	0.401092	0.119297	0.206164	0	0	-1.08046	0.0587185	-0.422945	0	0	0	0	0	0	0	0	0	0	0	0	0	0
7.16776	-2.58536	0.27341	0.345223	-2.07636	-1.1393	0.203439	-0.5236	-0.203194	-0.698135	0.211449	0.255371	0	0	-0.4852	0.149888	0.411383	0.119266	0.236876	0	0	-1.08287	0.0557404	-0.42357	0	0	0	0	0	0	0	0	0	0	0	0	0	0
7.17775	-2.58637	0.274887	0.343399	-2.07696	-1.13965	0.203733	-0.5236	-0.205332	-0.698135	0.210656	0.256357	0	0	-0.486556	0.15242	0.420172	0.119015	0.263118	0	0	-1.08487	0.053183	-0.424046	0	0	0	0	0	0	0	0	0	0	0	0	0	0
7.18773	-2.58733	0.275979	0.341742	-2.07754	-1.13996	0.204009	-0.5236	-0.20697	-0.698134	0.209665	0.257167	0	0	-0.48768	0.154397	0.42734	0.118564	0.284758	0	0	-1.08646	0.0510665	-0.42434	0	0	0	0	0	0	0	0	0	0	0	0	0	0
7.19772	-2.58823	0.276704	0.340246	-2.07811	-1.14025	0.20427	-0.523599	-0.208121	-0.698134	0.208484	0.257782	0	0	-0.488566	0.155845	0.432935	0.117952	0.302089	0	0	-1.08768	0.0493671	-0.424442	0	0	0	0	0	0	0	0	0	0	0	0	0	0
7.20771	-2.58908	0.277104	0.338892	-2.07865	-1.1405	0.204522	-0.523599	-0.208831	-0.698133	0.207126	0.258185	0	0	-0.489225	0.15683	0.437115	0.117227	0.315617	0	0	-1.0886	0.0480345	-0.42436	0	0	0	0	0	0	0	0	0	0	0	0	0	0
7.21769	-2.58988	0.277235	0.33766	-2.07918	-1.14073	0.204769	-0.523599	-0.209168	-0.698133	0.205609	0.258357	0	0	-0.489677	0.157436	0.440097	0.116435	0.325917	0	0	-1.08929	0.0470049	-0.424115	0	0	0	0	0	0	0	0	0	0	0	0	0	0
7.22768	-2.59063	0.27716	0.336531	-2.07968	-1.14093	0.205016	-0.523599	-0.209201	-0.698132	0.203954	0.258279	0	0	-0.489942	0.157748	0.442101	0.115616	0.333548	0	0	-1.0898	0.0462146	-0.42373	0	0	0	0	0	0	0	0	0	0	0	0	0	0
7.23767	-2.59136	0.276932	0.335494	-2.08015	-1.14112	0.205264	-0.523599	-0.208996	-0.698132	0.202184	0.257952	0	0	-0.490043	0.157839	0.443313	0.114797	0.338991	0	0	-1.09018	0.045609	-0.423234	0	0	0	0	0	0	0	0	0	0	0	0	0	0
7.24766	-2.59207	0.276594	0.334545	-2.0806	-1.14129	0.205517	-0.523599	-0.208602	-0.698132	0.200324	0.25739	0	0	-0.489997	0.157762	0.443857	0.113998	0.342576	0	0	-1.09048	0.0451491	-0.422652	0	0	0	0	0	0	0	0	0	0	0	0	0	0
7.25764	-2.59277	0.2762	0.333663	-2.08102	-1.14144	0.205775	-0.523599	-0.208091	-0.698132	0.198395	0.256631	0	0	-0.489835	0.157591	0.443936	0.113229	0.344841	0	0	-1.09074	0.0447759	-0.422012	0	0	0	0	0	0	0	0	0	0	0	0	0	0
7.26763	-2.59347	0.275798	0.332836	-2.08141	-1.14159	0.206039	-0.523599	-0.207525	-0.698132	0.196421	0.255723	0	0	-0.489584	0.157392	0.44373	0.112497	0.346298	0	0	-1.091	0.0444399	-0.421342	0	0	0	0	0	0	0	0	0	0	0	0	0	0
7.27762	-2.59417	0.275421	0.332066	-2.08178	-1.14173	0.206311	-0.523599	-0.206944	-0.698132	0.194422	0.254718	0	0	-0.489261	0.157204	0.443354	0.11181	0.347321	0	0	-1.09127	0.044112	-0.42067	0	0	0	0	0	0	0	0	0	0	0	0	0	0
7.28761	-2.59489	0.275083	0.331363	-2.08212	-1.14186	0.206586	-0.523599	-0.206365	-0.698132	0.192415	0.253668	0	0	-0.488876	0.15704	0.442853	0.111172	0.348088	0	0	-1.09157	0.0437888	-0.420018	0	0	0	0	0	0	0	0	0	0	0	0	0	0
7.29759	-2.59562	0.274807	0.330722	-2.08243	-1.14198	0.206864	-0.523599	-0.205823	-0.698132	0.190419	0.252629	0	0	-0.488452	0.156931	0.442364	0.110583	0.34894	0	0	-1.09191	0.0434512	-0.419409	0	0	0	0	0	0	0	0	0	0	0	0	0	0
7.30758	-2.59637	0.274609	0.330137	-2.08272	-1.1421	0.207142	-0.523599	-0.205348	-0.698132	0.188457	0.251652	0	0	-0.488014	0.156903	0.442026	0.110048	0.350145	0	0	-1.09229	0.043087	-0.418864	0	0	0	0	0	0	0	0	0	0	0	0	0	0
7.31757	-2.59712	0.274494	0.329606	-2.08299	-1.14222	0.207416	-0.523599	-0.204951	-0.698132	0.186552	0.250787	0	0	-0.487577	0.156963	0.441919	0.109567	0.351805	0	0	-1.09272	0.0426997	-0.418395	0	0	0	0	0	0	0	0	0	0	0	0	0	0
7.32755	-2.59788	0.274446	0.329134	-2.08323	-1.14233	0.207684	-0.523599	-0.204624	-0.698132	0.184726	0.250075	0	0	-0.48715	0.157093	0.442034	0.109142	0.353835	0	0	-1.09318	0.0423117	-0.418006	0	0	0	0	0	0	0	0	0	0	0	0	0	0
7.33754	-2.59863	0.274435	0.32873	-2.08346	-1.14243	0.207941	-0.523599	-0.204337	-0.698132	0.183002	0.249551	0	0	-0.486727	0.157249	0.442258	0.10877	0.355943	0	0	-1.09364	0.0419645	-0.417686	0	0	0	0	0	0	0	0	0	0	0	0	0	0
7.34753	-2.59934	0.274409	0.328408	-2.08367	-1.14252	0.208183	-0.523599	-0.204033	-0.698132	0.181397	0.249245	0	0	-0.486294	0.157356	0.442375	0.108445	0.35762	0	0	-1.09408	0.0417189	-0.417413	0	0	0	0	0	0	0	0	0	0	0	0	0	0
7.35752	-2.6	0.274331	0.328164	-2.08387	-1.1426	0.208408	-0.523599	-0.20368	-0.698132	0.179925	0.249188	0	0	-0.485843	0.157366	0.442224	0.108157	0.358546	0	0	-1.09446	0.0416114	-0.417158	0	0	0	0	0	0	0	0	0	0	0	0	0	0
7.3675	-2.6006	0.274159	0.327999	-2.08406	-1.14267	0.208614	-0.523599	-0.203237	-0.698132	0.178598	0.249398	0	0	-0.485363	0.157227	0.441628	0.107899	0.358327	0	0	-1.09474	0.04168	-0.416888	0	0	0	0	0	0	0	0	0	0	0	0	0	0
7.37749	-2.60111	0.273842	0.327921	-2.08424	-1.14272	0.208797	-0.523599	-0.202648	-0.698132	0.177414	0.249877	0	0	-0.484832	0.156872	0.44037	0.107658	0.356359	0	0	-1.09487	0.0419745	-0.416568	0	0	0	0	0	0	0	0	0	0	0	0	0	0
7.38748	-2.60153	0.273352	0.327929	-2.08443	-1.14275	0.208955	-0.523599	-0.201884	-0.698132	0.17637	0.250613	0	0	-0.484242	0.156263	0.438333	0.107412	0.35222	0	0	-1.09479	0.0425168	-0.416168	0	0	0	0	0	0	0	0	0	0	0	0	0	0
7.39746	-2.60186	0.27266	0.328025	-2.08462	-1.14275	0.209087	-0.523599	-0.200915	-0.698132	0.175457	0.251578	0	0	-0.483584	0.155365	0.435406	0.107138	0.345451	0	0	-1.09446	0.0433271	-0.415665	0	0	0	0	0	0	0	0	0	0	0	0	0	0
7.40745	-2.60211	0.271736	0.328219	-2.08482	-1.14273	0.20919	-0.523599	-0.199701	-0.698132	0.174663	0.252713	0	0	-0.482841	0.154135	0.431445	0.106814	0.335528	0	0	-1.09382	0.0444317	-0.41504	0	0	0	0	0	0	0	0	0	0	0	0	0	0
7.41744	-2.60226	0.270549	0.328528	-2.08504	-1.14268	0.209263	-0.523599	-0.198194	-0.698132	0.173968	0.253921	0	0	-0.481992	0.152522	0.426268	0.106418	0.321906	0	0	-1.09282	0.0458602	-0.414279	0	0	0	0	0	0	0	0	0	0	0	0	0	0
7.42743	-2.60234	0.269101	0.328943	-2.08527	-1.1426	0.209306	-0.523599	-0.196396	-0.698132	0.173348	0.255062	0	0	-0.481034	0.150533	0.41985	0.105933	0.30454	0	0	-1.09145	0.0475946	-0.413381	0	0	0	0	0	0	0	0	0	0	0	0	0	0
7.43741	-2.60236	0.267429	0.329444	-2.08551	-1.14248	0.209322	-0.523599	-0.19434	-0.698132	0.172773	0.255926	0	0	-0.479978	0.148221	0.41229	0.105363	0.283769	0	0	-1.08972	0.0495833	-0.412362	0	0	0	0	0	0	0	0	0	0	0	0	0	0
7.4474	-2.60232	0.265586	0.329997	-2.08577	-1.14234	0.209316	-0.523599	-0.1921	-0.698132	0.172247	0.256565	0	0	-0.478857	0.145666	0.40384	0.10472	0.260378	0	0	-1.08772	0.0517558	-0.411251	0	0	0	0	0	0	0	0	0	0	0	0	0	0
7.45739	-2.60224	0.263671	0.330553	-2.08604	-1.1422	0.209294	-0.523599	-0.189799	-0.698132	0.171778	0.257059	0	0	-0.477726	0.143012	0.394946	0.104039	0.235771	0	0	-1.08562	0.0539952	-0.410094	0	0	0	0	0	0	0	0	0	0	0	0	0	0
7.46738	-2.60214	0.261849	0.331041	-2.0863	-1.14206	0.20927	-0.523599	-0.187636	-0.698132	0.171374	0.257447	0	0	-0.476672	0.140491	0.386317	0.103379	0.212195	0	0	-1.08364	0.0561198	-0.408967	0	0	0	0	0	0	0	0	0	0	0	0	0	0
7.47736	-2.60205	0.260367	0.331363	-2.08654	-1.14195	0.209258	-0.523599	-0.185901	-0.698132	0.171045	0.25771	0	0	-0.475822	0.13845	0.379016	0.102837	0.192951	0	0	-1.08216	0.057862	-0.407989	0	0	0	0	0	0	0	0	0	0	0	0	0	0
7.48735	-2.60204	0.259576	0.331389	-2.08674	-1.14192	0.209282	-0.523599	-0.185001	-0.698132	0.170809	0.257759	0	0	-0.475348	0.13738	0.374544	0.102556	0.182628	0	0	-1.08168	0.0588495	-0.407332	0	0	0	0	0	0	0	0	0	0	0	0	0	0
7.49734	-2.60212	0.259573	0.331168	-2.08688	-1.14196	0.209347	-0.523599	-0.18499	-0.698132	0.170631	0.257384	0	0	-0.475263	0.137377	0.373356	0.102578	0.182227	0	0	-1.08232	0.0590343	-0.407104	0	0	0	0	0	0	0	0	0	0	0	0	0	0
7.50732	-2.60231	0.260381	0.330665	-2.08697	-1.14208	0.209451	-0.523599	-0.185931	-0.698132	0.170541	0.256684	0	0	-0.475578	0.138509	0.375704	0.102952	0.192368	0	0	-1.08398	0.0583834	-0.407362	0	0	0	0	0	0	0	0	0	0	0	0	0	0
7.51731	-2.60261	0.261763	0.329985	-2.08704	-1.14224	0.209576	-0.523599	-0.187554	-0.698132	0.170545	0.255792	0	0	-0.476161	0.140456	0.380739	0.103624	0.210153	0	0	-1.08619	0.0571623	-0.408044	0	0	0	0	0	0	0	0	0	0	0	0	0	0
7.5273	-2.60298	0.263447	0.329235	-2.0871	-1.14243	0.209707	-0.523599	-0.189537	-0.698132	0.170621	0.254833	0	0	-0.476884	0.142836	0.387349	0.104472	0.232118	0	0	-1.0886	0.0556651	-0.409031	0	0	0	0	0	0	0	0	0	0	0	0	0	0
7.53729	-2.60337	0.265194	0.328503	-2.08716	-1.14261	0.209835	-0.523599	-0.1916	-0.698132	0.170743	0.253904	0	0	-0.477643	0.145311	0.394526	0.105377	0.25524	0	0	-1.09094	0.0541376	-0.410192	0	0	0	0	0	0	0	0	0	0	0	0	0	0
7.54727	-2.60375	0.266824	0.327845	-2.08724	-1.14277	0.209951	-0.523599	-0.193531	-0.698132	0.170895	0.253082	0	0	-0.478365	0.147626	0.401484	0.106242	0.277219	0	0	-1.09303	0.0527588	-0.411403	0	0	0	0	0	0	0	0	0	0	0	0	0	0
7.55726	-2.60409	0.268215	0.327296	-2.08734	-1.14291	0.210051	-0.523599	-0.195188	-0.698132	0.171065	0.252427	0	0	-0.479005	0.149607	0.407672	0.107003	0.296459	0	0	-1.09479	0.051644	-0.412565	0	0	0	0	0	0	0	0	0	0	0	0	0	0
7.56725	-2.60438	0.269297	0.326869	-2.08746	-1.14302	0.210136	-0.523599	-0.196485	-0.698132	0.171249	0.251991	0	0	-0.479533	0.151147	0.412731	0.107622	0.311966	0	0	-1.09617	0.0508571	-0.413601	0	0	0	0	0	0	0	0	0	0	0	0	0	0
7.57724	-2.60459	0.270032	0.32657	-2.0876	-1.14309	0.210203	-0.523599	-0.197381	-0.698132	0.17145	0.251819	0	0	-0.479936	0.152192	0.416445	0.108084	0.323228	0	0	-1.09717	0.0504253	-0.414461	0	0	0	0	0	0	0	0	0	0	0	0	0	0
7.58722	-2.60472	0.270415	0.326396	-2.08776	-1.14313	0.210254	-0.523599	-0.197863	-0.698132	0.171677	0.25195	0	0	-0.48021	0.152725	0.418712	0.108387	0.330088	0	0	-1.09779	0.0503502	-0.415114	0	0	0	0	0	0	0	0	0	0	0	0	0	0
7.59721	-2.60477	0.270453	0.326342	-2.08793	-1.14315	0.210291	-0.523599	-0.197937	-0.698132	0.171937	0.252412	0	0	-0.480356	0.152754	0.419516	0.108541	0.332646	0	0	-1.09807	0.0506165	-0.415548	0	0	0	0	0	0	0	0	0	0	0	0	0	0
7.6072	-2.60474	0.270171	0.326402	-2.08813	-1.14313	0.210315	-0.523599	-0.197629	-0.698132	0.172231	0.253205	0	0	-0.480382	0.152305	0.418915	0.108569	0.331178	0	0	-1.09805	0.0511987	-0.415762	0	0	0	0	0	0	0	0	0	0	0	0	0	0
7.61718	-2.60464	0.2696	0.326569	-2.08833	-1.1431	0.210328	-0.523599	-0.196971	-0.698132	0.172546	0.254296	0	0	-0.480298	0.151418	0.417031	0.108497	0.326126	0	0	-1.09777	0.052064	-0.415769	0	0	0	0	0	0	0	0	0	0	0	0	0	0
7.62717	-2.60448	0.268783	0.326831	-2.08855	-1.14304	0.210333	-0.523599	-0.196013	-0.698132	0.172874	0.255628	0	0	-0.480119	0.150151	0.414052	0.108363	0.318118	0	0	-1.09729	0.0531672	-0.41559	0	0	0	0	0	0	0	0	0	0	0	0	0	0
7.63716	-2.60426	0.26778	0.327165	-2.08877	-1.14298	0.210333	-0.523599	-0.194826	-0.698132	0.173208	0.257138	0	0	-0.479871	0.148593	0.41024	0.108212	0.308028	0	0	-1.09667	0.0544426	-0.415254	0	0	0	0	0	0	0	0	0	0	0	0	0	0
7.64715	-2.60402	0.266681	0.327533	-2.08898	-1.14291	0.210332	-0.523599	-0.193517	-0.698132	0.173548	0.258745	0	0	-0.479585	0.146873	0.405957	0.108105	0.29705	0	0	-1.09601	0.0557946	-0.414804	0	0	0	0	0	0	0	0	0	0	0	0	0	0
7.65713	-2.60376	0.265604	0.327879	-2.08919	-1.14285	0.210335	-0.523599	-0.192234	-0.698132	0.17389	0.260328	0	0	-0.479309	0.145173	0.401726	0.108123	0.286766	0	0	-1.09541	0.0570896	-0.414301	0	0	0	0	0	0	0	0	0	0	0	0	0	0
7.66712	-2.60354	0.264711	0.32813	-2.08939	-1.14281	0.210352	-0.523599	-0.191174	-0.698132	0.174226	0.261705	0	0	-0.479114	0.143736	0.398273	0.108355	0.279267	0	0	-1.095	0.0581493	-0.413825	0	0	0	0	0	0	0	0	0	0	0	0	0	0
7.67711	-2.60338	0.264209	0.32819	-2.08955	-1.1428	0.210392	-0.523599	-0.190597	-0.698132	0.174547	0.262643	0	0	-0.479092	0.142885	0.396573	0.108906	0.277263	0	0	-1.09498	0.0587398	-0.413484	0	0	0	0	0	0	0	0	0	0	0	0	0	0
7.6871	-2.60332	0.264	0.328147	-2.08971	-1.14282	0.210442	-0.523599	-0.19037	-0.698132	0.174845	0.263148	0	0	-0.479159	0.142461	0.396265	0.109801	0.279445	0	0	-1.09509	0.0590025	-0.413289	0	0	0	0	0	0	0	0	0	0	0	0	0	0
7.69708	-2.60331	0.263896	0.328113	-2.08986	-1.14284	0.210492	-0.523599	-0.190253	-0.698132	0.175098	0.263308	0	0	-0.47921	0.142172	0.396501	0.110962	0.283294	0	0	-1.09512	0.0591663	-0.413194	0	0	0	0	0	0	0	0	0	0	0	0	0	0
7.70707	-2.60334	0.263705	0.328178	-2.09003	-1.14283	0.210528	-0.523599	-0.190005	-0.698132	0.175288	0.263228	0	0	-0.479152	0.141722	0.396357	0.112268	0.286137	0	0	-1.09487	0.0594533	-0.413121	0	0	0	0	0	0	0	0	0	0	0	0	0	0
7.71706	-2.60337	0.263258	0.328402	-2.09022	-1.1428	0.210544	-0.523599	-0.189427	-0.698132	0.175402	0.262999	0	0	-0.478914	0.14087	0.395011	0.113572	0.28558	0	0	-1.0942	0.0600434	-0.41298	0	0	0	0	0	0	0	0	0	0	0	0	0	0
7.72704	-2.60336	0.26243	0.32881	-2.09043	-1.14271	0.210534	-0.523599	-0.188377	-0.698132	0.175436	0.262697	0	0	-0.478445	0.139449	0.391834	0.114703	0.279703	0	0	-1.09302	0.0610617	-0.412691	0	0	0	0	0	0	0	0	0	0	0	0	0	0
7.73703	-2.60329	0.261143	0.329387	-2.09067	-1.14258	0.210497	-0.523599	-0.186785	-0.698132	0.175393	0.262382	0	0	-0.477726	0.137388	0.38645	0.115455	0.267183	0	0	-1.09132	0.0625698	-0.412192	0	0	0	0	0	0	0	0	0	0	0	0	0	0
7.74702	-2.60313	0.259382	0.330077	-2.09094	-1.1424	0.210435	-0.523599	-0.184664	-0.698132	0.175284	0.262092	0	0	-0.476774	0.13473	0.378806	0.115582	0.247406	0	0	-1.08914	0.0645546	-0.41145	0	0	0	0	0	0	0	0	0	0	0	0	0	0
7.75701	-2.60288	0.257205	0.330771	-2.09123	-1.14218	0.210355	-0.523599	-0.182131	-0.698132	0.175121	0.26184	0	0	-0.47565	0.131653	0.369227	0.114799	0.220613	0	0	-1.08664	0.06691	-0.410474	0	0	0	0	0	0	0	0	0	0	0	0	0	0
7.76699	-2.60254	0.254551	0.331542	-2.09155	-1.14191	0.210249	-0.523599	-0.17909	-0.698132	0.174896	0.26159	0	0	-0.474308	0.128	0.357469	0.113347	0.186518	0	0	-1.08363	0.0697185	-0.409213	0	0	0	0	0	0	0	0	0	0	0	0	0	0
7.77698	-2.60213	0.251395	0.332432	-2.0919	-1.14159	0.210115	-0.523599	-0.175499	-0.698132	0.174593	0.261314	0	0	-0.472728	0.123689	0.34342	0.111428	0.14541	0	0	-1.08004	0.0730143	-0.40764	0	0	0	0	0	0	0	0	0	0	0	0	0	0
7.78697	-2.60166	0.247826	0.333411	-2.09228	-1.14122	0.209956	-0.523599	-0.171456	-0.698132	0.174221	0.26101	0	0	-0.470952	0.118824	0.327459	0.109212	0.0988942	0	0	-1.07597	0.0767013	-0.405774	0	0	0	0	0	0	0	0	0	0	0	0	0	0
7.79696	-2.60116	0.244084	0.334361	-2.09268	-1.14084	0.209789	-0.523599	-0.167264	-0.698132	0.173818	0.260704	0	0	-0.469119	0.113759	0.310713	0.106872	0.0504759	0	0	-1.07172	0.0805057	-0.40371	0	0	0	0	0	0	0	0	0	0	0	0	0	0
7.80694	-2.60066	0.240275	0.33528	-2.09309	-1.14045	0.209617	-0.523599	-0.163029	-0.698132	0.173409	0.260397	0	0	-0.467265	0.108623	0.293666	0.104529	0.00152434	0	0	-1.06737	0.0843381	-0.401522	0	0	0	0	0	0	0	0	0	0	0	0	0	0
7.81693	-2.60014	0.236359	0.336224	-2.09352	-1.14004	0.209436	-0.523599	-0.158689	-0.698132	0.173	0.260077	0	0	-0.465343	0.103339	0.276172	0.10222	-0.0484735	0	0	-1.0628	0.0882675	-0.39924	0	0	0	0	0	0	0	0	0	0	0	0	0	0
7.82692	-2.59963	0.232419	0.337157	-2.09395	-1.13963	0.209252	-0.523599	-0.154337	-0.698132	0.172595	0.259758	0	0	-0.463411	0.0980293	0.25858	0.0999447	-0.0985334	0	0	-1.05816	0.0922071	-0.396914	0	0	0	0	0	0	0	0	0	0	0	0	0	0
7.8369	-2.59912	0.228482	0.33808	-2.09439	-1.13922	0.209068	-0.523599	-0.149995	-0.698132	0.172192	0.259442	0	0	-0.461481	0.0927272	0.241008	0.0976872	-0.148451	0	0	-1.05351	0.096137	-0.394577	0	0	0	0	0	0	0	0	0	0	0	0	0	0
