Coordinates
version=1
nRows=140
nColumns=38
inDegrees=no

Units are S.I. units (second, meters, Newtons, ...)
If the header above contains a line with 'inDegrees', this indicates whether rotational values are in degrees (yes) or radians (no).

endheader
time	pelvis_tilt	pelvis_list	pelvis_rotation	pelvis_tx	pelvis_ty	pelvis_tz	hip_flexion_r	hip_adduction_r	hip_rotation_r	knee_angle_r	ankle_angle_r	subtalar_angle_r	mtp_angle_r	hip_flexion_l	hip_adduction_l	hip_rotation_l	knee_angle_l	ankle_angle_l	subtalar_angle_l	mtp_angle_l	lumbar_extension	lumbar_bending	lumbar_rotation	arm_flex_r	arm_add_r	arm_rot_r	elbow_flex_r	pro_sup_r	wrist_flex_r	wrist_dev_r	arm_flex_l	arm_add_l	arm_rot_l	elbow_flex_l	pro_sup_l	wrist_flex_l	wrist_dev_l
0	0.0105749	0.00946686	1.47379	0.296796	0.889548	1.16013	-0.274626	-0.00390534	-0.234344	0.321659	0.30062	0	0	0.536668	-0.0548471	-0.309503	0.264776	0.188582	0	0	-0.161809	0.000163546	0.159916	0.628219	-0.453202	0.553381	0.997032	0.653872	0	0	-0.451723	-0.187459	1.56967	0.346077	0.249571	0	0
0.00992857	0.000706094	0.00383499	1.47112	0.296161	0.888599	1.1425	-0.254165	-0.0234607	-0.224711	0.374263	0.242074	0	0	0.540451	-0.0487426	-0.316271	0.29298	0.177868	0	0	-0.151611	-0.0124117	0.156058	0.618352	-0.449889	0.559615	1.00939	0.658903	0	0	-0.455478	-0.187337	1.56963	0.344584	0.246032	0	0
0.0198571	-0.00928487	-0.0017636	1.46851	0.295522	0.887659	1.12487	-0.233477	-0.0430966	-0.215048	0.427072	0.183568	0	0	0.54409	-0.0424564	-0.322978	0.321079	0.167266	0	0	-0.141508	-0.0251327	0.152048	0.608356	-0.446477	0.565912	1.02156	0.663919	0	0	-0.458983	-0.187266	1.56961	0.343048	0.242526	0	0
0.0297857	-0.0195431	-0.0072987	1.46607	0.294875	0.88674	1.10727	-0.212175	-0.0628692	-0.205272	0.480365	0.1254	0	0	0.547392	-0.0357387	-0.329502	0.348864	0.157003	0	0	-0.131652	-0.038169	0.147698	0.598024	-0.442855	0.572321	1.03324	0.6689	0	0	-0.461801	-0.187333	1.56963	0.341395	0.239034	0	0
0.0397143	-0.030184	-0.012748	1.46392	0.294213	0.885858	1.08971	-0.189805	-0.0827615	-0.195251	0.534386	0.0682487	0	0	0.550159	-0.028344	-0.335699	0.37604	0.147421	0	0	-0.12223	-0.0516505	0.142845	0.587112	-0.438932	0.578834	1.04409	0.673853	0	0	-0.463386	-0.187632	1.5697	0.33952	0.235451	0	0
0.0496429	-0.0412648	-0.0180911	1.46218	0.293532	0.885034	1.07224	-0.165927	-0.102667	-0.18482	0.58926	0.0132116	0	0	0.552195	-0.0200779	-0.341434	0.402254	0.138957	0	0	-0.113447	-0.0656346	0.137386	0.575352	-0.434653	0.585354	1.05379	0.678833	0	0	-0.46315	-0.188253	1.5699	0.337292	0.231568	0	0
0.0595714	-0.0527721	-0.0233089	1.46095	0.292828	0.884293	1.05489	-0.140165	-0.122394	-0.17381	0.644953	-0.0382706	0	0	0.553307	-0.010828	-0.346605	0.427123	0.132092	0	0	-0.10551	-0.0800938	0.131319	0.562441	-0.430011	0.591643	1.06205	0.683991	0	0	-0.460518	-0.189279	1.57026	0.334557	0.227378	0	0
0.0695	-0.0646183	-0.0283764	1.46029	0.2921	0.883661	1.03771	-0.112251	-0.141675	-0.162081	0.701243	-0.0845519	0	0	0.553301	-0.000574918	-0.351144	0.450255	0.127296	0	0	-0.0986164	-0.0949106	0.124736	0.54806	-0.425039	0.597346	1.06866	0.689557	0	0	-0.454966	-0.190765	1.57085	0.331154	0.222875	0	0
0.0794286	-0.076647	-0.0332595	1.46023	0.29135	0.883173	1.02074	-0.0820478	-0.160195	-0.149551	0.757717	-0.123966	0	0	0.551974	0.0106084	-0.355007	0.471266	0.12497	0	0	-0.0929353	-0.109884	0.117816	0.531884	-0.419801	0.602011	1.07344	0.695804	0	0	-0.44604	-0.192735	1.57174	0.326935	0.217993	0	0
0.0893571	-0.0886474	-0.0379186	1.46077	0.290581	0.882862	1.004	-0.0495476	-0.177616	-0.136224	0.813789	-0.155036	0	0	0.549118	0.0225686	-0.358168	0.489801	0.125394	0	0	-0.0885933	-0.124745	0.110811	0.513599	-0.414373	0.605141	1.07627	0.703005	0	0	-0.433375	-0.195174	1.57301	0.32177	0.212584	0	0
0.0992857	-0.100369	-0.0423064	1.46188	0.289795	0.882762	0.987503	-0.0148758	-0.193599	-0.122199	0.868721	-0.176627	0	0	0.544524	0.0350887	-0.360607	0.50554	0.128696	0	0	-0.0856685	-0.139175	0.104016	0.492919	-0.408834	0.606233	1.07704	0.711391	0	0	-0.41671	-0.198023	1.57471	0.315573	0.206477	0	0
0.109214	-0.11154	-0.0463696	1.4635	0.288998	0.882904	0.971252	0.0217175	-0.207832	-0.107665	0.921655	-0.188057	0	0	0.537984	0.047908	-0.362295	0.51822	0.134837	0	0	-0.0841883	-0.152829	0.0977492	0.46961	-0.403255	0.604832	1.07565	0.7211	0	0	-0.395887	-0.201189	1.57688	0.308308	0.199598	0	0
0.119143	-0.121882	-0.0500477	1.46558	0.288192	0.883317	0.955238	0.0598669	-0.220036	-0.0928914	0.971658	-0.189152	0	0	0.529304	0.0607424	-0.363192	0.52764	0.143617	0	0	-0.0841322	-0.165356	0.0923107	0.443522	-0.397679	0.600609	1.07198	0.732124	0	0	-0.370861	-0.204544	1.57951	0.300009	0.191936	0	0
0.129071	-0.131131	-0.0532776	1.46806	0.287381	0.884018	0.939438	0.0991129	-0.229988	-0.0782132	1.01776	-0.18025	0	0	0.518315	0.0733058	-0.363243	0.533672	0.154693	0	0	-0.0854316	-0.176423	0.0879491	0.414626	-0.392114	0.593444	1.06587	0.744242	0	0	-0.341696	-0.207933	1.58256	0.290793	0.183542	0	0
0.139	-0.139064	-0.056011	1.47088	0.286566	0.885014	0.923826	0.138951	-0.237538	-0.0639958	1.05901	-0.162151	0	0	0.504901	0.0853303	-0.362404	0.536264	0.167619	0	0	-0.0879601	-0.185747	0.0848587	0.383011	-0.386526	0.583439	1.0571	0.757086	0	0	-0.308565	-0.211191	1.58588	0.280864	0.174502	0	0
0.148929	-0.145512	-0.0582188	1.47397	0.28575	0.886299	0.908366	0.178858	-0.24262	-0.0506171	1.09454	-0.136045	0	0	0.489012	0.0965807	-0.360646	0.535444	0.181889	0	0	-0.0915402	-0.193113	0.0831549	0.348907	-0.380841	0.570981	1.04539	0.77009	0	0	-0.271744	-0.214159	1.58921	0.270517	0.165014	0	0
0.158857	-0.150362	-0.0598852	1.47731	0.284935	0.887851	0.893023	0.218305	-0.245251	-0.0384575	1.12358	-0.103439	0	0	0.470662	0.106863	-0.357962	0.531322	0.196968	0	0	-0.0959602	-0.198378	0.0828346	0.312726	-0.37494	0.556856	1.03036	0.782407	0	0	-0.231634	-0.216695	1.59215	0.260143	0.155507	0	0
0.168786	-0.153566	-0.061019	1.48085	0.284123	0.889637	0.877762	0.256797	-0.245529	-0.0278762	1.1455	-0.0660411	0	0	0.449938	0.116029	-0.35438	0.524085	0.21235	0	0	-0.100986	-0.201485	0.083817	0.27498	-0.368674	0.542111	1.01161	0.793137	0	0	-0.188715	-0.218709	1.59411	0.250237	0.146499	0	0
0.178714	-0.155143	-0.0616533	1.48457	0.283318	0.891606	0.862547	0.293896	-0.243634	-0.0191965	1.15984	-0.0256331	0	0	0.427003	0.123983	-0.349976	0.513987	0.227588	0	0	-0.106377	-0.202463	0.0859562	0.23624	-0.361884	0.528027	0.988753	0.801361	0	0	-0.143528	-0.220181	1.59431	0.241398	0.138664	0	0
0.188643	-0.155173	-0.0618443	1.48847	0.282523	0.893699	0.847352	0.329242	-0.239816	-0.0126963	1.1663	0.0160407	0	0	0.402087	0.130677	-0.344877	0.501344	0.242328	0	0	-0.111904	-0.201425	0.0890632	0.197103	-0.354413	0.516088	0.961463	0.806144	0	0	-0.0966605	-0.221179	1.59172	0.234333	0.132924	0	0
0.198571	-0.153793	-0.0616631	1.49254	0.281742	0.895844	0.83215	0.362558	-0.234385	-0.00859979	1.1648	0.0573819	0	0	0.375466	0.136115	-0.339255	0.486522	0.25632	0	0	-0.117356	-0.198552	0.0928864	0.158196	-0.346102	0.50803	0.929441	0.806507	0	0	-0.0487497	-0.221876	1.5851	0.229872	0.130589	0	0
0.2085	-0.151189	-0.0611881	1.49678	0.280981	0.897966	0.816926	0.393653	-0.227692	-0.00707521	1.15541	0.0969937	0	0	0.347454	0.140345	-0.333324	0.469921	0.269425	0	0	-0.122551	-0.194084	0.097094	0.120195	-0.336797	0.505882	0.892421	0.801398	0	0	-0.000508596	-0.222576	1.573	0.22903	0.133566	0	0
0.218429	-0.147575	-0.0605012	1.5012	0.280246	0.899988	0.801666	0.422418	-0.220104	-0.00823125	1.13838	0.133777	0	0	0.31838	0.143451	-0.327321	0.451963	0.28161	0	0	-0.127389	-0.188301	0.101425	0.0836159	-0.326393	0.51162	0.850358	0.789813	0	0	0.0474139	-0.22366	1.55384	0.232879	0.143715	0	0
0.228357	-0.143182	-0.0596733	1.50581	0.279545	0.901834	0.786363	0.448808	-0.21198	-0.0121099	1.11407	0.16696	0	0	0.288563	0.145544	-0.321493	0.433074	0.292929	0	0	-0.131814	-0.181506	0.105575	0.0489421	-0.314796	0.527318	0.803293	0.770804	0	0	0.0943551	-0.225556	1.526	0.242476	0.162758	0	0
0.238286	-0.13825	-0.0587571	1.51059	0.278887	0.903439	0.771015	0.472827	-0.20365	-0.0186824	1.08297	0.196098	0	0	0.258294	0.146753	-0.316076	0.413665	0.303504	0	0	-0.1358	-0.174	0.109188	0.0166145	-0.301921	0.555045	0.751359	0.743557	0	0	0.139645	-0.228694	1.48804	0.258768	0.192194	0	0
0.248214	-0.133001	-0.0577893	1.51556	0.278282	0.904746	0.75562	0.494509	-0.195387	-0.0278485	1.04565	0.22102	0	0	0.227832	0.147206	-0.311277	0.394132	0.313489	0	0	-0.139357	-0.166064	0.111903	-0.0130298	-0.287709	0.59664	0.694848	0.707539	0	0	0.182661	-0.233451	1.43894	0.28244	0.233205	0	0
0.258143	-0.12763	-0.056776	1.52071	0.277741	0.905716	0.740178	0.513889	-0.187387	-0.039432	1.00273	0.241797	0	0	0.197378	0.147019	-0.307251	0.374836	0.32305	0	0	-0.142537	-0.157941	0.113392	-0.0397961	-0.272165	0.653499	0.634268	0.662461	0	0	0.222906	-0.240082	1.37851	0.313815	0.286054	0	0
0.268071	-0.122283	-0.0556888	1.52602	0.277272	0.906326	0.724691	0.530979	-0.179757	-0.0531779	0.95488	0.258674	0	0	0.167068	0.146276	-0.30409	0.356103	0.332333	0	0	-0.145433	-0.149818	0.113408	-0.0636856	-0.25538	0.726228	0.570426	0.60851	0	0	0.260097	-0.24864	1.30782	0.352652	0.349696	0	0
0.278	-0.117055	-0.0544626	1.53148	0.276884	0.90657	0.709155	0.545753	-0.172506	-0.0687508	0.902775	0.272004	0	0	0.136973	0.145015	-0.301814	0.338226	0.341441	0	0	-0.148178	-0.141802	0.11184	-0.084965	-0.237565	0.814194	0.504519	0.5467	0	0	0.294286	-0.258847	1.22981	0.397899	0.421295	0	0
0.287929	-0.111973	-0.0530004	1.53707	0.276578	0.906463	0.693566	0.558147	-0.165553	-0.0857354	0.84714	0.282184	0	0	0.107111	0.143222	-0.300376	0.321478	0.350422	0	0	-0.150941	-0.133912	0.108783	-0.10429	-0.219076	0.914808	0.438314	0.479523	0	0	0.326014	-0.269947	1.14999	0.447355	0.495509	0	0
0.297857	-0.107039	-0.0511916	1.54281	0.276359	0.906029	0.677915	0.568085	-0.158771	-0.103633	0.788755	0.289618	0	0	0.0774717	0.14085	-0.299658	0.306112	0.359239	0	0	-0.15391	-0.126125	0.104355	-0.122481	-0.200451	1.02366	0.37404	0.410898	0	0	0.355679	-0.281436	1.07221	0.499437	0.5688	0	0
0.307786	-0.102221	-0.0489195	1.54868	0.276226	0.905308	0.662191	0.575491	-0.152004	-0.121881	0.728475	0.294689	0	0	0.0480277	0.137821	-0.299485	0.29237	0.36777	0	0	-0.157277	-0.118371	0.098751	-0.140583	-0.182452	1.13397	0.314479	0.346701	0	0	0.383705	-0.292938	0.999526	0.552861	0.638526	0	0
0.317714	-0.097465	-0.0460902	1.55472	0.276177	0.904346	0.646376	0.580325	-0.145097	-0.139882	0.667245	0.297733	0	0	0.0187741	0.13403	-0.299626	0.280486	0.375784	0	0	-0.161174	-0.110557	0.0922028	-0.159643	-0.166054	1.2372	0.262695	0.294154	0	0	0.410492	-0.304191	0.934218	0.606603	0.702709	0	0
0.327643	-0.092721	-0.0426919	1.56096	0.276213	0.903196	0.630446	0.582649	-0.13794	-0.157047	0.6061	0.299033	0	0	-0.0102095	0.129374	-0.299789	0.270674	0.38293	0	0	-0.165562	-0.102619	0.0847919	-0.180084	-0.151807	1.32846	0.220152	0.257108	0	0	0.436116	-0.315134	0.877211	0.660053	0.760539	0	0
0.337571	-0.0879404	-0.0387786	1.56745	0.276331	0.90191	0.614377	0.58263	-0.13049	-0.172852	0.546185	0.298829	0	0	-0.0387618	0.123748	-0.299659	0.263153	0.388748	0	0	-0.170281	-0.0945075	0.0765525	-0.201911	-0.139917	1.40568	0.187075	0.236558	0	0	0.460479	-0.325799	0.828582	0.712838	0.811893	0	0
0.3475	-0.0830729	-0.0344561	1.57424	0.276532	0.900539	0.59814	0.580539	-0.122772	-0.186908	0.488748	0.297328	0	0	-0.0666442	0.117052	-0.298929	0.258162	0.392702	0	0	-0.175103	-0.0861858	0.0675376	-0.224894	-0.130431	1.468	0.163085	0.232167	0	0	0.483412	-0.336237	0.787889	0.764703	0.857052	0	0
0.357429	-0.0780664	-0.0298701	1.58138	0.276808	0.899127	0.58171	0.576746	-0.114886	-0.199017	0.435117	0.294721	0	0	-0.0935441	0.109187	-0.297345	0.25597	0.394205	0	0	-0.179762	-0.0776219	0.0578437	-0.248656	-0.123216	1.51597	0.147233	0.242037	0	0	0.504695	-0.34647	0.754317	0.815452	0.89667	0	0
0.367357	-0.0728663	-0.0251939	1.58887	0.277154	0.897711	0.565069	0.571704	-0.106997	-0.209212	0.386653	0.291191	0	0	-0.119082	0.100064	-0.294727	0.256883	0.392642	0	0	-0.18398	-0.0687837	0.0476326	-0.272753	-0.118032	1.55099	0.13827	0.263425	0	0	0.524112	-0.356458	0.726882	0.86487	0.93161	0	0
0.377286	-0.067414	-0.0206145	1.59671	0.277561	0.896318	0.5482	0.565929	-0.0993063	-0.217779	0.344679	0.286911	0	0	-0.142827	0.0896062	-0.290995	0.261239	0.387408	0	0	-0.187496	-0.0596356	0.0371578	-0.296733	-0.114565	1.57497	0.134792	0.292909	0	0	0.541537	-0.366085	0.704709	0.912662	0.962495	0	0
0.387214	-0.0616459	-0.0163206	1.60484	0.278018	0.89497	0.531101	0.559963	-0.0920236	-0.225223	0.31039	0.282043	0	0	-0.164312	0.0777539	-0.286173	0.269393	0.377937	0	0	-0.190082	-0.050137	0.0267528	-0.320163	-0.112466	1.59002	0.135389	0.326868	0	0	0.556934	-0.375161	0.68707	0.958446	0.989741	0	0
0.397143	-0.0554921	-0.0124913	1.61317	0.278517	0.893677	0.513773	0.554324	-0.0853206	-0.232185	0.284737	0.276712	0	0	-0.183058	0.0644642	-0.28039	0.281704	0.363744	0	0	-0.191566	-0.0402415	0.0168017	-0.342636	-0.111402	1.59821	0.138745	0.362045	0	0	0.570333	-0.383446	0.673369	1.00177	1.0137	0	0
0.407071	-0.0488749	-0.00928059	1.6216	0.279051	0.892444	0.496233	0.549444	-0.079294	-0.239317	0.268305	0.270984	0	0	-0.1986	0.0497139	-0.273849	0.298503	0.344465	0	0	-0.191838	-0.0298956	0.00772275	-0.363775	-0.111065	1.60142	0.143701	0.395622	0	0	0.581837	-0.390669	0.663178	1.04212	1.0346	0	0
0.417	-0.0417097	-0.0068051	1.62997	0.279615	0.891273	0.478503	0.545616	-0.0739377	-0.247162	0.261215	0.264852	0	0	-0.210517	0.0335001	-0.266805	0.320065	0.319905	0	0	-0.190869	-0.01904	-6.03803e-05	-0.383233	-0.111195	1.60126	0.149283	0.425349	0	0	0.591605	-0.396555	0.65622	1.07897	1.05258	0	0
0.426929	-0.0339079	-0.00513598	1.63816	0.280208	0.890164	0.460617	0.542953	-0.0691329	-0.256061	0.263079	0.258232	0	0	-0.218453	0.015843	-0.259518	0.346577	0.290089	0	0	-0.188711	-0.00761418	-0.00614963	-0.400684	-0.111588	1.59905	0.154715	0.449583	0	0	0.599833	-0.400853	0.652348	1.11179	1.06772	0	0
0.436857	-0.0253846	-0.00430007	1.646	0.280828	0.88912	0.442615	0.541385	-0.0646557	-0.266118	0.273013	0.251001	0	0	-0.222133	-0.00320991	-0.252224	0.378116	0.255313	0	0	-0.185487	0.00443511	-0.0102124	-0.415817	-0.11211	1.59581	0.159424	0.467473	0	0	0.606712	-0.403368	0.65147	1.14014	1.08016	0	0
0.446786	-0.0160705	-0.00427941	1.65337	0.281481	0.888146	0.424544	0.540681	-0.0602008	-0.277204	0.28972	0.243038	0	0	-0.221378	-0.0235679	-0.245087	0.414615	0.216179	0	0	-0.181383	0.0171386	-0.0119921	-0.428332	-0.112692	1.59229	0.163021	0.478746	0	0	0.612425	-0.403973	0.653551	1.16362	1.09004	0	0
0.456714	-0.0059261	-0.00501397	1.66013	0.282171	0.887252	0.406457	0.540479	-0.0554104	-0.288993	0.311597	0.234284	0	0	-0.216116	-0.0450815	-0.238176	0.455834	0.173636	0	0	-0.176635	0.0304888	-0.0113184	-0.437945	-0.113327	1.589	0.165291	0.48357	0	0	0.61713	-0.402623	0.658578	1.18196	1.09749	0	0
0.466643	0.00504712	-0.0064136	1.66618	0.282904	0.886455	0.388408	0.540349	-0.049922	-0.30104	0.336898	0.224792	0	0	-0.206377	-0.0675364	-0.231458	0.501368	0.128966	0	0	-0.171508	0.0444275	-0.00812934	-0.444391	-0.11407	1.58622	0.166171	0.48246	0	0	0.620935	-0.39936	0.666515	1.19501	1.10263	0	0
0.476571	0.0167913	-0.00837193	1.67145	0.283687	0.885778	0.37045	0.53985	-0.0434198	-0.312863	0.363887	0.214761	0	0	-0.19227	-0.0906428	-0.224804	0.550656	0.0837563	0	0	-0.166269	0.0588304	-0.00248285	-0.447423	-0.115029	1.58409	0.165733	0.476209	0	0	0.623877	-0.394324	0.677267	1.20277	1.10561	0	0
0.4865	0.0291784	-0.0107908	1.67588	0.284524	0.885246	0.352634	0.538594	-0.0356968	-0.324033	0.390984	0.204552	0	0	-0.17396	-0.114031	-0.21801	0.603003	0.0398114	0	0	-0.161145	0.0734933	0.00543099	-0.446839	-0.116354	1.58255	0.164164	0.46579	0	0	0.625904	-0.387743	0.690644	1.20538	1.10667	0	0
0.496429	0.0420052	-0.0135791	1.67947	0.285419	0.884888	0.335004	0.536255	-0.026678	-0.334196	0.416842	0.194647	0	0	-0.15167	-0.13725	-0.210831	0.657585	-0.00096054	0	0	-0.156319	0.0881287	0.0153021	-0.442479	-0.118228	1.58147	0.16174	0.452315	0	0	0.626873	-0.379931	0.706353	1.20309	1.10617	0	0
0.506357	0.0550002	-0.0166598	1.68225	0.286371	0.884732	0.317594	0.532584	-0.0164298	-0.34309	0.440389	0.185597	0	0	-0.125675	-0.15979	-0.203033	0.713471	-0.0367074	0	0	-0.151913	0.102377	0.0267159	-0.434237	-0.120844	1.58055	0.158815	0.436959	0	0	0.626562	-0.371264	0.724005	1.19631	1.1045	0	0
0.516286	0.0678376	-0.0199703	1.68428	0.287379	0.884807	0.300428	0.527396	-0.00514801	-0.350539	0.46083	0.177951	0	0	-0.096295	-0.181107	-0.194436	0.769649	-0.0657924	0	0	-0.147985	0.115826	0.0391802	-0.422072	-0.124396	1.57942	0.155791	0.420895	0	0	0.624682	-0.362164	0.743126	1.18548	1.10213	0	0
0.526214	0.0801612	-0.0234591	1.68562	0.288439	0.885136	0.283515	0.52056	0.00687095	-0.356444	0.477632	0.172189	0	0	-0.0639036	-0.200664	-0.184951	0.825052	-0.0869342	0	0	-0.144532	0.128048	0.0521637	-0.406017	-0.129058	1.57761	0.153111	0.405224	0	0	0.620914	-0.353064	0.76321	1.17112	1.09946	0	0
0.536143	0.0916063	-0.0270823	1.68636	0.289544	0.885738	0.266854	0.511988	0.0192616	-0.360762	0.490491	0.168677	0	0	-0.0289258	-0.217953	-0.174602	0.878584	-0.0993063	0	0	-0.141499	0.138623	0.0651326	-0.386189	-0.134981	1.57441	0.151254	0.391155	0	0	0.614926	-0.344389	0.783737	1.15373	1.09683	0	0
0.546071	0.101826	-0.0308001	1.68657	0.290688	0.886624	0.250432	0.501625	0.031628	-0.363497	0.499294	0.167632	0	0	0.00816325	-0.232535	-0.163529	0.929151	-0.102589	0	0	-0.138793	0.147176	0.0775911	-0.362786	-0.142268	1.56905	0.150693	0.379659	0	0	0.606416	-0.33652	0.804229	1.13383	1.09445	0	0
0.556	0.11052	-0.0345774	1.68632	0.291863	0.887794	0.234225	0.489445	0.043584	-0.364688	0.50408	0.169103	0	0	0.0468526	-0.244067	-0.151964	0.975709	-0.0969733	0	0	-0.136296	0.153411	0.0891179	-0.336094	-0.150965	1.56073	0.151872	0.371471	0	0	0.595147	-0.329764	0.824312	1.11182	1.09234	0	0
0.565929	0.117458	-0.038383	1.68567	0.293059	0.889237	0.218203	0.475452	0.054786	-0.364408	0.505	0.172981	0	0	0.0866086	-0.252325	-0.140213	1.01729	-0.0831245	0	0	-0.133876	0.157139	0.0993921	-0.306478	-0.161061	1.54864	0.155193	0.367161	0	0	0.580967	-0.324334	0.843755	1.08803	1.09035	0	0
0.575857	0.122501	-0.0421947	1.68464	0.294266	0.890928	0.202333	0.459684	0.064963	-0.362754	0.502291	0.179019	0	0	0.126904	-0.25722	-0.128619	1.05306	-0.0621039	0	0	-0.131398	0.158295	0.108212	-0.274386	-0.172499	1.53196	0.161023	0.367223	0	0	0.563833	-0.320324	0.862514	1.06266	1.08815	0	0
0.585786	0.125599	-0.0459916	1.68325	0.295476	0.892829	0.186578	0.442209	0.0739283	-0.359835	0.496243	0.186869	0	0	0.16722	-0.258796	-0.117533	1.08232	-0.0353028	0	0	-0.128749	0.156942	0.115498	-0.240323	-0.185183	1.50987	0.169679	0.372143	0	0	0.543807	-0.31771	0.880723	1.03579	1.08528	0	0
0.595714	0.126795	-0.0497527	1.68147	0.296679	0.894893	0.170905	0.423121	0.081589	-0.355777	0.487186	0.196111	0	0	0.207069	-0.25723	-0.107292	1.10454	-0.00433772	0	0	-0.125848	0.153265	0.121289	-0.204828	-0.198941	1.48192	0.181315	0.381995	0	0	0.521048	-0.316347	0.898708	1.00741	1.08113	0	0
0.605643	0.126237	-0.0534679	1.67929	0.297864	0.897058	0.155281	0.402551	0.0879543	-0.350721	0.475468	0.206317	0	0	0.246034	-0.25283	-0.0981759	1.11941	0.0291568	0	0	-0.122628	0.147573	0.125724	-0.168488	-0.213656	1.4472	0.196223	0.397298	0	0	0.495829	-0.315967	0.917045	0.977337	1.07493	0	0
0.615571	0.124156	-0.057132	1.67669	0.299022	0.899257	0.139679	0.380655	0.0931243	-0.344827	0.461439	0.217078	0	0	0.283778	-0.24601	-0.0903944	1.12678	0.063639	0	0	-0.119048	0.140277	0.129018	-0.131897	-0.229268	1.40446	0.214805	0.418944	0	0	0.468506	-0.316208	0.936532	0.945322	1.06576	0	0
0.6255	0.120846	-0.0607315	1.67363	0.300141	0.901417	0.124077	0.3576	0.0972723	-0.338263	0.445453	0.228027	0	0	0.320031	-0.237267	-0.0840924	1.12674	0.0976884	0	0	-0.115121	0.131857	0.131439	-0.0956193	-0.245755	1.35233	0.2375	0.448056	0	0	0.439501	-0.316623	0.958126	0.911044	1.05259	0	0
0.635429	0.116642	-0.0642438	1.67011	0.301212	0.903465	0.10846	0.333551	0.10062	-0.331202	0.427862	0.238857	0	0	0.354594	-0.227141	-0.0793477	1.11952	0.130095	0	0	-0.110895	0.122821	0.133263	-0.060095	-0.263053	1.2901	0.264567	0.485268	0	0	0.409245	-0.316734	0.982861	0.874177	1.03439	0	0
0.645357	0.111883	-0.0676374	1.66611	0.302226	0.905334	0.0928157	0.30867	0.103406	-0.323818	0.409011	0.249336	0	0	0.387333	-0.216176	-0.0761789	1.10547	0.159921	0	0	-0.106447	0.113666	0.134713	-0.0255478	-0.280974	1.21838	0.295851	0.53005	0	0	0.378123	-0.316071	1.01173	0.834444	1.01017	0	0
0.655286	0.106886	-0.0708746	1.66166	0.303176	0.906962	0.0771363	0.283103	0.105856	-0.316278	0.38924	0.259311	0	0	0.418166	-0.20487	-0.0745585	1.08509	0.186524	0	0	-0.101858	0.104837	0.135888	0.00813121	-0.299113	1.13984	0.330537	0.580021	0	0	0.346402	-0.314235	1.04553	0.791681	0.979092	0	0
0.665214	0.101911	-0.0739138	1.6568	0.304057	0.908302	0.0614166	0.256987	0.108143	-0.308742	0.368884	0.268703	0	0	0.447051	-0.193642	-0.0744303	1.05889	0.209552	0	0	-0.0971889	0.0966835	0.136699	0.041513	-0.316751	1.06003	0.366873	0.630268	0	0	0.314151	-0.310958	1.08466	0.745914	0.940624	0	0
0.675143	0.0971828	-0.0766726	1.65159	0.304864	0.909318	0.0456548	0.230408	0.110413	-0.301358	0.348279	0.2775	0	0	0.47394	-0.182842	-0.0757168	1.02747	0.228936	0	0	-0.0925991	0.0894908	0.137119	0.0749583	-0.333411	0.982487	0.403731	0.677835	0	0	0.281466	-0.306013	1.12934	0.697345	0.894431	0	0
0.685071	0.0928684	-0.0790402	1.64611	0.305588	0.909987	0.0298509	0.20341	0.112754	-0.294267	0.327761	0.285739	0	0	0.498774	-0.172726	-0.0783355	0.991438	0.244832	0	0	-0.0883034	0.0834473	0.137123	0.108758	-0.348779	0.909701	0.440331	0.720866	0	0	0.248374	-0.299271	1.17933	0.646414	0.840678	0	0
0.695	0.0890589	-0.0808884	1.64046	0.306224	0.910303	0.0140043	0.176013	0.115178	-0.28759	0.30767	0.293487	0	0	0.521464	-0.163438	-0.0822126	0.951397	0.257549	0	0	-0.0845385	0.0786225	0.136636	0.143251	-0.362634	0.843736	0.476013	0.757925	0	0	0.214756	-0.290781	1.23365	0.5939	0.780293	0	0
0.704929	0.0857621	-0.0820834	1.63472	0.306765	0.910277	-0.00188775	0.148213	0.117613	-0.281428	0.28834	0.300821	0	0	0.541892	-0.154998	-0.0872924	0.907916	0.267474	0	0	-0.0815272	0.0749598	0.135489	0.178918	-0.374797	0.786764	0.510057	0.787501	0	0	0.18028	-0.280821	1.29029	0.540988	0.715235	0	0
0.714857	0.0829299	-0.0824897	1.62901	0.307207	0.909931	-0.0178309	0.119996	0.119933	-0.275848	0.270093	0.307795	0	0	0.559905	-0.147341	-0.0935333	0.861538	0.275027	0	0	-0.0795003	0.0723182	0.133648	0.215909	-0.385221	0.739643	0.542158	0.809177	0	0	0.144742	-0.269779	1.34703	0.489021	0.647676	0	0
0.724786	0.0804627	-0.0819849	1.62338	0.307543	0.909302	-0.0338345	0.0913504	0.121955	-0.270885	0.253243	0.314432	0	0	0.57533	-0.14033	-0.100905	0.812794	0.280602	0	0	-0.0786708	0.0704777	0.131172	0.254108	-0.393963	0.702302	0.572315	0.823305	0	0	0.107962	-0.258221	1.40101	0.439622	0.580588	0	0
0.734714	0.0782213	-0.0804782	1.61788	0.307769	0.908433	-0.0499128	0.0622978	0.123457	-0.266542	0.238096	0.320699	0	0	0.587996	-0.133771	-0.109384	0.76221	0.284523	0	0	-0.0791937	0.069164	0.128193	0.293207	-0.401158	0.674098	0.600718	0.830648	0	0	0.0698062	-0.246864	1.44896	0.394577	0.517549	0	0
0.744643	0.0760531	-0.0779382	1.61254	0.307881	0.907376	-0.0660845	0.0329179	0.124199	-0.262773	0.224938	0.32648	0	0	0.597767	-0.127453	-0.118933	0.710326	0.287027	0	0	-0.0811095	0.0680959	0.124997	0.33263	-0.407041	0.653858	0.627737	0.832228	0	0	0.0305028	-0.236213	1.48927	0.355079	0.460481	0	0
0.754571	0.0738046	-0.0743959	1.60732	0.307875	0.906185	-0.0823727	0.00335895	0.123942	-0.25949	0.214041	0.331576	0	0	0.604569	-0.121174	-0.129499	0.657724	0.288256	0	0	-0.0843498	0.0670032	0.121962	0.371609	-0.411915	0.640041	0.653879	0.829283	0	0	-0.00950945	-0.226617	1.5215	0.321825	0.410314	0	0
0.7645	0.0713283	-0.0699315	1.60216	0.307751	0.904911	-0.0988035	-0.0261786	0.122458	-0.256567	0.205653	0.335701	0	0	0.608394	-0.114756	-0.141004	0.605057	0.288266	0	0	-0.0887476	0.0656448	0.119429	0.409367	-0.416075	0.631131	0.679608	0.823023	0	0	-0.0497252	-0.218277	1.54601	0.295033	0.367097	0	0
0.774429	0.0684968	-0.0646805	1.59697	0.307512	0.903601	-0.115404	-0.055425	0.119548	-0.253856	0.200013	0.338489	0	0	0.609332	-0.108075	-0.153342	0.553071	0.287052	0	0	-0.0940468	0.0638191	0.117695	0.445155	-0.419795	0.625714	0.705338	0.814585	0	0	-0.0896421	-0.2113	1.56363	0.274591	0.330628	0	0
0.784357	0.0652112	-0.0588273	1.59165	0.307164	0.902292	-0.132201	-0.0840424	0.115048	-0.251201	0.197359	0.339509	0	0	0.607591	-0.101069	-0.166374	0.502621	0.284564	0	0	-0.0999237	0.0613718	0.116985	0.478296	-0.423303	0.622561	0.731392	0.804981	0	0	-0.128805	-0.205716	1.57543	0.260132	0.300409	0	0
0.794286	0.0614066	-0.0525989	1.5861	0.306718	0.901008	-0.149217	-0.111628	0.108847	-0.248454	0.197933	0.33827	0	0	0.603505	-0.0937503	-0.179939	0.454663	0.280736	0	0	-0.106007	0.0581992	0.117436	0.508223	-0.426769	0.620686	0.75798	0.795073	0	0	-0.166829	-0.201492	1.58257	0.251114	0.275743	0	0
0.804214	0.0570521	-0.0462533	1.58021	0.306184	0.899762	-0.166469	-0.137724	0.100883	-0.245483	0.201975	0.334241	0	0	0.597527	-0.0861963	-0.193868	0.410226	0.275504	0	0	-0.111904	0.0542451	0.119087	0.53451	-0.430289	0.619367	0.785178	0.785554	0	0	-0.203405	-0.198548	1.58614	0.246873	0.255815	0	0
0.814143	0.0521452	-0.0400655	1.57391	0.305579	0.898551	-0.183967	-0.161836	0.0911494	-0.242182	0.209728	0.326871	0	0	0.590207	-0.0785405	-0.208001	0.370367	0.268827	0	0	-0.11723	0.0494926	0.121881	0.556882	-0.433886	0.618153	0.812916	0.776943	0	0	-0.238291	-0.196761	1.58713	0.246676	0.239747	0	0
0.824071	0.0466957	-0.0343043	1.56716	0.304916	0.897364	-0.201711	-0.183455	0.0796768	-0.238479	0.22143	0.315624	0	0	0.582145	-0.0709417	-0.222201	0.336091	0.260683	0	0	-0.121644	0.0439441	0.125664	0.575214	-0.437512	0.616809	0.841012	0.769578	0	0	-0.271316	-0.195991	1.58639	0.249786	0.226741	0	0
0.834	0.0407234	-0.0292232	1.55996	0.304212	0.896179	-0.219692	-0.202078	0.0665362	-0.234334	0.237311	0.300006	0	0	0.573964	-0.063564	-0.236354	0.308295	0.25109	0	0	-0.124867	0.0376183	0.13021	0.589528	-0.441063	0.615313	0.869157	0.763644	0	0	-0.302337	-0.196075	1.58458	0.255462	0.216052	0	0
0.843929	0.0342497	-0.0250454	1.55234	0.303477	0.89497	-0.23789	-0.217222	0.0518324	-0.229732	0.25758	0.279614	0	0	0.566266	-0.0565493	-0.250357	0.287697	0.240115	0	0	-0.126692	0.0305416	0.135224	0.599987	-0.444386	0.613819	0.896932	0.759187	0	0	-0.331231	-0.19683	1.58223	0.262965	0.206982	0	0
0.853857	0.0272897	-0.0219508	1.54439	0.302721	0.893707	-0.256273	-0.228453	0.0356974	-0.224674	0.282408	0.254185	0	0	0.559586	-0.0499916	-0.264098	0.274768	0.227885	0	0	-0.127001	0.0227407	0.140366	0.606876	-0.447298	0.612623	0.923821	0.756139	0	0	-0.357868	-0.19806	1.57975	0.271582	0.198871	0	0
0.863786	0.0198383	-0.0200649	1.53621	0.301953	0.892363	-0.274801	-0.235395	0.0182691	-0.219174	0.311934	0.223664	0	0	0.554341	-0.0439084	-0.277436	0.269671	0.214581	0	0	-0.12578	0.0142245	0.14528	0.61055	-0.44961	0.612048	0.949293	0.754382	0	0	-0.382116	-0.199588	1.5774	0.280673	0.191247	0	0
0.873714	0.0118784	-0.0194558	1.52795	0.301173	0.890916	-0.293424	-0.237757	-0.000296572	-0.213236	0.346221	0.188254	0	0	0.550814	-0.0382386	-0.290187	0.272247	0.200466	0	0	-0.123109	0.00499609	0.14961	0.611416	-0.451137	0.612435	0.972795	0.753761	0	0	-0.403815	-0.201242	1.57539	0.289651	0.183749	0	0
0.883643	0.00338461	-0.020132	1.51977	0.300383	0.889353	-0.312088	-0.235345	-0.0198227	-0.206832	0.385237	0.148462	0	0	0.549139	-0.0328449	-0.302128	0.282022	0.185904	0	0	-0.119153	-0.00494136	0.153023	0.60991	-0.451717	0.614113	0.993779	0.754093	0	0	-0.422772	-0.20287	1.57385	0.297987	0.17609	0	0
0.893571	-0.00566999	-0.0220458	1.51185	0.299578	0.887673	-0.330734	-0.228072	-0.0401083	-0.199898	0.428829	0.105143	0	0	0.549293	-0.0275253	-0.313014	0.298236	0.171361	0	0	-0.114145	-0.0155764	0.15522	0.606459	-0.451211	0.617365	1.01173	0.75518	0	0	-0.438767	-0.204342	1.57287	0.305228	0.168037	0	0
0.9035	-0.015303	-0.0250996	1.50436	0.298752	0.885891	-0.349301	-0.215959	-0.0609224	-0.19233	0.47671	0.0595104	0	0	0.55111	-0.0220362	-0.322611	0.319889	0.157403	0	0	-0.108374	-0.0268788	0.155967	0.601448	-0.449525	0.622378	1.02617	0.756824	0	0	-0.45155	-0.205564	1.57249	0.310998	0.159387	0	0
0.913429	-0.0255117	-0.0291659	1.49747	0.297897	0.884033	-0.36773	-0.199115	-0.0820063	-0.184	0.528463	0.0131081	0	0	0.554307	-0.0161274	-0.330747	0.34581	0.14467	0	0	-0.102151	-0.0387925	0.155133	0.595145	-0.446628	0.629153	1.0368	0.758878	0	0	-0.460847	-0.206488	1.57276	0.315014	0.150104	0	0
0.923357	-0.036259	-0.0340899	1.49133	0.297006	0.882142	-0.385968	-0.177746	-0.103065	-0.174772	0.583523	-0.0322534	0	0	0.558496	-0.00957237	-0.337326	0.374725	0.13383	0	0	-0.0957981	-0.0512197	0.152696	0.587691	-0.442548	0.637502	1.04339	0.761251	0	0	-0.466367	-0.207115	1.5737	0.317086	0.140241	0	0
0.933286	-0.0474637	-0.039702	1.48605	0.29607	0.880274	-0.403969	-0.15214	-0.123773	-0.164533	0.641189	-0.0746191	0	0	0.563214	-0.00220066	-0.342351	0.405321	0.125522	0	0	-0.0896238	-0.0640119	0.14875	0.579085	-0.437375	0.64704	1.0459	0.763908	0	0	-0.46782	-0.207488	1.57531	0.317128	0.129886	0	0
0.943214	-0.0589946	-0.0458329	1.48173	0.295083	0.878494	-0.421698	-0.122648	-0.143785	-0.153222	0.700633	-0.112051	0	0	0.567947	0.00607746	-0.345924	0.436308	0.120288	0	0	-0.0838999	-0.0769672	0.143512	0.569172	-0.431254	0.657183	1.04438	0.766879	0	0	-0.464922	-0.207682	1.57756	0.315151	0.119081	0	0
0.953143	-0.0706706	-0.0523187	1.47842	0.294039	0.876873	-0.439131	-0.0896798	-0.162746	-0.140861	0.760916	-0.142792	0	0	0.57216	0.0152602	-0.348226	0.466467	0.118515	0	0	-0.0788509	-0.0898324	0.137315	0.557659	-0.424381	0.667172	1.03907	0.770253	0	0	-0.457423	-0.207801	1.58038	0.311277	0.107952	0	0
0.963071	-0.0822662	-0.0590031	1.47614	0.292934	0.875485	-0.456258	-0.0537008	-0.180313	-0.127568	0.821007	-0.165407	0	0	0.575309	0.0252559	-0.349487	0.494689	0.120387	0	0	-0.0746528	-0.102316	0.130599	0.544119	-0.41699	0.676092	1.03029	0.774179	0	0	-0.445124	-0.207986	1.58363	0.305753	0.0970341	0	0
0.973	-0.0935215	-0.0657409	1.47488	0.291767	0.874402	-0.473082	-0.0152228	-0.196162	-0.11355	0.879806	-0.178897	0	0	0.576868	0.0358919	-0.349954	0.520005	0.125867	0	0	-0.0714319	-0.114102	0.123893	0.528026	-0.409344	0.682915	1.01849	0.77886	0	0	-0.427884	-0.208387	1.58709	0.298949	0.0870307	0	0
0.982929	-0.104155	-0.0723969	1.4746	0.290535	0.873686	-0.489618	0.0251984	-0.210008	-0.0991044	0.936174	-0.182763	0	0	0.576353	0.046932	-0.349858	0.541609	0.134694	0	0	-0.0692745	-0.124873	0.117793	0.508788	-0.401722	0.686551	1.00422	0.784535	0	0	-0.405627	-0.209166	1.5904	0.291361	0.0787789	0	0
0.992857	-0.113886	-0.0788502	1.47526	0.289241	0.87339	-0.505891	0.0669804	-0.221617	-0.0845878	0.988976	-0.177024	0	0	0.573343	0.0581016	-0.349396	0.55888	0.146413	0	0	-0.0682156	-0.134325	0.112885	0.485864	-0.394363	0.686074	0.987974	0.791346	0	0	-0.378379	-0.210457	1.59304	0.283597	0.0731317	0	0
1.00279	-0.122455	-0.0849971	1.47678	0.287887	0.873548	-0.521935	0.109531	-0.230822	-0.0703971	1.03712	-0.162191	0	0	0.567506	0.0691131	-0.348726	0.571391	0.160418	0	0	-0.068238	-0.142196	0.109696	0.458849	-0.387437	0.680862	0.970173	0.799275	0	0	-0.346299	-0.212365	1.59432	0.276381	0.0710916	0	0
1.01271	-0.129642	-0.0907471	1.47909	0.286479	0.874174	-0.537786	0.152254	-0.237532	-0.0569465	1.0796	-0.139211	0	0	0.558613	0.0796915	-0.347955	0.578909	0.175999	0	0	-0.0692863	-0.14828	0.108646	0.42753	-0.381026	0.670717	0.951081	0.808086	0	0	-0.309695	-0.21498	1.59331	0.27057	0.0740329	0	0
1.02264	-0.135291	-0.0960315	1.4821	0.285026	0.875262	-0.553482	0.194584	-0.241745	-0.0446377	1.11553	-0.109363	0	0	0.546547	0.0895986	-0.347156	0.58139	0.192416	0	0	-0.0712544	-0.152453	0.109985	0.391974	-0.375083	0.656054	0.93073	0.81724	0	0	-0.269045	-0.218352	1.58887	0.267097	0.0832607	0	0
1.03257	-0.13932	-0.100801	1.48574	0.283538	0.876783	-0.56906	0.235993	-0.243555	-0.0338436	1.14419	-0.0741566	0	0	0.531313	0.0986507	-0.346374	0.578969	0.208946	0	0	-0.0739948	-0.154675	0.113751	0.352582	-0.369429	0.638019	0.908875	0.825819	0	0	-0.225012	-0.222496	1.57962	0.266949	0.0999988	0	0
1.0425	-0.141733	-0.105021	1.48993	0.282028	0.878688	-0.584554	0.276009	-0.24315	-0.024896	1.16505	-0.0352246	0	0	0.51302	0.106732	-0.345638	0.571931	0.224935	0	0	-0.0773243	-0.155	0.119727	0.310128	-0.363752	0.618605	0.884962	0.832447	0	0	-0.178453	-0.227404	1.56403	0.271122	0.125352	0	0
1.05243	-0.14261	-0.108668	1.49461	0.280513	0.880913	-0.59999	0.314213	-0.240807	-0.0180835	1.17775	0.0057506	0	0	0.491866	0.113801	-0.344962	0.56069	0.239825	0	0	-0.08103	-0.153565	0.127395	0.265806	-0.357617	0.600785	0.858083	0.835193	0	0	-0.130428	-0.233047	1.54046	0.280553	0.16024	0	0
1.06236	-0.142104	-0.11174	1.49972	0.279009	0.883379	-0.615393	0.350266	-0.236869	-0.0136397	1.18212	0.0471667	0	0	0.468131	0.11988	-0.344359	0.545752	0.253184	0	0	-0.0848998	-0.150585	0.136092	0.220936	-0.350555	0.587914	0.827262	0.832067	0	0	-0.082069	-0.239431	1.50736	0.296101	0.205354	0	0
1.07229	-0.14042	-0.114251	1.50524	0.277533	0.886002	-0.630778	0.383906	-0.231722	-0.0117426	1.17818	0.0875914	0	0	0.44215	0.125044	-0.343836	0.527688	0.264721	0	0	-0.0887393	-0.146339	0.145077	0.176844	-0.342125	0.583504	0.791573	0.821104	0	0	-0.0344886	-0.246597	1.46346	0.318464	0.261032	0	0
1.08221	-0.137798	-0.116231	1.51113	0.2761	0.888694	-0.64616	0.414948	-0.225769	-0.0125166	1.16609	0.125829	0	0	0.414294	0.129405	-0.343398	0.507104	0.274284	0	0	-0.0923873	-0.141137	0.153612	0.13473	-0.331951	0.590949	0.750271	0.800458	0	0	0.0113267	-0.254597	1.4081	0.348057	0.327081	0	0
1.09214	-0.134483	-0.117714	1.51736	0.274725	0.891369	-0.66155	0.443269	-0.219394	-0.0160366	1.14614	0.160945	0	0	0.384943	0.133089	-0.343036	0.484616	0.281851	0	0	-0.0957226	-0.135287	0.161011	0.0955772	-0.319756	0.613278	0.702892	0.768533	0	0	0.0546276	-0.263442	1.34168	0.384874	0.40256	0	0
1.10207	-0.130706	-0.118735	1.52394	0.273419	0.893948	-0.676952	0.468797	-0.212935	-0.0223275	1.11874	0.192275	0	0	0.354463	0.136215	-0.34272	0.460833	0.287515	0	0	-0.0986875	-0.129049	0.166701	0.0600754	-0.305395	0.652825	0.649355	0.724161	0	0	0.0950151	-0.273091	1.26578	0.42847	0.485722	0	0
1.112	-0.126653	-0.119316	1.53085	0.272189	0.896363	-0.692372	0.491483	-0.206646	-0.0313639	1.08435	0.219419	0	0	0.32319	0.138865	-0.342398	0.436341	0.291465	0	0	-0.101278	-0.122592	0.17031	0.0284756	-0.28888	0.710752	0.590125	0.666923	0	0	0.132637	-0.283225	1.1842	0.477459	0.572795	0	0
1.12193	-0.122435	-0.119459	1.5381	0.271035	0.898561	-0.707811	0.51128	-0.200655	-0.0430661	1.04344	0.242196	0	0	0.29141	0.141055	-0.341987	0.411697	0.293964	0	0	-0.103539	-0.11596	0.171801	0.000437624	-0.270411	0.786434	0.526365	0.597556	0	0	0.168402	-0.293095	1.10372	0.529206	0.657197	0	0
1.13186	-0.118132	-0.119134	1.54568	0.269959	0.900498	-0.723274	0.528134	-0.19501	-0.0572685	0.996561	0.260634	0	0	0.259346	0.142767	-0.341394	0.387417	0.29532	0	0	-0.10559	-0.109177	0.171163	-0.0245855	-0.250368	0.877893	0.459745	0.517698	0	0	0.202963	-0.302289	1.0288	0.58182	0.734808	0	0
1.14179	-0.113787	-0.118274	1.55359	0.268964	0.902145	-0.738764	0.541975	-0.189663	-0.0737068	0.944258	0.274917	0	0	0.227156	0.143944	-0.340517	0.363971	0.29586	0	0	-0.107606	-0.102238	0.168465	-0.0473963	-0.22935	0.981261	0.392539	0.430419	0	0	0.236801	-0.310625	0.962172	0.633981	0.803381	0	0
1.15171	-0.109392	-0.116788	1.56184	0.268049	0.903484	-0.754287	0.552718	-0.184467	-0.0920005	0.887111	0.285318	0	0	0.194948	0.144473	-0.339257	0.341798	0.295915	0	0	-0.109811	-0.095096	0.163904	-0.0691484	-0.208221	1.09001	0.32782	0.340991	0	0	0.27034	-0.318066	0.905361	0.684742	0.861901	0	0
1.16164	-0.104903	-0.114573	1.57041	0.267214	0.904507	-0.769852	0.560274	-0.179195	-0.11164	0.825725	0.292152	0	0	0.162798	0.144196	-0.337528	0.321301	0.295796	0	0	-0.112449	-0.0876666	0.157808	-0.0913249	-0.188155	1.19457	0.269514	0.257292	0	0	0.304	-0.324643	0.859179	0.733395	0.910049	0	0
1.17157	-0.100272	-0.111578	1.57929	0.266465	0.90522	-0.785474	0.564612	-0.173582	-0.131979	0.760734	0.295742	0	0	0.130795	0.142956	-0.335221	0.302798	0.295722	0	0	-0.115596	-0.0798961	0.150331	-0.114681	-0.169856	1.28924	0.219755	0.183882	0	0	0.337844	-0.330535	0.823324	0.779531	0.948441	0	0
1.1815	-0.0954591	-0.107794	1.58849	0.265808	0.905636	-0.801172	0.565761	-0.167365	-0.152257	0.692834	0.296393	0	0	0.0990424	0.140608	-0.332214	0.286534	0.295813	0	0	-0.119216	-0.0717572	0.141554	-0.139471	-0.153676	1.37117	0.179344	0.122825	0	0	0.371723	-0.335987	0.796837	0.822919	0.978244	0	0
1.19143	-0.0904265	-0.103253	1.59799	0.265253	0.905777	-0.816972	0.56382	-0.160311	-0.171643	0.622833	0.29439	0	0	0.0676584	0.137021	-0.328386	0.272695	0.296086	0	0	-0.123189	-0.0632484	0.131554	-0.165636	-0.139726	1.43932	0.148195	0.074395	0	0	0.405375	-0.341248	0.778444	0.863422	1.00085	0	0
1.20136	-0.0851526	-0.0980299	1.60778	0.264807	0.905662	-0.8329	0.558997	-0.152256	-0.189288	0.551702	0.290005	0	0	0.0367944	0.1321	-0.323629	0.261431	0.296452	0	0	-0.127338	-0.0544041	0.120442	-0.192943	-0.127995	1.49351	0.125768	0.0379616	0	0	0.438501	-0.346528	0.766807	0.900923	1.0176	0	0
1.21129	-0.0796365	-0.092232	1.61782	0.264476	0.905314	-0.84898	0.55162	-0.143151	-0.204431	0.480618	0.283516	0	0	0.00662914	0.125792	-0.317863	0.252856	0.296715	0	0	-0.131451	-0.0452844	0.10837	-0.221064	-0.118311	1.53457	0.111042	0.0121702	0	0	0.470785	-0.351975	0.76062	0.935308	1.02977	0	0
1.22121	-0.0739005	-0.0860004	1.62807	0.264262	0.904753	-0.865236	0.542156	-0.133091	-0.21652	0.411004	0.275237	0	0	-0.0226265	0.118094	-0.311039	0.247065	0.29657	0	0	-0.135305	-0.0359727	0.09554	-0.249639	-0.110403	1.564	0.102729	-0.00470242	0	0	0.501911	-0.357664	0.758697	0.96645	1.03846	0	0
1.23114	-0.0679914	-0.0795083	1.63845	0.264163	0.903998	-0.881683	0.53123	-0.12233	-0.225341	0.344546	0.265552	0	0	-0.0507205	0.109059	-0.303161	0.244144	0.295612	0	0	-0.138671	-0.0265725	0.0822035	-0.278314	-0.103954	1.58361	0.099449	-0.0144976	0	0	0.531598	-0.363589	0.760051	0.994207	1.04445	0	0
1.24107	-0.0619756	-0.0729596	1.64884	0.264175	0.903063	-0.898329	0.519639	-0.111274	-0.231126	0.283178	0.254935	0	0	-0.0773563	0.0987943	-0.294289	0.244181	0.293356	0	0	-0.14133	-0.0172015	0.0686522	-0.306766	-0.0986536	1.59525	0.0998972	-0.0190111	0	0	0.559592	-0.369678	0.763877	1.01843	1.04828	0	0
1.251	-0.0559277	-0.0665787	1.65913	0.26429	0.901959	-0.915174	0.508316	-0.100427	-0.234564	0.228998	0.243958	0	0	-0.102195	0.0874439	-0.284554	0.247283	0.289257	0	0	-0.143085	-0.00797544	0.0552094	-0.334697	-0.0942092	1.60066	0.102871	-0.0198977	0	0	0.585674	-0.375796	0.769533	1.03898	1.05028	0	0
1.26093	-0.0499046	-0.0605857	1.66915	0.2645	0.900697	-0.932204	0.49825	-0.0903045	-0.236721	0.184093	0.233228	0	0	-0.124875	0.0751566	-0.274167	0.253583	0.282752	0	0	-0.143785	0.00102053	0.0422196	-0.361832	-0.0903706	1.60134	0.107328	-0.0185701	0	0	0.609651	-0.381767	0.776515	1.05575	1.05068	0	0
1.27086	-0.0439319	-0.0551777	1.67872	0.264797	0.899288	-0.949397	0.490378	-0.0813532	-0.238862	0.150302	0.223308	0	0	-0.145036	0.0620641	-0.263411	0.263234	0.273298	0	0	-0.143343	0.00974621	0.030028	-0.387916	-0.0869414	1.5985	0.112407	-0.0161218	0	0	0.631372	-0.38739	0.784433	1.06868	1.04961	0	0
1.28079	-0.0380023	-0.0505114	1.6877	0.265174	0.897747	-0.966723	0.485453	-0.0738896	-0.242191	0.128961	0.214616	0	0	-0.162349	0.0482748	-0.252607	0.276389	0.260404	0	0	-0.141739	0.018208	0.0189502	-0.412714	-0.0837806	1.59306	0.117442	-0.0132964	0	0	0.650721	-0.392473	0.792988	1.07779	1.04711	0	0
1.29071	-0.0320956	-0.0467025	1.69593	0.265622	0.89609	-0.984145	0.483985	-0.0681046	-0.247677	0.120763	0.207393	0	0	-0.176541	0.0338915	-0.242067	0.293169	0.243671	0	0	-0.13901	0.026434	0.00924203	-0.436016	-0.0807941	1.58565	0.121942	-0.0104566	0	0	0.667629	-0.396853	0.801959	1.08319	1.04319	0	0
1.30064	-0.0261711	-0.0437937	1.70334	0.266134	0.894336	-1.00163	0.486102	-0.0640324	-0.25583	0.12555	0.201607	0	0	-0.187442	0.0189879	-0.232054	0.313651	0.22283	0	0	-0.135271	0.0344837	0.00108513	-0.457656	-0.0779187	1.5767	0.125582	-0.00781901	0	0	0.682112	-0.400402	0.811229	1.08509	1.03783	0	0
1.31057	-0.0201928	-0.041769	1.70988	0.266699	0.892508	-1.01914	0.491589	-0.0615807	-0.266684	0.142373	0.197009	0	0	-0.195003	0.0036373	-0.222752	0.337809	0.19778	0	0	-0.130688	0.0424157	-0.005426	-0.477522	-0.0751134	1.56649	0.12819	-0.00549858	0	0	0.694264	-0.403042	0.820746	1.08377	1.03104	0	0
1.3205	-0.0141294	-0.0405538	1.71559	0.267307	0.890628	-1.03665	0.499926	-0.0605335	-0.279818	0.169576	0.19317	0	0	-0.199327	-0.0120918	-0.214253	0.365488	0.168621	0	0	-0.125463	0.0502849	-0.0102885	-0.495573	-0.0723524	1.55526	0.129714	-0.00353429	0	0	0.704257	-0.404744	0.830499	1.07959	1.02288	0	0
1.33043	-0.00794963	-0.0400226	1.72054	0.267949	0.888721	-1.05414	0.51038	-0.0605624	-0.294496	0.204997	0.189582	0	0	-0.200669	-0.0281459	-0.206561	0.39639	0.135671	0	0	-0.119815	0.0581454	-0.0135861	-0.511846	-0.0696194	1.54324	0.130204	-0.00191167	0	0	0.712346	-0.405537	0.840498	1.07299	1.01348	0	0
1.34036	-0.00164515	-0.0400474	1.72483	0.268618	0.886803	-1.07158	0.522263	-0.0613383	-0.310034	0.246442	0.185865	0	0	-0.199392	-0.0444601	-0.199603	0.430095	0.0994591	0	0	-0.113922	0.0660191	-0.0154797	-0.526482	-0.0669003	1.53065	0.129804	-0.000581928	0	0	0.718867	-0.405494	0.850794	1.06442	1.00298	0	0
1.35029	0.0047748	-0.0404958	1.72861	0.269306	0.884889	-1.08898	0.534984	-0.0625543	-0.325873	0.291864	0.181802	0	0	-0.195971	-0.060965	-0.193245	0.466063	0.06069	0	0	-0.107919	0.0739075	-0.016199	-0.539724	-0.0641846	1.51766	0.128712	0.00052232	0	0	0.724215	-0.404739	0.861427	1.05433	0.991526	0	0
1.36021	0.0112832	-0.0412396	1.73201	0.270008	0.882983	-1.10633	0.548114	-0.0639734	-0.34166	0.339567	0.177347	0	0	-0.19097	-0.0775885	-0.18731	0.50367	0.0201613	0	0	-0.101889	0.081797	-0.01603	-0.551909	-0.0614633	1.50444	0.127151	0.0014741	0	0	0.7288	-0.403431	0.872405	1.04317	0.979342	0	0
1.37014	0.0178409	-0.0421606	1.73519	0.270717	0.881086	-1.12364	0.5614	-0.0654561	-0.357273	0.388328	0.172597	0	0	-0.184997	-0.0942632	-0.181612	0.542263	-0.0213473	0	0	-0.095867	0.0896694	-0.015297	-0.563432	-0.0587299	1.49112	0.12533	0.00234137	0	0	0.732994	-0.401761	0.883666	1.03138	0.966694	0	0
1.38007	0.0244126	-0.0431553	1.73829	0.271429	0.879193	-1.14093	0.574724	-0.0669484	-0.372768	0.437404	0.167717	0	0	-0.178621	-0.110945	-0.175995	0.581252	-0.0632051	0	0	-0.0898564	0.0975213	-0.0143241	-0.574679	-0.0559848	1.47782	0.123407	0.00317776	0	0	0.737064	-0.39993	0.895073	1.01933	0.953895	0	0
