Coordinates
version=1
nRows=236
nColumns=38
inDegrees=no

Units are S.I. units (second, meters, Newtons, ...)
If the header above contains a line with 'inDegrees', this indicates whether rotational values are in degrees (yes) or radians (no).

endheader
time	pelvis_tilt	pelvis_list	pelvis_rotation	pelvis_tx	pelvis_ty	pelvis_tz	hip_flexion_r	hip_adduction_r	hip_rotation_r	knee_angle_r	ankle_angle_r	subtalar_angle_r	mtp_angle_r	hip_flexion_l	hip_adduction_l	hip_rotation_l	knee_angle_l	ankle_angle_l	subtalar_angle_l	mtp_angle_l	lumbar_extension	lumbar_bending	lumbar_rotation	arm_flex_r	arm_add_r	arm_rot_r	elbow_flex_r	pro_sup_r	wrist_flex_r	wrist_dev_r	arm_flex_l	arm_add_l	arm_rot_l	elbow_flex_l	pro_sup_l	wrist_flex_l	wrist_dev_l
3.18	2.60008	-0.0226015	-2.99509	-1.01505	-0.989398	0.264394	-0.20676	0.03801	-0.317172	0.375224	0.0271022	0	0	0.058725	-0.0423476	0.222411	1.23151	-0.0325529	0	0	-1.15354	0.0891659	0.0818568	1.02966	-0.305273	0.0018573	1.16735	0.738256	0	0	1.02989	0.0708709	-0.081604	1.12313	0.734037	0	0
3.18999	2.60533	-0.0219975	-2.99512	-1.00531	-0.990274	0.265248	-0.207894	0.0389597	-0.318738	0.38364	0.0394315	0	0	0.0748513	-0.042497	0.212381	1.19593	-0.0258578	0	0	-1.15052	0.0909883	0.0820029	1.02878	-0.305996	0.00181436	1.16682	0.738169	0	0	1.02929	0.0722403	-0.0813676	1.12272	0.733959	0	0
3.19998	2.61057	-0.0212913	-2.99515	-0.995559	-0.991135	0.266104	-0.209028	0.0400082	-0.320235	0.392059	0.0517729	0	0	0.0908328	-0.0427478	0.202245	1.16	-0.0192781	0	0	-1.14752	0.0928185	0.0824524	1.0279	-0.306718	0.00177142	1.16628	0.738081	0	0	1.02869	0.0736098	-0.0811312	1.1223	0.733881	0	0
3.20997	2.61581	-0.0203527	-2.99518	-0.985797	-0.991961	0.266967	-0.210162	0.0412805	-0.321543	0.400457	0.064156	0	0	0.106522	-0.0432474	0.191768	1.12331	-0.0129774	0	0	-1.14444	0.0946773	0.0835521	1.02701	-0.307441	0.00172847	1.16575	0.737993	0	0	1.0281	0.0749794	-0.0808948	1.12189	0.733802	0	0
3.21996	2.62108	-0.0190586	-2.99519	-0.97601	-0.992727	0.267844	-0.211296	0.0429045	-0.32251	0.408787	0.0766237	0	0	0.121812	-0.0441498	0.180661	1.08549	-0.00713421	0	0	-1.14105	0.0966034	0.085583	1.02613	-0.308164	0.00168552	1.16521	0.737906	0	0	1.0275	0.0763491	-0.0806584	1.12148	0.733724	0	0
3.22995	2.62641	-0.0172756	-2.99518	-0.966185	-0.993407	0.268742	-0.21243	0.045029	-0.32298	0.417012	0.0892135	0	0	0.136574	-0.0456023	0.168718	1.0462	-0.00195385	0	0	-1.1372	0.0986721	0.0887309	1.02524	-0.308887	0.00164256	1.16468	0.737818	0	0	1.0269	0.077719	-0.0804219	1.12107	0.733646	0	0
3.23994	2.6318	-0.0148636	-2.99511	-0.956311	-0.993976	0.269671	-0.213563	0.0478144	-0.322807	0.425128	0.101955	0	0	0.150659	-0.0477328	0.155868	1.00513	0.00234448	0	0	-1.1329	0.100995	0.0930882	1.02436	-0.309609	0.0015996	1.16414	0.73773	0	0	1.0263	0.0790889	-0.0801854	1.12066	0.733567	0	0
3.24993	2.63724	-0.0117216	-2.99496	-0.946378	-0.994407	0.270642	-0.214696	0.0513804	-0.321862	0.433137	0.114884	0	0	0.164001	-0.0506174	0.142112	0.962199	0.00558091	0	0	-1.12805	0.10369	0.0986623	1.02348	-0.310332	0.00155664	1.16361	0.737643	0	0	1.0257	0.080459	-0.0799489	1.12025	0.733489	0	0
3.25992	2.64279	-0.0077991	-2.9947	-0.936379	-0.994682	0.271665	-0.215828	0.0557891	-0.320034	0.441036	0.128035	0	0	0.176636	-0.0542665	0.127525	0.917573	0.00763675	0	0	-1.12243	0.106855	0.105393	1.02259	-0.311055	0.00151368	1.16307	0.737555	0	0	1.0251	0.0818291	-0.0797124	1.11983	0.733411	0	0
3.26991	2.64841	-0.0030432	-2.99433	-0.926309	-0.994782	0.272752	-0.21696	0.0610949	-0.317244	0.448875	0.141416	0	0	0.188542	-0.0586568	0.112394	0.871428	0.00841672	0	0	-1.11609	0.110585	0.113181	1.02171	-0.311778	0.00147071	1.16254	0.737468	0	0	1.0245	0.0831994	-0.0794758	1.11942	0.733332	0	0
3.2799	2.65401	0.0026274	-2.99382	-0.916163	-0.994696	0.273914	-0.21809	0.0673681	-0.313461	0.456795	0.154999	0	0	0.19957	-0.063761	0.0972633	0.823854	0.00783731	0	0	-1.10948	0.114991	0.121907	1.02082	-0.312501	0.00142775	1.162	0.73738	0	0	1.0239	0.0845697	-0.0792392	1.11901	0.733254	0	0
3.28989	2.65955	0.00922607	-2.99318	-0.905942	-0.994416	0.275159	-0.219219	0.0745971	-0.308701	0.464892	0.168769	0	0	0.209696	-0.06949	0.0826992	0.775182	0.00591473	0	0	-1.10286	0.120134	0.13143	1.01993	-0.313224	0.00138478	1.16147	0.737292	0	0	1.0233	0.0859401	-0.0790025	1.1186	0.733176	0	0
3.29987	2.66501	0.0166864	-2.99244	-0.895646	-0.993941	0.276499	-0.220347	0.0826704	-0.303021	0.473207	0.182712	0	0	0.218998	-0.0756892	0.0692338	0.725941	0.00276855	0	0	-1.0963	0.126001	0.141585	1.01905	-0.313947	0.00134181	1.16093	0.737205	0	0	1.0227	0.0873106	-0.0787659	1.11818	0.733098	0	0
3.30986	2.67039	0.0249003	-2.99166	-0.885276	-0.993274	0.27794	-0.221474	0.0914063	-0.296521	0.481809	0.196786	0	0	0.227546	-0.0821807	0.057381	0.676697	-0.00142114	0	0	-1.08987	0.132526	0.152201	1.01816	-0.31467	0.00129884	1.1604	0.737117	0	0	1.02209	0.0886811	-0.0785291	1.11777	0.733019	0	0
3.31985	2.6757	0.0336932	-2.99096	-0.874832	-0.992425	0.279489	-0.222599	0.100536	-0.289342	0.490731	0.210945	0	0	0.235468	-0.0887581	0.047509	0.628121	-0.00640618	0	0	-1.08351	0.139573	0.163097	1.01727	-0.315393	0.00125587	1.15986	0.73703	0	0	1.02149	0.0900517	-0.0782924	1.11736	0.732941	0	0
3.32984	2.68102	0.0428241	-2.99048	-0.864315	-0.991406	0.281148	-0.223722	0.109702	-0.281666	0.499962	0.225145	0	0	0.24293	-0.0951865	0.0397887	0.580947	-0.0118979	0	0	-1.07702	0.146923	0.174074	1.01639	-0.316116	0.0012129	1.15932	0.736942	0	0	1.02089	0.0914223	-0.0780556	1.11695	0.732863	0	0
3.33983	2.68636	0.0520333	-2.99039	-0.853725	-0.990235	0.282919	-0.224843	0.118511	-0.273707	0.509564	0.239324	0	0	0.250004	-0.101247	0.0342479	0.535801	-0.0176254	0	0	-1.07031	0.154322	0.184938	1.0155	-0.31684	0.00116993	1.15879	0.736854	0	0	1.02028	0.092793	-0.0778188	1.11653	0.732785	0	0
3.34982	2.69169	0.0610649	-2.99082	-0.843061	-0.988934	0.284799	-0.225962	0.126569	-0.265698	0.519695	0.253406	0	0	0.256646	-0.106755	0.0307808	0.493173	-0.023361	0	0	-1.06345	0.161509	0.195496	1.01461	-0.317563	0.00112697	1.15825	0.736767	0	0	1.01968	0.0941637	-0.077582	1.11612	0.732707	0	0
3.35981	2.69693	0.069799	-2.99189	-0.832321	-0.987528	0.286781	-0.227079	0.13363	-0.257801	0.530573	0.267349	0	0	0.262696	-0.111683	0.0292171	0.453394	-0.0289436	0	0	-1.05672	0.16834	0.205628	1.01372	-0.318286	0.001084	1.15772	0.736679	0	0	1.01907	0.0955344	-0.0773451	1.11571	0.732628	0	0
3.3698	2.70202	0.078156	-2.99369	-0.821498	-0.986043	0.288855	-0.228192	0.139519	-0.250117	0.542333	0.281131	0	0	0.268046	-0.116053	0.0292697	0.41681	-0.0342667	0	0	-1.05022	0.174707	0.215247	1.01282	-0.319008	0.00104104	1.15718	0.736592	0	0	1.01847	0.0969051	-0.0771081	1.11529	0.73255	0	0
3.37979	2.7069	0.0860624	-2.99625	-0.810587	-0.984509	0.291006	-0.229301	0.144105	-0.242737	0.555127	0.294645	0	0	0.272556	-0.1199	0.0305661	0.383699	-0.0392892	0	0	-1.04414	0.180508	0.224302	1.01193	-0.319731	0.000998081	1.15664	0.736504	0	0	1.01786	0.0982759	-0.0768712	1.11488	0.732472	0	0
3.38978	2.7116	0.0933977	-2.99962	-0.799578	-0.982955	0.293215	-0.230406	0.147243	-0.235753	0.568896	0.307763	0	0	0.276246	-0.123196	0.032625	0.354411	-0.0440278	0	0	-1.03841	0.185581	0.232713	1.01104	-0.320454	0.00095512	1.1561	0.736417	0	0	1.01725	0.0996468	-0.0766341	1.11447	0.732394	0	0
3.39977	2.7162	0.100025	-3.0038	-0.788461	-0.98141	0.295461	-0.231506	0.148805	-0.229252	0.583496	0.320312	0	0	0.279198	-0.125878	0.0349124	0.329281	-0.048576	0	0	-1.03279	0.189748	0.240394	1.01015	-0.321177	0.000912159	1.15557	0.73633	0	0	1.01664	0.101018	-0.076397	1.11405	0.732316	0	0
3.40976	2.72083	0.10579	-3.0088	-0.777226	-0.979903	0.297718	-0.2326	0.148682	-0.223324	0.598703	0.332092	0	0	0.281559	-0.127858	0.0368898	0.308608	-0.0530965	0	0	-1.02696	0.192827	0.247248	1.00925	-0.3219	0.000869198	1.15503	0.736242	0	0	1.01603	0.102389	-0.0761599	1.11364	0.732238	0	0
3.41975	2.72551	0.110577	-3.01452	-0.76586	-0.978462	0.29996	-0.233686	0.146848	-0.218027	0.61442	0.342863	0	0	0.283387	-0.129084	0.0380619	0.292527	-0.057818	0	0	-1.02079	0.194708	0.253202	1.00835	-0.322623	0.000826239	1.15449	0.736155	0	0	1.01542	0.10376	-0.0759226	1.11322	0.73216	0	0
3.42974	2.73013	0.11434	-3.02075	-0.754354	-0.977112	0.302157	-0.234764	0.143409	-0.213398	0.630784	0.352359	0	0	0.284575	-0.129589	0.0380313	0.28092	-0.0630251	0	0	-1.01455	0.195406	0.258236	1.00746	-0.323346	0.000783281	1.15395	0.736067	0	0	1.01481	0.105131	-0.0756853	1.11281	0.732082	0	0
3.43973	2.7347	0.117009	-3.02732	-0.742699	-0.975878	0.304282	-0.235832	0.138464	-0.209454	0.647723	0.360329	0	0	0.285146	-0.129357	0.036504	0.273605	-0.0690402	0	0	-1.00826	0.194901	0.262271	1.00656	-0.324069	0.000740326	1.15342	0.73598	0	0	1.01419	0.106503	-0.0754479	1.11239	0.732004	0	0
3.44972	2.73924	0.118489	-3.03406	-0.730891	-0.974782	0.306307	-0.236889	0.132083	-0.206218	0.665092	0.366509	0	0	0.285177	-0.128335	0.0332891	0.270312	-0.0761883	0	0	-1.00181	0.193137	0.265204	1.00566	-0.324792	0.000697375	1.15288	0.735893	0	0	1.01358	0.107874	-0.0752105	1.11198	0.731926	0	0
3.45971	2.74383	0.11865	-3.04087	-0.718928	-0.973842	0.308208	-0.237932	0.124287	-0.203732	0.682648	0.370614	0	0	0.284822	-0.126415	0.0283008	0.270716	-0.0847445	0	0	-0.994982	0.19	0.266912	1.00475	-0.325515	0.000654429	1.15234	0.735805	0	0	1.01296	0.109246	-0.074973	1.11156	0.731848	0	0
3.4697	2.7485	0.117373	-3.04767	-0.706811	-0.973074	0.309962	-0.238962	0.115087	-0.202058	0.700245	0.37233	0	0	0.284201	-0.123494	0.0215776	0.27443	-0.0948806	0	0	-0.987662	0.185383	0.267307	1.00385	-0.326237	0.000611488	1.1518	0.735718	0	0	1.01234	0.110617	-0.0747354	1.11115	0.73177	0	0
3.47969	2.75318	0.114582	-3.05432	-0.694548	-0.972489	0.311552	-0.239977	0.104514	-0.201268	0.717905	0.371322	0	0	0.283355	-0.119505	0.0133004	0.281014	-0.106596	0	0	-0.979954	0.179231	0.266346	1.00295	-0.32696	0.000568553	1.15126	0.735631	0	0	1.01172	0.111988	-0.0744977	1.11073	0.731692	0	0
3.48968	2.7578	0.110224	-3.06076	-0.682151	-0.972093	0.312965	-0.240976	0.0926041	-0.201413	0.735647	0.36725	0	0	0.28232	-0.114391	0.00378016	0.290032	-0.119635	0	0	-0.971944	0.171499	0.264008	1.00204	-0.327682	0.000525625	1.15072	0.735543	0	0	1.0111	0.11336	-0.0742599	1.11031	0.731614	0	0
3.49967	2.76228	0.104282	-3.06693	-0.669637	-0.971888	0.314198	-0.241961	0.079401	-0.202501	0.753477	0.359772	0	0	0.281103	-0.108119	-0.00655477	0.301081	-0.133433	0	0	-0.963696	0.162154	0.260294	1.00113	-0.328405	0.000482705	1.15018	0.735456	0	0	1.01048	0.114731	-0.0740221	1.10989	0.731536	0	0
3.50966	2.76645	0.0968583	-3.07276	-0.657027	-0.971871	0.31525	-0.242932	0.0650471	-0.204484	0.771606	0.348582	0	0	0.279521	-0.100763	-0.0171492	0.313719	-0.147181	0	0	-0.95553	0.151289	0.255295	1.00022	-0.329127	0.000439794	1.14964	0.735369	0	0	1.00985	0.116103	-0.0737841	1.10948	0.731458	0	0
3.51964	2.77001	0.0882074	-3.07814	-0.644347	-0.972034	0.31613	-0.243893	0.0498428	-0.207213	0.790422	0.333453	0	0	0.277229	-0.0925488	-0.0273972	0.327503	-0.160034	0	0	-0.948015	0.139184	0.249193	0.999305	-0.329849	0.000396893	1.14909	0.735281	0	0	1.00922	0.117474	-0.0735461	1.10906	0.73138	0	0
3.52963	2.77275	0.0786258	-3.08297	-0.631626	-0.972364	0.316854	-0.244848	0.0341596	-0.21039	0.81011	0.314242	0	0	0.273992	-0.0837323	-0.0368292	0.342118	-0.171271	0	0	-0.941478	0.126154	0.242181	0.99839	-0.330571	0.000354003	1.14855	0.735194	0	0	1.00859	0.118845	-0.073308	1.10864	0.731302	0	0
3.53962	2.7745	0.0684282	-3.08718	-0.618892	-0.972847	0.317444	-0.245804	0.0183576	-0.21369	0.830804	0.290866	0	0	0.269572	-0.0745673	-0.0451188	0.357232	-0.180368	0	0	-0.936195	0.112546	0.234473	0.997473	-0.331293	0.000311124	1.14801	0.735107	0	0	1.00796	0.120216	-0.0730699	1.10822	0.731225	0	0
3.54961	2.77514	0.0578574	-3.09076	-0.606177	-0.973465	0.317929	-0.246768	0.00270101	-0.216773	0.852442	0.263333	0	0	0.263811	-0.0652101	-0.052157	0.372523	-0.187019	0	0	-0.932211	0.0986335	0.226265	0.996554	-0.332015	0.000268258	1.14747	0.73502	0	0	1.00732	0.121587	-0.0728316	1.1078	0.731147	0	0
3.5596	2.77451	0.0471524	-3.09378	-0.593511	-0.974201	0.31834	-0.247753	-0.0126858	-0.219429	0.875087	0.231763	0	0	0.256397	-0.0557782	-0.0580174	0.387544	-0.191082	0	0	-0.929791	0.084698	0.21775	0.995632	-0.332736	0.000225405	1.14692	0.734933	0	0	1.00669	0.122958	-0.0725932	1.10738	0.731069	0	0
3.56959	2.77239	0.0365224	-3.09634	-0.580924	-0.975038	0.31871	-0.24877	-0.0277933	-0.221519	0.898837	0.196466	0	0	0.24693	-0.0463295	-0.0629308	0.401773	-0.192593	0	0	-0.929302	0.0710068	0.2091	0.994708	-0.333457	0.000182567	1.14638	0.734846	0	0	1.00605	0.124329	-0.0723548	1.10696	0.730991	0	0
3.57958	2.76868	0.026041	-3.09863	-0.568442	-0.975961	0.319072	-0.249833	-0.042749	-0.222933	0.923551	0.157949	0	0	0.235159	-0.0367793	-0.0672734	0.414797	-0.191677	0	0	-0.930857	0.0576678	0.200434	0.993781	-0.334178	0.000139745	1.14583	0.734759	0	0	1.0054	0.125699	-0.0721162	1.10654	0.730914	0	0
3.58957	2.76339	0.0157053	-3.10086	-0.556089	-0.976957	0.319457	-0.250957	-0.0577136	-0.223525	0.948859	0.117024	0	0	0.220992	-0.0269755	-0.071442	0.426342	-0.188536	0	0	-0.934323	0.0446814	0.191833	0.992852	-0.334899	9.6935e-05	1.14529	0.734672	0	0	1.00476	0.12707	-0.0718776	1.10612	0.730836	0	0
3.59956	2.75652	0.00560317	-3.10329	-0.543886	-0.978015	0.31989	-0.252154	-0.0727322	-0.223074	0.974345	0.0749242	0	0	0.204352	-0.0168633	-0.0756941	0.436186	-0.18342	0	0	-0.939594	0.0321157	0.183374	0.99192	-0.33562	5.41386e-05	1.14474	0.734585	0	0	1.00411	0.12844	-0.0716388	1.10569	0.730758	0	0
3.60955	2.74809	-0.00410847	-3.1061	-0.531851	-0.979127	0.320389	-0.253431	-0.0877241	-0.22136	0.999595	0.0332102	0	0	0.185203	-0.00649178	-0.0801542	0.444207	-0.176588	0	0	-0.946624	0.0201058	0.175145	0.990985	-0.33634	1.1357e-05	1.1442	0.734498	0	0	1.00346	0.129811	-0.0713999	1.10527	0.730681	0	0
3.61954	2.73809	-0.0132394	-3.10941	-0.519995	-0.980286	0.320964	-0.25479	-0.102514	-0.218234	1.02423	-0.00639617	0	0	0.163566	0.00400929	-0.0848555	0.450405	-0.168288	0	0	-0.955452	0.00882181	0.167239	0.990047	-0.33706	-3.14084e-05	1.14365	0.734411	0	0	1.0028	0.131181	-0.0711608	1.10485	0.730603	0	0
3.62953	2.72657	-0.0216119	-3.11326	-0.508326	-0.981486	0.321617	-0.256218	-0.116851	-0.213626	1.04784	-0.0421711	0	0	0.139564	0.014465	-0.0897485	0.454913	-0.158764	0	0	-0.966093	-0.00157011	0.159739	0.989105	-0.33778	-7.41563e-05	1.1431	0.734324	0	0	1.00215	0.132551	-0.0709217	1.10442	0.730525	0	0
3.63952	2.71361	-0.0290902	-3.11761	-0.496848	-0.982721	0.322343	-0.257685	-0.130433	-0.207533	1.06998	-0.0725793	0	0	0.113438	0.0246863	-0.0947089	0.457975	-0.148273	0	0	-0.978491	-0.0109332	0.152704	0.988161	-0.3385	-0.000116885	1.14255	0.734237	0	0	1.00148	0.133921	-0.0706824	1.104	0.730448	0	0
3.64951	2.69943	-0.0356173	-3.12231	-0.485559	-0.983985	0.323128	-0.259137	-0.142945	-0.200004	1.09016	-0.0964995	0	0	0.0855869	0.0345089	-0.0995644	0.459959	-0.137073	0	0	-0.99243	-0.0191999	0.14616	0.987213	-0.339219	-0.000159594	1.142	0.73415	0	0	1.00082	0.135291	-0.070443	1.10357	0.73037	0	0
3.6595	2.68431	-0.0412273	-3.12721	-0.474451	-0.985269	0.323952	-0.26049	-0.154092	-0.191131	1.10782	-0.113391	0	0	0.0565546	0.0438111	-0.104114	0.461326	-0.12541	0	0	-1.00753	-0.0263765	0.140093	0.986261	-0.339938	-0.000202281	1.14145	0.734063	0	0	1.00015	0.13666	-0.0702034	1.10314	0.730293	0	0
3.66949	2.66858	-0.0459763	-3.13206	-0.463515	-0.986563	0.324793	-0.261619	-0.163601	-0.181062	1.12252	-0.123286	0	0	0.0268876	0.0524609	-0.10812	0.462495	-0.113501	0	0	-1.02349	-0.0324639	0.134437	0.985306	-0.340657	-0.000244946	1.1409	0.733976	0	0	0.99948	0.13803	-0.0699637	1.10272	0.730215	0	0
3.67948	2.65257	-0.0499342	-3.1366	-0.452735	-0.987854	0.325624	-0.262356	-0.17124	-0.170002	1.13396	-0.126656	0	0	-0.00286418	0.0603244	-0.11132	0.463836	-0.101519	0	0	-1.04012	-0.037447	0.129086	0.984348	-0.341375	-0.000287586	1.14035	0.733889	0	0	0.998804	0.139399	-0.0697239	1.10229	0.730138	0	0
3.68947	2.6367	-0.0532524	-3.14055	-0.442092	-0.989127	0.32642	-0.262483	-0.176884	-0.158186	1.14183	-0.12424	0	0	-0.0320304	0.0673412	-0.113459	0.465756	-0.0895855	0	0	-1.05699	-0.041366	0.123911	0.983385	-0.342093	-0.0003302	1.13979	0.733802	0	0	0.998124	0.140767	-0.0694839	1.10186	0.73006	0	0
3.69946	2.62151	-0.0561714	-3.1437	-0.431567	-0.990364	0.327157	-0.261734	-0.180546	-0.145877	1.14581	-0.116921	0	0	-0.0598301	0.0735501	-0.114332	0.46869	-0.077766	0	0	-1.07345	-0.0443364	0.118771	0.982418	-0.342811	-0.000372787	1.13924	0.733715	0	0	0.99744	0.142136	-0.0692438	1.10143	0.729983	0	0
3.70945	2.60754	-0.0589178	-3.14587	-0.421137	-0.991549	0.327813	-0.259798	-0.182362	-0.133393	1.14574	-0.105653	0	0	-0.085543	0.0790177	-0.113788	0.472963	-0.0660769	0	0	-1.08889	-0.0464721	0.113529	0.981448	-0.343528	-0.000415346	1.13869	0.733628	0	0	0.996751	0.143504	-0.0690035	1.101	0.729905	0	0
3.71944	2.59528	-0.0616881	-3.14697	-0.410778	-0.992661	0.328371	-0.256333	-0.182576	-0.121092	1.1416	-0.0913946	0	0	-0.108537	0.0838378	-0.111755	0.478782	-0.0544954	0	0	-1.10274	-0.047882	0.108067	0.980473	-0.344245	-0.000457875	1.13813	0.733541	0	0	0.996058	0.144872	-0.0687631	1.10056	0.729828	0	0
3.72943	2.58507	-0.0645755	-3.14699	-0.400469	-0.993683	0.328818	-0.250993	-0.181474	-0.109378	1.13358	-0.0750864	0	0	-0.12842	0.0880614	-0.108239	0.486149	-0.0429693	0	0	-1.11476	-0.0486476	0.102278	0.979493	-0.344961	-0.000500372	1.13757	0.733455	0	0	0.995361	0.146239	-0.0685226	1.10013	0.729751	0	0
3.73941	2.57722	-0.0676439	-3.14596	-0.390187	-0.994601	0.329144	-0.243469	-0.179435	-0.0986789	1.12197	-0.0575646	0	0	-0.144967	0.0917797	-0.103348	0.494902	-0.0314334	0	0	-1.12467	-0.0488602	0.0960993	0.97851	-0.345677	-0.000542836	1.13701	0.733368	0	0	0.994658	0.147606	-0.0682819	1.0997	0.729673	0	0
3.7494	2.57187	-0.0709151	-3.14402	-0.379913	-0.9954	0.329344	-0.233546	-0.176889	-0.0894265	1.10717	-0.0395628	0	0	-0.158213	0.095109	-0.0972793	0.504688	-0.0198217	0	0	-1.13224	-0.0486223	0.0895095	0.977521	-0.346392	-0.000585266	1.13646	0.733281	0	0	0.993951	0.148973	-0.068041	1.09926	0.729596	0	0
3.75939	2.56899	-0.0743835	-3.14134	-0.369629	-0.996072	0.329414	-0.221184	-0.17425	-0.0819977	1.08957	-0.0217222	0	0	-0.168436	0.098177	-0.0902805	0.515049	-0.00807663	0	0	-1.13737	-0.0480504	0.0825104	0.976528	-0.347107	-0.00062766	1.1359	0.733195	0	0	0.993239	0.150339	-0.0678	1.09882	0.729519	0	0
3.76938	2.56839	-0.0780379	-3.13812	-0.359319	-0.996613	0.329355	-0.206579	-0.171871	-0.0766378	1.06944	-0.00461622	0	0	-0.176056	0.101127	-0.0825956	0.525555	0.00383152	0	0	-1.14026	-0.0472756	0.0751021	0.97553	-0.347821	-0.000670016	1.13533	0.733108	0	0	0.992522	0.151704	-0.0675588	1.09839	0.729441	0	0
3.77937	2.56979	-0.0818869	-3.13457	-0.348968	-0.997021	0.329167	-0.190073	-0.170042	-0.0734823	1.04694	0.011266	0	0	-0.181542	0.104118	-0.0744282	0.535868	0.0159158	0	0	-1.14118	-0.0464444	0.0672919	0.974528	-0.348534	-0.000712334	1.13477	0.733021	0	0	0.9918	0.153069	-0.0673175	1.09795	0.729364	0	0
3.78936	2.57285	-0.0859629	-3.13089	-0.338566	-0.997302	0.328854	-0.172104	-0.168998	-0.072557	1.02215	0.0255116	0	0	-0.185361	0.10732	-0.0659247	0.545756	0.0281711	0	0	-1.14047	-0.0457177	0.0590865	0.97352	-0.349247	-0.000754616	1.13421	0.732934	0	0	0.991072	0.154434	-0.067076	1.09751	0.729287	0	0
3.79935	2.57727	-0.0903262	-3.12722	-0.328101	-0.997442	0.328418	-0.153083	-0.168918	-0.0738505	0.995168	0.0378274	0	0	-0.18794	0.110894	-0.0571794	0.555033	0.0406163	0	0	-1.13834	-0.0452542	0.0505088	0.972506	-0.34996	-0.000796859	1.13364	0.732848	0	0	0.990339	0.155798	-0.0668343	1.09707	0.72921	0	0
3.80934	2.58276	-0.0950445	-3.1237	-0.317567	-0.997433	0.327861	-0.13344	-0.169907	-0.0772452	0.966007	0.0479921	0	0	-0.189647	0.114989	-0.0482342	0.563614	0.0532506	0	0	-1.13504	-0.0452055	0.0415765	0.971488	-0.350672	-0.000839063	1.13308	0.732761	0	0	0.9896	0.157162	-0.0665924	1.09662	0.729132	0	0
3.81933	2.58902	-0.100177	-3.12046	-0.306955	-0.997271	0.327184	-0.113613	-0.171992	-0.082501	0.934627	0.0558407	0	0	-0.190781	0.119738	-0.0391006	0.571522	0.066054	0	0	-1.13091	-0.0457191	0.0323017	0.970463	-0.351383	-0.000881225	1.13251	0.732675	0	0	0.988855	0.158525	-0.0663503	1.09618	0.729055	0	0
3.82932	2.59582	-0.105767	-3.1176	-0.29626	-0.996952	0.326389	-0.093953	-0.175133	-0.0893301	0.90105	0.0612904	0	0	-0.191576	0.125228	-0.0297944	0.578814	0.0790318	0	0	-1.12621	-0.0469224	0.0227194	0.969433	-0.352094	-0.000923343	1.13194	0.732588	0	0	0.988104	0.159887	-0.066108	1.09574	0.728978	0	0
3.83931	2.60297	-0.11183	-3.11517	-0.285479	-0.996474	0.325475	-0.0747127	-0.179227	-0.0974222	0.865382	0.0643406	0	0	-0.192201	0.131487	-0.0203453	0.585567	0.0922129	0	0	-1.12104	-0.0489093	0.012888	0.968397	-0.352804	-0.000965416	1.13137	0.732501	0	0	0.987346	0.161249	-0.0658655	1.09529	0.728901	0	0
3.8493	2.61035	-0.118356	-3.11319	-0.274607	-0.99584	0.324442	-0.0560635	-0.184116	-0.106457	0.82781	0.0650658	0	0	-0.192775	0.138486	-0.0107967	0.591872	0.105646	0	0	-1.11545	-0.0517334	0.00288334	0.967355	-0.353513	-0.00100744	1.1308	0.732415	0	0	0.986582	0.162611	-0.0656229	1.09484	0.728824	0	0
3.85929	2.61786	-0.125313	-3.11159	-0.263644	-0.99505	0.323288	-0.0381118	-0.189607	-0.116112	0.788592	0.0636054	0	0	-0.193372	0.146142	-0.00120709	0.597841	0.119391	0	0	-1.10941	-0.0554042	-0.00720922	0.966306	-0.354222	-0.00104942	1.13023	0.732328	0	0	0.985812	0.163972	-0.06538	1.09439	0.728746	0	0
3.86928	2.62542	-0.132657	-3.11031	-0.25259	-0.99411	0.322013	-0.020921	-0.195491	-0.12607	0.748041	0.060152	0	0	-0.194032	0.154332	0.00835754	0.603615	0.133511	0	0	-1.10288	-0.0598914	-0.0173075	0.965251	-0.35493	-0.00109134	1.12965	0.732242	0	0	0.985034	0.165332	-0.0651369	1.09394	0.728669	0	0
3.87927	2.63299	-0.140344	-3.10923	-0.241446	-0.993024	0.320617	-0.00452648	-0.201573	-0.136016	0.706507	0.0549461	0	0	-0.194772	0.162917	0.0178535	0.609353	0.148046	0	0	-1.0958	-0.0651382	-0.0273484	0.96419	-0.355637	-0.00113322	1.12908	0.732155	0	0	0.98425	0.166691	-0.0648936	1.09349	0.728592	0	0
3.88926	2.6404	-0.14833	-3.10835	-0.230215	-0.991802	0.3191	0.0108679	-0.20769	-0.145519	0.664109	0.0482277	0	0	-0.195589	0.171838	0.0273345	0.615375	0.162904	0	0	-1.08864	-0.0710993	-0.0373715	0.963122	-0.356343	-0.00117503	1.1285	0.732069	0	0	0.983459	0.16805	-0.06465	1.09303	0.728515	0	0
3.89925	2.64753	-0.156591	-3.10762	-0.218901	-0.990452	0.317467	0.0251424	-0.213734	-0.154175	0.62106	0.0402998	0	0	-0.19647	0.181037	0.0368873	0.621929	0.178002	0	0	-1.08176	-0.0777235	-0.0474198	0.962047	-0.357048	-0.00121679	1.12792	0.731982	0	0	0.98266	0.169408	-0.0644063	1.09258	0.728438	0	0
3.90924	2.65431	-0.165104	-3.10696	-0.207506	-0.988988	0.315722	0.0382234	-0.219628	-0.161635	0.577631	0.0315201	0	0	-0.197396	0.19043	0.0465919	0.629206	0.19326	0	0	-1.0754	-0.0849185	-0.0575407	0.960965	-0.357753	-0.0012585	1.12734	0.731896	0	0	0.981854	0.170765	-0.0641624	1.09212	0.728361	0	0
3.91923	2.66072	-0.173831	-3.10625	-0.196033	-0.987423	0.313875	0.0500578	-0.225312	-0.167607	0.534119	0.0222739	0	0	-0.198347	0.199903	0.0565172	0.637347	0.20859	0	0	-1.06976	-0.0925548	-0.0677846	0.959875	-0.358457	-0.00130014	1.12676	0.731809	0	0	0.98104	0.172121	-0.0639182	1.09166	0.728284	0	0
3.92922	2.66681	-0.182724	-3.10529	-0.184481	-0.985774	0.311937	0.0606923	-0.230754	-0.171934	0.490915	0.0129686	0	0	-0.1993	0.209292	0.0666875	0.646341	0.223937	0	0	-1.06484	-0.100445	-0.0781711	0.958779	-0.359159	-0.00134171	1.12617	0.731723	0	0	0.980219	0.173476	-0.0636738	1.0912	0.728207	0	0
3.93921	2.67266	-0.19172	-3.10388	-0.172849	-0.984059	0.309925	0.0701607	-0.235928	-0.174519	0.448392	0.00396816	0	0	-0.200236	0.218414	0.0771096	0.656151	0.239222	0	0	-1.06055	-0.108373	-0.0887141	0.957675	-0.359861	-0.00138323	1.12559	0.731636	0	0	0.979389	0.17483	-0.0634292	1.09074	0.72813	0	0
3.9492	2.67832	-0.200741	-3.10185	-0.161131	-0.982298	0.307858	0.0784751	-0.240823	-0.175321	0.406906	-0.00444529	0	0	-0.201137	0.227088	0.0877629	0.66674	0.254353	0	0	-1.05683	-0.116123	-0.0994141	0.956563	-0.360562	-0.00142467	1.125	0.73155	0	0	0.978551	0.176184	-0.0631843	1.09028	0.728053	0	0
3.95918	2.68397	-0.209698	-3.09897	-0.149321	-0.98051	0.30576	0.085748	-0.245438	-0.174462	0.366895	-0.012068	0	0	-0.20199	0.235095	0.0985498	0.677919	0.26928	0	0	-1.05338	-0.123452	-0.110208	0.955444	-0.361261	-0.00146605	1.12441	0.731463	0	0	0.977705	0.177536	-0.0629392	1.08981	0.727976	0	0
3.96917	2.68977	-0.218491	-3.09504	-0.137414	-0.978718	0.303656	0.0921205	-0.249779	-0.172189	0.328823	-0.0187993	0	0	-0.202782	0.242213	0.109339	0.689448	0.283946	0	0	-1.04979	-0.130122	-0.120996	0.954316	-0.36196	-0.00150736	1.12382	0.731377	0	0	0.976851	0.178887	-0.0626939	1.08934	0.727899	0	0
3.97916	2.69593	-0.227025	-3.08987	-0.125403	-0.97694	0.301576	0.0977877	-0.253864	-0.168874	0.293189	-0.0246353	0	0	-0.203505	0.248234	0.119982	0.701015	0.298299	0	0	-1.04559	-0.135918	-0.131632	0.95318	-0.362658	-0.00154859	1.12322	0.731291	0	0	0.975988	0.180238	-0.0624484	1.08887	0.727822	0	0
3.98915	2.70256	-0.235202	-3.08343	-0.113283	-0.975199	0.299549	0.102873	-0.25772	-0.164963	0.26044	-0.0296643	0	0	-0.204153	0.253044	0.130373	0.712435	0.31222	0	0	-1.04049	-0.140705	-0.142001	0.952036	-0.363354	-0.00158975	1.12263	0.731204	0	0	0.975115	0.181587	-0.0622025	1.0884	0.727745	0	0
3.99914	2.70978	-0.242956	-3.0757	-0.101052	-0.973511	0.297608	0.107565	-0.261399	-0.160976	0.231057	-0.0340425	0	0	-0.204721	0.256579	0.140412	0.723471	0.325599	0	0	-1.03416	-0.144414	-0.151947	0.950884	-0.36405	-0.00163084	1.12203	0.731118	0	0	0.974234	0.182935	-0.0619565	1.08793	0.727668	0	0
4.00913	2.71758	-0.250215	-3.06682	-0.0887142	-0.971893	0.295783	0.111965	-0.264941	-0.157474	0.205459	-0.0379683	0	0	-0.205207	0.258863	0.15004	0.734061	0.338267	0	0	-1.02653	-0.147045	-0.16136	0.949722	-0.364744	-0.00167186	1.12143	0.731031	0	0	0.973343	0.184282	-0.0617101	1.08745	0.727591	0	0
4.01912	2.72578	-0.256917	-3.0571	-0.0762752	-0.970358	0.294106	0.116064	-0.268378	-0.154973	0.183951	-0.0416753	0	0	-0.205609	0.26004	0.159275	0.744364	0.349998	0	0	-1.01785	-0.14869	-0.170185	0.948552	-0.365437	-0.00171279	1.12083	0.730945	0	0	0.972443	0.185628	-0.0614635	1.08698	0.727514	0	0
4.02911	2.73417	-0.263027	-3.04686	-0.0637471	-0.968918	0.292607	0.119816	-0.271743	-0.153894	0.16674	-0.0454454	0	0	-0.205927	0.260304	0.168194	0.754596	0.360559	0	0	-1.00847	-0.149485	-0.178352	0.947372	-0.366129	-0.00175365	1.12023	0.730858	0	0	0.971533	0.186973	-0.0612166	1.0865	0.727437	0	0
4.0391	2.74249	-0.268515	-3.03645	-0.0511466	-0.967581	0.291316	0.123108	-0.275045	-0.154521	0.153878	-0.0496175	0	0	-0.206159	0.259862	0.176906	0.76506	0.369694	0	0	-0.998784	-0.149568	-0.185794	0.946183	-0.36682	-0.00179442	1.11962	0.730772	0	0	0.970613	0.188317	-0.0609694	1.08601	0.72736	0	0
4.04909	2.75057	-0.273329	-3.02608	-0.0384944	-0.966353	0.290262	0.125868	-0.278237	-0.157062	0.145291	-0.0545773	0	0	-0.206308	0.258815	0.185452	0.77592	0.377178	0	0	-0.989028	-0.148992	-0.192395	0.944985	-0.36751	-0.00183511	1.11901	0.730686	0	0	0.969683	0.18966	-0.0607219	1.08553	0.727283	0	0
4.05908	2.75826	-0.277375	-3.01585	-0.0258156	-0.965237	0.289472	0.128053	-0.281198	-0.161683	0.140796	-0.0607206	0	0	-0.206374	0.257127	0.193749	0.787248	0.382791	0	0	-0.979275	-0.147704	-0.198013	0.943777	-0.368198	-0.0018757	1.1184	0.730599	0	0	0.968742	0.191001	-0.0604742	1.08504	0.727206	0	0
4.06907	2.76549	-0.280507	-3.00577	-0.0131397	-0.964235	0.28897	0.129652	-0.283727	-0.168522	0.140117	-0.0684067	0	0	-0.206358	0.254629	0.201587	0.799034	0.38631	0	0	-0.969471	-0.145538	-0.2025	0.942559	-0.368885	-0.00191621	1.11779	0.730513	0	0	0.967791	0.192341	-0.0602261	1.08455	0.727129	0	0
4.07906	2.77198	-0.282549	-2.99593	-0.000499845	-0.963348	0.28878	0.130512	-0.285567	-0.177555	0.14287	-0.0779045	0	0	-0.206264	0.251163	0.208739	0.811556	0.387446	0	0	-0.959944	-0.142298	-0.205804	0.941331	-0.36957	-0.00195663	1.11718	0.730426	0	0	0.966829	0.193679	-0.0599778	1.08406	0.727052	0	0
4.08905	2.77749	-0.283301	-2.98639	0.0120662	-0.962578	0.288919	0.13053	-0.286432	-0.188686	0.148624	-0.0893107	0	0	-0.206096	0.246494	0.214903	0.824985	0.385905	0	0	-0.950889	-0.137741	-0.207843	0.940092	-0.370254	-0.00199695	1.11656	0.73034	0	0	0.965856	0.195016	-0.0597292	1.08357	0.726975	0	0
4.09904	2.78183	-0.282538	-2.97716	0.0245164	-0.961931	0.289394	0.129626	-0.286007	-0.201745	0.156938	-0.102448	0	0	-0.205857	0.240323	0.219703	0.839434	0.381361	0	0	-0.942423	-0.131582	-0.208528	0.938843	-0.370937	-0.00203717	1.11594	0.730254	0	0	0.964872	0.196352	-0.0594802	1.08307	0.726898	0	0
4.10903	2.78482	-0.280035	-2.96822	0.0368037	-0.961419	0.290207	0.127734	-0.283976	-0.216452	0.167396	-0.116784	0	0	-0.205556	0.232322	0.222721	0.854935	0.373471	0	0	-0.934566	-0.123533	-0.207771	0.937584	-0.371618	-0.0020773	1.11532	0.730167	0	0	0.963876	0.197686	-0.059231	1.08257	0.726821	0	0
4.11902	2.78633	-0.275608	-2.95956	0.0488754	-0.961067	0.291344	0.124802	-0.280063	-0.23242	0.17966	-0.131452	0	0	-0.205199	0.222201	0.223568	0.871461	0.361892	0	0	-0.927282	-0.11336	-0.205503	0.936313	-0.372298	-0.00211732	1.11469	0.730081	0	0	0.962869	0.199018	-0.0589815	1.08207	0.726744	0	0
4.12901	2.78615	-0.269185	-2.95127	0.0606718	-0.960914	0.292775	0.120711	-0.274101	-0.249155	0.193435	-0.145445	0	0	-0.2048	0.209857	0.222009	0.889109	0.346305	0	0	-0.920743	-0.100991	-0.201746	0.935032	-0.372976	-0.00215723	1.11406	0.729995	0	0	0.96185	0.200349	-0.0587316	1.08157	0.726668	0	0
4.139	2.78416	-0.260832	-2.94345	0.0721253	-0.961021	0.294451	0.115394	-0.266071	-0.266171	0.208478	-0.157822	0	0	-0.204369	0.195368	0.218017	0.907898	0.326476	0	0	-0.915076	-0.0865344	-0.196546	0.933739	-0.373652	-0.00219704	1.11343	0.729908	0	0	0.960819	0.201678	-0.0584815	1.08106	0.726591	0	0
4.14899	2.7803	-0.250736	-2.93622	0.0831594	-0.961476	0.296304	0.108804	-0.256084	-0.28305	0.224516	-0.167843	0	0	-0.203925	0.178956	0.211784	0.927778	0.302295	0	0	-0.910386	-0.0702536	-0.18999	0.932435	-0.374327	-0.00223674	1.1128	0.729822	0	0	0.959775	0.203006	-0.058231	1.08055	0.726514	0	0
4.15898	2.7744	-0.239231	-2.92975	0.0936877	-0.962399	0.298241	0.100723	-0.244371	-0.299387	0.241106	-0.175055	0	0	-0.203484	0.161077	0.20376	0.948905	0.273824	0	0	-0.907156	-0.052596	-0.182276	0.931119	-0.375	-0.00227632	1.11217	0.729735	0	0	0.958719	0.204332	-0.0579802	1.08004	0.726437	0	0
4.16897	2.76635	-0.226751	-2.92417	0.103614	-0.963945	0.300147	0.0908841	-0.231249	-0.314875	0.257706	-0.179274	0	0	-0.203067	0.142281	0.194591	0.971382	0.241368	0	0	-0.90588	-0.0341209	-0.173619	0.929791	-0.375671	-0.00231579	1.11153	0.729649	0	0	0.95765	0.205656	-0.0577291	1.07953	0.72636	0	0
4.17896	2.75611	-0.213764	-2.91953	0.112833	-0.966305	0.301888	0.0789935	-0.217052	-0.329344	0.273726	-0.18055	0	0	-0.202693	0.12312	0.184984	0.995242	0.205498	0	0	-0.90702	-0.0154205	-0.164239	0.928452	-0.376341	-0.00235514	1.11089	0.729563	0	0	0.956568	0.206978	-0.0574777	1.07901	0.726283	0	0
4.18894	2.74397	-0.200786	-2.91591	0.121883	-0.968549	0.303561	0.0646936	-0.202106	-0.342721	0.288599	-0.179129	0	0	-0.202432	0.104103	0.175611	1.02047	0.167073	0	0	-0.911119	0.00301675	-0.15434	0.927109	-0.377011	-0.00239409	1.11024	0.729476	0	0	0.95548	0.2083	-0.0572264	1.07849	0.726206	0	0
4.19893	2.72998	-0.188239	-2.91322	0.130768	-0.970712	0.305114	0.0477428	-0.186755	-0.35499	0.3018	-0.175384	0	0	-0.202296	0.085688	0.167035	1.04691	0.127244	0	0	-0.918481	0.020637	-0.144129	0.925762	-0.377683	-0.0024327	1.1096	0.72939	0	0	0.954386	0.209623	-0.0569752	1.07796	0.726129	0	0
4.20892	2.71429	-0.176473	-2.91138	0.139503	-0.972819	0.306504	0.028069	-0.17133	-0.366238	0.312997	-0.169724	0	0	-0.202291	0.0682429	0.159651	1.07425	0.0873925	0	0	-0.92915	0.0369663	-0.13379	0.924412	-0.378356	-0.00247104	1.10895	0.729303	0	0	0.953285	0.210945	-0.056724	1.07744	0.726051	0	0
4.21891	2.69708	-0.165782	-2.91029	0.148099	-0.974885	0.3077	0.00572792	-0.15616	-0.376582	0.322049	-0.162552	0	0	-0.202406	0.0520866	0.153684	1.10207	0.0490567	0	0	-0.943029	0.0515972	-0.123494	0.923057	-0.37903	-0.00250921	1.1083	0.729217	0	0	0.952177	0.212269	-0.0564729	1.07691	0.725974	0	0
4.2289	2.67863	-0.156348	-2.90988	0.156589	-0.976907	0.308687	-0.019005	-0.141533	-0.386186	0.329072	-0.154217	0	0	-0.20261	0.0374355	0.149187	1.12979	0.0138022	0	0	-0.959724	0.0642589	-0.11339	0.921698	-0.379707	-0.00254731	1.10765	0.72913	0	0	0.951062	0.213592	-0.0562217	1.07637	0.725897	0	0
4.23889	2.65927	-0.148256	-2.91005	0.165018	-0.978876	0.309473	-0.0457168	-0.127679	-0.395188	0.334351	-0.145025	0	0	-0.20284	0.0244204	0.146071	1.15677	-0.0169254	0	0	-0.978691	0.0748055	-0.103604	0.920335	-0.380386	-0.00258539	1.10699	0.729044	0	0	0.94994	0.214917	-0.0559705	1.07584	0.72582	0	0
4.24888	2.63943	-0.141453	-2.91072	0.17344	-0.98077	0.310077	-0.0738052	-0.114744	-0.403722	0.338342	-0.135236	0	0	-0.202998	0.0130588	0.144161	1.18227	-0.0420068	0	0	-0.999122	0.083261	-0.0942261	0.918965	-0.381068	-0.00262352	1.10633	0.728957	0	0	0.948811	0.216242	-0.0557192	1.0753	0.725742	0	0
4.25887	2.61946	-0.135849	-2.91188	0.18188	-0.982571	0.310517	-0.102719	-0.102832	-0.411854	0.341474	-0.125069	0	0	-0.202945	0.00335408	0.143217	1.20575	-0.0608323	0	0	-1.02048	0.0896935	-0.0853261	0.91759	-0.381752	-0.00266173	1.10567	0.72887	0	0	0.947674	0.217568	-0.0554677	1.07475	0.725665	0	0
4.26886	2.59979	-0.131265	-2.91348	0.190372	-0.984257	0.310817	-0.131782	-0.091993	-0.419595	0.34424	-0.114697	0	0	-0.202486	-0.00475125	0.143005	1.22664	-0.0733472	0	0	-1.04204	0.0942675	-0.0769311	0.916208	-0.38244	-0.00270004	1.105	0.728784	0	0	0.94653	0.218895	-0.055216	1.07421	0.725587	0	0
4.27885	2.58089	-0.12749	-2.91551	0.198946	-0.985805	0.311006	-0.160292	-0.0822534	-0.426906	0.347126	-0.104243	0	0	-0.201374	-0.0113379	0.143298	1.24447	-0.0799408	0	0	-1.06313	0.0971866	-0.0690333	0.914819	-0.383131	-0.00273848	1.10433	0.728697	0	0	0.945377	0.220224	-0.0549642	1.07366	0.72551	0	0
4.28884	2.5633	-0.124257	-2.9179	0.207646	-0.987177	0.311115	-0.187428	-0.0735977	-0.433728	0.350662	-0.0937824	0	0	-0.199306	-0.0165509	0.143906	1.25874	-0.0812515	0	0	-1.08283	0.0987292	-0.0615942	0.913422	-0.383824	-0.00277709	1.10366	0.72861	0	0	0.944216	0.221555	-0.0547121	1.0731	0.725432	0	0
4.29883	2.54749	-0.121356	-2.92059	0.216484	-0.988349	0.311167	-0.21252	-0.0660196	-0.440002	0.355222	-0.0833339	0	0	-0.195928	-0.0205042	0.144625	1.26922	-0.0780571	0	0	-1.10057	0.0991408	-0.0545692	0.912017	-0.384521	-0.0028159	1.10298	0.728523	0	0	0.943046	0.222887	-0.0544597	1.07254	0.725355	0	0
4.30882	2.53385	-0.118646	-2.92357	0.225443	-0.989313	0.311176	-0.235051	-0.0595318	-0.445655	0.361017	-0.0728842	0	0	-0.190855	-0.0232695	0.145239	1.27591	-0.071178	0	0	-1.11608	0.0986086	-0.0479184	0.910604	-0.385222	-0.00285491	1.10229	0.728436	0	0	0.941867	0.224221	-0.054207	1.07198	0.725277	0	0
4.31881	2.52274	-0.116031	-2.92675	0.234519	-0.990056	0.311154	-0.254569	-0.0541254	-0.450575	0.368157	-0.0624085	0	0	-0.1837	-0.024951	0.145541	1.27886	-0.0613894	0	0	-1.129	0.0973087	-0.0416065	0.909181	-0.385925	-0.00289418	1.10161	0.728348	0	0	0.940679	0.225557	-0.0539539	1.07141	0.7252	0	0
4.3288	2.51446	-0.113475	-2.93003	0.2437	-0.990577	0.311103	-0.27082	-0.0497686	-0.454656	0.376562	-0.0518709	0	0	-0.174117	-0.0256556	0.14533	1.27823	-0.0494199	0	0	-1.13917	0.0953891	-0.0356082	0.907748	-0.386633	-0.00293383	1.10091	0.728261	0	0	0.939481	0.226896	-0.0537002	1.07084	0.725122	0	0
4.33879	2.50909	-0.110996	-2.93333	0.252969	-0.990892	0.311021	-0.283821	-0.0463977	-0.457841	0.385946	-0.041231	0	0	-0.161873	-0.0254815	0.144421	1.27427	-0.0359478	0	0	-1.14667	0.0929727	-0.029905	0.906305	-0.387346	-0.00297406	1.10022	0.728174	0	0	0.938274	0.228239	-0.0534457	1.07027	0.725044	0	0
4.34878	2.50655	-0.10864	-2.93658	0.262318	-0.991024	0.310908	-0.29384	-0.0439075	-0.460121	0.395891	-0.0304526	0	0	-0.146939	-0.0245502	0.142636	1.26722	-0.0215834	0	0	-1.15174	0.0901748	-0.0244775	0.90485	-0.388065	-0.00301518	1.09951	0.728086	0	0	0.937058	0.229586	-0.0531902	1.06969	0.724967	0	0
4.35877	2.50662	-0.10644	-2.93971	0.271742	-0.990993	0.310773	-0.301289	-0.0421693	-0.461551	0.406031	-0.0195056	0	0	-0.129542	-0.0230242	0.139792	1.25718	-0.00683702	0	0	-1.1546	0.0871128	-0.0192954	0.903385	-0.388791	-0.0030573	1.0988	0.727998	0	0	0.935834	0.230939	-0.0529334	1.0691	0.724889	0	0
4.36876	2.50895	-0.104391	-2.9427	0.281229	-0.990827	0.310624	-0.306642	-0.0410258	-0.462257	0.416075	-0.00836989	0	0	-0.11011	-0.0210873	0.135764	1.24411	0.00781889	0	0	-1.15561	0.0839123	-0.0143133	0.901908	-0.389524	-0.00310055	1.09809	0.727911	0	0	0.934603	0.232297	-0.0526754	1.06851	0.724811	0	0
4.37875	2.51314	-0.10244	-2.94555	0.290758	-0.99056	0.310463	-0.310362	-0.0402872	-0.462406	0.425831	0.00295563	0	0	-0.089206	-0.0189406	0.130521	1.22784	0.0219169	0	0	-1.15522	0.0807177	-0.00946913	0.900421	-0.390265	-0.00314512	1.09737	0.727822	0	0	0.933364	0.233662	-0.0524157	1.06792	0.724734	0	0
4.38874	2.51878	-0.100497	-2.94825	0.300326	-0.990222	0.310293	-0.312878	-0.0397631	-0.462162	0.435192	0.0144638	0	0	-0.0674153	-0.0167991	0.124038	1.20815	0.0350473	0	0	-1.15384	0.0776745	-0.00468277	0.898923	-0.391014	-0.00319112	1.09665	0.727734	0	0	0.932119	0.235034	-0.0521543	1.06733	0.724656	0	0
4.39873	2.52554	-0.0984592	-2.95082	0.309936	-0.989841	0.310122	-0.314559	-0.0392592	-0.461657	0.4441	0.0261444	0	0	-0.0452838	-0.0148863	0.116299	1.18489	0.0468754	0	0	-1.15177	0.0749301	0.000144708	0.897415	-0.391772	-0.00323853	1.09592	0.727646	0	0	0.930868	0.236414	-0.0518913	1.06674	0.724579	0	0
4.40871	2.53311	-0.0962061	-2.95324	0.319593	-0.989438	0.309956	-0.315706	-0.0385757	-0.460965	0.452534	0.0379889	0	0	-0.0232836	-0.0134244	0.107308	1.15796	0.0571463	0	0	-1.14922	0.072635	0.00512625	0.895898	-0.392539	-0.00328725	1.09519	0.727557	0	0	0.929612	0.237801	-0.0516266	1.06614	0.724501	0	0
4.4187	2.54124	-0.0936057	-2.95551	0.329303	-0.989029	0.309798	-0.316552	-0.0375091	-0.460087	0.460501	0.0499938	0	0	-0.0018029	-0.0126201	0.0971155	1.12735	0.0656763	0	0	-1.14634	0.0709379	0.0103827	0.894374	-0.393312	-0.00333694	1.09445	0.727469	0	0	0.92835	0.239195	-0.0513607	1.06554	0.724424	0	0
4.42869	2.54975	-0.0905275	-2.95758	0.339074	-0.988628	0.309657	-0.317268	-0.0358603	-0.458956	0.468029	0.0621667	0	0	0.0188637	-0.0126499	0.0858328	1.09313	0.0723479	0	0	-1.14318	0.0699851	0.0160326	0.892843	-0.394092	-0.00338729	1.09371	0.72738	0	0	0.927084	0.240594	-0.0510939	1.06494	0.724347	0	0
4.43868	2.55847	-0.0868361	-2.95943	0.348917	-0.988239	0.309536	-0.31797	-0.033442	-0.457452	0.47518	0.0745182	0	0	0.0384907	-0.0136476	0.0736633	1.05548	0.0770835	0	0	-1.13979	0.0699196	0.0221857	0.891308	-0.394876	-0.00343796	1.09297	0.727291	0	0	0.925812	0.241997	-0.0508265	1.06434	0.724269	0	0
4.44867	2.56726	-0.082398	-2.96103	0.358837	-0.987864	0.309435	-0.318727	-0.0300826	-0.455419	0.482055	0.0870507	0	0	0.0569027	-0.0157028	0.0609211	1.01462	0.0798298	0	0	-1.13627	0.0708817	0.0289396	0.889771	-0.395664	-0.00348866	1.09223	0.727202	0	0	0.924537	0.243404	-0.0505588	1.06374	0.724192	0	0
4.45866	2.57602	-0.0771036	-2.96234	0.36884	-0.987496	0.309357	-0.319575	-0.0256575	-0.452684	0.488724	0.0997805	0	0	0.0740511	-0.0188477	0.0479425	0.970929	0.0806105	0	0	-1.13258	0.0729749	0.0363679	0.888233	-0.396455	-0.00353931	1.09149	0.727113	0	0	0.923256	0.244814	-0.0502909	1.06314	0.724115	0	0
4.46865	2.58464	-0.0708517	-2.96334	0.378926	-0.98713	0.309305	-0.32052	-0.0200736	-0.449087	0.495301	0.112709	0	0	0.0899008	-0.0230745	0.0351697	0.92482	0.079488	0	0	-1.12879	0.0762882	0.0445276	0.886695	-0.397248	-0.0035898	1.09075	0.727025	0	0	0.921971	0.246226	-0.0500231	1.06254	0.724038	0	0
4.47864	2.59296	-0.0635465	-2.96402	0.389078	-0.986761	0.309286	-0.321543	-0.0132609	-0.444506	0.501962	0.125822	0	0	0.104398	-0.0283587	0.0231433	0.876684	0.0765552	0	0	-1.12513	0.0809086	0.0534617	0.885158	-0.398043	-0.00364	1.09001	0.726936	0	0	0.92068	0.247641	-0.0497555	1.06194	0.723961	0	0
4.48863	2.60084	-0.0551285	-2.96441	0.399283	-0.986382	0.309304	-0.322614	-0.00521422	-0.43887	0.508847	0.139117	0	0	0.11758	-0.0346361	0.0123479	0.827038	0.0719934	0	0	-1.12173	0.0868805	0.0631792	0.883622	-0.39884	-0.00368981	1.08927	0.726847	0	0	0.919384	0.249055	-0.0494883	1.06133	0.723884	0	0
4.49862	2.60821	-0.0455947	-2.96456	0.409536	-0.985976	0.309361	-0.323702	0.00398477	-0.432156	0.516054	0.152589	0	0	0.129554	-0.0418029	0.0031578	0.776497	0.066072	0	0	-1.11861	0.0941751	0.073656	0.882087	-0.399638	-0.00373943	1.08854	0.726758	0	0	0.918083	0.250472	-0.0492212	1.06073	0.723806	0	0
4.50861	2.61504	-0.0350137	-2.96457	0.41984	-0.985521	0.309463	-0.324778	0.0141602	-0.424395	0.523659	0.166222	0	0	0.140459	-0.0497217	-0.00419871	0.725738	0.0591217	0	0	-1.11576	0.102682	0.0848372	0.880551	-0.400438	-0.003789	1.0878	0.72667	0	0	0.916778	0.25189	-0.0489542	1.06013	0.723729	0	0
4.5186	2.62139	-0.0235439	-2.9646	0.430216	-0.984996	0.30961	-0.325821	0.0250259	-0.415677	0.531693	0.180003	0	0	0.150471	-0.0582114	-0.00968785	0.675489	0.0515107	0	0	-1.11304	0.112193	0.0966313	0.879015	-0.401241	-0.00383855	1.08707	0.726581	0	0	0.915469	0.25331	-0.0486871	1.05953	0.723652	0	0
4.52859	2.62737	-0.0114378	-2.96486	0.44069	-0.984366	0.309804	-0.326819	0.0361727	-0.406152	0.540117	0.193917	0	0	0.159812	-0.0670289	-0.0135042	0.626532	0.0436174	0	0	-1.11014	0.122379	0.108899	0.877479	-0.402045	-0.00388797	1.08633	0.726493	0	0	0.914156	0.254732	-0.0484201	1.05893	0.723575	0	0
4.53858	2.63309	0.00100971	-2.96557	0.45128	-0.983607	0.310044	-0.327759	0.0471306	-0.396026	0.548966	0.207914	0	0	0.168591	-0.0759163	-0.0159397	0.579491	0.0357542	0	0	-1.10691	0.132869	0.121471	0.875941	-0.402851	-0.00393729	1.0856	0.726404	0	0	0.912838	0.256155	-0.0481532	1.05834	0.723499	0	0
4.54857	2.63852	0.0134911	-2.96697	0.46198	-0.982705	0.310319	-0.328625	0.057418	-0.385555	0.558386	0.221902	0	0	0.17678	-0.0846307	-0.0173267	0.534806	0.0281425	0	0	-1.10339	0.143289	0.134151	0.874403	-0.403659	-0.00398654	1.08487	0.726315	0	0	0.911518	0.25758	-0.0478863	1.05774	0.723422	0	0
4.55856	2.64353	0.0258314	-2.96924	0.472759	-0.981657	0.310632	-0.32939	0.0667214	-0.374938	0.568617	0.235813	0	0	0.184193	-0.093097	-0.017924	0.492689	0.0208982	0	0	-1.09984	0.153421	0.146805	0.872865	-0.404469	-0.00403588	1.08414	0.726227	0	0	0.910194	0.259007	-0.0476192	1.05714	0.723345	0	0
4.56855	2.6481	0.0378629	-2.97252	0.48361	-0.980448	0.310978	-0.33004	0.0747685	-0.364331	0.579707	0.249587	0	0	0.190768	-0.101234	-0.0180419	0.453445	0.0140946	0	0	-1.09628	0.163048	0.159292	0.871326	-0.405281	-0.00408542	1.08341	0.726138	0	0	0.908866	0.260436	-0.0473519	1.05655	0.723268	0	0
4.57854	2.65218	0.04943	-2.97691	0.494517	-0.979077	0.31135	-0.330568	0.0813401	-0.353897	0.591774	0.263065	0	0	0.196356	-0.108964	-0.0179489	0.417251	0.00773602	0	0	-1.09289	0.171981	0.171492	0.869785	-0.406096	-0.00413532	1.08268	0.72605	0	0	0.907536	0.261869	-0.0470841	1.05595	0.723192	0	0
4.58853	2.65584	0.0603347	-2.98244	0.505482	-0.977523	0.311738	-0.330969	0.0862137	-0.343806	0.604722	0.276084	0	0	0.200968	-0.116143	-0.0179335	0.384378	0.00179729	0	0	-1.08955	0.179989	0.183235	0.868244	-0.406914	-0.00418566	1.08195	0.725962	0	0	0.906202	0.263306	-0.0468156	1.05536	0.723115	0	0
4.59852	2.65906	0.070399	-2.98906	0.51649	-0.97578	0.312122	-0.331241	0.0892426	-0.334246	0.618559	0.288413	0	0	0.204537	-0.122639	-0.0182258	0.354984	-0.00379098	0	0	-1.08631	0.186895	0.194372	0.8667	-0.407736	-0.00423658	1.08123	0.725873	0	0	0.904867	0.264747	-0.0465463	1.05477	0.723039	0	0
4.60851	2.66222	0.0795613	-2.99655	0.527836	-0.973812	0.313003	-0.331489	0.0903742	-0.325357	0.633305	0.299847	0	0	0.206918	-0.128369	-0.0190002	0.329236	-0.00914823	0	0	-1.08328	0.192538	0.204735	0.865152	-0.408555	-0.00428736	1.0805	0.725784	0	0	0.903526	0.266185	-0.0462771	1.05418	0.722962	0	0
4.6185	2.66541	0.0876771	-3.00477	0.53946	-0.971759	0.314275	-0.331713	0.0896037	-0.317238	0.648767	0.310199	0	0	0.208223	-0.133235	-0.0204474	0.307307	-0.0144178	0	0	-1.08022	0.196838	0.214103	0.8636	-0.409372	-0.00433798	1.07977	0.725696	0	0	0.90218	0.267619	-0.0460081	1.05359	0.722886	0	0
4.62848	2.66878	0.094595	-3.0136	0.551308	-0.969732	0.315839	-0.331913	0.0869424	-0.309952	0.664591	0.319284	0	0	0.208705	-0.137125	-0.0227915	0.289396	-0.0197658	0	0	-1.07666	0.199699	0.222219	0.862044	-0.410187	-0.00438847	1.07904	0.725607	0	0	0.900829	0.269051	-0.0457392	1.053	0.722809	0	0
4.63847	2.67247	0.100198	-3.02293	0.563341	-0.967818	0.31761	-0.332089	0.0824495	-0.303532	0.680476	0.326892	0	0	0.208594	-0.139961	-0.0262365	0.275594	-0.0254007	0	0	-1.07216	0.201077	0.228851	0.860484	-0.410999	-0.00443881	1.07831	0.725519	0	0	0.899474	0.270479	-0.0454704	1.0524	0.722733	0	0
4.64846	2.67668	0.104357	-3.03266	0.575526	-0.96608	0.319513	-0.33224	0.0761635	-0.297991	0.695982	0.332811	0	0	0.208225	-0.141643	-0.0309805	0.265956	-0.0315811	0	0	-1.06609	0.200896	0.23375	0.85892	-0.41181	-0.00448902	1.07758	0.72543	0	0	0.898113	0.271904	-0.0452018	1.05181	0.722656	0	0
4.65845	2.68126	0.107056	-3.04249	0.587837	-0.964561	0.321483	-0.332366	0.0682815	-0.293397	0.711239	0.336778	0	0	0.207534	-0.142187	-0.0371892	0.260133	-0.0385968	0	0	-1.05885	0.199196	0.236899	0.857353	-0.412618	-0.00453909	1.07685	0.725342	0	0	0.896748	0.273327	-0.0449332	1.05121	0.722579	0	0
4.66844	2.68607	0.108333	-3.05213	0.600253	-0.963288	0.323469	-0.332467	0.0590517	-0.289778	0.7264	0.33856	0	0	0.206459	-0.141659	-0.0448814	0.257689	-0.0467793	0	0	-1.05086	0.19609	0.238289	0.855782	-0.413425	-0.00458903	1.07612	0.725253	0	0	0.895379	0.274746	-0.0446648	1.05062	0.722503	0	0
4.67843	2.69101	0.108172	-3.06135	0.612754	-0.962277	0.325424	-0.332543	0.0486299	-0.287175	0.741489	0.337904	0	0	0.205042	-0.140056	-0.0540341	0.258188	-0.0564443	0	0	-1.04234	0.191617	0.237889	0.854207	-0.414229	-0.00463885	1.07538	0.725165	0	0	0.894006	0.276162	-0.0443965	1.05002	0.722426	0	0
4.68842	2.69598	0.106526	-3.07001	0.62532	-0.961531	0.327315	-0.332593	0.0370785	-0.285674	0.75656	0.334534	0	0	0.203321	-0.13733	-0.0645589	0.261165	-0.0678276	0	0	-1.03349	0.185755	0.235692	0.852629	-0.415031	-0.00468853	1.07465	0.725076	0	0	0.892628	0.277576	-0.0441284	1.04942	0.72235	0	0
4.69841	2.70086	0.103342	-3.07802	0.637932	-0.96105	0.329113	-0.332617	0.0243975	-0.285391	0.771738	0.328157	0	0	0.201291	-0.13341	-0.0762443	0.266133	-0.0809907	0	0	-1.02457	0.178461	0.231725	0.851048	-0.415832	-0.00473809	1.07392	0.724988	0	0	0.891246	0.278987	-0.0438603	1.04882	0.722273	0	0
4.7084	2.70561	0.0984914	-3.08536	0.650568	-0.960822	0.330801	-0.332615	0.0104993	-0.286408	0.786958	0.318459	0	0	0.199049	-0.128139	-0.0887773	0.272711	-0.0956934	0	0	-1.01557	0.169577	0.226003	0.849463	-0.41663	-0.00478754	1.07318	0.724899	0	0	0.88986	0.280395	-0.0435924	1.04822	0.722196	0	0
4.71839	2.71009	0.0919286	-3.09202	0.663206	-0.960834	0.332367	-0.332588	-0.00466256	-0.288785	0.80236	0.305138	0	0	0.196521	-0.121432	-0.101635	0.280524	-0.11134	0	0	-1.00673	0.159021	0.218639	0.847876	-0.417427	-0.00483686	1.07245	0.724811	0	0	0.88847	0.281801	-0.0433246	1.04761	0.722119	0	0
4.72838	2.71425	0.0836093	-3.09803	0.67582	-0.961069	0.333808	-0.332538	-0.0211031	-0.29246	0.817892	0.287915	0	0	0.193741	-0.113203	-0.114234	0.289424	-0.12702	0	0	-0.998031	0.1467	0.209754	0.846285	-0.418222	-0.00488606	1.07171	0.724722	0	0	0.887077	0.283203	-0.043057	1.04701	0.722043	0	0
4.73837	2.71794	0.0736411	-3.10336	0.688382	-0.961506	0.335127	-0.332468	-0.0386864	-0.297269	0.833676	0.266595	0	0	0.190601	-0.103519	-0.12599	0.299302	-0.141738	0	0	-0.989707	0.132687	0.199562	0.844691	-0.419015	-0.00493515	1.07097	0.724633	0	0	0.88568	0.284604	-0.0427894	1.04641	0.721966	0	0
4.74836	2.72096	0.0622951	-3.10798	0.70086	-0.962123	0.336337	-0.332382	-0.0570989	-0.302886	0.849925	0.241124	0	0	0.186901	-0.0926111	-0.136397	0.31002	-0.154617	0	0	-0.982143	0.117244	0.188346	0.843095	-0.419807	-0.00498413	1.07023	0.724545	0	0	0.88428	0.286002	-0.042522	1.0458	0.721889	0	0
4.75835	2.72302	0.0500057	-3.11183	0.713223	-0.962899	0.337455	-0.332287	-0.0758737	-0.308827	0.866963	0.21163	0	0	0.182296	-0.0808622	-0.14507	0.321302	-0.165032	0	0	-0.975921	0.100817	0.176442	0.841496	-0.420596	-0.005033	1.0695	0.724456	0	0	0.882876	0.287397	-0.0422547	1.0452	0.721812	0	0
4.76834	2.72389	0.0371993	-3.11491	0.725438	-0.96381	0.338506	-0.33219	-0.0945704	-0.314547	0.884994	0.178374	0	0	0.176447	-0.0686347	-0.151894	0.332828	-0.172645	0	0	-0.971485	0.0838511	0.164165	0.839895	-0.421384	-0.00508177	1.06876	0.724368	0	0	0.881469	0.28879	-0.0419875	1.04459	0.721735	0	0
4.77833	2.72345	0.0241487	-3.11733	0.737474	-0.964837	0.339521	-0.332103	-0.112909	-0.319507	0.903947	0.141725	0	0	0.169155	-0.0561299	-0.157115	0.344333	-0.177369	0	0	-0.968917	0.0666278	0.151763	0.838291	-0.422171	-0.00513043	1.06802	0.724279	0	0	0.880059	0.290181	-0.0417205	1.04399	0.721659	0	0
4.78832	2.72163	0.0110529	-3.11926	0.7493	-0.965964	0.34053	-0.332036	-0.130752	-0.32323	0.923663	0.10222	0	0	0.160208	-0.0434458	-0.16118	0.355505	-0.179319	0	0	-0.96821	0.0493544	0.13944	0.836684	-0.422956	-0.00517899	1.06728	0.724191	0	0	0.878645	0.291569	-0.0414535	1.04338	0.721582	0	0
4.79831	2.7184	-0.00198259	-3.12096	0.760888	-0.967176	0.341568	-0.332004	-0.148096	-0.325336	0.94386	0.0605829	0	0	0.149447	-0.0305638	-0.164594	0.366046	-0.178753	0	0	-0.9692	0.0321531	0.12735	0.835075	-0.423739	-0.00522746	1.06654	0.724102	0	0	0.877229	0.292956	-0.0411867	1.04277	0.721505	0	0
4.8083	2.71372	-0.0148613	-3.1227	0.772212	-0.968461	0.342668	-0.33202	-0.165005	-0.325597	0.964249	0.0177485	0	0	0.136707	-0.0174333	-0.167778	0.375654	-0.176024	0	0	-0.971753	0.0151618	0.115611	0.833463	-0.424521	-0.00527584	1.0658	0.724013	0	0	0.87581	0.29434	-0.0409199	1.04216	0.721428	0	0
4.81829	2.70726	-0.0271758	-3.12463	0.783251	-0.969813	0.343859	-0.332097	-0.181352	-0.323975	0.985072	-0.0249033	0	0	0.121414	-0.00428787	-0.17086	0.383768	-0.171503	0	0	-0.976732	-0.0011384	0.104368	0.83185	-0.425302	-0.00532413	1.06506	0.723925	0	0	0.874388	0.295722	-0.0406532	1.04155	0.721351	0	0
4.82828	2.69888	-0.0385583	-3.12684	0.79399	-0.971226	0.345166	-0.332242	-0.196865	-0.320351	1.00624	-0.0657612	0	0	0.103307	0.00861129	-0.173881	0.390134	-0.165509	0	0	-0.984561	-0.0162993	0.0937237	0.830234	-0.426081	-0.00537233	1.06431	0.723836	0	0	0.872963	0.297103	-0.0403867	1.04094	0.721274	0	0
4.83827	2.68852	-0.0486962	-3.12937	0.804421	-0.972696	0.346606	-0.332459	-0.211243	-0.314679	1.02749	-0.103174	0	0	0.0823319	0.0210005	-0.176831	0.394725	-0.15831	0	0	-0.995436	-0.0299314	0.0837549	0.828615	-0.426859	-0.00542044	1.06357	0.723747	0	0	0.871535	0.298481	-0.0401202	1.04033	0.721197	0	0
4.84825	2.67628	-0.057379	-3.13218	0.814543	-0.974219	0.348189	-0.332739	-0.224192	-0.307006	1.04841	-0.135599	0	0	0.0586542	0.0326605	-0.179651	0.39771	-0.150137	0	0	-1.0093	-0.0417555	0.0745106	0.826995	-0.427636	-0.00546847	1.06283	0.723659	0	0	0.870105	0.299858	-0.0398538	1.03972	0.72112	0	0
4.85824	2.66226	-0.0644415	-3.13519	0.824364	-0.975792	0.349916	-0.333055	-0.235431	-0.297492	1.06861	-0.161765	0	0	0.0325128	0.0433797	-0.182192	0.39931	-0.141199	0	0	-1.02607	-0.0515274	0.0660072	0.825373	-0.428411	-0.00551641	1.06209	0.72357	0	0	0.868672	0.301232	-0.0395875	1.03911	0.721043	0	0
4.86823	2.64674	-0.0698723	-3.13827	0.833901	-0.977407	0.351779	-0.333362	-0.244726	-0.286346	1.08753	-0.180899	0	0	0.00435161	0.0530377	-0.184272	0.399877	-0.131688	0	0	-1.04537	-0.0591524	0.058231	0.823749	-0.429186	-0.00556428	1.06134	0.723481	0	0	0.867237	0.302605	-0.0393213	1.03849	0.720966	0	0
4.87822	2.63012	-0.0738396	-3.14122	0.843178	-0.979057	0.353761	-0.333584	-0.251932	-0.273806	1.10454	-0.192829	0	0	-0.0251814	0.06163	-0.185702	0.399872	-0.121781	0	0	-1.06652	-0.0647113	0.0511315	0.822123	-0.429959	-0.00561207	1.0606	0.723393	0	0	0.8658	0.303976	-0.0390552	1.03788	0.720888	0	0
4.88821	2.61296	-0.0766924	-3.14383	0.852223	-0.98073	0.35584	-0.333611	-0.257007	-0.260112	1.11886	-0.197904	0	0	-0.055241	0.0692763	-0.186303	0.39985	-0.111638	0	0	-1.08852	-0.0684572	0.0446237	0.820495	-0.43073	-0.00565978	1.05986	0.723304	0	0	0.86436	0.305346	-0.0387892	1.03727	0.720811	0	0
4.8982	2.59578	-0.0787565	-3.14585	0.861071	-0.982411	0.357989	-0.333291	-0.259979	-0.24559	1.12994	-0.196814	0	0	-0.0850606	0.0760705	-0.185884	0.400251	-0.101403	0	0	-1.11057	-0.0706199	0.0385722	0.818865	-0.431501	-0.00570742	1.05911	0.723215	0	0	0.862918	0.306714	-0.0385232	1.03665	0.720734	0	0
4.90819	2.57906	-0.0802961	-3.1471	0.869754	-0.984085	0.360176	-0.332427	-0.26092	-0.230633	1.1374	-0.190419	0	0	-0.113974	0.0820573	-0.184258	0.401382	-0.0911864	0	0	-1.13208	-0.0713737	0.0328177	0.817234	-0.43227	-0.00575498	1.05837	0.723127	0	0	0.861474	0.30808	-0.0382574	1.03604	0.720657	0	0
4.91818	2.56336	-0.0816403	-3.14739	0.878308	-0.985732	0.362369	-0.330775	-0.260008	-0.215622	1.14087	-0.179619	0	0	-0.141218	0.0873474	-0.181283	0.403585	-0.0810622	0	0	-1.15226	-0.0709522	0.0272293	0.815602	-0.433039	-0.00580248	1.05762	0.723038	0	0	0.860028	0.309444	-0.0379917	1.03542	0.72058	0	0
4.92817	2.54921	-0.0830913	-3.14664	0.886764	-0.987331	0.364538	-0.328051	-0.257516	-0.200953	1.14009	-0.165318	0	0	-0.166084	0.0920671	-0.176881	0.407132	-0.0710588	0	0	-1.17032	-0.0695894	0.0216947	0.813967	-0.433806	-0.0058499	1.05688	0.722949	0	0	0.858581	0.310807	-0.037726	1.03481	0.720502	0	0
4.93816	2.53704	-0.0848357	-3.14482	0.89515	-0.988862	0.366652	-0.323937	-0.253751	-0.187051	1.13508	-0.14839	0	0	-0.188056	0.0962919	-0.171049	0.412141	-0.0611588	0	0	-1.18583	-0.0674823	0.0161042	0.812332	-0.434573	-0.00589726	1.05613	0.72286	0	0	0.857131	0.312169	-0.0374605	1.03419	0.720425	0	0
4.94815	2.52715	-0.0869483	-3.14194	0.903491	-0.990305	0.368685	-0.31811	-0.249043	-0.174358	1.12604	-0.129667	0	0	-0.206821	0.100051	-0.163866	0.418581	-0.05131	0	0	-1.19863	-0.0647884	0.0103655	0.810695	-0.435338	-0.00594456	1.05538	0.722772	0	0	0.85568	0.313529	-0.037195	1.03358	0.720348	0	0
4.95814	2.51968	-0.0894083	-3.13811	0.911808	-0.991642	0.370614	-0.310275	-0.24373	-0.163308	1.11334	-0.109923	0	0	-0.222275	0.103352	-0.155503	0.426275	-0.0414381	0	0	-1.20879	-0.0616388	0.00440978	0.809057	-0.436102	-0.00599179	1.05464	0.722683	0	0	0.854227	0.314887	-0.0369296	1.03296	0.720271	0	0
4.96813	2.51469	-0.0921505	-3.13349	0.920115	-0.992858	0.372421	-0.300216	-0.23818	-0.154305	1.09739	-0.0898504	0	0	-0.234519	0.106226	-0.146231	0.434906	-0.0314618	0	0	-1.2164	-0.058165	-0.00179201	0.807417	-0.436866	-0.00603896	1.05389	0.722594	0	0	0.852773	0.316244	-0.0366643	1.03234	0.720193	0	0
4.97812	2.51209	-0.0950781	-3.12829	0.928427	-0.993939	0.374091	-0.287876	-0.232736	-0.147669	1.07865	-0.0700709	0	0	-0.243871	0.108728	-0.13638	0.444052	-0.0213146	0	0	-1.22162	-0.0545084	-0.00824576	0.805777	-0.437628	-0.00608608	1.05314	0.722505	0	0	0.851317	0.3176	-0.0363992	1.03173	0.720116	0	0
4.98811	2.51166	-0.0981113	-3.12274	0.936755	-0.994879	0.375614	-0.273406	-0.227683	-0.143591	1.05742	-0.0511118	0	0	-0.250763	0.110942	-0.126263	0.453338	-0.0109424	0	0	-1.22465	-0.0508256	-0.0149304	0.804135	-0.43839	-0.00613314	1.0524	0.722416	0	0	0.84986	0.318955	-0.036134	1.03111	0.720039	0	0
4.9981	2.5131	-0.101201	-3.11706	0.945108	-0.995663	0.376985	-0.257103	-0.223245	-0.142122	1.03394	-0.0334329	0	0	-0.255667	0.112983	-0.116132	0.462466	-0.00031436	0	0	-1.22572	-0.047284	-0.0218135	0.802493	-0.439151	-0.00618015	1.05165	0.722328	0	0	0.848401	0.320308	-0.035869	1.03049	0.719961	0	0
5.00809	2.5161	-0.104347	-3.11144	0.953492	-0.996283	0.3782	-0.239352	-0.219594	-0.143199	1.00833	-0.0174231	0	0	-0.259041	0.114998	-0.106144	0.471214	0.0105752	0	0	-1.22509	-0.0440481	-0.0288699	0.800849	-0.439911	-0.00622711	1.0509	0.722239	0	0	0.846941	0.321661	-0.035604	1.02987	0.719884	0	0
5.01808	2.52035	-0.107603	-3.106	0.961916	-0.996732	0.379261	-0.220579	-0.216852	-0.146683	0.980651	-0.00338485	0	0	-0.261297	0.117157	-0.0963497	0.479438	0.0217067	0	0	-1.22302	-0.0412547	-0.0360989	0.799204	-0.44067	-0.00627402	1.05016	0.72215	0	0	0.845479	0.323012	-0.035339	1.02925	0.719806	0	0
5.02807	2.52555	-0.111057	-3.10086	0.970384	-0.997007	0.380169	-0.20122	-0.215096	-0.152362	0.950923	0.0084686	0	0	-0.262785	0.119641	-0.0867169	0.487069	0.0330364	0	0	-1.21982	-0.0390204	-0.043532	0.797558	-0.441429	-0.00632089	1.04941	0.722061	0	0	0.844016	0.324362	-0.0350742	1.02863	0.719729	0	0
5.03806	2.53143	-0.114805	-3.09611	0.978904	-0.997107	0.380928	-0.181698	-0.214349	-0.159925	0.919113	0.0179952	0	0	-0.26379	0.122624	-0.0771661	0.494119	0.0444984	0	0	-1.21582	-0.0374551	-0.0512239	0.795911	-0.442187	-0.00636771	1.04866	0.721972	0	0	0.842552	0.325712	-0.0348093	1.02802	0.719651	0	0
5.04805	2.53777	-0.118929	-3.0918	0.98748	-0.997033	0.381542	-0.162335	-0.214584	-0.169043	0.885273	0.0251448	0	0	-0.264529	0.126245	-0.0676215	0.500609	0.0560548	0	0	-1.21125	-0.0366561	-0.059214	0.794263	-0.442944	-0.00641449	1.04791	0.721883	0	0	0.841087	0.32706	-0.0345446	1.0274	0.719574	0	0
5.05804	2.54443	-0.12349	-3.08799	0.996119	-0.996786	0.382014	-0.143344	-0.215728	-0.17939	0.849545	0.029946	0	0	-0.26516	0.130588	-0.0580256	0.506564	0.0676998	0	0	-1.20619	-0.036698	-0.0675192	0.792615	-0.443701	-0.00646122	1.04716	0.721794	0	0	0.839621	0.328407	-0.0342799	1.02678	0.719496	0	0
5.06803	2.55133	-0.128525	-3.08464	1.00482	-0.99637	0.382347	-0.124833	-0.217672	-0.190661	0.81217	0.032489	0	0	-0.265789	0.135681	-0.0483423	0.512004	0.079465	0	0	-1.20059	-0.0376245	-0.0761316	0.790965	-0.444457	-0.00650792	1.04642	0.721705	0	0	0.838154	0.329753	-0.0340153	1.02616	0.719419	0	0
5.07801	2.55845	-0.134046	-3.0817	1.0136	-0.995786	0.382543	-0.106813	-0.220282	-0.202604	0.773493	0.0329155	0	0	-0.266484	0.14149	-0.0385568	0.51693	0.0914169	0	0	-1.19429	-0.0394399	-0.0850209	0.789315	-0.445212	-0.00655457	1.04567	0.721616	0	0	0.836686	0.331099	-0.0337507	1.02554	0.719341	0	0
5.088	2.56572	-0.140043	-3.07912	1.02245	-0.99504	0.382603	-0.0893561	-0.223405	-0.214919	0.73377	0.0313533	0	0	-0.267279	0.147967	-0.0286372	0.521455	0.103582	0	0	-1.18731	-0.0421282	-0.0941819	0.787664	-0.445967	-0.00660119	1.04492	0.721527	0	0	0.835217	0.332444	-0.0334862	1.02492	0.719263	0	0
5.09799	2.57309	-0.146501	-3.07683	1.03138	-0.994137	0.382529	-0.0725191	-0.226895	-0.227325	0.69328	0.0279386	0	0	-0.268185	0.155041	-0.0185434	0.525732	0.115992	0	0	-1.17972	-0.0456614	-0.103614	0.786013	-0.446721	-0.00664777	1.04417	0.721438	0	0	0.833747	0.333787	-0.0332218	1.0243	0.719186	0	0
5.10798	2.58039	-0.153387	-3.07484	1.04038	-0.993084	0.382319	-0.0565173	-0.230622	-0.239462	0.652102	0.0227866	0	0	-0.2692	0.162677	-0.00819864	0.530073	0.128591	0	0	-1.17201	-0.0500086	-0.113383	0.784361	-0.447475	-0.00669431	1.04342	0.721349	0	0	0.832276	0.33513	-0.0329574	1.02367	0.719108	0	0
5.11797	2.58753	-0.160681	-3.07314	1.04946	-0.991888	0.381976	-0.0414804	-0.234502	-0.251041	0.61042	0.0160681	0	0	-0.270309	0.170826	0.00246461	0.534721	0.141353	0	0	-1.16455	-0.0551237	-0.12354	0.782708	-0.448228	-0.00674082	1.04267	0.72126	0	0	0.830805	0.336472	-0.0326931	1.02305	0.71903	0	0
5.12796	2.59442	-0.168363	-3.07162	1.05862	-0.990559	0.3815	-0.0274836	-0.238472	-0.261839	0.568495	0.00801431	0	0	-0.271494	0.179401	0.0134934	0.539866	0.154267	0	0	-1.15755	-0.0609206	-0.134131	0.781055	-0.44898	-0.0067873	1.04192	0.721171	0	0	0.829332	0.337814	-0.0324288	1.02243	0.718953	0	0
5.13795	2.60107	-0.176404	-3.07015	1.06786	-0.989108	0.380894	-0.0145605	-0.242481	-0.271687	0.526651	-0.00108187	0	0	-0.272733	0.188275	0.0249134	0.545637	0.167319	0	0	-1.15116	-0.0672703	-0.145198	0.779402	-0.449732	-0.00683374	1.04117	0.721082	0	0	0.82786	0.339154	-0.0321646	1.02181	0.718875	0	0
5.14794	2.60747	-0.184766	-3.06857	1.07718	-0.98755	0.380165	-0.00271134	-0.246486	-0.280449	0.485256	-0.0108723	0	0	-0.274007	0.197287	0.0367265	0.552111	0.18049	0	0	-1.14541	-0.0740044	-0.156767	0.777748	-0.450484	-0.00688016	1.04042	0.720993	0	0	0.826386	0.340494	-0.0319004	1.02119	0.718797	0	0
5.15793	2.6137	-0.1934	-3.06666	1.0866	-0.985899	0.379321	0.0080883	-0.250441	-0.287998	0.444713	-0.0209783	0	0	-0.275297	0.206244	0.0489091	0.559312	0.193749	0	0	-1.14025	-0.0809247	-0.168847	0.776094	-0.451235	-0.00692655	1.03967	0.720904	0	0	0.824913	0.341834	-0.0316364	1.02057	0.71872	0	0
5.16792	2.6198	-0.202235	-3.06422	1.09612	-0.984171	0.378372	0.0178767	-0.254296	-0.294207	0.40544	-0.0310321	0	0	-0.276587	0.214937	0.0614065	0.567228	0.207052	0	0	-1.13557	-0.0878159	-0.181418	0.774439	-0.451986	-0.00697291	1.03893	0.720815	0	0	0.823438	0.343172	-0.0313723	1.01995	0.718642	0	0
5.17791	2.62579	-0.211179	-3.06113	1.10574	-0.982387	0.377333	0.0266119	-0.257999	-0.298905	0.367773	-0.0407358	0	0	-0.277866	0.223183	0.0741652	0.575927	0.220309	0	0	-1.13139	-0.094484	-0.19446	0.772785	-0.452737	-0.00701924	1.03818	0.720726	0	0	0.821964	0.34451	-0.0311084	1.01933	0.718564	0	0
5.1879	2.63178	-0.220131	-3.05721	1.11549	-0.980564	0.376219	0.0343775	-0.261507	-0.302004	0.332134	-0.0498679	0	0	-0.279122	0.230772	0.0870581	0.585291	0.23348	0	0	-1.12747	-0.100711	-0.207875	0.771129	-0.453487	-0.00706555	1.03743	0.720637	0	0	0.820488	0.345848	-0.0308444	1.0187	0.718486	0	0
5.19789	2.63791	-0.228976	-3.05231	1.12536	-0.978725	0.375051	0.0412962	-0.264775	-0.303504	0.298956	-0.0583236	0	0	-0.28035	0.237484	0.09991	0.595136	0.246527	0	0	-1.12347	-0.10627	-0.221518	0.769474	-0.454236	-0.00711184	1.03668	0.720548	0	0	0.819013	0.347185	-0.0305805	1.01808	0.718408	0	0
5.20788	2.64424	-0.237589	-3.04637	1.13538	-0.976891	0.373846	0.0474173	-0.26777	-0.303468	0.268591	-0.0661194	0	0	-0.281543	0.243168	0.112567	0.605385	0.259357	0	0	-1.1192	-0.110979	-0.235259	0.767818	-0.454986	-0.00715811	1.03593	0.720459	0	0	0.817537	0.348521	-0.0303166	1.01746	0.718331	0	0
5.21787	2.65086	-0.245865	-3.03938	1.14556	-0.975083	0.372628	0.0528512	-0.270487	-0.302076	0.241414	-0.0733562	0	0	-0.282699	0.247719	0.124884	0.615895	0.271883	0	0	-1.11441	-0.114704	-0.248918	0.766162	-0.455735	-0.00720437	1.03518	0.720369	0	0	0.81606	0.349858	-0.0300528	1.01684	0.718253	0	0
5.22786	2.65772	-0.253687	-3.03147	1.15589	-0.973323	0.371419	0.0576272	-0.272932	-0.299622	0.217723	-0.0801965	0	0	-0.283817	0.251128	0.136765	0.626678	0.28395	0	0	-1.10911	-0.117371	-0.262343	0.764506	-0.456484	-0.00725061	1.03443	0.72028	0	0	0.814584	0.351194	-0.029789	1.01622	0.718175	0	0
5.23785	2.66465	-0.260953	-3.02292	1.1664	-0.971634	0.370239	0.0616904	-0.275131	-0.296469	0.197724	-0.0868361	0	0	-0.284895	0.253502	0.148191	0.637912	0.295349	0	0	-1.10357	-0.118995	-0.275412	0.762849	-0.457233	-0.00729683	1.03368	0.720191	0	0	0.813107	0.352529	-0.0295252	1.01559	0.718097	0	0
5.24784	2.67148	-0.267587	-3.01405	1.17708	-0.970038	0.369112	0.0649883	-0.277127	-0.293029	0.181564	-0.0934839	0	0	-0.285935	0.255002	0.159189	0.649789	0.305856	0	0	-1.09807	-0.119648	-0.28798	0.761192	-0.457981	-0.00734303	1.03293	0.720102	0	0	0.811629	0.353864	-0.0292615	1.01497	0.718019	0	0
5.25783	2.6781	-0.273521	-3.00511	1.18794	-0.968557	0.368058	0.067555	-0.278948	-0.289803	0.16936	-0.100343	0	0	-0.286937	0.255737	0.169759	0.662365	0.315257	0	0	-1.09273	-0.119375	-0.299853	0.759535	-0.458729	-0.00738922	1.03218	0.720012	0	0	0.810152	0.355199	-0.0289977	1.01435	0.717941	0	0
5.26782	2.68446	-0.278674	-2.99623	1.19897	-0.96721	0.367097	0.0694871	-0.280578	-0.287359	0.161176	-0.107627	0	0	-0.287902	0.255723	0.179829	0.675576	0.323328	0	0	-1.08748	-0.118154	-0.31081	0.757878	-0.459477	-0.0074354	1.03143	0.719923	0	0	0.808674	0.356533	-0.028734	1.01373	0.717863	0	0
5.27781	2.69045	-0.28294	-2.98757	1.21017	-0.966017	0.366249	0.070798	-0.281947	-0.286239	0.156932	-0.115577	0	0	-0.288832	0.25494	0.189296	0.689466	0.329792	0	0	-1.0824	-0.115935	-0.320678	0.756221	-0.460225	-0.00748156	1.03068	0.719834	0	0	0.807196	0.357867	-0.0284704	1.0131	0.717785	0	0
5.2878	2.69603	-0.286194	-2.97915	1.22154	-0.964997	0.365528	0.0715336	-0.282942	-0.28695	0.156459	-0.124455	0	0	-0.289729	0.253266	0.197982	0.703979	0.334355	0	0	-1.07741	-0.112606	-0.329268	0.754564	-0.460973	-0.00752771	1.02993	0.719745	0	0	0.805717	0.359201	-0.0282068	1.01248	0.717707	0	0
5.29778	2.70109	-0.288293	-2.97101	1.23308	-0.964164	0.364948	0.0716704	-0.2834	-0.289915	0.15947	-0.134493	0	0	-0.290594	0.250531	0.205663	0.719134	0.336671	0	0	-1.07252	-0.108019	-0.336428	0.752906	-0.46172	-0.00757385	1.02918	0.719655	0	0	0.804239	0.360535	-0.0279431	1.01186	0.717629	0	0
5.30777	2.70551	-0.289088	-2.96314	1.24476	-0.963532	0.364518	0.0711614	-0.283136	-0.295427	0.165593	-0.145802	0	0	-0.291429	0.246525	0.212105	0.734953	0.336359	0	0	-1.06775	-0.102012	-0.342017	0.751249	-0.462467	-0.00761998	1.02843	0.719566	0	0	0.802761	0.361868	-0.0276796	1.01124	0.717551	0	0
5.31776	2.70916	-0.288441	-2.95553	1.25657	-0.963108	0.36424	0.0699319	-0.281955	-0.303601	0.174405	-0.158254	0	0	-0.292235	0.241024	0.217075	0.751463	0.333011	0	0	-1.06309	-0.094421	-0.34592	0.749591	-0.463214	-0.00766609	1.02768	0.719477	0	0	0.801282	0.363201	-0.027416	1.01061	0.717473	0	0
5.32775	2.71194	-0.28624	-2.94811	1.2685	-0.962898	0.364114	0.0678864	-0.279671	-0.314317	0.185473	-0.171394	0	0	-0.293014	0.233808	0.220355	0.768685	0.326204	0	0	-1.05856	-0.0851059	-0.348045	0.747933	-0.463961	-0.0077122	1.02693	0.719387	0	0	0.799803	0.364534	-0.0271525	1.00999	0.717395	0	0
5.33774	2.71384	-0.2824	-2.94073	1.28051	-0.962902	0.364132	0.0650465	-0.276112	-0.327279	0.198469	-0.18445	0	0	-0.293767	0.224602	0.2217	0.78641	0.315544	0	0	-1.05384	-0.0739298	-0.348272	0.746276	-0.464708	-0.0077583	1.02618	0.719298	0	0	0.798325	0.365867	-0.026889	1.00937	0.717317	0	0
5.34773	2.71491	-0.276904	-2.93324	1.29259	-0.963114	0.364279	0.061415	-0.271142	-0.342007	0.213104	-0.196531	0	0	-0.294496	0.213196	0.220915	0.804438	0.30068	0	0	-1.04861	-0.0608353	-0.346541	0.744618	-0.465454	-0.00780439	1.02543	0.719209	0	0	0.796846	0.367199	-0.0266256	1.00875	0.717239	0	0
5.35772	2.71514	-0.26984	-2.92555	1.3047	-0.963526	0.364534	0.0569696	-0.264714	-0.357881	0.22908	-0.206844	0	0	-0.295203	0.199518	0.217945	0.822585	0.281353	0	0	-1.04261	-0.0458993	-0.342853	0.742961	-0.466201	-0.00785047	1.02468	0.719119	0	0	0.795367	0.368531	-0.0263621	1.00812	0.717161	0	0
5.36771	2.71406	-0.261353	-2.91808	1.3168	-0.964123	0.364869	0.0511945	-0.256822	-0.374232	0.245742	-0.214777	0	0	-0.295889	0.183951	0.212954	0.841396	0.257419	0	0	-1.03696	-0.0294209	-0.337601	0.741304	-0.466947	-0.00789654	1.02393	0.71903	0	0	0.793889	0.369863	-0.0260987	1.0075	0.717083	0	0
5.3777	2.71137	-0.251734	-2.91115	1.32886	-0.964891	0.365251	0.0437055	-0.247616	-0.390409	0.262433	-0.219972	0	0	-0.296556	0.167016	0.206414	0.861142	0.228985	0	0	-1.0325	-0.0118596	-0.331099	0.739646	-0.467694	-0.0079426	1.02318	0.718941	0	0	0.79241	0.371195	-0.0258354	1.00688	0.717004	0	0
5.38769	2.70694	-0.241284	-2.90492	1.34083	-0.96581	0.365642	0.0342631	-0.237266	-0.406034	0.27859	-0.222309	0	0	-0.297206	0.149164	0.198889	0.881823	0.196385	0	0	-1.0297	0.0063482	-0.3236	0.737989	-0.46844	-0.00798867	1.02243	0.718851	0	0	0.790932	0.372527	-0.025572	1.00626	0.716926	0	0
5.39768	2.70071	-0.230315	-2.89944	1.35268	-0.966864	0.366005	0.022652	-0.225955	-0.420945	0.2937	-0.221903	0	0	-0.297839	0.130803	0.190968	0.903383	0.160219	0	0	-1.02894	0.0247787	-0.315348	0.736332	-0.469186	-0.00803473	1.02168	0.718762	0	0	0.789453	0.373858	-0.0253086	1.00563	0.716848	0	0
5.40767	2.69266	-0.219158	-2.89474	1.36439	-0.968034	0.366303	0.00869397	-0.213895	-0.435113	0.307311	-0.219064	0	0	-0.298459	0.112324	0.183234	0.925717	0.12139	0	0	-1.03059	0.0430083	-0.306578	0.734675	-0.469932	-0.00808079	1.02093	0.718672	0	0	0.787974	0.37519	-0.0250452	1.00501	0.71677	0	0
5.41766	2.68279	-0.208155	-2.89077	1.37591	-0.969304	0.366501	-0.00774785	-0.201325	-0.448559	0.319047	-0.214222	0	0	-0.299065	0.0941145	0.176208	0.948704	0.0810876	0	0	-1.03496	0.0606106	-0.297511	0.733017	-0.470679	-0.00812685	1.02018	0.718583	0	0	0.786496	0.376522	-0.0247819	1.00439	0.716692	0	0
5.42765	2.67123	-0.197607	-2.88748	1.38725	-0.97066	0.366573	-0.0266283	-0.188495	-0.461382	0.328738	-0.207828	0	0	-0.29966	0.0764945	0.17029	0.972039	0.0407157	0	0	-1.04204	0.0772241	-0.288326	0.73136	-0.471425	-0.00817291	1.01943	0.718493	0	0	0.785017	0.377854	-0.0245185	1.00377	0.716614	0	0
5.43764	2.6581	-0.187796	-2.88478	1.39839	-0.972088	0.366497	-0.0478481	-0.17567	-0.473677	0.336343	-0.200305	0	0	-0.300246	0.0597671	0.165741	0.995434	0.00178005	0	0	-1.05183	0.092524	-0.279196	0.729702	-0.472171	-0.00821897	1.01868	0.718404	0	0	0.783538	0.379185	-0.0242551	1.00314	0.716535	0	0
5.44763	2.64367	-0.178909	-2.88257	1.40933	-0.973578	0.366262	-0.0710976	-0.163081	-0.485584	0.342055	-0.192007	0	0	-0.300824	0.0441273	0.162672	1.01842	-0.034283	0	0	-1.06389	0.106321	-0.270254	0.728045	-0.472917	-0.00826503	1.01793	0.718314	0	0	0.78206	0.380517	-0.0239918	1.00252	0.716457	0	0
5.45762	2.62809	-0.171089	-2.8808	1.42008	-0.97512	0.365865	-0.0961356	-0.150931	-0.497217	0.346078	-0.183232	0	0	-0.301394	0.0297434	0.161046	1.04072	-0.0662712	0	0	-1.07806	0.118481	-0.261639	0.726388	-0.473663	-0.00831109	1.01718	0.718225	0	0	0.780581	0.381849	-0.0237284	1.0019	0.716379	0	0
5.46761	2.61162	-0.164379	-2.87939	1.43067	-0.976706	0.365314	-0.122619	-0.139351	-0.508662	0.348713	-0.174215	0	0	-0.30196	0.0166764	0.160749	1.06202	-0.093437	0	0	-1.09392	0.129002	-0.253444	0.72473	-0.474409	-0.00835715	1.01643	0.718136	0	0	0.779102	0.38318	-0.023465	1.00128	0.716301	0	0
5.4776	2.59446	-0.158732	-2.87827	1.44112	-0.978326	0.364625	-0.150209	-0.128393	-0.51999	0.350278	-0.165127	0	0	-0.302521	0.00488668	0.161599	1.08214	-0.115661	0	0	-1.11109	0.13799	-0.245717	0.723073	-0.475156	-0.00840321	1.01568	0.718046	0	0	0.777623	0.384512	-0.0232017	1.00065	0.716222	0	0
5.48759	2.57682	-0.154028	-2.87737	1.45144	-0.979974	0.363819	-0.178588	-0.11804	-0.531241	0.351078	-0.15608	0	0	-0.303079	-0.00575238	0.163391	1.101	-0.133415	0	0	-1.1292	0.14564	-0.23846	0.721415	-0.475902	-0.00844926	1.01494	0.717957	0	0	0.776145	0.385844	-0.0229383	1.00003	0.716144	0	0
5.49758	2.55897	-0.150043	-2.87657	1.46169	-0.981642	0.362923	-0.207343	-0.108181	-0.542443	0.351477	-0.147132	0	0	-0.303634	-0.0154967	0.165944	1.11855	-0.147568	0	0	-1.14759	0.15228	-0.231611	0.719758	-0.476648	-0.00849532	1.01419	0.717867	0	0	0.774666	0.387175	-0.0226749	0.999408	0.716066	0	0
5.50757	2.54107	-0.146551	-2.87579	1.47188	-0.983322	0.361967	-0.236234	-0.0986767	-0.553633	0.351709	-0.138283	0	0	-0.304189	-0.0246157	0.169051	1.13499	-0.159192	0	0	-1.16594	0.158248	-0.225076	0.7181	-0.477394	-0.00854138	1.01344	0.717778	0	0	0.773187	0.388507	-0.0224115	0.998786	0.715988	0	0
5.51755	2.52314	-0.143348	-2.87502	1.48203	-0.98501	0.360977	-0.265179	-0.0893972	-0.564836	0.351881	-0.129497	0	0	-0.304743	-0.0333472	0.172486	1.15073	-0.169365	0	0	-1.18427	0.16383	-0.218743	0.716443	-0.47814	-0.00858744	1.01269	0.717688	0	0	0.771708	0.389839	-0.0221482	0.998163	0.71591	0	0
5.52754	2.50522	-0.140258	-2.87425	1.49218	-0.9867	0.359974	-0.294114	-0.0802095	-0.576037	0.352058	-0.120739	0	0	-0.305297	-0.0419287	0.176054	1.16618	-0.178979	0	0	-1.20253	0.169269	-0.212492	0.714785	-0.478886	-0.00863349	1.01194	0.717599	0	0	0.770229	0.39117	-0.0218848	0.99754	0.715831	0	0
