Coordinates
version=1
nRows=280
nColumns=38
inDegrees=no

Units are S.I. units (second, meters, Newtons, ...)
If the header above contains a line with 'inDegrees', this indicates whether rotational values are in degrees (yes) or radians (no).

endheader
time	pelvis_tilt	pelvis_list	pelvis_rotation	pelvis_tx	pelvis_ty	pelvis_tz	hip_flexion_r	hip_adduction_r	hip_rotation_r	knee_angle_r	ankle_angle_r	subtalar_angle_r	mtp_angle_r	hip_flexion_l	hip_adduction_l	hip_rotation_l	knee_angle_l	ankle_angle_l	subtalar_angle_l	mtp_angle_l	lumbar_extension	lumbar_bending	lumbar_rotation	arm_flex_r	arm_add_r	arm_rot_r	elbow_flex_r	pro_sup_r	wrist_flex_r	wrist_dev_r	arm_flex_l	arm_add_l	arm_rot_l	elbow_flex_l	pro_sup_l	wrist_flex_l	wrist_dev_l
0	2.42122	-0.0110764	-3.10812	-2.52792	-1.04425	0.324696	-0.523599	-0.0310818	-0.170538	0.273582	-0.0472379	0	0	-0.523599	0.010173	0.0144285	0.241309	-0.0600138	0	0	-1.35331	0.0226457	0.0511634	0	0	0	0	0	0	0	0	0	0	0	0	0	0
0.00998786	2.41969	-0.00782787	-3.1093	-2.52776	-1.04418	0.324782	-0.523598	-0.0289748	-0.168277	0.276322	-0.0472382	0	0	-0.523599	0.00781445	0.0111626	0.245226	-0.0577751	0	0	-1.35475	0.0265336	0.0412502	0	0	0	0	0	0	0	0	0	0	0	0	0	0
0.0199757	2.41816	-0.00458978	-3.11049	-2.52761	-1.04411	0.324867	-0.523598	-0.0268738	-0.166013	0.279046	-0.0472241	0	0	-0.523599	0.00546269	0.00790806	0.249123	-0.0555314	0	0	-1.3562	0.0303078	0.031823	0	0	0	0	0	0	0	0	0	0	0	0	0	0
0.0299636	2.41667	-0.00139792	-3.11166	-2.52746	-1.04405	0.324953	-0.523597	-0.0248025	-0.163745	0.28171	-0.0472088	0	0	-0.523599	0.00314369	0.00469858	0.252947	-0.0533381	0	0	-1.35766	0.0338308	0.0234042	0	0	0	0	0	0	0	0	0	0	0	0	0	0
0.0399515	2.41527	0.00165763	-3.1128	-2.52732	-1.04398	0.325038	-0.523597	-0.0228258	-0.161525	0.284211	-0.0471429	0	0	-0.523599	0.000927572	0.00158001	0.256564	-0.0511946	0	0	-1.35896	0.0369802	0.0163175	0	0	0	0	0	0	0	0	0	0	0	0	0	0
0.0499393	2.41401	0.00448238	-3.11389	-2.52718	-1.04392	0.325125	-0.523596	-0.0210114	-0.159404	0.286453	-0.0470448	0	0	-0.523599	-0.00110916	-0.00137466	0.259848	-0.0491818	0	0	-1.3601	0.0396679	0.0106773	0	0	0	0	0	0	0	0	0	0	0	0	0	0
0.0599272	2.41295	0.00699252	-3.11491	-2.52704	-1.04387	0.325209	-0.523596	-0.0194211	-0.15744	0.288355	-0.0469272	0	0	-0.523599	-0.00289584	-0.00409413	0.26269	-0.0473632	0	0	-1.36098	0.0418512	0.00643238	0	0	0	0	0	0	0	0	0	0	0	0	0	0
0.069915	2.4121	0.00913017	-3.11583	-2.5269	-1.04383	0.325292	-0.523596	-0.018096	-0.155676	0.289895	-0.0468111	0	0	-0.523599	-0.00438369	-0.00649592	0.265049	-0.0458018	0	0	-1.36168	0.0435262	0.00342782	0	0	0	0	0	0	0	0	0	0	0	0	0	0
0.0799029	2.4114	0.0108694	-3.11665	-2.5268	-1.0438	0.325372	-0.523596	-0.0170532	-0.154132	0.291113	-0.0467218	0	0	-0.523599	-0.00555035	-0.00849044	0.266955	-0.0445565	0	0	-1.36243	0.04472	0.0014553	0	0	0	0	0	0	0	0	0	0	0	0	0	0
0.0898908	2.41086	0.0122047	-3.11736	-2.52673	-1.04378	0.325443	-0.523597	-0.0162961	-0.152831	0.292042	-0.0466631	0	0	-0.523599	-0.00638929	-0.0100279	0.268436	-0.0436387	0	0	-1.3633	0.0454844	0.000280186	0	0	0	0	0	0	0	0	0	0	0	0	0	0
0.0998786	2.41046	0.0131439	-3.11794	-2.52668	-1.04377	0.325505	-0.523598	-0.0158184	-0.151795	0.292697	-0.0466263	0	0	-0.523599	-0.00690542	-0.0110954	0.269509	-0.0430248	0	0	-1.36424	0.0458838	-0.000331697	0	0	0	0	0	0	0	0	0	0	0	0	0	0
0.109867	2.41018	0.0137088	-3.11839	-2.52667	-1.04378	0.325557	-0.5236	-0.0156031	-0.151024	0.293122	-0.0466156	0	0	-0.523599	-0.00711409	-0.0116695	0.270226	-0.0427032	0	0	-1.36532	0.0459798	-0.000587197	0	0	0	0	0	0	0	0	0	0	0	0	0	0
0.119854	2.41002	0.0139132	-3.11872	-2.52668	-1.04379	0.3256	-0.523603	-0.0156412	-0.150522	0.293326	-0.0466202	0	0	-0.523599	-0.00702135	-0.0117417	0.270601	-0.0426401	0	0	-1.36646	0.0458254	-0.000669189	0	0	0	0	0	0	0	0	0	0	0	0	0	0
0.129842	2.41003	0.0137456	-3.11894	-2.52669	-1.04381	0.325636	-0.523607	-0.0159434	-0.150315	0.293255	-0.0466234	0	0	-0.523599	-0.00661265	-0.0113139	0.270578	-0.0428036	0	0	-1.36739	0.0454574	-0.000738852	0	0	0	0	0	0	0	0	0	0	0	0	0	0
0.13983	2.41026	0.0131684	-3.11902	-2.52669	-1.04385	0.325669	-0.523613	-0.0165396	-0.150428	0.292839	-0.0466233	0	0	-0.523599	-0.00585549	-0.0103655	0.270073	-0.0432101	0	0	-1.36796	0.0448956	-0.00093265	0	0	0	0	0	0	0	0	0	0	0	0	0	0
0.149818	2.41075	0.0121263	-3.11897	-2.52668	-1.04389	0.325703	-0.52362	-0.0174714	-0.15089	0.292004	-0.0466293	0	0	-0.523599	-0.00470558	-0.00884265	0.268997	-0.0439145	0	0	-1.36812	0.0441447	-0.00136435	0	0	0	0	0	0	0	0	0	0	0	0	0	0
0.159806	2.41152	0.0105646	-3.11875	-2.52666	-1.04395	0.325742	-0.523629	-0.0187812	-0.151713	0.290697	-0.0466562	0	0	-0.523599	-0.00311798	-0.0066711	0.267277	-0.0449884	0	0	-1.36793	0.0432004	-0.00212456	0	0	0	0	0	0	0	0	0	0	0	0	0	0
0.169794	2.41259	0.00844652	-3.11837	-2.52665	-1.04402	0.325785	-0.523639	-0.0204989	-0.152893	0.288891	-0.0467246	0	0	-0.523599	-0.00106191	-0.00377557	0.264875	-0.0465069	0	0	-1.36753	0.0420581	-0.00327601	0	0	0	0	0	0	0	0	0	0	0	0	0	0
0.179782	2.41398	0.00575616	-3.11782	-2.52665	-1.0441	0.325833	-0.523649	-0.0226362	-0.154418	0.286543	-0.0468398	0	0	-0.523599	0.00147117	-0.000134942	0.261743	-0.0485018	0	0	-1.36688	0.040723	-0.0048576	0	0	0	0	0	0	0	0	0	0	0	0	0	0
0.189769	2.41568	0.00251672	-3.1171	-2.52665	-1.04419	0.325887	-0.523658	-0.0251719	-0.156242	0.28365	-0.0470187	0	0	-0.523599	0.00445199	0.00423539	0.257884	-0.0509958	0	0	-1.366	0.0392106	-0.00687087	0	0	0	0	0	0	0	0	0	0	0	0	0	0
0.199757	2.41768	-0.0012048	-3.11622	-2.52665	-1.0443	0.325949	-0.523666	-0.0280488	-0.158283	0.28026	-0.0472816	0	0	-0.523599	0.00780909	0.00927433	0.253367	-0.0539899	0	0	-1.365	0.0375491	-0.00927697	0	0	0	0	0	0	0	0	0	0	0	0	0	0
0.209745	2.41994	-0.00530766	-3.11521	-2.52664	-1.04442	0.326022	-0.52367	-0.0311816	-0.160449	0.276431	-0.047635	0	0	-0.523599	0.011437	0.0148433	0.248275	-0.0574299	0	0	-1.36381	0.0357792	-0.0120043	0	0	0	0	0	0	0	0	0	0	0	0	0	0
0.219733	2.4224	-0.00965741	-3.11412	-2.52663	-1.04455	0.326102	-0.523666	-0.0344655	-0.162625	0.272282	-0.0480986	0	0	-0.523599	0.0152076	0.020785	0.242769	-0.0612609	0	0	-1.3625	0.033942	-0.0149457	0	0	0	0	0	0	0	0	0	0	0	0	0	0
0.229721	2.42498	-0.0141372	-3.11296	-2.5266	-1.04468	0.326186	-0.523653	-0.0378101	-0.164731	0.267953	-0.0486522	0	0	-0.523599	0.0190094	0.0269514	0.237017	-0.0653698	0	0	-1.36106	0.0320698	-0.0179913	0	0	0	0	0	0	0	0	0	0	0	0	0	0
0.239709	2.4277	-0.0186501	-3.11174	-2.52654	-1.04482	0.326276	-0.523625	-0.0411259	-0.166747	0.263512	-0.0492206	0	0	-0.523599	0.0227461	0.0332128	0.231101	-0.0695562	0	0	-1.35921	0.0302217	-0.0210478	0	0	0	0	0	0	0	0	0	0	0	0	0	0
0.249697	2.43048	-0.0230999	-3.11043	-2.52643	-1.04496	0.326369	-0.523578	-0.0443259	-0.168677	0.259081	-0.0497505	0	0	-0.523599	0.0263288	0.0395127	0.225151	-0.0736714	0	0	-1.3569	0.0284614	-0.0240329	0	0	0	0	0	0	0	0	0	0	0	0	0	0
0.259684	2.43325	-0.0273839	-3.10906	-2.52629	-1.04508	0.326468	-0.523507	-0.047332	-0.170527	0.254804	-0.0502198	0	0	-0.523599	0.0296759	0.0457836	0.219329	-0.077617	0	0	-1.3543	0.0268398	-0.0268804	0	0	0	0	0	0	0	0	0	0	0	0	0	0
0.269672	2.4359	-0.0314059	-3.10766	-2.52613	-1.0452	0.326568	-0.523407	-0.0500928	-0.172287	0.250838	-0.0506201	0	0	-0.523599	0.0327303	0.0519408	0.21382	-0.0813273	0	0	-1.35168	0.0253784	-0.0295414	0	0	0	0	0	0	0	0	0	0	0	0	0	0
0.27966	2.43832	-0.0350817	-3.10631	-2.52598	-1.04531	0.326663	-0.523275	-0.0525909	-0.173941	0.247346	-0.050959	0	0	-0.523599	0.035467	0.0579158	0.20882	-0.0847885	0	0	-1.34946	0.0240629	-0.0319856	0	0	0	0	0	0	0	0	0	0	0	0	0	0
0.289648	2.44046	-0.0383672	-3.10507	-2.52584	-1.04542	0.326751	-0.523108	-0.0548121	-0.175475	0.244391	-0.0512283	0	0	-0.523599	0.0378699	0.0636082	0.204407	-0.0879549	0	0	-1.34776	0.0228871	-0.0341933	0	0	0	0	0	0	0	0	0	0	0	0	0	0
0.299636	2.44233	-0.041243	-3.10393	-2.52571	-1.04551	0.32683	-0.522908	-0.0567409	-0.176886	0.24196	-0.0514219	0	0	-0.523599	0.0399272	0.0688962	0.200581	-0.0907747	0	0	-1.34645	0.0218565	-0.0361532	0	0	0	0	0	0	0	0	0	0	0	0	0	0
0.309624	2.44401	-0.0437163	-3.10284	-2.52556	-1.04559	0.326898	-0.522681	-0.0583543	-0.17818	0.239953	-0.0515301	0	0	-0.523599	0.0416256	0.0736373	0.197239	-0.0931719	0	0	-1.34513	0.0210001	-0.0378617	0	0	0	0	0	0	0	0	0	0	0	0	0	0
0.319612	2.44552	-0.0457828	-3.1018	-2.52537	-1.04566	0.326951	-0.522439	-0.0596455	-0.179359	0.238311	-0.0515666	0	0	-0.523599	0.0429668	0.0777718	0.194338	-0.0951523	0	0	-1.34378	0.0203234	-0.0393225	0	0	0	0	0	0	0	0	0	0	0	0	0	0
0.3296	2.44688	-0.0474647	-3.10081	-2.52516	-1.04572	0.326988	-0.522198	-0.0606311	-0.180423	0.236976	-0.051538	0	0	-0.523599	0.043977	0.081286	0.191841	-0.0967304	0	0	-1.34241	0.0198145	-0.040546	0	0	0	0	0	0	0	0	0	0	0	0	0	0
0.339587	2.4481	-0.0488016	-3.09986	-2.52491	-1.04577	0.32701	-0.521976	-0.061334	-0.181377	0.235876	-0.0514471	0	0	-0.523599	0.0446894	0.0841888	0.189693	-0.0979223	0	0	-1.34093	0.0194629	-0.0415477	0	0	0	0	0	0	0	0	0	0	0	0	0	0
0.349575	2.44923	-0.0498422	-3.09891	-2.52461	-1.04582	0.327022	-0.521787	-0.0617769	-0.182227	0.234937	-0.0512961	0	0	-0.523599	0.0451376	0.0865061	0.187829	-0.0987456	0	0	-1.33918	0.0192637	-0.0423471	0	0	0	0	0	0	0	0	0	0	0	0	0	0
0.359563	2.45024	-0.050613	-3.09801	-2.52429	-1.04587	0.327024	-0.521645	-0.0619991	-0.182975	0.234154	-0.0511013	0	0	-0.523599	0.0453687	0.0883384	0.186267	-0.0992798	0	0	-1.33741	0.0191838	-0.0429688	0	0	0	0	0	0	0	0	0	0	0	0	0	0
0.369551	2.4511	-0.0511534	-3.09717	-2.52396	-1.04591	0.327016	-0.52156	-0.062053	-0.18362	0.233529	-0.0508698	0	0	-0.523599	0.0454414	0.0897949	0.185025	-0.0995906	0	0	-1.3358	0.0191796	-0.0434378	0	0	0	0	0	0	0	0	0	0	0	0	0	0
0.379539	2.45179	-0.0515032	-3.09643	-2.52364	-1.04595	0.327003	-0.521538	-0.0619936	-0.18416	0.233081	-0.0506105	0	0	-0.523599	0.0454137	0.0909842	0.184135	-0.0997482	0	0	-1.33454	0.0192054	-0.0437774	0	0	0	0	0	0	0	0	0	0	0	0	0	0
0.389527	2.45233	-0.0517106	-3.09579	-2.52332	-1.04598	0.326988	-0.521575	-0.0618597	-0.184606	0.23278	-0.0503212	0	0	-0.523599	0.0453269	0.0919641	0.183551	-0.0997753	0	0	-1.33357	0.019243	-0.0440076	0	0	0	0	0	0	0	0	0	0	0	0	0	0
0.399515	2.45281	-0.0518255	-3.09519	-2.52299	-1.04601	0.326979	-0.521654	-0.0616607	-0.184979	0.232536	-0.0499936	0	0	-0.523599	0.045192	0.092726	0.183139	-0.0996457	0	0	-1.33256	0.0193157	-0.0441445	0	0	0	0	0	0	0	0	0	0	0	0	0	0
0.409502	2.4533	-0.0518838	-3.09456	-2.52261	-1.04604	0.326985	-0.521764	-0.0613932	-0.185297	0.232273	-0.0496309	0	0	-0.523599	0.0450045	0.0932471	0.182789	-0.0993439	0	0	-1.3312	0.0194546	-0.0442026	0	0	0	0	0	0	0	0	0	0	0	0	0	0
0.41949	2.45379	-0.0518827	-3.09394	-2.52221	-1.04606	0.327008	-0.521892	-0.0610717	-0.185564	0.232	-0.0492537	0	0	-0.523599	0.0447733	0.0935713	0.182495	-0.0989236	0	0	-1.32968	0.0196506	-0.0441974	0	0	0	0	0	0	0	0	0	0	0	0	0	0
0.429478	2.45426	-0.0518261	-3.09336	-2.5218	-1.04608	0.32705	-0.522029	-0.0607288	-0.185772	0.231752	-0.0488773	0	0	-0.523599	0.0445248	0.093755	0.182285	-0.0984362	0	0	-1.32823	0.0198671	-0.0441398	0	0	0	0	0	0	0	0	0	0	0	0	0	0
0.439466	2.45466	-0.0517159	-3.0929	-2.5214	-1.0461	0.32711	-0.522168	-0.060404	-0.185905	0.231582	-0.0485203	0	0	-0.523599	0.0442921	0.0938613	0.182215	-0.0979413	0	0	-1.32712	0.0200541	-0.0440368	0	0	0	0	0	0	0	0	0	0	0	0	0	0
0.449454	2.45499	-0.0515651	-3.09258	-2.52102	-1.04611	0.327185	-0.522297	-0.0601212	-0.185959	0.231488	-0.048187	0	0	-0.523599	0.0440957	0.0939097	0.182265	-0.0974482	0	0	-1.32639	0.0201858	-0.0438912	0	0	0	0	0	0	0	0	0	0	0	0	0	0
0.459442	2.45524	-0.0513768	-3.0924	-2.52066	-1.04612	0.327274	-0.522412	-0.0599001	-0.185934	0.231492	-0.0478841	0	0	-0.523599	0.0439514	0.0939294	0.182448	-0.0969859	0	0	-1.32614	0.0202393	-0.0437071	0	0	0	0	0	0	0	0	0	0	0	0	0	0
0.46943	2.45544	-0.0511664	-3.09235	-2.52032	-1.04613	0.327373	-0.522503	-0.0597464	-0.185842	0.231566	-0.0475976	0	0	-0.523599	0.0438637	0.0939158	0.18271	-0.0965358	0	0	-1.32627	0.0202165	-0.0434895	0	0	0	0	0	0	0	0	0	0	0	0	0	0
0.479417	2.45561	-0.0509425	-3.09242	-2.52	-1.04614	0.327484	-0.522567	-0.0596607	-0.185697	0.231703	-0.0473178	0	0	-0.523599	0.0438318	0.0938773	0.183028	-0.0960973	0	0	-1.32674	0.0201223	-0.043247	0	0	0	0	0	0	0	0	0	0	0	0	0	0
0.489405	2.45574	-0.0507109	-3.0926	-2.51969	-1.04615	0.327603	-0.522603	-0.0596485	-0.185509	0.231918	-0.0470332	0	0	-0.523599	0.0438603	0.0938364	0.183409	-0.0956783	0	0	-1.32756	0.0199549	-0.0429917	0	0	0	0	0	0	0	0	0	0	0	0	0	0
0.499393	2.45582	-0.0504788	-3.09289	-2.51939	-1.04616	0.32773	-0.522617	-0.0597182	-0.185282	0.232239	-0.0467361	0	0	-0.523599	0.0439563	0.0938281	0.183889	-0.0952959	0	0	-1.32879	0.0197051	-0.0427377	0	0	0	0	0	0	0	0	0	0	0	0	0	0
0.509381	2.45578	-0.05025	-3.0933	-2.51913	-1.04616	0.327863	-0.522617	-0.059885	-0.185015	0.232719	-0.0464259	0	0	-0.523599	0.0441337	0.0939033	0.184539	-0.0949822	0	0	-1.33054	0.019353	-0.0425001	0	0	0	0	0	0	0	0	0	0	0	0	0	0
0.519369	2.45567	-0.0500408	-3.09383	-2.5189	-1.04616	0.328	-0.522605	-0.0601482	-0.184716	0.233347	-0.046092	0	0	-0.523599	0.0443935	0.0940638	0.185344	-0.0947153	0	0	-1.33269	0.0189057	-0.0422913	0	0	0	0	0	0	0	0	0	0	0	0	0	0
0.529357	2.45554	-0.049873	-3.09437	-2.51865	-1.04616	0.328145	-0.522581	-0.0604818	-0.184406	0.234048	-0.0457216	0	0	-0.523599	0.0447138	0.0942568	0.186208	-0.0944309	0	0	-1.33487	0.0184074	-0.0421209	0	0	0	0	0	0	0	0	0	0	0	0	0	0
0.539345	2.45546	-0.0497601	-3.09487	-2.51838	-1.04616	0.328301	-0.522546	-0.0608537	-0.184107	0.234753	-0.045313	0	0	-0.523599	0.0450659	0.0944251	0.187052	-0.0940807	0	0	-1.33674	0.0179085	-0.041998	0	0	0	0	0	0	0	0	0	0	0	0	0	0
0.549333	2.45541	-0.0496845	-3.09533	-2.51808	-1.04615	0.328465	-0.522506	-0.0612518	-0.183829	0.235475	-0.0448819	0	0	-0.523599	0.045438	0.0945887	0.187895	-0.0936939	0	0	-1.33841	0.0174197	-0.0419345	0	0	0	0	0	0	0	0	0	0	0	0	0	0
0.55932	2.45542	-0.0496538	-3.09571	-2.51776	-1.04613	0.328641	-0.522455	-0.0616659	-0.183586	0.236178	-0.0444232	0	0	-0.523599	0.0458219	0.0947322	0.188683	-0.0932448	0	0	-1.33977	0.0169573	-0.0419383	0	0	0	0	0	0	0	0	0	0	0	0	0	0
0.569308	2.45553	-0.049674	-3.09599	-2.51739	-1.04612	0.328831	-0.522391	-0.0620779	-0.183392	0.236809	-0.0439351	0	0	-0.523599	0.0462019	0.0948204	0.189346	-0.0927053	0	0	-1.34062	0.016548	-0.042013	0	0	0	0	0	0	0	0	0	0	0	0	0	0
0.579296	2.45581	-0.0497532	-3.09611	-2.51695	-1.04609	0.32904	-0.522313	-0.062465	-0.183258	0.237304	-0.0434182	0	0	-0.523599	0.046557	0.0948024	0.189807	-0.0920434	0	0	-1.34071	0.0162242	-0.0421576	0	0	0	0	0	0	0	0	0	0	0	0	0	0
0.589284	2.45623	-0.049868	-3.0961	-2.51646	-1.04607	0.329267	-0.522217	-0.0628188	-0.183183	0.237667	-0.0428883	0	0	-0.523599	0.0468788	0.0946887	0.190064	-0.0912932	0	0	-1.34018	0.0159879	-0.0423691	0	0	0	0	0	0	0	0	0	0	0	0	0	0
0.599272	2.45679	-0.0500047	-3.09598	-2.51592	-1.04604	0.32951	-0.522098	-0.0631466	-0.183154	0.237905	-0.0423515	0	0	-0.523599	0.047175	0.094494	0.190123	-0.0904762	0	0	-1.33913	0.0158261	-0.0426392	0	0	0	0	0	0	0	0	0	0	0	0	0	0
0.60926	2.45748	-0.0501526	-3.09579	-2.51534	-1.04602	0.329765	-0.521953	-0.0634573	-0.183159	0.238031	-0.0418127	0	0	-0.523599	0.0474554	0.0942317	0.189991	-0.0896109	0	0	-1.33767	0.0157234	-0.0429553	0	0	0	0	0	0	0	0	0	0	0	0	0	0
0.619248	2.45828	-0.0503038	-3.09555	-2.51473	-1.04599	0.330034	-0.521778	-0.0637603	-0.18318	0.238054	-0.0412768	0	0	-0.523599	0.0477303	0.0939183	0.189686	-0.0887158	0	0	-1.3359	0.0156641	-0.0433035	0	0	0	0	0	0	0	0	0	0	0	0	0	0
0.629235	2.45916	-0.0504535	-3.09529	-2.51409	-1.04597	0.330317	-0.521574	-0.0640674	-0.183206	0.237995	-0.0407485	0	0	-0.523599	0.048012	0.0935785	0.189232	-0.0878145	0	0	-1.3339	0.0156308	-0.0436718	0	0	0	0	0	0	0	0	0	0	0	0	0	0
0.639223	2.46011	-0.050598	-3.09504	-2.51343	-1.04595	0.330615	-0.521344	-0.064394	-0.183225	0.23788	-0.040233	0	0	-0.523599	0.0483158	0.0932507	0.188672	-0.0869393	0	0	-1.33183	0.0156023	-0.0440521	0	0	0	0	0	0	0	0	0	0	0	0	0	0
0.649211	2.46109	-0.0507335	-3.09484	-2.51277	-1.04594	0.330923	-0.521094	-0.0647586	-0.183227	0.237746	-0.039736	0	0	-0.523599	0.04866	0.0929838	0.18806	-0.0861267	0	0	-1.32984	0.0155549	-0.04444	0	0	0	0	0	0	0	0	0	0	0	0	0	0
0.659199	2.46203	-0.0508492	-3.09474	-2.51213	-1.04593	0.331234	-0.520835	-0.0651865	-0.183198	0.237653	-0.0392688	0	0	-0.523599	0.0490688	0.0928501	0.187494	-0.0854322	0	0	-1.3282	0.0154536	-0.0448347	0	0	0	0	0	0	0	0	0	0	0	0	0	0
0.669187	2.4629	-0.0509444	-3.09476	-2.51151	-1.04593	0.331545	-0.520575	-0.0656946	-0.18313	0.237628	-0.0388326	0	0	-0.523599	0.0495596	0.0928973	0.187024	-0.0848755	0	0	-1.32704	0.0152774	-0.0452339	0	0	0	0	0	0	0	0	0	0	0	0	0	0
0.679175	2.46371	-0.0510233	-3.09489	-2.51092	-1.04594	0.331858	-0.520318	-0.06628	-0.183024	0.23766	-0.0384238	0	0	-0.523599	0.0501306	0.0931354	0.186641	-0.0844449	0	0	-1.32633	0.015032	-0.0456326	0	0	0	0	0	0	0	0	0	0	0	0	0	0
0.689163	2.46443	-0.0510792	-3.09514	-2.51036	-1.04595	0.332179	-0.520076	-0.066937	-0.182875	0.237762	-0.0380469	0	0	-0.523599	0.0507754	0.0935802	0.186385	-0.0841512	0	0	-1.32615	0.014721	-0.0460263	0	0	0	0	0	0	0	0	0	0	0	0	0	0
0.69915	2.46508	-0.0511104	-3.09548	-2.50983	-1.04598	0.332513	-0.519855	-0.067647	-0.182687	0.237912	-0.0376943	0	0	-0.523599	0.0514759	0.0942056	0.186237	-0.0839646	0	0	-1.3264	0.0143648	-0.0464072	0	0	0	0	0	0	0	0	0	0	0	0	0	0
0.709138	2.46571	-0.0511099	-3.09588	-2.5093	-1.04601	0.332866	-0.519658	-0.0683731	-0.182464	0.238058	-0.0373535	0	0	-0.523599	0.0521965	0.0949391	0.186145	-0.0838263	0	0	-1.32689	0.0140051	-0.0467639	0	0	0	0	0	0	0	0	0	0	0	0	0	0
0.719126	2.46631	-0.0510527	-3.0963	-2.50877	-1.04605	0.333238	-0.5195	-0.0690774	-0.182203	0.238179	-0.0370207	0	0	-0.523599	0.052899	0.0957113	0.186108	-0.0836981	0	0	-1.32754	0.0136764	-0.0470832	0	0	0	0	0	0	0	0	0	0	0	0	0	0
0.729114	2.46692	-0.0509199	-3.09671	-2.50822	-1.0461	0.333631	-0.519388	-0.0697131	-0.1819	0.238226	-0.0366792	0	0	-0.523599	0.0535384	0.0964181	0.186089	-0.0835032	0	0	-1.32815	0.0134221	-0.0473473	0	0	0	0	0	0	0	0	0	0	0	0	0	0
0.739102	2.46755	-0.0506821	-3.09708	-2.50764	-1.04615	0.334043	-0.519339	-0.0702365	-0.181545	0.238174	-0.0363207	0	0	-0.523599	0.054072	0.0969666	0.18609	-0.0831842	0	0	-1.32862	0.0132725	-0.0475369	0	0	0	0	0	0	0	0	0	0	0	0	0	0
0.74909	2.46819	-0.0503144	-3.09742	-2.50703	-1.04622	0.334474	-0.519367	-0.0706178	-0.181123	0.23802	-0.0359428	0	0	-0.523599	0.0544702	0.0972861	0.186145	-0.0826973	0	0	-1.32894	0.0132348	-0.0476327	0	0	0	0	0	0	0	0	0	0	0	0	0	0
0.759078	2.46881	-0.0497978	-3.09775	-2.50638	-1.04629	0.334921	-0.519487	-0.0708447	-0.18061	0.237779	-0.0355432	0	0	-0.523599	0.0547179	0.0973301	0.186303	-0.0820154	0	0	-1.32918	0.0132957	-0.0476165	0	0	0	0	0	0	0	0	0	0	0	0	0	0
0.769066	2.46938	-0.0491232	-3.0981	-2.5057	-1.04637	0.335382	-0.519706	-0.0709238	-0.179983	0.237484	-0.0351158	0	0	-0.523599	0.0548139	0.0970755	0.186625	-0.0811282	0	0	-1.32945	0.0134247	-0.0474721	0	0	0	0	0	0	0	0	0	0	0	0	0	0
0.779053	2.46987	-0.0482973	-3.0985	-2.50501	-1.04647	0.335856	-0.520029	-0.0708821	-0.179221	0.237181	-0.0346472	0	0	-0.523599	0.0547713	0.0965153	0.187172	-0.0800343	0	0	-1.32989	0.0135785	-0.0471881	0	0	0	0	0	0	0	0	0	0	0	0	0	0
0.789041	2.47023	-0.0473428	-3.09902	-2.5043	-1.04657	0.336339	-0.520457	-0.0707683	-0.178312	0.23693	-0.0341172	0	0	-0.523599	0.0546226	0.0956709	0.18801	-0.0787417	0	0	-1.33066	0.0137021	-0.046761	0	0	0	0	0	0	0	0	0	0	0	0	0	0
0.799029	2.47049	-0.0463124	-3.09962	-2.50357	-1.04669	0.336837	-0.520967	-0.0706283	-0.177266	0.236743	-0.0334878	0	0	-0.523599	0.0544044	0.094583	0.189094	-0.0772178	0	0	-1.33169	0.0137687	-0.0461955	0	0	0	0	0	0	0	0	0	0	0	0	0	0
0.809017	2.47071	-0.0452626	-3.10026	-2.50283	-1.04681	0.337354	-0.52152	-0.0704999	-0.176113	0.236638	-0.0327268	0	0	-0.523599	0.0541575	0.0933873	0.190346	-0.0754588	0	0	-1.33291	0.013776	-0.0455083	0	0	0	0	0	0	0	0	0	0	0	0	0	0
0.819005	2.47091	-0.0442591	-3.10088	-2.50206	-1.04694	0.337896	-0.522073	-0.0704219	-0.1749	0.236634	-0.0318003	0	0	-0.523599	0.053933	0.0922767	0.191682	-0.0734655	0	0	-1.33425	0.0137344	-0.0447301	0	0	0	0	0	0	0	0	0	0	0	0	0	0
0.828993	2.47113	-0.0433702	-3.10142	-2.50128	-1.04706	0.338471	-0.522589	-0.0704419	-0.173675	0.236773	-0.0306734	0	0	-0.523599	0.0537915	0.0914542	0.193048	-0.0712395	0	0	-1.33565	0.0136506	-0.0439052	0	0	0	0	0	0	0	0	0	0	0	0	0	0
0.838981	2.47141	-0.042669	-3.10183	-2.50046	-1.04718	0.339082	-0.523031	-0.0706139	-0.172473	0.2371	-0.029307	0	0	-0.523599	0.0538007	0.0910903	0.194404	-0.0687664	0	0	-1.337	0.013524	-0.0430849	0	0	0	0	0	0	0	0	0	0	0	0	0	0
0.848968	2.47176	-0.0422263	-3.10207	-2.49962	-1.04728	0.339733	-0.523367	-0.0709961	-0.17131	0.237662	-0.027665	0	0	-0.523599	0.0540315	0.0913135	0.195726	-0.0660265	0	0	-1.33813	0.0133432	-0.042321	0	0	0	0	0	0	0	0	0	0	0	0	0	0
0.858956	2.47215	-0.0420789	-3.10219	-2.49875	-1.04737	0.340419	-0.523557	-0.0716626	-0.170173	0.238579	-0.0257303	0	0	-0.523599	0.0545671	0.092266	0.197072	-0.0630609	0	0	-1.33922	0.0130591	-0.0416656	0	0	0	0	0	0	0	0	0	0	0	0	0	0
0.868944	2.4726	-0.0422806	-3.10221	-2.49785	-1.04743	0.341136	-0.523558	-0.0726816	-0.169031	0.239915	-0.0234778	0	0	-0.523599	0.0554846	0.0939911	0.198431	-0.0598547	0	0	-1.34018	0.0126248	-0.0411598	0	0	0	0	0	0	0	0	0	0	0	0	0	0
0.878932	2.47307	-0.042847	-3.10219	-2.49694	-1.04748	0.341878	-0.523325	-0.0741118	-0.167828	0.241782	-0.0209145	0	0	-0.523599	0.0568466	0.0965183	0.199858	-0.0564495	0	0	-1.34115	0.0119807	-0.0408355	0	0	0	0	0	0	0	0	0	0	0	0	0	0
0.88892	2.47362	-0.0438072	-3.10215	-2.496	-1.04749	0.342643	-0.522806	-0.0759808	-0.166499	0.244208	-0.0180426	0	0	-0.523599	0.0586843	0.0997529	0.2013	-0.0528137	0	0	-1.34187	0.0110996	-0.0407112	0	0	0	0	0	0	0	0	0	0	0	0	0	0
0.898908	2.47424	-0.0451481	-3.10211	-2.49502	-1.04747	0.34343	-0.521948	-0.0782982	-0.164968	0.247268	-0.0149007	0	0	-0.523599	0.0610056	0.103599	0.20275	-0.0489805	0	0	-1.34234	0.0099556	-0.0407992	0	0	0	0	0	0	0	0	0	0	0	0	0	0
0.908896	2.47489	-0.046833	-3.10218	-2.49402	-1.04742	0.344234	-0.520689	-0.0810757	-0.163139	0.251086	-0.0115501	0	0	-0.523599	0.0638165	0.107982	0.204253	-0.045036	0	0	-1.34281	0.00850675	-0.0411084	0	0	0	0	0	0	0	0	0	0	0	0	0	0
0.918883	2.47557	-0.048836	-3.10241	-2.49299	-1.04734	0.345053	-0.518962	-0.0843108	-0.160916	0.255774	-0.00806111	0	0	-0.523599	0.0671055	0.11278	0.205811	-0.0410502	0	0	-1.34331	0.00672895	-0.0416412	0	0	0	0	0	0	0	0	0	0	0	0	0	0
0.928871	2.4763	-0.0511339	-3.10279	-2.49194	-1.04723	0.345894	-0.51669	-0.0879711	-0.158206	0.261421	-0.00452144	0	0	-0.523599	0.070828	0.117822	0.207376	-0.0370828	0	0	-1.34368	0.00463566	-0.0423965	0	0	0	0	0	0	0	0	0	0	0	0	0	0
0.938859	2.47709	-0.0536726	-3.10334	-2.49087	-1.04709	0.346754	-0.513794	-0.0920081	-0.154927	0.268154	-0.00104972	0	0	-0.523599	0.0749229	0.122973	0.208933	-0.0332428	0	0	-1.34401	0.00225139	-0.0433778	0	0	0	0	0	0	0	0	0	0	0	0	0	0
0.948847	2.47793	-0.0564054	-3.10404	-2.48977	-1.04694	0.347637	-0.510189	-0.0963567	-0.151018	0.276092	0.00222945	0	0	-0.523599	0.0793139	0.128089	0.210436	-0.0296012	0	0	-1.34423	-0.000374111	-0.0445883	0	0	0	0	0	0	0	0	0	0	0	0	0	0
0.958835	2.47883	-0.0592578	-3.10487	-2.48866	-1.04676	0.348538	-0.505799	-0.100934	-0.146438	0.285377	0.00516925	0	0	-0.523599	0.0839111	0.133083	0.211881	-0.0262473	0	0	-1.34445	-0.00317693	-0.0460351	0	0	0	0	0	0	0	0	0	0	0	0	0	0
0.968823	2.47972	-0.0621362	-3.10586	-2.48755	-1.04658	0.349455	-0.500562	-0.105653	-0.141167	0.296163	0.00760967	0	0	-0.523599	0.0886287	0.137933	0.213316	-0.0232771	0	0	-1.34502	-0.00609535	-0.04773	0	0	0	0	0	0	0	0	0	0	0	0	0	0
0.978811	2.48058	-0.064958	-3.10697	-2.48646	-1.04641	0.350383	-0.49441	-0.110416	-0.135223	0.308591	0.00940316	0	0	-0.523599	0.0933705	0.142618	0.214757	-0.0207225	0	0	-1.34609	-0.00904567	-0.0496771	0	0	0	0	0	0	0	0	0	0	0	0	0	0
0.988799	2.48141	-0.0676445	-3.10814	-2.48538	-1.04625	0.351325	-0.487269	-0.1151	-0.128672	0.322777	0.010417	0	0	-0.523599	0.0980164	0.147096	0.216178	-0.0185565	0	0	-1.34764	-0.0119095	-0.0518697	0	0	0	0	0	0	0	0	0	0	0	0	0	0
0.998786	2.48227	-0.0701198	-3.10924	-2.48429	-1.0461	0.352287	-0.479066	-0.119564	-0.121636	0.338806	0.0105386	0	0	-0.523599	0.102425	0.151307	0.217516	-0.0167	0	0	-1.34946	-0.0145373	-0.0542896	0	0	0	0	0	0	0	0	0	0	0	0	0	0
1.00877	2.48316	-0.0723024	-3.11018	-2.48319	-1.04599	0.353272	-0.469766	-0.123666	-0.114258	0.356701	0.00966792	0	0	-0.523599	0.106462	0.155216	0.218755	-0.0150794	0	0	-1.35144	-0.016785	-0.0569185	0	0	0	0	0	0	0	0	0	0	0	0	0	0
1.01876	2.48411	-0.074126	-3.11086	-2.48205	-1.0459	0.354281	-0.459366	-0.127282	-0.106694	0.376427	0.00773702	0	0	-0.523599	0.110015	0.158805	0.219902	-0.0136118	0	0	-1.35349	-0.0185337	-0.0597366	0	0	0	0	0	0	0	0	0	0	0	0	0	0
1.02875	2.48512	-0.0755447	-3.11122	-2.48087	-1.04585	0.355314	-0.447898	-0.13031	-0.0991086	0.397866	0.00471504	0	0	-0.523599	0.113	0.162065	0.22098	-0.012214	0	0	-1.35554	-0.0196956	-0.0627222	0	0	0	0	0	0	0	0	0	0	0	0	0	0
1.03874	2.48618	-0.0765351	-3.11123	-2.47964	-1.04584	0.356366	-0.43544	-0.132677	-0.0916628	0.420796	0.000604076	0	0	-0.523599	0.115365	0.165007	0.222038	-0.0108195	0	0	-1.35753	-0.0202272	-0.0658545	0	0	0	0	0	0	0	0	0	0	0	0	0	0
1.04873	2.48737	-0.0771017	-3.11079	-2.47832	-1.04586	0.357438	-0.422008	-0.134323	-0.084584	0.444967	-0.00452071	0	0	-0.523599	0.117052	0.167586	0.222985	-0.00930068	0	0	-1.35909	-0.0200821	-0.069095	0	0	0	0	0	0	0	0	0	0	0	0	0	0
1.05871	2.48866	-0.0772415	-3.10994	-2.47691	-1.04592	0.358522	-0.407793	-0.135212	-0.0780137	0.469863	-0.0105895	0	0	-0.523599	0.11806	0.169814	0.223875	-0.00764197	0	0	-1.36042	-0.0192828	-0.0724351	0	0	0	0	0	0	0	0	0	0	0	0	0	0
1.0687	2.49001	-0.0769962	-3.10877	-2.47542	-1.04601	0.359603	-0.393041	-0.135367	-0.0720263	0.494832	-0.0175051	0	0	-0.523599	0.118467	0.171746	0.224803	-0.00584448	0	0	-1.36175	-0.017944	-0.0758735	0	0	0	0	0	0	0	0	0	0	0	0	0	0
1.07869	2.49142	-0.0764257	-3.10736	-2.47383	-1.04614	0.360668	-0.377942	-0.134836	-0.0667285	0.519214	-0.0250934	0	0	-0.523599	0.118349	0.1734	0.225763	-0.00386881	0	0	-1.36308	-0.0161883	-0.0793903	0	0	0	0	0	0	0	0	0	0	0	0	0	0
1.08868	2.49304	-0.0755725	-3.10569	-2.47212	-1.0463	0.361712	-0.362525	-0.133669	-0.0623871	0.54246	-0.0330581	0	0	-0.523599	0.117711	0.174689	0.226525	-0.00158495	0	0	-1.36401	-0.014058	-0.0829343	0	0	0	0	0	0	0	0	0	0	0	0	0	0
1.09867	2.49499	-0.0744702	-3.10374	-2.47023	-1.04646	0.362735	-0.346896	-0.131895	-0.059225	0.563936	-0.0411068	0	0	-0.523599	0.116548	0.175533	0.226935	0.00109208	0	0	-1.36421	-0.0115803	-0.0864546	0	0	0	0	0	0	0	0	0	0	0	0	0	0
1.10865	2.49719	-0.0731582	-3.10161	-2.46819	-1.04665	0.363708	-0.331399	-0.129571	-0.0572632	0.582756	-0.0490612	0	0	-0.523599	0.114951	0.175971	0.227101	0.00413013	0	0	-1.36393	-0.00886351	-0.0899368	0	0	0	0	0	0	0	0	0	0	0	0	0	0
1.11864	2.49954	-0.0717227	-3.09941	-2.466	-1.04685	0.364598	-0.316442	-0.126807	-0.0563801	0.598034	-0.0568791	0	0	-0.523599	0.113103	0.17615	0.227245	0.00746914	0	0	-1.36357	-0.00609564	-0.0933825	0	0	0	0	0	0	0	0	0	0	0	0	0	0
1.12863	2.50196	-0.0702742	-3.09727	-2.46368	-1.04707	0.365392	-0.302337	-0.123753	-0.0564614	0.609085	-0.0646161	0	0	-0.523599	0.111185	0.176237	0.227534	0.0110769	0	0	-1.36339	-0.00345611	-0.0967917	0	0	0	0	0	0	0	0	0	0	0	0	0	0
1.13862	2.5044	-0.0689251	-3.09526	-2.46122	-1.0473	0.366084	-0.289299	-0.120574	-0.057404	0.615454	-0.0723946	0	0	-0.523599	0.109364	0.176392	0.228081	0.0149297	0	0	-1.36351	-0.00108753	-0.100168	0	0	0	0	0	0	0	0	0	0	0	0	0	0
1.1486	2.50692	-0.0677656	-3.09338	-2.45863	-1.04752	0.366672	-0.277316	-0.117455	-0.0592231	0.61706	-0.0802882	0	0	-0.523599	0.107741	0.176697	0.228794	0.0190689	0	0	-1.36373	0.000958463	-0.10351	0	0	0	0	0	0	0	0	0	0	0	0	0	0
1.15859	2.50963	-0.0668623	-3.09159	-2.45585	-1.0477	0.367165	-0.266254	-0.114549	-0.0619436	0.614075	-0.0883156	0	0	-0.523599	0.106361	0.177168	0.229502	0.0235423	0	0	-1.3637	0.00269946	-0.106818	0	0	0	0	0	0	0	0	0	0	0	0	0	0
1.16858	2.5126	-0.0662708	-3.08986	-2.45289	-1.04783	0.36757	-0.256014	-0.111965	-0.0654736	0.60675	-0.0964563	0	0	-0.523598	0.105263	0.17783	0.230123	0.0283371	0	0	-1.36321	0.00415404	-0.110108	0	0	0	0	0	0	0	0	0	0	0	0	0	0
1.17857	2.51579	-0.0660504	-3.08818	-2.44974	-1.04789	0.367896	-0.246559	-0.109786	-0.0695953	0.595365	-0.104645	0	0	-0.523598	0.10451	0.178741	0.230682	0.0333843	0	0	-1.36226	0.00530648	-0.113408	0	0	0	0	0	0	0	0	0	0	0	0	0	0
1.18856	2.51915	-0.0662647	-3.08659	-2.44642	-1.04787	0.368149	-0.237893	-0.108071	-0.0740083	0.58022	-0.112775	0	0	-0.523598	0.10419	0.179999	0.231293	0.0385789	0	0	-1.36101	0.00610617	-0.116746	0	0	0	0	0	0	0	0	0	0	0	0	0	0
1.19854	2.52269	-0.0669586	-3.08508	-2.44291	-1.04776	0.368337	-0.229897	-0.106881	-0.0785027	0.561799	-0.120656	0	0	-0.523598	0.104348	0.181661	0.231953	0.0438728	0	0	-1.35943	0.00653966	-0.120134	0	0	0	0	0	0	0	0	0	0	0	0	0	0
1.20853	2.52646	-0.0681443	-3.0836	-2.43922	-1.04755	0.368477	-0.222346	-0.106257	-0.0830003	0.540728	-0.128048	0	0	-0.523598	0.104966	0.183716	0.232557	0.0492713	0	0	-1.3573	0.00665931	-0.123562	0	0	0	0	0	0	0	0	0	0	0	0	0	0
1.21852	2.53048	-0.0698128	-3.08212	-2.43533	-1.04723	0.368583	-0.215084	-0.106212	-0.0874495	0.517579	-0.134743	0	0	-0.523599	0.106006	0.186144	0.233079	0.0547633	0	0	-1.35455	0.00652568	-0.127016	0	0	0	0	0	0	0	0	0	0	0	0	0	0
1.22851	2.5347	-0.0719543	-3.08062	-2.43126	-1.0468	0.368663	-0.208057	-0.106749	-0.091785	0.492822	-0.140612	0	0	-0.523599	0.10745	0.188959	0.233608	0.0603132	0	0	-1.35131	0.00616903	-0.130491	0	0	0	0	0	0	0	0	0	0	0	0	0	0
1.2385	2.53902	-0.0745516	-3.07911	-2.42702	-1.04627	0.368707	-0.201302	-0.107867	-0.0959102	0.466821	-0.145608	0	0	-0.523599	0.109309	0.192205	0.234328	0.0658607	0	0	-1.34788	0.00558463	-0.133984	0	0	0	0	0	0	0	0	0	0	0	0	0	0
1.24848	2.54337	-0.0775769	-3.07759	-2.42263	-1.04565	0.368706	-0.19481	-0.109553	-0.0997738	0.439977	-0.149729	0	0	-0.5236	0.111565	0.195911	0.235369	0.0713904	0	0	-1.34442	0.00478662	-0.137481	0	0	0	0	0	0	0	0	0	0	0	0	0	0
1.25847	2.54773	-0.0809772	-3.07601	-2.4181	-1.04493	0.368658	-0.188523	-0.111762	-0.103379	0.412723	-0.153009	0	0	-0.5236	0.11415	0.200066	0.236782	0.0769368	0	0	-1.34097	0.00383586	-0.140958	0	0	0	0	0	0	0	0	0	0	0	0	0	0
1.26846	2.55202	-0.0846875	-3.07435	-2.41343	-1.04413	0.368562	-0.182502	-0.114406	-0.106668	0.38535	-0.155547	0	0	-0.523601	0.116997	0.204671	0.238736	0.0824897	0	0	-1.33774	0.00277852	-0.144396	0	0	0	0	0	0	0	0	0	0	0	0	0	0
1.27845	2.55626	-0.0886179	-3.07254	-2.40861	-1.04326	0.36842	-0.176646	-0.1174	-0.109691	0.358279	-0.157439	0	0	-0.523602	0.119979	0.209653	0.241179	0.088111	0	0	-1.33464	0.00171603	-0.147759	0	0	0	0	0	0	0	0	0	0	0	0	0	0
1.28843	2.56051	-0.0926498	-3.07049	-2.40364	-1.04231	0.368233	-0.17084	-0.120624	-0.112532	0.331929	-0.158788	0	0	-0.523603	0.122923	0.214874	0.244009	0.0938628	0	0	-1.33145	0.000791931	-0.150999	0	0	0	0	0	0	0	0	0	0	0	0	0	0
1.29842	2.56476	-0.096663	-3.06812	-2.39851	-1.0413	0.367997	-0.165073	-0.123946	-0.115228	0.306604	-0.159714	0	0	-0.523605	0.125678	0.22019	0.247227	0.0997711	0	0	-1.32814	0.000122239	-0.154081	0	0	0	0	0	0	0	0	0	0	0	0	0	0
1.30841	2.56892	-0.10056	-3.06546	-2.39323	-1.04024	0.367706	-0.159457	-0.127248	-0.117738	0.282477	-0.160345	0	0	-0.523606	0.12815	0.225502	0.250973	0.105834	0	0	-1.32488	-0.000247404	-0.156981	0	0	0	0	0	0	0	0	0	0	0	0	0	0
1.3184	2.57296	-0.10426	-3.06251	-2.3878	-1.03914	0.367354	-0.154058	-0.130432	-0.120036	0.259753	-0.160785	0	0	-0.523607	0.130263	0.230714	0.255328	0.112101	0	0	-1.32174	-0.000292044	-0.159668	0	0	0	0	0	0	0	0	0	0	0	0	0	0
1.32839	2.57685	-0.10768	-3.05927	-2.38222	-1.038	0.366942	-0.148895	-0.133406	-0.122141	0.238669	-0.161109	0	0	-0.523608	0.131928	0.235706	0.260308	0.118654	0	0	-1.31865	2.32893e-05	-0.1621	0	0	0	0	0	0	0	0	0	0	0	0	0	0
1.33837	2.5805	-0.110749	-3.05583	-2.3765	-1.03683	0.366464	-0.144112	-0.136071	-0.124042	0.219349	-0.161386	0	0	-0.523608	0.133102	0.240391	0.266082	0.125524	0	0	-1.3158	0.000682485	-0.164247	0	0	0	0	0	0	0	0	0	0	0	0	0	0
1.34836	2.58392	-0.113406	-3.05222	-2.37062	-1.03566	0.365922	-0.139697	-0.138359	-0.125815	0.202029	-0.161651	0	0	-0.523608	0.13372	0.244664	0.27262	0.132818	0	0	-1.31308	0.00168999	-0.166064	0	0	0	0	0	0	0	0	0	0	0	0	0	0
1.35835	2.58715	-0.115593	-3.04843	-2.36458	-1.03447	0.365316	-0.135615	-0.140203	-0.127571	0.186957	-0.161926	0	0	-0.523605	0.133703	0.248385	0.279852	0.140637	0	0	-1.31032	0.0030692	-0.167502	0	0	0	0	0	0	0	0	0	0	0	0	0	0
1.36834	2.59024	-0.11727	-3.04448	-2.35834	-1.03328	0.364651	-0.131808	-0.141546	-0.129412	0.174372	-0.162232	0	0	-0.5236	0.132974	0.251422	0.287677	0.149062	0	0	-1.30727	0.00484456	-0.168522	0	0	0	0	0	0	0	0	0	0	0	0	0	0
1.37833	2.59317	-0.118432	-3.04039	-2.35191	-1.03211	0.363925	-0.128331	-0.142347	-0.131372	0.164372	-0.162596	0	0	-0.523592	0.13152	0.253739	0.296132	0.158062	0	0	-1.30396	0.0069922	-0.169116	0	0	0	0	0	0	0	0	0	0	0	0	0	0
1.38831	2.59586	-0.119124	-3.03625	-2.34531	-1.03095	0.363131	-0.125346	-0.142595	-0.133387	0.156898	-0.163069	0	0	-0.523581	0.129426	0.255486	0.305399	0.167489	0	0	-1.30067	0.00942061	-0.169317	0	0	0	0	0	0	0	0	0	0	0	0	0	0
1.3983	2.59821	-0.11943	-3.0321	-2.33855	-1.02983	0.36226	-0.122999	-0.142319	-0.13536	0.151851	-0.163726	0	0	-0.523566	0.126818	0.25691	0.315638	0.177154	0	0	-1.29766	0.0120232	-0.169173	0	0	0	0	0	0	0	0	0	0	0	0	0	0
1.40829	2.60025	-0.119418	-3.02796	-2.33164	-1.02874	0.361313	-0.121318	-0.141548	-0.137255	0.149174	-0.16465	0	0	-0.523546	0.123766	0.258194	0.326852	0.186881	0	0	-1.29495	0.0147511	-0.168735	0	0	0	0	0	0	0	0	0	0	0	0	0	0
1.41828	2.60201	-0.119114	-3.02378	-2.32456	-1.02769	0.360295	-0.120245	-0.140278	-0.139116	0.148837	-0.165948	0	0	-0.523521	0.120265	0.259388	0.338949	0.196521	0	0	-1.2924	0.0176242	-0.168045	0	0	0	0	0	0	0	0	0	0	0	0	0	0
1.42826	2.60358	-0.11849	-3.01953	-2.3173	-1.0267	0.359209	-0.119671	-0.138467	-0.141058	0.150809	-0.16773	0	0	-0.523492	0.116246	0.260434	0.351798	0.20596	0	0	-1.28972	0.0207175	-0.167125	0	0	0	0	0	0	0	0	0	0	0	0	0	0
1.43825	2.60481	-0.117506	-3.01525	-2.30987	-1.02576	0.35805	-0.119742	-0.136023	-0.143145	0.154815	-0.170098	0	0	-0.52346	0.11169	0.261253	0.365649	0.214989	0	0	-1.28719	0.0240324	-0.166004	0	0	0	0	0	0	0	0	0	0	0	0	0	0
1.44824	2.60546	-0.116143	-3.01106	-2.3023	-1.02489	0.356808	-0.120701	-0.132875	-0.145353	0.160447	-0.173141	0	0	-0.523426	0.106641	0.261804	0.380917	0.223386	0	0	-1.28525	0.0275008	-0.164692	0	0	0	0	0	0	0	0	0	0	0	0	0	0
1.45823	2.6054	-0.114321	-3.00703	-2.29458	-1.02409	0.355477	-0.122649	-0.128927	-0.147724	0.167372	-0.17689	0	0	-0.523396	0.101056	0.261971	0.397817	0.230967	0	0	-1.28407	0.0311352	-0.163156	0	0	0	0	0	0	0	0	0	0	0	0	0	0
1.46822	2.60452	-0.111918	-3.0032	-2.28674	-1.02338	0.354059	-0.12564	-0.124052	-0.150321	0.175277	-0.181296	0	0	-0.523374	0.0948131	0.261565	0.416492	0.237519	0	0	-1.28372	0.0350198	-0.16133	0	0	0	0	0	0	0	0	0	0	0	0	0	0
1.4782	2.60275	-0.108782	-2.99955	-2.27875	-1.02275	0.352565	-0.129669	-0.118112	-0.153203	0.18391	-0.186184	0	0	-0.523368	0.087732	0.260359	0.436984	0.242802	0	0	-1.28414	0.0392962	-0.159129	0	0	0	0	0	0	0	0	0	0	0	0	0	0
1.48819	2.59999	-0.104779	-2.99606	-2.27062	-1.0222	0.351008	-0.134779	-0.11097	-0.156343	0.193029	-0.191222	0	0	-0.523386	0.0796293	0.258137	0.459356	0.246508	0	0	-1.28531	0.0441057	-0.156459	0	0	0	0	0	0	0	0	0	0	0	0	0	0
1.49818	2.59612	-0.0998197	-2.99274	-2.26236	-1.02173	0.349405	-0.141077	-0.102522	-0.159625	0.202404	-0.195972	0	0	-0.523442	0.0703641	0.254741	0.483712	0.248271	0	0	-1.28728	0.0495493	-0.153234	0	0	0	0	0	0	0	0	0	0	0	0	0	0
1.50817	2.59101	-0.0938768	-2.98956	-2.25398	-1.02134	0.34777	-0.148732	-0.0927181	-0.162893	0.211821	-0.199995	0	0	-0.523549	0.0598545	0.250081	0.510176	0.24767	0	0	-1.29017	0.0556711	-0.149376	0	0	0	0	0	0	0	0	0	0	0	0	0	0
1.51816	2.58449	-0.0869961	-2.98654	-2.2455	-1.02101	0.346117	-0.157995	-0.0815692	-0.165989	0.221034	-0.202937	0	0	-0.523723	0.0480864	0.244141	0.538918	0.24423	0	0	-1.29421	0.0624458	-0.144822	0	0	0	0	0	0	0	0	0	0	0	0	0	0
1.52814	2.57653	-0.0792141	-2.98364	-2.23693	-1.02075	0.34447	-0.168964	-0.0691107	-0.168901	0.229942	-0.204495	0	0	-0.523979	0.0349984	0.236917	0.56985	0.237484	0	0	-1.29933	0.0698959	-0.139508	0	0	0	0	0	0	0	0	0	0	0	0	0	0
1.53813	2.56721	-0.0705106	-2.98076	-2.22824	-1.02053	0.342855	-0.181545	-0.0553625	-0.171817	0.238593	-0.2044	0	0	-0.524333	0.0204309	0.22839	0.60258	0.226992	0	0	-1.30511	0.0781491	-0.133376	0	0	0	0	0	0	0	0	0	0	0	0	0	0
1.54812	2.55663	-0.0608953	-2.97775	-2.21941	-1.02035	0.341296	-0.195679	-0.0403615	-0.174953	0.247	-0.202465	0	0	-0.524796	0.00422567	0.218547	0.636693	0.212328	0	0	-1.31119	0.0873318	-0.126377	0	0	0	0	0	0	0	0	0	0	0	0	0	0
1.55811	2.54479	-0.0504858	-2.9745	-2.21047	-1.02021	0.339808	-0.211452	-0.0242139	-0.178453	0.255023	-0.198621	0	0	-0.525371	-0.0136693	0.207426	0.671903	0.193124	0	0	-1.31757	0.0974632	-0.118493	0	0	0	0	0	0	0	0	0	0	0	0	0	0
1.56809	2.53163	-0.0395178	-2.97092	-2.20144	-1.02011	0.338403	-0.229047	-0.00712168	-0.182356	0.262425	-0.19292	0	0	-0.52605	-0.0331531	0.195139	0.708017	0.169155	0	0	-1.3245	0.108428	-0.109748	0	0	0	0	0	0	0	0	0	0	0	0	0	0
1.57808	2.51723	-0.0282384	-2.96693	-2.19236	-1.02006	0.337086	-0.248462	0.0106633	-0.186711	0.269085	-0.185507	0	0	-0.526808	-0.0540775	0.181843	0.744606	0.140429	0	0	-1.33202	0.120107	-0.100217	0	0	0	0	0	0	0	0	0	0	0	0	0	0
1.58807	2.50169	-0.0169157	-2.96248	-2.18326	-1.02004	0.335865	-0.26964	0.0288662	-0.191537	0.274909	-0.176612	0	0	-0.527595	-0.0762477	0.167676	0.781199	0.107186	0	0	-1.34021	0.132342	-0.0900014	0	0	0	0	0	0	0	0	0	0	0	0	0	0
1.59806	2.48517	-0.00589891	-2.95753	-2.17417	-1.02008	0.334741	-0.292465	0.0471251	-0.196744	0.279805	-0.166534	0	0	-0.528327	-0.0993203	0.152838	0.817267	0.0699942	0	0	-1.34912	0.144869	-0.0792448	0	0	0	0	0	0	0	0	0	0	0	0	0	0
1.60805	2.46802	0.00456068	-2.95212	-2.1651	-1.02016	0.333713	-0.31654	0.0651106	-0.202271	0.28386	-0.155576	0	0	-0.528884	-0.122941	0.137551	0.852024	0.0297492	0	0	-1.35847	0.157487	-0.0681288	0	0	0	0	0	0	0	0	0	0	0	0	0	0
1.61803	2.45062	0.0142431	-2.9463	-2.15607	-1.02028	0.332773	-0.341415	0.0825127	-0.208005	0.287158	-0.144032	0	0	-0.529096	-0.14672	0.121987	0.884676	-0.0123761	0	0	-1.36797	0.169968	-0.0568393	0	0	0	0	0	0	0	0	0	0	0	0	0	0
1.62802	2.43336	0.0229413	-2.94022	-2.14709	-1.02045	0.331909	-0.366622	0.099012	-0.213768	0.289786	-0.132182	0	0	-0.528742	-0.170147	0.10636	0.91441	-0.0551466	0	0	-1.37738	0.182036	-0.0455696	0	0	0	0	0	0	0	0	0	0	0	0	0	0
1.63801	2.4167	0.0305152	-2.93406	-2.13817	-1.02068	0.331106	-0.391629	0.114332	-0.219337	0.291829	-0.120277	0	0	-0.527546	-0.192706	0.0908024	0.940448	-0.0972089	0	0	-1.38644	0.193392	-0.0345051	0	0	0	0	0	0	0	0	0	0	0	0	0	0
1.648	2.40113	0.0369321	-2.92808	-2.12932	-1.02096	0.330343	-0.41582	0.128268	-0.224475	0.293399	-0.108535	0	0	-0.52518	-0.213909	0.0753995	0.962048	-0.137235	0	0	-1.39481	0.203768	-0.0238138	0	0	0	0	0	0	0	0	0	0	0	0	0	0
1.65799	2.38718	0.0422697	-2.92252	-2.12054	-1.02129	0.329594	-0.438528	0.140703	-0.228949	0.294637	-0.0971341	0	0	-0.521278	-0.233321	0.0602253	0.978569	-0.174082	0	0	-1.40213	0.21294	-0.0136362	0	0	0	0	0	0	0	0	0	0	0	0	0	0
1.66797	2.37533	0.0466586	-2.91762	-2.11182	-1.02166	0.32883	-0.459144	0.151587	-0.232513	0.295658	-0.0862223	0	0	-0.515456	-0.250575	0.0453222	0.989626	-0.2069	0	0	-1.40813	0.220716	-0.00406327	0	0	0	0	0	0	0	0	0	0	0	0	0	0
1.67796	2.36596	0.050273	-2.91363	-2.10317	-1.02207	0.328022	-0.477161	0.160941	-0.234917	0.296574	-0.0759089	0	0	-0.507356	-0.265407	0.0307089	0.995185	-0.235122	0	0	-1.41265	0.226941	0.00485752	0	0	0	0	0	0	0	0	0	0	0	0	0	0
1.68795	2.35931	0.0533107	-2.91071	-2.09459	-1.0225	0.327138	-0.492226	0.168847	-0.235914	0.297506	-0.0662545	0	0	-0.4967	-0.27768	0.0163828	0.995566	-0.25838	0	0	-1.41564	0.231514	0.0131127	0	0	0	0	0	0	0	0	0	0	0	0	0	0
1.69794	2.35537	0.0559403	-2.90905	-2.08608	-1.02295	0.326146	-0.504278	0.175422	-0.23524	0.298619	-0.0572875	0	0	-0.48337	-0.287311	0.00243724	0.991474	-0.276325	0	0	-1.41719	0.234357	0.0207042	0	0	0	0	0	0	0	0	0	0	0	0	0	0
1.70792	2.35394	0.0582917	-2.90878	-2.07762	-1.02341	0.325014	-0.513515	0.180796	-0.232609	0.300072	-0.0490124	0	0	-0.467396	-0.294326	-0.0110319	0.984151	-0.288317	0	0	-1.41752	0.23539	0.0276447	0	0	0	0	0	0	0	0	0	0	0	0	0	0
1.71791	2.35475	0.060493	-2.90991	-2.0692	-1.0239	0.323727	-0.520217	0.185163	-0.22789	0.302044	-0.0413605	0	0	-0.448967	-0.298829	-0.0238588	0.974374	-0.294329	0	0	-1.41683	0.234696	0.0339577	0	0	0	0	0	0	0	0	0	0	0	0	0	0
1.7279	2.35749	0.0626561	-2.91231	-2.06082	-1.02437	0.322287	-0.524767	0.188757	-0.22112	0.304672	-0.034201	0	0	-0.428403	-0.301002	-0.0358424	0.96251	-0.294846	0	0	-1.41529	0.232493	0.0396703	0	0	0	0	0	0	0	0	0	0	0	0	0	0
1.73789	2.36181	0.0648665	-2.91576	-2.05246	-1.02482	0.320711	-0.527579	0.191824	-0.212469	0.308002	-0.0273566	0	0	-0.406143	-0.301081	-0.0468047	0.948671	-0.290675	0	0	-1.41306	0.229063	0.0448494	0	0	0	0	0	0	0	0	0	0	0	0	0	0
1.74788	2.36727	0.0671677	-2.92002	-2.0441	-1.02523	0.319024	-0.529057	0.194601	-0.202219	0.311915	-0.020623	0	0	-0.38275	-0.299336	-0.0566119	0.932849	-0.282784	0	0	-1.41031	0.224703	0.0496071	0	0	0	0	0	0	0	0	0	0	0	0	0	0
1.75786	2.3735	0.0696052	-2.92485	-2.03572	-1.02556	0.31725	-0.529566	0.197291	-0.190675	0.316307	-0.0137844	0	0	-0.35873	-0.296081	-0.065169	0.914977	-0.272142	0	0	-1.40715	0.219693	0.0540887	0	0	0	0	0	0	0	0	0	0	0	0	0	0
1.76785	2.38022	0.0722243	-2.93003	-2.02732	-1.0258	0.315413	-0.529415	0.200055	-0.178148	0.321091	-0.00664453	0	0	-0.334518	-0.291649	-0.0724146	0.894969	-0.259647	0	0	-1.40365	0.214285	0.0584397	0	0	0	0	0	0	0	0	0	0	0	0	0	0
1.77784	2.38719	0.0750691	-2.9354	-2.01887	-1.02593	0.313537	-0.528855	0.203002	-0.16494	0.326194	0.000956216	0	0	-0.310477	-0.286363	-0.0783202	0.87276	-0.246082	0	0	-1.3998	0.208694	0.0627838	0	0	0	0	0	0	0	0	0	0	0	0	0	0
1.78783	2.39428	0.0781777	-2.94086	-2.01036	-1.02593	0.311642	-0.528079	0.206202	-0.151313	0.331552	0.00912687	0	0	-0.286903	-0.28051	-0.0828703	0.848303	-0.232115	0	0	-1.39557	0.20309	0.0672171	0	0	0	0	0	0	0	0	0	0	0	0	0	0
1.79782	2.40138	0.081574	-2.94633	-2.00177	-1.0258	0.309745	-0.527226	0.20968	-0.13746	0.337116	0.0179212	0	0	-0.264047	-0.274314	-0.0860444	0.821571	-0.218313	0	0	-1.39094	0.19759	0.0718035	0	0	0	0	0	0	0	0	0	0	0	0	0	0
1.8078	2.40843	0.0852596	-2.9518	-1.9931	-1.02554	0.307864	-0.526392	0.213429	-0.123513	0.342855	0.0273421	0	0	-0.242128	-0.267932	-0.0878062	0.792541	-0.20514	0	0	-1.38589	0.192263	0.0765754	0	0	0	0	0	0	0	0	0	0	0	0	0	0
1.81779	2.41541	0.0892174	-2.95727	-1.98435	-1.02514	0.306023	-0.525637	0.217417	-0.109546	0.34876	0.0373533	0	0	-0.221344	-0.261457	-0.0880983	0.761198	-0.192956	0	0	-1.38042	0.187149	0.081541	0	0	0	0	0	0	0	0	0	0	0	0	0	0
1.82778	2.42226	0.0934278	-2.96273	-1.97553	-1.0246	0.30424	-0.524992	0.221614	-0.0956007	0.354862	0.0478949	0	0	-0.201865	-0.254949	-0.0868447	0.727566	-0.182021	0	0	-1.37464	0.18228	0.0866976	0	0	0	0	0	0	0	0	0	0	0	0	0	0
1.83777	2.42896	0.0978748	-2.96815	-1.96667	-1.02393	0.302538	-0.52447	0.226007	-0.0816819	0.361235	0.058885	0	0	-0.183832	-0.248463	-0.0839534	0.691712	-0.172518	0	0	-1.36872	0.177706	0.0920475	0	0	0	0	0	0	0	0	0	0	0	0	0	0
1.84775	2.43547	0.102565	-2.97352	-1.95775	-1.02314	0.300939	-0.524067	0.230586	-0.0677837	0.367942	0.0702594	0	0	-0.167287	-0.242075	-0.0793989	0.653852	-0.164541	0	0	-1.36275	0.173495	0.0975705	0	0	0	0	0	0	0	0	0	0	0	0	0	0
1.85774	2.44172	0.107496	-2.97875	-1.94883	-1.02224	0.299467	-0.523773	0.235388	-0.0538603	0.375128	0.0818933	0	0	-0.152312	-0.235885	-0.0731518	0.614174	-0.158144	0	0	-1.3571	0.16973	0.103295	0	0	0	0	0	0	0	0	0	0	0	0	0	0
1.86773	2.44767	0.112708	-2.9838	-1.93989	-1.02121	0.298146	-0.523572	0.24045	-0.0398785	0.382868	0.0937123	0	0	-0.138833	-0.230058	-0.0653366	0.573098	-0.153268	0	0	-1.35196	0.16651	0.109222	0	0	0	0	0	0	0	0	0	0	0	0	0	0
1.87772	2.45337	0.118258	-2.98868	-1.93094	-1.02008	0.296996	-0.523446	0.245779	-0.0258218	0.391158	0.105685	0	0	-0.126648	-0.224805	-0.0562563	0.531247	-0.149749	0	0	-1.34732	0.163909	0.115324	0	0	0	0	0	0	0	0	0	0	0	0	0	0
1.88771	2.45882	0.124189	-2.99343	-1.92198	-1.01884	0.296041	-0.523379	0.251373	-0.0116513	0.400038	0.117762	0	0	-0.115564	-0.220331	-0.0462603	0.48929	-0.147385	0	0	-1.34324	0.161978	0.121591	0	0	0	0	0	0	0	0	0	0	0	0	0	0
1.89769	2.46411	0.130545	-2.99811	-1.91298	-1.01749	0.295296	-0.523354	0.257196	0.00265317	0.409479	0.129929	0	0	-0.105327	-0.216821	-0.0357596	0.447974	-0.145927	0	0	-1.33961	0.160733	0.127991	0	0	0	0	0	0	0	0	0	0	0	0	0	0
1.90768	2.46935	0.137361	-3.00287	-1.90392	-1.01604	0.294763	-0.523359	0.263155	0.017073	0.419379	0.14221	0	0	-0.0956434	-0.214419	-0.0252103	0.408111	-0.145115	0	0	-1.33619	0.160131	0.134465	0	0	0	0	0	0	0	0	0	0	0	0	0	0
1.91767	2.47462	0.144634	-3.00784	-1.89478	-1.0145	0.294443	-0.523382	0.26914	0.0315883	0.429691	0.154597	0	0	-0.0862881	-0.213198	-0.01499	0.37046	-0.144746	0	0	-1.33283	0.160092	0.140965	0	0	0	0	0	0	0	0	0	0	0	0	0	0
1.92766	2.47997	0.152331	-3.01312	-1.88553	-1.01287	0.294336	-0.523414	0.275042	0.0461803	0.440426	0.16705	0	0	-0.0771124	-0.213169	-0.00535768	0.33572	-0.144706	0	0	-1.32944	0.160522	0.147454	0	0	0	0	0	0	0	0	0	0	0	0	0	0
1.93765	2.48551	0.160406	-3.01884	-1.87616	-1.01118	0.294433	-0.523449	0.280708	0.0607682	0.451498	0.179547	0	0	-0.0679204	-0.214293	0.00339947	0.304616	-0.14496	0	0	-1.32577	0.161296	0.15385	0	0	0	0	0	0	0	0	0	0	0	0	0	0
1.94763	2.49129	0.168769	-3.0251	-1.86662	-1.00942	0.294722	-0.523483	0.285983	0.0752576	0.462905	0.192024	0	0	-0.058619	-0.216464	0.0110221	0.277756	-0.145612	0	0	-1.32168	0.162271	0.160083	0	0	0	0	0	0	0	0	0	0	0	0	0	0
1.95762	2.49727	0.177301	-3.03192	-1.85691	-1.00762	0.295191	-0.523512	0.290747	0.0895614	0.474738	0.204376	0	0	-0.0492171	-0.219538	0.0173037	0.255608	-0.146892	0	0	-1.3172	0.163328	0.166095	0	0	0	0	0	0	0	0	0	0	0	0	0	0
1.96761	2.50332	0.185854	-3.03919	-1.84701	-1.00578	0.295836	-0.523534	0.294946	0.103614	0.487223	0.216445	0	0	-0.0398606	-0.223345	0.0221384	0.23844	-0.149134	0	0	-1.31256	0.1644	0.171857	0	0	0	0	0	0	0	0	0	0	0	0	0	0
1.9776	2.50945	0.194296	-3.04689	-1.83691	-1.00393	0.29664	-0.523549	0.298467	0.117237	0.500358	0.228107	0	0	-0.0305719	-0.227717	0.0253045	0.22648	-0.152654	0	0	-1.30768	0.165392	0.177269	0	0	0	0	0	0	0	0	0	0	0	0	0	0
1.98758	2.51565	0.202468	-3.05498	-1.82658	-1.00208	0.297589	-0.523555	0.301152	0.130173	0.514129	0.239191	0	0	-0.021403	-0.232468	0.0265061	0.219806	-0.157783	0	0	-1.30248	0.166184	0.18222	0	0	0	0	0	0	0	0	0	0	0	0	0	0
1.99757	2.52187	0.210209	-3.06342	-1.81601	-1.00025	0.298663	-0.523552	0.302856	0.142151	0.52857	0.249459	0	0	-0.0124739	-0.237411	0.0254458	0.218302	-0.164841	0	0	-1.29694	0.166669	0.186606	0	0	0	0	0	0	0	0	0	0	0	0	0	0
2.00756	2.52799	0.217356	-3.0721	-1.80519	-0.998463	0.299847	-0.523542	0.303463	0.152919	0.543778	0.258594	0	0	-0.00398421	-0.24237	0.0218973	0.221639	-0.174097	0	0	-1.29114	0.166775	0.190349	0	0	0	0	0	0	0	0	0	0	0	0	0	0
2.01755	2.53384	0.223756	-3.08083	-1.79412	-0.996739	0.301131	-0.523524	0.302914	0.162286	0.559956	0.266182	0	0	0.00376546	-0.247174	0.0157663	0.229276	-0.185734	0	0	-1.28531	0.166471	0.193401	0	0	0	0	0	0	0	0	0	0	0	0	0	0
2.02754	2.53925	0.229266	-3.0895	-1.78283	-0.995108	0.3025	-0.523501	0.301114	0.170062	0.577197	0.271757	0	0	0.0105193	-0.251656	0.00702348	0.240566	-0.199768	0	0	-1.27956	0.165708	0.195691	0	0	0	0	0	0	0	0	0	0	0	0	0	0
2.03752	2.54415	0.233739	-3.09806	-1.77132	-0.9936	0.303937	-0.523475	0.297887	0.176029	0.595491	0.274783	0	0	0.016061	-0.255625	-0.00429195	0.254796	-0.215997	0	0	-1.27388	0.164371	0.197127	0	0	0	0	0	0	0	0	0	0	0	0	0	0
2.04751	2.5485	0.237012	-3.10658	-1.75959	-0.99225	0.305419	-0.523448	0.292946	0.179933	0.614707	0.274672	0	0	0.0202302	-0.25884	-0.0180639	0.271245	-0.233943	0	0	-1.26807	0.16225	0.197593	0	0	0	0	0	0	0	0	0	0	0	0	0	0
2.0575	2.55223	0.238911	-3.11518	-1.74765	-0.991095	0.30692	-0.523426	0.285973	0.181557	0.634786	0.270761	0	0	0.0228103	-0.261009	-0.033981	0.28918	-0.252831	0	0	-1.26204	0.15908	0.196997	0	0	0	0	0	0	0	0	0	0	0	0	0	0
2.06749	2.5552	0.239296	-3.12394	-1.73554	-0.990173	0.308415	-0.523413	0.276727	0.180771	0.655731	0.262375	0	0	0.0235622	-0.261819	-0.0514177	0.307926	-0.271599	0	0	-1.25578	0.154645	0.195271	0	0	0	0	0	0	0	0	0	0	0	0	0	0
2.07748	2.55737	0.238086	-3.13295	-1.72328	-0.989515	0.309874	-0.523419	0.265007	0.177505	0.677411	0.248885	0	0	0.0223707	-0.261	-0.0696486	0.326996	-0.289028	0	0	-1.24912	0.14877	0.192317	0	0	0	0	0	0	0	0	0	0	0	0	0	0
2.08746	2.55806	0.235201	-3.14174	-1.71099	-0.98915	0.311306	-0.523451	0.251127	0.171888	0.700535	0.229686	0	0	0.0184888	-0.258276	-0.0876558	0.345467	-0.304057	0	0	-1.24342	0.141536	0.188378	0	0	0	0	0	0	0	0	0	0	0	0	0	0
2.09745	2.55684	0.23076	-3.14982	-1.69878	-0.989091	0.312722	-0.523522	0.235653	0.164252	0.725375	0.204463	0	0	0.0115477	-0.253624	-0.104439	0.362712	-0.315823	0	0	-1.2396	0.133305	0.183594	0	0	0	0	0	0	0	0	0	0	0	0	0	0
2.10744	2.55347	0.224933	-3.15676	-1.68671	-0.989343	0.314129	-0.523645	0.219146	0.154942	0.751955	0.17313	0	0	0.00136194	-0.247114	-0.11922	0.378277	-0.323765	0	0	-1.23826	0.124467	0.178031	0	0	0	0	0	0	0	0	0	0	0	0	0	0
2.11743	2.54785	0.217898	-3.16229	-1.67483	-0.989902	0.315526	-0.523832	0.202055	0.144274	0.780048	0.13588	0	0	-0.0120962	-0.238881	-0.131589	0.391856	-0.327655	0	0	-1.23965	0.115341	0.171697	0	0	0	0	0	0	0	0	0	0	0	0	0	0
2.12742	2.53997	0.20985	-3.16628	-1.66317	-0.990756	0.316909	-0.524097	0.184748	0.132554	0.809315	0.093262	0	0	-0.0287829	-0.229103	-0.141358	0.403223	-0.327592	0	0	-1.24386	0.106194	0.164601	0	0	0	0	0	0	0	0	0	0	0	0	0	0
2.1374	2.52994	0.200999	-3.16873	-1.65176	-0.991889	0.318274	-0.524451	0.167516	0.120073	0.839297	0.0462359	0	0	-0.0485657	-0.217996	-0.148507	0.412245	-0.323918	0	0	-1.25077	0.097242	0.156757	0	0	0	0	0	0	0	0	0	0	0	0	0	0
2.14739	2.51803	0.191525	-3.16978	-1.64057	-0.993279	0.319613	-0.524899	0.150511	0.107043	0.869306	-0.00381058	0	0	-0.0711466	-0.20579	-0.153197	0.418932	-0.317088	0	0	-1.25991	0.088607	0.148165	0	0	0	0	0	0	0	0	0	0	0	0	0	0
2.15738	2.50447	0.181627	-3.16959	-1.62961	-0.994901	0.320926	-0.525439	0.133867	0.093617	0.898766	-0.0550733	0	0	-0.0962824	-0.192724	-0.155542	0.423302	-0.307666	0	0	-1.27096	0.0804095	0.138888	0	0	0	0	0	0	0	0	0	0	0	0	0	0
2.16737	2.48951	0.171526	-3.16834	-1.61886	-0.996729	0.32222	-0.526055	0.117719	0.0799006	0.927107	-0.105414	0	0	-0.123695	-0.179063	-0.155621	0.425433	-0.296271	0	0	-1.28357	0.0727913	0.129025	0	0	0	0	0	0	0	0	0	0	0	0	0	0
2.17735	2.47346	0.16144	-3.16623	-1.60829	-0.998733	0.323499	-0.526712	0.102185	0.0659599	0.953678	-0.152561	0	0	-0.153	-0.165082	-0.15353	0.42551	-0.283508	0	0	-1.29728	0.0658856	0.118683	0	0	0	0	0	0	0	0	0	0	0	0	0	0
2.18734	2.45659	0.151604	-3.16339	-1.59789	-1.00088	0.324774	-0.527353	0.0874403	0.0518543	0.977961	-0.19437	0	0	-0.183869	-0.151065	-0.149309	0.423693	-0.269943	0	0	-1.31183	0.0598627	0.108023	0	0	0	0	0	0	0	0	0	0	0	0	0	0
2.19733	2.43914	0.14225	-3.15991	-1.58766	-1.00315	0.326055	-0.527889	0.0737182	0.037663	0.999521	-0.229153	0	0	-0.215974	-0.137295	-0.142947	0.420145	-0.256063	0	0	-1.32706	0.0549241	0.0972333	0	0	0	0	0	0	0	0	0	0	0	0	0	0
2.20732	2.42148	0.133559	-3.1559	-1.57757	-1.0055	0.32736	-0.528192	0.0612211	0.0234951	1.01783	-0.255952	0	0	-0.248838	-0.124025	-0.134506	0.415134	-0.242242	0	0	-1.34261	0.0512161	0.0864795	0	0	0	0	0	0	0	0	0	0	0	0	0	0
2.21731	2.40398	0.125658	-3.15147	-1.56759	-1.00789	0.328699	-0.528093	0.0501053	0.00948906	1.03239	-0.274598	0	0	-0.281932	-0.111459	-0.124124	0.408952	-0.228752	0	0	-1.35805	0.0488192	0.0759169	0	0	0	0	0	0	0	0	0	0	0	0	0	0
2.22729	2.38711	0.118618	-3.14677	-1.55769	-1.0103	0.330077	-0.527376	0.0404615	-0.00420311	1.04276	-0.28554	0	0	-0.31467	-0.0997376	-0.112034	0.401922	-0.215773	0	0	-1.37288	0.0477348	0.065679	0	0	0	0	0	0	0	0	0	0	0	0	0	0
2.23728	2.37134	0.112456	-3.14196	-1.54784	-1.01268	0.331488	-0.525783	0.0322982	-0.0174371	1.04856	-0.28961	0	0	-0.346425	-0.0889441	-0.0985712	0.394375	-0.203395	0	0	-1.38656	0.0478831	0.055875	0	0	0	0	0	0	0	0	0	0	0	0	0	0
2.24727	2.35707	0.107148	-3.13719	-1.53801	-1.015	0.332918	-0.523015	0.0255798	-0.0300936	1.04964	-0.287865	0	0	-0.376655	-0.0791183	-0.0841288	0.38656	-0.191641	0	0	-1.39877	0.0491225	0.0466	0	0	0	0	0	0	0	0	0	0	0	0	0	0
2.25726	2.34469	0.102637	-3.1326	-1.52822	-1.01723	0.334353	-0.518754	0.0202146	-0.0421041	1.04596	-0.281434	0	0	-0.404867	-0.0702676	-0.0691268	0.378681	-0.180473	0	0	-1.4093	0.0512669	0.0379274	0	0	0	0	0	0	0	0	0	0	0	0	0	0
2.26725	2.33451	0.0988358	-3.12828	-1.51844	-1.01933	0.33577	-0.512685	0.0160459	-0.0534561	1.03763	-0.271424	0	0	-0.43062	-0.0623673	-0.0539811	0.370924	-0.169805	0	0	-1.41806	0.0540924	0.0299038	0	0	0	0	0	0	0	0	0	0	0	0	0	0
2.27723	2.32679	0.0956278	-3.12432	-1.5087	-1.02128	0.337144	-0.504544	0.0128427	-0.0641984	1.02479	-0.25887	0	0	-0.453523	-0.0553611	-0.0390819	0.363482	-0.159507	0	0	-1.42503	0.0573465	0.0225468	0	0	0	0	0	0	0	0	0	0	0	0	0	0
2.28722	2.3217	0.0928667	-3.12079	-1.49899	-1.02304	0.338453	-0.494174	0.0102939	-0.0744447	1.00761	-0.244701	0	0	-0.473266	-0.0491649	-0.0247873	0.356558	-0.149412	0	0	-1.43021	0.0607585	0.0158473	0	0	0	0	0	0	0	0	0	0	0	0	0	0
2.29721	2.31928	0.0903577	-3.11774	-1.48931	-1.02459	0.339669	-0.481608	0.00810512	-0.084309	0.986155	-0.229797	0	0	-0.48972	-0.0436303	-0.0113702	0.350387	-0.139359	0	0	-1.43367	0.064034	0.00977821	0	0	0	0	0	0	0	0	0	0	0	0	0	0
2.3072	2.31942	0.087862	-3.11515	-1.47966	-1.02592	0.340765	-0.467066	0.00600598	-0.0939457	0.960514	-0.214938	0	0	-0.502902	-0.0385574	0.00106472	0.345198	-0.129203	0	0	-1.43553	0.0669176	0.00422591	0	0	0	0	0	0	0	0	0	0	0	0	0	0
2.31718	2.32191	0.0851208	-3.11296	-1.47003	-1.02702	0.341715	-0.450885	0.00375856	-0.103531	0.930778	-0.200733	0	0	-0.51297	-0.0337084	0.012589	0.341181	-0.118826	0	0	-1.43591	0.0692027	-0.000995807	0	0	0	0	0	0	0	0	0	0	0	0	0	0
2.32717	2.32648	0.0818771	-3.11109	-1.46042	-1.02787	0.342498	-0.433492	0.0011727	-0.113237	0.897092	-0.187622	0	0	-0.520247	-0.0288204	0.0234516	0.338435	-0.108147	0	0	-1.43497	0.0707388	-0.00612018	0	0	0	0	0	0	0	0	0	0	0	0	0	0
2.33716	2.33273	0.0779035	-3.10945	-1.45079	-1.02846	0.343096	-0.415416	-0.0018753	-0.12318	0.859676	-0.175922	0	0	-0.525161	-0.0236174	0.0340436	0.336908	-0.0971225	0	0	-1.43288	0.0714251	-0.0113969	0	0	0	0	0	0	0	0	0	0	0	0	0	0
2.34715	2.34026	0.0730149	-3.10795	-1.44115	-1.0288	0.343502	-0.397141	-0.00550537	-0.133458	0.8188	-0.165799	0	0	-0.528175	-0.017867	0.0447481	0.3365	-0.0856993	0	0	-1.4298	0.0712073	-0.0170684	0	0	0	0	0	0	0	0	0	0	0	0	0	0
2.35714	2.34874	0.0670757	-3.10651	-1.43145	-1.02888	0.343716	-0.379072	-0.00981909	-0.144121	0.774798	-0.157299	0	0	-0.529736	-0.0113863	0.0558966	0.337092	-0.0738347	0	0	-1.42589	0.0700652	-0.0233408	0	0	0	0	0	0	0	0	0	0	0	0	0	0
2.36712	2.35788	0.0600014	-3.10508	-1.4217	-1.02871	0.343741	-0.361506	-0.0148963	-0.155157	0.728074	-0.150362	0	0	-0.530243	-0.00404035	0.0677342	0.338562	-0.0614999	0	0	-1.42125	0.0680016	-0.0303685	0	0	0	0	0	0	0	0	0	0	0	0	0	0
2.37711	2.36744	0.0517545	-3.10362	-1.41186	-1.02828	0.343587	-0.344631	-0.0207904	-0.166485	0.679106	-0.144847	0	0	-0.530038	0.00425956	0.0804154	0.340798	-0.0486863	0	0	-1.41596	0.0650332	-0.0382466	0	0	0	0	0	0	0	0	0	0	0	0	0	0
2.3871	2.37725	0.042345	-3.10213	-1.40193	-1.02761	0.343265	-0.328533	-0.0275249	-0.177953	0.628446	-0.140554	0	0	-0.529394	0.0135584	0.0940201	0.343699	-0.0354049	0	0	-1.41009	0.0611872	-0.047008	0	0	0	0	0	0	0	0	0	0	0	0	0	0
2.39709	2.38718	0.0318267	-3.10062	-1.39189	-1.02671	0.34279	-0.313231	-0.0350871	-0.189326	0.576704	-0.137255	0	0	-0.528521	0.0238598	0.108581	0.347204	-0.0216912	0	0	-1.40372	0.0564991	-0.0566239	0	0	0	0	0	0	0	0	0	0	0	0	0	0
2.40708	2.39714	0.0202959	-3.09911	-1.38175	-1.02558	0.342184	-0.298699	-0.0434242	-0.2003	0.524537	-0.134711	0	0	-0.527571	0.0351218	0.124084	0.351294	-0.00759828	0	0	-1.39698	0.0510164	-0.0670068	0	0	0	0	0	0	0	0	0	0	0	0	0	0
2.41706	2.40706	0.00789215	-3.09759	-1.37148	-1.02425	0.341466	-0.284829	-0.0524553	-0.210602	0.47272	-0.13265	0	0	-0.526647	0.0472246	0.140397	0.355931	0.006856	0	0	-1.38987	0.0448315	-0.0780203	0	0	0	0	0	0	0	0	0	0	0	0	0	0
2.42705	2.41696	-0.00520157	-3.09602	-1.36109	-1.02273	0.340658	-0.271456	-0.062066	-0.220002	0.422118	-0.130803	0	0	-0.525812	0.0599682	0.157277	0.361067	0.021682	0	0	-1.38226	0.0380929	-0.0894888	0	0	0	0	0	0	0	0	0	0	0	0	0	0
2.43704	2.42676	-0.0187679	-3.09437	-1.35057	-1.02105	0.339772	-0.258505	-0.0720908	-0.228203	0.373537	-0.128982	0	0	-0.525101	0.0731261	0.174496	0.366765	0.0368351	0	0	-1.37424	0.030965	-0.101208	0	0	0	0	0	0	0	0	0	0	0	0	0	0
2.44703	2.43636	-0.0325747	-3.09263	-1.33994	-1.01924	0.338819	-0.24602	-0.0823294	-0.234827	0.327671	-0.12711	0	0	-0.524523	0.0864822	0.191876	0.373228	0.0521938	0	0	-1.36619	0.0235947	-0.112958	0	0	0	0	0	0	0	0	0	0	0	0	0	0
2.45701	2.44564	-0.0463824	-3.09078	-1.32922	-1.01731	0.33781	-0.234034	-0.0925736	-0.239553	0.28524	-0.1252	0	0	-0.524076	0.0997831	0.209167	0.380626	0.0676506	0	0	-1.35838	0.0161526	-0.124529	0	0	0	0	0	0	0	0	0	0	0	0	0	0
2.467	2.45457	-0.0599425	-3.08875	-1.31842	-1.01532	0.336759	-0.222541	-0.102598	-0.242184	0.246978	-0.123352	0	0	-0.523746	0.11271	0.226029	0.389048	0.083105	0	0	-1.35088	0.00886231	-0.135717	0	0	0	0	0	0	0	0	0	0	0	0	0	0
2.47699	2.46314	-0.072995	-3.08643	-1.30751	-1.01328	0.335678	-0.211502	-0.112161	-0.242684	0.213601	-0.121738	0	0	-0.523516	0.124875	0.242029	0.398487	0.0984649	0	0	-1.34357	0.00200727	-0.146329	0	0	0	0	0	0	0	0	0	0	0	0	0	0
2.48698	2.47131	-0.0852731	-3.08369	-1.29649	-1.01124	0.334574	-0.200963	-0.120991	-0.241113	0.185659	-0.120608	0	0	-0.523366	0.135879	0.256731	0.409011	0.11357	0	0	-1.33644	-0.00412619	-0.156201	0	0	0	0	0	0	0	0	0	0	0	0	0	0
2.49697	2.47899	-0.0965244	-3.08047	-1.28534	-1.00921	0.333449	-0.191048	-0.128813	-0.237602	0.163507	-0.120267	0	0	-0.523279	0.145343	0.2697	0.420749	0.128197	0	0	-1.32954	-0.00928116	-0.165191	0	0	0	0	0	0	0	0	0	0	0	0	0	0
2.50695	2.48605	-0.106516	-3.0767	-1.27406	-1.00722	0.332305	-0.181944	-0.135355	-0.232355	0.147278	-0.121056	0	0	-0.523238	0.152905	0.280499	0.433879	0.142063	0	0	-1.32297	-0.013236	-0.173181	0	0	0	0	0	0	0	0	0	0	0	0	0	0
2.51694	2.49241	-0.115035	-3.07235	-1.26264	-1.0053	0.331152	-0.173817	-0.140358	-0.225681	0.13693	-0.123328	0	0	-0.523231	0.158179	0.288616	0.448501	0.154854	0	0	-1.31673	-0.0157712	-0.180051	0	0	0	0	0	0	0	0	0	0	0	0	0	0
2.52693	2.49791	-0.121871	-3.06742	-1.25106	-1.00346	0.329996	-0.16692	-0.143561	-0.217952	0.13214	-0.127425	0	0	-0.523247	0.160791	0.293527	0.464803	0.166163	0	0	-1.31093	-0.0167062	-0.185696	0	0	0	0	0	0	0	0	0	0	0	0	0	0
2.53692	2.5024	-0.12684	-3.0619	-1.23933	-1.00171	0.328851	-0.161479	-0.144721	-0.209619	0.132394	-0.133642	0	0	-0.523283	0.160362	0.294664	0.482912	0.175535	0	0	-1.30563	-0.0158817	-0.190006	0	0	0	0	0	0	0	0	0	0	0	0	0	0
2.54691	2.50563	-0.129765	-3.05588	-1.22747	-1.00006	0.327722	-0.157835	-0.143604	-0.201159	0.136902	-0.142174	0	0	-0.523335	0.156565	0.291516	0.503114	0.182395	0	0	-1.3012	-0.0132081	-0.192885	0	0	0	0	0	0	0	0	0	0	0	0	0	0
2.55689	2.50738	-0.130517	-3.04947	-1.2155	-0.998517	0.326613	-0.156278	-0.140029	-0.193051	0.14478	-0.153062	0	0	-0.523405	0.149118	0.283659	0.525642	0.186111	0	0	-1.29798	-0.00864441	-0.194231	0	0	0	0	0	0	0	0	0	0	0	0	0	0
2.56688	2.5075	-0.128995	-3.0427	-1.20342	-0.997094	0.32553	-0.156947	-0.133868	-0.1858	0.155194	-0.166105	0	0	-0.523496	0.137725	0.270747	0.55053	0.186035	0	0	-1.29611	-0.00213506	-0.193933	0	0	0	0	0	0	0	0	0	0	0	0	0	0
2.57687	2.50596	-0.125141	-3.03553	-1.19126	-0.995796	0.324486	-0.159833	-0.125046	-0.179878	0.167442	-0.180772	0	0	-0.523615	0.122107	0.252587	0.57762	0.181519	0	0	-1.29555	0.00639411	-0.191894	0	0	0	0	0	0	0	0	0	0	0	0	0	0
2.58686	2.50281	-0.118964	-3.02789	-1.179	-0.994634	0.323497	-0.164787	-0.113571	-0.175677	0.181016	-0.196132	0	0	-0.523767	0.102062	0.229223	0.60656	0.171938	0	0	-1.29604	0.0170139	-0.188052	0	0	0	0	0	0	0	0	0	0	0	0	0	0
2.59684	2.49815	-0.110592	-3.01966	-1.16665	-0.993619	0.322585	-0.171615	-0.0995593	-0.173448	0.19557	-0.21094	0	0	-0.523959	0.0775853	0.201055	0.636917	0.156718	0	0	-1.29735	0.0297242	-0.182421	0	0	0	0	0	0	0	0	0	0	0	0	0	0
2.60683	2.49204	-0.100314	-3.01082	-1.15424	-0.992762	0.321762	-0.180234	-0.0832848	-0.173272	0.210771	-0.223917	0	0	-0.524196	0.0490213	0.168929	0.668369	0.135385	0	0	-1.29951	0.0443558	-0.175124	0	0	0	0	0	0	0	0	0	0	0	0	0	0
2.61682	2.48459	-0.0885639	-3.00138	-1.1418	-0.992073	0.321037	-0.1905	-0.0651866	-0.175123	0.226379	-0.233995	0	0	-0.52448	0.0170211	0.134087	0.700455	0.107683	0	0	-1.30244	0.0606124	-0.166365	0	0	0	0	0	0	0	0	0	0	0	0	0	0
2.62681	2.4759	-0.0759057	-2.99142	-1.12937	-0.991564	0.320409	-0.202393	-0.0458181	-0.17881	0.242044	-0.240452	0	0	-0.524805	-0.0174532	0.0980823	0.732767	0.0736345	0	0	-1.30626	0.0780525	-0.15643	0	0	0	0	0	0	0	0	0	0	0	0	0	0
2.6368	2.46608	-0.0629595	-2.98106	-1.117	-0.991248	0.319869	-0.215928	-0.0257861	-0.184012	0.25735	-0.242976	0	0	-0.525158	-0.0532348	0.062629	0.764836	0.0336502	0	0	-1.31102	0.0961481	-0.145654	0	0	0	0	0	0	0	0	0	0	0	0	0	0
2.64678	2.45533	-0.0502644	-2.97044	-1.1047	-0.991139	0.319403	-0.23102	-0.00564556	-0.190442	0.271966	-0.241619	0	0	-0.525514	-0.0891352	0.029412	0.796005	-0.0114314	0	0	-1.31647	0.114423	-0.134373	0	0	0	0	0	0	0	0	0	0	0	0	0	0
2.65677	2.44377	-0.0382991	-2.95974	-1.09249	-0.991251	0.318985	-0.247715	0.0141204	-0.197821	0.285508	-0.2367	0	0	-0.525831	-0.124027	-0.000161539	0.825777	-0.0602531	0	0	-1.32255	0.1324	-0.122885	0	0	0	0	0	0	0	0	0	0	0	0	0	0
2.66676	2.43142	-0.0275102	-2.94919	-1.08043	-0.991595	0.318576	-0.266167	0.0330736	-0.205791	0.297572	-0.228726	0	0	-0.52605	-0.156891	-0.0251059	0.853848	-0.110846	0	0	-1.32944	0.149554	-0.111419	0	0	0	0	0	0	0	0	0	0	0	0	0	0
2.67675	2.41835	-0.0181863	-2.93903	-1.06852	-0.992179	0.318139	-0.286402	0.0508974	-0.214	0.307932	-0.21832	0	0	-0.526088	-0.186934	-0.0448647	0.87992	-0.160895	0	0	-1.33712	0.165458	-0.100147	0	0	0	0	0	0	0	0	0	0	0	0	0	0
2.68674	2.40462	-0.0105119	-2.92947	-1.05678	-0.993002	0.31764	-0.308392	0.0673706	-0.222085	0.316458	-0.206144	0	0	-0.525838	-0.213625	-0.0593693	0.903813	-0.207948	0	0	-1.34558	0.179756	-0.089172	0	0	0	0	0	0	0	0	0	0	0	0	0	0
2.69672	2.39034	-0.00456166	-2.92071	-1.0452	-0.994057	0.317054	-0.332002	0.0823602	-0.229686	0.323137	-0.192829	0	0	-0.52517	-0.236683	-0.0689738	0.925438	-0.249709	0	0	-1.35479	0.192177	-0.078552	0	0	0	0	0	0	0	0	0	0	0	0	0	0
2.70671	2.3757	-0.0002775	-2.91292	-1.0338	-0.995324	0.316365	-0.356927	0.0958295	-0.236484	0.328108	-0.17891	0	0	-0.523929	-0.25606	-0.0743119	0.944728	-0.284425	0	0	-1.36457	0.202564	-0.0683171	0	0	0	0	0	0	0	0	0	0	0	0	0	0
2.7167	2.36098	0.00252671	-2.90621	-1.02253	-0.996777	0.31557	-0.382688	0.107838	-0.242238	0.331657	-0.164795	0	0	-0.521947	-0.271912	-0.0761608	0.961637	-0.31118	0	0	-1.37456	0.21089	-0.0584837	0	0	0	0	0	0	0	0	0	0	0	0	0	0
2.72669	2.34645	0.00408064	-2.90061	-1.01138	-0.998382	0.314668	-0.40878	0.118492	-0.246792	0.334097	-0.150758	0	0	-0.519049	-0.284554	-0.0753892	0.976235	-0.329947	0	0	-1.38448	0.217226	-0.0490361	0	0	0	0	0	0	0	0	0	0	0	0	0	0
2.73667	2.33239	0.00463341	-2.8961	-1.00033	-1.0001	0.313664	-0.434717	0.127938	-0.250097	0.335737	-0.136954	0	0	-0.515081	-0.294423	-0.0728582	0.988722	-0.341421	0	0	-1.39412	0.221733	-0.0399343	0	0	0	0	0	0	0	0	0	0	0	0	0	0
2.74666	2.319	0.00443796	-2.89255	-0.989367	-1.0019	0.31257	-0.460093	0.136355	-0.252226	0.336858	-0.123432	0	0	-0.509932	-0.302048	-0.069327	0.999411	-0.346786	0	0	-1.40332	0.224657	-0.0311248	0	0	0	0	0	0	0	0	0	0	0	0	0	0
2.75665	2.30642	0.00373103	-2.88978	-0.978473	-1.00374	0.311399	-0.484638	0.143946	-0.253366	0.3377	-0.110165	0	0	-0.503574	-0.308008	-0.0653871	1.0087	-0.347485	0	0	-1.41203	0.226315	-0.0225517	0	0	0	0	0	0	0	0	0	0	0	0	0	0
2.76664	2.29464	0.00271573	-2.88757	-0.967629	-1.00559	0.310172	-0.508278	0.150929	-0.253793	0.33844	-0.0970779	0	0	-0.496119	-0.312899	-0.0614236	1.01703	-0.345022	0	0	-1.42026	0.22707	-0.0141674	0	0	0	0	0	0	0	0	0	0	0	0	0	0
2.77663	2.28347	0.00154413	-2.8857	-0.956816	-1.00745	0.308908	-0.531239	0.157533	-0.253804	0.339206	-0.0840894	0	0	-0.487874	-0.317217	-0.0575688	1.02478	-0.340809	0	0	-1.42812	0.227299	-0.00593069	0	0	0	0	0	0	0	0	0	0	0	0	0	0
2.78661	2.2726	0.0003228	-2.88396	-0.946018	-1.00931	0.307629	-0.553899	0.163977	-0.253653	0.340035	-0.0711346	0	0	-0.47926	-0.321334	-0.0537955	1.03229	-0.335955	0	0	-1.43582	0.227324	0.00223034	0	0	0	0	0	0	0	0	0	0	0	0	0	0
