Coordinates
version=1
nRows=85
nColumns=38
inDegrees=no

Units are S.I. units (second, meters, Newtons, ...)
If the header above contains a line with 'inDegrees', this indicates whether rotational values are in degrees (yes) or radians (no).

endheader
time	pelvis_tilt	pelvis_list	pelvis_rotation	pelvis_tx	pelvis_ty	pelvis_tz	hip_flexion_r	hip_adduction_r	hip_rotation_r	knee_angle_r	ankle_angle_r	subtalar_angle_r	mtp_angle_r	hip_flexion_l	hip_adduction_l	hip_rotation_l	knee_angle_l	ankle_angle_l	subtalar_angle_l	mtp_angle_l	lumbar_extension	lumbar_bending	lumbar_rotation	arm_flex_r	arm_add_r	arm_rot_r	elbow_flex_r	pro_sup_r	wrist_flex_r	wrist_dev_r	arm_flex_l	arm_add_l	arm_rot_l	elbow_flex_l	pro_sup_l	wrist_flex_l	wrist_dev_l
2	-2.66884	0.316834	-0.557355	2.56888	-0.957019	0.279272	-0.494861	-0.729696	-0.140682	0.706773	-0.352844	0	0	-0.156865	0.524697	-0.591669	0.0997812	-0.0806547	0	0	-0.34384	-0.601107	0.202305	0	0	0	0	0	0	0	0	0	0	0	0	0	0
2.00999	-2.63666	0.306702	-0.546851	2.56799	-0.958011	0.278362	-0.494596	-0.712426	-0.0979379	0.749063	-0.319704	0	0	-0.200943	0.524612	-0.566516	0.104358	-0.0745782	0	0	-0.419549	-0.599462	0.175493	0	0	0	0	0	0	0	0	0	0	0	0	0	0
2.01997	-2.60458	0.296578	-0.536376	2.56707	-0.959011	0.277455	-0.494134	-0.695081	-0.0556902	0.791118	-0.286325	0	0	-0.244969	0.524517	-0.541233	0.108817	-0.0685432	0	0	-0.495101	-0.597301	0.148556	0	0	0	0	0	0	0	0	0	0	0	0	0	0
2.02996	-2.57287	0.286485	-0.526048	2.56612	-0.960017	0.276519	-0.492965	-0.67766	-0.0146864	0.832578	-0.252527	0	0	-0.288606	0.524389	-0.515854	0.11311	-0.0625775	0	0	-0.570179	-0.59395	0.121355	0	0	0	0	0	0	0	0	0	0	0	0	0	0
2.03994	-2.54203	0.276457	-0.51607	2.56513	-0.961015	0.275479	-0.490109	-0.660253	0.024487	0.873059	-0.218469	0	0	-0.331111	0.5242	-0.49067	0.117272	-0.0567064	0	0	-0.644306	-0.588656	0.0937618	0	0	0	0	0	0	0	0	0	0	0	0	0	0
2.04993	-2.51271	0.26652	-0.506621	2.56412	-0.961984	0.274205	-0.484333	-0.643016	0.0613665	0.91224	-0.18467	0	0	-0.371479	0.52391	-0.46612	0.121454	-0.0509493	0	0	-0.716727	-0.580859	0.0659369	0	0	0	0	0	0	0	0	0	0	0	0	0	0
2.05992	-2.48564	0.256709	-0.497775	2.56314	-0.9629	0.272547	-0.474341	-0.626117	0.0955924	0.949849	-0.151901	0	0	-0.408566	0.523477	-0.442666	0.125887	-0.0453347	0	0	-0.786518	-0.57024	0.0382991	0	0	0	0	0	0	0	0	0	0	0	0	0	0
2.0699	-2.4616	0.247181	-0.489391	2.56223	-0.963746	0.270413	-0.459112	-0.609599	0.126985	0.985517	-0.121036	0	0	-0.441275	0.522852	-0.420579	0.130842	-0.0399129	0	0	-0.852669	-0.556839	0.0113959	0	0	0	0	0	0	0	0	0	0	0	0	0	0
2.07989	-2.44121	0.238369	-0.481236	2.56139	-0.96451	0.267817	-0.438104	-0.593565	0.155466	1.01869	-0.0928879	0	0	-0.468702	0.521991	-0.399882	0.136532	-0.0347468	0	0	-0.91421	-0.541112	-0.0142563	0	0	0	0	0	0	0	0	0	0	0	0	0	0
2.08987	-2.42462	0.230713	-0.47304	2.56069	-0.965189	0.264884	-0.411416	-0.578083	0.181007	1.04871	-0.068066	0	0	-0.490563	0.520854	-0.380366	0.143163	-0.0299058	0	0	-0.970912	-0.523771	-0.0385283	0	0	0	0	0	0	0	0	0	0	0	0	0	0
2.09986	-2.41141	0.224438	-0.464564	2.56022	-0.965797	0.261821	-0.379927	-0.563064	0.203072	1.0749	-0.0470866	0	0	-0.507117	0.519338	-0.361748	0.150936	-0.0254661	0	0	-1.02327	-0.505635	-0.0616234	0	0	0	0	0	0	0	0	0	0	0	0	0	0
2.10985	-2.40092	0.219681	-0.455393	2.56008	-0.966369	0.258869	-0.345089	-0.548311	0.221133	1.09643	-0.0303761	0	0	-0.518956	0.517214	-0.343396	0.160147	-0.021482	0	0	-1.07234	-0.487404	-0.0839835	0	0	0	0	0	0	0	0	0	0	0	0	0	0
2.11983	-2.39247	0.216462	-0.444885	2.56034	-0.966971	0.256276	-0.308712	-0.53346	0.234635	1.11234	-0.0182806	0	0	-0.526832	0.514059	-0.324364	0.171156	-0.0179817	0	0	-1.11945	-0.46951	-0.106163	0	0	0	0	0	0	0	0	0	0	0	0	0	0
2.12982	-2.38548	0.214657	-0.432165	2.56105	-0.967692	0.25423	-0.27278	-0.518019	0.24293	1.12155	-0.0110547	0	0	-0.531545	0.509247	-0.3035	0.184306	-0.0149421	0	0	-1.16591	-0.451964	-0.128683	0	0	0	0	0	0	0	0	0	0	0	0	0	0
2.13981	-2.37963	0.213988	-0.416157	2.56214	-0.968641	0.252828	-0.239295	-0.501444	0.245236	1.12283	-0.00876323	0	0	-0.533863	0.50199	-0.279598	0.199833	-0.012267	0	0	-1.21266	-0.434278	-0.151884	0	0	0	0	0	0	0	0	0	0	0	0	0	0
2.14979	-2.37496	0.214009	-0.395661	2.56342	-0.96994	0.252043	-0.210137	-0.483167	0.240676	1.11483	-0.0111735	0	0	-0.534474	0.491381	-0.25161	0.217757	-0.0097639	0	0	-1.25998	-0.41544	-0.17584	0	0	0	0	0	0	0	0	0	0	0	0	0	0
2.15978	-2.37171	0.213824	-0.369902	2.5646	-0.971702	0.251746	-0.186735	-0.462513	0.228782	1.09642	-0.0182096	0	0	-0.533965	0.476459	-0.219456	0.237722	-0.00714148	0	0	-1.30731	-0.394135	-0.199974	0	0	0	0	0	0	0	0	0	0	0	0	0	0
2.16976	-2.37037	0.212093	-0.338929	2.56523	-0.973998	0.251703	-0.169739	-0.438757	0.209936	1.06683	-0.0297965	0	0	-0.532814	0.456451	-0.184529	0.258876	-0.00398116	0	0	-1.35296	-0.369138	-0.222863	0	0	0	0	0	0	0	0	0	0	0	0	0	0
2.17975	-2.37176	0.207115	-0.303842	2.56471	-0.976841	0.251603	-0.15883	-0.411146	0.185586	1.02576	-0.0457301	0	0	-0.531344	0.43091	-0.149983	0.279784	0.000297236	0	0	-1.39382	-0.339642	-0.242154	0	0	0	0	0	0	0	0	0	0	0	0	0	0
2.18974	-2.37584	0.197626	-0.26653	2.5628	-0.980136	0.251257	-0.153249	-0.379347	0.15802	0.973911	-0.0655882	0	0	-0.529789	0.400057	-0.119124	0.299563	0.00614829	0	0	-1.42825	-0.305893	-0.256053	0	0	0	0	0	0	0	0	0	0	0	0	0	0
2.19972	-2.38222	0.183551	-0.228942	2.55946	-0.983681	0.250624	-0.151803	-0.344024	0.129429	0.912974	-0.0884261	0	0	-0.528302	0.365037	-0.0942264	0.317665	0.0140576	0	0	-1.45578	-0.269062	-0.263596	0	0	0	0	0	0	0	0	0	0	0	0	0	0
2.20971	-2.39025	0.166477	-0.192616	2.5547	-0.987187	0.249823	-0.153352	-0.307225	0.10128	0.845209	-0.112471	0	0	-0.526979	0.328219	-0.0750495	0.334166	0.0244082	0	0	-1.4769	-0.231139	-0.265011	0	0	0	0	0	0	0	0	0	0	0	0	0	0
2.21969	-2.39955	0.149927	-0.158919	2.54847	-0.990257	0.249086	-0.156012	-0.272943	0.0744743	0.773849	-0.134987	0	0	-0.525865	0.29355	-0.059673	0.348889	0.0373551	0	0	-1.49188	-0.195107	-0.261724	0	0	0	0	0	0	0	0	0	0	0	0	0	0
2.22968	-2.4098	0.136511	-0.128684	2.54085	-0.992643	0.248563	-0.158321	-0.244041	0.0496527	0.701583	-0.153961	0	0	-0.524973	0.263931	-0.0459575	0.361762	0.052712	0	0	-1.50121	-0.163235	-0.255794	0	0	0	0	0	0	0	0	0	0	0	0	0	0
2.23967	-2.42068	0.127773	-0.102355	2.53202	-0.99422	0.248336	-0.159327	-0.222148	0.0274252	0.630455	-0.168567	0	0	-0.524295	0.241082	-0.032215	0.373004	0.0701723	0	0	-1.50582	-0.136895	-0.249315	0	0	0	0	0	0	0	0	0	0	0	0	0	0
2.24965	-2.43178	0.124529	-0.080349	2.52218	-0.994939	0.248432	-0.158704	-0.208103	0.00845702	0.561667	-0.178181	0	0	-0.523808	0.226074	-0.0172207	0.383138	0.089389	0	0	-1.50705	-0.116878	-0.244097	0	0	0	0	0	0	0	0	0	0	0	0	0	0
2.25964	-2.44283	0.126749	-0.062568	2.51157	-0.994843	0.248843	-0.156206	-0.201729	-0.00678832	0.496315	-0.183457	0	0	-0.523481	0.218811	-0.000454206	0.3926	0.109844	0	0	-1.5061	-0.103267	-0.2414	0	0	0	0	0	0	0	0	0	0	0	0	0	0
2.26962	-2.45366	0.133866	-0.0486366	2.50037	-0.994024	0.249553	-0.151824	-0.202184	-0.0181433	0.435116	-0.185177	0	0	-0.523282	0.218449	0.0179886	0.401732	0.130839	0	0	-1.50396	-0.0956272	-0.241908	0	0	0	0	0	0	0	0	0	0	0	0	0	0
2.27961	-2.46419	0.144985	-0.0380403	2.48876	-0.992599	0.25054	-0.145716	-0.208232	-0.0256394	0.378546	-0.184139	0	0	-0.523181	0.223658	0.0374787	0.410781	0.151446	0	0	-1.50134	-0.0932329	-0.245778	0	0	0	0	0	0	0	0	0	0	0	0	0	0
2.2896	-2.47436	0.159044	-0.0301996	2.47684	-0.990699	0.251783	-0.138133	-0.21845	-0.0294812	0.326952	-0.181127	0	0	-0.52315	0.232821	0.056913	0.419892	0.170444	0	0	-1.49868	-0.095211	-0.252745	0	0	0	0	0	0	0	0	0	0	0	0	0	0
2.29958	-2.48416	0.174936	-0.0245081	2.46471	-0.988446	0.253259	-0.12938	-0.231381	-0.0300247	0.280623	-0.176885	0	0	-0.523166	0.244159	0.0747598	0.429103	0.186248	0	0	-1.4961	-0.100617	-0.262225	0	0	0	0	0	0	0	0	0	0	0	0	0	0
2.30957	-2.4936	0.19164	-0.0204692	2.45243	-0.985968	0.254934	-0.119718	-0.245725	-0.0276947	0.239822	-0.172129	0	0	-0.523209	0.256338	0.0903212	0.438486	0.198363	0	0	-1.4935	-0.108552	-0.273463	0	0	0	0	0	0	0	0	0	0	0	0	0	0
2.31955	-2.50276	0.208363	-0.0176845	2.44003	-0.98339	0.256753	-0.109308	-0.260489	-0.0229791	0.204802	-0.167533	0	0	-0.523264	0.268694	0.104206	0.448191	0.208046	0	0	-1.49055	-0.118228	-0.285674	0	0	0	0	0	0	0	0	0	0	0	0	0	0
2.32954	-2.51175	0.224476	-0.0157091	2.42753	-0.980816	0.258661	-0.0983247	-0.274879	-0.0165359	0.175804	-0.163675	0	0	-0.523321	0.280631	0.116939	0.458315	0.216218	0	0	-1.48669	-0.12889	-0.298096	0	0	0	0	0	0	0	0	0	0	0	0	0	0
2.33953	-2.52064	0.239476	-0.0140978	2.41493	-0.97833	0.260598	-0.0869441	-0.288264	-0.00912948	0.153042	-0.161048	0	0	-0.523373	0.291591	0.128814	0.468917	0.223414	0	0	-1.48119	-0.139815	-0.310032	0	0	0	0	0	0	0	0	0	0	0	0	0	0
2.34951	-2.52943	0.252972	-0.0124447	2.40223	-0.975992	0.262511	-0.0753788	-0.300154	-0.00154299	0.136632	-0.160073	0	0	-0.523414	0.301073	0.13992	0.480069	0.229831	0	0	-1.47324	-0.150325	-0.320857	0	0	0	0	0	0	0	0	0	0	0	0	0	0
2.3595	-2.53811	0.264666	-0.0104075	2.38942	-0.973848	0.26436	-0.0638899	-0.310178	0.00549581	0.126542	-0.161104	0	0	-0.523441	0.308632	0.150197	0.491878	0.235387	0	0	-1.46209	-0.159803	-0.330027	0	0	0	0	0	0	0	0	0	0	0	0	0	0
2.36949	-2.54656	0.274331	-0.00770067	2.37649	-0.971931	0.266112	-0.0528048	-0.318051	0.0113445	0.122561	-0.16442	0	0	-0.523455	0.313871	0.159484	0.504517	0.239759	0	0	-1.44715	-0.167669	-0.337068	0	0	0	0	0	0	0	0	0	0	0	0	0	0
2.37947	-2.55468	0.281782	-0.00408341	2.36344	-0.970264	0.267749	-0.0423728	-0.323545	0.0154982	0.124421	-0.170218	0	0	-0.523456	0.316405	0.167471	0.518077	0.242496	0	0	-1.42798	-0.173444	-0.341623	0	0	0	0	0	0	0	0	0	0	0	0	0	0
2.38946	-2.56227	0.286867	0.000550237	2.35026	-0.968861	0.269263	-0.0329442	-0.326473	0.017663	0.131587	-0.178583	0	0	-0.523446	0.315936	0.173809	0.532756	0.243027	0	0	-1.40468	-0.176758	-0.343533	0	0	0	0	0	0	0	0	0	0	0	0	0	0
2.39944	-2.56904	0.289476	0.00615777	2.33699	-0.967733	0.270663	-0.0250039	-0.326684	0.0177916	0.143203	-0.18945	0	0	-0.52343	0.312288	0.178194	0.548874	0.240711	0	0	-1.37814	-0.177356	-0.342858	0	0	0	0	0	0	0	0	0	0	0	0	0	0
2.40943	-2.57468	0.289536	0.0126157	2.32364	-0.966887	0.271967	-0.0189871	-0.324066	0.0160458	0.158316	-0.202527	0	0	-0.523411	0.305367	0.18036	0.566684	0.234902	0	0	-1.35006	-0.175098	-0.339878	0	0	0	0	0	0	0	0	0	0	0	0	0	0
2.41942	-2.57881	0.287014	0.0196499	2.31026	-0.966333	0.273201	-0.0155223	-0.318533	0.0128559	0.175645	-0.217222	0	0	-0.523398	0.295233	0.180168	0.586592	0.22497	0	0	-1.32339	-0.169929	-0.335154	0	0	0	0	0	0	0	0	0	0	0	0	0	0
2.4294	-2.58115	0.282076	0.0268585	2.29689	-0.966064	0.274399	-0.0149175	-0.310225	0.00883711	0.194186	-0.232549	0	0	-0.523399	0.282262	0.177711	0.608772	0.210459	0	0	-1.30007	-0.162195	-0.329049	0	0	0	0	0	0	0	0	0	0	0	0	0	0
2.43939	-2.58143	0.274909	0.0338695	2.28357	-0.966073	0.275587	-0.017399	-0.299306	0.00452901	0.213134	-0.247257	0	0	-0.523424	0.266847	0.173138	0.633335	0.190924	0	0	-1.28136	-0.152309	-0.321784	0	0	0	0	0	0	0	0	0	0	0	0	0	0
2.44937	-2.5795	0.265696	0.0403639	2.27033	-0.966347	0.276783	-0.0230356	-0.285965	0.000270357	0.231948	-0.260108	0	0	-0.523488	0.24936	0.166586	0.660223	0.166016	0	0	-1.26781	-0.140704	-0.313455	0	0	0	0	0	0	0	0	0	0	0	0	0	0
2.45936	-2.57523	0.254633	0.0461081	2.25722	-0.966871	0.278	-0.0318934	-0.270414	-0.00375518	0.250165	-0.270132	0	0	-0.523603	0.230149	0.158234	0.689325	0.135525	0	0	-1.25961	-0.127789	-0.304103	0	0	0	0	0	0	0	0	0	0	0	0	0	0
2.46935	-2.56859	0.241912	0.0509554	2.24423	-0.967631	0.279239	-0.0439358	-0.252893	-0.00754944	0.267442	-0.276684	0	0	-0.523785	0.209525	0.148271	0.72035	0.0994614	0	0	-1.25655	-0.113938	-0.293707	0	0	0	0	0	0	0	0	0	0	0	0	0	0
2.47933	-2.55963	0.22774	0.054829	2.23139	-0.968614	0.280502	-0.0591256	-0.233673	-0.0111568	0.283427	-0.27948	0	0	-0.524051	0.18779	0.136932	0.75292	0.0581379	0	0	-1.2582	-0.0995	-0.282239	0	0	0	0	0	0	0	0	0	0	0	0	0	0
2.48932	-2.54846	0.212358	0.0577106	2.21872	-0.969809	0.281791	-0.0773882	-0.213071	-0.0146515	0.297801	-0.278551	0	0	-0.524414	0.165256	0.124484	0.786558	0.0122529	0	0	-1.26399	-0.0848167	-0.269668	0	0	0	0	0	0	0	0	0	0	0	0	0	0
2.4993	-2.53527	0.196027	0.0596337	2.2062	-0.971209	0.283108	-0.0985606	-0.191448	-0.0181502	0.310349	-0.274147	0	0	-0.524883	0.142237	0.111192	0.820666	-0.037063	0	0	-1.27324	-0.0702168	-0.255978	0	0	0	0	0	0	0	0	0	0	0	0	0	0
2.50929	-2.52027	0.17906	0.0606616	2.19384	-0.972809	0.28446	-0.122514	-0.169202	-0.0216854	0.320857	-0.266698	0	0	-0.525459	0.119072	0.0973038	0.854672	-0.0882286	0	0	-1.28538	-0.0560394	-0.241218	0	0	0	0	0	0	0	0	0	0	0	0	0	0
2.51928	-2.50364	0.161824	0.0608681	2.18164	-0.974608	0.285859	-0.149125	-0.146766	-0.0251723	0.329146	-0.256763	0	0	-0.52613	0.0961341	0.0830381	0.888021	-0.13925	0	0	-1.29993	-0.0426419	-0.225505	0	0	0	0	0	0	0	0	0	0	0	0	0	0
2.52926	-2.48564	0.144714	0.0603194	2.16963	-0.976602	0.28732	-0.178202	-0.124595	-0.0284417	0.335132	-0.244972	0	0	-0.526867	0.0738276	0.0685757	0.920133	-0.187844	0	0	-1.31649	-0.0303883	-0.209019	0	0	0	0	0	0	0	0	0	0	0	0	0	0
2.53925	-2.46654	0.128124	0.059066	2.1578	-0.978784	0.28886	-0.209445	-0.103148	-0.0312879	0.338859	-0.231963	0	0	-0.527614	0.0525719	0.0540688	0.950383	-0.231653	0	0	-1.33463	-0.0196291	-0.191988	0	0	0	0	0	0	0	0	0	0	0	0	0	0
2.54924	-2.44671	0.112416	0.0571441	2.14615	-0.981144	0.290492	-0.242402	-0.0828514	-0.0335133	0.340527	-0.218326	0	0	-0.528283	0.0327708	0.0396473	0.978089	-0.268565	0	0	-1.35382	-0.0106692	-0.174677	0	0	0	0	0	0	0	0	0	0	0	0	0	0
2.55922	-2.42661	0.0978741	0.0545844	2.13463	-0.983664	0.292226	-0.276446	-0.0640676	-0.034971	0.340512	-0.204554	0	0	-0.528746	0.0147684	0.025425	1.00251	-0.297082	0	0	-1.3734	-0.00373229	-0.15737	0	0	0	0	0	0	0	0	0	0	0	0	0	0
2.56921	-2.40677	0.0846705	0.0514216	2.12321	-0.986318	0.294067	-0.310753	-0.0470539	-0.0356113	0.339373	-0.191031	0	0	-0.52883	-0.00119069	0.0115014	1.02287	-0.316559	0	0	-1.39253	0.0010692	-0.14034	0	0	0	0	0	0	0	0	0	0	0	0	0	0
2.57919	-2.38778	0.0728863	0.0477015	2.11184	-0.989073	0.296014	-0.34445	-0.0319653	-0.0354515	0.337697	-0.178037	0	0	-0.528308	-0.0149631	-0.00203937	1.03845	-0.327186	0	0	-1.41037	0.00372164	-0.123847	0	0	0	0	0	0	0	0	0	0	0	0	0	0
2.58918	-2.37012	0.0625461	0.0434539	2.10051	-0.991895	0.298062	-0.37681	-0.0188788	-0.0345396	0.335893	-0.165768	0	0	-0.526903	-0.0264636	-0.0151405	1.0488	-0.329814	0	0	-1.42649	0.00428799	-0.108128	0	0	0	0	0	0	0	0	0	0	0	0	0	0
2.59917	-2.35428	0.0535795	0.0387328	2.08918	-0.99474	0.300199	-0.407059	-0.00776345	-0.0329952	0.334391	-0.154346	0	0	-0.524291	-0.0357331	-0.0277854	1.05355	-0.325673	0	0	-1.4404	0.00292793	-0.0933662	0	0	0	0	0	0	0	0	0	0	0	0	0	0
2.60915	-2.34074	0.0458532	0.0336068	2.07787	-0.997565	0.302406	-0.434535	0.00149828	-0.030965	0.333487	-0.143834	0	0	-0.520114	-0.0429102	-0.0399849	1.05255	-0.316243	0	0	-1.45181	-0.000115108	-0.0796746	0	0	0	0	0	0	0	0	0	0	0	0	0	0
2.61914	-2.32986	0.0391878	0.0281605	2.06657	-1.00032	0.304657	-0.458705	0.00909491	-0.0285986	0.333353	-0.134245	0	0	-0.514008	-0.0482188	-0.0517748	1.04583	-0.303058	0	0	-1.46063	-0.00453536	-0.0670909	0	0	0	0	0	0	0	0	0	0	0	0	0	0
2.62912	-2.32194	0.0333704	0.0224959	2.05532	-1.00296	0.306919	-0.479192	0.0152744	-0.0260263	0.33404	-0.125538	0	0	-0.505644	-0.0519582	-0.063214	1.03357	-0.287543	0	0	-1.46686	-0.00998394	-0.0555646	0	0	0	0	0	0	0	0	0	0	0	0	0	0
2.63911	-2.31713	0.0281619	0.016724	2.04412	-1.00545	0.309154	-0.495815	0.0203332	-0.0233326	0.335502	-0.117622	0	0	-0.494787	-0.0544881	-0.0743849	1.01608	-0.270922	0	0	-1.47061	-0.0160883	-0.0449656	0	0	0	0	0	0	0	0	0	0	0	0	0	0
2.6491	-2.31542	0.0233089	0.0109558	2.033	-1.00772	0.311322	-0.508647	0.0246011	-0.0205339	0.337595	-0.110348	0	0	-0.481383	-0.0562061	-0.0853868	0.993732	-0.254182	0	0	-1.47206	-0.0224723	-0.0350994	0	0	0	0	0	0	0	0	0	0	0	0	0	0
2.65908	-2.31658	0.0185443	0.00528256	2.02195	-1.00975	0.313381	-0.518036	0.0284252	-0.0175668	0.340146	-0.103508	0	0	-0.465661	-0.0575175	-0.0963241	0.966902	-0.238057	0	0	-1.47146	-0.0287752	-0.0257196	0	0	0	0	0	0	0	0	0	0	0	0	0	0
2.66907	-2.32024	0.0135941	-0.000236525	2.01096	-1.0115	0.315291	-0.524478	0.0321489	-0.0142824	0.343015	-0.0968238	0	0	-0.448048	-0.0588089	-0.107294	0.935935	-0.223061	0	0	-1.46907	-0.0346689	-0.0165483	0	0	0	0	0	0	0	0	0	0	0	0	0	0
2.67905	-2.32598	0.00819715	-0.00558267	2.00002	-1.01293	0.317017	-0.528527	0.0360849	-0.0104464	0.346105	-0.0899387	0	0	-0.429057	-0.060422	-0.118383	0.901182	-0.209527	0	0	-1.46514	-0.0398793	-0.00729684	0	0	0	0	0	0	0	0	0	0	0	0	0	0
2.68904	-2.33338	0.00213111	-0.0107797	1.9891	-1.01402	0.318531	-0.530727	0.0404879	-0.00574368	0.34934	-0.0823952	0	0	-0.409194	-0.062628	-0.129655	0.863015	-0.197652	0	0	-1.45992	-0.0442035	0.00230667	0	0	0	0	0	0	0	0	0	0	0	0	0	0
2.69903	-2.34207	-0.00476066	-0.0158949	1.97817	-1.01474	0.319811	-0.531571	0.045531	0.000224377	0.35265	-0.073625	0	0	-0.388901	-0.0655985	-0.141147	0.821841	-0.187538	0	0	-1.4536	-0.047523	0.0124914	0	0	0	0	0	0	0	0	0	0	0	0	0	0
2.70901	-2.35177	-0.0125471	-0.0210367	1.96721	-1.01505	0.320847	-0.531483	0.0512883	0.0079336	0.355951	-0.0629371	0	0	-0.36852	-0.0693796	-0.152844	0.778084	-0.179211	0	0	-1.44635	-0.0498086	0.0234122	0	0	0	0	0	0	0	0	0	0	0	0	0	0
2.719	-2.36203	-0.0215155	-0.026177	1.95623	-1.01498	0.32162	-0.530809	0.0580157	0.0172146	0.359517	-0.0508682	0	0	-0.348574	-0.0742595	-0.164659	0.732065	-0.17271	0	0	-1.43863	-0.0508435	0.035274	0	0	0	0	0	0	0	0	0	0	0	0	0	0
2.72898	-2.37255	-0.0318818	-0.03125	1.94522	-1.01455	0.322119	-0.529814	0.0659209	0.0278519	0.363566	-0.0378718	0	0	-0.329384	-0.0804808	-0.176449	0.684248	-0.167972	0	0	-1.4307	-0.0504349	0.0482648	0	0	0	0	0	0	0	0	0	0	0	0	0	0
2.73897	-2.38311	-0.043747	-0.0362263	1.93416	-1.01379	0.322344	-0.528692	0.0750871	0.0396221	0.368252	-0.024272	0	0	-0.311088	-0.0881753	-0.188095	0.635214	-0.164815	0	0	-1.42266	-0.0485054	0.0625078	0	0	0	0	0	0	0	0	0	0	0	0	0	0
2.74896	-2.39358	-0.0571015	-0.0411257	1.92303	-1.0127	0.322306	-0.527577	0.0854725	0.0523013	0.373662	-0.0102695	0	0	-0.293676	-0.0973667	-0.199522	0.585624	-0.162965	0	0	-1.41446	-0.0451003	0.0780495	0	0	0	0	0	0	0	0	0	0	0	0	0	0
2.75894	-2.40388	-0.0718566	-0.045964	1.91184	-1.01131	0.322018	-0.52655	0.0969757	0.0656986	0.37986	0.00399603	0	0	-0.277131	-0.107966	-0.210578	0.535959	-0.162146	0	0	-1.40621	-0.0403156	0.094859	0	0	0	0	0	0	0	0	0	0	0	0	0	0
2.76893	-2.41396	-0.0878511	-0.0507703	1.90057	-1.00967	0.321501	-0.525654	0.10943	0.079626	0.386863	0.0184559	0	0	-0.261354	-0.119825	-0.221161	0.486687	-0.162054	0	0	-1.39794	-0.0343095	0.112836	0	0	0	0	0	0	0	0	0	0	0	0	0	0
2.77892	-2.42383	-0.104867	-0.0555908	1.88923	-1.00778	0.320783	-0.524901	0.122617	0.0939114	0.394646	0.033078	0	0	-0.2462	-0.132742	-0.231237	0.438201	-0.162401	0	0	-1.38958	-0.0272976	0.13182	0	0	0	0	0	0	0	0	0	0	0	0	0	0
2.7889	-2.4335	-0.122658	-0.0604835	1.87779	-1.0057	0.319897	-0.524284	0.136291	0.108403	0.403148	0.0478507	0	0	-0.2315	-0.146491	-0.240856	0.390793	-0.162948	0	0	-1.38102	-0.0195292	0.151605	0	0	0	0	0	0	0	0	0	0	0	0	0	0
2.79889	-2.44303	-0.140971	-0.0655057	1.86627	-1.00346	0.318882	-0.523783	0.15021	0.122975	0.412276	0.0627688	0	0	-0.217083	-0.160836	-0.250127	0.344623	-0.163513	0	0	-1.3721	-0.0112588	0.171957	0	0	0	0	0	0	0	0	0	0	0	0	0	0
2.80887	-2.4524	-0.159596	-0.0706075	1.85469	-1.00111	0.317766	-0.523371	0.164238	0.137549	0.42198	0.0777754	0	0	-0.20294	-0.175546	-0.25906	0.299468	-0.164022	0	0	-1.3631	-0.00264749	0.192678	0	0	0	0	0	0	0	0	0	0	0	0	0	0
2.81886	-2.46162	-0.17838	-0.0757324	1.84308	-0.998675	0.316579	-0.523018	0.178303	0.152082	0.432134	0.0928372	0	0	-0.189009	-0.190455	-0.267696	0.255063	-0.16445	0	0	-1.35416	0.00619027	0.213599	0	0	0	0	0	0	0	0	0	0	0	0	0	0
2.82885	-2.47073	-0.197221	-0.0808485	1.83145	-0.996203	0.31535	-0.522699	0.192367	0.166559	0.442568	0.107929	0	0	-0.175208	-0.20545	-0.276126	0.211122	-0.164811	0	0	-1.34531	0.0151536	0.234598	0	0	0	0	0	0	0	0	0	0	0	0	0	0
2.83883	-2.4798	-0.216067	-0.0859502	1.81981	-0.993717	0.314105	-0.522391	0.20642	0.181002	0.453118	0.123032	0	0	-0.161458	-0.220463	-0.284462	0.16737	-0.16514	0	0	-1.33651	0.0241635	0.255613	0	0	0	0	0	0	0	0	0	0	0	0	0	0
