nColumns=19
nRows=235
DataType=double
version=3
OpenSimVersion=4.1
endheader
time	ground_force_calcn_l_vx	ground_force_calcn_l_vy	ground_force_calcn_l_vz	ground_force_calcn_l_px	ground_force_calcn_l_py	ground_force_calcn_l_pz	ground_force_calcn_l_mx	ground_force_calcn_l_my	ground_force_calcn_l_mz	ground_force_calcn_r_vx	ground_force_calcn_r_vy	ground_force_calcn_r_vz	ground_force_calcn_r_px	ground_force_calcn_r_py	ground_force_calcn_r_pz	ground_force_calcn_r_mx	ground_force_calcn_r_my	ground_force_calcn_r_mz
4.03	0	0	0	0	-0.0240072	0	0	0	0	0	0	0	0	0.0224926	0	0	0	0
4.03999	2.67365	-22.064	-0.732263	1.21552	-1.34969e-16	0.176989	0.0138186	-0.114037	-0.00378466	0	0	0	0	-1.34969e-16	0	0	0	0
4.04998	2.70913	-18.2074	-0.136659	1.21562	-1.34966e-16	0.176754	0.0144746	-0.0972804	-0.000730155	0	0	0	0	-1.34966e-16	0	0	0	0
4.05997	2.65741	-13.7038	0.495494	1.2158	-1.34958e-16	0.176364	0.0151563	-0.0781581	0.002826	0	0	0	0	-1.34958e-16	0	0	0	0
4.06997	2.4343	-8.01005	1.18727	1.21644	-1.34942e-16	0.175342	0.0162242	-0.0533854	0.00791291	0	0	0	0	-1.34942e-16	0	0	0	0
4.07996	0	0	0	0	-0.0213425	0	0	0	0	0	0	0	0	0.0148556	0	0	0	0
4.08995	1.0293	9.3939	2.80457	1.21466	-1.3486e-16	0.177057	0.000176665	0.00161233	0.000481364	0	0	0	0	-1.3486e-16	0	0	0	0
4.09994	-0.408076	22.26	3.7185	1.21366	-1.34779e-16	0.176746	-0.000798458	0.0435549	0.00727578	0	0	0	0	-1.34779e-16	0	0	0	0
4.10993	-2.50721	38.4875	4.65745	1.21262	-1.34661e-16	0.176285	-0.0062342	0.0956993	0.0115808	0	0	0	0	-1.34661e-16	0	0	0	0
4.11992	-5.37777	58.2822	5.55458	1.2112	-1.34499e-16	0.175776	-0.0146168	0.158411	0.0150973	0	0	0	0	-1.34499e-16	0	0	0	0
4.12991	-9.09529	81.6161	6.31788	1.20932	-1.34285e-16	0.175203	-0.0258972	0.232387	0.0179891	0	0	0	0	-1.34285e-16	0	0	0	0
4.1399	-13.6862	108.228	6.83709	1.20695	-1.34019e-16	0.174569	-0.0401935	0.317842	0.0200791	0	0	0	0	-1.34019e-16	0	0	0	0
4.1499	-19.117	137.665	6.99646	1.20411	-1.33701e-16	0.173883	-0.05757	0.414573	0.0210696	0	0	0	0	-1.33701e-16	0	0	0	0
4.15989	-25.2908	169.367	6.69242	1.20087	-1.33337e-16	0.173156	-0.0779734	0.522172	0.0206332	0	0	0	0	-1.33337e-16	0	0	0	0
4.16988	-32.0543	202.744	5.85232	1.19729	-1.32936e-16	0.172402	-0.101213	0.640176	0.018479	0	0	0	0	-1.32936e-16	0	0	0	0
4.17987	-39.2126	237.239	4.44871	1.19344	-1.32505e-16	0.171635	-0.126951	0.768061	0.0144027	0	0	0	0	-1.32505e-16	0	0	0	0
4.18986	-46.5447	272.353	2.50578	1.18943	-1.32057e-16	0.170875	-0.154664	0.905004	0.00832647	0	0	0	0	-1.32057e-16	0	0	0	0
4.19985	-53.816	307.644	0.0973294	1.18536	-1.31602e-16	0.170142	-0.183586	1.04949	0.000332026	0	0	0	0	-1.31602e-16	0	0	0	0
4.20984	-60.7878	342.718	-2.66299	1.18134	-1.31153e-16	0.169458	-0.212642	1.19886	-0.0093154	0	0	0	0	-1.31153e-16	0	0	0	0
4.21983	-67.229	377.213	-5.63754	1.17749	-1.30721e-16	0.168845	-0.240434	1.34905	-0.0201618	0	0	0	0	-1.30721e-16	0	0	0	0
4.22983	-72.9321	410.791	-8.68325	1.17388	-1.30319e-16	0.168318	-0.265336	1.49451	-0.0315908	0	0	0	0	-1.30319e-16	0	0	0	0
4.23982	-77.7285	443.129	-11.6686	1.1706	-1.29952e-16	0.167887	-0.285678	1.62865	-0.0428862	0	0	0	0	-1.29952e-16	0	0	0	0
4.24981	-81.4995	473.917	-14.4863	1.1677	-1.29628e-16	0.167554	-0.3	1.74449	-0.0533239	0	0	0	0	-1.29628e-16	0	0	0	0
4.2598	-84.1806	502.851	-17.0592	1.16518	-1.29348e-16	0.167312	-0.307284	1.83556	-0.0622711	0	0	0	0	-1.29348e-16	0	0	0	0
4.26979	-85.7599	529.634	-19.3424	1.16305	-1.2911e-16	0.167149	-0.307115	1.89668	-0.0692671	0	0	0	0	-1.2911e-16	0	0	0	0
4.27978	-86.2708	553.981	-21.3192	1.16127	-1.28912e-16	0.167044	-0.299713	1.92458	-0.0740649	0	0	0	0	-1.28912e-16	0	0	0	0
4.28977	-85.7822	575.624	-22.995	1.15979	-1.28747e-16	0.166978	-0.285854	1.91817	-0.076627	0	0	0	0	-1.28747e-16	0	0	0	0
4.29977	-84.3872	594.326	-24.3899	1.15853	-1.28608e-16	0.166926	-0.266714	1.87842	-0.0770865	0	0	0	0	-1.28608e-16	0	0	0	0
4.30976	-82.1931	609.892	-25.5315	1.15743	-1.28487e-16	0.166867	-0.243673	1.80812	-0.0756918	0	0	0	0	-1.28487e-16	0	0	0	0
4.31975	-79.3126	622.181	-26.4506	1.15642	-1.28376e-16	0.16678	-0.218152	1.71133	-0.0727533	0	0	0	0	-1.28376e-16	0	0	0	0
4.32974	-75.8582	631.115	-27.178	1.15543	-1.28267e-16	0.166649	-0.191478	1.59303	-0.0686015	0	0	0	0	-1.28267e-16	0	0	0	0
4.33973	-71.938	636.687	-27.7435	1.1544	-1.28153e-16	0.166458	-0.164809	1.45864	-0.06356	0	0	0	0	-1.28153e-16	0	0	0	0
4.34972	-67.6533	638.973	-28.175	1.15326	-1.28028e-16	0.166199	-0.139095	1.31373	-0.0579279	0	0	0	0	-1.28028e-16	0	0	0	0
4.35971	-63.0981	638.132	-28.4975	1.15199	-1.27887e-16	0.165863	-0.115067	1.16371	-0.0519684	0	0	0	0	-1.27887e-16	0	0	0	0
4.3697	-58.3589	634.411	-28.7302	1.15054	-1.27727e-16	0.16545	-0.0932345	1.01354	-0.0458995	0	0	0	0	-1.27727e-16	0	0	0	0
4.3797	-53.5149	628.141	-28.8844	1.14889	-1.27545e-16	0.164961	-0.0738981	0.867393	-0.0398862	0	0	0	0	-1.27545e-16	0	0	0	0
4.38969	-48.6379	619.727	-28.9609	1.14702	-1.27339e-16	0.164403	-0.0571597	0.728308	-0.0340351	0	0	0	0	-1.27339e-16	0	0	0	0
4.39968	-43.7928	609.631	-28.9495	1.14494	-1.27109e-16	0.163784	-0.0429472	0.59786	-0.0283906	0	0	0	0	-1.27109e-16	0	0	0	0
4.40967	-39.0361	598.351	-28.832	1.14265	-1.26855e-16	0.163119	-0.0310515	0.475961	-0.0229345	0	0	0	0	-1.26855e-16	0	0	0	0
4.41966	-34.4158	586.395	-28.5863	1.14014	-1.26578e-16	0.162422	-0.0211778	0.360839	-0.0175906	0	0	0	0	-1.26578e-16	0	0	0	0
4.42965	-29.9695	574.254	-28.1925	1.13745	-1.2628e-16	0.161711	-0.0130068	0.249228	-0.0122356	0	0	0	0	-1.2628e-16	0	0	0	0
4.43964	-25.7242	562.385	-27.6388	1.1346	-1.25964e-16	0.161002	-0.00625542	0.136757	-0.00672099	0	0	0	0	-1.25964e-16	0	0	0	0
4.44963	-21.6956	551.189	-26.9256	1.1316	-1.25633e-16	0.160313	-0.000727305	0.0184776	-0.000902632	0	0	0	0	-1.25633e-16	0	0	0	0
4.45963	-17.8885	541.003	-26.0681	1.1285	-1.2529e-16	0.159659	0.00365495	-0.110537	0.0053262	0	0	0	0	-1.2529e-16	0	0	0	0
4.46962	-14.2979	532.097	-25.0962	1.12531	-1.24937e-16	0.159055	0.00684161	-0.254611	0.0120087	0	0	0	0	-1.24937e-16	0	0	0	0
4.47961	-10.9102	524.671	-24.0524	1.12206	-1.24578e-16	0.15851	0.00867057	-0.416968	0.019115	0	0	0	0	-1.24578e-16	0	0	0	0
4.4896	-7.70536	518.866	-22.9881	1.11876	-1.24213e-16	0.158033	0.00890075	-0.599361	0.0265544	0	0	0	0	-1.24213e-16	0	0	0	0
4.49959	-4.6589	514.767	-21.9589	1.11542	-1.23844e-16	0.157629	0.00725715	-0.80185	0.0342053	0	0	0	0	-1.23844e-16	0	0	0	0
4.50958	-1.7437	512.417	-21.0199	1.11204	-1.2347e-16	0.157299	0.00348024	-1.02273	0.0419535	0	0	0	0	-1.2347e-16	0	0	0	0
4.51957	1.06823	511.826	-20.2206	1.1086	-1.2309e-16	0.15704	-0.0026268	-1.25859	0.0497231	0	0	0	0	-1.2309e-16	0	0	0	0
4.52957	3.8046	512.981	-19.6017	1.10508	-1.22701e-16	0.156847	-0.0111583	-1.50449	0.0574886	0	0	0	0	-1.22701e-16	0	0	0	0
4.53956	6.49225	515.85	-19.1912	1.10148	-1.22303e-16	0.156714	-0.0220777	-1.75421	0.065262	0	0	0	0	-1.22303e-16	0	0	0	0
4.54955	9.15707	520.389	-19.0035	1.09777	-1.21892e-16	0.156634	-0.0352036	-2.00059	0.0730574	0	0	0	0	-1.21892e-16	0	0	0	0
4.55954	11.8244	526.542	-19.0382	1.09394	-1.21469e-16	0.156599	-0.0502111	-2.2359	0.0808435	0	0	0	0	-1.21469e-16	0	0	0	0
4.56953	14.5204	534.239	-19.2805	1.09001	-1.21033e-16	0.156601	-0.066651	-2.45225	0.088501	0	0	0	0	-1.21033e-16	0	0	0	0
4.57952	17.2734	543.394	-19.7026	1.08597	-1.20587e-16	0.156637	-0.0839848	-2.64204	0.0957958	0.175482	-3.05267	0.285133	0.604388	-1.20587e-16	0.247834	-0.000109214	0.00189988	-0.000177458
4.58951	20.1163	553.902	-20.2647	1.08187	-1.20132e-16	0.156702	-0.101631	-2.79841	0.102381	0.356489	-4.25556	0.361214	0.604443	-6.71133e-17	0.247854	-0.00025447	0.00303771	-0.000257843
4.5995	23.0885	565.635	-20.9178	1.07773	-1.19673e-16	0.156795	-0.119016	-2.91573	0.107827	0.593974	-5.58967	0.433798	0.604515	-6.71214e-17	0.247873	-0.000469847	0.00442155	-0.000343144
4.6095	26.2359	578.434	-21.6054	1.07361	-1.19216e-16	0.156917	-0.135613	-2.98991	0.111678	0.888954	-6.95924	0.491594	0.604604	-6.71313e-17	0.247892	-0.000767664	0.00600971	-0.00042452
4.61949	29.6105	592.098	-22.2664	1.06956	-1.18766e-16	0.157066	-0.150963	-3.01869	0.113521	1.23547	-8.21334	0.519051	0.604709	-6.71428e-17	0.247913	-0.00115985	0.00771057	-0.000487278
4.62948	33.2674	606.375	-22.8386	1.06564	-1.1833e-16	0.157246	-0.164681	-3.00169	0.113056	1.61756	-9.13668	0.496157	0.604825	-6.71553e-17	0.247942	-0.00165774	0.00936363	-0.000508482
4.63947	37.2589	620.945	-23.2628	1.0619	-1.17914e-16	0.157457	-0.176425	-2.94025	0.110152	2.00595	-9.44436	0.398744	0.604946	-6.71679e-17	0.247989	-0.00227604	0.010716	-0.000452434
4.64946	41.6281	635.41	-23.4872	1.05839	-1.17523e-16	0.157699	-0.185868	-2.83708	0.104869	2.35485	-8.78285	0.199533	0.605065	-6.7179e-17	0.248082	-0.0030505	0.0113774	-0.000258477
4.65945	46.3999	649.284	-23.4714	1.05514	-1.1716e-16	0.15797	-0.192652	-2.69582	0.097453	2.59945	-6.73998	-0.129868	0.605191	-6.71864e-17	0.248331	-0.00410154	0.0106347	0.000204912
4.66944	51.5717	661.994	-23.1903	1.05216	-1.16828e-16	0.158267	-0.19636	-2.52056	0.0882975	2.65468	-2.86578	-0.615869	0.605592	-6.71871e-17	0.24954	-0.00523994	0.00565662	0.00121564
4.67943	57.1061	672.889	-22.6356	1.04946	-1.16527e-16	0.158588	-0.196496	-2.31534	0.0778868	2.41618	3.29464	-1.27868	0.605586	-6.71772e-17	0.248666	0.00315993	0.0043088	-0.00167228
4.68943	62.9247	681.262	-21.8153	1.04703	-1.16254e-16	0.158931	-0.192489	-2.084	0.0667337	1.76441	12.1573	-2.12715	0.604867	-6.7152e-17	0.247723	0.000153059	0.00105462	-0.000184526
4.69942	68.9053	686.378	-20.7503	1.04483	-1.16008e-16	0.159292	-0.183731	-1.83018	0.0553292	0.572498	24.0489	-3.15318	0.604391	-6.71059e-17	0.24772	-0.000194991	-0.00819098	0.00107396
4.70941	74.8831	687.511	-19.4693	1.04282	-1.15783e-16	0.159675	-0.169658	-1.55765	0.0441103	-1.28174	39.1567	-4.32653	0.603718	-6.70328e-17	0.247781	0.000697126	-0.021297	0.00235316
4.7194	80.6559	683.99	-18.0026	1.04097	-1.15576e-16	0.160083	-0.149863	-1.27089	0.0334499	-3.9	57.4904	-5.59116	0.602757	-6.69267e-17	0.247869	0.00260807	-0.0384459	0.00373902
4.72939	85.9927	675.239	-16.378	1.03922	-1.15381e-16	0.160524	-0.124239	-0.975559	0.0236623	-7.34555	78.8681	-6.86472	0.601453	-6.6782e-17	0.247986	0.00556136	-0.0597115	0.00519732
4.73938	90.6463	660.819	-14.6186	1.03754	-1.15193e-16	0.161009	-0.0931134	-0.678803	0.0150164	-11.626	102.939	-8.04234	0.59977	-6.6595e-17	0.248138	0.00958633	-0.0848795	0.0066314
4.74937	94.368	640.464	-12.7445	1.0359	-1.15009e-16	0.161553	-0.0573496	-0.389225	0.00774513	-16.6813	129.243	-9.00568	0.597703	-6.63651e-17	0.24833	0.0146372	-0.113406	0.00790213
4.75937	96.9237	614.115	-10.7767	1.03425	-1.14825e-16	0.162175	-0.018379	-0.116451	0.00204351	-22.3831	157.296	-9.6365	0.595267	-6.60941e-17	0.248567	0.020553	-0.144435	0.00884861
4.76936	98.1105	581.937	-8.7414	1.03258	-1.14639e-16	0.162892	0.0218544	0.129628	-0.00194717	-28.5485	186.659	-9.83181	0.592498	-6.5786e-17	0.248848	0.027053	-0.176881	0.00931675
4.77935	97.7729	544.337	-6.67416	1.03087	-1.14449e-16	0.163727	0.0610384	0.339823	-0.0041666	-34.9649	216.985	-9.51695	0.589449	-6.54467e-17	0.24917	0.0337677	-0.209556	0.0091911
4.78934	95.816	501.964	-4.62119	1.02912	-1.14255e-16	0.164702	0.0967069	0.506631	-0.00466416	-41.4135	248.019	-8.65469	0.586191	-6.5084e-17	0.249526	0.0402942	-0.241315	0.00842078
4.79933	92.2178	455.699	-2.63787	1.02732	-1.14055e-16	0.165837	0.126489	0.625051	-0.00361819	-47.6848	279.58	-7.24935	0.582809	-6.47076e-17	0.249904	0.0462488	-0.271161	0.00703104
4.80932	87.0376	406.629	-0.784551	1.02548	-1.13851e-16	0.167151	0.148363	0.693135	-0.00133734	-53.5846	311.525	-5.34556	0.5794	-6.43281e-17	0.250288	0.0513013	-0.298251	0.00511778
4.81931	80.4201	356.008	0.879317	1.0236	-1.13643e-16	0.168656	0.160886	0.712221	0.00175914	-58.9386	343.708	-3.02174	0.576061	-6.39566e-17	0.250664	0.0551833	-0.321809	0.00282921
4.8293	72.5948	305.191	2.30144	1.0217	-1.13434e-16	0.170356	0.163368	0.686805	0.00517918	-63.5975	375.944	-0.379156	0.572887	-6.36034e-17	0.251015	0.0576781	-0.340953	0.000343865
4.8393	63.8672	255.559	3.44203	1.01981	-1.13225e-16	0.17224	0.155965	0.624078	0.00840549	-67.4424	407.986	2.47091	0.569958	-6.32774e-17	0.251328	0.0586062	-0.354533	-0.00214718
4.84929	54.6015	208.42	4.27752	1.01795	-1.13022e-16	0.174277	0.139673	0.533147	0.0109421	-70.3892	439.517	5.41923	0.567332	-6.29854e-17	0.251596	0.0578308	-0.361101	-0.00445236
4.85928	45.1953	164.923	4.8024	1.01619	-1.12828e-16	0.176412	0.116212	0.424074	0.0123486	-72.3901	470.149	8.36771	0.565047	-6.27313e-17	0.251813	0.0552876	-0.359074	-0.00639079
4.86927	36.0455	125.969	5.02938	1.01457	-1.12651e-16	0.178558	0.0878018	0.306842	0.0122509	-73.4333	499.443	11.2349	0.563112	-6.25163e-17	0.251978	0.0510258	-0.347042	-0.00780669
4.87926	27.5125	92.1595	4.9881	1.01317	-1.12495e-16	0.180588	0.0568472	0.190423	0.0103066	-73.5403	526.93	13.9585	0.561518	-6.23392e-17	0.252096	0.0452337	-0.324108	-0.0085857
4.88925	19.8873	63.7862	4.72232	1.01205	-1.12366e-16	0.182333	0.0256107	0.0821431	0.00608136	-72.7614	552.146	16.495	0.560235	-6.21969e-17	0.252173	0.038234	-0.290136	-0.00866764
4.89924	13.3714	40.8435	4.28573	1.01133	-1.12263e-16	0.183542	-0.00407237	-0.0124392	-0.00130525	-71.1697	574.66	18.818	0.559221	-6.20845e-17	0.252215	0.0304517	-0.245883	-0.00805176
4.90923	8.06861	23.0742	3.73649	1.01142	-1.12187e-16	0.183719	-0.0309573	-0.0885301	-0.014336	-68.855	594.107	20.9149	0.558425	-6.19964e-17	0.252233	0.0223651	-0.192975	-0.00679349
4.91923	3.99065	10.0249	3.13124	1.01519	-1.12132e-16	0.180839	-0.0537771	-0.135093	-0.0421958	-65.9175	610.208	22.783	0.557791	-6.19263e-17	0.252233	0.0144503	-0.133769	-0.00499445
4.92922	0	0	0	0	-6.18682e-17	0	0	0	0	-62.4623	622.791	24.4251	0.557264	-6.18682e-17	0.252224	0.00713059	-0.0710968	-0.00278833
4.93921	-0.814141	-4.34185	1.94188	1.02671	-1.12075e-16	0.19615	-0.0381518	-0.203465	0.0909994	-58.595	631.794	25.8457	0.55679	-6.18161e-17	0.252209	0.000737472	-0.00795171	-0.000325292
4.9492	-1.82915	-7.01527	1.42504	1.01301	-1.12065e-16	0.195967	-0.0573044	-0.219778	0.0446442	-54.4181	637.27	27.048	0.556322	-6.17645e-17	0.252195	-0.00451353	0.0528563	0.00224341
4.95919	-2.15728	-7.59329	0.985762	1.00988	-1.12063e-16	0.195383	-0.0559256	-0.19685	0.0255551	-50.0282	639.381	28.032	0.555813	-6.17085e-17	0.252182	-0.00853052	0.109023	0.00477985
4.96918	-1.98884	-6.72118	0.63106	1.00821	-1.12067e-16	0.195012	-0.0464648	-0.157025	0.0147433	-45.5139	638.385	28.794	0.555226	-6.16438e-17	0.252171	-0.0113381	0.159031	0.00717298
4.97917	-1.51239	-4.99713	0.361044	1.00672	-1.12074e-16	0.194664	-0.032919	-0.108768	0.00785854	-40.9532	634.624	29.3276	0.554527	-6.15665e-17	0.252161	-0.0130579	0.20235	0.0093511
4.98917	-0.911223	-2.97194	0.171685	1.00499	-1.12082e-16	0.194273	-0.0187153	-0.0610398	0.00352619	-36.4123	628.502	29.625	0.553687	-6.14736e-17	0.25215	-0.013879	0.239561	0.0112919
4.99916	0	0	0	0	-6.1362e-17	0	0	0	0	-31.944	620.467	29.6803	0.552678	-6.1362e-17	0.252135	-0.0140217	0.272352	0.0130281
5.00915	0	0	0	0	-6.12292e-17	0	0	0	0	-27.5883	610.989	29.4918	0.551479	-6.12292e-17	0.252115	-0.0136993	0.303395	0.0146446
5.01914	0	0	0	0	-6.10728e-17	0	0	0	0	-23.3733	600.538	29.066	0.550068	-6.10728e-17	0.252086	-0.0130808	0.336088	0.0162666
5.02913	0	0	0	0	-6.08906e-17	0	0	0	0	-19.3181	589.567	28.4195	0.548423	-6.08906e-17	0.252049	-0.0122612	0.374198	0.0180378
5.03912	0	0	0	0	-6.068e-17	0	0	0	0	-15.4361	578.492	27.5809	0.546522	-6.068e-17	0.252003	-0.0112452	0.421434	0.0200928
5.04911	0	0	0	0	-6.04384e-17	0	0	0	0	-11.7392	567.684	26.5909	0.544341	-6.04384e-17	0.251949	-0.00994708	0.48102	0.0225314
5.0591	0	0	0	0	-6.01631e-17	0	0	0	0	-8.24133	557.46	25.4993	0.541855	-6.01631e-17	0.251888	-0.00820965	0.555317	0.0254013
5.0691	0	0	0	0	-5.98508e-17	0	0	0	0	-4.9602	548.086	24.3619	0.539036	-5.98508e-17	0.251821	-0.00584222	0.645547	0.0286939
5.07909	0	0	0	0	-5.94989e-17	0	0	0	0	-1.91773	539.784	23.2351	0.535858	-5.94989e-17	0.25175	-0.00267041	0.75164	0.0323544
5.08908	0	0	0	0	-5.91045e-17	0	0	0	0	0.862035	532.74	22.171	0.532298	-5.91045e-17	0.251675	0.00141136	0.872224	0.0362994
5.09907	0	0	0	0	-5.86657e-17	0	0	0	0	3.357	527.111	21.214	0.528337	-5.86657e-17	0.251594	0.00639874	1.00472	0.0404359
5.10906	0	0	0	0	-5.81818e-17	0	0	0	0	5.55259	523.044	20.398	0.52397	-5.81818e-17	0.251507	0.0121613	1.14557	0.0446758
5.11905	0	0	0	0	-5.76535e-17	0	0	0	0	7.44821	520.673	19.7466	0.519203	-5.76535e-17	0.25141	0.0184606	1.2905	0.0489424
5.12904	0	0	0	0	-5.70836e-17	0	0	0	0	9.0633	520.129	19.2741	0.514061	-5.70836e-17	0.251302	0.0250019	1.43482	0.0531692
5.13903	0	0	0	0	-5.64772e-17	0	0	0	0	10.442	521.535	18.9883	0.508591	-5.64772e-17	0.251181	0.0315085	1.57372	0.0572965
5.14903	0	0	0	0	-5.58415e-17	0	0	0	0	11.6551	525	18.8927	0.502859	-5.58415e-17	0.251049	0.0377956	1.70249	0.0612659
5.15902	0	0	0	0	-5.51859e-17	0	0	0	0	12.7984	530.602	18.9891	0.496948	-5.51859e-17	0.250909	0.0438197	1.8167	0.0650155
5.16901	0	0	0	0	-5.45211e-17	0	0	0	0	13.9876	538.375	19.2779	0.490955	-5.45211e-17	0.250763	0.0496843	1.91232	0.0684755
5.179	0	0	0	0	-5.38586e-17	0	0	0	0	15.3507	548.29	19.7578	0.484985	-5.38586e-17	0.250618	0.055599	1.98586	0.0715611
5.18899	0.506001	-3.68366	-0.189989	-0.00444456	-5.32099e-17	0.133121	-0.000183149	0.00133332	6.87673e-05	17.0186	560.24	20.4224	0.47914	-5.32099e-17	0.250479	0.0618054	2.03459	0.0741669
5.19898	0.761154	-5.14232	-0.217422	-0.00440127	-5.25856e-17	0.133139	-0.00029162	0.00197017	8.33007e-05	19.1159	574.033	21.2573	0.473516	-5.25856e-17	0.25035	0.0684927	2.05677	0.0761654
5.20897	1.06257	-6.7635	-0.232303	-0.00434468	4.83887e-19	0.133158	-0.000426595	0.00271536	9.32634e-05	21.7528	589.387	22.2367	0.468198	-5.1995e-17	0.250232	0.0757309	2.05191	0.0774155
5.21897	1.3976	-8.43302	-0.225612	-0.00427489	4.75853e-19	0.13318	-0.000585521	0.00353299	9.45195e-05	25.0179	605.928	23.3226	0.463252	-5.14455e-17	0.250126	0.0834378	2.02084	0.0777837
5.22896	1.7424	-9.97015	-0.18617	-0.00419368	4.66498e-19	0.133203	-0.000761432	0.00435698	8.13567e-05	28.9713	623.191	24.4649	0.458726	-5.09425e-17	0.250028	0.0913858	1.96576	0.077171
5.23895	2.05911	-11.1163	-0.100989	-0.00410532	4.56243e-19	0.133227	-0.000941374	0.00508208	4.61697e-05	33.6395	640.619	25.6048	0.454649	-5.04893e-17	0.249936	0.0992407	1.88991	0.0755375
5.24894	2.29339	-11.5279	0.0439215	-0.00401779	4.4586e-19	0.133251	-0.00110518	0.00555529	-2.11657e-05	39.0093	657.566	26.6787	0.45103	-5.00867e-17	0.249844	0.106615	1.79717	0.0729145
5.25893	2.37287	-10.7771	0.262163	-0.00394488	4.36574e-19	0.133277	-0.00122577	0.00556721	-0.000135427	45.0233	673.305	27.6227	0.447859	-4.97338e-17	0.249748	0.113116	1.69161	0.0693991
5.26892	2.20718	-8.36236	0.564876	-0.00391364	4.30167e-19	0.133314	-0.00127573	0.00483335	-0.000326492	51.5763	687.036	28.3763	0.445107	-4.94273e-17	0.249642	0.118388	1.57702	0.0651348
5.27891	1.69034	-3.73207	0.95797	-0.00405532	4.29067e-19	0.133481	-0.00125535	0.00277167	-0.00071145	58.513	697.91	28.885	0.44273	-4.91625e-17	0.249521	0.122122	1.45661	0.0602858
5.2889	0.70596	3.67741	1.43876	-0.00397516	4.36418e-19	0.133128	7.98433e-05	0.000415912	0.000162722	65.6297	705.057	29.1017	0.440673	-4.89332e-17	0.24938	0.124068	1.33285	0.0550143
5.2989	-0.864114	14.3907	1.99227	-0.0040683	4.56087e-19	0.133056	0.000248261	-0.00413447	-0.000572381	72.6786	707.626	28.9869	0.438873	-4.87324e-17	0.249213	0.124029	1.20759	0.0494672
5.30889	-3.12797	28.8336	2.58777	-0.00440349	4.92591e-19	0.132976	0.00116334	-0.0107237	-0.000962434	79.3768	704.832	28.5091	0.437262	-4.85528e-17	0.249013	0.121878	1.08222	0.0437738
5.31888	-6.16922	47.2723	3.17619	-0.00493454	5.50902e-19	0.132842	0.0025292	-0.0193802	-0.00130214	85.4192	696.003	27.6455	0.435776	-4.83869e-17	0.24877	0.117574	0.958	0.0380521
5.32887	-10.0318	69.7642	3.68949	-0.0057065	6.36082e-19	0.132653	0.00432715	-0.0300922	-0.00159143	90.4954	680.632	26.3836	0.434351	-4.8228e-17	0.248474	0.111194	0.836312	0.0324183
5.33886	-14.7067	96.1341	4.04297	-0.00676111	7.52702e-19	0.132406	0.00651428	-0.0425821	-0.00179081	94.3091	658.422	24.7251	0.432935	-4.807e-17	0.248112	0.10296	0.718819	0.0269932
5.34885	-20.1235	125.987	4.14146	-0.00812781	9.03997e-19	0.132103	0.00898224	-0.0562351	-0.00184856	96.5996	629.329	22.6895	0.431481	-4.79078e-17	0.247672	0.0932404	0.607445	0.0219005
5.35884	-26.1509	158.762	3.88961	-0.00981332	1.0907e-18	0.131747	0.0115383	-0.0700486	-0.00171617	97.1638	593.596	20.3181	0.429954	-4.77377e-17	0.24714	0.0825324	0.50421	0.0172585
5.36883	-32.6072	193.801	3.20542	-0.0118073	1.31165e-18	0.131346	0.013902	-0.0826267	-0.00136662	95.8757	551.767	17.6763	0.428331	-4.75569e-17	0.246506	0.0714076	0.410953	0.0131652
5.37883	-39.2785	230.422	2.03423	-0.0140842	1.56405e-18	0.130908	0.0157228	-0.0922361	-0.000814282	92.7028	504.695	14.8523	0.426598	-4.7364e-17	0.245761	0.0604388	0.329043	0.00968317
5.38882	-45.9373	267.965	0.359913	-0.0166043	1.8435e-18	0.130446	0.016618	-0.0969374	-0.0001302	87.7161	453.519	11.9529	0.424754	-4.71589e-17	0.2449	0.0501265	0.259169	0.00683065
5.39881	-52.3567	305.805	-1.78932	-0.0193151	2.14421e-18	0.129974	0.0162294	-0.0947925	0.000554647	81.0929	399.624	9.0953	0.422809	-4.69425e-17	0.243923	0.0408437	0.201277	0.00458099
5.4088	-58.3203	343.364	-4.34217	-0.0221543	2.45928e-18	0.129509	0.0142921	-0.0841457	0.00106411	73.1108	344.565	6.39647	0.420783	-4.67173e-17	0.242838	0.0328119	0.15464	0.00287072
5.41879	-63.6326	380.097	-7.19264	-0.0250547	2.78127e-18	0.129066	0.0107056	-0.0639476	0.00121009	64.1324	289.976	3.96198	0.418712	-4.6487e-17	0.241661	0.0261014	0.118018	0.0016125
5.42878	-68.1313	415.496	-10.2137	-0.0279504	3.10289e-18	0.128659	0.00558057	-0.0340329	0.000836599	54.5794	237.45	1.87544	0.416643	-4.6257e-17	0.240415	0.0206493	0.0898357	0.000709546
5.43877	-71.698	449.095	-13.273	-0.0307833	3.41766e-18	0.1283	-0.000760633	0.00476438	-0.000140811	44.8989	188.426	0.190622	0.414638	-4.60341e-17	0.239135	0.0162899	0.0683637	6.91601e-05
5.44877	-74.2666	480.479	-16.2456	-0.0335082	3.72055e-18	0.127996	-0.00784147	0.0507315	-0.00171529	35.5234	144.078	-1.07235	0.412766	-4.5826e-17	0.237867	0.0127955	0.0518968	-0.000386259
5.45876	-75.8242	509.292	-19.0238	-0.036096	4.00829e-18	0.127752	-0.0151253	0.101593	-0.00379484	26.8315	105.237	-1.92612	0.411103	-4.56408e-17	0.236664	0.00992422	0.0389243	-0.000712418
5.46875	-76.4072	535.249	-21.5221	-0.0385347	4.2795e-18	0.12757	-0.0221098	0.154884	-0.00622781	19.1154	72.361	-2.41105	0.409706	-4.54851e-17	0.235579	0.00746731	0.0282674	-0.000941859
5.47874	-76.0919	558.141	-23.6786	-0.0408281	4.53459e-18	0.127448	-0.0283923	0.20826	-0.00883523	12.5625	45.5399	-2.58719	0.408595	-4.53605e-17	0.234658	0.00528401	0.0191548	-0.00108822
5.48873	-74.982	577.836	-25.4552	-0.0429934	4.77542e-18	0.127382	-0.0336964	0.259676	-0.0114394	7.25228	24.5427	-2.52512	0.407765	-4.52658e-17	0.233921	0.00331854	0.0112304	-0.00115546
5.49872	-73.1957	594.275	-26.8367	-0.0450576	5.00499e-18	0.127368	-0.0378677	0.307447	-0.013884	3.16691	8.88359	-2.29695	0.407235	-4.51977e-17	0.233383	0.00158986	0.00445977	-0.00115312
5.50871	-70.8534	607.464	-27.829	-0.0470536	5.22693e-18	0.127399	-0.0408526	0.350251	-0.0160456	0	0	0	0	5.22693e-18	0	0	0	0
5.5187	-68.0686	617.466	-28.4565	-0.0490169	5.44518e-18	0.127468	-0.0426745	0.38711	-0.0178403	-1.75892	-9.16835	-1.59764	0.406387	-4.51244e-17	0.232551	-0.000585306	-0.0030509	-0.000531638
5.5287	-64.9421	624.386	-28.7592	-0.0509826	5.66362e-18	0.127565	-0.0434125	0.417389	-0.019225	-2.92012	-13.1108	-1.22547	0.406282	-4.51104e-17	0.232392	-0.00114436	-0.00513797	-0.000480248
5.53869	-61.5595	628.364	-28.7891	-0.0529831	5.88587e-18	0.127682	-0.0431855	0.440812	-0.0201962	-3.45236	-14.685	-0.882519	0.406255	-4.51062e-17	0.232307	-0.0014638	-0.00622641	-0.000374187
5.54868	-57.9911	629.568	-28.6053	-0.0550473	6.11515e-18	0.127808	-0.0421365	0.457446	-0.0207847	-3.52686	-14.5755	-0.586764	0.406285	-4.51087e-17	0.232279	-0.00159017	-0.00657171	-0.000264557
5.55867	-54.293	628.198	-28.2693	-0.0572	6.35419e-18	0.127934	-0.0404169	0.467645	-0.0210443	-3.29451	-13.3671	-0.346354	0.406349	-4.51152e-17	0.232294	-0.00157297	-0.00638216	-0.000165368
5.56866	-50.5096	624.486	-27.8407	-0.0594611	6.60525e-18	0.128053	-0.0381687	0.471908	-0.0210385	-2.88011	-11.5328	-0.162046	0.406431	-4.51237e-17	0.232334	-0.00145626	-0.0058313	-8.19347e-05
5.57865	-46.6755	618.701	-27.3722	-0.061847	6.87013e-18	0.128157	-0.0355068	0.470656	-0.0208224	-2.38063	-9.43405	-0.0295825	0.406519	-4.51329e-17	0.23239	-0.00127698	-0.00506044	-1.58681e-05
5.58864	-42.8184	611.154	-26.907	-0.0643705	7.15027e-18	0.128241	-0.0325064	0.463969	-0.0204269	-1.86653	-7.3293	0.0582379	0.406605	-4.51417e-17	0.232452	-0.00106462	-0.00418043	3.32172e-05
5.59863	-38.9614	602.195	-26.4764	-0.0670419	7.4468e-18	0.128305	-0.0292007	0.451332	-0.0198435	-1.38486	-5.38823	0.109908	0.406684	-4.51497e-17	0.232514	-0.000841918	-0.00327575	6.68178e-05
5.60863	-35.1251	592.205	-26.0987	-0.0698693	7.76061e-18	0.128348	-0.0255908	0.431458	-0.0190145	-0.963421	-3.70828	0.134005	0.406756	-4.51564e-17	0.232575	-0.000630771	-0.00242789	8.77359e-05
5.61862	-31.3299	581.588	-25.779	-0.0728591	8.09239e-18	0.128374	-0.0216682	0.402235	-0.0178291	0	0	0	0	8.09239e-18	0	0	0	0
5.62861	-27.5967	570.752	-25.5105	-0.0760161	8.44262e-18	0.128391	-0.017446	0.360816	-0.0161271	0	0	0	0	8.44262e-18	0	0	0	0
5.6386	-23.9478	560.096	-25.2767	-0.0793429	8.81154e-18	0.128408	-0.0129921	0.303862	-0.013713	0	0	0	0	8.81154e-18	0	0	0	0
5.64859	-20.4063	549.998	-25.0545	-0.0828394	9.19912e-18	0.128435	-0.00845565	0.2279	-0.0103817	0	0	0	0	9.19912e-18	0	0	0	0
5.65858	-16.9942	540.795	-24.8174	-0.0865024	9.60492e-18	0.128483	-0.00407793	0.129769	-0.00595516	0	0	0	0	9.60492e-18	0	0	0	0
5.66857	-13.7309	532.782	-24.5401	-0.0903244	1.00281e-17	0.128564	-0.000182424	0.00707834	-0.00032603	0	0	0	0	1.00281e-17	0	0	0	0
5.67857	-10.6306	526.202	-24.2019	-0.0942935	1.04673e-17	0.128684	0.00285625	-0.141381	0.00650264	0	0	0	0	1.04673e-17	0	0	0	0
5.68856	-7.70003	521.247	-23.7902	-0.0983934	1.09208e-17	0.12885	0.00465812	-0.315327	0.0143918	0	0	0	0	1.09208e-17	0	0	0	0
5.69855	-4.93722	518.055	-23.3023	-0.102603	1.13863e-17	0.129063	0.00488718	-0.512804	0.0230662	0	0	0	0	1.13863e-17	0	0	0	0
5.70854	-2.32976	516.718	-22.7476	-0.106897	1.18611e-17	0.12932	0.00329208	-0.730153	0.0321437	0	0	0	0	1.18611e-17	0	0	0	0
5.71853	0.145551	517.284	-22.1464	-0.111247	1.23421e-17	0.129613	-0.000270718	-0.962125	0.0411913	0	0	0	0	1.23421e-17	0	0	0	0
5.72852	2.52296	519.764	-21.5287	-0.115621	1.28258e-17	0.129932	-0.00583517	-1.20212	0.0497922	0	0	0	0	1.28258e-17	0	0	0	0
5.73851	4.84756	524.138	-20.9309	-0.119981	1.33084e-17	0.130262	-0.0133416	-1.44255	0.0576066	0	0	0	0	1.33084e-17	0	0	0	0
5.7485	7.17456	530.358	-20.392	-0.124291	1.37856e-17	0.130588	-0.0226615	-1.67518	0.0644099	0	0	0	0	1.37856e-17	0	0	0	0
5.7585	9.568	538.358	-19.949	-0.128508	1.42528e-17	0.130894	-0.0336199	-1.89167	0.0700964	0	0	0	0	1.42528e-17	0	0	0	0
5.76849	12.0988	548.042	-19.633	-0.13259	1.47053e-17	0.131164	-0.0460058	-2.08393	0.0746544	0	0	0	0	1.47053e-17	0	0	0	0
5.77848	14.8423	559.291	-19.4655	-0.136493	1.51383e-17	0.131385	-0.0595663	-2.24459	0.0781204	0	0	0	0	1.51383e-17	0	0	0	0
5.78847	17.8746	571.94	-19.4561	-0.140178	1.55473e-17	0.131546	-0.0739859	-2.36736	0.0805323	0	0	0	0	1.55473e-17	0	0	0	0
5.79846	21.2686	585.775	-19.6016	-0.143608	1.59282e-17	0.131639	-0.0888584	-2.44732	0.081894	0	0	0	0	1.59282e-17	0	0	0	0
5.80845	25.0887	600.51	-19.8852	-0.146754	1.62778e-17	0.131661	-0.103662	-2.48119	0.0821618	0	0	0	0	1.62778e-17	0	0	0	0
5.81844	29.3846	615.774	-20.2776	-0.149597	1.6594e-17	0.131613	-0.117747	-2.46746	0.081254	0	0	0	0	1.6594e-17	0	0	0	0
5.82843	34.1841	631.099	-20.7377	-0.152132	1.68762e-17	0.131499	-0.13035	-2.40649	0.0790765	0	0	0	0	1.68762e-17	0	0	0	0
5.83843	39.4864	645.914	-21.215	-0.154366	1.71251e-17	0.131329	-0.140631	-2.30043	0.0755574	0	0	0	0	1.71251e-17	0	0	0	0
5.84842	45.2554	659.554	-21.6512	-0.156319	1.73429e-17	0.131114	-0.147736	-2.15311	0.0706803	0	0	0	0	1.73429e-17	0	0	0	0
5.85841	51.4148	671.273	-21.9834	-0.158023	1.75334e-17	0.130872	-0.150868	-1.96974	0.0645065	0	0	0	0	1.75334e-17	0	0	0	0
5.8684	57.8454	680.271	-22.1462	-0.159523	1.77013e-17	0.13062	-0.14937	-1.75661	0.0571866	0	0	0	0	1.77013e-17	0	0	0	0
5.87839	64.385	685.734	-22.0749	-0.160868	1.7852e-17	0.13038	-0.142801	-1.5209	0.0489603	0	0	0	0	1.7852e-17	0	0	0	0
5.88838	70.8322	686.874	-21.7072	-0.162113	1.79917e-17	0.130176	-0.131015	-1.27048	0.0401508	0	0	0	0	1.79917e-17	0	0	0	0
5.89837	76.9533	682.977	-20.9878	-0.163313	1.81264e-17	0.130031	-0.114225	-1.01377	0.0311529	0	0	0	0	1.81264e-17	0	0	0	0
5.90837	82.4923	673.458	-19.8726	-0.164523	1.82621e-17	0.129972	-0.0930395	-0.759565	0.0224135	0	0	0	0	1.82621e-17	0	0	0	0
5.91836	87.1849	657.899	-18.3365	-0.165793	1.84043e-17	0.130026	-0.0684629	-0.516622	0.0143989	0	0	0	0	1.84043e-17	0	0	0	0
5.92835	90.7747	636.094	-16.3797	-0.167169	1.85581e-17	0.130217	-0.0418378	-0.293174	0.00754937	0	0	0	0	1.85581e-17	0	0	0	0
5.93834	93.0309	608.077	-14.0343	-0.16869	1.87279e-17	0.13057	-0.0147402	-0.0963464	0.00222366	0	0	0	0	1.87279e-17	0	0	0	0
5.94833	93.7663	574.138	-11.3667	-0.17039	1.89173e-17	0.131108	0.0111696	0.0683925	-0.00135403	0	0	0	0	1.89173e-17	0	0	0	0
5.95832	92.8548	534.828	-8.47569	-0.172296	1.91294e-17	0.131848	0.0343168	0.197659	-0.0031324	0	0	0	0	1.91294e-17	0	0	0	0
5.96831	90.2456	490.946	-5.48555	-0.174427	1.93661e-17	0.132806	0.0533728	0.290354	-0.00324425	0	0	0	0	1.93661e-17	0	0	0	0
5.9783	85.9737	443.511	-2.53479	-0.176794	1.96286e-17	0.133989	0.0673812	0.347598	-0.00198662	0	0	0	0	1.96286e-17	0	0	0	0
5.9883	80.1654	393.721	0.237671	-0.179396	1.99169e-17	0.135397	0.0758346	0.372452	0.000224832	0	0	0	0	1.99169e-17	0	0	0	0
5.99829	73.0358	342.897	2.70614	-0.182218	2.02293e-17	0.137023	0.0786983	0.369482	0.00291595	0	0	0	0	2.02293e-17	0	0	0	0
6.00828	64.8804	292.41	4.76978	-0.185227	2.05622e-17	0.138847	0.0763861	0.344265	0.00561564	0	0	0	0	2.05622e-17	0	0	0	0
6.01827	56.056	243.596	6.36034	-0.18837	2.09096e-17	0.140838	0.0696973	0.302875	0.00790813	0	0	0	0	2.09096e-17	0	0	0	0
6.02826	46.9558	197.674	7.44549	-0.191566	2.12628e-17	0.142948	0.0597224	0.251418	0.00946982	0	0	0	0	2.12628e-17	0	0	0	0
6.03825	37.9766	155.657	8.02813	-0.194713	2.16102e-17	0.145113	0.0477237	0.195609	0.0100887	0	0	0	0	2.16102e-17	0	0	0	0
6.04824	29.4842	118.296	8.14286	-0.197685	2.19383e-17	0.147251	0.0349979	0.140418	0.00966561	0	0	0	0	2.19383e-17	0	0	0	0
6.05823	21.7812	86.0445	7.85065	-0.200352	2.2233e-17	0.149267	0.0227358	0.0898155	0.00819471	0	0	0	0	2.2233e-17	0	0	0	0
6.06823	15.0834	59.0597	7.23218	-0.202604	2.24828e-17	0.151056	0.0119077	0.0466252	0.0057095	0	0	0	0	2.24828e-17	0	0	0	0
6.07822	9.50991	37.2359	6.37997	-0.204378	2.26841e-17	0.15252	0.00320431	0.0125464	0.00214969	0	0	0	0	2.26841e-17	0	0	0	0
6.08821	5.08713	20.2506	5.38965	-0.205558	2.28383e-17	0.153572	-0.00288485	-0.0114839	-0.0030564	0	0	0	0	2.28383e-17	0	0	0	0
6.0982	1.76247	7.62108	4.351	-0.205063	2.29501e-17	0.154031	-0.00510414	-0.0220707	-0.0126005	0	0	0	0	2.29501e-17	0	0	0	0
6.10819	-0.575342	-1.23859	3.34048	-0.197127	2.3026e-17	0.157191	-0.00219156	-0.00471796	0.0127244	0	0	0	0	2.3026e-17	0	0	0	0
6.11818	-2.07424	-6.96436	2.4163	-0.205982	2.30729e-17	0.157494	-0.0109995	-0.0369313	0.0128134	0	0	0	0	2.30729e-17	0	0	0	0
6.12817	-2.89817	-10.1955	1.61665	-0.207395	2.30975e-17	0.157386	-0.0118578	-0.0417148	0.00661451	0	0	0	0	2.30975e-17	0	0	0	0
6.13817	-3.21014	-11.5364	0.960749	-0.207814	2.3106e-17	0.157412	-0.0118093	-0.0424392	0.00353434	0	0	0	0	2.3106e-17	0	0	0	0
6.14816	-3.15977	-11.5285	0.451772	-0.207953	2.31034e-17	0.157454	-0.0115716	-0.0422193	0.00165447	0	0	0	0	2.31034e-17	0	0	0	0
6.15815	-2.87558	-10.6332	0.0808023	-0.207982	2.3094e-17	0.157512	-0.0113835	-0.0420934	0.00031987	0	0	0	0	2.3094e-17	0	0	0	0
6.16814	-2.46143	-9.22419	-0.169035	-0.20798	2.3081e-17	0.157614	-0.0113203	-0.0424226	-0.000777401	0	0	0	0	2.3081e-17	0	0	0	0
6.17813	-1.99612	-7.58827	-0.318809	-0.208005	2.30668e-17	0.157801	-0.0113268	-0.0430591	-0.00180906	0	0	0	0	2.30668e-17	0	0	0	0
6.18812	-1.53531	-5.9321	-0.390726	-0.208123	2.30528e-17	0.158112	-0.0112248	-0.0433701	-0.00285663	0	0	0	0	2.30528e-17	0	0	0	0
6.19811	-1.11485	-4.39296	-0.405892	-0.208416	2.30402e-17	0.158573	-0.0107187	-0.042236	-0.00390244	0	0	0	0	2.30402e-17	0	0	0	0
6.2081	-0.754574	-3.05133	-0.382885	-0.208995	2.30295e-17	0.159137	-0.00940852	-0.0380459	-0.00477406	0	0	0	0	2.30295e-17	0	0	0	0
6.2181	0	0	0	0	-0.147135	0	0	0	0	0	0	0	0	-0.0119705	0	0	0	0
6.22809	0	0	0	0	-0.136815	0	0	0	0	0	0	0	0	-0.0122109	0	0	0	0
6.23808	0	0	0	0	-0.126174	0	0	0	0	0	0	0	0	-0.0123908	0	0	0	0
6.24807	0	0	0	0	-0.115354	0	0	0	0	0	0	0	0	-0.0125251	0	0	0	0
6.25806	0	0	0	0	-0.104489	0	0	0	0	0	0	0	0	-0.012635	0	0	0	0
6.26805	0	0	0	0	-0.093759	0	0	0	0	0	0	0	0	-0.0127426	0	0	0	0
6.27804	0	0	0	0	-0.0833683	0	0	0	0	0	0	0	0	-0.0128668	0	0	0	0
6.28803	0	0	0	0	-0.073537	0	0	0	0	0	0	0	0	-0.0130249	0	0	0	0
6.29803	0	0	0	0	-0.0644394	0	0	0	0	0	0	0	0	-0.0132363	0	0	0	0
6.30802	0	0	0	0	-0.0562415	0	0	0	0	0	0	0	0	-0.0135198	0	0	0	0
6.31801	0	0	0	0	-0.0490919	0	0	0	0	0	0	0	0	-0.0138906	0	0	0	0
6.328	0	0	0	0	-0.0431087	0	0	0	0	0	0	0	0	-0.0143604	0	0	0	0
6.33799	0	0	0	0	-0.0383721	0	0	0	0	0	0	0	0	-0.0149376	0	0	0	0
6.34798	0	0	0	0	-0.0350188	0	0	0	0	0	0	0	0	-0.0156287	0	0	0	0
6.35797	0	0	0	0	-0.033142	0	0	0	0	0	0	0	0	-0.0164379	0	0	0	0
6.36797	0	0	0	0	-0.0327989	0	0	0	0	0	0	0	0	-0.0173657	0	0	0	0
