PathFileType	4	(X/Y/Z)	/tmp/tmpnnkyrfko/P51/MarkerData/DB4_P51_T25_l_slow_relabeled_segment_1.trc
DataRate	CameraRate	NumFrames	NumMarkers	Units	OrigDataRate	OrigDataStartFrame	OrigNumFrames
100.137	100.137	141	14	m	100.137	0	141
Frame#	Time	CLAV			LANK			LHEE			LKNE			LMT5			LSHO			LTHI			LTIB			LTOE			RANK			RKNE			RSHO			RTIB			RTOE		
		X1	Y1	Z1	X2	Y2	Z2	X3	Y3	Z3	X4	Y4	Z4	X5	Y5	Z5	X6	Y6	Z6	X7	Y7	Z7	X8	Y8	Z8	X9	Y9	Z9	X10	Y10	Z10	X11	Y11	Z11	X12	Y12	Z12	X13	Y13	Z13	X14	Y14	Z14

1	2.36	2.7836	-1.32738	0.143442	2.88142	-0.0804006	0.0312155	2.91649	-0.0509883	0.0937579	2.74602	-0.450373	-0.01423	2.77917	-0.0162167	-0.0325227	2.83769	-1.3754	-0.0376349	2.78365	-0.610104	-0.0738534	2.81866	-0.295686	-0.0146602	2.72818	-0.00846708	-0.0132689	2.93451	-0.0328812	0.235472	2.8497	-0.430309	0.267938	2.82831	-1.36804	0.331729	2.90376	-0.246047	0.28493	2.76202	0.00130398	0.199137
2	2.36999	2.77503	-1.32734	0.143826	2.85114	-0.0735846	0.0313205	2.88668	-0.0431293	0.0918959	2.73426	-0.450594	-0.0132194	2.74552	-0.0157059	-0.0319334	2.83135	-1.37449	-0.037733	2.77438	-0.596089	-0.0727081	2.79991	-0.291252	-0.0134052	2.69417	-0.0105768	-0.012278	2.93447	-0.0328736	0.23549	2.84843	-0.429592	0.268012	2.82051	-1.36787	0.331989	nan	nan	nan	2.75981	0.000637451	0.199412
3	2.37997	2.76728	-1.32669	0.144128	2.82068	-0.0674168	0.0310096	2.85558	-0.0352151	0.0907502	2.72309	-0.450635	-0.0123664	2.71145	-0.0157415	-0.0310665	2.82498	-1.37353	-0.0375169	2.76563	-0.581488	-0.0716962	2.78075	-0.28881	-0.01298	2.66023	-0.0134719	-0.0110985	2.93439	-0.032965	0.235479	2.84709	-0.429208	0.26821	2.8119	-1.36778	0.33226	2.89796	-0.241599	0.284859	2.76053	0.000676525	0.199524
4	2.38996	2.75987	-1.32587	0.144266	2.79024	-0.062086	0.0300932	2.82397	-0.0277989	0.0895955	2.71204	-0.45037	-0.0111848	2.67703	-0.0162181	-0.0298582	2.81856	-1.37242	-0.0372571	2.75522	-0.598799	-0.0715411	2.7599	-0.290582	-0.0139039	2.62645	-0.0170068	-0.00969335	2.9344	-0.0330299	0.235396	2.84544	-0.429081	0.268504	2.80297	-1.3675	0.332732	2.89545	-0.234632	0.283205	2.76137	0.00072278	0.199372
5	2.39995	2.75238	-1.3251	0.144338	2.75962	-0.0574593	0.0289847	2.79242	-0.0213171	0.0879685	2.70127	-0.449843	-0.00987706	2.64316	-0.0176862	-0.0289918	2.81129	-1.37118	-0.0370349	2.74523	-0.610185	-0.0711913	2.7381	-0.294196	-0.0153649	2.59287	-0.0209556	-0.00793525	2.93419	-0.03314	0.235407	2.84401	-0.428846	0.268762	2.79396	-1.36694	0.333068	2.89493	-0.240685	0.285268	2.76181	0.000615216	0.199035
6	2.40993	2.74489	-1.32415	0.144348	2.72889	-0.0535412	0.0278854	2.76109	-0.0158543	0.0859484	2.69095	-0.449097	-0.00869734	2.60953	-0.0199558	-0.0279844	2.80409	-1.36995	-0.0368974	2.73551	-0.610273	-0.0703089	2.72227	-0.284512	-0.0131544	2.55982	-0.02556	-0.00597607	2.9341	-0.033212	0.235435	2.84243	-0.428444	0.269028	2.78562	-1.36625	0.333162	nan	nan	nan	2.76186	0.000555614	0.198926
7	2.41992	2.73707	-1.32308	0.144339	2.69824	-0.0504821	0.0267237	2.72962	-0.0109931	0.0842048	2.68099	-0.448067	-0.00767777	2.57548	-0.0227002	-0.0262084	2.79639	-1.36873	-0.0367165	2.72678	-0.607928	-0.0691787	2.70533	-0.276912	-0.0117545	2.52713	-0.0308139	-0.00354413	2.93409	-0.0333084	0.235416	2.84016	-0.427924	0.269479	2.77733	-1.36554	0.33321	nan	nan	nan	2.76182	0.000533736	0.198928
8	2.4299	2.72944	-1.32193	0.144274	2.66806	-0.0484257	0.0252872	2.69847	-0.00693285	0.0823604	2.67119	-0.446685	-0.00665036	2.54127	-0.0259563	-0.0235158	2.78857	-1.3676	-0.0365511	2.72348	-0.611326	-0.0680849	2.68671	-0.273856	-0.0121631	2.4949	-0.0368971	-0.000590517	2.934	-0.0335457	0.235413	2.83719	-0.427514	0.270139	2.76914	-1.36472	0.333132	nan	nan	nan	2.7618	0.000520002	0.198941
9	2.43989	2.72144	-1.3209	0.144214	2.63825	-0.0471532	0.0238885	2.66792	-0.00371294	0.0802309	2.66154	-0.445034	-0.00556858	2.51041	-0.0314997	-0.0221937	2.78107	-1.36635	-0.03656	2.72763	-0.622001	-0.0660259	2.66753	-0.27233	-0.0131221	2.46395	-0.0442499	0.00268141	2.93368	-0.0337876	0.235513	2.8338	-0.427194	0.270813	2.76131	-1.36367	0.332955	nan	nan	nan	2.76178	0.000522696	0.198987
10	2.44988	2.71335	-1.31966	0.144172	2.60911	-0.0467162	0.0224963	2.63823	-0.00132413	0.0778076	2.6521	-0.443265	-0.00437879	2.47998	-0.0377066	-0.0201606	2.7732	-1.36518	-0.0366692	2.72464	-0.624954	-0.0646141	2.64842	-0.270968	-0.0138548	2.43413	-0.0524057	0.00659099	2.93354	-0.0340098	0.235574	2.83099	-0.426823	0.271221	2.75326	-1.36253	0.332697	nan	nan	nan	2.76175	0.00051539	0.199022
11	2.45986	2.70498	-1.31837	0.144136	2.581	-0.0471254	0.0210335	2.60983	0.000197497	0.0749224	2.64277	-0.44149	-0.00301523	2.4496	-0.0441319	-0.0170388	2.76544	-1.36382	-0.0368202	2.71653	-0.622587	-0.0637085	2.62951	-0.269906	-0.0142224	2.40585	-0.061011	0.0110592	2.93342	-0.0342533	0.235605	2.82847	-0.426614	0.27153	2.74537	-1.36133	0.332451	2.88745	-0.204809	0.275778	2.76174	0.000505958	0.199053
12	2.46985	2.69709	-1.31684	0.143968	2.55424	-0.0483443	0.0193922	2.58311	0.000869201	0.0714208	2.63331	-0.439795	-0.00142639	2.4202	-0.0507745	-0.0130794	2.75731	-1.36248	-0.0371107	2.70794	-0.61964	-0.0629841	2.61102	-0.269469	-0.0144661	2.37945	-0.0696751	0.0160144	2.93343	-0.0346458	0.235553	2.82544	-0.426584	0.271897	nan	nan	nan	2.88689	-0.203399	0.275366	2.76175	0.000488843	0.199072
13	2.47984	nan	nan	nan	2.52888	-0.0502219	0.0177574	2.55796	0.00103579	0.0677921	2.62361	-0.438292	4.74775e-05	2.39507	-0.0585025	-0.0102958	2.74935	-1.36098	-0.0374861	2.70076	-0.615706	-0.0622727	2.59295	-0.269675	-0.0146477	2.35502	-0.0779703	0.021505	2.93355	-0.0350173	0.235443	2.82205	-0.426639	0.272263	2.72893	-1.3585	0.331742	2.88613	-0.204099	0.275436	2.76173	0.000481539	0.199119
14	2.48982	2.68073	-1.314	0.143407	2.50504	-0.0524421	0.0165987	2.53458	0.000836548	0.064492	2.61352	-0.437048	0.00113815	2.37169	-0.0656874	-0.00687691	2.74083	-1.35954	-0.0378452	2.69512	-0.60681	-0.0604917	2.57531	-0.270313	-0.0146867	2.33241	-0.0853214	0.02756	2.93331	-0.0355387	0.235446	nan	nan	nan	2.72042	-1.35684	0.331356	2.88514	-0.204943	0.275513	2.7617	0.000482878	0.199183
15	2.49981	2.67239	-1.3126	0.142974	2.48316	-0.0546575	0.016247	2.51326	0.000344588	0.0621374	2.60279	-0.43597	0.00205839	2.34958	-0.0713334	-0.00232479	2.7323	-1.35797	-0.038233	2.68978	-0.595872	-0.0583188	2.55843	-0.27111	-0.0146342	2.31205	-0.0913594	0.0336895	2.9333	-0.0360554	0.235392	2.81721	-0.425792	0.272213	2.71204	-1.35506	0.331062	2.88433	-0.205241	0.275464	2.76168	0.000478904	0.19924
16	2.50979	2.66424	-1.31103	0.14245	2.46364	-0.0563332	0.0169344	2.49421	-0.000196936	0.0612816	2.59163	-0.435014	0.00279116	2.3298	-0.0753003	0.00245508	2.72396	-1.35642	-0.0388356	2.67683	-0.601975	-0.0591371	2.54268	-0.271751	-0.0144465	2.29415	-0.0958897	0.0392979	2.93353	-0.036584	0.235299	2.81501	-0.425288	0.27217	2.70345	-1.35323	0.33064	nan	nan	nan	2.7617	0.000458418	0.199262
17	2.51978	2.65537	-1.30955	0.141948	2.44708	-0.0573427	0.018237	2.47758	-0.00047743	0.0619307	2.58018	-0.434106	0.00337176	2.31285	-0.0776468	0.00672509	2.71529	-1.35477	-0.0396225	2.66369	-0.60565	-0.0591325	2.52818	-0.271878	-0.0138955	2.2784	-0.0986336	0.0443374	2.93368	-0.0371686	0.235289	2.81218	-0.424705	0.272375	2.69518	-1.35141	0.330091	2.88295	-0.204419	0.274848	2.76173	0.000445679	0.1993
18	2.52977	2.64728	-1.30811	0.141136	2.43299	-0.0573335	0.0201203	2.46353	-0.000272105	0.0635037	2.56848	-0.433244	0.00390543	2.29864	-0.07842	0.0104694	2.70694	-1.35309	-0.0404749	2.65485	-0.598169	-0.0578281	2.51502	-0.271386	-0.0130473	2.26475	-0.0995842	0.0487266	2.9336	-0.037885	0.235347	2.80811	-0.424269	0.272762	2.68684	-1.34968	0.329396	2.88208	-0.209789	0.276218	2.76179	0.000428925	0.199328
19	2.53975	2.63964	-1.30666	0.140152	2.42131	-0.0564572	0.02206	2.45214	0.000531973	0.0652542	2.55667	-0.432441	0.00452259	2.28671	-0.0775898	0.014003	2.69866	-1.35147	-0.0414612	2.6519	-0.581797	-0.0565401	2.50319	-0.270382	-0.0120952	2.25338	-0.0989046	0.052547	2.93318	-0.0387197	0.235511	2.80285	-0.424343	0.273079	2.67864	-1.34796	0.328454	nan	nan	nan	2.76179	0.000439506	0.199377
20	2.54974	2.63126	-1.30519	0.139254	2.41155	-0.0546998	0.0240517	2.44324	0.00204352	0.0668042	2.54478	-0.431639	0.00531506	2.27718	-0.0755478	0.0171595	2.69055	-1.34966	-0.0426431	2.64073	-0.580488	-0.0574338	2.49243	-0.268975	-0.0109845	2.24392	-0.0965675	0.0562269	2.93216	-0.039722	0.235851	2.79755	-0.424851	0.273155	2.67043	-1.34632	0.327472	2.87929	-0.245934	0.286317	2.76177	0.000456786	0.199435
21	2.55973	2.62239	-1.30383	0.138113	2.40396	-0.052354	0.025898	2.43672	0.00414498	0.0681701	2.53286	-0.430762	0.00639502	2.26967	-0.0722705	0.0201223	2.68198	-1.34791	-0.043808	2.62199	-0.594442	-0.0600841	2.4827	-0.267301	-0.00969294	2.23632	-0.0927736	0.0597714	2.93108	-0.0408206	0.236203	2.79295	-0.425075	0.272923	2.66181	-1.34488	0.326414	2.88337	-0.254244	0.284447	2.76178	0.000455179	0.199463
22	2.56971	2.61332	-1.30249	0.137022	2.39868	-0.0494512	0.0276239	2.43269	0.00643937	0.0694879	2.5211	-0.429775	0.00770755	2.26402	-0.06769	0.0229054	2.67312	-1.34627	-0.0450256	2.60707	-0.600164	-0.0611647	2.47395	-0.265331	-0.00817792	2.23079	-0.0878079	0.0628928	2.93055	-0.0419896	0.236389	2.78848	-0.424559	0.272393	nan	nan	nan	2.8969	-0.261789	0.275153	2.7618	0.000440244	0.199471
23	2.5797	2.60417	-1.30132	0.135812	2.39553	-0.0461674	0.0294267	2.43105	0.0081802	0.0706189	2.50983	-0.428717	0.00892422	2.25988	-0.0616523	0.0254915	2.66419	-1.3448	-0.046388	2.58945	-0.594698	-0.06126	2.46632	-0.263032	-0.00654277	2.22648	-0.0810838	0.0655455	2.93032	-0.0433913	0.236465	2.78289	-0.42383	0.271797	2.64569	-1.34231	0.323883	2.90667	-0.268599	0.267209	2.76179	0.000440583	0.199492
24	2.58968	2.59496	-1.30031	0.13456	2.39398	-0.0433971	0.0312578	2.43046	0.00872201	0.0714303	2.49904	-0.42763	0.00995006	2.25597	-0.0538871	0.0279695	2.65526	-1.34347	-0.0479763	2.56411	-0.5812	-0.0606927	2.4596	-0.260651	-0.00457004	2.22106	-0.0709467	0.0681471	2.93012	-0.0449275	0.236492	2.77653	-0.423612	0.271227	2.63725	-1.34131	0.322408	2.91975	-0.278116	0.257368	2.76181	0.000444349	0.199482
25	2.59967	2.58562	-1.29955	0.133245	2.39192	-0.0425825	0.0328722	2.42938	0.007091	0.0718517	2.48877	-0.426825	0.0107014	2.25154	-0.0455833	0.0297141	2.64627	-1.34219	-0.0497146	2.54545	-0.575516	-0.0599355	2.45315	-0.258941	-0.00198596	2.21379	-0.058074	0.0701511	2.92917	-0.0467513	0.236782	2.76974	-0.423898	0.27033	2.62841	-1.34065	0.321054	2.92077	-0.282729	0.254221	2.76181	0.000458452	0.19948
26	2.60966	2.57616	-1.29925	0.131921	2.38667	-0.043608	0.033775	2.42739	0.00480295	0.0721304	2.47897	-0.426787	0.0110448	2.24701	-0.0388583	0.0305922	2.63717	-1.34114	-0.0515569	2.53202	-0.57504	-0.0592042	2.44617	-0.258669	0.000603125	2.20772	-0.0473941	0.0711629	2.92721	-0.0491011	0.237323	2.76391	-0.423723	0.268817	2.62005	-1.3401	0.319778	2.90801	-0.28179	0.260144	2.76182	0.000473021	0.199482
27	2.61964	2.56659	-1.29938	0.130512	2.38034	-0.0439607	0.0340325	2.42564	0.00281234	0.071997	2.4691	-0.427712	0.0109226	2.24278	-0.0330622	0.0311965	2.62788	-1.34033	-0.0533705	2.52128	-0.576563	-0.0592525	2.43815	-0.259814	0.00223288	2.20348	-0.0394824	0.0722139	2.92572	-0.0519153	0.237799	2.75637	-0.423601	0.267456	2.6116	-1.3398	0.318452	2.88499	-0.275144	0.274367	2.7618	0.000500271	0.199493
28	2.62963	2.55698	-1.29977	0.128932	2.37702	-0.0432189	0.0338339	2.42449	0.00150639	0.071649	2.4582	-0.429401	0.0106511	2.24017	-0.0276066	0.0320066	2.61838	-1.33994	-0.0551128	2.51518	-0.581959	-0.0603674	2.42895	-0.2616	0.00251889	2.20094	-0.0325277	0.0731124	2.92524	-0.0552334	0.23857	2.74697	-0.42375	0.266457	2.60249	-1.34019	0.31699	2.87297	-0.267694	0.278128	2.76177	0.000519049	0.19948
29	2.63962	2.54741	-1.30032	0.127227	2.37618	-0.0426156	0.0331982	2.42372	0.000560508	0.0709778	2.44607	-0.431529	0.0105047	2.23872	-0.0225869	0.0328743	2.60875	-1.34002	-0.0568138	2.51216	-0.590638	-0.0622654	2.41921	-0.263146	0.00184427	2.19943	-0.0263057	0.0742948	2.92483	-0.0590195	0.239633	2.73738	-0.424097	0.265338	2.59285	-1.34121	0.315489	2.85373	-0.250943	0.277144	2.7617	0.000570855	0.199509
30	2.6496	2.5379	-1.30108	0.125535	2.37493	-0.0422309	0.0323141	2.42236	-7.52409e-05	0.0704283	2.43341	-0.433617	0.0105145	2.237	-0.0180765	0.0332723	2.59914	-1.3405	-0.0585878	2.49787	-0.591004	-0.0625012	2.41009	-0.264192	0.000717165	2.19798	-0.0210932	0.0754684	2.91976	-0.0629246	0.239825	2.72807	-0.424025	0.263839	2.58374	-1.34242	0.313778	2.84467	-0.262414	0.277195	2.76164	0.000631885	0.199533
31	2.65959	2.52842	-1.30211	0.123859	2.37239	-0.0419163	0.0313507	2.42097	-0.000816008	0.0697663	2.42116	-0.435168	0.0105375	2.23417	-0.0139109	0.0324963	2.58956	-1.34121	-0.0603225	2.49296	-0.601306	-0.0640205	2.40197	-0.264774	-0.000471378	2.1962	-0.0167515	0.0763771	2.91653	-0.0673701	0.240506	2.71656	-0.424039	0.262704	2.57521	-1.34392	0.311883	2.82808	-0.294211	0.2812	2.76162	0.000702109	0.199542
32	2.66957	2.51896	-1.30348	0.122146	2.36974	-0.0415352	0.030553	2.42021	-0.00157841	0.068986	2.40985	-0.436018	0.0104396	2.23113	-0.0100842	0.0306041	2.58001	-1.34211	-0.0620383	2.48557	-0.608649	-0.0654533	2.39493	-0.264981	-0.00183877	2.19448	-0.0134316	0.0766927	2.91695	-0.0719621	0.241603	2.70414	-0.42407	0.261707	nan	nan	nan	2.81878	-0.297875	0.277829	2.76168	0.000750461	0.199491
33	2.67956	2.5095	-1.3052	0.120479	2.3684	-0.0410426	0.0298438	2.42001	-0.00206248	0.0682627	2.39987	-0.436391	0.010039	2.22896	-0.00684969	0.028761	2.5705	-1.34323	-0.0638426	2.47436	-0.611679	-0.0665686	2.38885	-0.264965	-0.00350145	2.19342	-0.0108835	0.0765265	2.915	-0.0769598	0.242135	2.69193	-0.423832	0.260844	nan	nan	nan	2.82041	-0.266824	0.272061	2.76178	0.000796018	0.199417
34	2.68955	2.50004	-1.30715	0.118911	2.36822	-0.0406279	0.0291215	2.42012	-0.00234293	0.067542	2.39153	-0.436683	0.0091649	2.22747	-0.00414004	0.0277742	2.56103	-1.34453	-0.0657279	2.46244	-0.613406	-0.0677423	2.38361	-0.264885	-0.00524688	2.19291	-0.00900124	0.0765509	2.91055	-0.0824783	0.24221	nan	nan	nan	2.55052	-1.34903	0.306351	2.81319	-0.245547	0.26928	2.76191	0.000869294	0.199457
35	2.69953	2.49064	-1.30925	0.117347	2.36803	-0.0403822	0.0283971	2.42032	-0.00254599	0.0667881	2.38464	-0.437036	0.00792307	2.22659	-0.00208741	0.0272507	2.55157	-1.34599	-0.0676988	2.45132	-0.615045	-0.0691421	2.37911	-0.264862	-0.006812	2.19266	-0.00768555	0.0769065	2.90456	-0.0884474	0.242393	2.66404	-0.424111	0.26099	2.54191	-1.35101	0.30474	2.80758	-0.261371	0.269652	2.76219	0.000973229	0.199756
36	2.70952	2.48131	-1.31149	0.115668	2.36749	-0.0401674	0.0277243	2.41999	-0.00235155	0.0665205	2.37886	-0.437376	0.0063261	2.2261	-0.000699408	0.0269013	2.54211	-1.3475	-0.0694972	2.44108	-0.616498	-0.0707126	2.37524	-0.264881	-0.00811049	2.1925	-0.00667863	0.077126	2.89801	-0.095372	0.241698	2.6485	-0.42443	0.261322	2.53315	-1.35306	0.303135	2.79461	-0.281719	0.271331	2.76274	0.0010341	0.200211
37	2.71951	2.47206	-1.31379	0.114045	2.36719	-0.0399622	0.0271165	2.41989	-0.00223962	0.0661955	2.37398	-0.437605	0.00436142	2.22574	0.000236483	0.0266914	2.53263	-1.34909	-0.0711472	2.43151	-0.61789	-0.0723835	2.37184	-0.264844	-0.00928659	2.19246	-0.00596487	0.0770203	2.89058	-0.102985	0.239993	2.63229	-0.42446	0.261454	2.52482	-1.35504	0.301409	2.7732	-0.299745	0.272978	2.76351	0.00103979	0.200692
38	2.72949	2.46294	-1.31603	0.112595	2.36715	-0.039801	0.026602	2.42004	-0.00222552	0.0657737	2.36966	-0.437619	0.00237357	2.22555	0.000791398	0.026586	2.52321	-1.35074	-0.072718	2.42261	-0.619423	-0.0741597	2.36875	-0.264659	-0.0105261	2.1925	-0.00545524	0.076835	nan	nan	nan	2.61488	-0.423884	0.261658	2.51731	-1.35696	0.299643	2.74181	-0.310298	0.274714	2.76405	0.00103862	0.201126
39	2.73948	2.45389	-1.3182	0.11129	2.3671	-0.0396385	0.0261777	2.4202	-0.00219228	0.0653987	2.36575	-0.437461	0.000494715	2.22536	0.00118097	0.0266046	2.51388	-1.35244	-0.0743373	2.41514	-0.61965	-0.075832	2.36598	-0.264442	-0.0118797	2.1926	-0.00516732	0.0767329	2.8704	-0.116736	0.237651	2.59608	-0.422749	0.262234	nan	nan	nan	2.72673	-0.317126	0.273107	2.76349	0.00118443	0.201406
40	2.74947	2.44477	-1.32029	0.110164	2.36708	-0.0394933	0.0257609	2.4203	-0.00214351	0.0650779	2.36214	-0.437269	-0.00127102	2.22523	0.00142717	0.0266077	2.5046	-1.35411	-0.0759418	2.41098	-0.615217	-0.0773205	2.36346	-0.264206	-0.0132211	2.19273	-0.0050453	0.0767687	nan	nan	nan	2.57728	-0.421176	0.262797	2.50283	-1.36096	0.296673	2.71504	-0.320449	0.271052	2.7613	0.00152633	0.201336
41	2.75945	2.43555	-1.3223	0.109226	2.3671	-0.0393704	0.0254011	2.42039	-0.00211566	0.0648058	2.35874	-0.437168	-0.00295778	2.22514	0.00160936	0.0266024	2.49526	-1.35567	-0.0774029	2.40946	-0.607186	-0.0785672	2.36134	-0.263986	-0.0144937	2.19291	-0.00488364	0.076779	nan	nan	nan	2.55899	-0.419449	0.263152	2.49484	-1.36295	0.295411	2.70726	-0.317479	0.267156	2.75797	0.00209433	0.20135
42	2.76944	2.42641	-1.32407	0.10848	2.36713	-0.0392578	0.0251428	2.42045	-0.00209882	0.064628	2.35553	-0.437187	-0.00445859	2.22507	0.00173108	0.0266182	2.48576	-1.357	-0.07854	2.40266	-0.610508	-0.0800998	2.3596	-0.263739	-0.0155188	2.19311	-0.00458405	0.0766764	2.83344	-0.134298	0.2335	2.53997	-0.418077	0.263636	2.48724	-1.36465	0.294194	2.70413	-0.309816	0.261021	2.75404	0.00290939	0.202357
43	2.77942	2.41773	-1.3255	0.107722	2.36715	-0.0391528	0.0250261	2.42047	-0.00205273	0.0646028	2.35237	-0.437209	-0.00560062	2.225	0.00182451	0.0266371	2.4761	-1.35817	-0.0796221	2.39838	-0.609876	-0.081112	2.35805	-0.263473	-0.016173	2.19322	-0.00439463	0.0766702	2.81796	-0.141859	0.232969	2.52136	-0.416979	0.263831	2.48	-1.3661	0.293095	2.68668	-0.314296	0.259626	2.74857	0.00376078	0.205766
44	2.78941	2.40918	-1.32674	0.107019	2.36719	-0.0390999	0.0250522	2.42051	-0.00204701	0.0646027	2.34925	-0.437175	-0.00642196	2.22499	0.00188497	0.0266303	2.46627	-1.35922	-0.0806627	2.38868	-0.618951	-0.0821431	2.35684	-0.263285	-0.0165482	2.19325	-0.00427953	0.0768089	2.80133	-0.149144	0.232197	2.50277	-0.416428	0.263981	2.47251	-1.36743	0.292084	2.67589	-0.321072	0.255066	2.73989	0.00323356	0.211875
45	2.7994	2.39891	-1.32841	0.106713	2.36721	-0.0390809	0.0252507	2.42059	-0.0020825	0.0646091	2.3464	-0.437075	-0.00711881	2.22498	0.001915	0.0266809	2.45622	-1.36022	-0.0816623	2.38363	-0.618155	-0.0830289	2.35683	-0.262943	-0.0170501	2.19323	-0.00421528	0.0770194	2.78598	-0.155995	0.23072	2.48351	-0.416744	0.264392	2.46479	-1.36867	0.291121	2.65613	-0.317506	0.256888	2.72649	-0.000462014	0.218863
46	2.80938	2.38992	-1.32942	0.106252	2.36714	-0.039062	0.0255803	2.42071	-0.00216209	0.0646094	2.34389	-0.43689	-0.00776668	2.22513	0.00188633	0.0266967	2.44597	-1.36113	-0.0824792	2.37864	-0.605212	-0.0825058	2.35992	-0.261931	-0.0184732	2.1932	-0.00416346	0.0773357	2.77257	-0.163193	0.229004	2.46453	-0.41772	0.264821	2.45697	-1.36983	0.290281	2.62929	-0.317736	0.260384	2.70885	-0.00524624	0.225552
47	2.81937	2.38287	-1.32967	0.105467	2.3671	-0.0390755	0.0259115	2.42064	-0.00212407	0.0648689	2.34154	-0.436653	-0.00827702	2.22526	0.00188272	0.0267558	2.4356	-1.36198	-0.0831801	2.36263	-0.603695	-0.0818169	2.36431	-0.26084	-0.0204134	2.19313	-0.00390281	0.0778224	2.75612	-0.168955	0.226048	2.44693	-0.419759	0.265245	2.44926	-1.3709	0.28944	2.61783	-0.318036	0.257046	2.68915	-0.00949494	0.232773
48	2.82936	2.37475	-1.33029	0.104951	2.36714	-0.0391194	0.0261961	2.42064	-0.00211048	0.0650819	2.33935	-0.436455	-0.00875641	2.22522	0.00194261	0.0269185	2.42522	-1.36288	-0.0838621	2.35936	-0.617726	-0.0836319	2.3593	-0.261485	-0.0189204	2.19316	-0.00367135	0.0782884	2.73677	-0.172604	0.223273	2.43061	-0.422639	0.265917	2.44135	-1.37192	0.288618	2.60447	-0.319724	0.253468	2.66848	-0.0131446	0.24065
49	2.83934	2.36574	-1.33125	0.104634	2.36722	-0.0391662	0.0264076	2.42073	-0.00214359	0.0651949	2.33713	-0.436291	-0.00920528	2.22516	0.00198921	0.0270832	2.41487	-1.36383	-0.0845684	2.35784	-0.62476	-0.0850177	2.35539	-0.261305	-0.0175447	2.19321	-0.00365286	0.0786478	2.71611	-0.174475	0.221084	2.41269	-0.42518	0.2663	2.43351	-1.37287	0.287913	2.58537	-0.322201	0.25129	2.64654	-0.0164065	0.248314
50	2.84933	2.35713	-1.33212	0.104302	2.36727	-0.0391882	0.026536	2.42067	-0.00212725	0.0653878	2.33473	-0.436099	-0.00958601	2.22522	0.00198643	0.0271504	2.40455	-1.36487	-0.0852309	2.35387	-0.624892	-0.085449	2.35339	-0.260121	-0.0168593	2.19329	-0.00361189	0.0788145	2.69493	-0.174895	0.219207	2.39384	-0.427527	0.266403	2.42561	-1.37375	0.28731	2.55922	-0.325439	0.251936	2.62271	-0.01935	0.254783
51	2.85931	2.34889	-1.33288	0.103936	2.36723	-0.0391745	0.0265774	2.42059	-0.00211002	0.0655518	2.33219	-0.435858	-0.0099976	2.22521	0.00200898	0.0271938	2.3942	-1.36598	-0.0856538	2.34802	-0.624013	-0.0855185	2.35083	-0.260456	-0.0174361	2.19335	-0.00348989	0.0788533	2.67322	-0.173955	0.217673	2.3753	-0.430111	0.26634	2.41755	-1.37464	0.286688	2.5258	-0.329942	0.256174	2.59667	-0.02164	0.259628
52	2.8693	2.34046	-1.33356	0.103678	2.36716	-0.0391578	0.0265009	2.42057	-0.00213001	0.065617	2.32966	-0.435604	-0.0106215	2.22514	0.00205473	0.0272016	2.38392	-1.36718	-0.0859586	2.34233	-0.623865	-0.0857196	2.34923	-0.26107	-0.0187082	2.1934	-0.00345179	0.0788149	2.6509	-0.171729	0.216424	2.35721	-0.43297	0.26634	2.40975	-1.37543	0.28604	2.50032	-0.333204	0.25722	2.56852	-0.0231515	0.262817
53	2.87929	2.33201	-1.33418	0.10342	2.3671	-0.039148	0.0263508	2.42055	-0.00216596	0.0656265	2.32711	-0.435386	-0.0114322	2.22517	0.00206248	0.0270813	nan	nan	nan	2.3371	-0.624053	-0.08614	2.35415	-0.262533	-0.0233148	2.19342	-0.00351188	0.0787289	2.62777	-0.168156	0.215704	2.33925	-0.43595	0.266507	2.40187	-1.37618	0.285395	2.47895	-0.337657	0.25583	2.53877	-0.0239455	0.264339
54	2.88927	2.32349	-1.33478	0.103123	2.36708	-0.039161	0.0261632	2.42053	-0.00222436	0.0656179	2.32452	-0.435176	-0.0122578	2.22531	0.00202468	0.0268609	2.36355	-1.36976	-0.0864433	2.33225	-0.62421	-0.0867235	2.36458	-0.264499	-0.0305527	2.19342	-0.00355302	0.0786406	2.60399	-0.163381	0.215278	2.32178	-0.438919	0.266516	2.394	-1.37685	0.284792	2.45791	-0.342859	0.254207	2.50792	-0.0240635	0.264704
55	2.89926	2.31487	-1.33543	0.102951	2.36704	-0.0391737	0.0260417	2.42051	-0.00230399	0.0656282	2.32205	-0.434967	-0.0130564	2.22524	0.00208978	0.0267874	2.35344	-1.37108	-0.0865833	2.32755	-0.624349	-0.087272	2.35956	-0.263527	-0.0292027	2.19341	-0.00353905	0.0785923	2.57945	-0.157481	0.215186	2.3053	-0.441901	0.266062	2.38731	-1.37744	0.284187	2.44169	-0.337459	0.253258	2.47636	-0.0235126	0.264426
56	2.90925	2.30629	-1.33601	0.102918	2.36697	-0.0391799	0.0260034	2.42047	-0.00238313	0.065701	2.31977	-0.434724	-0.0137747	2.22512	0.00215522	0.0267468	2.34348	-1.37236	-0.0867999	2.32257	-0.624583	-0.0874298	2.35879	-0.269894	-0.0321342	2.19341	-0.00348945	0.0785738	2.55419	-0.150709	0.215295	2.28958	-0.444845	0.265493	2.38197	-1.37799	0.283572	2.42424	-0.333219	0.252504	2.44391	-0.0226142	0.263564
57	2.91923	2.29737	-1.33658	0.102947	2.36692	-0.0392042	0.0259908	2.42048	-0.0025091	0.0657636	2.31771	-0.434432	-0.014398	2.22505	0.0022053	0.0266905	2.33359	-1.37355	-0.0869312	2.31798	-0.624683	-0.0878341	2.339	-0.278859	-0.0266004	2.19335	-0.0034175	0.07863	2.52826	-0.143306	0.215542	2.27411	-0.447594	0.265069	2.37485	-1.37848	0.283036	2.40545	-0.331056	0.251814	2.41073	-0.0216656	0.262348
58	2.92922	nan	nan	nan	2.36689	-0.0392611	0.0260155	2.42039	-0.00261267	0.0659434	2.31581	-0.434135	-0.0148759	2.22505	0.00224145	0.026613	2.32377	-1.37471	-0.0870502	2.31358	-0.624586	-0.0883126	2.33072	-0.277118	-0.0228933	2.19322	-0.00329133	0.0787753	2.50157	-0.135486	0.215894	2.25883	-0.450065	0.264714	2.36655	-1.37889	0.282558	2.38793	-0.327035	0.252167	2.37674	-0.0206731	0.261209
59	2.9392	2.28028	-1.33736	0.102757	2.36684	-0.0393187	0.0261069	2.42011	-0.0026577	0.0662917	2.31396	-0.433877	-0.0151705	2.2251	0.00226855	0.026536	2.31402	-1.37579	-0.0871745	2.3092	-0.624357	-0.088573	2.33522	-0.265266	-0.0217617	2.19312	-0.00314169	0.078943	2.47379	-0.12725	0.216682	2.24385	-0.45235	0.264404	2.35785	-1.37886	0.28212	2.3692	-0.323084	0.253078	2.34218	-0.0199903	0.26045
60	2.94919	nan	nan	nan	2.36679	-0.039387	0.0262594	2.41992	-0.00275307	0.0666083	2.31223	-0.433677	-0.0154731	2.22512	0.00230113	0.026484	2.3043	-1.3767	-0.0871706	2.30486	-0.624017	-0.088589	2.33802	-0.260083	-0.0219437	2.19298	-0.00304074	0.0790711	2.4452	-0.118803	0.217724	2.22939	-0.45445	0.263998	2.34932	-1.37851	0.281723	2.34019	-0.328463	0.257713	2.30741	-0.01994	0.259983
61	2.95918	2.26292	-1.33786	0.102856	2.36678	-0.0394922	0.026402	2.42027	-0.00312049	0.0666016	2.31044	-0.433488	-0.015651	2.22509	0.00233896	0.0264501	2.29457	-1.37743	-0.0870351	2.30083	-0.623615	-0.0886616	2.33817	-0.260074	-0.0224444	2.19286	-0.00299716	0.0791781	2.41717	-0.110816	0.218013	2.21533	-0.456276	0.263627	2.3425	-1.37845	0.2814	2.29709	-0.348608	0.26758	2.27327	-0.0201652	0.259898
62	2.96916	2.25416	-1.3379	0.10301	2.36675	-0.0396046	0.0265418	2.4215	-0.00393622	0.0660102	2.30863	-0.433313	-0.0157749	2.22506	0.00237271	0.0264333	2.28488	-1.37802	-0.0869584	2.29693	-0.623237	-0.0887401	2.34035	-0.260517	-0.0238297	2.19278	-0.00297134	0.0792827	2.38752	-0.102654	0.219226	2.20174	-0.457897	0.263327	2.33542	-1.37817	0.281126	2.26849	-0.355339	0.272008	2.23993	-0.0203412	0.260192
63	2.97915	2.24598	-1.33786	0.103013	2.36673	-0.039736	0.0266515	2.42205	-0.00439984	0.065841	2.3068	-0.433162	-0.0158821	2.22513	0.00237486	0.02638	2.27524	-1.37848	-0.0869371	2.29311	-0.622888	-0.0885483	2.3438	-0.26018	-0.0254555	2.19274	-0.002927	0.0793793	2.35598	-0.0944022	0.221648	2.18844	-0.459258	0.263106	2.3275	-1.37773	0.281051	2.25527	-0.342046	0.271035	2.20702	-0.0205133	0.260845
64	2.98914	2.23786	-1.33766	0.102976	2.36667	-0.0398683	0.0267698	2.42203	-0.0045799	0.0660162	2.30494	-0.433035	-0.0159726	2.22519	0.00240009	0.0263686	2.26562	-1.37881	-0.0868708	2.28915	-0.622598	-0.0880846	2.33794	-0.260789	-0.0238306	2.19264	-0.00285191	0.079526	2.32539	-0.0870572	0.223362	2.17526	-0.460269	0.262991	2.31908	-1.37733	0.281336	2.2504	-0.311375	0.267614	2.17395	-0.0212838	0.261789
65	2.99912	2.22977	-1.33706	0.102959	2.36657	-0.0400056	0.0268827	2.42169	-0.00460563	0.0663812	2.30297	-0.432908	-0.0160414	2.22515	0.00245171	0.0263624	2.25598	-1.37893	-0.0867132	2.28458	-0.622647	-0.0872713	2.33403	-0.261042	-0.0229352	2.19251	-0.00275552	0.0796196	2.29538	-0.0804906	0.224754	2.16223	-0.460958	0.26292	2.3113	-1.37662	0.281344	2.23534	-0.296782	0.267286	2.14075	-0.0225247	0.262722
66	3.00911	2.22157	-1.33633	0.102968	2.36645	-0.0401517	0.0270071	2.42118	-0.00456728	0.0668649	2.3009	-0.432794	-0.016125	2.22511	0.00248414	0.0263116	2.24631	-1.37883	-0.0863479	2.2794	-0.623089	-0.0866909	2.33598	-0.260305	-0.0242413	2.19243	-0.00270235	0.0796404	2.26505	-0.0744026	0.226532	2.14951	-0.461423	0.262819	2.30378	-1.37562	0.281052	2.21423	-0.293726	0.268704	2.10755	-0.0241752	0.263375
67	3.01909	2.21307	-1.33564	0.103113	2.36632	-0.0403074	0.0271439	2.42111	-0.00484738	0.0670036	2.2988	-0.43269	-0.0162011	2.22511	0.00250085	0.02627	2.23668	-1.37855	-0.0859594	2.27501	-0.622859	-0.0865422	2.3403	-0.259235	-0.02657	2.19241	-0.00269269	0.079656	2.23469	-0.0689016	0.228528	2.13704	-0.461667	0.2627	2.29543	-1.37479	0.281382	2.19361	-0.292176	0.269848	2.07463	-0.0261706	0.263474
68	3.02908	2.20386	-1.33491	0.103555	2.36618	-0.040491	0.0273009	2.42105	-0.00515263	0.067174	2.29656	-0.432559	-0.0161426	2.22524	0.00247456	0.0261603	2.22705	-1.37808	-0.0854117	2.27568	-0.618287	-0.0859811	2.33423	-0.260459	-0.0244661	2.19238	-0.00273315	0.0796665	2.20424	-0.0639856	0.230863	2.12491	-0.461681	0.26248	2.28707	-1.37387	0.281739	2.17761	-0.289778	0.268706	2.04201	-0.0285451	0.263249
69	3.03907	nan	nan	nan	2.36608	-0.0407496	0.0274421	nan	nan	nan	2.29424	-0.432397	-0.0159891	2.22548	0.0023639	0.0259715	2.21752	-1.37753	-0.0848498	2.28379	-0.607406	-0.0850189	2.33268	-0.261199	-0.0240857	2.1923	-0.00283494	0.0795313	2.17396	-0.0597545	0.233123	2.11352	-0.461509	0.262076	2.27875	-1.37276	0.281934	2.16495	-0.287156	0.266164	2.0097	-0.0312859	0.262802
70	3.04905	2.18489	-1.33297	0.104804	2.36598	-0.0410588	0.0275662	2.42075	-0.00580981	0.067713	2.29188	-0.432229	-0.015837	2.22583	0.00216434	0.0256684	2.20816	-1.3769	-0.0844662	2.28418	-0.603242	-0.0844287	2.3365	-0.261402	-0.0261177	2.19223	-0.00286858	0.0794444	2.14359	-0.0561625	0.234942	2.10283	-0.46103	0.261594	2.27031	-1.37159	0.282125	2.14899	-0.284249	0.265872	1.97775	-0.034652	0.26221
71	3.05904	2.17641	-1.33185	0.105042	2.36587	-0.0413828	0.0276889	2.42062	-0.00627884	0.067963	2.28948	-0.432107	-0.015753	2.22592	0.00212639	0.0255727	2.19885	-1.37611	-0.0840078	2.27402	-0.607778	-0.0844138	2.33084	-0.261924	-0.0246629	2.19218	-0.00286405	0.0794359	2.1131	-0.0534553	0.23733	2.09239	-0.460217	0.261231	2.26176	-1.37041	0.282382	2.12913	-0.281279	0.267503	1.94621	-0.0386851	0.26139
72	3.06903	2.16829	-1.33052	0.105134	2.36584	-0.0417732	0.0277143	2.42061	-0.00687017	0.0681236	2.28691	-0.432037	-0.0157015	2.22591	0.00216931	0.0255807	2.18957	-1.37513	-0.0834513	2.25686	-0.617758	-0.0847875	2.31933	-0.259807	-0.0189101	2.19214	-0.0028595	0.0794382	2.0831	-0.0513058	0.239959	2.0813	-0.459107	0.260837	2.25311	-1.3692	0.282765	2.1074	-0.278507	0.269636	1.91525	-0.0436597	0.260273
73	3.07901	2.15977	-1.3292	0.105408	2.36582	-0.0422218	0.0276752	2.42061	-0.00755692	0.0682449	2.28412	-0.431999	-0.0156361	2.22595	0.00219745	0.0255487	2.18043	-1.37399	-0.0829309	2.25281	-0.617038	-0.0844975	2.30691	-0.256369	-0.0119956	2.19207	-0.00272298	0.0794921	2.05415	-0.0496179	0.241888	2.06895	-0.457649	0.260329	2.24435	-1.36795	0.283199	2.08169	-0.276629	0.273612	1.88499	-0.0494204	0.259213
74	3.089	2.15024	-1.32803	0.106143	2.36571	-0.04268	0.0276376	2.42049	-0.00825819	0.0684182	2.28115	-0.43196	-0.0156401	2.22585	0.00231691	0.0256181	2.17135	-1.37269	-0.0823002	2.26023	-0.607305	-0.0835954	2.31582	-0.260041	-0.0183573	2.19199	-0.00248304	0.0796825	2.02658	-0.0480127	0.242738	2.05826	-0.455743	0.259945	2.23541	-1.36667	0.283732	2.0595	-0.274869	0.276026	1.85581	-0.0556496	0.258658
75	3.09898	2.14075	-1.32656	0.107028	2.36554	-0.0431509	0.0275517	2.42042	-0.00913	0.0684968	2.27802	-0.431902	-0.0157351	2.22571	0.00242495	0.0257282	2.16227	-1.37128	-0.0815655	2.25599	-0.606824	-0.0836682	2.32204	-0.263225	-0.0234269	2.19193	-0.00236171	0.0798017	1.99936	-0.0474097	0.24386	2.04885	-0.453745	0.25975	2.22636	-1.3653	0.284281	2.0413	-0.273135	0.276607	1.82814	-0.0621148	0.257942
76	3.10897	2.13197	-1.32478	0.107785	2.36526	-0.043623	0.0274779	2.42028	-0.0100849	0.0685775	2.2746	-0.431794	-0.0158022	2.22567	0.00246019	0.0257939	2.1533	-1.36982	-0.0809321	2.24196	-0.615016	-0.0853415	2.32139	-0.26365	-0.024229	2.1919	-0.00231286	0.0797844	1.97281	-0.0476515	0.245298	2.03943	-0.451786	0.259901	2.2172	-1.36393	0.284898	2.02416	-0.271614	0.277007	1.80193	-0.0687869	0.256908
77	3.11896	2.12336	-1.32321	0.108269	2.36484	-0.0441288	0.0274098	2.41995	-0.011095	0.0687202	2.27078	-0.431685	-0.0157258	2.22571	0.00247322	0.0257431	2.14441	-1.36823	-0.0802973	2.23982	-0.614953	-0.0866005	2.31719	-0.260051	-0.0222606	2.19193	-0.00238645	0.0796708	1.94726	-0.0486814	0.246666	2.02961	-0.450002	0.260293	2.20795	-1.36254	0.285679	2.00694	-0.270794	0.277673	1.7771	-0.0755244	0.255443
78	3.12894	2.11467	-1.3215	0.108957	2.36428	-0.0446761	0.0273048	2.41953	-0.0122108	0.0688842	2.26686	-0.431668	-0.015744	2.22571	0.00250379	0.0257357	2.13549	-1.36657	-0.0796208	2.23822	-0.610034	-0.0844956	2.31353	-0.255209	-0.0203545	2.19192	-0.00238703	0.0797707	1.92306	-0.050324	0.247952	2.01937	-0.44842	0.260907	2.19854	-1.36105	0.286495	1.99006	-0.270465	0.278289	1.75382	-0.0821664	0.253153
79	3.13893	2.1042	-1.32049	0.110012	2.36359	-0.0452935	0.027202	2.41915	-0.0135062	0.0689604	2.26264	-0.431689	-0.0156952	2.22572	0.00254704	0.0257104	2.1264	-1.3648	-0.0786762	2.2238	-0.61474	-0.0839638	2.31291	-0.261179	-0.0226752	2.19194	-0.00235225	0.0797679	1.90065	-0.0519683	0.248966	2.0099	-0.446569	0.26067	2.18906	-1.35952	0.287369	1.97374	-0.270385	0.278975	1.73237	-0.0883886	0.249878
80	3.14892	2.09418	-1.31903	0.111079	2.36293	-0.0460132	0.0271182	2.41887	-0.0150048	0.0689738	2.25801	-0.431646	-0.0154779	2.22575	0.00260736	0.0256786	2.11723	-1.36308	-0.0776208	2.2143	-0.617787	-0.0838802	2.31125	-0.265415	-0.0239918	2.19193	-0.00229762	0.0797526	1.88017	-0.0534923	0.249216	2.00071	-0.44469	0.259876	2.17954	-1.358	0.288323	1.95816	-0.270412	0.279393	1.71247	-0.0937708	0.246113
81	3.1589	2.0852	-1.31728	0.112053	2.36237	-0.0468883	0.0269713	2.41883	-0.0167839	0.068849	2.25306	-0.431509	-0.0151706	2.22579	0.00267672	0.0256635	2.1081	-1.36147	-0.0767071	2.21033	-0.617665	-0.0834264	2.30824	-0.266279	-0.0238584	2.19191	-0.00226666	0.0797807	1.86165	-0.0548475	0.248635	1.99051	-0.443379	0.259626	2.17003	-1.35648	0.289411	1.94354	-0.270337	0.279123	1.69399	-0.0977877	0.242219
82	3.16889	nan	nan	nan	2.36198	-0.0480191	0.0266708	2.41881	-0.0187825	0.0686661	2.24766	-0.431299	-0.0147241	2.2258	0.00276288	0.0256582	2.09891	-1.35991	-0.0757946	2.20304	-0.617327	-0.0831278	2.30471	-0.266336	-0.0233153	2.19189	-0.0022482	0.0797884	1.84499	-0.0559262	0.247372	1.97939	-0.442452	0.259637	2.16045	-1.35499	0.290554	1.92969	-0.270027	0.278557	1.67753	-0.10056	0.238168
83	3.17888	2.06564	-1.3146	0.11436	2.36152	-0.049328	0.0263257	2.41923	-0.0212657	0.0680683	2.24185	-0.431067	-0.0141373	2.22591	0.00281507	0.0255666	2.08957	-1.35848	-0.0746879	2.19453	-0.616954	-0.0825412	2.30097	-0.266719	-0.0227428	2.19189	-0.00222148	0.0797575	1.83033	-0.0564352	0.24575	1.96797	-0.441743	0.259505	2.15086	-1.3535	0.291749	1.91596	-0.270293	0.278517	1.66319	-0.101829	0.234097
84	3.18886	2.0559	-1.31315	0.115541	2.36062	-0.0507003	0.0262057	2.41872	-0.0235552	0.0680231	2.23557	-0.43088	-0.0133742	2.2259	0.00288048	0.0255608	2.08008	-1.35717	-0.0734034	2.18674	-0.616527	-0.0816742	2.29712	-0.267463	-0.0222368	2.19187	-0.00218642	0.0797481	1.81844	-0.0555458	0.244033	1.95608	-0.441334	0.259241	2.14131	-1.35209	0.293049	1.90317	-0.270078	0.277915	1.65079	-0.101421	0.230042
85	3.19885	2.04675	-1.31228	0.116555	2.35948	-0.0522335	0.0260913	2.418	-0.0260968	0.0679635	2.229	-0.43087	-0.0125355	2.22594	0.00290891	0.0255179	2.07052	-1.35603	-0.0721223	2.17905	-0.616021	-0.0805725	2.29302	-0.26845	-0.0218806	2.19184	-0.0021133	0.0797862	1.80899	-0.0541815	0.241823	1.944	-0.441056	0.258474	2.13172	-1.35072	0.294366	1.89144	-0.269413	0.276691	1.64027	-0.0992361	0.226069
86	3.20883	2.03609	-1.31144	0.118142	2.35829	-0.0540429	0.0258307	2.41732	-0.029053	0.0676919	2.22215	-0.43101	-0.0116997	2.22593	0.00295741	0.0254799	2.06094	-1.35507	-0.0709303	2.17097	-0.615627	-0.0795301	2.28858	-0.269574	-0.0215528	2.19182	-0.00201258	0.079821	1.80154	-0.0524688	0.239286	1.93172	-0.440759	0.257389	2.1221	-1.3494	0.295702	1.8806	-0.268317	0.275189	1.6316	-0.0953899	0.222246
87	3.21882	2.02382	-1.3104	0.120523	2.35706	-0.0561518	0.0254433	2.41655	-0.0323718	0.0673097	2.21504	-0.431252	-0.0109842	2.22581	0.00306305	0.0255067	2.05121	-1.35424	-0.0695062	2.16226	-0.615257	-0.0784701	2.28382	-0.270865	-0.0210511	2.19183	-0.00195049	0.0798278	1.79506	-0.0501484	0.236881	1.91925	-0.440549	0.256228	2.11251	-1.34817	0.297098	1.87066	-0.26696	0.273381	1.62472	-0.0901097	0.218807
88	3.22881	2.0132	-1.30928	0.122987	2.35561	-0.0584953	0.0250027	2.41563	-0.0360691	0.0668327	2.20744	-0.431529	-0.010227	2.22578	0.00312431	0.0254416	2.04135	-1.35356	-0.0677605	2.1529	-0.614884	-0.0772145	2.27862	-0.2723	-0.0203599	2.19184	-0.00187394	0.0798608	1.79003	-0.0472534	0.234415	1.90679	-0.440254	0.254893	2.10305	-1.347	0.298599	1.86163	-0.26532	0.27122	1.61968	-0.0835224	0.215604
89	3.23879	2.00638	-1.30854	0.123652	2.35406	-0.0611146	0.0244203	2.41445	-0.0400744	0.0664048	2.19912	-0.43175	-0.00926524	2.22584	0.00313566	0.025323	2.03155	-1.35308	-0.0660686	2.14299	-0.614647	-0.0757963	2.27305	-0.273729	-0.0197039	2.19184	-0.00176183	0.0799168	1.78756	-0.0441558	0.231512	1.8945	-0.439708	0.253478	2.09363	-1.3459	0.300178	1.8537	-0.263184	0.268775	1.61492	-0.0752749	0.212329
90	3.24878	1.99878	-1.30831	0.124543	2.35226	-0.0639476	0.0237154	2.4128	-0.0443881	0.0659967	2.1902	-0.431913	-0.00822143	2.22587	0.00314761	0.0252141	2.0217	-1.35268	-0.0641625	2.13254	-0.614382	-0.0743746	2.2672	-0.274812	-0.0190601	2.19184	-0.00166325	0.0799531	1.78685	-0.041645	0.228226	1.88276	-0.438981	0.252124	2.08419	-1.34489	0.301865	1.84682	-0.26076	0.266043	1.60837	-0.0651702	0.208334
91	3.25877	1.98851	-1.30833	0.126302	2.35015	-0.0671681	0.0227889	2.41081	-0.0492692	0.0652947	2.18042	-0.431899	-0.00698311	2.2258	0.00320166	0.0251948	2.01197	-1.35243	-0.0623479	2.12156	-0.61404	-0.0729505	2.26154	-0.275809	-0.0183001	2.19194	-0.0016709	0.0798386	1.7841	-0.0407242	0.2258	1.87196	-0.438314	0.251181	2.07476	-1.34399	0.303674	1.84037	-0.259184	0.262932	1.60099	-0.055072	0.204165
92	3.26875	1.9761	-1.30851	0.128773	2.34749	-0.0708118	0.0218224	2.40854	-0.054902	0.0643275	2.16991	-0.431874	-0.00572577	2.22569	0.00327591	0.0252137	2.00228	-1.35235	-0.0606626	2.10982	-0.613498	-0.0712491	2.25718	-0.279394	-0.0193186	2.19208	-0.00169551	0.0798008	1.77613	-0.0422578	0.226359	1.862	-0.438523	0.250962	2.06532	-1.34333	0.305619	1.8333	-0.259108	0.260267	1.59568	-0.047295	0.200029
93	3.27874	1.96355	-1.30905	0.131309	2.34439	-0.0749376	0.0208929	2.40561	-0.0611773	0.0636434	2.15835	-0.43192	-0.00441194	2.22572	0.00329189	0.0252036	1.99241	-1.35258	-0.0589798	2.09787	-0.612878	-0.0696239	2.25336	-0.28318	-0.0204502	2.19215	-0.00171178	0.0798229	1.7705	-0.042558	0.226719	1.85155	-0.440068	0.251193	2.05578	-1.34314	0.3076	1.825	-0.26079	0.259619	1.59236	-0.0402557	0.195814
94	3.28872	1.95375	-1.31024	0.133261	2.34069	-0.0795018	0.0201253	2.40168	-0.0679685	0.0634886	2.14552	-0.43184	-0.00309732	2.22587	0.00324752	0.02516	1.98233	-1.35342	-0.0572976	2.08682	-0.612486	-0.0685024	2.2396	-0.284338	-0.0185731	2.19224	-0.00169723	0.0798089	1.76807	-0.0429188	0.228275	1.83927	-0.442955	0.251484	2.04612	-1.34348	0.309533	1.81617	-0.263095	0.260806	1.59048	-0.0329317	0.193865
95	3.29871	1.94524	-1.31157	0.135135	2.33641	-0.0844996	0.0194251	2.39681	-0.0753522	0.0638326	2.13182	-0.431677	-0.00223157	2.22604	0.00318754	0.025135	1.97201	-1.35491	-0.0555552	2.07571	-0.612682	-0.0678552	2.22641	-0.285785	-0.0169376	2.19233	-0.00163595	0.0797579	1.76656	-0.0434813	0.229524	1.82592	-0.445997	0.251437	2.03634	-1.34428	0.311338	1.80736	-0.264928	0.262298	1.58881	-0.0266185	0.194114
96	3.3087	1.93355	-1.31266	0.137943	2.33162	-0.0899078	0.0188621	2.3911	-0.0834996	0.0647252	2.11718	-0.431438	-0.00188141	2.22617	0.00317776	0.0252225	1.96168	-1.35656	-0.0536247	2.05928	-0.613094	-0.064805	2.21507	-0.287977	-0.0162265	2.19241	-0.00158516	0.0796073	1.76441	-0.0439536	0.230264	1.8133	-0.447841	0.251279	2.02657	-1.34538	0.313078	1.80079	-0.26568	0.263917	1.58721	-0.0223352	0.195082
97	3.31868	1.92294	-1.31388	0.139686	2.32613	-0.0957523	0.0186965	2.38453	-0.0924945	0.0660858	2.10157	-0.431155	-0.00200171	2.22649	0.00308997	0.0253458	1.95144	-1.35825	-0.051559	2.04124	-0.606136	-0.0620922	2.20402	-0.290583	-0.016165	2.19242	-0.00156979	0.0793198	1.76271	-0.0439229	0.230303	1.80193	-0.448602	0.25159	2.01693	-1.34665	0.314789	1.79631	-0.265104	0.265159	1.58611	-0.0193367	0.195175
98	3.32867	1.91339	-1.31532	0.141314	2.31954	-0.102077	0.0190585	2.37678	-0.102262	0.0678173	2.0851	-0.430806	-0.00271015	2.22704	0.00283554	0.025508	1.94132	-1.36003	-0.0495314	2.02244	-0.588828	-0.0607032	2.19231	-0.293336	-0.0163246	2.1924	-0.00156127	0.0789564	1.76232	-0.0435943	0.229968	1.79176	-0.448714	0.252383	2.00734	-1.34806	0.316453	1.78444	-0.26552	0.266563	1.58542	-0.0170076	0.193521
99	3.33866	1.90364	-1.31722	0.143417	2.31191	-0.109027	0.0193661	2.3667	-0.112347	0.0700257	2.06765	-0.430434	-0.00371794	2.2275	0.00244099	0.0258725	1.93128	-1.36188	-0.0475761	2.00499	-0.581416	-0.0601239	2.17975	-0.296243	-0.0163181	2.19237	-0.00156594	0.078645	1.76222	-0.0433925	0.229717	1.78288	-0.448647	0.253418	1.99768	-1.34962	0.318121	1.7753	-0.265656	0.26801	1.5848	-0.0152032	0.191711
100	3.34864	1.89339	-1.31955	0.145819	2.3023	-0.115965	0.0197419	2.3548	-0.122709	0.0717063	2.04921	-0.429876	-0.00461466	2.22768	0.00189427	0.026449	1.92136	-1.36365	-0.0457527	1.98798	-0.580285	-0.0601661	2.16632	-0.29935	-0.0161052	2.19219	-0.00155905	0.0785277	1.76149	-0.0433162	0.229815	1.77552	-0.448746	0.254689	1.98788	-1.35138	0.319751	1.77286	-0.265089	0.26927	1.58441	-0.013645	0.191336
101	3.35863	1.88309	-1.32174	0.148008	2.29074	-0.122583	0.0201155	2.34199	-0.133093	0.0723275	2.02997	-0.428962	-0.00521248	2.22689	0.0013878	0.0271895	1.91153	-1.36534	-0.0439714	1.97101	-0.58074	-0.0604252	2.1518	-0.302561	-0.0157456	2.19126	-0.00142225	0.0784769	1.76068	-0.0430978	0.230117	1.76952	-0.449001	0.256286	1.97791	-1.35321	0.32133	1.77625	-0.26375	0.270599	1.58431	-0.0123049	0.191668
102	3.36861	1.87413	-1.32337	0.14858	2.27809	-0.129061	0.020265	2.32885	-0.143115	0.0720544	2.01027	-0.427596	-0.00553986	2.22417	0.00077051	0.0278288	1.902	-1.3671	-0.0421996	1.9559	-0.587385	-0.059905	2.13617	-0.305731	-0.015281	2.1889	-0.00103564	0.0782217	1.76035	-0.0428361	0.230404	1.76443	-0.449171	0.258141	1.96775	-1.355	0.3229	1.77551	-0.263613	0.272151	1.58428	-0.0116043	0.191349
103	3.3786	1.86558	-1.32474	0.148946	2.26492	-0.135837	0.020272	2.31526	-0.152838	0.0712282	1.99026	-0.425986	-0.00568935	2.21935	-0.000537046	0.0282853	1.8926	-1.36875	-0.040637	1.9434	-0.603172	-0.0586961	2.11953	-0.308751	-0.0147499	2.18548	-0.000321952	0.0777229	1.76041	-0.0427743	0.230589	1.76005	-0.449202	0.260044	1.95748	-1.35674	0.32445	1.77095	-0.265561	0.275667	1.58426	-0.0113431	0.19061
104	3.38859	1.85621	-1.32642	0.150024	2.25094	-0.143035	0.0202684	2.30005	-0.162511	0.0705336	1.96993	-0.424507	-0.00571486	2.21308	-0.00385648	0.0289674	1.88346	-1.37026	-0.0392089	1.92879	-0.608959	-0.0580332	2.10198	-0.311596	-0.0142369	2.18167	0.000644634	0.0768582	1.76058	-0.042838	0.230679	1.75623	-0.448953	0.261885	1.94704	-1.35832	0.325966	1.7656	-0.268472	0.280621	1.58432	-0.0111742	0.190139
105	3.39857	1.8464	-1.32815	0.151273	2.23582	-0.150353	0.0203431	2.28377	-0.172367	0.0700458	1.94935	-0.423451	-0.00577403	2.20547	-0.00897268	0.0298176	1.87454	-1.37154	-0.0379561	1.91282	-0.607906	-0.0576093	2.08347	-0.31425	-0.0137831	2.17713	0.00181249	0.0747077	1.76076	-0.0427649	0.230572	1.75298	-0.448482	0.26353	1.9364	-1.35982	0.327463	1.76606	-0.265335	0.277773	1.58441	-0.0110852	0.189891
106	3.40856	1.83686	-1.32955	0.152263	2.21998	-0.157541	0.0206608	2.26675	-0.181505	0.0704626	1.92875	-0.422964	-0.00594019	2.19659	-0.0147425	0.0294228	1.86584	-1.37263	-0.0368596	1.89712	-0.606215	-0.0569765	2.06411	-0.316798	-0.0135374	2.17011	0.00214566	0.0702623	1.76106	-0.0424861	0.230195	1.74993	-0.448048	0.264856	1.92562	-1.36131	0.328946	1.76632	-0.263061	0.275769	1.58447	-0.0110352	0.189626
107	3.41855	1.82757	-1.33071	0.153093	2.20377	-0.164493	0.0214801	2.24909	-0.188833	0.0725234	1.90824	-0.423077	-0.00603539	2.18477	-0.0205142	0.0270611	1.85741	-1.37381	-0.0359213	1.88226	-0.605747	-0.0561692	2.04398	-0.319322	-0.0134741	2.15829	-0.000270008	0.0646438	1.76133	-0.0422081	0.229824	1.74684	-0.447828	0.265861	1.91471	-1.36273	0.330412	1.76538	-0.262676	0.27587	1.58449	-0.0110176	0.189312
108	3.42853	1.81804	-1.33184	0.154151	2.18676	-0.17102	0.0228719	2.23068	-0.194102	0.0760678	1.88782	-0.423856	-0.00595851	2.16878	-0.0265889	0.0230737	1.84922	-1.37489	-0.0350603	1.86814	-0.606084	-0.0552512	2.02335	-0.321867	-0.0135052	2.14121	-0.00466471	0.0592074	1.76129	-0.0422973	0.229937	1.74363	-0.447973	0.266638	1.90375	-1.36415	0.331819	1.76459	-0.262713	0.276215	1.58448	-0.0109989	0.189041
109	3.43852	1.80824	-1.33307	0.15541	2.16859	-0.176746	0.0247326	2.21147	-0.197659	0.0801081	1.8674	-0.425261	-0.00583392	2.14858	-0.0324101	0.0189313	1.84121	-1.37582	-0.0342887	1.85464	-0.606734	-0.0545296	2.00253	-0.324456	-0.013453	2.12047	-0.00879441	0.0536187	1.76105	-0.0425409	0.229874	1.74026	-0.44811	0.267218	1.89276	-1.36555	0.333114	1.76425	-0.262737	0.276347	1.58446	-0.0109924	0.188823
110	3.4485	1.79881	-1.33419	0.156104	2.14913	-0.181216	0.0269236	2.19142	-0.199765	0.0838855	1.84698	-0.427067	-0.00573937	2.127	-0.0378725	0.0139524	1.83335	-1.37668	-0.0335578	1.84138	-0.607739	-0.0539034	1.98158	-0.326997	-0.0129734	2.09735	-0.011886	0.0471545	1.76126	-0.042375	0.22925	1.73681	-0.448001	0.267689	1.88181	-1.36701	0.33437	1.76409	-0.262752	0.276486	1.58444	-0.0109882	0.188661
111	3.45849	1.78974	-1.33525	0.156218	2.12844	-0.184179	0.0292168	2.17054	-0.200418	0.087335	1.82658	-0.429024	-0.00564726	2.10348	-0.0423119	0.00894122	1.82554	-1.37748	-0.0328085	1.82828	-0.609166	-0.0531121	1.9605	-0.329392	-0.0118954	2.07241	-0.0141934	0.0401544	1.76169	-0.0420719	0.229036	1.73346	-0.447633	0.268047	1.87084	-1.36847	0.335555	1.76383	-0.262682	0.276725	1.58442	-0.0109636	0.188562
112	3.46848	1.78097	-1.33618	0.155991	2.10679	-0.185598	0.0314119	2.14893	-0.199488	0.0906286	1.80618	-0.431025	-0.00548131	2.07847	-0.0459371	0.00397743	1.81781	-1.37843	-0.0321607	1.81499	-0.610841	-0.0521634	1.93936	-0.331574	-0.0103873	2.0458	-0.0162692	0.0333502	1.76181	-0.0419711	0.229043	1.73033	-0.447218	0.268463	1.8599	-1.3699	0.336695	1.76313	-0.262446	0.277136	1.58447	-0.0109857	0.188443
113	3.47846	1.77206	-1.33702	0.156267	2.08439	-0.185571	0.0335085	2.12672	-0.196766	0.0938203	1.78598	-0.43319	-0.00521516	2.0518	-0.0486492	-0.000185784	1.81015	-1.37928	-0.0315304	1.80161	-0.612682	-0.0512207	1.91813	-0.333445	-0.00865246	2.01766	-0.0183098	0.0275024	1.76176	-0.0419556	0.229092	1.72743	-0.446859	0.269055	1.84903	-1.3713	0.33776	1.7614	-0.262183	0.278051	1.58456	-0.0110448	0.188307
114	3.48845	1.76306	-1.33788	0.156829	2.06133	-0.184292	0.0355188	2.10392	-0.192406	0.0967264	1.76629	-0.435709	-0.00474858	2.02372	-0.0504647	-0.00328853	1.80246	-1.38027	-0.0309697	1.78829	-0.614675	-0.0504679	1.8968	-0.334924	-0.00679964	1.98816	-0.0200584	0.0228874	1.76164	-0.0419651	0.229138	1.72468	-0.446753	0.269834	1.83818	-1.37276	0.338771	1.75875	-0.261851	0.279116	1.58459	-0.0110992	0.188213
115	3.49844	1.75417	-1.3388	0.157221	2.03734	-0.181716	0.0374517	2.08048	-0.186684	0.0990656	1.74719	-0.438554	-0.00402528	1.99463	-0.0514779	-0.00557584	1.79474	-1.38135	-0.0304533	1.7751	-0.616824	-0.0499583	1.87576	-0.335982	-0.00508553	1.95755	-0.0212002	0.0194718	1.76154	-0.041998	0.229131	1.72188	-0.446661	0.270716	1.82743	-1.37424	0.339738	1.75565	-0.261634	0.279872	1.58457	-0.0110992	0.188178
116	3.50842	1.74535	-1.33976	0.157465	2.01258	-0.177796	0.0391714	2.05642	-0.179796	0.100867	1.72883	-0.441685	-0.00308269	1.96445	-0.051504	-0.00712241	1.78716	-1.3824	-0.029755	1.76201	-0.619132	-0.0496684	1.85509	-0.336555	-0.00354094	1.92595	-0.0217287	0.0170497	1.76149	-0.0420891	0.229096	1.71899	-0.446439	0.271641	1.81674	-1.37565	0.340646	1.75259	-0.261463	0.280089	1.58457	-0.0109899	0.188182
117	3.51841	1.73651	-1.34064	0.157663	1.98729	-0.172716	0.0405868	2.03171	-0.171807	0.102317	1.7112	-0.44499	-0.00195855	1.93307	-0.050547	-0.00785467	1.77954	-1.38337	-0.0290517	1.74899	-0.621586	-0.0494572	1.83468	-0.336602	-0.00210186	1.89335	-0.0218945	0.0156604	1.76142	-0.0423775	0.229123	1.71601	-0.446111	0.272336	1.80618	-1.37701	0.341478	1.74975	-0.26136	0.28012	1.5846	-0.0107636	0.188191
118	3.5284	1.72768	-1.34143	0.157912	1.96145	-0.166625	0.0418166	2.00634	-0.162834	0.10348	1.69428	-0.448252	-0.000726371	1.90056	-0.0487056	-0.00782832	1.77179	-1.38419	-0.0284593	1.73591	-0.624144	-0.0492386	1.81463	-0.336091	-0.000822127	1.85949	-0.0216556	0.0151535	1.76122	-0.0426047	0.229164	1.71301	-0.445786	0.272722	1.79569	-1.37828	0.342244	1.74752	-0.261203	0.280158	1.58456	-0.0106844	0.188095
119	3.53838	1.71885	-1.34219	0.158251	1.93485	-0.15961	0.0430501	1.98007	-0.152955	0.104467	1.67815	-0.451282	0.000516619	1.86766	-0.0465378	-0.00764893	1.76405	-1.3848	-0.0278999	1.72242	-0.626673	-0.0490084	1.79484	-0.33493	0.000353843	1.82464	-0.0213379	0.0152861	1.76083	-0.0428757	0.229245	1.71016	-0.445426	0.273065	1.78523	-1.37936	0.342951	1.74605	-0.261089	0.280236	1.58445	-0.0106399	0.187987
120	3.54837	1.70992	-1.34288	0.158797	1.90773	-0.15195	0.044137	1.9528	-0.142309	0.105445	1.6625	-0.454031	0.00187651	1.83398	-0.044078	-0.00714432	1.75631	-1.3853	-0.0274244	1.70914	-0.629088	-0.0488598	1.77534	-0.333089	0.00138716	1.78965	-0.0209044	0.0158879	1.76051	-0.0431432	0.229156	1.70751	-0.445066	0.273465	1.77496	-1.38031	0.34362	1.74538	-0.261022	0.28029	1.58436	-0.0105967	0.187905
121	3.55835	1.70099	-1.34347	0.159318	1.87995	-0.143806	0.0451785	1.92457	-0.131135	0.106449	1.64686	-0.456556	0.00336501	1.80007	-0.0415948	-0.00658988	1.74855	-1.38567	-0.0270029	1.69624	-0.631311	-0.0486474	1.75592	-0.330551	0.00238126	1.75426	-0.0207131	0.0164314	1.76037	-0.0432513	0.229028	1.70493	-0.44468	0.273898	1.76487	-1.38117	0.344274	1.74512	-0.260984	0.280422	1.5843	-0.0105691	0.187853
122	3.56834	1.69248	-1.34391	0.159415	1.85129	-0.135249	0.0463366	1.89527	-0.119698	0.107506	1.63167	-0.458695	0.00478284	1.76544	-0.0389871	-0.00570834	1.74089	-1.386	-0.026579	1.68392	-0.63324	-0.0484695	1.73631	-0.327542	0.00340139	1.71845	-0.020698	0.0169515	1.76033	-0.0432918	0.228944	1.70238	-0.444312	0.274348	1.75484	-1.3819	0.34488	1.74489	-0.260947	0.280668	1.58426	-0.0105575	0.187836
123	3.57833	1.68392	-1.34427	0.159572	1.8218	-0.126487	0.0476151	nan	nan	nan	1.61689	-0.460437	0.00614514	1.73062	-0.0363463	-0.00493313	1.73332	-1.3863	-0.0259854	1.67189	-0.634804	-0.0483063	1.71629	-0.324253	0.00451239	1.68262	-0.0206798	0.0171631	1.76028	-0.0433263	0.228895	1.69994	-0.444093	0.274856	1.74481	-1.38249	0.345471	1.74464	-0.260881	0.280928	1.58424	-0.0105294	0.187848
124	3.58831	1.67527	-1.34453	0.159871	1.79175	-0.117743	0.0488424	1.83465	-0.0971102	0.109291	1.60263	-0.461861	0.00734711	1.69584	-0.0337393	-0.00450791	1.72567	-1.38633	-0.0253804	1.65999	-0.636087	-0.0480983	1.69591	-0.320816	0.00567362	1.64713	-0.0204267	0.0175427	1.76021	-0.0433738	0.228841	1.69755	-0.44384	0.275388	1.73484	-1.38293	0.346017	1.74421	-0.260882	0.281156	1.5842	-0.0104756	0.187859
125	3.5983	1.66663	-1.34464	0.16021	1.76119	-0.109211	0.0499542	1.80331	-0.0861127	0.110111	1.58872	-0.46294	0.00843505	1.66094	-0.0313459	-0.0039492	1.71788	-1.38612	-0.0249709	1.64809	-0.637171	-0.0478714	1.67539	-0.317199	0.00678347	1.61174	-0.0205235	0.0181438	1.76014	-0.0434455	0.228775	1.69518	-0.443516	0.275885	1.72504	-1.38324	0.346552	1.74344	-0.260997	0.281442	1.58413	-0.0104223	0.187865
126	3.60829	1.65793	-1.34454	0.160577	1.73047	-0.101124	0.0506941	1.77145	-0.0753501	0.110709	1.5751	-0.463644	0.00954088	1.62598	-0.029348	-0.00314512	1.70989	-1.38578	-0.0246747	1.6362	-0.638083	-0.0476776	1.65501	-0.313403	0.00768182	1.57621	-0.0215357	0.0192747	1.76007	-0.0435397	0.22869	1.69295	-0.443387	0.276364	1.7153	-1.38338	0.347061	1.74234	-0.261168	0.281668	1.58401	-0.0104374	0.187957
127	3.61827	1.64914	-1.34425	0.160887	1.69916	-0.0934219	0.0513094	1.73932	-0.0651201	0.110998	1.56199	-0.463953	0.0106499	1.59076	-0.0278275	-0.00176538	1.70182	-1.38532	-0.0244705	1.62467	-0.63874	-0.0474933	1.63448	-0.309523	0.00856665	1.54076	-0.0229696	0.0207352	1.75998	-0.0436679	0.228609	1.69068	-0.443229	0.276791	1.70555	-1.38335	0.347535	1.74097	-0.261246	0.281789	1.58383	-0.0105439	0.188162
128	3.62826	1.64032	-1.34375	0.161093	1.66768	-0.0861992	0.0516321	1.70669	-0.0557617	0.111119	1.54958	-0.46391	0.0117207	1.55532	-0.0268848	4.39646e-06	1.69362	-1.38479	-0.0243129	1.61343	-0.639089	-0.0471579	1.61404	-0.305653	0.00935963	1.5055	-0.0248698	0.0225315	1.7598	-0.0438142	0.228495	1.68836	-0.443091	0.277196	1.69582	-1.38313	0.347943	1.73937	-0.261303	0.281922	1.58364	-0.0107009	0.188171
129	3.63824	1.63146	-1.34316	0.16127	1.63586	-0.079602	0.0519086	1.67383	-0.047152	0.111015	1.53766	-0.463499	0.0128988	1.51993	-0.0270385	0.00171197	1.68535	-1.38407	-0.0241174	1.60265	-0.639097	-0.0466772	1.59389	-0.301929	0.0100501	1.47045	-0.0274068	0.0246474	1.75962	-0.0439773	0.228357	1.68598	-0.442928	0.277526	1.68611	-1.38269	0.348259	1.73767	-0.26143	0.282063	1.58355	-0.0107225	0.188119
130	3.64823	1.62247	-1.34248	0.161463	1.60393	-0.0737697	0.0521075	1.64086	-0.0392838	0.110709	1.52619	-0.462802	0.0142021	1.48472	-0.0280744	0.00336965	1.67699	-1.38319	-0.023869	1.59228	-0.638934	-0.0461825	1.57402	-0.298376	0.0107825	1.43554	-0.0307981	0.0268985	1.75958	-0.0441936	0.228179	1.68351	-0.442761	0.27789	1.67625	-1.38195	0.348441	1.73612	-0.261586	0.282137	1.58351	-0.0105523	0.188088
131	3.65822	1.6134	-1.34156	0.161704	1.57204	-0.0687831	0.0522355	1.60786	-0.03233	0.110359	1.51528	-0.461881	0.0154656	1.44985	-0.0297253	0.00527786	1.66851	-1.38217	-0.0234963	1.58228	-0.638585	-0.045692	1.55424	-0.294955	0.0117085	1.40108	-0.0349864	0.0294952	1.75966	-0.0444769	0.227991	1.68087	-0.442494	0.278243	1.66617	-1.38091	0.348514	1.73477	-0.261707	0.282234	1.58346	-0.0103665	0.188042
132	3.6682	1.60431	-1.34055	0.161974	1.54018	-0.0646908	0.0524535	1.57501	-0.0263522	0.11002	1.50464	-0.460684	0.0167449	1.41546	-0.0320982	0.007508	1.65976	-1.38082	-0.0230567	1.5725	-0.637874	-0.0451437	1.5347	-0.291782	0.0125837	1.36731	-0.0400584	0.0324229	1.75962	-0.0447161	0.227832	1.67814	-0.442193	0.278589	1.65664	-1.38002	0.348809	1.73351	-0.261859	0.282406	1.58334	-0.0102865	0.188082
133	3.67819	1.59524	-1.3395	0.1622	1.50858	-0.0614895	0.0527919	1.54255	-0.0213869	0.109722	1.49417	-0.459232	0.0179289	1.3817	-0.0353042	0.0100653	1.65089	-1.37912	-0.022651	1.56289	-0.636728	-0.0444822	1.51537	-0.288908	0.0131592	1.33447	-0.0457856	0.0357543	1.75948	-0.0449201	0.227678	1.67524	-0.44197	0.278828	1.64719	-1.37903	0.349014	1.73227	-0.262072	0.282534	1.58313	-0.0102305	0.188248
134	3.68818	1.58611	-1.33834	0.162345	1.47762	-0.0592948	0.0531145	1.51081	-0.0174371	0.109333	1.48381	-0.457579	0.0190887	1.34881	-0.0392374	0.0130155	1.64203	-1.37784	-0.0226565	1.55365	-0.635167	-0.0437039	1.49606	-0.286341	0.0135082	1.30272	-0.0521611	0.0395455	1.75924	-0.0450991	0.227525	1.67213	-0.441766	0.279018	1.63759	-1.37786	0.348978	1.73105	-0.262226	0.282528	1.58291	-0.0102412	0.188422
135	3.69816	1.57695	-1.33714	0.162419	1.44762	-0.0580991	0.0532246	1.48026	-0.0145655	0.10856	1.47359	-0.455714	0.0204438	1.31706	-0.0438831	0.0162692	1.63317	-1.37688	-0.0228833	1.54467	-0.633235	-0.0428228	1.47672	-0.284149	0.0137956	1.27225	-0.059075	0.0438036	1.75902	-0.0453101	0.227335	1.6688	-0.441327	0.279157	1.62813	-1.37659	0.348972	1.72971	-0.262355	0.282377	1.58272	-0.0102137	0.188589
136	3.70815	1.56778	-1.33585	0.162439	1.41874	-0.0577246	0.0532204	1.45079	-0.012517	0.107587	1.46362	-0.453701	0.0220158	1.28672	-0.0492903	0.0196591	1.62406	-1.37576	-0.0228255	1.53591	-0.631095	-0.041889	1.45758	-0.282427	0.014195	1.24338	-0.0664747	0.0483748	1.75889	-0.0455731	0.227114	1.66531	-0.440777	0.279151	1.61882	-1.37533	0.349004	1.72821	-0.262504	0.282189	1.58261	-0.0101846	0.188695
137	3.71813	1.55854	-1.33458	0.162505	1.39116	-0.058109	0.0530762	1.42269	-0.011162	0.10633	1.45382	-0.451705	0.0237185	1.25809	-0.0552258	0.0229704	1.61488	-1.3746	-0.0228829	1.52731	-0.628677	-0.040894	1.43888	-0.281207	0.0147429	1.21626	-0.0740955	0.0530208	1.75881	-0.045889	0.226884	1.66183	-0.440491	0.279238	1.6096	-1.37409	0.34898	1.72649	-0.262716	0.282064	1.5826	-0.0101772	0.188717
138	3.72812	1.54915	-1.33343	0.162633	1.36517	-0.0591631	0.0526044	1.39629	-0.0104869	0.104568	1.44413	-0.449922	0.0254088	1.23128	-0.061558	0.0262659	1.60554	-1.37337	-0.0231924	1.51871	-0.626116	-0.039885	1.42084	-0.280554	0.0152815	1.19091	-0.0816986	0.0576517	1.75873	-0.0462759	0.226685	1.65825	-0.440208	0.279355	1.60045	-1.37272	0.348889	1.72455	-0.263017	0.282023	1.58261	-0.0101852	0.188687
139	3.73811	1.53983	-1.33207	0.162528	1.3406	-0.0606991	0.0520404	1.3717	-0.0104042	0.102389	1.4343	-0.448347	0.0270937	1.20625	-0.0679621	0.0295385	1.59601	-1.37207	-0.0235205	1.51018	-0.62347	-0.0387605	1.40337	-0.280375	0.015823	1.16727	-0.0890072	0.0623099	1.75858	-0.0467369	0.226583	1.6545	-0.439811	0.279453	1.59144	-1.37132	0.34881	1.72254	-0.263413	0.282046	1.58247	-0.0101842	0.188823
140	3.74809	1.5306	-1.3306	0.162324	1.31754	-0.0624869	0.0517272	1.34872	-0.0107096	0.100429	1.42413	-0.446992	0.0287188	1.18322	-0.0739924	0.0328901	1.5863	-1.37086	-0.0238521	1.50153	-0.620851	-0.0377819	1.38666	-0.280491	0.0163293	1.14538	-0.0956356	0.0671344	1.75838	-0.0472453	0.22654	1.65063	-0.439438	0.279565	1.58234	-1.36985	0.348601	1.72042	-0.263952	0.282126	1.58237	-0.0101752	0.188961
141	3.75808	1.52143	-1.32908	0.162088	1.29642	-0.0644776	0.0518584	1.32768	-0.0112066	0.0990456	1.41363	-0.445889	0.0301246	1.16213	-0.0794215	0.0364223	1.57618	-1.36967	-0.0241028	1.4925	-0.618339	-0.0371776	1.37086	-0.280896	0.0168593	1.12533	-0.101281	0.0720613	1.75816	-0.0478239	0.226439	1.6468	-0.439406	0.279868	1.57301	-1.36826	0.348185	1.71817	-0.26455	0.28231	1.58242	-0.0102178	0.189053
