nColumns=19
nRows=212
DataType=double
version=3
OpenSimVersion=4.1
endheader
time	ground_force_calcn_l_vx	ground_force_calcn_l_vy	ground_force_calcn_l_vz	ground_force_calcn_l_px	ground_force_calcn_l_py	ground_force_calcn_l_pz	ground_force_calcn_l_mx	ground_force_calcn_l_my	ground_force_calcn_l_mz	ground_force_calcn_r_vx	ground_force_calcn_r_vy	ground_force_calcn_r_vz	ground_force_calcn_r_px	ground_force_calcn_r_py	ground_force_calcn_r_pz	ground_force_calcn_r_mx	ground_force_calcn_r_my	ground_force_calcn_r_mz
0	0	0	0	0	0.00778523	0	0	0	0	0	0	0	0	0.0130339	0	0	0	0
0.00995283	0	0	0	0	0.0110258	0	0	0	0	0	0	0	0	0.0104274	0	0	0	0
0.0199057	0	0	0	0	-0.002	0	0	0	0	-1.29801	11.3614	-1.09836	0.245768	-0.002	0.105351	-0.00227162	0.0198834	-0.00192221
0.0298585	0	0	0	0	-0.002	0	0	0	0	-3.48956	33.0269	-3.47498	0.244938	-0.002	0.107502	-0.00570644	0.0540085	-0.0056826
0.0398113	0	0	0	0	-0.002	0	0	0	0	-6.15745	63.8276	-7.29902	0.243983	-0.002	0.109935	-0.00930989	0.0965055	-0.0110359
0.0497642	0	0	0	0	-0.002	0	0	0	0	-8.85022	102.271	-12.7055	0.242844	-0.002	0.112775	-0.0121973	0.140949	-0.0175107
0.059717	0	0	0	0	-0.002	0	0	0	0	-11.056	146.237	-19.7579	0.241474	-0.002	0.116121	-0.013605	0.179952	-0.0243131
0.0696698	0	0	0	0	-0.002	0	0	0	0	-12.3186	193.628	-28.3555	0.239839	-0.002	0.120023	-0.0131973	0.20744	-0.0303782
0.0796226	0	0	0	0	-0.002	0	0	0	0	-12.2961	242.593	-38.2166	0.237935	-0.002	0.124475	-0.0110914	0.218826	-0.0344725
0.0895755	0	0	0	0	-0.002	0	0	0	0	-10.8078	291.667	-48.9182	0.23579	-0.002	0.12941	-0.00779917	0.210474	-0.0353005
0.0995283	0	0	0	0	-0.002	0	0	0	0	-7.8543	339.802	-59.9774	0.233467	-0.002	0.13471	-0.00413255	0.178787	-0.0315572
0.109481	0	0	0	0	-0.002	0	0	0	0	-3.60627	386.318	-70.9328	0.23106	-0.002	0.140222	-0.00111822	0.119788	-0.0219946
0.119434	0	0	0	0	-0.002	0	0	0	0	1.63266	430.847	-81.3888	0.228678	-0.002	0.145775	0.000112847	0.0297796	-0.00562549
0.129387	0	0	0	0	-0.002	0	0	0	0	7.48048	473.296	-91.024	0.226431	-0.002	0.151207	-0.00147468	-0.0933045	0.0179443
0.13934	0	0	0	0	-0.002	0	0	0	0	13.5334	513.789	-99.5833	0.224414	-0.002	0.156377	-0.00654985	-0.248663	0.0481961
0.149292	0	0	0	0	-0.002	0	0	0	0	19.4132	552.566	-106.87	0.222704	-0.002	0.161172	-0.0151759	-0.431959	0.0835441
0.159245	0	0	0	0	-0.002	0	0	0	0	24.8021	589.856	-112.747	0.221348	-0.002	0.165518	-0.0267202	-0.635473	0.121466
0.169198	0	0	0	0	-0.002	0	0	0	0	29.4664	625.769	-117.131	0.220365	-0.002	0.169378	-0.0399809	-0.849062	0.158926
0.179151	0	0	0	0	-0.002	0	0	0	0	33.2703	660.223	-120.002	0.219746	-0.002	0.172754	-0.0534927	-1.06152	0.192941
0.189104	0	0	0	0	-0.002	0	0	0	0	36.1786	692.939	-121.399	0.219461	-0.002	0.175681	-0.0658854	-1.26192	0.221082
0.199057	0	0	0	0	-0.002	0	0	0	0	38.243	723.481	-121.415	0.219461	-0.002	0.178218	-0.0761592	-1.44078	0.241793
0.209009	0	0	0	0	-0.002	0	0	0	0	39.5739	751.334	-120.19	0.219691	-0.002	0.180441	-0.0837929	-1.59086	0.254488
0.218962	0	0	0	0	-0.002	0	0	0	0	40.3039	775.983	-117.896	0.220094	-0.002	0.182431	-0.0886877	-1.70753	0.259427
0.228915	0	0	0	0	-0.002	0	0	0	0	40.5549	796.99	-114.722	0.220621	-0.002	0.184268	-0.0910213	-1.78876	0.257481
0.238868	0	0	0	0	-0.002	0	0	0	0	40.4191	814.042	-110.863	0.22123	-0.002	0.186027	-0.0911048	-1.83485	0.249886
0.248821	0	0	0	0	-0.002	0	0	0	0	39.9549	826.974	-106.505	0.221891	-0.002	0.187773	-0.0892939	-1.84818	0.238025
0.258774	0	0	0	0	-0.002	0	0	0	0	39.196	835.773	-101.813	0.222578	-0.002	0.189559	-0.0859595	-1.83291	0.223284
0.268726	0	0	0	0	-0.002	0	0	0	0	38.1661	840.56	-96.9266	0.223273	-0.002	0.191428	-0.0814853	-1.79461	0.20694
0.278679	0	0	0	0	-0.002	0	0	0	0	36.8923	841.572	-91.9561	0.223958	-0.002	0.193412	-0.0762589	-1.73959	0.190079
0.288632	0	0	0	0	-0.002	0	0	0	0	35.4115	839.14	-86.9861	0.224617	-0.002	0.19553	-0.0706387	-1.67391	0.173519
0.298585	0	0	0	0	-0.002	0	0	0	0	33.7704	833.681	-82.0778	0.225235	-0.002	0.197793	-0.0649108	-1.60243	0.157763
0.308538	0	0	0	0	-0.002	0	0	0	0	32.02	825.683	-77.2735	0.2258	-0.002	0.200198	-0.0592605	-1.52812	0.143013
0.318491	0	0	0	0	-0.002	0	0	0	0	30.2101	815.695	-72.6013	0.226301	-0.002	0.202738	-0.0537755	-1.45198	0.129234
0.328443	0	0	0	0	-0.002	0	0	0	0	28.3864	804.311	-68.0789	0.226731	-0.002	0.205394	-0.0484803	-1.37366	0.11627
0.338396	0	0	0	0	-0.002	0	0	0	0	26.5921	792.143	-63.7175	0.227084	-0.002	0.208147	-0.0433857	-1.2924	0.103957
0.348349	0	0	0	0	-0.002	0	0	0	0	24.8711	779.799	-59.5258	0.227358	-0.002	0.210977	-0.0385327	-1.20814	0.092223
0.358302	0	0	0	0	-0.002	0	0	0	0	23.2722	767.844	-55.513	0.227549	-0.002	0.213867	-0.0340134	-1.12224	0.081135
0.368255	0	0	0	0	-0.002	0	0	0	0	21.8492	756.776	-51.6925	0.227653	-0.002	0.216807	-0.0299618	-1.03777	0.070886
0.378208	0	0	0	0	-0.002	0	0	0	0	20.6574	747	-48.0815	0.227666	-0.002	0.219795	-0.0265198	-0.95899	0.0617265
0.38816	0	0	0	0	-0.002	0	0	0	0	19.7452	738.822	-44.6986	0.227586	-0.002	0.222835	-0.0237966	-0.890416	0.05387
0.398113	0	0	0	0	-0.002	0	0	0	0	19.1437	732.444	-41.558	0.22741	-0.002	0.225933	-0.02184	-0.835602	0.0474111
0.408066	0	0	0	0	-0.002	0	0	0	0	18.8596	727.978	-38.6634	0.22714	-0.002	0.229094	-0.0206277	-0.796224	0.042288
0.418019	0	0	0	0	-0.002	0	0	0	0	18.874	725.458	-36.0025	0.22678	-0.002	0.232319	-0.0200773	-0.77171	0.0382978
0.427972	0	0	0	0	-0.002	0	0	0	0	19.1485	724.849	-33.5446	0.226339	-0.002	0.235602	-0.0200657	-0.75957	0.0351514
0.437925	0	0	0	0	-0.002	0	0	0	0	19.6376	726.057	-31.2426	0.225826	-0.002	0.238929	-0.020453	-0.756203	0.0325398
0.447877	0	0	0	0	-0.002	0	0	0	0	20.301	728.935	-29.0376	0.225251	-0.002	0.242288	-0.0211057	-0.75783	0.0301886
0.45783	0	0	0	0	-0.002	0	0	0	0	21.1114	733.298	-26.8663	0.224623	-0.002	0.245668	-0.0219134	-0.761153	0.0278869
0.467783	0	0	0	0	-0.002	0	0	0	0	22.057	738.928	-24.6682	0.22395	-0.002	0.249065	-0.0227919	-0.763549	0.0254902
0.477736	0	0	0	0	-0.002	0	0	0	0	23.1364	745.6	-22.3911	0.223241	-0.002	0.25248	-0.0236704	-0.762807	0.0229078
0.487689	0	0	0	0	-0.002	0	0	0	0	24.3515	753.096	-19.9944	0.222504	-0.002	0.255923	-0.0244669	-0.756662	0.0200891
0.497642	0	0	0	0	-0.002	0	0	0	0	25.6998	761.22	-17.4509	0.221751	-0.002	0.259404	-0.0250634	-0.74237	0.0170187
0.507594	0	0	0	0	-0.002	0	0	0	0	27.1696	769.812	-14.7465	0.220992	-0.002	0.262932	-0.0252894	-0.716537	0.013726
0.517547	0	0	0	0	-0.002	0	0	0	0	28.7399	778.745	-11.8796	0.220238	-0.002	0.266511	-0.0249223	-0.675303	0.0103016
0.5275	0	0	0	0	-0.002	0	0	0	0	30.3824	787.928	-8.85951	0.219504	-0.002	0.270138	-0.0237077	-0.614826	0.00691315
0.537453	0	0	0	0	-0.002	0	0	0	0	32.066	797.292	-5.70382	0.218801	-0.002	0.2738	-0.0213938	-0.531937	0.00380547
0.547406	0	0	0	0	-0.002	0	0	0	0	33.7598	806.784	-2.43527	0.218144	-0.002	0.277475	-0.0177734	-0.424744	0.00128209
0.557358	0	0	0	0	-0.002	0	0	0	0	35.4352	816.353	0.922766	0.217544	-0.002	0.281132	-0.0127216	-0.293078	-0.000331281
0.567311	0	0	0	0	-0.002	0	0	0	0	37.066	825.941	4.35152	0.217015	-0.002	0.284731	-0.00622223	-0.13865	-0.000730486
0.577264	0	0	0	0	-0.002	0	0	0	0	38.6272	835.468	7.84229	0.216567	-0.002	0.288231	0.00162307	0.0351053	0.000329523
0.587217	0	0	0	0	-0.002	0	0	0	0	40.094	844.826	11.4009	0.216212	-0.002	0.291588	0.0106055	0.223469	0.0030157
0.59717	0	0	0	0	-0.002	0	0	0	0	41.44	853.872	15.0494	0.215957	-0.002	0.294761	0.0204339	0.421042	0.00742079
0.607123	0	0	0	0	-0.002	0	0	0	0	42.6363	862.417	18.8249	0.215808	-0.002	0.297715	0.0307698	0.62239	0.0135856
0.617075	0	0	0	0	-0.002	0	0	0	0	43.6501	870.224	22.7751	0.215765	-0.002	0.300423	0.0412656	0.822685	0.021531
0.627028	0	0	0	0	-0.002	0	0	0	0	44.4441	877.01	26.9509	0.215829	-0.002	0.302868	0.0515998	1.01821	0.0312901
0.636981	0	0	0	0	-0.002	0	0	0	0	44.9763	882.446	31.3982	0.215994	-0.002	0.305045	0.0614978	1.2066	0.0429319
0.646934	0	0	0	0	-0.002	0	0	0	0	45.2018	886.158	36.1493	0.216254	-0.002	0.306959	0.0707334	1.38669	0.0565677
0.656887	0	0	0	0	-0.002	0	0	0	0	45.0762	887.734	41.2146	0.2166	-0.002	0.308623	0.079113	1.55806	0.0723355
0.66684	0.832995	8.33303	0.833802	0.330934	-0.002	0.733474	0.00122003	0.0122048	0.00122121	44.5605	886.73	46.576	0.217023	-0.002	0.310059	0.0864495	1.7203	0.0903596
0.676792	2.29793	24.2746	2.03993	0.331094	-0.002	0.735435	0.00332928	0.0351695	0.00295549	43.6258	882.682	52.182	0.217512	-0.002	0.311294	0.0925365	1.87229	0.110685
0.686745	4.18557	47.0185	3.14874	0.331302	-0.002	0.737681	0.00598936	0.0672814	0.00450571	42.258	875.124	57.9462	0.218057	-0.002	0.312357	0.0971391	2.01166	0.133202
0.696698	6.26414	75.5203	3.67057	0.331588	-0.002	0.740343	0.00883608	0.106528	0.00517764	40.4614	863.614	63.7497	0.218643	-0.002	0.31328	0.100007	2.13456	0.157568
0.706651	8.26079	108.274	3.08484	0.331983	-0.002	0.743531	0.0114572	0.15017	0.00427849	38.2611	847.764	69.4478	0.219258	-0.002	0.314092	0.100911	2.23591	0.183163
0.716604	9.90579	143.768	0.989817	0.332516	-0.002	0.747313	0.0134545	0.195272	0.00134441	35.7032	827.277	74.8788	0.219886	-0.002	0.31482	0.09969	2.30991	0.209076
0.726557	10.9618	180.747	-2.81105	0.333214	-0.002	0.751714	0.0145245	0.239491	-0.00372467	32.8527	801.97	79.8723	0.220509	-0.002	0.315488	0.0963034	2.35087	0.234135
0.736509	11.2545	218.382	-8.26504	0.334096	-0.002	0.756703	0.0145258	0.281857	-0.0106674	29.789	771.791	84.2552	0.221109	-0.002	0.316114	0.090862	2.35411	0.256994
0.746462	10.6931	256.263	-15.0979	0.33516	-0.002	0.762185	0.0134866	0.323212	-0.0190423	26.5994	736.821	87.8548	0.221668	-0.002	0.316717	0.083638	2.31683	0.276247
0.756415	9.27478	294.225	-22.9013	0.336386	-0.002	0.768009	0.0115409	0.366114	-0.0284969	23.3722	697.256	90.5005	0.222167	-0.002	0.317312	0.0750397	2.23864	0.290565
0.766368	7.07443	332.145	-31.2323	0.337724	-0.002	0.773982	0.00882305	0.414242	-0.0389521	20.1893	653.397	92.0263	0.222589	-0.002	0.317919	0.0655602	2.12176	0.298835
0.776321	4.22174	369.801	-39.68	0.339112	-0.002	0.779896	0.0053821	0.471442	-0.0505862	17.1215	605.638	92.2748	0.222921	-0.002	0.318561	0.0557155	1.97082	0.300274
0.786274	0.871754	406.876	-47.8867	0.34048	-0.002	0.78556	0.00115887	0.540882	-0.0636583	14.2255	554.467	91.1041	0.223151	-0.002	0.31927	0.0459876	1.79246	0.294517
0.796226	-2.8222	443.058	-55.5471	0.341769	-0.002	0.790817	-0.00397977	0.624784	-0.0783305	11.5446	500.487	88.4	0.223273	-0.002	0.320085	0.0367847	1.59471	0.28167
0.806179	-6.72252	478.139	-62.4076	0.342936	-0.002	0.795556	-0.0101873	0.72457	-0.0945721	9.11058	444.427	84.0925	0.223287	-0.002	0.321052	0.0284188	1.38631	0.262311
0.816132	-10.7067	512.062	-68.2696	0.343954	-0.002	0.799707	-0.0175843	0.840992	-0.112123	6.94767	387.171	78.1799	0.223197	-0.002	0.322221	0.0211011	1.1759	0.237444
0.826085	-14.6599	544.892	-72.9942	0.34481	-0.002	0.803246	-0.0262072	0.974092	-0.13049	5.07499	329.753	70.7544	0.223012	-0.002	0.323635	0.0149477	0.971244	0.208398
0.836038	-18.468	576.757	-76.5045	0.345504	-0.002	0.806185	-0.0359624	1.12311	-0.148976	3.50716	273.347	62.0248	0.222745	-0.002	0.325326	0.0099917	0.778748	0.176705
0.845991	-22.0168	607.782	-78.7842	0.346037	-0.002	0.808568	-0.0466005	1.28642	-0.166754	2.25181	219.216	52.3282	0.222412	-0.002	0.327296	0.0061964	0.603227	0.143994
0.855943	-25.1967	638.025	-79.8752	0.34642	-0.002	0.810463	-0.0577222	1.46163	-0.182983	1.30481	168.653	42.121	0.222034	-0.002	0.329509	0.00346602	0.447999	0.111887
0.865896	-27.9121	667.444	-79.8699	0.346661	-0.002	0.811955	-0.0688235	1.64573	-0.196937	0.645824	122.903	31.9478	0.221632	-0.002	0.331887	0.00165588	0.315122	0.0819135
0.875849	-30.0921	695.874	-78.9005	0.346774	-0.002	0.813135	-0.0793719	1.83546	-0.208111	0.236865	83.101	22.3885	0.221229	-0.002	0.334312	0.000586245	0.205676	0.055412
0.885802	-31.6987	723.034	-77.124	0.346775	-0.002	0.814097	-0.088891	2.02756	-0.216275	0.0260487	50.2472	13.9988	0.22084	-0.002	0.336669	6.22335e-05	0.120046	0.0334448
0.895755	-32.7321	748.536	-74.7056	0.346682	-0.002	0.81493	-0.0970305	2.21895	-0.221456	-0.0448119	25.2261	7.25599	0.220473	-0.002	0.338913	-0.000103291	0.0581458	0.016725
0.905708	-33.2291	771.928	-71.8046	0.346516	-0.002	0.815713	-0.103602	2.40674	-0.223874	-0.0341603	8.42907	2.5001	0.220126	-0.002	0.341048	-7.59033e-05	0.0187292	0.00555517
0.91566	-33.2559	792.731	-68.5623	0.346299	-0.002	0.816517	-0.108582	2.58829	-0.223858	0	0	0	0	-0.002	0	0	0	0
0.925613	-32.8965	810.49	-65.0964	0.346052	-0.002	0.8174	-0.112076	2.76129	-0.221779	0	0	0	0	-0.002	0	0	0	0
0.935566	-32.239	824.828	-61.4996	0.345796	-0.002	0.818408	-0.114284	2.92393	-0.21801	0	0	0	0	-0.002	0	0	0	0
0.945519	-31.3658	835.485	-57.8415	0.345546	-0.002	0.819579	-0.115446	3.07512	-0.212894	0	0	0	0	-0.002	0	0	0	0
0.955472	-30.3469	842.351	-54.1735	0.345317	-0.002	0.820938	-0.115809	3.21455	-0.206735	0	0	0	0	-0.002	0	0	0	0
0.965425	-29.2382	845.48	-50.5335	0.34512	-0.002	0.822502	-0.115591	3.34254	-0.199781	0	0	0	0	-0.002	0	0	0	0
0.975377	-28.0829	845.082	-46.9497	0.344963	-0.002	0.824281	-0.11497	3.45973	-0.19221	0	0	0	0	-0.002	0	0	0	0
0.98533	-26.9145	841.516	-43.4424	0.344855	-0.002	0.826275	-0.11407	3.56655	-0.184119	0	0	0	0	-0.002	0	0	0	0
0.995283	-25.7591	835.251	-40.0243	0.344802	-0.002	0.828477	-0.11296	3.66279	-0.175517	0	0	0	0	-0.002	0	0	0	0
1.00524	-24.6357	826.836	-36.7006	0.344808	-0.002	0.830875	-0.111655	3.7474	-0.166335	0	0	0	0	-0.002	0	0	0	0
1.01519	-23.5567	816.864	-33.468	0.344876	-0.002	0.833447	-0.11012	3.81855	-0.156451	0	0	0	0	-0.002	0	0	0	0
1.02514	-22.5275	805.933	-30.3159	0.345007	-0.002	0.836168	-0.108287	3.87401	-0.145725	0	0	0	0	-0.002	0	0	0	0
1.03509	-21.5487	794.616	-27.2277	0.3452	-0.002	0.839008	-0.106082	3.9118	-0.134039	0	0	0	0	-0.002	0	0	0	0
1.04505	-20.6206	783.431	-24.1827	0.34545	-0.002	0.841935	-0.103464	3.93089	-0.121337	0	0	0	0	-0.002	0	0	0	0
1.055	-19.7482	772.818	-21.1598	0.345752	-0.002	0.844917	-0.100471	3.9318	-0.107653	0	0	0	0	-0.002	0	0	0	0
1.06495	-18.9454	763.125	-18.1402	0.3461	-0.002	0.847926	-0.0972413	3.9169	-0.0931085	0	0	0	0	-0.002	0	0	0	0
1.07491	-18.2362	754.598	-15.1094	0.346486	-0.002	0.850937	-0.0940119	3.89014	-0.0778929	0	0	0	0	-0.002	0	0	0	0
1.08486	-17.6516	747.379	-12.0586	0.346904	-0.002	0.853932	-0.0910809	3.85642	-0.0622216	0	0	0	0	-0.002	0	0	0	0
1.09481	-17.225	741.524	-8.98461	0.347344	-0.002	0.856899	-0.0887501	3.82063	-0.0462923	0	0	0	0	-0.002	0	0	0	0
1.10476	-16.9851	737.018	-5.88874	0.347798	-0.002	0.859831	-0.0872664	3.78667	-0.0302553	0	0	0	0	-0.002	0	0	0	0
1.11472	-16.9504	733.804	-2.77429	0.348255	-0.002	0.862728	-0.0867792	3.75679	-0.0142033	0	0	0	0	-0.002	0	0	0	0
1.12467	-17.126	731.809	0.356375	0.348704	-0.002	0.86559	-0.0873192	3.73123	0.00181703	0	0	0	0	-0.002	0	0	0	0
1.13462	-17.5038	730.969	3.50454	0.349133	-0.002	0.868418	-0.0887977	3.70824	0.0177787	0	0	0	0	-0.002	0	0	0	0
1.14458	-18.0643	731.246	6.67696	0.349533	-0.002	0.871213	-0.091019	3.68446	0.0336426	0	0	0	0	-0.002	0	0	0	0
1.15453	-18.7802	732.639	9.88679	0.349896	-0.002	0.873975	-0.0937025	3.65546	0.0493295	0	0	0	0	-0.002	0	0	0	0
1.16448	-19.6202	735.177	13.1535	0.350216	-0.002	0.876703	-0.0965145	3.61644	0.0647042	0	0	0	0	-0.002	0	0	0	0
1.17443	-20.5529	738.908	16.5022	0.350493	-0.002	0.879397	-0.0991062	3.56302	0.0795739	0	0	0	0	-0.002	0	0	0	0
1.18439	-21.5505	743.885	19.962	0.350727	-0.002	0.882055	-0.10116	3.49187	0.0937036	0	0	0	0	-0.002	0	0	0	0
1.19434	-22.5915	750.147	23.5644	0.350923	-0.002	0.884676	-0.102434	3.40131	0.106845	0	0	0	0	-0.002	0	0	0	0
1.20429	-23.6629	757.702	27.341	0.351087	-0.002	0.887259	-0.1028	3.29171	0.118779	0	0	0	0	-0.002	0	0	0	0
1.21425	-24.7612	766.521	31.3216	0.351228	-0.002	0.889804	-0.102262	3.16567	0.129356	0	0	0	0	-0.002	0	0	0	0
1.2242	-25.8904	776.539	35.5318	0.351352	-0.002	0.89231	-0.100952	3.02789	0.138546	0	0	0	0	-0.002	0	0	0	0
1.23415	-27.0591	787.653	39.9905	0.351467	-0.002	0.894777	-0.0991068	2.88486	0.146469	0	0	0	0	-0.002	0	0	0	0
1.2441	-28.277	799.729	44.708	0.351578	-0.002	0.897201	-0.0970342	2.74432	0.153418	0	0	0	0	-0.002	0	0	0	0
1.25406	-29.5495	812.596	49.6838	0.351685	-0.002	0.899582	-0.0950753	2.61452	0.159858	0	0	0	0	-0.002	0	0	0	0
1.26401	-30.8744	826.036	54.9052	0.351788	-0.002	0.901919	-0.0935664	2.50334	0.166393	0	0	0	0	-0.002	0	0	0	0
1.27396	-32.2389	839.77	60.3464	0.351881	-0.002	0.904214	-0.0928013	2.41732	0.17371	0	0	0	0	-0.002	0	0	0	0
1.28392	-33.6175	853.45	65.9694	0.351956	-0.002	0.906472	-0.0929932	2.36083	0.182486	0	0	0	0	-0.002	0	0	0	0
1.29387	-34.971	866.649	71.7253	0.352003	-0.002	0.908706	-0.0942318	2.33525	0.193269	0	0	0	0	-0.002	0	0	0	0
1.30382	-36.2465	878.87	77.5561	0.352009	-0.002	0.910933	-0.0964382	2.33834	0.206348	0	0	0	0	-0.002	0	0	0	0
1.31377	-37.3779	889.566	83.3968	0.35196	-0.002	0.913173	-0.0993269	2.36391	0.221616	0	0	0	0	-0.002	0	0	0	0
1.32373	-38.2882	898.169	89.1778	0.35184	-0.002	0.915447	-0.102391	2.4019	0.238481	0	0	0	0	-0.002	0	0	0	0
1.33368	-38.8939	904.119	94.8272	0.351636	-0.002	0.917773	-0.104928	2.43912	0.255824	0	0	0	0	-0.002	0	0	0	0
1.34363	-39.1111	906.896	100.274	0.351334	-0.002	0.920157	-0.106109	2.46042	0.272043	0	0	0	0	-0.002	0	0	0	0
1.35358	-38.8626	906.038	105.448	0.350922	-0.002	0.922597	-0.105102	2.45032	0.285178	0	0	0	0	-0.002	0	0	0	0
1.36354	-38.0853	901.155	110.285	0.350393	-0.002	0.925074	-0.101217	2.39495	0.293099	0	0	0	0	-0.002	0	0	0	0
1.37349	-36.7354	891.923	114.721	0.349741	-0.002	0.927556	-0.0940654	2.28387	0.293757	0	0	0	0	-0.002	0	0	0	0
1.38344	-34.7938	878.073	118.691	0.348966	-0.002	0.930002	-0.0836769	2.11171	0.285444	0	0	0	0	-0.002	0	0	0	0
1.3934	-32.2695	859.385	122.119	0.348069	-0.002	0.932372	-0.0705584	1.87908	0.267018	0	0	0	0	-0.002	0	0	0	0
1.40335	-29.2031	835.676	124.915	0.347056	-0.002	0.934625	-0.0556469	1.59239	0.238028	0	0	0	0	-0.002	0	0	0	0
1.4133	-25.67	806.81	126.96	0.345934	-0.002	0.936736	-0.0401732	1.26265	0.198691	0	0	0	0	-0.002	0	0	0	0
1.42325	-21.7819	772.719	128.107	0.344716	-0.002	0.938692	-0.0254703	0.903567	0.1498	0	0	0	0	-0.002	0	0	0	0
1.43321	-17.6842	733.429	128.182	0.343417	-0.002	0.940498	-0.0127788	0.529982	0.0926254	0	0	0	0	-0.002	0	0	0	0
1.44316	-13.547	689.085	126.997	0.342056	-0.002	0.942175	-0.00308449	0.156896	0.0289157	0	0	0	0	-0.002	0	0	0	0
1.45311	-9.55153	639.983	124.374	0.340656	-0.002	0.943752	0.00299475	-0.200658	-0.0389959	0	0	0	0	-0.002	0	0	0	0
1.46307	-5.87226	586.596	120.165	0.339243	-0.002	0.945272	0.00528186	-0.527619	-0.108083	0	0	0	0	-0.002	0	0	0	0
1.47302	-2.66046	529.588	114.275	0.337843	-0.002	0.946776	0.00406644	-0.80946	-0.174666	0	0	0	0	-0.002	0	0	0	0
1.48297	-0.0299046	469.835	106.684	0.336481	-0.002	0.948311	6.57707e-05	-1.03333	-0.234636	0	0	0	0	-0.002	0	0	0	0
1.49292	1.95264	408.425	97.4626	0.335179	-0.002	0.949918	-0.00568611	-1.18934	-0.283812	0	0	0	0	-0.002	0	0	0	0
1.50288	3.27151	346.647	86.7856	0.333959	-0.002	0.951632	-0.0119997	-1.27148	-0.318325	0	0	0	0	-0.002	0	0	0	0
1.51283	3.96078	285.948	74.9478	0.332837	-0.002	0.953479	-0.017704	-1.27813	-0.335003	0	0	0	0	-0.002	0	0	0	0
1.52278	4.09843	227.87	62.367	0.331829	-0.002	0.955465	-0.0218032	-1.21224	-0.331785	0	0	0	0	-0.002	0	0	0	0
1.53274	3.79688	173.959	49.5721	0.330949	-0.002	0.957571	-0.0236051	-1.0815	-0.308189	0	0	0	0	-0.002	0	0	0	0
1.54269	3.19056	125.645	37.1666	0.330206	-0.002	0.959745	-0.0228187	-0.898612	-0.265814	0	0	0	0	-0.002	0	0	0	0
1.55264	2.42056	84.1487	25.7714	0.329604	-0.002	0.961909	-0.0196103	-0.681735	-0.208788	0	0	0	0	-0.002	0	0	0	0
1.56259	1.61798	50.4077	15.9588	0.329133	-0.002	0.963971	-0.0146057	-0.455037	-0.144062	0	0	0	0	-0.002	0	0	0	0
1.57255	0.888564	25.073	8.1977	0.328779	-0.002	0.965904	-0.00883395	-0.249272	-0.0815002	0	0	0	0	-0.002	0	0	0	0
1.5825	0.322186	8.30049	2.80076	0.328519	-0.002	0.967722	-0.00349646	-0.0900795	-0.0303948	0	0	0	0	-0.002	0	0	0	0
1.59245	0	0	0	0	0.204389	0	0	0	0	0	0	0	0	-0.000614062	0	0	0	0
1.60241	0	0	0	0	0.211205	0	0	0	0	0	0	0	0	-0.00064274	0	0	0	0
1.61236	0	0	0	0	0.216716	0	0	0	0	0	0	0	0	-0.000656293	0	0	0	0
1.62231	0	0	0	0	0.220821	0	0	0	0	0	0	0	0	-0.000659044	0	0	0	0
1.63226	0	0	0	0	0.223443	0	0	0	0	0	0	0	0	-0.000655515	0	0	0	0
1.64222	0	0	0	0	0.224532	0	0	0	0	0	0	0	0	-0.000649491	0	0	0	0
1.65217	0	0	0	0	0.224072	0	0	0	0	0	0	0	0	-0.000643869	0	0	0	0
1.66212	0	0	0	0	0.222076	0	0	0	0	0	0	0	0	-0.000639341	0	0	0	0
1.67208	0	0	0	0	0.218586	0	0	0	0	0	0	0	0	-0.000634631	0	0	0	0
1.68203	0	0	0	0	0.21367	0	0	0	0	0	0	0	0	-0.000627002	0	0	0	0
1.69198	0	0	0	0	0.207418	0	0	0	0	0	0	0	0	-0.000612936	0	0	0	0
1.70193	0	0	0	0	0.19994	0	0	0	0	0	0	0	0	-0.000588855	0	0	0	0
1.71189	0	0	0	0	0.19136	0	0	0	0	0	0	0	0	-0.000551772	0	0	0	0
1.72184	0	0	0	0	0.181815	0	0	0	0	0	0	0	0	-0.000499417	0	0	0	0
1.73179	0	0	0	0	0.171454	0	0	0	0	0	0	0	0	-0.000431138	0	0	0	0
1.74175	0	0	0	0	0.16043	0	0	0	0	0	0	0	0	-0.000348033	0	0	0	0
1.7517	0	0	0	0	0.148903	0	0	0	0	0	0	0	0	-0.000252872	0	0	0	0
1.76165	0	0	0	0	0.137038	0	0	0	0	0	0	0	0	-0.000149823	0	0	0	0
1.7716	0	0	0	0	0.124999	0	0	0	0	0	0	0	0	-4.40137e-05	0	0	0	0
1.78156	0	0	0	0	0.112953	0	0	0	0	0	0	0	0	5.9107e-05	0	0	0	0
1.79151	0	0	0	0	0.101069	0	0	0	0	0	0	0	0	0.000154984	0	0	0	0
1.80146	0	0	0	0	0.0895105	0	0	0	0	0	0	0	0	0.000239849	0	0	0	0
1.81142	0	0	0	0	0.0784389	0	0	0	0	0	0	0	0	0.000311348	0	0	0	0
1.82137	0	0	0	0	0.0680073	0	0	0	0	0	0	0	0	0.000369259	0	0	0	0
1.83132	0	0	0	0	0.0583577	0	0	0	0	0	0	0	0	0.000416016	0	0	0	0
1.84127	0	0	0	0	0.0496165	0	0	0	0	0	0	0	0	0.000457053	0	0	0	0
1.85123	0	0	0	0	0.04189	0	0	0	0	0	0	0	0	0.000501004	0	0	0	0
1.86118	0	0	0	0	0.0352606	0	0	0	0	0	0	0	0	0.000560636	0	0	0	0
1.87113	0	0	0	0	0.0297795	0	0	0	0	0	0	0	0	0.000650693	0	0	0	0
1.88108	0	0	0	0	0.0254623	0	0	0	0	0	0	0	0	0.000787005	0	0	0	0
1.89104	0	0	0	0	0.0222847	0	0	0	0	0	0	0	0	0.00098542	0	0	0	0
1.90099	0	0	0	0	0.0201808	0	0	0	0	0	0	0	0	0.00126064	0	0	0	0
1.91094	0	0	0	0	0.0190422	0	0	0	0	0	0	0	0	0.001625	0	0	0	0
1.9209	0	0	0	0	0.0187203	0	0	0	0	0	0	0	0	0.0020871	0	0	0	0
1.93085	0	0	0	0	0.0190317	0	0	0	0	0	0	0	0	0.00265026	0	0	0	0
1.9408	0	0	0	0	0.0197679	0	0	0	0	0	0	0	0	0.00331144	0	0	0	0
1.95075	0	0	0	0	0.0207074	0	0	0	0	0	0	0	0	0.00406529	0	0	0	0
1.96071	0	0	0	0	0.021631	0	0	0	0	0	0	0	0	0.00490774	0	0	0	0
1.97066	0	0	0	0	0.0223401	0	0	0	0	0	0	0	0	0.00583876	0	0	0	0
1.98061	0	0	0	0	0.0226739	0	0	0	0	0	0	0	0	0.00686435	0	0	0	0
1.99057	0	0	0	0	0.0225229	0	0	0	0	0	0	0	0	0.00799774	0	0	0	0
2.00052	0	0	0	0	0.0218362	0	0	0	0	0	0	0	0	0.00925948	0	0	0	0
2.01047	0	0	0	0	0.0206209	0	0	0	0	0	0	0	0	0.0106719	0	0	0	0
2.02042	0	0	0	0	0.0189363	0	0	0	0	0	0	0	0	0.0122611	0	0	0	0
2.03038	0	0	0	0	0.0168807	0	0	0	0	0	0	0	0	0.0140538	0	0	0	0
2.04033	0	0	0	0	0.0145764	0	0	0	0	0	0	0	0	0.0160718	0	0	0	0
2.05028	0	0	0	0	0.0121523	0	0	0	0	0	0	0	0	0.0183253	0	0	0	0
2.06024	0	0	0	0	0.00972807	0	0	0	0	0	0	0	0	0.0208133	0	0	0	0
2.07019	0	0	0	0	0.00740103	0	0	0	0	0	0	0	0	0.0235253	0	0	0	0
2.08014	0	0	0	0	0.00524062	0	0	0	0	0	0	0	0	0.0264426	0	0	0	0
2.09009	0	0	0	0	0.00328609	0	0	0	0	0	0	0	0	0.0295419	0	0	0	0
2.10005	0	0	0	0	0.00155096	0	0	0	0	0	0	0	0	0.0328	0	0	0	0
