nColumns=19
nRows=232
DataType=double
version=3
OpenSimVersion=4.1
endheader
time	ground_force_calcn_l_vx	ground_force_calcn_l_vy	ground_force_calcn_l_vz	ground_force_calcn_l_px	ground_force_calcn_l_py	ground_force_calcn_l_pz	ground_force_calcn_l_mx	ground_force_calcn_l_my	ground_force_calcn_l_mz	ground_force_calcn_r_vx	ground_force_calcn_r_vy	ground_force_calcn_r_vz	ground_force_calcn_r_px	ground_force_calcn_r_py	ground_force_calcn_r_pz	ground_force_calcn_r_mx	ground_force_calcn_r_my	ground_force_calcn_r_mz
3.61	0	0	0	0	-0.214805	0	0	0	0	0	0	0	0	-0.0210166	0	0	0	0
3.61999	0	0	0	0	-0.201198	0	0	0	0	0	0	0	0	-0.0213821	0	0	0	0
3.62998	0	0	0	0	-0.188205	0	0	0	0	0	0	0	0	-0.0218737	0	0	0	0
3.63997	0	0	0	0	-0.175725	0	0	0	0	0	0	0	0	-0.022474	0	0	0	0
3.64996	0	0	0	0	-0.163608	0	0	0	0	0	0	0	0	-0.023183	0	0	0	0
3.65995	0	0	0	0	-0.151769	0	0	0	0	0	0	0	0	-0.0239724	0	0	0	0
3.66994	0	0	0	0	-0.140163	0	0	0	0	0	0	0	0	-0.0248155	0	0	0	0
3.67993	0	0	0	0	-0.128795	0	0	0	0	0	0	0	0	-0.0256896	0	0	0	0
3.68991	0	0	0	0	-0.117715	0	0	0	0	0	0	0	0	-0.0265827	0	0	0	0
3.6999	0	0	0	0	-0.107004	0	0	0	0	0	0	0	0	-0.0275029	0	0	0	0
3.70989	0	0	0	0	-0.0968095	0	0	0	0	0	0	0	0	-0.0284333	0	0	0	0
3.71988	0	0	0	0	-0.0873115	0	0	0	0	0	0	0	0	-0.0293503	0	0	0	0
3.72987	0	0	0	0	-0.0786207	0	0	0	0	0	0	0	0	-0.0302806	0	0	0	0
3.73986	0	0	0	0	-0.0708791	0	0	0	0	0	0	0	0	-0.031211	0	0	0	0
3.74985	0	0	0	0	-0.0642151	0	0	0	0	0	0	0	0	-0.0321078	0	0	0	0
3.75984	-0.602209	-4.26594	0.150673	-0.307028	3.43848e-17	0.302553	0.000311401	0.0022059	-7.79126e-05	0	0	0	0	3.43848e-17	0	0	0	0
3.76983	-0.891397	-6.05528	0.135669	-0.307061	3.43909e-17	0.302555	0.00033617	0.00228361	-5.11647e-05	0	0	0	0	3.43909e-17	0	0	0	0
3.77982	-1.22927	-8.07457	0.0946743	-0.307112	3.43985e-17	0.302554	0.00032356	0.00212534	-2.49196e-05	0	0	0	0	3.43985e-17	0	0	0	0
3.78981	-1.60018	-10.1964	0.0183187	-0.307182	3.44076e-17	0.302553	0.000254353	0.00162074	-2.9118e-06	0	0	0	0	3.44076e-17	0	0	0	0
3.7998	-1.97584	-12.2122	-0.103285	-0.30727	3.44179e-17	0.302556	0.00010858	0.000671108	5.67592e-06	0	0	0	0	3.44179e-17	0	0	0	0
3.80979	-2.31219	-13.8168	-0.279446	-0.307375	3.44287e-17	0.302569	-0.000141632	-0.000846341	-1.71174e-05	0	0	0	0	3.44287e-17	0	0	0	0
3.81978	-2.54682	-14.5973	-0.517259	-0.307493	3.44391e-17	0.302598	-0.000534185	-0.00306171	-0.000108493	0	0	0	0	3.44391e-17	0	0	0	0
3.82977	-2.59742	-14.0313	-0.819397	-0.307623	3.44474e-17	0.302661	-0.00112635	-0.00608455	-0.000355325	0	0	0	0	3.44474e-17	0	0	0	0
3.83976	-2.36193	-11.4968	-1.18136	-0.307785	3.44515e-17	0.3028	-0.00203812	-0.0099207	-0.0010194	0	0	0	0	3.44515e-17	0	0	0	0
3.84974	-1.7212	-6.29944	-1.58835	-0.30831	3.44485e-17	0.303289	-0.00374415	-0.0137033	-0.00345516	0	0	0	0	3.44485e-17	0	0	0	0
3.85973	-0.544819	2.28277	-2.01209	-0.312338	3.44346e-17	0.304042	0.00282674	-0.0118439	0.0104395	0	0	0	0	3.44346e-17	0	0	0	0
3.86972	1.29963	14.9346	-2.40815	-0.307972	3.44056e-17	0.302797	-0.00240911	-0.0276839	0.00446395	0	0	0	0	3.44056e-17	0	0	0	0
3.87971	3.93382	32.2246	-2.71444	-0.307535	3.43564e-17	0.303032	-0.0042877	-0.0351234	0.00295863	0	0	0	0	3.43564e-17	0	0	0	0
3.8897	7.45331	54.5206	-2.85193	-0.307065	3.42819e-17	0.303321	-0.00576445	-0.0421667	0.0022057	0	0	0	0	3.42819e-17	0	0	0	0
3.89969	11.9112	81.9135	-2.72835	-0.306382	3.41768e-17	0.303658	-0.00694753	-0.0477782	0.00159138	0	0	0	0	3.41768e-17	0	0	0	0
3.90968	17.3034	114.169	-2.24582	-0.305413	3.40372e-17	0.304038	-0.0076013	-0.0501537	0.000986577	0	0	0	0	3.40372e-17	0	0	0	0
3.91967	23.5583	150.723	-1.31249	-0.304103	3.38607e-17	0.304454	-0.00732923	-0.0468915	0.000408329	0	0	0	0	3.38607e-17	0	0	0	0
3.92966	30.5336	190.739	0.142673	-0.302417	3.36458e-17	0.3049	-0.00560669	-0.0350242	-2.61981e-05	0	0	0	0	3.36458e-17	0	0	0	0
3.93965	38.021	233.203	2.15439	-0.300332	3.33908e-17	0.305369	-0.00180656	-0.0110806	-0.000102365	0	0	0	0	3.33908e-17	0	0	0	0
3.94964	45.7577	277.029	4.70903	-0.297834	3.30944e-17	0.305857	0.0047537	0.0287801	0.000489214	0	0	0	0	3.30944e-17	0	0	0	0
3.95963	53.4434	321.125	7.73962	-0.29492	3.27561e-17	0.306357	0.0147313	0.0885161	0.00213338	0	0	0	0	3.27561e-17	0	0	0	0
3.96962	60.7662	364.424	11.1295	-0.291602	3.23766e-17	0.306861	0.0286465	0.171798	0.0052467	0	0	0	0	3.23766e-17	0	0	0	0
3.97961	67.4308	405.896	14.7243	-0.287904	3.1958e-17	0.307362	0.0467566	0.281449	0.0102098	0	0	0	0	3.1958e-17	0	0	0	0
3.9896	73.1839	444.555	18.3499	-0.283866	3.1504e-17	0.307851	0.0689427	0.418792	0.0172864	0	0	0	0	3.1504e-17	0	0	0	0
3.99958	77.831	479.496	21.8332	-0.279541	3.102e-17	0.308323	0.0946345	0.583018	0.0265469	0	0	0	0	3.102e-17	0	0	0	0
4.00957	81.2442	509.936	25.0224	-0.274992	3.05123e-17	0.308774	0.122799	0.770758	0.0378208	0	0	0	0	3.05123e-17	0	0	0	0
4.01956	83.3634	535.265	27.8017	-0.270287	2.9988e-17	0.309203	0.152009	0.976029	0.0506949	0	0	0	0	2.9988e-17	0	0	0	0
4.02955	84.1931	555.092	30.0998	-0.265493	2.94544e-17	0.309612	0.180596	1.19069	0.0645649	0	0	0	0	2.94544e-17	0	0	0	0
4.03954	83.7954	569.279	31.8894	-0.260674	2.89182e-17	0.310004	0.206852	1.40529	0.0787202	0	0	0	0	2.89182e-17	0	0	0	0
4.04953	82.281	577.951	33.1797	-0.255885	2.83856e-17	0.310384	0.229226	1.61011	0.092435	0	0	0	0	2.83856e-17	0	0	0	0
4.05952	79.7978	581.482	34.0054	-0.251171	2.78612e-17	0.310756	0.24648	1.79609	0.105036	0	0	0	0	2.78612e-17	0	0	0	0
4.06951	76.5184	580.466	34.4141	-0.246566	2.7349e-17	0.31112	0.257787	1.95556	0.115939	0	0	0	0	2.7349e-17	0	0	0	0
4.0795	72.6281	575.664	34.4569	-0.242093	2.68516e-17	0.311476	0.262769	2.08275	0.124665	0	0	0	0	2.68516e-17	0	0	0	0
4.08949	68.3128	567.938	34.1822	-0.237769	2.63708e-17	0.31182	0.261492	2.17398	0.130845	0	0	0	0	2.63708e-17	0	0	0	0
4.09948	63.749	558.181	33.6356	-0.2336	2.59075e-17	0.312149	0.25442	2.22768	0.134238	0	0	0	0	2.59075e-17	0	0	0	0
4.10947	59.0957	547.256	32.861	-0.229588	2.54619e-17	0.312454	0.242341	2.2442	0.134757	0	0	0	0	2.54619e-17	0	0	0	0
4.11946	54.4892	535.935	31.9035	-0.225728	2.50335e-17	0.31273	0.226277	2.22557	0.132485	0	0	0	0	2.50335e-17	0	0	0	0
4.12945	50.0386	524.867	30.8107	-0.22201	2.46213e-17	0.312972	0.207365	2.1751	0.127683	0	0	0	0	2.46213e-17	0	0	0	0
4.13944	45.8239	514.553	29.6315	-0.218418	2.42236e-17	0.313178	0.186748	2.09698	0.120759	0	0	0	0	2.42236e-17	0	0	0	0
4.14942	41.8948	505.346	28.4134	-0.214939	2.38388e-17	0.313349	0.165465	1.99588	0.112219	0	0	0	0	2.38388e-17	0	0	0	0
4.15941	38.2717	497.46	27.1986	-0.211558	2.34651e-17	0.313487	0.144369	1.87653	0.102599	0	0	0	0	2.34651e-17	0	0	0	0
4.1694	34.9479	490.991	26.0219	-0.208262	2.31012e-17	0.313596	0.124095	1.74344	0.0924001	0	0	0	0	2.31012e-17	0	0	0	0
4.17939	31.8947	485.938	24.9097	-0.205045	2.27461e-17	0.313682	0.105064	1.60072	0.0820546	0	0	0	0	2.27461e-17	0	0	0	0
4.18938	29.068	482.234	23.8819	-0.201903	2.23995e-17	0.313748	0.0875221	1.45198	0.0719071	0	0	0	0	2.23995e-17	0	0	0	0
4.19937	26.4156	479.761	22.9548	-0.198836	2.20611e-17	0.313798	0.0716003	1.30041	0.0622196	0	0	0	0	2.20611e-17	0	0	0	0
4.20936	23.8856	478.379	22.1446	-0.195844	2.17308e-17	0.313834	0.0573644	1.14889	0.0531831	0	0	0	0	2.17308e-17	0	0	0	0
4.21935	21.4329	477.937	21.4696	-0.192922	2.14083e-17	0.313855	0.0448506	1.00013	0.0449274	0	0	0	0	2.14083e-17	0	0	0	0
4.22934	19.0228	478.293	20.9495	-0.190063	2.10926e-17	0.313857	0.0340755	0.856765	0.0375267	0	0	0	0	2.10926e-17	0	0	0	0
4.23933	16.6331	479.323	20.6032	-0.187256	2.07824e-17	0.313829	0.0250283	0.721251	0.0310022	0	0	0	0	2.07824e-17	0	0	0	0
4.24932	14.2528	480.935	20.4452	-0.18448	2.04756e-17	0.313762	0.0176556	0.595753	0.0253262	0	0	0	0	2.04756e-17	0	0	0	0
4.25931	11.8787	483.073	20.4809	-0.181717	2.01699e-17	0.313638	0.0118493	0.481876	0.0204301	0	0	0	0	2.01699e-17	0	0	0	0
4.2693	9.51117	485.726	20.7044	-0.178943	1.9863e-17	0.313442	0.00744901	0.380414	0.0162154	0	0	0	0	1.9863e-17	0	0	0	0
4.27929	7.14924	488.928	21.0974	-0.17614	1.95526e-17	0.313155	0.00425761	0.291172	0.0125642	0	0	0	0	1.95526e-17	0	0	0	0
4.28928	4.7858	492.752	21.6313	-0.173294	1.92373e-17	0.312762	0.00206822	0.212947	0.00934816	0	0	0	0	1.92373e-17	0	0	0	0
4.29927	2.40335	497.311	22.2701	-0.170398	1.89165e-17	0.312251	0.000694343	0.143676	0.00643396	0	0	0	0	1.89165e-17	0	0	0	0
4.30925	-0.028654	502.737	22.9751	-0.167455	1.85904e-17	0.311618	-4.60277e-06	0.0807559	0.00369054	0	0	0	0	1.85904e-17	0	0	0	0
4.31924	-2.55486	509.166	23.7084	-0.164476	1.82603e-17	0.310861	-0.000107677	0.0214592	0.000999211	0	0	0	0	1.82603e-17	0	0	0	0
4.32923	-5.233	516.714	24.436	-0.161482	1.79284e-17	0.309991	0.000370964	-0.0366295	-0.00173226	0	0	0	0	1.79284e-17	0	0	0	0
4.33922	-8.13108	525.456	25.1285	-0.158495	1.75974e-17	0.309021	0.00147402	-0.0952558	-0.00455535	-0.519144	-3.84607	-0.467625	0.320387	1.75974e-17	0.199813	0.000559449	0.00414467	0.00050393
4.34921	-11.3229	535.402	25.7608	-0.155545	1.72705e-17	0.307972	0.00328412	-0.15529	-0.00747174	-0.749608	-5.27581	-0.528332	0.320228	-3.5546e-17	0.199907	0.000437918	0.00308211	0.000308649
4.3592	-14.8818	546.482	26.3105	-0.152661	1.69508e-17	0.30687	0.0059014	-0.216708	-0.0104334	-1.01425	-6.8349	-0.555147	0.320077	-3.55344e-17	0.200005	0.000145964	0.000983629	7.98928e-05
4.36919	-18.8737	558.533	26.7563	-0.149868	1.66414e-17	0.305742	0.00941882	-0.278733	-0.0133526	-1.29875	-8.39954	-0.525839	0.319927	-3.55211e-17	0.200109	-0.000381898	-0.00246989	-0.000154623
4.37918	-23.3492	571.294	27.0771	-0.147192	1.63447e-17	0.304614	0.0138978	-0.340044	-0.0161167	-1.57861	-9.7803	-0.413488	0.319782	-3.55066e-17	0.200223	-0.0012202	-0.00755979	-0.00031961
4.38917	-28.3368	584.403	27.2514	-0.144649	1.60628e-17	0.303513	0.0193454	-0.39897	-0.0186044	-1.81694	-10.7124	-0.18768	0.319662	-3.54922e-17	0.200353	-0.00245578	-0.014479	-0.000253668
4.39916	-33.838	597.405	27.2589	-0.142253	1.5797e-17	0.30246	0.0256934	-0.453613	-0.0206979	-1.96267	-10.8512	0.183184	0.319609	-3.54797e-17	0.20052	-0.00420207	-0.0232323	0.000392195
4.40915	-39.8239	609.759	27.0813	-0.140009	1.55481e-17	0.301473	0.0327809	-0.501921	-0.0222919	-1.94967	-9.77486	0.728201	0.319755	-3.54717e-17	0.200796	-0.0066604	-0.0333926	0.00248766
4.41914	-46.2331	620.849	26.7029	-0.137919	1.53163e-17	0.300565	0.040344	-0.541767	-0.0233015	-1.69718	-6.99791	1.46884	0.320784	-3.54718e-17	0.201537	-0.0103639	-0.0427331	0.00896957
4.42913	-52.971	629.998	26.1104	-0.13598	1.5101e-17	0.299746	0.048019	-0.571103	-0.0236695	-1.11223	-1.99664	2.41254	0.332667	-3.54846e-17	0.205958	-0.0120127	-0.0215648	0.0260568
4.43912	-59.909	636.486	25.2921	-0.134186	1.49017e-17	0.299017	0.0553639	-0.588199	-0.0233733	-0.0943108	5.75257	3.54543	0.32543	-3.55156e-17	0.1999	0.000846872	-0.0516557	-0.0318365
4.44911	-66.8834	639.571	24.2371	-0.132525	1.47171e-17	0.298376	0.0619026	-0.591942	-0.0224322	1.45757	16.7242	4.82535	0.321658	-3.55712e-17	0.199091	-0.00637101	-0.0731013	-0.0210915
4.45909	-73.6956	638.513	22.9345	-0.130983	1.45457e-17	0.297817	0.0671885	-0.582135	-0.0209095	3.63547	31.2896	6.17638	0.321678	-3.56586e-17	0.198793	-0.00909489	-0.0782773	-0.0154515
4.46908	-80.112	632.614	21.3747	-0.129545	1.43857e-17	0.297326	0.0708796	-0.55971	-0.0189114	6.51161	49.6656	7.48709	0.322546	-3.57846e-17	0.198376	-0.00978598	-0.07464	-0.011252
4.47907	-85.8681	621.261	19.5518	-0.12819	1.42349e-17	0.296888	0.0728099	-0.526784	-0.0165785	10.1271	71.8804	8.61447	0.323963	-3.59556e-17	0.197814	-0.00873352	-0.061989	-0.00742904
4.48906	-90.6766	603.975	17.4677	-0.126895	1.40908e-17	0.296481	0.0730395	-0.486499	-0.0140702	14.482	97.7661	9.3955	0.325879	-3.61755e-17	0.197119	-0.00591061	-0.0399017	-0.00383463
4.49905	-94.2419	580.471	15.1375	-0.125635	1.39505e-17	0.296079	0.0718667	-0.442654	-0.0115435	19.5285	126.988	9.66703	0.328269	-3.64446e-17	0.196308	-0.00136893	-0.00890173	-0.000677649
4.50904	-96.2818	550.71	12.5945	-0.124384	1.38112e-17	0.295656	0.0697896	-0.399181	-0.00912906	25.1674	159.104	9.29196	0.3311	-3.67607e-17	0.1954	0.00457172	0.0289017	0.00168791
4.51903	-96.5544	514.943	9.89428	-0.123115	1.367e-17	0.295182	0.067416	-0.359542	-0.00690836	31.2484	193.629	8.18626	0.334324	-3.71191e-17	0.19442	0.0112055	0.0694344	0.00293555
4.52902	-94.8899	473.747	7.11617	-0.121803	1.3524e-17	0.294628	0.0653353	-0.326193	-0.00489975	37.573	230.058	6.33871	0.337878	-3.75134e-17	0.193396	0.0174217	0.106673	0.00293911
4.53901	-91.2204	428.025	4.36004	-0.120428	1.3371e-17	0.293965	0.0639833	-0.300223	-0.00305819	43.905	267.86	3.81785	0.341683	-3.79352e-17	0.192365	0.0218309	0.133188	0.00189834
4.549	-85.605	378.984	1.7395	-0.118977	1.32095e-17	0.293172	0.0635405	-0.281302	-0.00129115	49.9882	306.437	0.76418	0.345649	-3.83748e-17	0.191366	0.0230365	0.141218	0.000352163
4.55899	-78.2427	328.072	-0.629072	-0.117449	1.30393e-17	0.292232	0.0638951	-0.267913	0.000513718	55.571	345.101	-2.63083	0.349688	-3.88229e-17	0.190438	0.0199773	0.124061	-0.000945762
4.56898	-69.4692	276.889	-2.63981	-0.115856	1.28616e-17	0.291143	0.0646804	-0.257802	0.00245784	60.4322	383.069	-6.15417	0.353724	-3.92709e-17	0.18962	0.0122101	0.0773976	-0.00124342
4.57897	-59.7332	227.061	-4.21091	-0.114228	1.26796e-17	0.289917	0.0653759	-0.24851	0.00460868	64.4031	419.494	-9.60133	0.3577	-3.97127e-17	0.188939	1.55751e-05	0.000101449	-2.32197e-06
4.58896	-49.5539	180.11	-5.29576	-0.112616	1.24986e-17	0.288589	0.0654438	-0.237864	0.00699389	67.3806	453.512	-12.7994	0.361586	-4.01449e-17	0.188414	-0.0157113	-0.105747	0.00298448
4.59895	-39.4638	137.326	-5.88933	-0.111088	1.23254e-17	0.287218	0.0644619	-0.224315	0.0096199	69.3311	484.312	-15.6196	0.36538	-4.05671e-17	0.188054	-0.0337208	-0.235556	0.00759696
4.60894	-29.9499	99.6693	-6.0279	-0.109725	1.2168e-17	0.285893	0.0622137	-0.207039	0.0125215	70.285	511.198	-17.9802	0.369102	-4.09815e-17	0.187856	-0.0526898	-0.383224	0.013479
4.61892	-21.4023	67.7143	-5.78209	-0.108618	1.20331e-17	0.284739	0.0587134	-0.185762	0.0158621	70.3257	533.646	-19.8427	0.372791	-4.13923e-17	0.187809	-0.0714305	-0.542029	0.0201544
4.62891	-14.0842	41.6489	-5.24503	-0.107881	1.19233e-17	0.28394	0.0541921	-0.160254	0.0201815	69.5752	551.347	-21.2054	0.376499	-4.18052e-17	0.187899	-0.0889984	-0.705266	0.0271253
4.6389	-8.1232	21.3101	-4.51837	-0.107913	1.18385e-17	0.283912	0.0490918	-0.128786	0.0273063	68.1785	564.222	-22.0939	0.38028	-4.22262e-17	0.188105	-0.104725	-0.866666	0.033937
4.64889	-3.5245	6.25126	-3.69921	-0.11303	1.17762e-17	0.28742	0.0414486	-0.0735157	0.0435033	66.2896	572.424	-22.5524	0.384187	-4.26612e-17	0.188407	-0.118198	-1.02066	0.0402122
4.65888	-0.195715	-4.17566	-2.87039	-0.116018	1.17333e-17	0.280876	-0.002942	-0.0627688	-0.0431479	64.0573	576.304	-22.6367	0.388266	-4.3115e-17	0.188784	-0.129218	-1.16253	0.0456634
4.66887	2.02193	-10.7332	-2.09499	-0.106547	1.17063e-17	0.278663	0.0114554	-0.0608096	-0.0118693	61.6155	576.375	-22.4089	0.392546	-4.35911e-17	0.189216	-0.137738	-1.28846	0.0500941
4.67886	3.32322	-14.2189	-1.41495	-0.105584	1.16915e-17	0.278789	0.009229	-0.0394876	-0.0039295	59.0755	573.257	-21.9343	0.397044	-4.40911e-17	0.189685	-0.14381	-1.39551	0.0533957
4.68885	3.9128	-15.4005	-0.852544	-0.105334	1.16857e-17	0.278903	0.00555657	-0.0218702	-0.0012107	56.5222	567.625	-21.2789	0.401755	-4.46147e-17	0.190176	-0.147533	-1.4816	0.0555417
4.69884	3.98544	-14.9692	-0.413828	-0.105275	1.16861e-17	0.279026	0.00228845	-0.00859536	-0.000237621	54.0123	560.154	-20.5072	0.406659	-4.51594e-17	0.190675	-0.149012	-1.54539	0.0565766
4.70883	3.71293	-13.5112	-0.0928364	-0.105298	1.16905e-17	0.279172	-0.000193786	0.000705182	4.84534e-06	51.5763	551.489	-19.6794	0.411718	-4.57212e-17	0.191173	-0.148332	-1.58607	0.0565975
4.71882	3.23718	-11.4962	0.124209	-0.105363	1.1697e-17	0.279341	-0.00186707	0.00663057	-7.16388e-05	49.2228	542.21	-18.8477	0.416881	-4.62946e-17	0.19166	-0.145546	-1.60325	0.0557301
4.72881	2.66811	-9.27811	0.255197	-0.105453	1.17043e-17	0.279531	-0.00283427	0.0098559	-0.000271089	46.9439	532.819	-18.0535	0.422094	-4.68732e-17	0.192132	-0.140683	-1.59677	0.0541031
4.7388	2.08523	-7.10535	0.319201	-0.105559	1.17117e-17	0.279741	-0.00324414	0.0110543	-0.000496604	44.7222	523.738	-17.3257	0.427298	-4.74506e-17	0.192584	-0.133779	-1.56667	0.0518268
4.74879	1.54126	-5.1365	0.334401	-0.105688	1.17184e-17	0.279982	-0.00326045	0.0108659	-0.000707405	42.5367	515.304	-16.6803	0.432436	-4.80206e-17	0.193015	-0.124914	-1.51325	0.0489836
4.75878	1.06705	-3.45807	0.316781	-0.105862	1.17242e-17	0.28028	-0.00302148	0.00979198	-0.000897006	40.3672	507.785	-16.1221	0.437457	-4.85775e-17	0.193423	-0.114249	-1.43716	0.0456297
4.76876	0	0	0	0	-4.91164e-17	0	0	0	0	38.1969	501.377	-15.6479	0.442318	-4.91164e-17	0.193807	-0.102057	-1.33962	0.0418094
4.77875	0	0	0	0	-4.96333e-17	0	0	0	0	36.0127	496.221	-15.2507	0.446981	-4.96333e-17	0.194168	-0.0887238	-1.22253	0.0375729
4.78874	0	0	0	0	-5.01249e-17	0	0	0	0	33.8043	492.404	-14.9236	0.451419	-5.01249e-17	0.194504	-0.0747312	-1.08856	0.0329917
4.79873	0	0	0	0	-5.0589e-17	0	0	0	0	31.563	489.97	-14.6637	0.455608	-5.0589e-17	0.194814	-0.0606235	-0.941092	0.0281648
4.80872	0	0	0	0	-5.10237e-17	0	0	0	0	29.2808	488.924	-14.4736	0.459533	-5.10237e-17	0.195093	-0.0469592	-0.784114	0.0232121
4.81871	0	0	0	0	-5.14283e-17	0	0	0	0	26.9494	489.237	-14.362	0.463188	-5.14283e-17	0.19534	-0.034262	-0.621989	0.0182591
4.8287	0	0	0	0	-5.18026e-17	0	0	0	0	24.5603	490.848	-14.3429	0.46657	-5.18026e-17	0.195551	-0.0229764	-0.459194	0.0134179
4.83869	0	0	0	0	-5.21473e-17	0	0	0	0	22.1044	493.673	-14.4332	0.469684	-5.21473e-17	0.195722	-0.0134329	-0.300005	0.00877105
4.84868	0	0	0	0	-5.24637e-17	0	0	0	0	19.5711	497.6	-14.6504	0.472542	-5.24637e-17	0.195852	-0.00582805	-0.14818	0.00436272
4.85867	0	0	0	0	-5.27534e-17	0	0	0	0	16.9462	502.5	-15.0096	0.47516	-5.27534e-17	0.19594	-0.000225169	-0.00667684	0.000199436
4.86866	0	0	0	0	-5.30185e-17	0	0	0	0	14.2109	508.227	-15.5213	0.477556	-5.30185e-17	0.195987	0.00342639	0.122539	-0.00374234
4.87865	0	0	0	0	-5.32613e-17	0	0	0	0	11.3396	514.631	-16.1893	0.479749	-5.32613e-17	0.195997	0.00525667	0.238567	-0.00750483
4.88864	0	0	0	0	-5.34836e-17	0	0	0	0	8.30075	521.567	-17.0096	0.481757	-5.34836e-17	0.195974	0.00543525	0.341517	-0.0111377
4.89863	0	0	0	0	-5.36872e-17	0	0	0	0	5.05789	528.904	-17.9696	0.483597	-5.36872e-17	0.195925	0.00413458	0.432353	-0.0146893
4.90862	0	0	0	0	-5.38738e-17	0	0	0	0	1.57288	536.538	-19.0481	0.485282	-5.38738e-17	0.195856	0.00150284	0.512648	-0.0181999
4.9186	0	0	0	0	-5.40443e-17	0	0	0	0	-2.19038	544.394	-20.2157	0.486823	-5.40443e-17	0.195773	-0.00235085	0.584279	-0.0216968
4.92859	0	0	0	0	-5.42e-17	0	0	0	0	-6.26212	552.42	-21.4369	0.488229	-5.42e-17	0.195681	-0.00735818	0.649111	-0.0251891
4.93858	0	0	0	0	-5.43417e-17	0	0	0	0	-10.664	560.583	-22.6723	0.489509	-5.43417e-17	0.195585	-0.0134813	0.708681	-0.028662
4.94857	0	0	0	0	-5.44703e-17	0	0	0	0	-15.4081	568.849	-23.8815	0.490672	-5.44703e-17	0.195488	-0.0206928	0.763954	-0.0320724
4.95856	0	0	0	0	-5.45868e-17	0	0	0	0	-20.497	577.167	-25.0267	0.491726	-5.45868e-17	0.195393	-0.028948	0.815135	-0.0353454
4.96855	0	0	0	0	-5.46924e-17	0	0	0	0	-25.9254	585.452	-26.0747	0.49268	-5.46924e-17	0.195302	-0.0381543	0.861609	-0.0383741
4.97854	-0.698179	-3.51843	-0.0501153	0.99249	-1.11183e-16	0.325836	0.00247615	0.0124784	0.000177738	-31.6811	593.571	-26.998	0.493545	-5.47879e-17	0.195218	-0.0481413	0.901965	-0.041025
4.98853	-1.24306	-5.98001	-0.137929	0.996721	-1.11177e-16	0.325888	0.00486867	0.0234218	0.000540223	-37.7455	601.333	-27.7739	0.494328	-5.48742e-17	0.195142	-0.0586363	0.93415	-0.0431458
4.99852	-1.79942	-8.19318	-0.293874	0.998536	-1.1117e-16	0.325859	0.00746164	0.0339746	0.00121861	-44.0906	608.485	-28.3831	0.495035	-5.49521e-17	0.195077	-0.0692489	0.955688	-0.0445785
5.00851	-2.26552	-9.5453	-0.535501	0.999486	-1.11164e-16	0.325768	0.00997796	0.0420401	0.00235849	-50.6762	614.712	-28.8063	0.495673	-5.5022e-17	0.195028	-0.0794682	0.963966	-0.0451728
5.0185	-2.52755	-9.37096	-0.874597	1.00008	-1.11158e-16	0.325551	0.0122606	0.0454565	0.00424248	-57.4431	619.643	-29.0224	0.496244	-5.50843e-17	0.194996	-0.0886751	0.956545	-0.044802
5.02849	-2.45785	-6.95839	-1.31408	1.00074	-1.11153e-16	0.324826	0.0145723	0.0412555	0.00779103	-64.3077	622.85	-29.0072	0.49675	-5.5139e-17	0.194986	-0.0961712	0.931463	-0.0433799
5.03848	-1.91606	-1.57354	-1.84418	1.00502	-1.1115e-16	0.31801	0.0139674	0.0114705	0.0134434	-71.156	623.855	-28.7339	0.497194	-5.51864e-17	0.195002	-0.101226	0.887496	-0.0408768
5.04847	-0.754371	7.49538	-2.43826	1.00234	-1.11151e-16	0.327088	-0.00133834	0.0132977	-0.00432575	-77.8394	622.141	-28.175	0.497578	-5.52269e-17	0.195047	-0.103141	0.824371	-0.0373334
5.05846	1.17259	20.8737	-3.04897	1.00122	-1.11157e-16	0.327423	-0.000815864	-0.0145235	0.00212142	-84.174	617.167	-27.3066	0.497912	-5.52613e-17	0.195125	-0.101321	0.74289	-0.0328693
5.06845	3.99294	39.0221	-3.60567	1.00122	-1.1117e-16	0.327601	-0.00577416	-0.0564295	0.00521413	-89.9423	608.385	-26.1122	0.498207	-5.5291e-17	0.195241	-0.095353	0.644984	-0.027683
5.07843	7.7988	62.1545	-4.01424	1.00142	-1.11193e-16	0.327895	-0.0138255	-0.110186	0.00711634	-94.8993	595.283	-24.5865	0.498481	-5.53185e-17	0.195398	-0.0850832	0.533709	-0.0220433
5.08842	12.6255	90.1708	-4.16058	1.00177	-1.1123e-16	0.328293	-0.0245146	-0.175082	0.00807849	-98.7834	577.419	-22.7389	0.498761	-5.53468e-17	0.195601	-0.0706844	0.413172	-0.0162708
5.09841	18.4321	122.623	-3.91881	1.00227	-1.11282e-16	0.328771	-0.0375266	-0.249653	0.00797843	-101.331	554.482	-20.5956	0.499079	-5.53803e-17	0.195856	-0.0527056	0.288403	-0.0107124
5.1084	25.0884	158.739	-3.16446	1.00292	-1.11353e-16	0.329312	-0.0523751	-0.331386	0.00660621	-102.3	526.346	-18.1995	0.499473	-5.54239e-17	0.196172	-0.0320917	0.165116	-0.00570922
5.11839	32.372	197.5	-1.79179	1.00377	-1.11443e-16	0.3299	-0.068298	-0.416684	0.0037803	-101.491	493.124	-15.6101	0.499987	-5.54834e-17	0.19656	-0.0101564	0.0493479	-0.00156213
5.12838	39.9811	237.783	0.267885	1.00481	-1.11556e-16	0.330522	-0.0842337	-0.500971	-0.00056439	-98.7793	455.21	-12.901	0.500659	-5.55647e-17	0.197031	0.0115085	-0.0530354	0.00150306
5.13837	47.563	278.483	3.03113	1.00606	-1.11693e-16	0.331165	-0.0988719	-0.578899	-0.00630098	-94.1391	413.297	-10.1571	0.501528	-5.56732e-17	0.197598	0.0311966	-0.136962	0.00336594
5.14836	54.7532	318.594	6.45391	1.00755	-1.11856e-16	0.331813	-0.110776	-0.644577	-0.0130575	-87.6644	368.36	-7.4702	0.502616	-5.58136e-17	0.198276	0.0473094	-0.198791	0.00403141
5.15835	61.2193	357.237	10.4308	1.00928	-1.12047e-16	0.332448	-0.118557	-0.691821	-0.0202002	-79.5789	321.609	-4.9338	0.503931	-5.59885e-17	0.199075	0.0585997	-0.236824	0.00363311
5.16834	66.6969	393.655	14.802	1.01129	-1.12268e-16	0.333049	-0.121052	-0.714468	-0.026865	-70.2291	274.409	-2.63679	0.505458	-5.61979e-17	0.2	0.0643772	-0.251544	0.00241708
5.17833	71.0121	427.21	19.3663	1.01358	-1.12522e-16	0.33359	-0.117482	-0.706773	-0.0320394	-60.0611	228.172	-0.656383	0.507153	-5.64384e-17	0.201049	0.0646216	-0.245498	0.000706223
5.18832	74.088	457.377	23.8992	1.01618	-1.12811e-16	0.334046	-0.107541	-0.663899	-0.0346905	-49.5796	184.24	0.94962	0.508944	-5.67026e-17	0.202206	0.0599676	-0.222842	-0.00114859
5.19831	75.9388	483.76	28.1732	1.01911	-1.13136e-16	0.334387	-0.0914362	-0.582484	-0.0339227	-39.2959	143.774	2.14955	0.510738	-5.69794e-17	0.203442	0.0515659	-0.188667	-0.00282074
5.2083	76.6538	506.093	31.9786	1.02237	-1.13499e-16	0.334588	-0.0698537	-0.461196	-0.0291417	-29.6728	107.67	2.94196	0.512428	-5.72541e-17	0.20471	0.0408581	-0.148257	-0.00405094
5.21829	76.3764	524.252	35.1424	1.02596	-1.139e-16	0.334622	-0.0438821	-0.301209	-0.0201911	-21.078	76.511	3.35539	0.513921	-5.75109e-17	0.205948	0.0293285	-0.106459	-0.00466877
5.22827	75.282	538.256	37.5437	1.02987	-1.14337e-16	0.334471	-0.0148894	-0.106457	-0.00742546	-13.7551	50.554	3.44351	0.515174	-5.77357e-17	0.207081	0.0182999	-0.0672572	-0.00458125
5.23826	73.5576	548.259	39.123	1.03409	-1.14809e-16	0.334121	0.0156221	0.116439	0.00830892	-7.8166	29.7578	3.27652	0.516175	-5.79222e-17	0.208026	0.00882083	-0.0335809	-0.00369747
5.24825	71.3841	554.54	39.8836	1.03859	-1.15312e-16	0.333569	0.0461627	0.35861	0.0257919	-3.25577	13.8266	2.93107	0.516892	-5.80695e-17	0.208694	0.00173511	-0.00736868	-0.00156206
5.25824	68.9229	557.482	39.8863	1.04333	-1.15842e-16	0.33282	0.0753753	0.609672	0.0436204	0.028184	2.27099	2.48079	0.514869	-5.81798e-17	0.209258	6.26097e-05	0.00504492	0.00551098
5.26823	66.3077	557.55	39.2373	1.04828	-1.16394e-16	0.331888	0.102115	0.858637	0.0604261	2.19997	-5.52555	1.98937	0.516482	-5.82578e-17	0.211004	-0.0070539	0.0177169	-0.00637864
5.27822	63.6414	555.262	38.0721	1.05338	-1.16964e-16	0.330796	0.125486	1.09485	0.0750692	3.4582	-10.24	1.50662	0.517475	-5.8309e-17	0.210912	-0.00853602	0.0252759	-0.00371884
5.28821	60.9975	551.159	36.5381	1.05859	-1.17545e-16	0.329572	0.14485	1.30883	0.0867663	4.00979	-12.5517	1.06735	0.517749	-5.83389e-17	0.211002	-0.0087027	0.0272418	-0.00231655
5.2982	58.4222	545.779	34.7787	1.06385	-1.18131e-16	0.328249	0.159811	1.49295	0.0951352	4.05056	-13.0958	0.69233	0.517849	-5.83528e-17	0.211061	-0.00808954	0.0261542	-0.00138268
5.30819	55.9387	539.63	32.9203	1.06911	-1.18716e-16	0.326863	0.170192	1.64181	0.100159	3.75257	-12.4318	0.390464	0.517868	-5.83555e-17	0.211071	-0.00702114	0.0232601	-0.000730567
5.31818	53.551	533.163	31.0639	1.07433	-1.19295e-16	0.325445	0.176007	1.75235	0.102098	3.25738	-11.0255	0.161674	0.517843	-5.83508e-17	0.21104	-0.00575026	0.0194633	-0.000285404
5.32817	51.2478	526.761	29.2821	1.07944	-1.19864e-16	0.324028	0.177426	1.82371	0.101378	2.67426	-9.24365	-0.000256183	0.517797	-5.83416e-17	0.21098	-0.00446065	0.0154183	4.27311e-07
5.33816	49.0071	520.722	27.6195	1.08443	-1.20417e-16	0.322639	0.174757	1.85688	0.0984902	2.08188	-7.35787	-0.105109	0.517744	-5.83305e-17	0.210901	-0.00327278	0.0115668	0.000165234
5.34815	46.8008	515.259	26.0975	1.08924	-1.2095e-16	0.321297	0.168429	1.85434	0.0939207	1.53208	-5.55458	-0.164163	0.517694	-5.83189e-17	0.210812	-0.00225317	0.00816892	0.000241428
5.35814	44.6002	510.498	24.7194	1.09386	-1.21462e-16	0.32002	0.158976	1.81965	0.0881114	1.05484	-3.94896	-0.188677	0.517652	-5.83079e-17	0.210714	-0.00142269	0.00532607	0.000254474
5.36813	42.3807	506.492	23.4775	1.09828	-1.21952e-16	0.318814	0.147028	1.75713	0.0814484	0	0	0	0	-1.21952e-16	0	0	0	0
5.37812	40.127	503.23	22.3582	1.1025	-1.22418e-16	0.317686	0.133287	1.67154	0.0742655	0	0	0	0	-1.22418e-16	0	0	0	0
5.3881	37.8355	500.659	21.3472	1.10653	-1.22864e-16	0.316633	0.118486	1.56787	0.0668512	0	0	0	0	-1.22864e-16	0	0	0	0
5.39809	35.5154	498.699	20.4317	1.11039	-1.23291e-16	0.31565	0.103346	1.45116	0.0594542	0	0	0	0	-1.23291e-16	0	0	0	0
5.40808	33.1869	497.264	19.603	1.11411	-1.23702e-16	0.314733	0.0885129	1.32625	0.0522831	0	0	0	0	-1.23702e-16	0	0	0	0
5.41807	30.8772	496.274	18.8558	1.11772	-1.24102e-16	0.313873	0.0745146	1.19764	0.0455039	0	0	0	0	-1.24102e-16	0	0	0	0
5.42806	28.6143	495.674	18.1888	1.12125	-1.24492e-16	0.313065	0.061723	1.0692	0.0392344	0	0	0	0	-1.24492e-16	0	0	0	0
5.43805	26.4206	495.437	17.6029	1.12472	-1.24877e-16	0.312303	0.0503432	0.944033	0.0335416	0	0	0	0	-1.24877e-16	0	0	0	0
5.44804	24.3072	495.566	17.1009	1.12816	-1.25257e-16	0.311584	0.0404278	0.824227	0.0284423	0	0	0	0	-1.25257e-16	0	0	0	0
5.45803	22.2715	496.098	16.6864	1.13156	-1.25634e-16	0.310907	0.0319113	0.710823	0.0239088	0	0	0	0	-1.25634e-16	0	0	0	0
5.46802	20.2964	497.091	16.3636	1.13494	-1.26008e-16	0.310272	0.0246564	0.603876	0.0198788	0	0	0	0	-1.26008e-16	0	0	0	0
5.47801	18.3524	498.628	16.1367	1.13827	-1.26377e-16	0.30968	0.0185012	0.502671	0.0162675	0	0	0	0	-1.26377e-16	0	0	0	0
5.488	16.4017	500.807	16.0108	1.14155	-1.26741e-16	0.309134	0.0132974	0.406023	0.0129805	0	0	0	0	-1.26741e-16	0	0	0	0
5.49799	14.4007	503.735	15.9922	1.14476	-1.27096e-16	0.308636	0.00893682	0.312608	0.00992445	0	0	0	0	-1.27096e-16	0	0	0	0
5.50798	12.303	507.523	16.0885	1.14788	-1.27442e-16	0.308191	0.00536351	0.221256	0.0070138	0	0	0	0	-1.27442e-16	0	0	0	0
5.51797	10.0593	512.276	16.3085	1.15089	-1.27775e-16	0.3078	0.00257555	0.131162	0.00417558	0	0	0	0	-1.27775e-16	0	0	0	0
5.52796	7.61767	518.083	16.6614	1.15376	-1.28094e-16	0.307467	0.000617797	0.0420168	0.00135124	0	0	0	0	-1.28094e-16	0	0	0	0
5.53794	4.92289	525.002	17.1549	1.15647	-1.28395e-16	0.307195	-0.00043098	-0.0459619	-0.00150185	0	0	0	0	-1.28395e-16	0	0	0	0
5.54793	1.9169	533.051	17.7935	1.15901	-1.28676e-16	0.306986	-0.000474932	-0.132069	-0.00440851	0	0	0	0	-1.28676e-16	0	0	0	0
5.55792	-1.45881	542.195	18.5755	1.16136	-1.28936e-16	0.306839	0.000578993	-0.215193	-0.00737251	0	0	0	0	-1.28936e-16	0	0	0	0
5.56791	-5.25898	552.333	19.4921	1.1635	-1.29174e-16	0.306756	0.00279843	-0.29391	-0.0103722	0	0	0	0	-1.29174e-16	0	0	0	0
5.5779	-9.52872	563.3	20.5256	1.16544	-1.29388e-16	0.306731	0.00620066	-0.366558	-0.0133567	0	0	0	0	-1.29388e-16	0	0	0	0
5.58789	-14.2973	574.857	21.6494	1.16716	-1.29579e-16	0.30676	0.0107268	-0.431296	-0.0162428	0	0	0	0	-1.29579e-16	0	0	0	0
5.59788	-19.5729	586.698	22.8292	1.16868	-1.29747e-16	0.306836	0.016218	-0.486135	-0.0189162	0	0	0	0	-1.29747e-16	0	0	0	0
5.60787	-25.3394	598.45	24.024	1.17002	-1.29895e-16	0.30695	0.0223983	-0.52899	-0.0212356	0	0	0	0	-1.29895e-16	0	0	0	0
5.61786	-31.5558	609.69	25.1875	1.17119	-1.30024e-16	0.307091	0.0288681	-0.557761	-0.0230422	0	0	0	0	-1.30024e-16	0	0	0	0
5.62785	-38.158	619.944	26.2695	1.17222	-1.30138e-16	0.30725	0.0351147	-0.570499	-0.0241743	0	0	0	0	-1.30138e-16	0	0	0	0
5.63784	-45.0617	628.705	27.2164	1.17313	-1.30238e-16	0.307417	0.040543	-0.565661	-0.0244872	0	0	0	0	-1.30238e-16	0	0	0	0
5.64783	-52.1646	635.435	27.9725	1.17395	-1.30327e-16	0.307586	0.0445262	-0.542389	-0.0238765	0	0	0	0	-1.30327e-16	0	0	0	0
5.65782	-59.3477	639.571	28.4818	1.1747	-1.30409e-16	0.307749	0.0464691	-0.500782	-0.0223011	0	0	0	0	-1.30409e-16	0	0	0	0
5.66781	-66.4723	640.537	28.6891	1.17541	-1.30486e-16	0.307902	0.0458797	-0.442104	-0.0198014	0	0	0	0	-1.30486e-16	0	0	0	0
5.6778	-73.3762	637.757	28.5435	1.1761	-1.30559e-16	0.308038	0.0424407	-0.368878	-0.0165095	0	0	0	0	-1.30559e-16	0	0	0	0
5.68778	-79.8685	630.673	28.0014	1.17679	-1.30632e-16	0.308151	0.0360754	-0.284866	-0.0126478	0	0	0	0	-1.30632e-16	0	0	0	0
5.69777	-85.7279	618.779	27.0306	1.17749	-1.30707e-16	0.30823	0.026998	-0.19487	-0.00851266	0	0	0	0	-1.30707e-16	0	0	0	0
5.70776	-90.7052	601.655	25.6158	1.17822	-1.30786e-16	0.308261	0.0157394	-0.1044	-0.00444491	0	0	0	0	-1.30786e-16	0	0	0	0
5.71775	-94.5337	579.024	23.7633	1.17902	-1.30872e-16	0.308221	0.00313743	-0.019217	-0.000788668	0	0	0	0	-1.30872e-16	0	0	0	0
5.72774	-96.9474	550.794	21.5048	1.17989	-1.30968e-16	0.308083	-0.00971455	0.0551919	0.00215487	0	0	0	0	-1.30968e-16	0	0	0	0
5.73773	-97.7063	517.111	18.9002	1.18085	-1.31076e-16	0.307807	-0.0215643	0.114129	0.00417137	0	0	0	0	-1.31076e-16	0	0	0	0
5.74772	-96.6265	478.395	16.036	1.18191	-1.31199e-16	0.30735	-0.0311351	0.154149	0.00516713	0	0	0	0	-1.31199e-16	0	0	0	0
5.75771	-93.6109	435.359	13.0213	1.1831	-1.31342e-16	0.30666	-0.037284	0.173398	0.00518623	0	0	0	0	-1.31342e-16	0	0	0	0
5.7677	-88.6755	389	9.98006	1.18441	-1.31505e-16	0.305684	-0.0391581	0.171778	0.00440708	0	0	0	0	-1.31505e-16	0	0	0	0
5.77769	-81.9663	340.561	7.04059	1.18585	-1.3169e-16	0.304373	-0.0363181	0.150898	0.00311959	0	0	0	0	-1.3169e-16	0	0	0	0
5.78768	-73.7616	291.455	4.32476	1.18738	-1.31897e-16	0.302689	-0.0288085	0.113831	0.00168909	0	0	0	0	-1.31897e-16	0	0	0	0
5.79767	-64.4558	243.162	1.93713	1.18899	-1.32124e-16	0.300617	-0.0171558	0.0647212	0.000515596	0	0	0	0	-1.32124e-16	0	0	0	0
5.80766	-54.5232	197.107	-0.0440216	1.19061	-1.32366e-16	0.298175	-0.00229261	0.00828802	-1.85103e-06	0	0	0	0	-1.32366e-16	0	0	0	0
5.81765	-44.467	154.526	-1.573	1.19218	-1.32615e-16	0.295429	0.0145847	-0.0506829	0.000515927	0	0	0	0	-1.32615e-16	0	0	0	0
5.82764	-34.7602	116.36	-2.63955	1.19361	-1.3286e-16	0.292503	0.0321894	-0.107754	0.00244433	0	0	0	0	-1.3286e-16	0	0	0	0
5.83763	-25.7911	83.1796	-3.26757	1.19481	-1.3309e-16	0.2896	0.0492947	-0.158981	0.00624531	0	0	0	0	-1.3309e-16	0	0	0	0
5.84761	-17.8248	55.1631	-3.50926	1.1957	-1.33293e-16	0.287033	0.0648342	-0.200645	0.0127643	0	0	0	0	-1.33293e-16	0	0	0	0
5.8576	-10.986	32.113	-3.43556	1.19601	-1.33466e-16	0.285384	0.0780411	-0.22812	0.0244051	0	0	0	0	-1.33466e-16	0	0	0	0
5.86759	-5.26459	13.5148	-3.12466	1.19352	-1.33608e-16	0.286956	0.0889776	-0.228416	0.0528104	0	0	0	0	-1.33608e-16	0	0	0	0
5.87758	-0.537336	-1.38124	-2.65128	1.12032	-1.33726e-16	0.293844	-0.021727	-0.0558501	-0.107204	0	0	0	0	-1.33726e-16	0	0	0	0
5.88757	3.39742	-13.4621	-2.07866	1.1957	-1.33823e-16	0.271829	0.057876	-0.229331	-0.0354105	0	0	0	0	-1.33823e-16	0	0	0	0
5.89756	6.78033	-23.6473	-1.45419	1.19813	-1.33907e-16	0.271888	0.0579899	-0.202248	-0.0124372	0	0	0	0	-1.33907e-16	0	0	0	0
5.90755	9.85003	-32.7823	-0.808547	1.19881	-1.33983e-16	0.271109	0.051093	-0.170045	-0.00419401	0	0	0	0	-1.33983e-16	0	0	0	0
5.91754	0	0	0	0	-0.235237	0	0	0	0	0	0	0	0	-0.0190545	0	0	0	0
