Coordinates
version=1
nRows=239
nColumns=38
inDegrees=no

Units are S.I. units (second, meters, Newtons, ...)
If the header above contains a line with 'inDegrees', this indicates whether rotational values are in degrees (yes) or radians (no).

endheader
time	pelvis_tilt	pelvis_list	pelvis_rotation	pelvis_tx	pelvis_ty	pelvis_tz	hip_flexion_r	hip_adduction_r	hip_rotation_r	knee_angle_r	ankle_angle_r	subtalar_angle_r	mtp_angle_r	hip_flexion_l	hip_adduction_l	hip_rotation_l	knee_angle_l	ankle_angle_l	subtalar_angle_l	mtp_angle_l	lumbar_extension	lumbar_bending	lumbar_rotation	arm_flex_r	arm_add_r	arm_rot_r	elbow_flex_r	pro_sup_r	wrist_flex_r	wrist_dev_r	arm_flex_l	arm_add_l	arm_rot_l	elbow_flex_l	pro_sup_l	wrist_flex_l	wrist_dev_l
4	-2.60527	-0.140772	-0.0541073	1.6436	-0.963951	0.244987	-0.394637	0.129564	0.114035	0.552121	0.338197	0	0	0.0241374	-0.172847	-0.226394	0.180824	0.0152541	0	0	-1.20377	0.0542096	0.210767	0.894189	-0.379481	-0.0778133	1.10532	0.68603	0	0	0.830809	0.182826	0.0270742	1.12321	0.6888	0	0
4.00999	-2.61133	-0.145035	-0.0604435	1.6332	-0.963311	0.243189	-0.392814	0.127082	0.117823	0.565728	0.345924	0	0	0.0252054	-0.176075	-0.234796	0.182749	0.00264187	0	0	-1.19834	0.0563571	0.206433	0.893491	-0.377418	-0.0774418	1.10505	0.685885	0	0	0.830168	0.180663	0.0267087	1.12279	0.688635	0	0
4.01998	-2.61729	-0.149219	-0.0667808	1.62279	-0.962682	0.241395	-0.39099	0.124501	0.121544	0.579483	0.353521	0	0	0.0260684	-0.17919	-0.243174	0.184704	-0.0101351	0	0	-1.19309	0.0583645	0.202408	0.892794	-0.375355	-0.0770703	1.10478	0.68574	0	0	0.829528	0.178499	0.026343	1.12237	0.68847	0	0
4.02996	-2.62312	-0.153172	-0.0731602	1.61235	-0.962082	0.239614	-0.389164	0.121622	0.125102	0.593486	0.360774	0	0	0.0265087	-0.181982	-0.251521	0.186747	-0.0233578	0	0	-1.188	0.0600024	0.198948	0.892096	-0.373291	-0.0766987	1.10451	0.685595	0	0	0.828887	0.176336	0.0259774	1.12196	0.688306	0	0
4.03995	-2.62879	-0.156668	-0.0796462	1.60189	-0.961535	0.237858	-0.387337	0.118166	0.128368	0.607782	0.367393	0	0	0.026349	-0.184158	-0.259878	0.188926	-0.0373635	0	0	-1.18293	0.0609867	0.196149	0.891397	-0.371228	-0.0763271	1.10424	0.68545	0	0	0.828246	0.174172	0.0256117	1.12154	0.688141	0	0
4.04994	-2.63419	-0.159451	-0.0862458	1.59137	-0.961067	0.23614	-0.385509	0.113862	0.131196	0.62251	0.373019	0	0	0.0254032	-0.185401	-0.268294	0.191245	-0.0524711	0	0	-1.17789	0.0610548	0.193984	0.890699	-0.369164	-0.0759555	1.10397	0.685305	0	0	0.827605	0.172007	0.025246	1.12112	0.687976	0	0
4.05993	-2.63927	-0.161247	-0.0929628	1.58078	-0.960705	0.234476	-0.383681	0.108433	0.133449	0.637722	0.377259	0	0	0.0235949	-0.18539	-0.276832	0.193707	-0.0688988	0	0	-1.17274	0.0599529	0.192269	0.890001	-0.367099	-0.0755838	1.1037	0.685159	0	0	0.826964	0.169843	0.0248802	1.1207	0.687811	0	0
4.06992	-2.64401	-0.161769	-0.0998063	1.57012	-0.960472	0.23288	-0.381854	0.101605	0.13501	0.653401	0.379684	0	0	0.0209457	-0.183817	-0.285533	0.196341	-0.0866658	0	0	-1.16723	0.0574225	0.19073	0.889302	-0.365035	-0.0752121	1.10343	0.685014	0	0	0.826322	0.167678	0.0245144	1.12029	0.687646	0	0
4.0799	-2.6484	-0.16075	-0.106786	1.55938	-0.960387	0.231366	-0.380035	0.0931373	0.135796	0.6695	0.379839	0	0	0.0175335	-0.180419	-0.294344	0.19922	-0.105486	0	0	-1.16102	0.0532219	0.189043	0.888603	-0.36297	-0.0748403	1.10317	0.684869	0	0	0.825681	0.165513	0.0241486	1.11987	0.687482	0	0
4.08989	-2.65228	-0.158008	-0.113795	1.54856	-0.960466	0.229945	-0.378227	0.0829378	0.135753	0.686141	0.377279	0	0	0.0133146	-0.175035	-0.303046	0.202355	-0.124703	0	0	-1.15428	0.0472197	0.186961	0.887904	-0.360905	-0.0744685	1.1029	0.684724	0	0	0.825039	0.163348	0.0237827	1.11945	0.687317	0	0
4.09988	-2.65553	-0.153478	-0.120688	1.53768	-0.960717	0.228623	-0.376439	0.0710571	0.134898	0.703465	0.371609	0	0	0.00824364	-0.167643	-0.311337	0.205814	-0.143409	0	0	-1.14723	0.039415	0.184259	0.887205	-0.35884	-0.0740966	1.10263	0.684579	0	0	0.824397	0.161182	0.0234168	1.11903	0.687152	0	0
4.10987	-2.65797	-0.147189	-0.127299	1.52675	-0.961143	0.227403	-0.374682	0.0576506	0.133309	0.721622	0.362484	0	0	0.00226795	-0.15833	-0.31894	0.20968	-0.160632	0	0	-1.14012	0.0299093	0.180756	0.886505	-0.356775	-0.0737247	1.10236	0.684434	0	0	0.823754	0.159016	0.0230508	1.11862	0.686987	0	0
4.11986	-2.65944	-0.139262	-0.133467	1.5158	-0.961739	0.22628	-0.372966	0.0429515	0.131106	0.740786	0.349634	0	0	-0.00470295	-0.147268	-0.325618	0.213998	-0.175492	0	0	-1.13329	0.0188962	0.176328	0.885805	-0.354709	-0.0733527	1.10209	0.684289	0	0	0.823112	0.15685	0.0226848	1.1182	0.686823	0	0
4.12984	-2.65975	-0.129912	-0.13904	1.50485	-0.962497	0.225245	-0.371306	0.0272561	0.128422	0.761171	0.332896	0	0	-0.0128275	-0.134698	-0.331171	0.218721	-0.187338	0	0	-1.1272	0.00666298	0.170916	0.885104	-0.352643	-0.0729807	1.10182	0.684144	0	0	0.822469	0.154684	0.0223187	1.11778	0.686658	0	0
4.13983	-2.65866	-0.119449	-0.143878	1.49394	-0.963406	0.224282	-0.369715	0.0109156	0.125386	0.783016	0.312258	0	0	-0.0223444	-0.120924	-0.335429	0.223697	-0.195827	0	0	-1.12244	-0.00641356	0.164547	0.884403	-0.350577	-0.0726086	1.10155	0.683999	0	0	0.821825	0.152517	0.0219526	1.11736	0.686493	0	0
4.14982	-2.65602	-0.108222	-0.147907	1.4831	-0.96445	0.223373	-0.368207	-0.00572296	0.12214	0.806409	0.287857	0	0	-0.033449	-0.106274	-0.338322	0.228747	-0.20091	0	0	-1.11943	-0.0199384	0.15731	0.883702	-0.348511	-0.0722365	1.10128	0.683854	0	0	0.821182	0.15035	0.0215864	1.11695	0.686328	0	0
4.15981	-2.65179	-0.0965659	-0.151144	1.47237	-0.965614	0.222494	-0.366791	-0.0223661	0.118862	0.831191	0.259979	0	0	-0.0462178	-0.0910643	-0.339974	0.233742	-0.202751	0	0	-1.11832	-0.0335653	0.14936	0.883	-0.346444	-0.0718642	1.10101	0.683709	0	0	0.820537	0.148182	0.0212203	1.11653	0.686164	0	0
4.16979	-2.64598	-0.0848668	-0.153695	1.46176	-0.966881	0.221622	-0.36547	-0.038733	0.115757	0.857104	0.22912	0	0	-0.0606989	-0.0756392	-0.340693	0.238574	-0.201647	0	0	-1.11918	-0.0469459	0.140921	0.882298	-0.344377	-0.071492	1.10074	0.683564	0	0	0.819893	0.146015	0.020854	1.11611	0.685999	0	0
4.17978	-2.63851	-0.0735652	-0.155654	1.45131	-0.968234	0.220732	-0.364239	-0.0545116	0.112947	0.884019	0.196095	0	0	-0.07705	-0.0603799	-0.340827	0.243058	-0.197963	0	0	-1.12239	-0.0596847	0.132263	0.881596	-0.34231	-0.0711196	1.10047	0.683419	0	0	0.819248	0.143847	0.0204877	1.11569	0.685835	0	0
4.18977	-2.62945	-0.0629988	-0.157109	1.44103	-0.96966	0.219804	-0.363075	-0.0694384	0.110534	0.911594	0.161962	0	0	-0.095246	-0.0456013	-0.340707	0.247148	-0.192094	0	0	-1.12802	-0.0714716	0.123627	0.880892	-0.340242	-0.0707472	1.1002	0.683274	0	0	0.818602	0.141678	0.0201214	1.11527	0.68567	0	0
4.19976	-2.61889	-0.053422	-0.15813	1.43094	-0.971143	0.21882	-0.361934	-0.0832917	0.10856	0.939412	0.127991	0	0	-0.115174	-0.0315557	-0.340564	0.250855	-0.184442	0	0	-1.136	-0.0820571	0.115204	0.880189	-0.338175	-0.0703748	1.09993	0.683129	0	0	0.817956	0.13951	0.019755	1.11486	0.685505	0	0
4.20975	-2.60701	-0.0449967	-0.158752	1.42104	-0.972672	0.217768	-0.360747	-0.0958823	0.107021	0.966994	0.095598	0	0	-0.136624	-0.0184326	-0.340512	0.254245	-0.175397	0	0	-1.14618	-0.0912512	0.107117	0.879484	-0.336106	-0.0700022	1.09966	0.682985	0	0	0.81731	0.13734	0.0193885	1.11444	0.685341	0	0
4.21973	-2.59407	-0.0377917	-0.158972	1.41133	-0.974234	0.216642	-0.359408	-0.10704	0.105909	0.993788	0.0661883	0	0	-0.159269	-0.00636565	-0.340559	0.257441	-0.165331	0	0	-1.1582	-0.0989248	0.0994238	0.878779	-0.334037	-0.0696295	1.09939	0.68284	0	0	0.816663	0.13517	0.0190219	1.11402	0.685176	0	0
4.22972	-2.58043	-0.0317939	-0.158769	1.4018	-0.975818	0.215442	-0.357772	-0.116606	0.105252	1.01917	0.0409885	0	0	-0.18265	0.00455596	-0.340641	0.260632	-0.154574	0	0	-1.17156	-0.105016	0.0921456	0.878073	-0.331968	-0.0692568	1.09912	0.682695	0	0	0.816015	0.133	0.0186553	1.1136	0.685012	0	0
4.23971	-2.56644	-0.0269577	-0.158095	1.39244	-0.977413	0.214175	-0.355647	-0.124419	0.105062	1.0426	0.0209043	0	0	-0.206286	0.0142568	-0.340618	0.263984	-0.143397	0	0	-1.18584	-0.109491	0.0852812	0.877367	-0.329898	-0.0688839	1.09885	0.68255	0	0	0.815366	0.130829	0.0182885	1.11318	0.684847	0	0
4.2497	-2.55256	-0.0231364	-0.156888	1.38323	-0.979008	0.212853	-0.352795	-0.130383	0.105335	1.06352	0.00635871	0	0	-0.229565	0.0227222	-0.340296	0.267737	-0.131996	0	0	-1.20043	-0.112411	0.0788093	0.876659	-0.327828	-0.0685108	1.09858	0.682406	0	0	0.814717	0.128657	0.0179217	1.11276	0.684683	0	0
4.25969	-2.53929	-0.0201484	-0.155092	1.37417	-0.980591	0.211495	-0.348934	-0.134488	0.105986	1.08147	-0.00274076	0	0	-0.251846	0.0299675	-0.339466	0.27213	-0.120501	0	0	-1.2147	-0.113887	0.072693	0.875951	-0.325757	-0.0681377	1.09831	0.682261	0	0	0.814066	0.126485	0.0175548	1.11234	0.684518	0	0
4.26967	-2.52711	-0.0178239	-0.152678	1.36523	-0.982149	0.210121	-0.343748	-0.136807	0.106853	1.09603	-0.00687805	0	0	-0.272495	0.0360158	-0.337951	0.277381	-0.108987	0	0	-1.22804	-0.114036	0.0668777	0.875242	-0.323686	-0.0677644	1.09804	0.682116	0	0	0.813415	0.124312	0.0171878	1.11192	0.684354	0	0
4.27966	-2.5165	-0.0159861	-0.149641	1.35639	-0.98367	0.208755	-0.336905	-0.137519	0.107657	1.10691	-0.00675396	0	0	-0.290916	0.0409169	-0.335605	0.283669	-0.0974944	0	0	-1.23982	-0.113006	0.0613047	0.874531	-0.321613	-0.0673911	1.09777	0.681972	0	0	0.812763	0.122138	0.0168206	1.1115	0.684189	0	0
4.28965	-2.50784	-0.0144846	-0.14597	1.34765	-0.985139	0.20742	-0.328098	-0.136864	0.108013	1.11397	-0.00317837	0	0	-0.306663	0.0447281	-0.332321	0.291042	-0.0860307	0	0	-1.24963	-0.110948	0.0559085	0.87382	-0.319541	-0.0670175	1.0975	0.681827	0	0	0.81211	0.119964	0.0164534	1.11108	0.684025	0	0
4.29964	-2.50139	-0.0132083	-0.141665	1.33898	-0.986542	0.206142	-0.317086	-0.135119	0.107481	1.11718	0.00301529	0	0	-0.319497	0.0475147	-0.328037	0.299404	-0.0745889	0	0	-1.2573	-0.107996	0.0506035	0.873107	-0.317468	-0.0666439	1.09722	0.681682	0	0	0.811456	0.117789	0.0160861	1.11066	0.683861	0	0
4.30963	-2.49724	-0.0120867	-0.136744	1.33037	-0.987865	0.204943	-0.303772	-0.132596	0.105613	1.11664	0.0110298	0	0	-0.329439	0.0493634	-0.322753	0.308509	-0.0631524	0	0	-1.26283	-0.104278	0.045287	0.872394	-0.315394	-0.0662701	1.09695	0.681538	0	0	0.810801	0.115613	0.0157187	1.11024	0.683696	0	0
4.31961	-2.49527	-0.0110528	-0.131231	1.32181	-0.989094	0.203844	-0.288289	-0.129607	0.102014	1.11243	0.020157	0	0	-0.336734	0.050391	-0.316514	0.318079	-0.0516994	0	0	-1.26627	-0.0999202	0.0398751	0.871679	-0.31332	-0.0658962	1.09668	0.681393	0	0	0.810145	0.113437	0.0153512	1.10982	0.683532	0	0
4.3296	-2.49528	-0.0100321	-0.125154	1.31328	-0.990214	0.202864	-0.270956	-0.126451	0.0963963	1.10459	0.0297925	0	0	-0.341749	0.0507391	-0.309399	0.327866	-0.0402033	0	0	-1.2678	-0.0950499	0.0343005	0.870962	-0.311245	-0.0655221	1.09641	0.681249	0	0	0.809488	0.11126	0.0149836	1.1094	0.683368	0	0
4.33959	-2.49696	-0.00894274	-0.118563	1.30478	-0.991213	0.202018	-0.252201	-0.123393	0.0886031	1.09314	0.0394329	0	0	-0.344896	0.0505695	-0.30151	0.337674	-0.0286327	0	0	-1.2676	-0.0898072	0.0285058	0.870245	-0.309169	-0.0651479	1.09614	0.681104	0	0	0.808829	0.109082	0.0146159	1.10898	0.683203	0	0
4.34958	-2.50001	-0.00769148	-0.111525	1.2963	-0.992081	0.201319	-0.232499	-0.12066	0.078614	1.07811	0.048671	0	0	-0.346589	0.0500605	-0.292956	0.347372	-0.0169522	0	0	-1.26588	-0.0843549	0.0224648	0.869526	-0.307093	-0.0647736	1.09586	0.68096	0	0	0.808169	0.106903	0.0142481	1.10856	0.683039	0	0
4.35957	-2.50412	-0.00618065	-0.10413	1.28782	-0.992807	0.200778	-0.212332	-0.118428	0.0665446	1.05947	0.0571872	0	0	-0.347206	0.0493993	-0.283848	0.356894	-0.00512381	0	0	-1.26284	-0.0788696	0.0161674	0.868806	-0.305016	-0.0643991	1.09559	0.680816	0	0	0.807508	0.104724	0.0138801	1.10814	0.682875	0	0
4.36955	-2.50901	-0.00431147	-0.096493	1.27934	-0.993382	0.200403	-0.192143	-0.11683	0.0526266	1.03726	0.0647387	0	0	-0.347072	0.0487791	-0.274288	0.366215	0.00689112	0	0	-1.25874	-0.0735384	0.00960503	0.868084	-0.302939	-0.0640245	1.09532	0.680672	0	0	0.806846	0.102543	0.0135121	1.10771	0.682711	0	0
4.37954	-2.51445	-0.00197983	-0.0887397	1.27085	-0.993799	0.2002	-0.172318	-0.115961	0.0371823	1.01151	0.0711506	0	0	-0.346455	0.0483986	-0.264351	0.375334	0.0191255	0	0	-1.25379	-0.0685671	0.00278265	0.86736	-0.300861	-0.0636496	1.09504	0.680527	0	0	0.806182	0.100363	0.013144	1.10729	0.682547	0	0
4.38953	-2.52026	0.000907832	-0.0809875	1.26234	-0.994052	0.200174	-0.153094	-0.115895	0.0205034	0.982425	0.0763568	0	0	-0.345561	0.0484298	-0.254101	0.384272	0.0316374	0	0	-1.24804	-0.0641428	-0.00429254	0.866635	-0.298782	-0.0632747	1.09477	0.680383	0	0	0.805516	0.0981807	0.0127757	1.10687	0.682383	0	0
4.39952	-2.52631	0.00444207	-0.0733484	1.25381	-0.994136	0.200328	-0.13465	-0.116678	0.00293589	0.950257	0.080333	0	0	-0.344544	0.0490352	-0.243572	0.393056	0.0444661	0	0	-1.24158	-0.0604345	-0.0116373	0.865909	-0.296703	-0.0628996	1.0945	0.680239	0	0	0.804849	0.0959981	0.0124074	1.10645	0.682219	0	0
4.4095	-2.53249	0.00872094	-0.0659313	1.24525	-0.994049	0.200663	-0.117117	-0.118337	-0.0151181	0.915236	0.0830791	0	0	-0.34351	0.0503787	-0.232763	0.401717	0.0576238	0	0	-1.23461	-0.0576115	-0.0192816	0.86518	-0.294623	-0.0625242	1.09422	0.680095	0	0	0.804181	0.0938145	0.0120389	1.10602	0.682054	0	0
4.41949	-2.53872	0.0138484	-0.0588481	1.23666	-0.993785	0.20118	-0.100601	-0.120894	-0.0331903	0.877565	0.0846088	0	0	-0.342527	0.0526289	-0.221636	0.410289	0.0710873	0	0	-1.22749	-0.0558328	-0.027288	0.86445	-0.292541	-0.0621487	1.09395	0.679951	0	0	0.803511	0.0916298	0.0116702	1.1056	0.68189	0	0
4.42948	-2.54494	0.0199219	-0.0521842	1.22804	-0.993341	0.201878	-0.0851134	-0.124378	-0.0508707	0.837581	0.0849961	0	0	-0.341632	0.0559287	-0.210138	0.418814	0.0848367	0	0	-1.22045	-0.0552358	-0.0357232	0.863717	-0.290459	-0.061773	1.09367	0.679807	0	0	0.802839	0.089444	0.0113014	1.10517	0.681726	0	0
4.43947	-2.55113	0.0270202	-0.0459837	1.21938	-0.992714	0.202755	-0.0705812	-0.128818	-0.0678181	0.795734	0.0843737	0	0	-0.340841	0.0603761	-0.198205	0.427332	0.0988559	0	0	-1.21362	-0.0559136	-0.0446488	0.862983	-0.288376	-0.061397	1.0934	0.679663	0	0	0.802165	0.0872571	0.0109324	1.10475	0.681562	0	0
4.44946	-2.55729	0.0351945	-0.0402479	1.21069	-0.991907	0.203806	-0.0568874	-0.134225	-0.0837324	0.752544	0.0829134	0	0	-0.340153	0.0660167	-0.185773	0.435888	0.113127	0	0	-1.20704	-0.0579058	-0.0541159	0.862247	-0.286293	-0.0610208	1.09312	0.679519	0	0	0.801489	0.0850691	0.0105633	1.10432	0.681398	0	0
4.45944	-2.56343	0.0444598	-0.0349403	1.20196	-0.990922	0.205026	-0.0438965	-0.140586	-0.0983321	0.708562	0.0808118	0	0	-0.339559	0.0728381	-0.17279	0.444536	0.127629	0	0	-1.20073	-0.0611959	-0.0641587	0.861508	-0.284208	-0.0606444	1.09285	0.679375	0	0	0.800811	0.0828799	0.010194	1.1039	0.681234	0	0
4.46943	-2.56957	0.0547889	-0.0299955	1.19319	-0.989764	0.206408	-0.031478	-0.147855	-0.111342	0.664335	0.0782672	0	0	-0.339042	0.0807707	-0.159216	0.453338	0.142339	0	0	-1.19472	-0.0657124	-0.0747876	0.860767	-0.282122	-0.0602678	1.09257	0.679231	0	0	0.800131	0.0806896	0.00982461	1.10347	0.68107	0	0
4.47942	-2.57571	0.0661119	-0.0253253	1.18438	-0.988443	0.207942	-0.0195259	-0.155959	-0.122492	0.620384	0.0754606	0	0	-0.338585	0.0896922	-0.145037	0.462367	0.15723	0	0	-1.18901	-0.0713331	-0.0859851	0.860024	-0.280035	-0.0598909	1.09229	0.679087	0	0	0.799449	0.0784981	0.00945502	1.10304	0.680906	0	0
4.48941	-2.58186	0.0783188	-0.0208232	1.17553	-0.986972	0.209617	-0.00796136	-0.164797	-0.131537	0.577197	0.0725466	0	0	-0.33817	0.099433	-0.130264	0.471698	0.172279	0	0	-1.18361	-0.0778914	-0.0977017	0.859278	-0.277948	-0.0595138	1.09201	0.678943	0	0	0.798765	0.0763054	0.00908527	1.10262	0.680742	0	0
4.4994	-2.58801	0.0912661	-0.016374	1.16664	-0.985364	0.21142	0.00325887	-0.174258	-0.13828	0.53522	0.0696448	0	0	-0.33778	0.109789	-0.114937	0.481404	0.187464	0	0	-1.17854	-0.0851859	-0.109856	0.85853	-0.275859	-0.0591365	1.09174	0.678799	0	0	0.798079	0.0741115	0.00871535	1.10219	0.680578	0	0
4.50938	-2.59416	0.104786	-0.0118648	1.15771	-0.983638	0.213335	0.0141384	-0.184228	-0.142595	0.494848	0.0668336	0	0	-0.337399	0.120539	-0.0991213	0.491559	0.202765	0	0	-1.17381	-0.0929947	-0.122337	0.857779	-0.27377	-0.0587589	1.09146	0.678655	0	0	0.79739	0.0719163	0.00834527	1.10176	0.680415	0	0
4.51937	-2.6003	0.118695	-0.00719706	1.14874	-0.981815	0.215345	0.0246429	-0.194601	-0.144449	0.456421	0.0641503	0	0	-0.337016	0.131457	-0.0829091	0.502232	0.218152	0	0	-1.16945	-0.10109	-0.135009	0.857026	-0.271679	-0.0583811	1.09118	0.678512	0	0	0.796699	0.0697199	0.00797502	1.10133	0.680251	0	0
4.52936	-2.60642	0.132803	-0.00229575	1.13972	-0.979917	0.217433	0.0347052	-0.205276	-0.143923	0.420228	0.0615942	0	0	-0.33662	0.142328	-0.0664174	0.51349	0.233588	0	0	-1.16549	-0.109253	-0.147717	0.85627	-0.269587	-0.058003	1.0909	0.678368	0	0	0.796005	0.0675222	0.0076046	1.1009	0.680087	0	0
4.53935	-2.61247	0.146925	0.00288568	1.13065	-0.977971	0.219581	0.044231	-0.216162	-0.14121	0.386513	0.0591316	0	0	-0.336204	0.152958	-0.0497792	0.525396	0.249024	0	0	-1.16198	-0.117287	-0.160291	0.855511	-0.267495	-0.0576246	1.09062	0.678224	0	0	0.795309	0.0653233	0.00723401	1.10047	0.679923	0	0
4.54934	-2.61844	0.160885	0.00836392	1.12154	-0.976002	0.221767	0.0531098	-0.227169	-0.136606	0.355482	0.0567046	0	0	-0.335762	0.163178	-0.0331336	0.538013	0.264389	0	0	-1.15898	-0.12503	-0.17256	0.854749	-0.265401	-0.057246	1.09034	0.678081	0	0	0.79461	0.063123	0.00686325	1.10004	0.679759	0	0
4.55932	-2.62433	0.174517	0.0141856	1.11236	-0.974039	0.223974	0.0613095	-0.238203	-0.130553	0.327416	0.0542484	0	0	-0.33529	0.172814	-0.0166515	0.551314	0.279643	0	0	-1.15634	-0.132324	-0.184328	0.853984	-0.263306	-0.0568671	1.09006	0.677937	0	0	0.793908	0.0609214	0.00649232	1.09961	0.679595	0	0
4.56931	-2.63023	0.187662	0.0204485	1.10312	-0.972108	0.226181	0.0688802	-0.249154	-0.123626	0.302668	0.0516844	0	0	-0.334785	0.181666	-0.000533658	0.56519	0.29477	0	0	-1.15367	-0.139	-0.195384	0.853216	-0.261211	-0.056488	1.08978	0.677794	0	0	0.793203	0.0587185	0.00612121	1.09918	0.679432	0	0
4.5793	-2.63619	0.200178	0.0272365	1.09381	-0.970236	0.228372	0.0758566	-0.259895	-0.116439	0.281541	0.0488998	0	0	-0.334245	0.189548	0.0150372	0.579554	0.309719	0	0	-1.15063	-0.144912	-0.205563	0.852444	-0.259114	-0.0561086	1.08949	0.67765	0	0	0.792496	0.0565142	0.00574992	1.09874	0.679268	0	0
4.58929	-2.64223	0.211955	0.0345988	1.0844	-0.968449	0.230531	0.0822504	-0.270305	-0.109585	0.264269	0.0457375	0	0	-0.333668	0.196325	0.0299258	0.594358	0.324409	0	0	-1.14695	-0.149961	-0.214747	0.85167	-0.257016	-0.0557289	1.08921	0.677507	0	0	0.791786	0.0543085	0.00537845	1.09831	0.679104	0	0
4.59928	-2.64823	0.222891	0.0423759	1.0749	-0.966766	0.232643	0.0879321	-0.280244	-0.103595	0.250799	0.042033	0	0	-0.333055	0.201978	0.0440643	0.609648	0.338655	0	0	-1.14309	-0.154117	-0.222995	0.850892	-0.254917	-0.0553489	1.08893	0.677363	0	0	0.791072	0.0521014	0.00500681	1.09788	0.67894	0	0
4.60926	-2.65415	0.232938	0.0504414	1.06527	-0.965204	0.234699	0.0928536	-0.289618	-0.0989097	0.241071	0.0375826	0	0	-0.332403	0.206524	0.0574367	0.62539	0.352311	0	0	-1.13928	-0.157407	-0.23034	0.850111	-0.252817	-0.0549686	1.08864	0.67722	0	0	0.790356	0.0498927	0.00463494	1.09744	0.678777	0	0
4.61925	-2.65998	0.242044	0.0587352	1.05551	-0.96377	0.23669	0.0970432	-0.298317	-0.0959381	0.235014	0.0321534	0	0	-0.331711	0.209931	0.0700192	0.641463	0.365237	0	0	-1.13552	-0.159842	-0.236796	0.849326	-0.250715	-0.0545879	1.08836	0.677077	0	0	0.789636	0.0476823	0.00426285	1.097	0.678613	0	0
4.62924	-2.66578	0.250137	0.0672669	1.04558	-0.962462	0.238614	0.100596	-0.306206	-0.0950597	0.23253	0.025493	0	0	-0.33098	0.212105	0.0817513	0.657666	0.377297	0	0	-1.13161	-0.161396	-0.242355	0.848537	-0.248612	-0.0542069	1.08807	0.676933	0	0	0.788913	0.0454703	0.00389054	1.09657	0.678449	0	0
4.63923	-2.67162	0.257128	0.0760755	1.03548	-0.961269	0.240471	0.10362	-0.313119	-0.0965885	0.233451	0.0173497	0	0	-0.330207	0.212904	0.0925391	0.673797	0.388325	0	0	-1.12727	-0.162016	-0.247017	0.847745	-0.246508	-0.0538256	1.08779	0.67679	0	0	0.788186	0.0432565	0.003518	1.09613	0.678286	0	0
4.64921	-2.67754	0.262908	0.0851895	1.02516	-0.960161	0.242267	0.106211	-0.318869	-0.100727	0.237533	0.0075037	0	0	-0.329391	0.212171	0.102269	0.689699	0.398114	0	0	-1.12224	-0.161638	-0.250803	0.846948	-0.244402	-0.0534439	1.0875	0.676647	0	0	0.787456	0.041041	0.00314524	1.09569	0.678122	0	0
4.6592	-2.68351	0.267368	0.0946166	1.01462	-0.959098	0.244014	0.108441	-0.323263	-0.107535	0.244466	-0.00420272	0	0	-0.328532	0.209753	0.110822	0.705277	0.406421	0	0	-1.11631	-0.160188	-0.253732	0.846148	-0.242295	-0.0530619	1.08721	0.676503	0	0	0.786722	0.0388238	0.00277224	1.09525	0.677958	0	0
4.66919	-2.68951	0.270399	0.104378	1.00381	-0.958022	0.24573	0.110373	-0.326111	-0.116921	0.253907	-0.0178237	0	0	-0.327627	0.205494	0.118077	0.720476	0.412978	0	0	-1.10919	-0.157571	-0.255779	0.845344	-0.240186	-0.0526795	1.08692	0.67636	0	0	0.785984	0.0366048	0.00239902	1.09481	0.677794	0	0
4.67918	-2.69554	0.271884	0.114547	0.992727	-0.956861	0.247439	0.112084	-0.327222	-0.128651	0.265535	-0.0332345	0	0	-0.326675	0.199201	0.123894	0.735227	0.417503	0	0	-1.10047	-0.153641	-0.256874	0.844535	-0.238076	-0.0522968	1.08663	0.676217	0	0	0.785242	0.0343839	0.00202556	1.09437	0.677631	0	0
4.68917	-2.70129	0.271709	0.124907	0.981343	-0.955534	0.24917	0.113347	-0.32638	-0.142252	0.278723	-0.0500043	0	0	-0.325677	0.19084	0.12813	0.74979	0.419609	0	0	-1.09087	-0.148281	-0.257185	0.843722	-0.235965	-0.0519136	1.08634	0.676074	0	0	0.784497	0.0321613	0.00165186	1.09393	0.677467	0	0
4.69915	-2.70645	0.269886	0.135188	0.969651	-0.953956	0.250955	0.113902	-0.323516	-0.156917	0.292873	-0.0674063	0	0	-0.324631	0.180552	0.130745	0.764493	0.418965	0	0	-1.08113	-0.141507	-0.256862	0.842904	-0.233852	-0.0515301	1.08605	0.675931	0	0	0.783747	0.0299368	0.00127793	1.09348	0.677303	0	0
4.70914	-2.7107	0.266525	0.145091	0.957651	-0.95205	0.252824	0.113466	-0.318669	-0.171678	0.307458	-0.0844943	0	0	-0.323539	0.168601	0.131768	0.779724	0.415272	0	0	-1.07193	-0.133441	-0.256015	0.842082	-0.231738	-0.0511463	1.08576	0.675788	0	0	0.782993	0.0277105	0.000903759	1.09304	0.67714	0	0
4.71913	-2.7138	0.261781	0.154345	0.94536	-0.949763	0.254802	0.111826	-0.311952	-0.185668	0.32208	-0.100269	0	0	-0.3224	0.155294	0.131259	0.795779	0.408249	0	0	-1.0637	-0.124269	-0.25471	0.841255	-0.229622	-0.050762	1.08546	0.675645	0	0	0.782236	0.0254822	0.000529347	1.09259	0.676976	0	0
4.72912	-2.71557	0.255835	0.162718	0.932818	-0.94709	0.256895	0.10883	-0.303529	-0.198226	0.33642	-0.113817	0	0	-0.321219	0.140953	0.129307	0.812862	0.39763	0	0	-1.05676	-0.114222	-0.252995	0.840424	-0.227505	-0.0503773	1.08517	0.675502	0	0	0.781473	0.0232521	0.000154691	1.09215	0.676812	0	0
4.73911	-2.7159	0.248865	0.170058	0.920104	-0.944098	0.259086	0.104347	-0.293575	-0.209015	0.350205	-0.124404	0	0	-0.319998	0.125852	0.126034	0.831089	0.383141	0	0	-1.05131	-0.10351	-0.250905	0.839587	-0.225387	-0.0499923	1.08487	0.675359	0	0	0.780706	0.02102	-0.00022021	1.0917	0.676649	0	0
4.74909	-2.71472	0.241031	0.176298	0.907342	-0.940966	0.261319	0.0982677	-0.282264	-0.218011	0.363209	-0.131525	0	0	-0.318745	0.110203	0.121578	0.850498	0.364515	0	0	-1.04744	-0.0923118	-0.248457	0.838746	-0.223266	-0.0496068	1.08458	0.675216	0	0	0.779935	0.018786	-0.000595358	1.09125	0.676485	0	0
4.75908	-2.712	0.232482	0.181438	0.89472	-0.938019	0.263486	0.0905108	-0.269767	-0.22541	0.375264	-0.134913	0	0	-0.317467	0.094161	0.116089	0.871045	0.341528	0	0	-1.04519	-0.0807842	-0.245657	0.837899	-0.221145	-0.049221	1.08428	0.675073	0	0	0.779159	0.01655	-0.000970755	1.0908	0.676321	0	0
4.76907	-2.70776	0.223354	0.185529	0.882508	-0.935773	0.265406	0.0810305	-0.256257	-0.231525	0.386263	-0.134537	0	0	-0.316174	0.0778442	0.109724	0.892615	0.314052	0	0	-1.04451	-0.0690686	-0.242494	0.837048	-0.219021	-0.0488347	1.08398	0.67493	0	0	0.778378	0.014312	-0.0013464	1.09035	0.676158	0	0
4.77906	-2.70195	0.213855	0.18862	0.871068	-0.934976	0.266816	0.0696834	-0.241951	-0.236606	0.396033	-0.130618	0	0	-0.314876	0.0614265	0.102671	0.91521	0.282122	0	0	-1.04559	-0.0573634	-0.238994	0.83619	-0.216897	-0.048448	1.08368	0.674788	0	0	0.777593	0.0120719	-0.00172231	1.08989	0.675994	0	0
4.78905	-2.69456	0.204203	0.190772	0.860871	-0.936644	0.267346	0.0563841	-0.227095	-0.240888	0.404472	-0.123562	0	0	-0.313587	0.0451051	0.0951558	0.938766	0.245995	0	0	-1.04858	-0.0458807	-0.235169	0.835328	-0.21477	-0.0480609	1.08338	0.674645	0	0	0.776802	0.00982984	-0.00209846	1.08944	0.67583	0	0
4.79903	-2.6856	0.194601	0.192055	0.852503	-0.942081	0.266513	0.0411148	-0.211939	-0.244591	0.41155	-0.113911	0	0	-0.312318	0.029085	0.0874128	0.963158	0.20619	0	0	-1.05354	-0.0348187	-0.231024	0.83446	-0.212642	-0.0476733	1.08308	0.674502	0	0	0.776007	0.00758569	-0.00247488	1.08899	0.675667	0	0
4.80902	-2.67528	0.185205	0.192499	0.844233	-0.9473	0.265713	0.0238944	-0.196718	-0.247896	0.417335	-0.102272	0	0	-0.311115	0.0135675	0.0796477	0.988196	0.163529	0	0	-1.0605	-0.0243084	-0.226551	0.833588	-0.210515	-0.0472856	1.08277	0.674359	0	0	0.775207	0.00534158	-0.00285129	1.08853	0.675503	0	0
4.81901	-2.66372	0.176119	0.192152	0.836041	-0.952304	0.264948	0.00487868	-0.181639	-0.250944	0.42196	-0.089246	0	0	-0.309983	-0.00127012	0.0719974	1.01358	0.119161	0	0	-1.06932	-0.0144657	-0.221726	0.832711	-0.208389	-0.0468978	1.08247	0.674217	0	0	0.774404	0.0030977	-0.00322765	1.08807	0.675339	0	0
4.829	-2.65108	0.167369	0.191042	0.8279	-0.957085	0.264216	-0.0156637	-0.166863	-0.253835	0.425645	-0.0753758	0	0	-0.308921	-0.0152848	0.0645167	1.03891	0.0745281	0	0	-1.0797	-0.00535577	-0.216501	0.83183	-0.206263	-0.0465099	1.08216	0.674074	0	0	0.773597	0.000854237	-0.00360393	1.08761	0.675176	0	0
4.83899	-2.63761	0.158897	0.18918	0.819776	-0.961634	0.263501	-0.0373293	-0.152508	-0.256645	0.428708	-0.0611166	0	0	-0.307915	-0.0283704	0.0571987	1.06362	0.03128	0	0	-1.09114	0.00300954	-0.210802	0.830945	-0.204138	-0.0461219	1.08185	0.673931	0	0	0.772785	-0.00138871	-0.00398011	1.08715	0.675012	0	0
4.84897	-2.6235	0.150698	0.186503	0.811661	-0.965947	0.262801	-0.0598449	-0.13872	-0.259313	0.431323	-0.0468533	0	0	-0.306937	-0.0403515	0.0499772	1.08734	-0.00879521	0	0	-1.10349	0.0105601	-0.204592	0.830055	-0.202015	-0.0457339	1.08154	0.673788	0	0	0.77197	-0.00363104	-0.00435615	1.08669	0.674848	0	0
4.85896	-2.60894	0.142757	0.182927	0.803551	-0.970018	0.262112	-0.0828937	-0.125652	-0.261712	0.433663	-0.0328853	0	0	-0.305939	-0.0510291	0.0427901	1.10966	-0.0439439	0	0	-1.11655	0.0172081	-0.197833	0.829159	-0.199893	-0.045346	1.08123	0.673645	0	0	0.771151	-0.00587268	-0.00473204	1.08622	0.674684	0	0
4.86895	-2.5941	0.135103	0.178347	0.79546	-0.973845	0.261437	-0.106234	-0.11348	-0.26365	0.435812	-0.0194324	0	0	-0.304843	-0.0601751	0.0355618	1.13028	-0.07266	0	0	-1.13034	0.022829	-0.190515	0.828259	-0.197773	-0.044958	1.08092	0.673502	0	0	0.770327	-0.00811357	-0.00510776	1.08576	0.674521	0	0
4.87894	-2.57922	0.127732	0.172692	0.787397	-0.977423	0.26078	-0.129539	-0.102346	-0.264957	0.437911	-0.006628	0	0	-0.30354	-0.067616	0.0282278	1.14884	-0.0939326	0	0	-1.14472	0.0273289	-0.182631	0.827354	-0.195654	-0.04457	1.0806	0.67336	0	0	0.769498	-0.0103536	-0.00548328	1.08529	0.674357	0	0
4.88893	-2.56462	0.120599	0.165964	0.779346	-0.980748	0.260146	-0.152382	-0.092341	-0.265526	0.440171	0.00547539	0	0	-0.301887	-0.0732883	0.0207256	1.16493	-0.107431	0	0	-1.15937	0.0306774	-0.17418	0.826443	-0.193537	-0.0441821	1.08028	0.673217	0	0	0.768666	-0.0125926	-0.00585856	1.08482	0.674193	0	0
4.89891	-2.55068	0.113614	0.158248	0.771281	-0.983799	0.259532	-0.174244	-0.083484	-0.265319	0.442872	0.0168932	0	0	-0.299696	-0.0772677	0.0129884	1.17806	-0.113472	0	0	-1.17372	0.0329171	-0.165175	0.825526	-0.191421	-0.0437943	1.07996	0.673074	0	0	0.767828	-0.0148305	-0.00623357	1.08435	0.674029	0	0
4.9089	-2.5378	0.106702	0.149697	0.763177	-0.986558	0.25894	-0.194614	-0.0757544	-0.264346	0.446275	0.0276843	0	0	-0.296746	-0.0797261	0.00493559	1.18782	-0.112831	0	0	-1.18721	0.0341253	-0.155656	0.824604	-0.189308	-0.0434067	1.07964	0.672931	0	0	0.766986	-0.0170671	-0.00660828	1.08388	0.673866	0	0
4.91889	-2.5264	0.0998096	0.140524	0.75501	-0.989	0.25837	-0.212997	-0.0690967	-0.262649	0.450607	0.0379321	0	0	-0.29278	-0.0809097	-0.00352819	1.19385	-0.106497	0	0	-1.1992	0.034401	-0.145687	0.823676	-0.187197	-0.0430192	1.07931	0.672788	0	0	0.766139	-0.0193022	-0.00698265	1.0834	0.673702	0	0
4.92888	-2.51682	0.092927	0.130947	0.746777	-0.991117	0.257822	-0.229016	-0.0634419	-0.260291	0.455978	0.0477336	0	0	-0.287524	-0.0810749	-0.0125043	1.19598	-0.0955477	0	0	-1.2093	0.0338516	-0.13536	0.82274	-0.185089	-0.0426319	1.07898	0.672645	0	0	0.765287	-0.0215357	-0.00735666	1.08293	0.673538	0	0
4.93886	-2.50933	0.086082	0.12118	0.738487	-0.99292	0.257297	-0.242422	-0.0587067	-0.257352	0.462371	0.0571892	0	0	-0.28071	-0.0804774	-0.0220942	1.19417	-0.0810521	0	0	-1.21725	0.0325892	-0.124786	0.821798	-0.182983	-0.0422449	1.07865	0.672502	0	0	0.764429	-0.0237677	-0.00773029	1.08245	0.673374	0	0
4.94885	-2.5041	0.0793298	0.111438	0.730153	-0.994433	0.256795	-0.253129	-0.0547846	-0.253911	0.469644	0.0663988	0	0	-0.27211	-0.0793735	-0.0323922	1.1885	-0.0640243	0	0	-1.22296	0.0307355	-0.114071	0.820848	-0.180879	-0.041858	1.07832	0.672359	0	0	0.763564	-0.0259978	-0.00810351	1.08197	0.673211	0	0
4.95884	-2.50118	0.0727391	0.101921	0.721786	-0.995687	0.256316	-0.261253	-0.0515425	-0.250039	0.477526	0.0754608	0	0	-0.261591	-0.0780063	-0.0434687	1.17916	-0.0454044	0	0	-1.22645	0.0284282	-0.103313	0.819891	-0.178778	-0.0414714	1.07798	0.672215	0	0	0.762694	-0.028226	-0.00847627	1.08148	0.673047	0	0
4.96883	-2.50048	0.0663703	0.0927964	0.713395	-0.996715	0.255857	-0.267079	-0.0488283	-0.245791	0.485715	0.0844709	0	0	-0.249184	-0.0766049	-0.055378	1.16636	-0.0260073	0	0	-1.2278	0.0258126	-0.0925834	0.818926	-0.17668	-0.041085	1.07764	0.672072	0	0	0.761818	-0.0304522	-0.00884857	1.081	0.672883	0	0
4.97882	-2.50178	0.0602477	0.0841786	0.704978	-0.99755	0.255409	-0.270971	-0.0464814	-0.241205	0.493969	0.0935216	0	0	-0.235097	-0.0753659	-0.0681467	1.15027	-0.00650806	0	0	-1.22713	0.0230388	-0.0819267	0.817953	-0.174585	-0.0406988	1.07729	0.671929	0	0	0.760936	-0.0326764	-0.00922038	1.08051	0.67272	0	0
4.9888	-2.50483	0.0543569	0.0761305	0.696536	-0.99822	0.254963	-0.273318	-0.0443401	-0.236294	0.502111	0.102703	0	0	-0.219644	-0.0744464	-0.0817664	1.13105	0.0125566	0	0	-1.22463	0.0202561	-0.0713553	0.816972	-0.172493	-0.040313	1.07695	0.671786	0	0	0.760047	-0.0348987	-0.00959171	1.08002	0.672556	0	0
4.99879	-2.50934	0.0486459	0.0686736	0.688066	-0.998756	0.254509	-0.274495	-0.0422459	-0.231045	0.51003	0.112099	0	0	-0.20319	-0.0739619	-0.0961802	1.10885	0.0307752	0	0	-1.22047	0.0176094	-0.0608508	0.815982	-0.170404	-0.0399273	1.0766	0.671642	0	0	0.759153	-0.037119	-0.00996259	1.07952	0.672392	0	0
5.00878	-2.515	0.0430288	0.0617978	0.679568	-0.999186	0.254036	-0.274834	-0.040045	-0.225419	0.51768	0.121787	0	0	-0.186121	-0.0739879	-0.111265	1.08378	0.0478367	0	0	-1.2149	0.0152418	-0.0503682	0.814985	-0.168317	-0.0395419	1.07624	0.671499	0	0	0.758252	-0.0393377	-0.0103331	1.07903	0.672228	0	0
5.01877	-2.52154	0.0373903	0.0554703	0.671046	-0.999529	0.253537	-0.274617	-0.0375882	-0.219358	0.525073	0.131827	0	0	-0.16882	-0.074563	-0.126816	1.05594	0.0635042	0	0	-1.20822	0.0132955	-0.0398442	0.813981	-0.166232	-0.0391565	1.07589	0.671355	0	0	0.757345	-0.0415547	-0.0107032	1.07853	0.672065	0	0
5.02876	-2.52868	0.0315912	0.049644	0.66251	-0.999807	0.253004	-0.274067	-0.0347298	-0.212798	0.532274	0.142261	0	0	-0.151669	-0.0756923	-0.142531	1.02535	0.0775904	0	0	-1.20082	0.0119153	-0.0292063	0.812968	-0.16415	-0.0387714	1.07553	0.671212	0	0	0.756432	-0.0437702	-0.0110729	1.07803	0.671901	0	0
5.03874	-2.53618	0.0254792	0.0442704	0.653978	-1.00005	0.252432	-0.273356	-0.0313272	-0.20568	0.53939	0.153108	0	0	-0.135036	-0.0773565	-0.158009	0.992021	0.0899395	0	0	-1.19319	0.01125	-0.0183821	0.811948	-0.162071	-0.0383864	1.07516	0.671068	0	0	0.755513	-0.0459839	-0.0114422	1.07753	0.671737	0	0
5.04873	-2.54385	0.0189237	0.0393092	0.64546	-1.00027	0.251814	-0.272605	-0.0272689	-0.197969	0.546535	0.164379	0	0	-0.119177	-0.0795404	-0.172878	0.956049	0.100487	0	0	-1.18567	0.0114183	-0.00730602	0.810921	-0.159995	-0.0380017	1.0748	0.670924	0	0	0.754588	-0.0481959	-0.0118111	1.07702	0.671573	0	0
5.05872	-2.55157	0.0118229	0.0347288	0.636961	-1.00048	0.251147	-0.271898	-0.0224752	-0.189655	0.55381	0.176078	0	0	-0.104239	-0.0822359	-0.186801	0.917661	0.109248	0	0	-1.17848	0.0125064	0.00407355	0.809887	-0.157921	-0.0376171	1.07443	0.670781	0	0	0.753658	-0.0504062	-0.0121796	1.07651	0.671409	0	0
5.06871	-2.55926	0.00410323	0.0305086	0.628479	-1.00068	0.25043	-0.271284	-0.0168942	-0.180753	0.561296	0.188194	0	0	-0.0902684	-0.0854444	-0.199484	0.877175	0.116295	0	0	-1.17173	0.014572	0.0157914	0.808846	-0.15585	-0.0372328	1.07406	0.670637	0	0	0.752723	-0.0526145	-0.0125477	1.076	0.671246	0	0
5.0787	-2.56686	-0.00427987	0.0266363	0.620009	-1.00085	0.249664	-0.270788	-0.0105004	-0.171304	0.569041	0.200706	0	0	-0.0772334	-0.0891764	-0.210681	0.834981	0.121744	0	0	-1.16548	0.0176464	0.0278629	0.807797	-0.153782	-0.0368488	1.07369	0.670493	0	0	0.751782	-0.0548208	-0.0129153	1.07549	0.671082	0	0
5.08868	-2.57438	-0.0133416	0.0231034	0.611543	-1.001	0.248852	-0.270415	-0.00329593	-0.161366	0.577074	0.213583	0	0	-0.0650429	-0.0934458	-0.220202	0.791522	0.125734	0	0	-1.15972	0.0217353	0.040284	0.806742	-0.151717	-0.0364651	1.07331	0.670349	0	0	0.750836	-0.057025	-0.0132824	1.07497	0.670918	0	0
5.09867	-2.58182	-0.0230677	0.0199014	0.603069	-1.0011	0.248001	-0.270158	0.00468939	-0.151012	0.585404	0.226784	0	0	-0.0535694	-0.0982628	-0.227905	0.747271	0.128421	0	0	-1.15444	0.02682	0.0530322	0.805679	-0.149655	-0.0360819	1.07293	0.670205	0	0	0.749885	-0.0592268	-0.0136489	1.07446	0.670754	0	0
5.10866	-2.58918	-0.0334134	0.0170164	0.594574	-1.00115	0.247117	-0.269999	0.0133944	-0.140325	0.594028	0.240267	0	0	-0.042664	-0.103627	-0.233718	0.702724	0.129968	0	0	-1.14959	0.0328539	0.0660683	0.804609	-0.147597	-0.0356991	1.07255	0.670061	0	0	0.74893	-0.0614261	-0.0140148	1.07394	0.67059	0	0
5.11865	-2.59649	-0.0443032	0.0144238	0.586045	-1.00113	0.246206	-0.269918	0.022724	-0.129396	0.602935	0.253994	0	0	-0.0321727	-0.10952	-0.237636	0.65838	0.130546	0	0	-1.1451	0.0397582	0.0793387	0.803532	-0.145543	-0.035317	1.07216	0.669917	0	0	0.74797	-0.0636227	-0.01438	1.07342	0.670426	0	0
5.12864	-2.60376	-0.0556322	0.0120842	0.577471	-1.00103	0.24527	-0.269891	0.032549	-0.118318	0.612113	0.267929	0	0	-0.021954	-0.115896	-0.239717	0.614719	0.130326	0	0	-1.1409	0.0474219	0.0927769	0.802448	-0.143492	-0.0349354	1.07177	0.669773	0	0	0.747006	-0.0658167	-0.0147445	1.0729	0.670262	0	0
5.13862	-2.61101	-0.067273	0.00994243	0.568839	-1.00084	0.244314	-0.269894	0.0427111	-0.107186	0.62155	0.282032	0	0	-0.0118909	-0.122684	-0.240078	0.572191	0.129471	0	0	-1.13694	0.0557036	0.106306	0.801356	-0.141445	-0.0345544	1.07138	0.669628	0	0	0.746038	-0.0680081	-0.0151083	1.07237	0.670098	0	0
5.14861	-2.61824	-0.0790836	0.0079294	0.560137	-1.00055	0.243341	-0.269906	0.0530326	-0.0960908	0.631231	0.29626	0	0	-0.00189815	-0.129797	-0.238893	0.531196	0.12813	0	0	-1.13316	0.0644401	0.119843	0.800257	-0.139401	-0.0341739	1.07099	0.669484	0	0	0.745066	-0.0701973	-0.0154715	1.07185	0.669935	0	0
5.1586	-2.62543	-0.0909175	0.00596682	0.551358	-1.00017	0.242351	-0.269904	0.063327	-0.0851175	0.641136	0.310553	0	0	0.00807657	-0.137138	-0.236383	0.492087	0.126431	0	0	-1.12953	0.0734529	0.133299	0.799151	-0.13736	-0.0337939	1.0706	0.66934	0	0	0.744091	-0.0723845	-0.0158341	1.07133	0.669771	0	0
5.16859	-2.63258	-0.102634	0.00398011	0.542493	-0.999677	0.241344	-0.269868	0.0734133	-0.0743455	0.651244	0.324849	0	0	0.0180469	-0.144616	-0.232831	0.455156	0.124462	0	0	-1.12605	0.0825606	0.146589	0.798038	-0.135322	-0.0334143	1.0702	0.669195	0	0	0.743112	-0.0745698	-0.0161961	1.0708	0.669607	0	0
5.17857	-2.63964	-0.114106	0.00190282	0.533528	-0.999087	0.240318	-0.269777	0.083128	-0.0638456	0.661538	0.339074	0	0	0.0279885	-0.152159	-0.228591	0.420643	0.122263	0	0	-1.12274	0.0915941	0.15963	0.796918	-0.133286	-0.0330351	1.0698	0.669051	0	0	0.742129	-0.0767535	-0.0165576	1.07027	0.669443	0	0
5.18856	-2.6466	-0.125224	-0.000323991	0.524452	-0.998393	0.239275	-0.269621	0.0923318	-0.0536786	0.672002	0.353155	0	0	0.03785	-0.159716	-0.224097	0.388757	0.119821	0	0	-1.11966	0.100405	0.172342	0.795792	-0.131253	-0.0326562	1.0694	0.668906	0	0	0.741142	-0.0789357	-0.0169186	1.06974	0.66928	0	0
5.19855	-2.65344	-0.135903	-0.00274914	0.515258	-0.99759	0.238216	-0.26939	0.100914	-0.0438888	0.682626	0.367016	0	0	0.0475569	-0.167256	-0.219839	0.359686	0.117079	0	0	-1.11683	0.108873	0.184654	0.79466	-0.129223	-0.0322775	1.069	0.668762	0	0	0.740152	-0.0811166	-0.0172793	1.06922	0.669116	0	0
5.20854	-2.66015	-0.146083	-0.00541107	0.505942	-0.996668	0.237143	-0.269079	0.108791	-0.0345007	0.69341	0.380577	0	0	0.0570167	-0.174761	-0.216324	0.333605	0.113946	0	0	-1.11431	0.116904	0.196503	0.793522	-0.127194	-0.031899	1.0686	0.668617	0	0	0.739157	-0.0832965	-0.0176396	1.06869	0.668952	0	0
5.21853	-2.66669	-0.155723	-0.00833785	0.496504	-0.995606	0.236058	-0.268684	0.115909	-0.0255199	0.704368	0.393756	0	0	0.0661231	-0.182217	-0.214027	0.310676	0.110313	0	0	-1.11213	0.124432	0.207836	0.792378	-0.125166	-0.0315207	1.06819	0.668473	0	0	0.738159	-0.0854757	-0.0179998	1.06816	0.668788	0	0
5.22851	-2.67305	-0.164799	-0.0115481	0.486945	-0.994384	0.234962	-0.268204	0.12223	-0.0169401	0.715528	0.406465	0	0	0.0747576	-0.189597	-0.213342	0.291025	0.106076	0	0	-1.1103	0.131412	0.218609	0.791229	-0.12314	-0.0311425	1.06779	0.668328	0	0	0.737157	-0.0876542	-0.0183597	1.06763	0.668624	0	0
5.2385	-2.67919	-0.173286	-0.0150548	0.47726	-0.992977	0.233854	-0.267637	0.127722	-0.00875783	0.726929	0.418608	0	0	0.0827833	-0.196848	-0.214521	0.274713	0.101146	0	0	-1.10878	0.137808	0.228774	0.790074	-0.121116	-0.0307643	1.06738	0.668183	0	0	0.736151	-0.0898321	-0.0187194	1.0671	0.66846	0	0
5.24849	-2.68516	-0.181125	-0.0189186	0.467429	-0.991349	0.232736	-0.266984	0.132303	-0.000983295	0.738505	0.430094	0	0	0.0901334	-0.203865	-0.217671	0.261778	0.0954389	0	0	-1.10727	0.143542	0.238243	0.788914	-0.119094	-0.0303863	1.06698	0.668038	0	0	0.735141	-0.0920095	-0.0190789	1.06656	0.668297	0	0
5.25848	-2.69109	-0.1882	-0.0232721	0.457407	-0.989445	0.231612	-0.266244	0.13581	0.0063502	0.75007	0.440831	0	0	0.0968127	-0.210471	-0.22277	0.252203	0.0888535	0	0	-1.10511	0.148466	0.246881	0.787748	-0.117072	-0.0300083	1.06657	0.667894	0	0	0.734128	-0.0941866	-0.0194382	1.06603	0.668133	0	0
5.26847	-2.69705	-0.194368	-0.0282066	0.447176	-0.987234	0.230489	-0.26542	0.13807	0.0131748	0.761492	0.450686	0	0	0.102753	-0.216434	-0.229659	0.245757	0.0812639	0	0	-1.10192	0.152414	0.254588	0.786577	-0.115052	-0.0296304	1.06616	0.667749	0	0	0.73311	-0.0963632	-0.0197974	1.0655	0.667969	0	0
5.27845	-2.70306	-0.199487	-0.033752	0.436738	-0.984689	0.229373	-0.264512	0.138935	0.0193995	0.772711	0.4595	0	0	0.107857	-0.221514	-0.23808	0.242075	0.0724961	0	0	-1.09746	0.155246	0.261288	0.7854	-0.113034	-0.0292526	1.06575	0.667604	0	0	0.732089	-0.0985394	-0.0201564	1.06496	0.667805	0	0
5.28844	-2.7091	-0.203416	-0.0398872	0.426109	-0.981793	0.228272	-0.263524	0.138283	0.024919	0.783721	0.467089	0	0	0.112037	-0.225468	-0.247747	0.240723	0.062323	0	0	-1.09165	0.156846	0.266909	0.784217	-0.111017	-0.0288749	1.06534	0.667459	0	0	0.731064	-0.100715	-0.0205153	1.06443	0.667641	0	0
5.29843	-2.7151	-0.206018	-0.0465404	0.415319	-0.978535	0.227193	-0.262458	0.136017	0.0296193	0.79458	0.473229	0	0	0.11523	-0.228055	-0.258399	0.241227	0.0505042	0	0	-1.08452	0.157124	0.271383	0.783029	-0.109002	-0.0284973	1.06493	0.667314	0	0	0.730035	-0.10289	-0.0208739	1.06389	0.667477	0	0
5.30842	-2.72095	-0.207168	-0.0535851	0.404415	-0.974919	0.226145	-0.261316	0.132078	0.0333855	0.805417	0.477667	0	0	0.117382	-0.229057	-0.269803	0.243104	0.0368587	0	0	-1.07626	0.156018	0.274655	0.781834	-0.106989	-0.0281198	1.06452	0.667169	0	0	0.729001	-0.105064	-0.0212323	1.06336	0.667313	0	0
5.31841	-2.72643	-0.206774	-0.0608199	0.393462	-0.970967	0.225139	-0.260101	0.126471	0.0361094	0.816461	0.480116	0	0	0.118422	-0.228291	-0.281691	0.245862	0.0213586	0	0	-1.0673	0.153514	0.276705	0.780634	-0.104978	-0.0277426	1.0641	0.667024	0	0	0.727964	-0.107237	-0.0215905	1.06282	0.667149	0	0
5.32839	-2.73141	-0.204768	-0.0680566	0.382515	-0.966697	0.224187	-0.258818	0.119224	0.0377199	0.827879	0.480267	0	0	0.118345	-0.225631	-0.293721	0.249115	0.00422097	0	0	-1.05793	0.149619	0.27749	0.779428	-0.102969	-0.0273657	1.06368	0.666879	0	0	0.726924	-0.109408	-0.0219482	1.06229	0.666985	0	0
5.33838	-2.73572	-0.20112	-0.0751136	0.371625	-0.962141	0.223306	-0.257477	0.110403	0.0381851	0.839833	0.477784	0	0	0.117151	-0.221011	-0.305433	0.252584	-0.0140184	0	0	-1.0484	0.144366	0.276977	0.778215	-0.100964	-0.0269893	1.06327	0.666734	0	0	0.72588	-0.111578	-0.0223055	1.06175	0.666821	0	0
5.34837	-2.73922	-0.195879	-0.0818009	0.360836	-0.957342	0.222515	-0.256086	0.100139	0.0375246	0.852508	0.472334	0	0	0.114812	-0.21446	-0.31629	0.256096	-0.0325266	0	0	-1.03899	0.13784	0.27517	0.776995	-0.0989616	-0.0266133	1.06285	0.666589	0	0	0.724833	-0.113745	-0.0226622	1.06121	0.666657	0	0
5.35836	-2.74174	-0.189173	-0.0879248	0.35019	-0.952361	0.221824	-0.254657	0.0886492	0.0358213	0.866117	0.463615	0	0	0.111263	-0.206111	-0.325808	0.259567	-0.0503346	0	0	-1.03001	0.130196	0.272125	0.775769	-0.0969628	-0.0262379	1.06243	0.666444	0	0	0.723783	-0.11591	-0.0230184	1.06068	0.666493	0	0
5.36835	-2.7431	-0.181212	-0.0932994	0.339728	-0.947278	0.221231	-0.253204	0.0762223	0.0332215	0.880915	0.451374	0	0	0.106391	-0.196196	-0.333638	0.262948	-0.0665153	0	0	-1.02191	0.12165	0.267946	0.774537	-0.0949674	-0.025863	1.06201	0.666298	0	0	0.72273	-0.118073	-0.023374	1.06014	0.666329	0	0
5.37833	-2.74317	-0.172215	-0.0978031	0.329465	-0.942172	0.220725	-0.251745	0.0631379	0.0299359	0.897024	0.435419	0	0	0.100132	-0.184978	-0.339625	0.26625	-0.0803155	0	0	-1.01498	0.112413	0.262747	0.773298	-0.0929754	-0.0254886	1.06159	0.666153	0	0	0.721675	-0.120233	-0.0237291	1.0596	0.666166	0	0
5.38832	-2.74193	-0.162387	-0.101389	0.319402	-0.937114	0.220295	-0.2503	0.0496332	0.0262043	0.914432	0.415637	0	0	0.0924583	-0.172722	-0.343827	0.269512	-0.0912398	0	0	-1.00933	0.102666	0.256647	0.772054	-0.0909867	-0.0251148	1.06116	0.666008	0	0	0.720618	-0.122391	-0.0240838	1.05907	0.666002	0	0
5.39831	-2.73927	-0.151988	-0.104033	0.309548	-0.932183	0.219925	-0.248887	0.0359616	0.0222389	0.933197	0.392073	0	0	0.0832382	-0.159717	-0.346417	0.272688	-0.0990738	0	0	-1.00531	0.0926286	0.249813	0.770804	-0.0890013	-0.0247414	1.06074	0.665862	0	0	0.719559	-0.124547	-0.024438	1.05853	0.665838	0	0
5.4083	-2.73511	-0.141287	-0.105753	0.299909	-0.927454	0.219598	-0.247523	0.0223651	0.0182473	0.953297	0.364962	0	0	0.072346	-0.146259	-0.347637	0.275715	-0.103837	0	0	-1.00319	0.0825343	0.24242	0.769549	-0.0870187	-0.0243685	1.06031	0.665716	0	0	0.718498	-0.126701	-0.024792	1.05799	0.665674	0	0
5.41829	-2.72942	-0.130534	-0.106617	0.290485	-0.922995	0.219293	-0.246222	0.0090456	0.0144247	0.974599	0.334742	0	0	0.0597022	-0.132615	-0.347779	0.27854	-0.105716	0	0	-1.00314	0.0725943	0.234636	0.768288	-0.0850388	-0.0239958	1.05989	0.665571	0	0	0.717435	-0.128854	-0.0251456	1.05745	0.66551	0	0
5.42827	-2.72219	-0.11997	-0.106727	0.281273	-0.918874	0.218989	-0.244992	-0.00383014	0.0109213	0.996918	0.302092	0	0	0.0452447	-0.119027	-0.347145	0.281115	-0.105012	0	0	-1.00529	0.0630081	0.226623	0.767023	-0.0830612	-0.0236234	1.05946	0.665425	0	0	0.716369	-0.131005	-0.0254991	1.05691	0.665346	0	0
5.43826	-2.7134	-0.109825	-0.106203	0.272275	-0.915155	0.218661	-0.243832	-0.0161225	0.00781834	1.02003	0.267948	0	0	0.0289417	-0.105715	-0.346007	0.283415	-0.102087	0	0	-1.00978	0.0539703	0.218538	0.765754	-0.0810858	-0.0232511	1.05903	0.665279	0	0	0.715301	-0.133155	-0.0258525	1.05637	0.665182	0	0
5.44825	-2.7031	-0.100298	-0.105153	0.263488	-0.911891	0.218288	-0.242728	-0.0277159	0.00512025	1.04366	0.233478	0	0	0.0108267	-0.0928718	-0.344591	0.285462	-0.0973297	0	0	-1.01665	0.0456653	0.210515	0.76448	-0.0791123	-0.0228789	1.05859	0.665133	0	0	0.714229	-0.135303	-0.0262058	1.05583	0.665017	0	0
5.45824	-2.69135	-0.0915525	-0.10366	0.254911	-0.90913	0.217852	-0.241649	-0.0385079	0.00276414	1.06745	0.200011	0	0	-0.00898798	-0.0806663	-0.343061	0.287317	-0.0911296	0	0	-1.0259	0.0382659	0.202657	0.763201	-0.0771403	-0.0225068	1.05816	0.664987	0	0	0.713154	-0.137452	-0.0265589	1.05529	0.664853	0	0
5.46822	-2.6783	-0.0837016	-0.101774	0.246537	-0.906902	0.21734	-0.240538	-0.0483971	0.000656177	1.09099	0.168918	0	0	-0.0302976	-0.0692399	-0.341511	0.289082	-0.0838566	0	0	-1.03739	0.0319277	0.195026	0.761919	-0.0751699	-0.0221347	1.05773	0.66484	0	0	0.712076	-0.139599	-0.0269121	1.05475	0.664689	0	0
5.47821	-2.66417	-0.0768069	-0.0995085	0.238355	-0.905224	0.216744	-0.239312	-0.057276	-0.00128025	1.1138	0.141436	0	0	-0.0527944	-0.0587078	-0.339961	0.2909	-0.0758381	0	0	-1.05088	0.0267766	0.187647	0.760632	-0.0732007	-0.0217626	1.05729	0.664694	0	0	0.710995	-0.141746	-0.0272652	1.05421	0.664525	0	0
5.4882	-2.64928	-0.0708706	-0.0968595	0.230345	-0.904097	0.216064	-0.237851	-0.0650371	-0.00307024	1.13534	0.118489	0	0	-0.076057	-0.0491546	-0.338359	0.292964	-0.0673349	0	0	-1.06594	0.0228914	0.180504	0.759341	-0.0712327	-0.0213906	1.05686	0.664548	0	0	0.70991	-0.143893	-0.0276182	1.05366	0.66436	0	0
5.49819	-2.63401	-0.0658297	-0.0938178	0.222473	-0.903506	0.215311	-0.235994	-0.0715932	-0.00468082	1.15503	0.100546	0	0	-0.0995465	-0.0406256	-0.336598	0.295525	-0.0585346	0	0	-1.08199	0.0202811	0.173558	0.758046	-0.0692657	-0.0210186	1.05642	0.664402	0	0	0.708822	-0.14604	-0.0279713	1.05312	0.664196	0	0
5.50818	-2.61886	-0.0615509	-0.0903879	0.214695	-0.90342	0.214501	-0.233541	-0.0769081	-0.00604352	1.17226	0.087611	0	0	-0.122611	-0.0331167	-0.334537	0.298886	-0.0495565	0	0	-1.09824	0.0188689	0.166746	0.756748	-0.0672998	-0.0206466	1.05598	0.664255	0	0	0.70773	-0.148186	-0.0283242	1.05257	0.664032	0	0
5.51816	-2.60434	-0.0578806	-0.0865881	0.206971	-0.903801	0.213655	-0.230248	-0.0809932	-0.00712156	1.18649	0.0793293	0	0	-0.144596	-0.0265973	-0.332023	0.303319	-0.0404639	0	0	-1.1139	0.0185283	0.159998	0.755444	-0.0653349	-0.0202746	1.05554	0.664109	0	0	0.706634	-0.150332	-0.0286772	1.05202	0.663867	0	0
5.52815	-2.59086	-0.0546811	-0.0824103	0.199283	-0.904622	0.212792	-0.225835	-0.083875	-0.00796923	1.19739	0.0751323	0	0	-0.164958	-0.0210373	-0.328919	0.308962	-0.0312699	0	0	-1.12854	0.0191204	0.153253	0.754137	-0.0633711	-0.0199027	1.0551	0.663962	0	0	0.705535	-0.152477	-0.02903	1.05148	0.663703	0	0
5.53814	-2.57887	-0.0518073	-0.0778642	0.191613	-0.905847	0.211933	-0.220007	-0.0856566	-0.00874493	1.20472	0.0743662	0	0	-0.183183	-0.0163792	-0.325086	0.315912	-0.0219777	0	0	-1.14166	0.0204846	0.146455	0.752826	-0.0614084	-0.0195309	1.05466	0.663816	0	0	0.704432	-0.154622	-0.0293828	1.05093	0.663538	0	0
5.54813	-2.5687	-0.0491247	-0.0729559	0.183954	-0.907445	0.211098	-0.212474	-0.0864934	-0.00970677	1.20838	0.076345	0	0	-0.198882	-0.0125452	-0.320417	0.324154	-0.0125771	0	0	-1.15298	0.0224489	0.139565	0.75151	-0.0594468	-0.0191591	1.05421	0.663669	0	0	0.703325	-0.156766	-0.0297354	1.05038	0.663373	0	0
5.55812	-2.56061	-0.0465235	-0.0677003	0.176308	-0.909388	0.210304	-0.202995	-0.0865861	-0.0111839	1.20841	0.0804037	0	0	-0.211827	-0.00943927	-0.314844	0.333565	-0.00305146	0	0	-1.16233	0.0248468	0.132549	0.750191	-0.0574864	-0.0187875	1.05377	0.663522	0	0	0.702214	-0.15891	-0.030088	1.04982	0.663209	0	0
5.5681	-2.55471	-0.0439232	-0.0621303	0.168673	-0.911654	0.209564	-0.191434	-0.086169	-0.0135406	1.20491	0.0859323	0	0	-0.221996	-0.00694576	-0.308345	0.343904	0.00661778	0	0	-1.16969	0.0275236	0.125373	0.748867	-0.0555273	-0.0184159	1.05332	0.663375	0	0	0.701099	-0.161053	-0.0304403	1.04927	0.663044	0	0
5.57809	-2.55097	-0.0412675	-0.0562956	0.161041	-0.914221	0.208885	-0.177839	-0.0854934	-0.0171381	1.19803	0.0924045	0	0	-0.229601	-0.00493033	-0.300944	0.354855	0.0164497	0	0	-1.17511	0.0303398	0.118012	0.747539	-0.0535695	-0.0180445	1.05288	0.663228	0	0	0.69998	-0.163195	-0.0307926	1.04872	0.662879	0	0
5.58808	-2.5492	-0.0385006	-0.0502411	0.153394	-0.917069	0.208267	-0.162454	-0.0848002	-0.0222818	1.18786	0.0993822	0	0	-0.234984	-0.00324748	-0.292691	0.366133	0.0264638	0	0	-1.17871	0.0331711	0.110449	0.746207	-0.051613	-0.0176731	1.05243	0.663082	0	0	0.698858	-0.165337	-0.0311448	1.04816	0.662714	0	0
5.59807	-2.54916	-0.0355666	-0.0440134	0.145715	-0.920178	0.207708	-0.145635	-0.0843094	-0.0292011	1.17447	0.106501	0	0	-0.238541	-0.00174592	-0.283663	0.377504	0.036681	0	0	-1.18062	0.0359053	0.102679	0.744871	-0.0496579	-0.0173018	1.05198	0.662934	0	0	0.697732	-0.167477	-0.0314968	1.0476	0.66255	0	0
5.60806	-2.5506	-0.0324076	-0.0376658	0.137981	-0.923525	0.207203	-0.127787	-0.0842124	-0.0380314	1.1579	0.113455	0	0	-0.240674	-0.000271171	-0.273946	0.388794	0.0471231	0	0	-1.181	0.0384366	0.0947034	0.743532	-0.047704	-0.0169305	1.05153	0.662787	0	0	0.696603	-0.169617	-0.0318489	1.04705	0.662385	0	0
5.61804	-2.55325	-0.0289606	-0.0312566	0.130174	-0.927087	0.206744	-0.109328	-0.0846659	-0.048803	1.1382	0.11999	0	0	-0.241755	0.00133187	-0.263635	0.399895	0.0578114	0	0	-1.17997	0.0406617	0.0865281	0.742189	-0.0457512	-0.0165593	1.05108	0.66264	0	0	0.69547	-0.171755	-0.0322009	1.04649	0.66222	0	0
5.62803	-2.55686	-0.02516	-0.0248534	0.122281	-0.93084	0.206325	-0.0906393	-0.085792	-0.0614404	1.11544	0.125897	0	0	-0.242107	0.0032176	-0.25282	0.410749	0.0687634	0	0	-1.17766	0.042476	0.078155	0.740842	-0.0437998	-0.016188	1.05062	0.662493	0	0	0.694334	-0.173893	-0.0325528	1.04593	0.662054	0	0
5.63802	-2.56124	-0.0209393	-0.0185336	0.114287	-0.934765	0.205946	-0.0720402	-0.0876763	-0.0757631	1.08972	0.131008	0	0	-0.241996	0.00553609	-0.241583	0.421324	0.079991	0	0	-1.17417	0.0437746	0.0695728	0.739492	-0.0418498	-0.0158168	1.05017	0.662345	0	0	0.693195	-0.17603	-0.0329048	1.04537	0.661889	0	0
5.64801	-2.56622	-0.0162279	-0.0123763	0.106183	-0.93884	0.205601	-0.0537788	-0.0903705	-0.0914941	1.0612	0.13519	0	0	-0.24163	0.00843029	-0.229989	0.431608	0.0914992	0	0	-1.16963	0.0444442	0.0607662	0.738139	-0.0399013	-0.0154457	1.04971	0.662198	0	0	0.692053	-0.178166	-0.0332566	1.04481	0.661724	0	0
5.658	-2.57169	-0.0109552	-0.00645742	0.0979656	-0.943038	0.20529	-0.0360364	-0.0938927	-0.108271	1.03005	0.138342	0	0	-0.241163	0.012031	-0.218085	0.441605	0.103285	0	0	-1.16416	0.0443683	0.0517195	0.736782	-0.0379544	-0.0150746	1.04926	0.66205	0	0	0.690909	-0.1803	-0.0336082	1.04424	0.661559	0	0
5.66798	-2.57753	-0.00505263	-0.000846307	0.0896376	-0.947346	0.20501	-0.0189397	-0.0982327	-0.12565	0.996478	0.140397	0	0	-0.240703	0.016455	-0.205892	0.451331	0.115336	0	0	-1.15795	0.0434299	0.0424172	0.735423	-0.0360092	-0.0147038	1.0488	0.661903	0	0	0.689762	-0.182433	-0.0339597	1.04368	0.661393	0	0
5.67797	-2.58367	0.0015406	0.00439741	0.0812086	-0.951757	0.204759	-0.00257597	-0.103359	-0.143129	0.960679	0.141323	0	0	-0.240318	0.0218019	-0.193405	0.460823	0.127634	0	0	-1.15125	0.041517	0.0328448	0.734062	-0.0340655	-0.014333	1.04834	0.661755	0	0	0.688612	-0.184565	-0.034311	1.04312	0.661228	0	0
5.68796	-2.59001	0.00887645	0.00922457	0.0726973	-0.956272	0.204519	0.0129775	-0.10922	-0.160128	0.92282	0.141114	0	0	-0.240043	0.0281568	-0.180591	0.470132	0.140142	0	0	-1.14448	0.0385244	0.022988	0.732698	-0.032123	-0.0139625	1.04789	0.661607	0	0	0.687461	-0.186696	-0.0346622	1.04255	0.661063	0	0
5.69795	-2.59648	0.0169773	0.0136153	0.0641183	-0.960866	0.204287	0.0277126	-0.115764	-0.176139	0.883174	0.139838	0	0	-0.239891	0.0355586	-0.167415	0.47933	0.15284	0	0	-1.13791	0.0343856	0.0128434	0.731332	-0.0301817	-0.013592	1.04743	0.661459	0	0	0.686308	-0.188826	-0.0350131	1.04199	0.660897	0	0
5.70793	-2.60302	0.0258304	0.0175901	0.0554847	-0.965523	0.204067	0.0416694	-0.122933	-0.190735	0.842095	0.137626	0	0	-0.239856	0.0439875	-0.153846	0.488503	0.16572	0	0	-1.13172	0.0290894	0.00241815	0.729963	-0.0282415	-0.0132216	1.04697	0.661311	0	0	0.685154	-0.190955	-0.0353638	1.04142	0.660732	0	0
5.71792	-2.60956	0.0353974	0.0212084	0.0467989	-0.970219	0.20385	0.0549226	-0.130657	-0.203586	0.800004	0.134652	0	0	-0.239918	0.0533616	-0.139867	0.497745	0.17878	0	0	-1.12602	0.0226849	-0.0082711	0.728594	-0.0263022	-0.0128513	1.04651	0.661163	0	0	0.683997	-0.193083	-0.0357144	1.04085	0.660566	0	0
5.72791	-2.61606	0.0456283	0.0245568	0.038067	-0.974926	0.203628	0.067564	-0.138852	-0.214444	0.757365	0.131118	0	0	-0.240051	0.0635428	-0.125478	0.507141	0.192016	0	0	-1.12084	0.0152817	-0.019199	0.727222	-0.0243638	-0.012481	1.04605	0.661015	0	0	0.682838	-0.19521	-0.0360648	1.04029	0.660401	0	0
5.7379	-2.62249	0.0564485	0.0277445	0.0292914	-0.979608	0.203408	0.0796834	-0.14743	-0.223118	0.714662	0.127233	0	0	-0.240228	0.074352	-0.110696	0.516767	0.205423	0	0	-1.11615	0.00704018	-0.0303335	0.725849	-0.0224267	-0.0121107	1.04559	0.660867	0	0	0.681677	-0.197335	-0.0364151	1.03972	0.660235	0	0
5.74789	-2.62882	0.0677571	0.0308996	0.0204674	-0.984232	0.203196	0.0913601	-0.1563	-0.229461	0.672386	0.123195	0	0	-0.240424	0.0855835	-0.0955606	0.526687	0.218985	0	0	-1.1119	-0.00184762	-0.0416351	0.724474	-0.0204916	-0.0117405	1.04512	0.660719	0	0	0.680514	-0.199458	-0.0367651	1.03915	0.660069	0	0
5.75787	-2.63505	0.0794424	0.0341572	0.011583	-0.988773	0.202967	0.102658	-0.165371	-0.233361	0.631008	0.119184	0	0	-0.240614	0.0970166	-0.0801254	0.536945	0.232668	0	0	-1.108	-0.0111744	-0.0530541	0.723097	-0.0185588	-0.0113704	1.04466	0.66057	0	0	0.679347	-0.201579	-0.0371149	1.03858	0.659904	0	0
5.76786	-2.64119	0.0913736	0.0376447	0.00263048	-0.993211	0.202712	0.113614	-0.174567	-0.234745	0.590966	0.115339	0	0	-0.240777	0.108436	-0.0644575	0.547564	0.246426	0	0	-1.10436	-0.0207295	-0.0645322	0.72172	-0.0166285	-0.0110004	1.0442	0.660422	0	0	0.678178	-0.203697	-0.0374645	1.03801	0.659738	0	0
5.77785	-2.64724	0.103415	0.041473	-0.00639955	-0.997518	0.202436	0.124238	-0.183827	-0.233598	0.552654	0.111754	0	0	-0.240897	0.119644	-0.0486331	0.558547	0.260194	0	0	-1.10087	-0.0303152	-0.0760005	0.720341	-0.0147011	-0.0106306	1.04374	0.660274	0	0	0.677005	-0.205812	-0.0378135	1.03745	0.659572	0	0
5.78784	-2.65325	0.115435	0.0457295	-0.015528	-1.00167	0.202142	0.134514	-0.193102	-0.229973	0.516411	0.108471	0	0	-0.240964	0.130466	-0.0327303	0.569883	0.27389	0	0	-1.09741	-0.0397583	-0.0873788	0.71896	-0.0127768	-0.0102612	1.04328	0.660125	0	0	0.67583	-0.207925	-0.0381621	1.03688	0.659406	0	0
5.79783	-2.65936	0.127337	0.0504475	-0.0242149	-0.999486	0.204177	0.144378	-0.202331	-0.224005	0.482527	0.105478	0	0	-0.240995	0.140735	-0.0168217	0.581564	0.287423	0	0	-1.0939	-0.0489209	-0.0985756	0.717578	-0.0108533	-0.00989196	1.04282	0.659977	0	0	0.674654	-0.210036	-0.0385105	1.03631	0.659241	0	0
5.80781	-2.66563	0.138993	0.0557101	-0.032641	-0.993403	0.207703	0.153855	-0.211466	-0.215989	0.451339	0.102727	0	0	-0.240983	0.150292	-0.00101264	0.593495	0.300746	0	0	-1.08999	-0.0576618	-0.109459	0.716195	-0.00893057	-0.00952276	1.04236	0.659828	0	0	0.673476	-0.212146	-0.0388587	1.03574	0.659075	0	0
5.8178	-2.67206	0.15027	0.0614568	-0.0409547	-0.985271	0.212057	0.162844	-0.220431	-0.206272	0.422955	0.100113	0	0	-0.240927	0.159057	0.0146144	0.605646	0.313733	0	0	-1.08589	-0.065871	-0.119968	0.714811	-0.00700849	-0.00915364	1.04189	0.659679	0	0	0.672298	-0.214256	-0.0392069	1.03517	0.658909	0	0
5.82779	-2.67867	0.161063	0.0676355	-0.0492723	-0.976453	0.216743	0.171309	-0.229172	-0.195294	0.397533	0.0974822	0	0	-0.240822	0.166976	0.0299793	0.617938	0.326315	0	0	-1.0816	-0.0734829	-0.130011	0.713426	-0.00508708	-0.0087846	1.04143	0.659531	0	0	0.671119	-0.216365	-0.0395549	1.0346	0.658743	0	0
5.83778	-2.68542	0.171286	0.0741493	-0.0576806	-0.967891	0.221408	0.179174	-0.237626	-0.183538	0.375167	0.0946349	0	0	-0.240669	0.174034	0.0450242	0.630352	0.338403	0	0	-1.07724	-0.0804688	-0.139518	0.71204	-0.00316633	-0.00841563	1.04097	0.659382	0	0	0.669938	-0.218474	-0.0399028	1.03403	0.658577	0	0
5.84777	-2.69232	0.180878	0.080929	-0.066241	-0.960183	0.225822	0.186422	-0.245743	-0.171543	0.35598	0.0913551	0	0	-0.240467	0.180225	0.0596945	0.642834	0.349949	0	0	-1.07281	-0.0868201	-0.148406	0.710653	-0.00124622	-0.00804675	1.04051	0.659233	0	0	0.668757	-0.220582	-0.0402506	1.03346	0.658411	0	0
5.85775	-2.69939	0.189788	0.0879458	-0.0749936	-0.953658	0.229849	0.193079	-0.253465	-0.159892	0.340104	0.0874231	0	0	-0.240215	0.185523	0.0739265	0.6553	0.360926	0	0	-1.06817	-0.0925233	-0.156591	0.709265	0.000673252	-0.00767794	1.04004	0.659084	0	0	0.667575	-0.22269	-0.0405983	1.03289	0.658244	0	0
5.86774	-2.7066	0.197977	0.0951353	-0.0839616	-0.948447	0.233427	0.199111	-0.260722	-0.149131	0.327565	0.0826202	0	0	-0.239916	0.189926	0.0876755	0.667757	0.371271	0	0	-1.06338	-0.0975828	-0.164049	0.707876	0.0025921	-0.00730921	1.03958	0.658935	0	0	0.666392	-0.224796	-0.0409458	1.03232	0.658078	0	0
5.87773	-2.71392	0.205416	0.102474	-0.0931549	-0.944545	0.236542	0.204511	-0.26744	-0.13976	0.318347	0.0767244	0	0	-0.239568	0.193405	0.100885	0.68019	0.380936	0	0	-1.05836	-0.101997	-0.170755	0.706486	0.00451032	-0.00694057	1.03911	0.658786	0	0	0.665208	-0.226903	-0.0412933	1.03175	0.657912	0	0
5.88772	-2.72135	0.212063	0.109987	-0.102573	-0.941858	0.239218	0.209286	-0.273515	-0.132227	0.312365	0.0695057	0	0	-0.239173	0.19588	0.113468	0.692562	0.389873	0	0	-1.05296	-0.105727	-0.176685	0.705096	0.00642794	-0.00657199	1.03865	0.658637	0	0	0.664024	-0.229008	-0.0416406	1.03117	0.657746	0	0
5.89771	-2.72883	0.217865	0.117682	-0.112207	-0.940244	0.241495	0.213394	-0.278817	-0.126875	0.309422	0.0607216	0	0	-0.238731	0.197254	0.125327	0.704915	0.397988	0	0	-1.04715	-0.108712	-0.18185	0.703704	0.00834496	-0.0062035	1.03818	0.658488	0	0	0.662839	-0.231113	-0.0419879	1.0306	0.657579	0	0
5.90769	-2.73623	0.222759	0.125527	-0.122043	-0.939539	0.243423	0.216754	-0.283195	-0.123906	0.309224	0.050132	0	0	-0.238243	0.197432	0.136371	0.717372	0.405139	0	0	-1.04105	-0.110887	-0.186289	0.702312	0.0102614	-0.00583509	1.03772	0.658339	0	0	0.661653	-0.233218	-0.042335	1.03003	0.657413	0	0
5.91768	-2.74347	0.226652	0.133527	-0.13206	-0.93958	0.245056	0.219339	-0.286475	-0.123434	0.31147	0.0375375	0	0	-0.237708	0.196262	0.14647	0.729999	0.411165	0	0	-1.03467	-0.112138	-0.190002	0.70092	0.0121772	-0.00546675	1.03725	0.658189	0	0	0.660466	-0.235322	-0.042682	1.02946	0.657246	0	0
5.92767	-2.75046	0.229405	0.141741	-0.142235	-0.940217	0.246443	0.221176	-0.288436	-0.125508	0.315867	0.0228353	0	0	-0.237128	0.193509	0.155432	0.742794	0.415864	0	0	-1.02787	-0.112276	-0.192948	0.699527	0.0140925	-0.00509849	1.03679	0.65804	0	0	0.659279	-0.237425	-0.0430289	1.02889	0.65708	0	0
5.93766	-2.75707	0.230856	0.150181	-0.15254	-0.941317	0.247627	0.22222	-0.288835	-0.130034	0.322068	0.0060925	0	0	-0.236502	0.188933	0.163052	0.755869	0.418955	0	0	-1.02073	-0.111078	-0.195116	0.698133	0.0160072	-0.00473031	1.03632	0.657891	0	0	0.658092	-0.239528	-0.0433758	1.02832	0.656913	0	0
5.94764	-2.76307	0.230854	0.158821	-0.162945	-0.942769	0.248646	0.222357	-0.287436	-0.136727	0.329686	-0.012359	0	0	-0.235832	0.182332	0.169142	0.769424	0.420089	0	0	-1.01349	-0.108319	-0.19651	0.696739	0.0179214	-0.0043622	1.03586	0.657741	0	0	0.656904	-0.24163	-0.0437225	1.02774	0.656747	0	0
5.95763	-2.76823	0.2293	0.16757	-0.173417	-0.944485	0.249529	0.221449	-0.284072	-0.145067	0.338364	-0.0318343	0	0	-0.235117	0.1736	0.173544	0.78369	0.418906	0	0	-1.00643	-0.103847	-0.197137	0.695344	0.019835	-0.00399418	1.03539	0.657592	0	0	0.655716	-0.243732	-0.0440691	1.02717	0.65658	0	0
5.96762	-2.7723	0.226168	0.176253	-0.183924	-0.946395	0.250298	0.219333	-0.278668	-0.154355	0.347798	-0.0513131	0	0	-0.23436	0.162765	0.176158	0.798949	0.415042	0	0	-0.999929	-0.0976112	-0.197026	0.693949	0.0217481	-0.00362623	1.03492	0.657442	0	0	0.654527	-0.245833	-0.0444157	1.0266	0.656413	0	0
5.97761	-2.77499	0.221526	0.184612	-0.194433	-0.948445	0.250973	0.21582	-0.271266	-0.163843	0.357726	-0.0696268	0	0	-0.233563	0.150018	0.176964	0.815525	0.408147	0	0	-0.994476	-0.0896925	-0.196226	0.692554	0.0236607	-0.00325835	1.03446	0.657293	0	0	0.653338	-0.247934	-0.0447621	1.02602	0.656247	0	0
5.9876	-2.77611	0.21549	0.192394	-0.204909	-0.950594	0.251567	0.210803	-0.261987	-0.172947	0.367967	-0.0856458	0	0	-0.232729	0.135619	0.176013	0.833615	0.397908	0	0	-0.990397	-0.0802486	-0.194763	0.691158	0.0255727	-0.00289056	1.03399	0.657143	0	0	0.652148	-0.250034	-0.0451085	1.02545	0.65608	0	0
5.99758	-2.77554	0.208203	0.199374	-0.215324	-0.952813	0.252091	0.204229	-0.251008	-0.181292	0.378356	-0.098432	0	0	-0.231861	0.119862	0.173416	0.853291	0.38406	0	0	-0.987878	-0.0694865	-0.192643	0.689762	0.0274843	-0.00252284	1.03353	0.656993	0	0	0.650958	-0.252134	-0.0454547	1.02488	0.655913	0	0
6.00757	-2.77324	0.199833	0.205364	-0.225647	-0.95508	0.252555	0.196082	-0.238542	-0.188667	0.388726	-0.107337	0	0	-0.230965	0.103063	0.169344	0.874495	0.366416	0	0	-0.986974	-0.0576588	-0.189859	0.688365	0.0293955	-0.00215516	1.03306	0.656844	0	0	0.649768	-0.254233	-0.0458009	1.02431	0.655746	0	0
6.01756	-2.76927	0.190538	0.210267	-0.235852	-0.957376	0.252969	0.186376	-0.224795	-0.195049	0.398907	-0.112057	0	0	-0.230047	0.0854878	0.164011	0.897046	0.344877	0	0	-0.987603	-0.0449973	-0.186382	0.686968	0.0313064	-0.00178752	1.03259	0.656694	0	0	0.648578	-0.256332	-0.0461471	1.02373	0.655579	0	0
6.02755	-2.76371	0.180454	0.214082	-0.245917	-0.959688	0.253341	0.175164	-0.209958	-0.200573	0.408752	-0.112631	0	0	-0.229115	0.0673379	0.157655	0.920635	0.319478	0	0	-0.98954	-0.0316987	-0.182176	0.685571	0.0332171	-0.00141992	1.03212	0.656544	0	0	0.647387	-0.25843	-0.0464932	1.02316	0.655412	0	0
6.03754	-2.75667	0.169766	0.216855	-0.255821	-0.962005	0.253681	0.162433	-0.194244	-0.205428	0.418058	-0.109396	0	0	-0.228179	0.0488231	0.150541	0.944993	0.290454	0	0	-0.992683	-0.0179809	-0.177246	0.684174	0.0351274	-0.00105237	1.03166	0.656394	0	0	0.646196	-0.260529	-0.0468392	1.02259	0.655245	0	0
6.04752	-2.74822	0.158718	0.218654	-0.265546	-0.964318	0.253999	0.148115	-0.177916	-0.209789	0.426579	-0.102912	0	0	-0.227247	0.0301964	0.142952	0.969894	0.258307	0	0	-0.997065	-0.00410844	-0.171636	0.682776	0.0370375	-0.000684846	1.03119	0.656244	0	0	0.645005	-0.262627	-0.0471852	1.02201	0.655078	0	0
6.05751	-2.73832	0.147664	0.219479	-0.275078	-0.966618	0.254303	0.131971	-0.16131	-0.213703	0.433939	-0.0938699	0	0	-0.22633	0.0118327	0.135153	0.995324	0.223857	0	0	-1.00319	0.00955723	-0.165483	0.681378	0.0389473	-0.000317367	1.03072	0.656094	0	0	0.643813	-0.264725	-0.0475312	1.02144	0.654911	0	0
6.0675	-2.72701	0.136925	0.21935	-0.284408	-0.968897	0.254602	0.11391	-0.144767	-0.2172	0.43991	-0.0829734	0	0	-0.225435	-0.00590121	0.127393	1.02111	0.188205	0	0	-1.01136	0.0226654	-0.158896	0.67998	0.0408568	5.00742e-05	1.03025	0.655944	0	0	0.642621	-0.266822	-0.0478771	1.02086	0.654744	0	0
6.07749	-2.71443	0.126738	0.21831	-0.293531	-0.971149	0.2549	0.0940097	-0.128581	-0.220322	0.444453	-0.0708603	0	0	-0.224568	-0.0226995	0.119856	1.04691	0.152653	0	0	-1.02161	0.0349381	-0.151957	0.678582	0.0427661	0.000417476	1.02979	0.655794	0	0	0.641429	-0.26892	-0.0482229	1.02029	0.654576	0	0
6.08748	-2.70079	0.117229	0.216408	-0.302445	-0.973366	0.255199	0.0725301	-0.112986	-0.223124	0.447721	-0.0580654	0	0	-0.223728	-0.0383268	0.112657	1.07224	0.11862	0	0	-1.03376	0.0461903	-0.144717	0.677183	0.0446751	0.000784839	1.02932	0.655643	0	0	0.640237	-0.271017	-0.0485688	1.01972	0.654409	0	0
6.09746	-2.68634	0.108466	0.213676	-0.311156	-0.975542	0.255496	0.0498062	-0.0981797	-0.225602	0.449949	-0.0450214	0	0	-0.222907	-0.0525767	0.105858	1.09657	0.0875142	0	0	-1.0475	0.0562874	-0.137222	0.675784	0.0465838	0.00115216	1.02885	0.655493	0	0	0.639045	-0.273114	-0.0489145	1.01914	0.654242	0	0
6.10745	-2.67135	0.100453	0.210127	-0.319671	-0.977669	0.255786	0.0262511	-0.0843221	-0.22771	0.451445	-0.0320582	0	0	-0.222085	-0.0652728	0.0994872	1.11931	0.0605657	0	0	-1.06244	0.0651419	-0.129505	0.674385	0.0484923	0.00151945	1.02838	0.655343	0	0	0.637852	-0.27521	-0.0492602	1.01857	0.654074	0	0
6.11744	-2.65614	0.0931283	0.205769	-0.328004	-0.979742	0.25606	0.0023527	-0.0715265	-0.229376	0.452567	-0.0194124	0	0	-0.221226	-0.0762907	0.0935498	1.13987	0.0386529	0	0	-1.07807	0.0727207	-0.121581	0.672986	0.0504005	0.00188669	1.02791	0.655193	0	0	0.63666	-0.277306	-0.0496059	1.01799	0.653907	0	0
6.12743	-2.64099	0.086418	0.200584	-0.336167	-0.981751	0.256306	-0.0214569	-0.0598827	-0.230493	0.453597	-0.00724914	0	0	-0.220272	-0.0855442	0.087994	1.15773	0.0221858	0	0	-1.09402	0.0790092	-0.113475	0.671587	0.0523085	0.0022539	1.02745	0.655042	0	0	0.635467	-0.279402	-0.0499515	1.01742	0.653739	0	0
6.13742	-2.62615	0.0802463	0.194549	-0.344177	-0.983688	0.25651	-0.0447919	-0.0494569	-0.230922	0.454751	0.00432606	0	0	-0.219144	-0.0930001	0.0827054	1.17247	0.0111021	0	0	-1.11002	0.0840055	-0.105216	0.670188	0.0542163	0.00262107	1.02698	0.654892	0	0	0.634274	-0.281498	-0.0502971	1.01684	0.653572	0	0
6.1474	-2.61194	0.0744738	0.187682	-0.35205	-0.985545	0.256658	-0.067178	-0.0402522	-0.230565	0.456304	0.0152692	0	0	-0.217731	-0.0987318	0.0775424	1.18367	0.00499212	0	0	-1.12558	0.0877713	-0.0968073	0.668789	0.0561238	0.00298821	1.02651	0.654741	0	0	0.633082	-0.283593	-0.0506427	1.01627	0.653404	0	0
6.15739	-2.59867	0.0689534	0.180042	-0.359804	-0.987312	0.256734	-0.0881579	-0.0322312	-0.22936	0.458511	0.0255804	0	0	-0.215895	-0.102894	0.072327	1.19097	0.00322444	0	0	-1.14019	0.0904028	-0.0882548	0.66739	0.0580311	0.0033553	1.02604	0.654591	0	0	0.631889	-0.285689	-0.0509882	1.0157	0.653237	0	0
6.16738	-2.58667	0.063539	0.171738	-0.367454	-0.988977	0.256726	-0.107292	-0.0253173	-0.227284	0.461605	0.0352886	0	0	-0.213465	-0.105715	0.0668627	1.19412	0.00507323	0	0	-1.15329	0.0920246	-0.0795588	0.665991	0.0599382	0.00372236	1.02557	0.654441	0	0	0.630696	-0.287784	-0.0513337	1.01512	0.653069	0	0
6.17737	-2.57618	0.0581139	0.16289	-0.375015	-0.990532	0.256619	-0.124244	-0.0194141	-0.224355	0.465713	0.0444446	0	0	-0.210246	-0.107446	0.0609446	1.19303	0.00978576	0	0	-1.16456	0.0927763	-0.0707283	0.664592	0.0618451	0.00408938	1.0251	0.65429	0	0	0.629503	-0.289879	-0.0516791	1.01455	0.652902	0	0
6.18736	-2.56741	0.0525936	0.153631	-0.382499	-0.991964	0.256403	-0.138786	-0.0144086	-0.220628	0.470861	0.0531128	0	0	-0.206026	-0.108351	0.0543798	1.18777	0.0166397	0	0	-1.1739	0.0928057	-0.0617742	0.663192	0.0637518	0.00445636	1.02464	0.654139	0	0	0.628311	-0.291973	-0.0520245	1.01397	0.652734	0	0
6.19734	-2.56048	0.0469233	0.144114	-0.389916	-0.993263	0.25607	-0.150801	-0.0101673	-0.216182	0.47698	0.0613669	0	0	-0.200597	-0.108696	0.0470111	1.17851	0.0249671	0	0	-1.18131	0.0922712	-0.0527037	0.661793	0.0656582	0.0048233	1.02417	0.653989	0	0	0.627118	-0.294067	-0.0523699	1.0134	0.652566	0	0
6.20733	-2.55547	0.0410778	0.13451	-0.397274	-0.994418	0.255612	-0.160306	-0.00653624	-0.21111	0.483905	0.0692861	0	0	-0.193776	-0.108734	0.0387408	1.16554	0.0341599	0	0	-1.18689	0.0913414	-0.0435184	0.660394	0.0675647	0.00519025	1.0237	0.653838	0	0	0.625925	-0.296162	-0.0527152	1.01282	0.652399	0	0
6.21732	-2.55234	0.035071	0.125028	-0.404581	-0.99542	0.255024	-0.167495	-0.00333759	-0.205498	0.491376	0.0769526	0	0	-0.185451	-0.108724	0.0295211	1.14926	0.0437056	0	0	-1.19067	0.0901887	-0.034212	0.658995	0.0694712	0.00555719	1.02323	0.653688	0	0	0.624733	-0.298256	-0.0530606	1.01225	0.652231	0	0
6.22731	-2.55097	0.028922	0.115861	-0.411841	-0.996258	0.254303	-0.172677	-0.000385763	-0.199428	0.499126	0.0844488	0	0	-0.175633	-0.108887	0.0193752	1.13009	0.053183	0	0	-1.1927	0.0889869	-0.0247747	0.657596	0.0713776	0.00592413	1.02276	0.653537	0	0	0.62354	-0.30035	-0.0534059	1.01167	0.652063	0	0
6.23729	-2.55115	0.0226323	0.107146	-0.419056	-0.996926	0.253446	-0.17621	0.00249949	-0.192966	0.506934	0.091858	0	0	-0.16447	-0.109397	0.0084052	1.10837	0.0622558	0	0	-1.19312	0.0879047	-0.0151941	0.656197	0.073284	0.00629107	1.02229	0.653386	0	0	0.622347	-0.302445	-0.0537513	1.0111	0.651895	0	0
6.24728	-2.55264	0.0161868	0.0989718	-0.426227	-0.997419	0.252453	-0.178453	0.00547981	-0.186161	0.514644	0.0992635	0	0	-0.152201	-0.110375	-0.00323554	1.08439	0.0706804	0	0	-1.19207	0.0870931	-0.0054544	0.654798	0.0751905	0.00665802	1.02182	0.653235	0	0	0.621154	-0.304539	-0.0540966	1.01053	0.651727	0	0
6.25727	-2.55519	0.00955589	0.0913839	-0.433356	-0.997735	0.251324	-0.179741	0.00869397	-0.179035	0.522159	0.106745	0	0	-0.139101	-0.111896	-0.015354	1.05841	0.0782949	0	0	-1.18973	0.0866808	0.00446269	0.653399	0.0770969	0.00702496	1.02136	0.653084	0	0	0.619961	-0.306633	-0.054442	1.00995	0.651559	0	0
6.26726	-2.55855	0.00269985	0.0843932	-0.440442	-0.997877	0.250063	-0.180361	0.0122578	-0.171594	0.529429	0.114374	0	0	-0.125456	-0.114001	-0.0277258	1.03062	0.0849942	0	0	-1.18628	0.0867727	0.0145762	0.651999	0.0790033	0.0073919	1.02089	0.652934	0	0	0.618768	-0.308727	-0.0547873	1.00938	0.651392	0	0
6.27725	-2.5625	-0.00442863	0.0779892	-0.447482	-0.997852	0.248673	-0.180551	0.0162676	-0.163835	0.536437	0.122206	0	0	-0.111544	-0.1167	-0.0400997	1.00117	0.0907016	0	0	-1.182	0.0874541	0.0249036	0.6506	0.0809097	0.00775884	1.02042	0.652783	0	0	0.617575	-0.310822	-0.0551327	1.0088	0.651224	0	0
6.28723	-2.56683	-0.0118817	0.07215	-0.454475	-0.997667	0.247161	-0.180493	0.0208054	-0.155752	0.543195	0.130277	0	0	-0.0976336	-0.119981	-0.0521989	0.970129	0.0953521	0	0	-1.17722	0.0887974	0.0354575	0.649201	0.0828162	0.00812578	1.01995	0.652632	0	0	0.616382	-0.312916	-0.055478	1.00823	0.651056	0	0
6.29722	-2.57138	-0.0197166	0.0668508	-0.461419	-0.997336	0.245535	-0.180323	0.0259464	-0.147344	0.549733	0.138593	0	0	-0.0839882	-0.123818	-0.0637182	0.937476	0.0988827	0	0	-1.17243	0.090867	0.0462435	0.647801	0.0847226	0.00849272	1.01948	0.652481	0	0	0.61519	-0.31501	-0.0558234	1.00765	0.650888	0	0
6.30721	-2.57598	-0.0279645	0.0620611	-0.468315	-0.996873	0.243806	-0.180132	0.0317254	-0.138631	0.556102	0.147152	0	0	-0.0707892	-0.128182	-0.0744497	0.903263	0.101287	0	0	-1.16796	0.0936869	0.0572556	0.646402	0.086629	0.00885966	1.01901	0.65233	0	0	0.613997	-0.317104	-0.0561688	1.00708	0.65072	0	0
6.3172	-2.58056	-0.0366268	0.0577365	-0.475164	-0.996298	0.241986	-0.179976	0.0381328	-0.129648	0.562366	0.155935	0	0	-0.0581462	-0.133033	-0.0842875	0.867597	0.102615	0	0	-1.16405	0.0972334	0.0684766	0.645003	0.0885354	0.0092266	1.01854	0.652179	0	0	0.612804	-0.319199	-0.0565141	1.0065	0.650552	0	0
6.32719	-2.58504	-0.045676	0.0538224	-0.481969	-0.995629	0.24009	-0.179884	0.0451205	-0.120445	0.568583	0.164907	0	0	-0.0461016	-0.138317	-0.093221	0.83063	0.102963	0	0	-1.16082	0.101441	0.0798797	0.643603	0.0904418	0.00959354	1.01807	0.652028	0	0	0.611611	-0.321293	-0.0568595	1.00593	0.650384	0	0
6.33717	-2.58939	-0.0550621	0.0502578	-0.488736	-0.994886	0.238133	-0.179861	0.0526134	-0.111075	0.574801	0.174031	0	0	-0.0346368	-0.143972	-0.101317	0.792556	0.102468	0	0	-1.15835	0.106211	0.0914327	0.642204	0.0923482	0.00996048	1.0176	0.651877	0	0	0.610418	-0.323387	-0.0572048	1.00535	0.650216	0	0
6.34716	-2.5936	-0.0647182	0.0469771	-0.495472	-0.99409	0.236131	-0.179901	0.0605163	-0.101588	0.581052	0.18326	0	0	-0.0236829	-0.149922	-0.1087	0.753594	0.101297	0	0	-1.15661	0.111428	0.103101	0.640805	0.0942546	0.0103274	1.01714	0.651726	0	0	0.609225	-0.325481	-0.0575502	1.00478	0.650048	0	0
6.35715	-2.59768	-0.0745693	0.04391	-0.502187	-0.993258	0.234098	-0.179988	0.068722	-0.0920272	0.587351	0.192549	0	0	-0.0131352	-0.156084	-0.115528	0.713972	0.0996359	0	0	-1.15554	0.116963	0.114852	0.639405	0.096161	0.0106944	1.01667	0.651575	0	0	0.608032	-0.327576	-0.0578955	1.0042	0.64988	0	0
6.36714	-2.60167	-0.084539	0.040982	-0.508889	-0.992408	0.23205	-0.180103	0.0771182	-0.0824271	0.593691	0.201858	0	0	-0.00286091	-0.162375	-0.121988	0.673922	0.0976723	0	0	-1.15501	0.122691	0.126654	0.638006	0.0980674	0.0110613	1.0162	0.651424	0	0	0.606839	-0.32967	-0.0582409	1.00363	0.649712	0	0
6.37713	-2.6056	-0.0945591	0.0381187	-0.515586	-0.991551	0.229995	-0.180228	0.0855996	-0.0728132	0.600055	0.211167	0	0	0.0072817	-0.168717	-0.128275	0.633667	0.0955798	0	0	-1.15479	0.1285	0.138481	0.636607	0.0999738	0.0114282	1.01573	0.651274	0	0	0.605646	-0.331764	-0.0585862	1.00305	0.649544	0	0
