Coordinates
version=1
nRows=205
nColumns=38
inDegrees=no

Units are S.I. units (second, meters, Newtons, ...)
If the header above contains a line with 'inDegrees', this indicates whether rotational values are in degrees (yes) or radians (no).

endheader
time	pelvis_tilt_moment	pelvis_list_moment	pelvis_rotation_moment	pelvis_tx_force	pelvis_ty_force	pelvis_tz_force	hip_flexion_r_moment	hip_adduction_r_moment	hip_rotation_r_moment	knee_angle_r_moment	ankle_angle_r_moment	subtalar_angle_r_moment	mtp_angle_r_moment	hip_flexion_l_moment	hip_adduction_l_moment	hip_rotation_l_moment	knee_angle_l_moment	ankle_angle_l_moment	subtalar_angle_l_moment	mtp_angle_l_moment	lumbar_extension_moment	lumbar_bending_moment	lumbar_rotation_moment	arm_flex_r_moment	arm_add_r_moment	arm_rot_r_moment	elbow_flex_r_moment	pro_sup_r_moment	wrist_flex_r_moment	wrist_dev_r_moment	arm_flex_l_moment	arm_add_l_moment	arm_rot_l_moment	elbow_flex_l_moment	pro_sup_l_moment	wrist_flex_l_moment	wrist_dev_l_moment
3.64	0	0	0	0	0	0	0	0	0	0	0	0	0	0	0	0	0	0	0	0	0	0	0	0	0	0	0	0	0	0	0	0	0	0	0	0	0
3.64999	-13.575	20.3084	-3.28604	3.19111	424.087	-15.6443	1.72497	1.58118	-0.576445	-3.63571	-0.808061	0.186221	0.0160465	-14.2455	-10.6465	1.73273	2.70502	-2.32528	-0.0127975	0.0130971	-26.5544	-1.40294	3.5812	3.27005	-0.510098	0.0101914	0.758491	0.0118603	0.0678581	-0.0296001	2.25953	0.769075	0.0333861	0.55374	0.00987798	0.0423649	0.0071756
3.65997	-3.33443	24.7142	-2.28524	6.3374	384.047	-17.0308	5.08484	1.10042	-0.591374	-4.45999	-0.888869	0.203751	0.0204298	-7.98921	-10.4361	1.59033	3.1455	-4.20694	-0.217352	0.0115349	-26.4488	-2.91492	7.2374	3.85586	-0.419476	0.0370711	0.914864	0.0189974	0.0831325	-0.0300507	1.55909	0.679267	0.00566081	0.350907	0.00165989	0.0206084	0.00841973
3.66996	7.51781	28.7418	-1.44278	13.0272	340.91	-19.1256	8.73348	0.893763	-0.688147	-5.38508	-0.988021	0.232577	0.0253453	-2.5443	-10.3164	1.42464	4.26091	-5.9268	-0.588182	0.00903314	-25.0771	-4.42349	9.99736	4.30209	-0.433894	0.0525526	1.03635	0.02388	0.096188	-0.0345039	1.00715	0.679318	-0.010716	0.206521	-0.00366623	0.00562979	0.0126682
3.67995	17.9714	31.8707	-1.04899	25.3177	294.19	-21.4	12.0343	1.10768	-0.871833	-6.29895	-1.09036	0.273218	0.0299329	1.85594	-9.95394	1.18324	6.17337	-7.50902	-1.11783	0.00639978	-22.3389	-5.64455	11.5152	4.54412	-0.535535	0.0556686	1.10825	0.026061	0.105553	-0.0417569	0.667856	0.759105	-0.0142892	0.138275	-0.00550061	-0.000523498	0.0189149
3.68994	28.1549	33.9559	-1.24336	43.9411	243.502	-24.1233	14.6218	1.79131	-1.12937	-7.18176	-1.18421	0.323973	0.0335808	5.58265	-9.15366	0.814489	8.75528	-8.95718	-1.79287	0.00418753	-17.9872	-6.53446	11.8614	4.59084	-0.680737	0.0494931	1.13774	0.0261199	0.11197	-0.0501952	0.532291	0.885045	-0.00742193	0.142849	-0.00422901	0.00208326	0.0258057
3.69992	36.8142	35.0237	-2.31879	60.6194	194.318	-23.9487	17.4191	2.65212	-1.435	-8.15028	-1.21651	0.372324	0.0351948	8.88011	-7.65351	0.317832	11.7904	-10.2619	-2.59261	0.00265213	-15.3729	-6.24664	11.1478	4.41391	-0.806105	0.0378647	1.09754	0.0238738	0.109898	-0.0551334	0.579437	0.994982	0.00385873	0.182107	-0.00162712	0.00740186	0.0298492
3.70991	43.8251	35.0239	-4.07298	73.8097	147.653	-21.2343	20.4437	3.5734	-1.75792	-9.22977	-1.16336	0.409376	0.0341294	11.9441	-5.36818	-0.307629	15.1531	-11.4091	-3.49103	0.00191482	-14.8634	-4.88513	9.64677	4.05534	-0.86548	0.0249796	0.998539	0.0201111	0.0999617	-0.0550312	0.758018	1.04422	0.0151615	0.235131	0.00123571	0.0130487	0.0297735
3.7199	49.5363	34.303	-5.8951	84.4798	102.784	-17.9019	23.4377	4.51712	-2.0885	-10.3392	-1.01526	0.426303	0.0301203	14.7641	-2.43148	-1.0516	18.8246	-12.3866	-4.45647	0.00192112	-15.6036	-3.11585	7.86509	3.61964	-0.865037	0.0135438	0.873182	0.0159328	0.0860976	-0.0515598	0.97487	1.04058	0.0243817	0.283578	0.00369437	0.0175146	0.0270887
3.72989	53.4662	32.4408	-7.65625	93.0181	59.3925	-14.127	25.9513	5.38251	-2.36539	-11.4223	-0.774844	0.417154	0.0232148	17.3715	1.20858	-1.89122	22.7062	-13.1922	-5.44486	0.00267181	-17.4167	-1.07686	5.75522	3.10263	-0.787197	0.00426034	0.722589	0.0114594	0.0684884	-0.0442852	1.23592	0.960011	0.0306009	0.328847	0.0056712	0.021137	0.0211985
3.73987	55.9996	29.5296	-8.97573	99.4799	17.1349	-11.448	27.7865	6.0962	-2.56544	-12.4462	-0.459257	0.37776	0.0140857	19.9473	5.31604	-2.8077	26.6273	-13.8193	-6.4109	0.00391769	-19.7728	0.686231	3.49787	2.55336	-0.641983	-0.00239985	0.562469	0.00710423	0.0491874	-0.0345719	1.50811	0.809472	0.0335824	0.36708	0.00706649	0.023795	0.0132162
3.74986	57.55	25.8688	-9.58731	102.918	-23.653	-9.93718	29.1183	6.53088	-2.67904	-13.4766	-0.0695729	0.302472	0.00309004	22.5799	9.62655	-3.77054	30.3995	-14.2698	-7.30552	0.00537971	-22.5578	1.98224	1.32571	2.01763	-0.451746	-0.00634337	0.404362	0.00314145	0.0295714	-0.0236605	1.74966	0.608956	0.0331745	0.389574	0.00767208	0.0245782	0.00429683
3.75985	58.1921	21.3853	-9.40433	105.598	-63.6014	-9.37386	29.6834	6.58596	-2.66599	-14.5928	0.374574	0.189373	-0.00904443	25.0399	14.0494	-4.74766	33.9668	-14.5684	-8.07384	0.00694576	-24.8612	2.7404	-0.721059	1.50724	-0.229237	-0.00783872	0.257602	-0.000216603	0.0113467	-0.0123723	1.95386	0.36945	0.0301221	0.402869	0.00777285	0.0247957	-0.00503069
3.76984	58.5046	16.7108	-8.29189	107.081	-102.144	-9.55671	29.8504	6.2355	-2.55421	-15.8705	0.869857	0.0396653	-0.0218839	27.2207	18.3501	-5.69479	37.2383	-14.7388	-8.67071	0.00837683	-26.4875	2.90343	-2.31593	1.07927	-0.00785406	-0.00675477	0.137048	-0.00260327	-0.00365695	-0.00222081	2.06429	0.126867	0.0245271	0.396035	0.00714317	0.0233315	-0.0132615
3.77982	58.8646	12.1515	-6.3972	108.248	-139.196	-10.216	29.7453	5.55205	-2.39313	-17.3401	1.39853	-0.136315	-0.0348278	28.9741	22.3886	-6.57304	40.1704	-14.8105	-9.06238	0.00955011	-27.0053	2.53	-3.41915	0.740356	0.191144	-0.00391413	0.0467096	-0.00401391	-0.0146063	0.0059815	2.07592	-0.0946446	0.0176278	0.373073	0.00605245	0.0208588	-0.0196656
3.78981	59.5922	8.03299	-3.98112	110.499	-174.841	-11.3458	29.3718	4.73286	-2.25399	-18.9589	1.92918	-0.319854	-0.0471248	30.1774	26.0452	-7.35179	42.7525	-14.809	-9.23262	0.0103677	-25.9021	1.6487	-4.04884	0.4871	0.350404	-0.000251381	-0.0113511	-0.00450146	-0.0208375	0.0115693	1.99359	-0.274353	0.0108511	0.34096	0.00486333	0.0184196	-0.0236824
3.7998	60.8644	4.76389	-1.40678	115.647	-209.158	-13.2996	28.594	4.08609	-2.21598	-20.591	2.41396	-0.486012	-0.0577966	30.7173	29.199	-8.00758	44.9985	-14.7518	-9.18444	0.0108047	-22.6446	0.251446	-4.23839	0.313861	0.457201	0.00348262	-0.0352995	-0.00410228	-0.0217231	0.0140367	1.82533	-0.396475	0.00544985	0.307259	0.00392618	0.0171384	-0.0249424
3.80978	62.5764	2.78952	0.91083	126.035	-242.079	-16.4863	27.059	3.90665	-2.32741	-21.9945	2.78179	-0.607486	-0.0653658	30.4593	31.7199	-8.52971	46.9483	-14.6443	-8.93848	0.0109133	-16.6863	-1.66454	-3.99238	0.221944	0.503912	0.00706223	-0.0208409	-0.00273361	-0.0163901	0.0130765	1.57802	-0.451227	0.00217172	0.278926	0.0035024	0.0181094	-0.0233423
3.81977	62.3547	1.71246	2.42569	132.785	-267.584	-18.9454	25.463	3.97258	-2.65913	-22.9915	3.00005	-0.664258	-0.0691596	29.5181	33.5372	-8.9043	48.4805	-14.4775	-8.52855	0.0108333	-12.1316	-3.23488	-3.65607	0.110615	0.513303	0.00857294	-0.0251493	-0.00205263	-0.0139455	0.0116631	1.29267	-0.464799	-0.000184495	0.231007	0.00275397	0.0158877	-0.020525
3.82976	59.9474	1.50432	3.03497	139.279	-285.485	-20.5479	23.1126	4.23572	-3.0986	-23.2708	3.00089	-0.645532	-0.0678806	27.7529	34.6148	-9.14519	49.6805	-14.2476	-7.98783	0.0107494	-8.15647	-4.46397	-3.19721	0.0117722	0.48216	0.0084881	-0.0326762	-0.00166556	-0.0121179	0.00932221	0.990602	-0.433945	-0.00115735	0.176838	0.00201864	0.012482	-0.0165791
3.83975	55.8188	1.91538	2.63963	148.514	-294.566	-20.2826	19.6944	4.58114	-3.5453	-22.7467	2.78806	-0.560505	-0.0620157	25.0363	35.0354	-9.27882	50.6402	-13.9559	-7.34498	0.0109565	-3.69395	-5.15642	-2.67819	-0.0392939	0.414589	0.00751285	-0.0232979	-0.00107565	-0.00795614	0.00605557	0.73869	-0.3643	-4.1478e-05	0.144043	0.00194248	0.0116767	-0.0124644
3.84973	48.0178	2.48181	1.45286	143.081	-283.569	-19.0002	17.2184	5.04559	-4.2108	-21.8677	2.49265	-0.425718	-0.0548828	22.0957	34.7485	-9.30766	51.1137	-13.5899	-6.62886	0.011683	-5.45298	-5.09145	-2.48091	-0.102035	0.3128	0.00127918	-0.0642217	-0.00267215	-0.0132551	0.00302021	0.593065	-0.257931	0.00345483	0.0955442	0.00149576	0.00485207	-0.00742559
3.85972	41.1832	3.58911	-0.542261	138.42	-254.61	-14.2707	14.804	5.61941	-4.93365	-20.6854	2.13324	-0.266096	-0.0469774	18.3452	34.0114	-9.28517	51.3795	-13.1764	-5.85087	0.0133064	-6.22466	-4.08797	-2.24749	0.0530309	0.165455	-0.00467834	-0.0310128	-0.00293996	-0.00938206	-0.00199615	0.691439	-0.103848	0.0111877	0.132355	0.00308513	0.00811419	-0.0034532
3.86971	33.342	4.70693	-3.11882	123.852	-195.883	-4.9204	12.9155	6.2709	-5.64188	-19.6893	1.75341	-0.105226	-0.0386657	14.454	33.2352	-9.23996	51.32	-12.7367	-5.01158	0.0162472	-10.4277	-1.80493	-2.10488	0.447819	-0.0525884	-0.0136103	0.0488033	-0.0031949	-0.00214007	-0.00936355	1.09395	0.124854	0.0244713	0.240015	0.00632283	0.0168566	0.000655305
3.8797	26.9718	5.98455	-5.73009	106.583	-103.563	13.2963	10.3903	6.85008	-6.02168	-18.9823	1.32169	0.0329814	-0.028708	10.7343	32.9767	-9.23209	50.9886	-12.3005	-4.10917	0.0208097	-14.4063	1.81112	-1.53281	1.30607	-0.417352	-0.0242688	0.264902	-0.00134538	0.0210984	-0.0232243	1.86264	0.508989	0.0468119	0.475161	0.0127978	0.0396974	0.00645111
3.88968	18.029	6.19342	-8.29744	72.0763	36.8723	43.549	7.74758	6.95517	-6.0186	-19.1276	0.859284	0.134273	-0.0168251	7.81422	33.8129	-9.29559	50.1442	-11.8988	-3.15216	0.0274945	-24.6817	7.68782	-0.817222	2.54785	-0.951833	-0.0419691	0.542959	1.47096e-05	0.0478867	-0.0427091	3.01163	1.07171	0.0789435	0.790515	0.0213738	0.0669117	0.0153573
3.89967	5.61672	4.53815	-10.5565	15.5176	236.292	89.5016	5.0533	6.19002	-5.54693	-20.4192	0.361857	0.190407	-0.00251929	5.77064	36.149	-9.45525	48.7349	-11.583	-2.1645	0.0368942	-43.0112	16.3973	-0.0317817	4.21823	-1.69871	-0.069677	0.880917	0.000261512	0.0770236	-0.0692357	4.61137	1.85787	0.123735	1.19637	0.0324893	0.0982906	0.0286905
3.90966	-6.98007	0.525056	-11.8537	-52.9528	496.984	158.393	1.94432	3.81796	-4.46013	-22.671	-0.186352	0.193725	0.014432	3.47188	40.2231	-9.74231	47.0503	-11.4275	-1.18872	0.0495862	-64.04	28.2624	1.04526	6.49996	-2.73433	-0.107221	1.37032	0.00142298	0.122479	-0.106605	6.79939	2.94591	0.186852	1.78209	0.0487761	0.147061	0.0469182
3.91965	-20.4565	-6.37778	-12.3939	-136.975	827.214	254.098	-1.76616	-0.506677	-2.7258	-25.904	-0.80719	0.144685	0.0344973	0.972534	46.1924	-10.1693	45.0268	-11.4919	-0.281113	0.0660724	-88.8924	44.0157	2.32891	9.43434	-4.09876	-0.15715	2.01307	0.00304448	0.183854	-0.155836	9.65863	4.37669	0.27108	2.56528	0.0708298	0.214221	0.0707249
3.92963	-35.3035	-16.4375	-12.424	-239.233	1230.81	378.499	-6.34613	-6.99258	-0.353357	-29.9883	-1.52838	0.0486076	0.0580862	-1.55789	54.0539	-10.7324	42.5934	-11.8266	0.48144	0.0865757	-118.327	64.0642	3.7811	13.0477	-5.8129	-0.220861	2.80969	0.00485574	0.260746	-0.217579	13.2308	6.17188	0.37785	3.55317	0.0989096	0.299932	0.100683
3.93962	0.75215	15.3174	-14.8338	5.87271	3.85739	-2.47689	-2.85823	11.4462	-4.4119	-8.95743	-0.270027	0.317478	0.00448987	10.5286	28.6445	-7.85383	46.3655	-8.35959	-0.259535	0.0201682	-36.0949	6.98618	0.991934	2.9874	-0.110124	0.0143608	0.645912	0.00922789	0.0490581	-0.0155782	2.73957	0.210828	0.017774	0.583904	0.00819777	0.0414108	-0.00799285
3.94961	-0.498813	14.8104	-14.3771	5.25329	5.02695	-2.66447	-4.97854	10.173	-3.26906	-7.20336	-0.307071	0.240696	0.00536875	10.0548	27.96	-7.4266	46.1684	-7.89713	-0.0942233	0.0194329	-35.0761	7.13312	1.43374	3.11628	0.025675	0.0258792	0.700428	0.0118974	0.0550891	-0.0114573	2.72611	0.0707859	0.00789823	0.580136	0.00669397	0.0423158	-0.0132312
3.95959	-0.352625	14.1073	-13.6552	4.66861	6.05895	-3.07144	-6.81842	8.44648	-2.09266	-5.46965	-0.283236	0.144565	0.00487895	9.43572	26.9818	-7.00906	45.9936	-7.42982	0.050931	0.0190335	-32.6999	7.21407	1.90263	3.34184	0.193702	0.0408045	0.799357	0.0159187	0.0669959	-0.00655901	2.81468	-0.104793	-0.00303209	0.616892	0.00582919	0.0489416	-0.0206754
3.96958	0.856497	13.4349	-12.9933	4.11289	6.95774	-3.67934	-8.52433	6.45088	-0.958916	-3.71496	-0.218562	0.0394323	0.00336081	8.66419	25.6646	-6.60727	45.8055	-6.9222	0.149292	0.0189676	-29.0279	7.34669	2.3776	3.65485	0.390862	0.0588358	0.939376	0.0211841	0.0843658	-0.000745572	3.00845	-0.313489	-0.0148669	0.694248	0.00562437	0.0612304	-0.0304164
3.97957	2.84213	13.0479	-12.69	3.59552	7.76332	-4.49085	-10.2391	4.39687	0.0628172	-1.90798	-0.136584	-0.0638186	0.00124827	7.74445	23.9903	-6.22997	45.5504	-6.33761	0.173228	0.019227	-24.0564	7.639	2.84629	4.04807	0.615685	0.0798452	1.11834	0.027637	0.10695	0.00616447	3.30977	-0.554502	-0.0275796	0.81245	0.00608899	0.0791934	-0.0426082
3.98956	3.59355	12.5753	-12.9419	3.0768	8.48191	-5.20221	-12.3963	2.72019	0.947106	-0.054946	-0.0722669	-0.147368	-0.000819783	7.2696	22.4731	-5.87634	45.1326	-5.62742	0.107982	0.0194943	-20.2168	8.06325	3.07318	4.31475	0.813719	0.0966498	1.24741	0.0325078	0.123237	0.0128229	3.56186	-0.769049	-0.0383468	0.905677	0.00636438	0.0932863	-0.0533571
3.99954	2.9487	12.1182	-13.6798	2.50459	9.19562	-5.7654	-15.0187	1.56184	1.65694	1.8627	-0.0397368	-0.202335	-0.00258294	7.25702	21.1703	-5.53578	44.4949	-4.75947	-0.0700941	0.019675	-17.6564	8.47537	3.10415	4.45544	0.966201	0.108207	1.32378	0.0356075	0.132899	0.0183078	3.74001	-0.935999	-0.0462961	0.967583	0.00645178	0.102645	-0.061512
4.00953	0.849412	11.7393	-14.8422	1.86994	9.99115	-6.1538	-18.0706	1.03653	2.16293	3.85678	-0.0453315	-0.222736	-0.00393819	7.72619	20.123	-5.19699	43.5873	-3.7117	-0.378294	0.0197294	-16.494	8.78378	2.95378	4.46491	1.06012	0.113649	1.34366	0.0367485	0.135497	0.0219887	3.82637	-1.04053	-0.0507314	0.993342	0.00636102	0.106604	-0.0662451
4.01952	-2.71956	11.4593	-16.3369	1.19724	10.9735	-6.33725	-21.484	1.23969	2.4509	5.92563	-0.0904891	-0.204954	-0.00486086	8.70705	19.379	-4.84492	42.3754	-2.47301	-0.824395	0.0196257	-16.8853	8.90302	2.6203	4.33307	1.0828	0.111998	1.30156	0.03569	0.130373	0.0232615	3.80378	-1.06832	-0.0509067	0.977864	0.00610403	0.104432	-0.0667386
4.02951	-7.78586	11.1719	-17.9983	0.508886	12.2703	-6.33388	-25.2026	2.158	2.54614	8.05381	-0.173154	-0.151101	-0.00531466	10.2461	18.9783	-4.45971	40.8423	-1.0443	-1.40521	0.019332	-19.0604	8.72653	2.09459	4.04652	1.0232	0.102267	1.19047	0.0321564	0.116644	0.0215559	3.65327	-1.00683	-0.0461557	0.914822	0.00565567	0.0952147	-0.0621758
4.03949	-15.8274	11.093	-20.2252	-0.24348	14.8865	-6.21398	-30.4974	4.14362	2.62992	10.9734	-1.16151	-0.0323945	-0.00539346	12.4197	19.0058	-4.02396	39.0055	0.5664	-2.10581	0.0186707	-23.1287	8.14331	1.36545	3.56897	0.868618	0.0832138	0.996983	0.0257412	0.0927794	0.0163876	3.33421	-0.84246	-0.035897	0.792039	0.00489449	0.0774389	-0.0516181
4.04948	-21.3074	11.6893	-22.0145	-0.929049	17.4955	-6.19582	-34.614	5.90628	2.45799	13.3783	-1.50126	0.0471897	-0.00444805	14.2897	18.4176	-3.55521	36.8666	2.29936	-2.92574	0.0184024	-25.124	7.39102	0.884298	3.2777	0.724499	0.0684371	0.879832	0.0214646	0.0789893	0.0109352	3.13732	-0.689721	-0.0261138	0.725657	0.00514701	0.067753	-0.0428282
4.05947	-25.143	13.1063	-23.9146	-1.63874	20.5384	-6.41154	-38.5378	7.62325	2.18333	15.7839	-1.82833	0.11753	-0.00221	16.0683	17.2616	-3.07391	34.417	4.12217	-3.83471	0.018423	-24.9891	6.72021	0.541807	3.12075	0.610833	0.0583041	0.824984	0.0191115	0.073591	0.0065411	3.05832	-0.571369	-0.0177883	0.710925	0.00621465	0.0656338	-0.0369279
4.06946	-27.3825	15.0628	-25.879	-2.4053	23.9313	-6.83352	-42.3171	9.02652	1.8708	18.1376	-2.12032	0.165854	0.00156846	17.8602	15.6017	-2.581	31.6753	5.98822	-4.79604	0.0186696	-22.9207	6.22135	0.329027	3.07833	0.538098	0.0531902	0.825202	0.0185869	0.0755482	0.00379847	3.0828	-0.498714	-0.0117435	0.740342	0.00783449	0.0701053	-0.0343186
4.07944	-31.6324	15.0637	-27.6071	-3.25324	27.6133	-6.68279	-46.442	9.96357	1.60459	20.3511	-2.32508	0.185307	0.00604096	20.6011	14.6263	-2.03383	28.7243	7.86518	-5.74231	0.0185415	-24.145	5.59302	-0.366574	2.72572	0.401972	0.0377391	0.69709	0.0140526	0.0610542	-0.000736811	2.90876	-0.356746	-0.00135056	0.683955	0.00846056	0.0620104	-0.0264239
4.08943	-34.3293	15.2697	-28.9761	-4.24022	31.5154	-6.66013	-50.1547	10.325	1.36321	22.3061	-2.44737	0.180217	0.0116039	23.3252	13.2897	-1.4388	25.6251	9.66778	-6.65954	0.0185577	-24.0568	4.91502	-0.78671	2.4942	0.285498	0.0264304	0.618389	0.0111127	0.0529233	-0.00481115	2.78	-0.236556	0.0070175	0.652561	0.00927369	0.0579042	-0.0201915
4.09942	-35.194	15.4463	-30.0063	-5.31288	35.3986	-6.75306	-53.2237	10.049	1.1396	23.887	-2.48052	0.155804	0.0178467	26.1527	11.6409	-0.816092	22.4264	11.3331	-7.5105	0.0188298	-22.8577	4.3394	-1.08335	2.33381	0.200789	0.0187898	0.573072	0.00936555	0.0491337	-0.0076441	2.70077	-0.151113	0.0132632	0.642896	0.01021	0.0572005	-0.0161734
4.10941	-34.0423	15.4054	-30.5834	-6.42726	39.0935	-6.87503	-55.3757	9.13551	0.938364	24.9573	-2.43697	0.123762	0.0242943	29.1311	9.79269	-0.176018	19.1952	12.8032	-8.25962	0.0193771	-20.8598	3.90433	-1.3261	2.21253	0.15002	0.0142057	0.54874	0.00846629	0.048046	-0.00905128	2.66001	-0.102333	0.0174593	0.648081	0.0111467	0.0588486	-0.0142846
4.11939	-31.5132	14.0214	-30.1943	-7.5478	42.4376	-6.68042	-56.3965	7.60525	0.778022	25.3459	-2.33467	0.0997505	0.0300858	32.6385	8.34003	0.488439	16.0197	14.0359	-8.86522	0.0200049	-20.0207	3.29161	-1.77467	1.97097	0.0916907	0.00652589	0.476427	0.00615865	0.0407527	-0.0107397	2.5471	-0.0436048	0.0226055	0.620925	0.0116071	0.0558179	-0.0109448
4.12938	-26.5337	12.477	-29.0817	-8.60217	45.2836	-6.49344	-55.8695	5.6339	0.638999	24.9976	-2.24008	0.104739	0.0351031	36.1424	6.78411	1.16037	12.9626	14.9773	-9.31969	0.0209857	-18.6711	2.79582	-2.16001	1.76493	0.0693187	0.00188891	0.421494	0.0046086	0.0355355	-0.0110287	2.46185	-0.0227834	0.0254832	0.603058	0.0119127	0.0543098	-0.00958562
4.13937	-18.9528	10.7368	-27.1819	-9.47607	47.4674	-6.2891	-53.5617	3.31337	0.515787	23.8743	-2.21344	0.155756	0.0388695	39.5756	5.1839	1.80999	10.0803	15.5951	-9.60922	0.0223966	-16.9301	2.48089	-2.5443	1.57438	0.0900559	0.000213131	0.37732	0.00366197	0.0315214	-0.00953506	2.40612	-0.0472316	0.0259318	0.592709	0.0120084	0.054014	-0.0104938
4.14935	-8.93506	8.80555	-24.4346	-9.99955	48.9151	-6.05594	-49.4104	0.756268	0.415201	22.0181	-2.31627	0.269115	0.0409516	42.8082	3.62196	2.40435	7.42369	15.8696	-9.72533	0.0242554	-14.9659	2.35035	-2.92599	1.39457	0.153419	0.00135842	0.340913	0.00323365	0.0282542	-0.00628935	2.3727	-0.116002	0.0239163	0.586412	0.0118156	0.0544161	-0.0135314
4.15934	3.12029	6.74057	-20.8442	-9.89449	49.6705	-5.86697	-43.5264	-1.90262	0.349321	19.5575	-2.59799	0.457625	0.0409863	45.6782	2.16915	2.90429	5.02555	15.7943	-9.6655	0.0265678	-12.9184	2.38776	-3.27833	1.22919	0.256136	0.00521915	0.311916	0.00329888	0.0256133	-0.00147219	2.35399	-0.22515	0.0194641	0.581359	0.0112751	0.0551078	-0.0184428
4.16933	17.3269	5.11373	-16.9074	-9.16395	49.6653	-6.03774	-36.0061	-4.55201	0.28473	16.7052	-3.08922	0.721938	0.038975	47.7595	0.526062	3.23749	2.84304	15.3641	-9.44041	0.0295919	-9.63424	2.96155	-3.63898	1.14202	0.437161	0.0151648	0.323615	0.00497827	0.027982	0.00679561	2.45637	-0.418195	0.0110214	0.614784	0.0108922	0.0612494	-0.028273
4.17932	32.8871	3.44731	-12.2051	-8.31199	48.5264	-6.28769	-27.2139	-7.00638	0.261206	13.6564	-3.76781	1.05903	0.0344348	49.2816	-0.754351	3.3491	0.841422	14.6071	-9.04541	0.0330606	-6.18173	3.74288	-3.96792	1.09612	0.655376	0.0279922	0.352199	0.00735191	0.0321628	0.0165297	2.60259	-0.649298	0.000478992	0.659643	0.0103954	0.068932	-0.0401014
4.1893	47.2735	0.513674	-6.61678	-7.20255	46.4449	-6.17391	-18.0547	-9.15306	0.311391	10.7698	-4.58023	1.44654	0.027141	50.4501	-0.94376	3.21943	-0.930453	13.5728	-8.47818	0.0363497	-4.89957	4.278	-4.37504	0.962106	0.841877	0.0366608	0.332857	0.00813487	0.0296471	0.0246244	2.6491	-0.841653	-0.00835263	0.660554	0.00924541	0.069997	-0.048694
4.19929	58.8515	-3.91651	-0.432053	-5.66704	43.6617	-5.72471	-9.36782	-10.9078	0.42482	8.43687	-5.47527	1.84696	0.0180231	51.2585	0.0920444	2.87087	-2.47348	12.3144	-7.75849	0.0389897	-6.52447	4.34399	-4.77854	0.738484	0.96538	0.0392539	0.2567	0.00688357	0.0191384	0.0294915	2.54744	-0.959948	-0.0141668	0.601664	0.00730197	0.0621338	-0.0518932
4.20928	67.0607	-9.73298	6.12188	-3.67724	40.3649	-5.027	-1.64375	-12.3042	0.562629	6.90378	-6.40256	2.21376	0.00891094	51.8013	2.23823	2.35934	-3.83104	10.8946	-6.91973	0.0405778	-11.0926	3.79279	-5.06068	0.457906	1.00982	0.0356012	0.132262	0.0037537	0.00167769	0.0302219	2.28458	-0.986004	-0.016508	0.481861	0.00459285	0.0452327	-0.0488149
4.21927	73.4653	-15.0893	12.3196	-1.25395	36.5457	-4.64649	5.20706	-13.3493	0.646096	6.26235	-7.31223	2.50245	0.0018366	51.7074	4.47684	1.7636	-5.1406	9.35673	-6.01564	0.0414173	-15.7114	3.08544	-4.88624	0.34874	1.0421	0.0348527	0.0594892	0.00203277	-0.00985714	0.029645	2.0366	-0.994527	-0.0198588	0.373237	0.00185155	0.0298948	-0.0451267
4.22925	79.2027	-19.2397	17.4657	1.53997	32.1867	-4.73501	11.5822	-14.0622	0.582646	6.40748	-8.11097	2.67574	-0.00264836	50.8832	6.21134	1.13029	-6.51925	7.75882	-5.09099	0.0416238	-18.9727	2.83469	-4.48131	0.424368	1.1136	0.0400022	0.0591706	0.00253622	-0.012447	0.0306609	1.9349	-1.04495	-0.0257124	0.318296	-0.000279637	0.0219085	-0.0449607
4.23924	83.4709	-21.8885	21.6421	4.64652	27.303	-5.16088	17.4901	-14.0361	0.383062	7.22739	-8.70716	2.7284	-0.00504689	49.567	7.60107	0.521042	-7.91851	6.18998	-4.17411	0.0405222	-22.1572	2.93197	-3.76947	0.62716	1.16649	0.0468687	0.0973338	0.00401668	-0.0106048	0.0309774	1.8714	-1.07542	-0.0318486	0.279119	-0.00224226	0.0158762	-0.044813
4.24923	86.179	-22.6493	24.6984	7.92037	22.0331	-5.9048	23.0403	-13.1666	0.039904	8.60439	-9.04192	2.65741	-0.00564243	47.6528	8.50624	-0.000981499	-9.30983	4.72038	-3.29463	0.0378072	-25.2414	3.44762	-2.6898	0.974752	1.19248	0.055468	0.178791	0.00657353	-0.0037645	0.0303421	1.8459	-1.07912	-0.0382222	0.25649	-0.00402864	0.011898	-0.0445471
4.25922	88.3838	-21.3779	26.1147	11.1165	16.5356	-7.04331	28.5654	-11.6859	-0.4871	10.3767	-9.08517	2.45902	-0.00455599	44.7979	8.55801	-0.39126	-10.7345	3.3921	-2.4811	0.0337896	-26.7383	4.82386	-1.46566	1.49545	1.25784	0.0697625	0.331156	0.0112877	0.0119256	0.0319364	2.00025	-1.13154	-0.0470307	0.296679	-0.00501748	0.0163704	-0.0487494
4.2692	90.1932	-18.5487	26.3835	14.2076	11.0542	-8.4445	34.1488	-9.54495	-1.14531	12.3319	-8.82328	2.14536	-0.00244033	41.2405	8.12192	-0.65943	-12.1714	2.26553	-1.75015	0.0281827	-27.3065	6.70095	-0.145918	2.12345	1.3319	0.086663	0.525876	0.0171802	0.0329527	0.0342949	2.26185	-1.1993	-0.0565422	0.375357	-0.0054098	0.0259415	-0.0551065
4.27919	90.2138	-15.1784	26.0506	17.3559	5.67579	-9.92004	39.3583	-6.77189	-1.84825	14.3975	-8.27309	1.72438	9.40221e-05	37.3867	7.68554	-0.83078	-13.4923	1.40254	-1.11914	0.0204778	-28.945	8.45196	1.15648	2.70816	1.34235	0.0988476	0.693737	0.021876	0.0505317	0.034188	2.46601	-1.20308	-0.0628355	0.433392	-0.00576515	0.0322224	-0.0582137
4.28918	89.0662	-11.4964	25.2206	20.4935	0.0929997	-11.4851	44.0857	-3.57918	-2.5489	16.4922	-7.48662	1.1994	0.0030227	33.3895	7.22101	-0.903918	-14.7196	0.822843	-0.612399	0.0110866	-31.0255	9.96739	2.38297	3.24014	1.31072	0.107472	0.838805	0.0256454	0.0654714	0.032495	2.62904	-1.16663	-0.0667268	0.478468	-0.00600584	0.0365707	-0.0591959
4.29916	87.6214	-7.70482	23.9948	23.1863	-5.81642	-13.047	48.2333	-0.225009	-3.21206	18.5605	-6.53291	0.574103	0.00646752	29.5366	6.63004	-0.873249	-15.9437	0.532298	-0.256922	0.00059522	-32.8027	11.1892	3.47347	3.72069	1.25748	0.113777	0.969475	0.0288525	0.0791555	0.0300579	2.78098	-1.11215	-0.0688308	0.523437	-0.00592945	0.041003	-0.0592772
4.30915	86.0041	-4.07356	22.6687	25.3582	-11.3933	-14.53	51.8733	3.08987	-3.81749	20.5366	-5.48152	-0.144671	0.01044	25.3046	5.85024	-0.827777	-17.3259	0.351079	0.0940644	-0.0106537	-33.4917	12.0486	4.40768	4.17367	1.20025	0.119211	1.10147	0.032036	0.0938714	0.0274886	2.95997	-1.05835	-0.0696534	0.585063	-0.00524825	0.0480558	-0.0595453
4.31914	87.878	-0.240073	21.0452	25.7725	-17.6806	-16.1305	54.6283	6.21213	-4.33776	22.4583	-4.4063	-0.948386	0.0149423	23.5814	4.73796	-0.52549	-18.9515	0.795962	-0.0866155	-0.0221692	-32.3492	12.4077	5.18342	4.60311	1.13822	0.12399	1.24096	0.0353643	0.110715	0.0245403	3.17298	-1.00222	-0.0687356	0.670714	-0.00373862	0.0589375	-0.0601425
4.32913	89.0388	2.47174	20.1462	25.3974	-22.9812	-17.4165	56.4907	8.97513	-4.75677	24.266	-3.32915	-1.83106	0.0190814	22.4939	3.73816	-0.34325	-20.7925	1.31852	-0.290721	-0.0347622	-31.8412	11.8264	5.69087	4.86275	1.00303	0.120956	1.31705	0.0364348	0.120421	0.0184002	3.26031	-0.868094	-0.0625811	0.718825	-0.00208221	0.0647375	-0.0557967
4.33911	92.3939	4.81779	19.7345	24.1766	-27.1769	-18.8478	57.7744	11.3585	-5.08277	25.9569	-2.31082	-2.77211	0.0232415	21.5586	2.64707	-0.291317	-22.9859	1.86932	-0.502097	-0.0472302	-28.1343	10.7645	6.11993	5.20594	0.903693	0.121488	1.44905	0.0392128	0.138589	0.0130608	3.47638	-0.774363	-0.0564847	0.829422	0.00090986	0.0799703	-0.0541988
4.3491	96.1134	6.03267	20.5207	22.3395	-30.1533	-20.1977	58.2548	13.1399	-5.29273	27.5246	-1.35433	-3.75831	0.0268633	21.0747	1.78363	-0.49246	-25.2668	2.4205	-0.692488	-0.0592196	-23.7036	8.76648	6.38562	5.49058	0.765844	0.118225	1.56568	0.0412356	0.155805	0.00536612	3.65652	-0.638051	-0.0466875	0.939036	0.00452713	0.0953699	-0.0498781
4.35909	94.9008	5.30373	21.9936	20.3338	-31.6928	-20.8391	57.4481	14.2041	-5.40605	29.034	-0.435007	-4.77213	0.0290659	21.1073	1.45548	-1.00938	-27.1421	2.9111	-0.82901	-0.069748	-23.987	6.38128	6.14281	5.33768	0.548211	0.101785	1.50042	0.0378277	0.14958	-0.00440572	3.49455	-0.413051	-0.0326903	0.908586	0.00612401	0.0909806	-0.0381232
4.36908	89.2542	3.59369	23.5033	18.3838	-31.9125	-20.8971	55.5161	14.8693	-5.4476	30.504	0.436093	-5.76854	0.0300732	21.0881	1.49585	-1.71312	-28.2736	3.23731	-0.891021	-0.0764179	-27.7781	4.07522	5.57334	4.8766	0.296351	0.077693	1.30705	0.0308076	0.12654	-0.0142276	3.0981	-0.14969	-0.0175759	0.776771	0.00595452	0.0722754	-0.0225623
4.37906	84.4445	2.41089	25.0066	16.4862	-31.1367	-21.032	52.9807	15.4822	-5.40518	31.8973	1.23109	-6.69432	0.0308228	20.4299	1.50129	-2.38295	-28.5891	3.33239	-0.88014	-0.0775952	-29.1213	1.66857	5.18614	4.60438	0.0578628	0.0578943	1.19332	0.0259751	0.114087	-0.0242769	2.85592	0.0983427	-0.00250729	0.712036	0.00705053	0.0629665	-0.0092249
4.38905	80.2695	1.66579	26.2378	14.8917	-29.5878	-21.1715	49.7376	16.0208	-5.27674	33.2445	1.97699	-7.51977	0.0312835	19.3513	1.43725	-2.93459	-28.0074	3.21575	-0.807288	-0.0741228	-28.6164	-0.688283	4.93444	4.50384	-0.177101	0.0412164	1.14827	0.022907	0.110594	-0.0348695	2.76222	0.342124	0.0131915	0.708094	0.00935541	0.061842	0.00243868
4.39904	75.1164	0.761882	26.5463	13.7347	-27.308	-21.1004	46.4953	16.3778	-5.14682	34.4091	2.72806	-8.21763	0.0312239	17.2567	1.34199	-3.26096	-26.5946	2.91961	-0.69473	-0.0669594	-28.138	-2.23322	4.44818	4.38921	-0.343691	0.0276846	1.10538	0.0202327	0.107005	-0.0420227	2.7647	0.513291	0.0261709	0.724259	0.0116309	0.0630837	0.0100844
4.40903	68.7404	-0.240739	25.7861	12.9819	-24.4468	-20.8214	43.8305	16.6928	-5.06658	35.2592	3.52863	-8.76353	0.0305257	14.021	1.24139	-3.31881	-24.5839	2.49988	-0.566928	-0.0573629	-28.367	-2.76576	3.70401	4.20064	-0.422538	0.0176533	1.04212	0.0175639	0.100216	-0.0444763	2.8129	0.592345	0.0347459	0.737496	0.0132053	0.063697	0.0132264
4.41901	60.693	-1.17162	24.0511	12.569	-21.2008	-20.392	41.7812	17.1245	-5.04347	35.8076	4.40809	-9.15094	0.0291729	9.86668	1.15965	-3.10264	-22.2228	2.01192	-0.443547	-0.0464244	-29.9679	-2.40876	2.80888	3.90622	-0.425869	0.0103554	0.941515	0.014487	0.0878888	-0.0425821	2.82946	0.5929	0.0384498	0.720744	0.0134923	0.0601854	0.0130263
4.429	50.4564	-2.08206	21.5583	12.4797	-17.6934	-19.8241	40.3628	17.7213	-5.07538	36.072	5.39174	-9.39268	0.0271994	4.97078	1.14205	-2.6267	-19.7177	1.49424	-0.33648	-0.034785	-33.6597	-1.34784	1.74877	3.45125	-0.374759	0.0036879	0.778958	0.0102375	0.0668555	-0.0369916	2.75324	0.536852	0.0380153	0.651276	0.0121674	0.0494087	0.0109552
4.43899	42.6842	-2.49885	19.0084	12.2369	-14.3757	-19.3087	39.3393	18.4362	-5.10565	36.1334	6.46445	-9.51341	0.0254441	0.328842	1.09155	-2.05411	-17.2254	0.997429	-0.245296	-0.0236088	-35.45	-0.265053	0.883641	3.14993	-0.310894	0.000794146	0.680694	0.00780431	0.0543283	-0.0315707	2.78439	0.46663	0.0371161	0.630901	0.01171	0.0456683	0.00715641
4.44897	36.9242	-2.60922	16.6651	11.8369	-11.3432	-18.8307	38.6124	19.1924	-5.11547	36.0311	7.64649	-9.54676	0.0239368	-3.90952	1.01758	-1.42052	-14.8296	0.543722	-0.173285	-0.013284	-35.9084	0.629586	0.173431	2.96326	-0.260292	-0.000734402	0.627703	0.00647543	0.0478994	-0.0274094	2.88203	0.409674	0.0372063	0.644704	0.012044	0.0467594	0.00331877
4.45896	32.7326	-2.57366	14.5813	11.3199	-8.68736	-18.3858	38.0807	19.9107	-5.09393	35.8141	8.95871	-9.52739	0.0226648	-7.6428	0.868335	-0.738802	-12.5882	0.150829	-0.123613	-0.00414312	-35.5304	1.29238	-0.463763	2.84699	-0.232645	-0.00246627	0.601576	0.00566055	0.045206	-0.0247505	3.02241	0.376004	0.0389852	0.681564	0.0130604	0.0509983	0.000171125
4.46895	29.7324	-2.48474	12.6696	10.7316	-6.46854	-17.97	37.6708	20.5276	-5.04067	35.5278	10.4214	-9.48755	0.0216207	-10.8094	0.581562	-0.0164175	-10.5338	-0.165627	-0.0986421	0.00343681	-34.7307	1.80261	-1.09014	2.76413	-0.222958	-0.00484362	0.587981	0.00500518	0.0443222	-0.023153	3.18878	0.360179	0.042164	0.731842	0.0145339	0.0569916	-0.00235943
4.47894	27.5259	-2.34401	10.8259	10.1156	-4.71715	-17.6155	37.2939	21.0259	-4.95976	35.222	12.053	-9.45483	0.0208077	-13.3981	0.119561	0.730538	-8.66075	-0.393849	-0.09845	0.00906707	-33.8674	2.24792	-1.71742	2.69313	-0.223095	-0.00771155	0.577943	0.00434579	0.0439422	-0.0220915	3.36451	0.353637	0.0460316	0.786537	0.0161842	0.0634989	-0.00452003
4.48892	25.7139	-2.14753	8.95432	9.51166	-3.45582	-17.3108	36.9018	21.4277	-4.85848	34.9389	13.8718	-9.4514	0.0202132	-15.507	-0.493854	1.4778	-6.9182	-0.534453	-0.118992	0.0126158	-33.2213	2.73471	-2.34766	2.62119	-0.222738	-0.0106205	0.566091	0.00363025	0.0432158	-0.0209656	3.54028	0.345633	0.049767	0.839459	0.0177675	0.0696719	-0.00673305
4.49891	25.6877	-1.58802	7.43086	8.65614	-2.81186	-17.0479	36.0781	21.7725	-4.7117	34.7284	15.8737	-9.49403	0.0202445	-16.7908	-1.23539	2.08775	-5.25768	-0.580136	-0.15038	0.0137026	-31.1795	2.86549	-2.70305	2.72211	-0.265108	-0.0129541	0.615187	0.00420859	0.0505337	-0.0228056	3.78945	0.382207	0.0559519	0.933213	0.0204452	0.0814185	-0.00754691
4.5089	24.9313	-1.17052	5.90602	7.89575	-2.62764	-16.7926	35.3275	22.0711	-4.58083	34.5672	18.1038	-9.59457	0.0204301	-18.052	-1.91662	2.65475	-3.63256	-0.572322	-0.187489	0.0133083	-30.1461	3.1277	-3.05552	2.78198	-0.28547	-0.0146047	0.645051	0.00447331	0.0548823	-0.0233967	3.99646	0.396184	0.0601459	1.00394	0.0223696	0.0899716	-0.00894071
4.51889	25.4715	-0.513721	4.77081	6.92871	-3.06773	-16.6391	34.262	22.3905	-4.44378	34.4832	20.5535	-9.75858	0.0212248	-18.8556	-2.52428	3.03254	-2.02132	-0.514744	-0.218183	0.0114267	-27.9471	3.09356	-3.08852	3.01085	-0.335856	-0.014826	0.733333	0.00609779	0.0667482	-0.0263993	4.25819	0.442825	0.0656562	1.10711	0.025058	0.10305	-0.00927743
4.52887	24.0168	-0.146016	3.77745	6.09021	-3.9489	-16.487	33.3575	22.7847	-4.35734	34.4884	23.2672	-9.98798	0.0220485	-20.2282	-2.81413	3.31918	-0.314924	-0.454501	-0.235047	0.00908495	-27.4881	3.20778	-3.0917	3.16127	-0.353909	-0.0141597	0.785335	0.0070966	0.0731472	-0.0274073	4.43033	0.457231	0.0678529	1.16591	0.0263843	0.110073	-0.0102675
4.53886	23.6665	0.310921	3.32151	4.98591	-5.48874	-16.3616	32.2877	23.3257	-4.29433	34.5619	26.2291	-10.2792	0.0234208	-21.4441	-2.74944	3.35953	1.44506	-0.389676	-0.227377	0.00622781	-25.8646	3.02163	-2.72688	3.48247	-0.405516	-0.012042	0.895461	0.00946191	0.0870064	-0.0309752	4.6415	0.508851	0.0712662	1.25274	0.0283756	0.121107	-0.00994339
4.54885	21.7495	0.425365	3.17646	3.9665	-7.54895	-16.3879	31.6505	24.0483	-4.3066	34.6727	29.4784	-10.627	0.0247644	-23.3402	-2.22273	3.28783	3.32044	-0.354141	-0.194998	0.00364979	-25.7169	2.87973	-2.28942	3.72968	-0.431685	-0.00915357	0.971531	0.0112488	0.0958073	-0.0329358	4.75118	0.535922	0.0716086	1.29424	0.0290312	0.126103	-0.00991859
4.55884	18.1226	0.0669181	3.35192	3.02069	-10.1874	-16.4863	31.5491	25.01	-4.40098	34.8224	33.0199	-11.0227	0.0259487	-26.0106	-1.13565	3.0957	5.33937	-0.360854	-0.133281	0.0016647	-27.2107	2.83301	-1.84542	3.86933	-0.426502	-0.00574468	1.00258	0.012208	0.0981737	-0.0327696	4.75137	0.531806	0.0686385	1.28527	0.0282289	0.124355	-0.01049
4.56882	12.7759	-0.751591	3.79248	2.12018	-13.4753	-16.6579	32.1003	26.2568	-4.58081	35.0058	36.8466	-11.4554	0.026885	-29.4913	0.480898	2.80864	7.51565	-0.41398	-0.0446871	0.000457182	-30.4644	2.91799	-1.4565	3.87132	-0.388662	-0.00227225	0.978728	0.0120847	0.0929044	-0.0301651	4.63558	0.494764	0.0624048	1.22197	0.0259118	0.115314	-0.0117835
4.57881	4.45675	-2.29672	4.56592	0.9484	-16.6917	-17.0844	33.4493	27.8643	-4.85466	35.245	40.9445	-11.9124	0.0273178	-35.109	2.69103	2.55353	10.5394	-1.38319	0.137016	-1.19648e-06	-35.4147	3.19117	-1.2008	3.68233	-0.307097	0.00115641	0.885052	0.0106045	0.0783098	-0.0243272	4.37997	0.412573	0.0523397	1.0956	0.0218769	0.0980395	-0.0142333
4.5888	-1.61276	-3.6005	5.4163	-1.25138	-21.5746	-17.4813	35.1296	29.6867	-5.168	35.4947	45.2284	-12.3799	0.0281457	-40.0086	4.91986	2.14576	13.1759	-1.76404	0.26218	0.000747966	-39.2015	3.40068	-0.877422	3.58944	-0.263623	0.00384601	0.827938	0.00975141	0.0688317	-0.0205981	4.19974	0.370845	0.0452507	1.00592	0.0189601	0.0855944	-0.0157012
4.59878	-6.87428	-5.13547	6.59773	-3.38644	-26.811	-17.0418	37.0018	31.5289	-5.49917	35.8324	49.6402	-12.8448	0.0293501	-45.3226	7.18931	1.71308	15.9443	-2.14573	0.382911	0.00288314	-41.8412	3.51364	-0.58285	3.53948	-0.27321	0.00394882	0.789491	0.00893907	0.0624882	-0.0193805	4.06944	0.384826	0.0422983	0.945029	0.0172127	0.0769313	-0.0153846
4.60877	-11.2633	-6.54145	7.82824	-5.36083	-32.2486	-16.3854	39.0987	33.3959	-5.85938	36.287	54.1049	-13.2832	0.0308888	-50.9895	9.05961	1.32244	18.7625	-2.49036	0.481439	0.00647887	-43.3992	3.5765	-0.435297	3.50037	-0.333185	0.000762471	0.76003	0.00787231	0.0581635	-0.0204379	3.9968	0.451229	0.0439097	0.913682	0.0167267	0.0720462	-0.0134151
4.61876	-13.6448	-7.44865	9.42761	-7.57832	-37.9665	-15.5898	40.9785	35.2079	-6.21091	36.874	58.517	-13.669	0.032906	-56.4938	10.3034	0.960303	21.5042	-2.767	0.549079	0.0115844	-42.5401	3.15341	-0.0987496	3.62925	-0.483987	-0.00505782	0.793419	0.00774016	0.0629617	-0.0268508	4.00825	0.613149	0.0518849	0.937589	0.0182343	0.0747182	-0.00782597
4.62875	-14.9145	-7.73476	11.0602	-9.80967	-43.7318	-14.6688	43.0019	36.8574	-6.56282	37.6263	62.7991	-13.9755	0.0349732	-61.9167	10.6773	0.676793	24.0584	-2.94372	0.5778	0.0177723	-40.7181	2.63421	0.275501	3.79089	-0.669734	-0.0123045	0.841008	0.00772768	0.0701186	-0.0351552	4.03212	0.811102	0.0622646	0.975976	0.0203926	0.0794901	-0.000823758
4.63873	-13.8371	-7.50516	13.0635	-12.2407	-49.4206	-13.7329	44.5879	38.207	-6.88059	38.5337	66.813	-14.1723	0.0376195	-66.5992	10.2182	0.429023	26.2673	-3.01655	0.572746	0.0248508	-36.4429	1.51427	0.838679	4.13014	-0.941397	-0.0219559	0.954369	0.0087273	0.0867163	-0.0489729	4.14151	1.09838	0.0788231	1.0701	0.0245292	0.091894	0.00987841
4.64872	-11.0933	-6.80423	15.075	-14.6118	-54.7938	-12.8392	46.0481	39.1804	-7.17777	39.6076	70.4674	-14.2295	0.0405178	-70.3653	8.92984	0.236667	27.9691	-2.98893	0.539259	0.0321521	-31.2213	0.157895	1.40634	4.50629	-1.24806	-0.0333054	1.08263	0.00980303	0.105736	-0.0649874	4.27055	1.42049	0.0980724	1.1807	0.029395	0.106575	0.0222112
4.65871	48.6026	45.3146	2.03261	-23.6989	-1138.44	-551.239	52.5354	84.1965	-14.0759	50.4522	75.9713	-13.665	-0.0180491	-25.4663	-37.5622	0.955395	15.4022	-0.235493	-0.592713	-0.00189346	37.2562	-61.0835	-3.35922	-1.76327	6.81025	0.335751	0.0725132	0.0508991	0.00294584	0.179869	-2.4448	-6.97285	-0.355108	-0.935533	-0.0620486	-0.060512	-0.159176
4.6687	41.7178	31.3938	7.75126	-56.4405	-892.473	-394.407	55.065	71.1436	-12.384	48.9121	78.3706	-14.0788	-0.00104957	-34.8537	-26.8917	0.497978	18.0039	-0.750933	-0.359344	0.013927	21.3228	-45.1719	-1.44458	0.227808	4.20217	0.216524	0.423091	0.0388265	0.0431647	0.0954691	-0.598794	-4.26863	-0.209293	-0.293589	-0.032641	-0.0069547	-0.0930757
4.67868	39.288	20.4324	12.2172	-79.022	-696.294	-268.42	57.2016	59.7682	-10.829	47.7734	80.3722	-14.668	0.0133027	-40.6966	-18.811	0.266876	19.393	-1.19046	-0.177371	0.0258816	9.65267	-32.5509	0.0788913	1.79579	2.06091	0.118021	0.699426	0.0287177	0.0757414	0.0255982	0.850271	-2.04883	-0.0891574	0.22369	-0.0084845	0.036698	-0.0380775
4.68867	38.6815	13.0128	15.4704	-109.38	-539.735	-166.413	60.8678	49.9716	-9.46372	46.71	81.8841	-15.2805	0.0245665	-42.3362	-12.7718	0.168555	19.2817	-1.64861	-0.0318224	0.0338175	-4.83073	-22.4818	1.48117	2.91264	0.34832	0.0380059	0.838084	0.018697	0.0889519	-0.0276164	1.82736	-0.27337	0.00242602	0.539922	0.00811402	0.0573227	0.00623819
4.69866	41.9962	8.1493	17.0952	-130.032	-427.161	-90.0672	63.7539	41.8703	-8.32105	46.0052	82.7041	-15.7807	0.033375	-40.4771	-8.61698	0.178511	18.0812	-2.24343	0.0932625	0.0380166	-15.3594	-14.7333	2.48137	3.64599	-0.943587	-0.0232973	0.911385	0.0104834	0.0955469	-0.067163	2.47896	1.06679	0.0711709	0.753622	0.0202021	0.0702065	0.039809
4.70865	48.4046	5.60803	17.3269	-142.515	-351.244	-35.9185	65.914	35.3216	-7.4305	45.5362	82.6919	-16.0636	0.0401229	-35.6161	-6.01282	0.246133	16.0904	-3.06354	0.201026	0.0387802	-22.7083	-9.03474	3.16922	4.06133	-1.8718	-0.0682724	0.929973	0.00386956	0.0964359	-0.0949955	2.84809	2.03206	0.120024	0.876679	0.0283062	0.0760025	0.0642503
4.71863	56.7534	5.10533	16.4087	-148.246	-303.724	0.287703	67.4778	30.1288	-6.79425	45.1479	81.736	-16.0573	0.0450091	-28.5878	-4.61842	0.345949	13.7403	-4.16412	0.291101	0.0364548	-27.7778	-4.95415	3.59344	4.21954	-2.49718	-0.099664	0.902878	-0.00144646	0.092325	-0.112937	2.99387	2.68612	0.152308	0.924992	0.0330741	0.0757472	0.0809754
4.72862	65.6965	6.3418	14.6247	-148.539	-276.381	22.7917	68.6265	26.1078	-6.40445	44.6645	79.7531	-15.7225	0.0481057	-20.4376	-4.07712	0.452368	11.5381	-5.55587	0.349314	0.0314822	-31.4868	-2.04594	3.79238	4.17791	-2.87768	-0.120104	0.838362	-0.00576564	0.0838254	-0.122634	2.9768	3.08926	0.171186	0.914495	0.035135	0.0704931	0.0912267
4.73861	73.9257	8.92458	12.2869	-144.734	-261.746	35.5931	69.5632	23.0646	-6.24023	43.9088	76.6945	-15.0526	0.0493251	-12.2152	-3.98451	0.526616	9.98126	-7.21281	0.353325	0.024698	-34.6995	0.112754	3.80163	3.98821	-3.06257	-0.131772	0.744027	-0.00933117	0.0714778	-0.125413	2.8524	3.2924	0.179294	0.859399	0.0350206	0.061174	0.0959569
4.74859	82.0823	12.194	9.9529	-128.701	-259.445	37.7965	69.1542	20.9898	-6.27127	42.8364	72.5084	-14.0646	0.0491269	-4.6039	-4.13699	0.491692	9.47545	-9.08009	0.276106	0.0174925	-34.146	0.991808	3.71244	3.75705	-3.09953	-0.135772	0.671313	-0.0111703	0.0633549	-0.125379	2.66598	3.34617	0.181062	0.804597	0.034342	0.054686	0.0976673
4.75858	89.9321	15.5136	7.64494	-102.945	-264.303	32.9921	67.67	19.6176	-6.43266	41.2514	67.2548	-12.8149	0.0473425	2.24878	-4.02922	0.294361	10.0658	-11.0694	0.104777	0.0111443	-30.6887	1.05916	3.47849	3.50614	-3.01171	-0.13335	0.621201	-0.0115191	0.0591853	-0.122639	2.47527	3.27407	0.177924	0.762416	0.0334489	0.0518478	0.0962126
4.76857	97.6189	18.2445	5.54758	-67.2715	-273.922	23.136	64.9219	18.7523	-6.63163	39.0219	61.052	-11.3801	0.0440253	8.40294	-3.21107	-0.106374	11.6683	-13.0569	-0.16494	0.00621985	-24.1314	0.405334	3.12674	3.26829	-2.82227	-0.125305	0.604101	-0.0102947	0.0603809	-0.118108	2.30881	3.1001	0.171348	0.745138	0.0327616	0.0541075	0.0921156
4.77856	103.286	19.814	3.34472	-33.282	-279.899	14.8515	62.2515	17.9026	-6.77496	35.935	54.1577	-9.86232	0.038303	13.9282	-1.09848	-0.704015	14.0406	-14.9106	-0.524846	0.00280302	-19.16	0.315974	2.46429	2.9657	-2.51926	-0.112686	0.568069	-0.00891236	0.058174	-0.107841	2.21516	2.80934	0.159252	0.727438	0.0312357	0.0558241	0.0826633
4.78854	106.607	19.9338	1.136	-2.38422	-281.254	9.05753	59.5337	16.9423	-6.7909	32.0276	46.8379	-8.34826	0.0300859	18.8966	2.33418	-1.48862	17.0066	-16.5112	-0.969685	0.000850676	-16.1299	0.88118	1.47038	2.60057	-2.11376	-0.0962531	0.510639	-0.00755403	0.0521051	-0.0920488	2.20679	2.41048	0.14216	0.710679	0.0289424	0.0568835	0.0680167
4.79853	107.54	18.5382	-0.915043	24.1923	-278.172	5.79315	56.6575	15.8117	-6.63853	27.3777	39.3999	-6.91164	0.0195341	23.4596	6.89305	-2.42912	20.3464	-17.7674	-1.4884	0.000258936	-15.1291	1.96588	0.176326	2.18409	-1.62943	-0.0772618	0.432006	-0.00639858	0.0421957	-0.0718109	2.27721	1.92447	0.121126	0.693823	0.0259985	0.0570015	0.0492008
4.80852	106.532	15.8081	-2.59758	44.0917	-270.772	4.16769	53.8653	14.4605	-6.34118	22.0012	32.1722	-5.60785	0.00712498	27.9155	12.1499	-3.47913	23.7565	-18.6198	-2.0655	0.000861251	-16.3857	3.2381	-1.34347	1.73642	-1.09655	-0.0572313	0.332766	-0.0056603	0.0284209	-0.048706	2.40667	1.37948	0.0973681	0.671634	0.022454	0.055296	0.0278289
4.81851	103.735	12.0817	-3.65636	57.9939	-260.504	3.51136	51.0413	12.9171	-5.91399	16.0221	25.4643	-4.47052	-0.00662426	32.1191	17.7015	-4.5743	27.08	-19.056	-2.67633	0.00244119	-19.3104	4.39344	-2.90241	1.29808	-0.557704	-0.0374781	0.224468	-0.00524827	0.0125482	-0.0250604	2.55542	0.817495	0.072489	0.641081	0.0184958	0.0516573	0.0060819
4.82849	99.5177	7.67692	-3.96343	65.3648	-248.041	4.17948	48.3794	11.0942	-5.37187	9.54875	19.5478	-3.51851	-0.0211675	36.0055	23.201	-5.64683	30.1322	-19.0967	-3.28898	0.00464885	-23.7049	5.42069	-4.33663	0.899957	-0.0504392	-0.0191252	0.114278	-0.00514949	-0.00438695	-0.00251922	2.69294	0.277373	0.0477849	0.598398	0.0142308	0.0456933	-0.0144144
4.83848	94.389	2.95521	-3.56566	65.6938	-233.781	6.70621	46.167	8.97739	-4.77324	2.71534	14.6219	-2.75347	-0.03603	39.493	28.3906	-6.63422	32.7725	-18.796	-3.86587	0.00718062	-29.3641	6.45289	-5.51017	0.568009	0.393618	-0.00303299	0.0089832	-0.00532391	-0.0213889	0.0176746	2.79905	-0.20618	0.0244473	0.542479	0.00980067	0.0373412	-0.032438
4.84847	90.6955	-1.10316	-2.06037	68.3566	-223.384	7.9386	43.5195	7.05948	-4.14989	-4.19219	10.7391	-2.15813	-0.049701	42.5113	32.9373	-7.5121	35.0272	-18.2275	-4.3708	0.0097377	-32.1621	6.37125	-5.99193	0.428918	0.699585	0.0100623	-0.0315855	-0.00445709	-0.0288657	0.0298933	2.81326	-0.54991	0.00670087	0.497597	0.00644829	0.031731	-0.0436422
4.85846	88.9847	-4.10821	0.209777	74.2735	-216.759	8.59212	40.6048	5.46472	-3.57207	-10.9616	7.90341	-1.71987	-0.0615879	44.9492	36.7879	-8.25197	36.8838	-17.4683	-4.77381	0.0120874	-31.6724	5.40544	-5.81498	0.474479	0.85259	0.0194294	-0.00622277	-0.00259663	-0.026276	0.0339213	2.75208	-0.732785	-0.00403281	0.473467	0.00457919	0.0301967	-0.0478882
4.86844	87.7509	-6.52584	2.38475	76.4604	-209.065	11.9905	38.3281	3.93472	-3.16307	-17.3779	6.05312	-1.41993	-0.0717287	46.6717	40.0581	-8.82043	38.2786	-16.5874	-5.05902	0.0141705	-30.9047	4.85424	-5.42119	0.578969	0.898842	0.0245184	0.0324341	-0.00102959	-0.0215411	0.0342457	2.68711	-0.801051	-0.00948309	0.460341	0.00363447	0.0298145	-0.048605
4.87843	86.9455	-8.02799	4.32132	79.8573	-202.088	16.9555	35.8154	2.72735	-2.91585	-22.9316	4.95186	-1.21803	-0.0780615	47.535	42.6827	-9.22692	39.3177	-15.639	-5.22657	0.015926	-28.4219	4.36299	-4.72468	0.760575	0.832261	0.0257797	0.0990144	0.000678898	-0.0121106	0.0299119	2.59843	-0.747553	-0.00917722	0.464565	0.00387858	0.0321779	-0.0452352
4.88842	85.9724	-8.53337	5.804	87.4187	-196.42	23.035	32.3049	1.89297	-2.75109	-27.1241	4.32039	-1.07438	-0.0785078	47.4961	44.6464	-9.49356	40.0674	-14.6551	-5.28918	0.0172949	-23.7377	3.84281	-3.72889	1.0077	0.665535	0.0239729	0.194225	0.00267982	0.00232563	0.0213363	2.47675	-0.58545	-0.00376547	0.485793	0.00524676	0.0375798	-0.0382739
4.89841	84.7518	-7.92646	6.68601	102.572	-193.07	29.6033	27.2244	1.4638	-2.57051	-29.6049	3.91715	-0.958072	-0.0724969	46.5114	45.9249	-9.65159	40.617	-13.6485	-5.27093	0.0182785	-16.0168	3.17236	-2.42977	1.31696	0.41739	0.0204092	0.324336	0.00532174	0.0228995	0.00904512	2.31914	-0.335103	0.00583182	0.527875	0.00773017	0.047038	-0.0285439
4.90839	82.4489	-6.836	6.69715	118.326	-188.303	37.0667	21.6126	1.24808	-2.47542	-30.4567	3.63457	-0.847875	-0.0625475	44.7943	46.555	-9.71485	40.9152	-12.6136	-5.203	0.0189636	-8.0883	2.91061	-1.21302	1.59244	0.147755	0.0153286	0.445135	0.00757912	0.0426026	-0.00325304	2.17669	-0.0606349	0.0170265	0.575877	0.0105567	0.0571289	-0.0188398
4.91838	75.8121	-5.9336	5.94704	119.437	-174.64	43.124	17.13	1.27631	-2.70322	-30.0472	3.43804	-0.724786	-0.0520814	42.5928	46.4643	-9.67512	40.9073	-11.5385	-5.11899	0.0194861	-6.67296	3.07465	-0.500528	1.70592	-0.0959953	0.00615492	0.47062	0.00702362	0.0473002	-0.0125264	2.04366	0.189301	0.0270747	0.569687	0.0118941	0.05676	-0.00949766
4.92837	66.8151	-5.06345	4.61836	106.804	-153.146	46.4492	14.1284	1.63135	-3.25333	-28.7615	3.27333	-0.584399	-0.0425829	40.474	45.6618	-9.55404	40.4982	-10.4091	-5.03887	0.0198419	-10.8203	3.52576	-0.247841	1.70714	-0.288855	-0.004919	0.424663	0.0044438	0.0402053	-0.01864	1.94743	0.388966	0.0350152	0.524266	0.0119179	0.0483487	-0.00135592
4.93835	58.7505	-3.72911	2.61625	95.7615	-130.089	48.2554	11.52	2.20504	-3.88874	-26.6878	3.0526	-0.431683	-0.0336149	37.7602	44.2716	-9.38073	40.0177	-9.24424	-4.96896	0.0202221	-14.1067	4.30436	-0.155659	1.74372	-0.416615	-0.0122872	0.402186	0.0027826	0.0360414	-0.0224657	1.9576	0.522101	0.0409367	0.511493	0.0122693	0.0443222	0.00331222
4.94834	50.9623	-2.05735	0.182153	81.0107	-103.212	47.4148	9.36375	3.1032	-4.51679	-24.2537	2.75706	-0.274523	-0.0252641	35.3498	42.5687	-9.16524	39.3265	-8.03955	-4.9023	0.0206805	-18.6956	5.24993	-0.206148	1.81657	-0.478878	-0.0166332	0.38674	0.00150636	0.0315799	-0.023986	2.05629	0.589423	0.0441392	0.510059	0.0123241	0.0409147	0.00527487
4.95833	45.6546	0.386874	-2.25437	71.2024	-77.1861	45.2287	6.61983	4.34706	-4.91925	-21.5044	2.35302	-0.124449	-0.0169654	33.4675	40.8847	-8.93397	38.5236	-6.79379	-4.83003	0.0211514	-20.76	5.97476	0.0396459	2.05067	-0.518827	-0.0161548	0.440911	0.00231522	0.0364305	-0.026049	2.22273	0.635432	0.0461538	0.550039	0.0130122	0.0439968	0.00570793
4.96832	38.7468	2.66177	-4.72207	52.1908	-46.9688	40.1864	4.00219	5.81439	-5.15578	-18.9551	1.88302	0.0120205	-0.00913238	32.9991	39.473	-8.68021	37.3327	-5.48871	-4.7506	0.0216318	-26.953	6.78816	0.209678	2.25739	-0.506078	-0.0146438	0.459041	0.00232598	0.0343704	-0.0258075	2.37164	0.628906	0.0443031	0.549055	0.0121579	0.0400011	0.00531953
4.9783	33.7769	4.8351	-6.53316	36.4646	-20.3054	35.0714	1.37051	7.1238	-5.14853	-16.4697	1.38006	0.12355	-0.00227132	32.947	38.4004	-8.4229	36.0945	-4.13072	-4.67131	0.0220863	-31.4292	7.3566	0.531143	2.52724	-0.471221	-0.0101664	0.510568	0.00347987	0.0370733	-0.0255509	2.53094	0.599731	0.04119	0.564575	0.0114998	0.0391306	0.00399218
4.98829	30.345	6.63357	-7.66307	22.5604	2.55259	30.2007	-1.10978	8.17136	-4.91245	-14.14	0.883039	0.203806	0.00336415	33.3416	37.7238	-8.1629	34.8122	-2.70779	-4.60102	0.0225153	-34.8297	7.78573	0.894493	2.81461	-0.413222	-0.00373873	0.577117	0.00525706	0.0420751	-0.0248159	2.69276	0.546112	0.0369171	0.588074	0.0108877	0.0399755	0.00175023
4.99828	28.0499	7.89414	-8.0816	8.83949	21.7592	25.0755	-3.3462	8.92817	-4.47062	-12.0066	0.422093	0.25033	0.00774337	34.27	37.4219	-7.89312	33.4756	-1.1991	-4.55358	0.0228991	-37.8775	8.01917	1.21304	3.08909	-0.329397	0.0038325	0.644249	0.00723048	0.0473074	-0.0233887	2.85063	0.465278	0.0315297	0.611431	0.0101587	0.0411382	-0.00119197
5.00827	26.7746	8.48106	-7.54447	-6.78513	35.6679	18.9849	-5.26869	9.3494	-3.79065	-9.3856	-0.493644	0.29887	0.0108711	35.8013	37.4289	-7.60416	32.078	0.419157	-4.54495	0.0232384	-41.1515	7.92329	1.42056	3.33304	-0.220814	0.0117325	0.702191	0.00906494	0.0513441	-0.0213907	3.0014	0.358747	0.0253482	0.629423	0.00924505	0.0416382	-0.00441143
5.01825	26.8893	8.55852	-6.50944	-16.8113	45.8038	14.7341	-6.91511	9.19108	-3.03266	-7.93503	-0.555293	0.253909	0.0122938	37.151	37.6196	-7.32929	30.7821	2.16808	-4.5953	0.0234175	-42.4075	7.71631	1.67966	3.57742	-0.110728	0.0206298	0.775711	0.0114819	0.0584394	-0.0194712	3.14121	0.249087	0.0192221	0.659759	0.0087033	0.0448846	-0.00807558
5.02824	28.2108	8.09054	-4.94422	-22.8686	49.2554	12.6365	-8.42119	8.49067	-2.17235	-6.42191	-0.550684	0.187231	0.0121288	38.2634	37.987	-7.08253	29.6037	4.07156	-4.71853	0.0234817	-41.8957	7.53074	1.94982	3.81141	-0.00639777	0.0298222	0.859389	0.0142622	0.0678478	-0.0176176	3.27751	0.14344	0.013636	0.702618	0.00859296	0.0506867	-0.0121032
5.03823	30.3682	7.1256	-3.06445	-24.9496	46.3749	13.0298	-9.89864	7.32718	-1.26101	-4.82889	-0.493871	0.105559	0.0106438	39.0394	38.5386	-6.87889	28.5647	6.15372	-4.92837	0.0234914	-39.729	7.46256	2.22131	4.02993	0.0871461	0.0389647	0.950555	0.0172999	0.0791991	-0.0158048	3.41277	0.0467737	0.00881627	0.757754	0.00893281	0.0589091	-0.0164726
5.04822	32.9828	5.72684	-1.1015	-22.5901	37.4508	16.4614	-11.5013	5.77084	-0.349372	-3.1323	-0.401287	0.0154266	0.00816114	39.3247	39.3009	-6.73794	27.6978	8.43687	-5.2374	0.0235187	-35.869	7.61617	2.50563	4.23094	0.164234	0.0478668	1.04843	0.0205583	0.0924215	-0.0140252	3.54649	-0.0352866	0.00492575	0.825228	0.00974366	0.0695471	-0.021192
5.0582	35.7824	3.99706	0.735958	-15.0552	22.6963	23.5502	-13.3827	3.88994	0.518965	-1.31767	-0.290767	-0.0773926	0.00505847	38.9699	40.3016	-6.6803	27.0238	10.9453	-5.65817	0.0235419	-30.1398	8.07132	2.82584	4.4144	0.216595	0.0563028	1.15362	0.0240312	0.107688	-0.012394	3.67654	-0.0945121	0.00224627	0.905858	0.0110832	0.0827576	-0.0261937
5.06819	36.55	2.0943	2.03136	-9.55793	7.65304	29.8721	-15.8006	2.37364	1.27219	0.553905	-0.205641	-0.152216	0.00220531	38.7508	41.5868	-6.65425	26.4111	13.7058	-6.19869	0.0236603	-26.0679	8.54269	2.95263	4.52576	0.25739	0.0619114	1.2235	0.0263478	0.118003	-0.0108253	3.78988	-0.141829	0.000607608	0.968224	0.0121821	0.0927017	-0.0301286
5.07818	35.9396	0.141606	3.08298	-7.43105	-7.06702	34.235	-18.4645	1.37373	1.86883	2.38838	-0.149085	-0.202153	-0.000312918	39.0107	43.1917	-6.64429	25.75	16.7424	-6.86591	0.0237875	-23.91	8.73767	2.89203	4.57386	0.284258	0.0643869	1.25842	0.0274525	0.123298	-0.00991368	3.87976	-0.17353	0.000307369	1.00974	0.0130229	0.0989339	-0.0323353
5.08816	33.9857	-1.67314	3.9095	-8.32307	-21.3337	36.188	-21.3616	1.05103	2.28166	4.2301	-0.128983	-0.219874	-0.0024014	39.6992	45.0907	-6.63418	25.065	20.0574	-7.65849	0.0239566	-23.6014	8.51945	2.6741	4.5668	0.291894	0.0635727	1.26078	0.0273768	0.123929	-0.0101242	3.93775	-0.183461	0.00161855	1.02959	0.0136339	0.10141	-0.0323611
5.09815	33.0196	-3.2139	4.38738	3.74657	-44.6657	45.8763	-24.7367	0.269723	2.58238	6.36502	-0.118561	-0.235511	-0.00447775	38.6534	47.0792	-6.76353	24.7638	23.6279	-8.57481	0.0240019	-18.3021	8.69522	2.81329	4.59986	0.232594	0.063275	1.30788	0.0285887	0.132828	-0.011705	3.96981	-0.128288	0.00528943	1.08288	0.0154454	0.110672	-0.0325619
5.10814	30.9649	-4.55113	4.3666	12.2598	-66.7514	54.6172	-28.3769	0.150932	2.70909	8.52788	-0.164104	-0.220314	-0.00553099	38.1491	49.4016	-6.91005	24.423	27.4658	-9.59986	0.0241951	-14.6321	8.87906	2.72163	4.56858	0.150026	0.0593231	1.32148	0.0285435	0.137058	-0.0139808	4.00185	-0.0480467	0.0111355	1.1241	0.0172869	0.117304	-0.0312163
5.11813	27.9564	-5.39827	4.03795	16.7325	-87.2245	60.3627	-32.2274	0.884582	2.68499	10.7341	-0.275789	-0.170759	-0.00527078	38.317	51.9727	-7.01672	24.0491	31.5665	-10.7232	0.0243709	-12.8375	8.68688	2.48338	4.49615	0.0561639	0.0527109	1.30726	0.0274814	0.137104	-0.0171707	4.01313	0.0460876	0.0181839	1.14639	0.0188772	0.120507	-0.0280531
5.12811	26.1168	-5.2534	3.54973	27.3538	-112.208	68.34	-36.3553	1.92964	2.57476	13.1184	-0.447134	-0.102319	-0.00362905	37.935	54.5633	-7.13828	23.889	35.8989	-11.9326	0.0244086	-8.26074	8.26757	2.5308	4.47824	-0.0711723	0.0471524	1.32788	0.0274306	0.142899	-0.0215644	4.0029	0.17369	0.0261445	1.18683	0.0210566	0.127526	-0.0247073
5.1381	16.5821	-6.47567	1.50319	0.523444	-117.734	61.0152	-39.6035	4.25793	2.24465	15.0114	-0.664565	-0.00120163	-0.000665945	41.6183	57.5445	-7.01747	22.9146	40.4788	-13.2106	0.0246427	-20.1769	8.98556	1.17718	4.07017	-0.0925491	0.0308962	1.11153	0.0203135	0.111404	-0.0217976	3.94215	0.201636	0.0313912	1.07295	0.019295	0.106304	-0.018095
5.14809	7.95719	-7.33525	0.146791	-22.9809	-126.191	50.8602	-43.046	6.63965	1.965	16.9839	-0.922256	0.0992061	0.00353713	45.1455	60.3467	-6.79941	22.2102	45.1852	-14.5248	0.0246401	-30.8089	8.43239	0.127554	3.74164	-0.121848	0.016253	0.927912	0.0141555	0.0845944	-0.0241476	3.82682	0.238958	0.036375	0.959283	0.0175678	0.086185	-0.00992871
5.15808	1.55572	-7.94442	-1.06721	-38.9843	-140.443	43.938	-46.5331	8.32111	1.71723	18.9903	-1.19736	0.176612	0.00875241	47.9541	62.7504	-6.59039	21.8558	49.9083	-15.8507	0.0246753	-37.5044	7.74961	-0.639388	3.48572	-0.161362	0.0046348	0.795793	0.00965502	0.0660526	-0.0267438	3.72234	0.28413	0.0412898	0.880328	0.0166572	0.0726062	-0.00317213
5.16806	-2.36097	-8.34651	-2.3346	-50.2846	-158.768	40.1667	-49.8524	9.20544	1.48675	20.9026	-1.47919	0.22667	0.0147935	50.4705	64.6728	-6.38812	21.7926	54.5457	-17.1622	0.0249017	-40.8609	7.31988	-1.24728	3.28462	-0.190689	-0.00359701	0.707127	0.00664793	0.0543769	-0.0283494	3.66173	0.316017	0.0454276	0.838072	0.0164625	0.0653946	0.00103992
5.17805	-3.61199	-8.47953	-3.66005	-58.55	-179.786	38.8362	-52.7987	9.26716	1.26919	22.592	-1.75431	0.248221	0.0213434	52.9465	66.0175	-6.17502	21.9938	58.9884	-18.4323	0.0254111	-41.3446	7.21896	-1.71093	3.13855	-0.19256	-0.00766508	0.659658	0.00516546	0.0489343	-0.0282642	3.6502	0.3171	0.0477584	0.828992	0.0167402	0.0639076	0.0021147
5.18804	-2.03458	-8.26611	-4.96134	-64.5849	-202.365	39.3197	-55.1633	8.54088	1.05857	23.943	-2.00774	0.243197	0.0280048	55.4982	66.7024	-5.94043	22.446	63.1227	-19.6304	0.0262691	-39.2547	7.40928	-2.03038	3.0469	-0.155742	-0.00705626	0.651603	0.00522637	0.0492821	-0.0261198	3.68486	0.276085	0.047568	0.849158	0.0172967	0.0675492	-0.000222371
5.19803	2.57128	-7.60832	-6.11649	-68.5359	-225.528	41.3626	-56.7251	7.1168	0.849501	24.8498	-2.22424	0.215557	0.0343538	58.1345	66.6937	-5.6954	23.1334	66.8341	-20.7211	0.0275172	-34.7023	7.85989	-2.20472	3.00485	-0.0730621	-0.00143639	0.68093	0.00683316	0.0550696	-0.0216353	3.76042	0.18562	0.0443621	0.895369	0.0179941	0.0758966	-0.0061916
5.20801	10.308	-6.32898	-7.00794	-69.8674	-248.465	45.2283	-57.2962	5.13635	0.641319	25.23	-2.3893	0.170239	0.0399559	60.7194	66.0063	-5.47482	24.0423	70.0109	-21.6619	0.0292072	-27.6288	8.58797	-2.18625	3.01099	0.0561823	0.00951609	0.747219	0.0100356	0.0662276	-0.0146721	3.86247	0.0447302	0.0376958	0.963345	0.0186847	0.0884936	-0.0158964
5.218	21.2954	-4.20454	-7.49195	-66.9538	-270.752	51.9683	-56.7349	2.73984	0.437302	25.0294	-2.49043	0.111699	0.0444138	62.9241	64.688	-5.34116	25.1601	72.5488	-22.4048	0.0314217	-17.5869	9.62586	-1.88871	3.06997	0.221652	0.0259147	0.853966	0.0149567	0.0833953	-0.00540347	3.97446	-0.136571	0.0275803	1.0518	0.019357	0.105434	-0.0292646
5.22799	35.3239	-1.0403	-7.47641	-58.1298	-291.616	62.6593	-55.053	0.123379	0.253796	24.2587	-2.52096	0.0464502	0.0473926	64.3782	62.8358	-5.36745	26.4534	74.3599	-22.8998	0.0342155	-4.26582	11.0049	-1.22629	3.18497	0.409282	0.0475828	1.00284	0.0216369	0.106935	0.00584374	4.0767	-0.344261	0.0142102	1.15779	0.0199889	0.126521	-0.0459983
5.23797	51.7116	3.32312	-6.9088	-42.1555	-309.629	77.6727	-52.4518	-2.40945	0.121003	23.0042	-2.47932	-0.0155669	0.0485528	64.7564	60.589	-5.61451	27.8563	75.3788	-23.1004	0.0375966	12.2192	12.656	-0.0965607	3.36323	0.606122	0.0742766	1.19348	0.0300467	0.13674	0.0185361	4.13884	-0.564628	-0.00238153	1.27277	0.0204125	0.150695	-0.0654144
5.24796	58.0832	1.69892	-6.04716	-79.0484	-290.663	64.4243	-47.2659	-3.35576	-0.0924361	20.5365	-2.31333	-0.0567375	0.0466719	70.3061	59.5167	-5.63946	28.0938	75.6554	-22.9764	0.0411286	3.54981	14.6801	-1.8249	2.81917	0.965679	0.0785566	0.984381	0.0260258	0.105866	0.0340533	4.14072	-0.934436	-0.0174088	1.16134	0.0159666	0.13258	-0.0759885
5.25795	63.7554	0.12694	-3.32624	-109.869	-264.501	47.6887	-42.0411	-3.62189	-0.141939	17.8278	-2.07388	-0.0736679	0.0421232	74.7757	58.4022	-5.7505	28.3994	75.0099	-22.4988	0.044066	-5.45921	14.5856	-2.73125	2.41652	1.28768	0.0848037	0.810492	0.0230586	0.0791095	0.0449315	3.9303	-1.25784	-0.0340844	1.00014	0.0103245	0.109149	-0.0815225
5.26794	67.8545	-2.0876	0.0356673	-134.578	-230.449	28.6444	-37.3083	-3.34817	-0.0619766	15.1261	-1.76831	-0.0765123	0.0349812	78.1886	57.1036	-5.94657	28.6952	73.3399	-21.6664	0.0462738	-14.6848	13.1215	-3.57538	2.01375	1.57372	0.088554	0.632399	0.0196815	0.0521539	0.0526605	3.64847	-1.53761	-0.0482573	0.824669	0.00481269	0.0840216	-0.083478
5.27792	71.6338	-4.37102	2.55313	-141.208	-195.392	17.3876	-33.669	-3.55787	0.0566297	12.7644	-1.41566	-0.103693	0.026209	79.01	55.0423	-6.37109	28.9977	70.5416	-20.4942	0.0478882	-18.2696	11.6988	-4.30104	1.62586	1.80848	0.0927058	0.498891	0.0175594	0.0338255	0.0599894	3.41104	-1.76567	-0.0591321	0.705651	0.0011087	0.0686144	-0.0869638
5.28791	72.7768	-7.23936	4.40147	-142.45	-152.635	5.45027	-31.1485	-3.32527	0.213117	10.7997	-1.06535	-0.12749	0.0169395	78.8899	52.6191	-6.80512	29.018	66.6407	-19.0097	0.0480326	-21.9576	9.77927	-5.23235	1.20959	2.00185	0.0929732	0.354471	0.0146628	0.0145782	0.0652523	3.19752	-1.94602	-0.0658229	0.597615	-0.00175961	0.0542035	-0.0882112
5.2979	70.835	-10.0163	5.67753	-140.998	-102.187	-7.24603	-29.6192	-2.61891	0.361835	9.22386	-0.763678	-0.144627	0.00876801	78.0627	49.7495	-7.11182	28.6042	61.684	-17.2613	0.0463066	-26.6319	7.40814	-5.82151	0.882667	2.13322	0.0915152	0.225268	0.0117988	-0.00319368	0.0671555	2.93264	-2.05531	-0.0703996	0.477419	-0.00464181	0.0378438	-0.0857734
5.30789	68.092	-11.3985	5.40938	-125.677	-52.597	-10.6912	-28.9005	-2.34716	0.424792	8.06838	-0.525314	-0.179558	0.00270772	74.9635	45.8012	-7.31622	27.7447	55.7396	-15.3115	0.043059	-26.2879	5.99647	-5.69602	0.721095	2.19087	0.0935448	0.178515	0.0113465	-0.00862068	0.0683729	2.68643	-2.08928	-0.0741427	0.404495	-0.0064011	0.0299106	-0.0848051
5.31787	64.7226	-10.8812	4.08946	-103.44	-2.41267	-7.93969	-28.278	-1.85174	0.400329	7.12913	-0.350638	-0.203844	-0.00146516	70.4442	41.0663	-7.29993	26.1742	49.0249	-13.2338	0.0380191	-23.1877	5.5293	-4.89071	0.734269	2.15591	0.0968022	0.19828	0.0125372	-0.0047605	0.0674773	2.44856	-2.02707	-0.0759785	0.36192	-0.00732154	0.0270064	-0.0831712
5.32786	59.2354	-8.6078	2.36355	-84.6923	51.8935	-5.95419	-27.3826	-0.34781	0.295683	6.30637	-0.239665	-0.190731	-0.00416878	65.6807	35.9759	-6.94508	23.7311	41.858	-11.1158	0.0305403	-21.9172	5.29913	-3.56807	0.899479	2.01029	0.0968286	0.241626	0.0136499	0.00105923	0.0617932	2.17035	-1.84739	-0.0743299	0.30712	-0.00816644	0.0214491	-0.0764871
5.33785	51.7113	-4.98862	0.439871	-70.11	108.214	-4.84446	-26.1528	1.90039	0.132408	5.57087	-0.185335	-0.146292	-0.00556743	60.6358	30.7917	-6.27537	20.461	34.5758	-9.04464	0.0206355	-22.5706	5.18995	-1.82565	1.19427	1.76217	0.0933549	0.301845	0.0145072	0.00802745	0.0515977	1.85893	-1.56318	-0.069354	0.240222	-0.00894274	0.013203	-0.0650502
5.34784	42.3382	-0.721421	-1.54418	-59.639	164.291	-6.00134	-24.6018	4.58268	-0.0524382	4.8821	-0.180527	-0.0796472	-0.00576453	55.3135	25.7103	-5.31994	16.4891	27.5403	-7.11081	0.00852757	-25.1212	4.90307	0.0186767	1.54604	1.45196	0.0864409	0.36098	0.0147547	0.0140859	0.0383778	1.54345	-1.22146	-0.0617854	0.165377	-0.00961856	0.00280811	-0.0503227
5.35782	33.0299	3.3786	-3.97292	-44.9919	214.257	-2.84043	-22.9543	6.60057	-0.235017	4.28036	-0.208396	-0.0225308	-0.00481752	48.7784	20.8097	-4.22396	11.9772	21.0383	-5.38625	-0.00382968	-25.4122	5.34159	1.76775	1.89081	1.13842	0.0802166	0.436041	0.0155189	0.0232624	0.0266314	1.30503	-0.891411	-0.0540039	0.125561	-0.0095044	-0.00228643	-0.0383005
5.36781	23.4223	6.77164	-6.13627	-33.4511	261.175	-1.44937	-21.1802	8.21118	-0.392781	3.68389	-0.260994	0.0310675	-0.00306996	42.4297	16.2224	-3.00698	6.89464	15.4011	-3.95036	-0.0163525	-26.5542	5.56908	3.11708	2.16927	0.844009	0.0721558	0.487819	0.0154964	0.029421	0.0155153	1.12246	-0.591493	-0.0455414	0.0930973	-0.00913854	-0.00706864	-0.0268293
5.3778	14.5706	9.42029	-7.90367	-24.1425	303.717	-2.10826	-19.3829	9.32185	-0.510979	3.10297	-0.33107	0.0775708	-0.000736147	36.6851	11.9833	-1.764	1.32629	10.8461	-2.84676	-0.0289078	-27.8164	5.49636	4.03477	2.36734	0.605656	0.06438	0.520293	0.0151028	0.0333018	0.00648818	0.999848	-0.358235	-0.0381389	0.0714762	-0.00865561	-0.0105679	-0.0175456
5.38778	7.59688	11.3551	-9.2136	-14.8101	340.318	-3.63349	-17.7047	9.84028	-0.577943	2.57772	-0.412802	0.113657	0.00199492	31.6997	8.17317	-0.625337	-4.57671	7.46877	-2.08094	-0.0413401	-27.9041	5.25529	4.60052	2.49563	0.445317	0.0592204	0.547791	0.0150193	0.037154	0.00066797	0.9386	-0.212134	-0.0332102	0.0686136	-0.00805382	-0.0109988	-0.0119845
5.39777	3.10013	12.602	-9.84941	-4.23382	370.509	-5.46515	-16.2839	9.82118	-0.581442	2.14547	-0.503651	0.140036	0.00497496	27.5874	4.93953	0.262943	-10.5954	5.24454	-1.62228	-0.0534569	-26.194	4.81575	4.93927	2.57965	0.362807	0.057693	0.582224	0.015659	0.0426633	-0.00209945	0.924715	-0.149643	-0.0311053	0.0858969	-0.00734037	-0.00778027	-0.010179
5.40776	1.36917	13.1267	-9.63466	10.3904	393.603	-6.44716	-15.3046	9.28844	-0.504219	1.85308	-0.602167	0.156355	0.00810371	24.0088	2.38723	0.781662	-16.3933	4.01697	-1.40789	-0.0644975	-21.6826	4.17798	5.16739	2.64516	0.343962	0.0601241	0.637511	0.0173962	0.0520357	-0.00244502	0.949817	-0.153825	-0.0312532	0.130036	-0.00627121	0.000445825	-0.0118436
5.41775	2.28196	12.818	-8.42626	32.7222	409.015	-5.3934	-14.9829	8.2258	-0.322751	1.74163	-0.706341	0.160726	0.0112957	20.2597	0.523148	0.900789	-21.5181	3.52329	-1.3545	-0.0728383	-13.2866	3.29811	5.35878	2.7132	0.363263	0.0659264	0.726077	0.0204462	0.0674335	-0.00151889	1.01215	-0.196767	-0.0321205	0.211158	-0.00439093	0.0154159	-0.0162263
5.42773	4.04943	11.7056	-5.93655	57.1774	420.278	-5.65999	-15.2284	6.84767	-0.0439127	1.71882	-0.810446	0.155937	0.0144118	16.5433	-0.816861	0.717087	-25.5452	3.48179	-1.38399	-0.0770905	-3.88816	1.51655	5.46255	2.78472	0.382058	0.0710943	0.822836	0.0235875	0.0845081	-0.00206458	1.07769	-0.234386	-0.0312873	0.303408	-0.00197691	0.0322458	-0.0194844
5.43772	2.86256	9.85063	-2.81926	65.1172	435.573	-11.4903	-15.2801	5.34478	0.248067	1.46906	-0.891711	0.14339	0.0170985	14.3394	-1.76031	0.350667	-28.3707	3.68205	-1.43777	-0.0776277	-1.46418	-0.829192	5.16849	2.76005	0.401661	0.0703822	0.836489	0.0238718	0.0879854	-0.00381634	1.09687	-0.264124	-0.0293979	0.330565	-0.00093879	0.0371047	-0.0186196
5.44771	-1.31944	8.00588	-0.0288984	58.7434	454.504	-20.7607	-15.385	4.01683	0.534794	1.12083	-0.957725	0.128031	0.0193588	13.3192	-2.45513	-0.0788424	-29.8621	3.92881	-1.46788	-0.0748145	-5.11767	-3.10326	4.63445	2.68146	0.422145	0.0657453	0.786888	0.0220045	0.0804968	-0.00574746	1.09765	-0.288286	-0.0275157	0.305778	-0.00119925	0.0320461	-0.0153224
5.4577	-4.44686	7.01634	2.30757	55.2425	470.877	-29.4653	-16.3476	3.12117	0.86974	1.00815	-1.03061	0.113958	0.02139	12.2644	-3.04018	-0.502641	-29.9137	4.07812	-1.44113	-0.0692597	-7.13343	-5.3799	4.31826	2.73524	0.41062	0.0621184	0.78744	0.0212519	0.0796933	-0.00943391	1.17587	-0.277022	-0.0236896	0.32015	-0.00048557	0.0323037	-0.011933
5.46768	-8.29062	6.07608	3.75926	48.5829	488.069	-36.516	-17.1287	2.42017	1.1469	0.895484	-1.08874	0.100461	0.0229897	10.791	-3.38437	-0.849727	-28.8748	4.06956	-1.35442	-0.0617824	-10.4425	-6.75883	3.81805	2.79816	0.415681	0.0586051	0.783586	0.0202729	0.0774096	-0.0115872	1.35103	-0.280733	-0.0198968	0.349486	0.000369574	0.0333009	-0.0103089
5.47767	-14.5317	5.01686	4.13765	35.5256	508.068	-41.2401	-17.0192	1.94357	1.29083	0.61918	-1.12002	0.0941418	0.0239657	8.38685	-3.45167	-1.02473	-27.0627	3.8667	-1.21715	-0.0525074	-16.9833	-6.87282	3.02905	2.79792	0.450038	0.0543267	0.739944	0.0181986	0.0683949	-0.0108439	1.58613	-0.312347	-0.0174218	0.365549	0.000593851	0.0306535	-0.0105905
5.48766	-22.9148	3.89067	3.64224	15.915	530.424	-43.2732	-15.9206	1.72491	1.28971	0.159502	-1.12487	0.0985611	0.0243111	5.30727	-3.23565	-1.00647	-24.844	3.48404	-1.04636	-0.0419523	-26.6559	-5.90698	2.04857	2.73003	0.499276	0.048917	0.654562	0.0149868	0.0525645	-0.00772082	1.84133	-0.357486	-0.0161925	0.359041	4.39977e-05	0.0234044	-0.012015
5.49765	-29.2722	3.15834	2.64844	3.25393	548.02	-42.5403	-14.8964	1.77992	1.2281	-0.16371	-1.13032	0.109553	0.0244815	1.61908	-2.9407	-0.846714	-22.2146	2.94879	-0.852241	-0.0308246	-32.9397	-4.58282	1.22326	2.72387	0.536087	0.0455805	0.613774	0.0131039	0.0438924	-0.00470523	2.14615	-0.390754	-0.0141054	0.393844	0.000522799	0.0229921	-0.0149609
5.50763	-33.8627	2.69766	1.55475	-4.02844	561.205	-40.212	-13.9833	2.06534	1.1219	-0.375417	-1.13807	0.126169	0.0245496	-2.27714	-2.59149	-0.579381	-19.4196	2.31901	-0.656086	-0.0198964	-36.5335	-3.32698	0.513051	2.75919	0.539205	0.0422084	0.604034	0.0119684	0.0405757	-0.00310704	2.46982	-0.39037	-0.00983402	0.458087	0.00199513	0.0275648	-0.0175972
5.51762	-36.8694	2.43343	0.559303	-7.35325	570.241	-36.9883	-13.2162	2.49704	0.99048	-0.496839	-1.14838	0.146124	0.0245619	-6.03243	-2.24003	-0.237439	-16.6309	1.65633	-0.476378	-0.00989053	-38.02	-2.33123	-0.113008	2.81997	0.498694	0.037599	0.614957	0.0111883	0.0411514	-0.00352054	2.79311	-0.346444	-0.00281358	0.542682	0.00436095	0.0356852	-0.0189497
5.52761	-38.4797	2.288	-0.245785	-7.8629	575.293	-33.2928	-12.6269	2.96877	0.855148	-0.546398	-1.16057	0.166487	0.0245514	-9.3956	-1.9441	0.152982	-13.954	1.0176	-0.326725	-0.00140738	-37.8894	-1.66307	-0.685045	2.89224	0.414024	0.0312183	0.638296	0.0105075	0.0443951	-0.00603051	3.10468	-0.258719	0.00696608	0.640509	0.00747498	0.0462227	-0.0186466
5.53759	-38.7026	2.30487	-1.08112	-7.13359	573.86	-29.7054	-12.2175	3.40648	0.734034	-0.544066	-1.17343	0.185396	0.0245227	-12.2533	-1.78799	0.628425	-10.4553	-0.223265	-0.107219	0.00511008	-36.4779	-1.32265	-1.2253	2.96638	0.292725	0.0231648	0.668959	0.00982453	0.049487	-0.0103552	3.39899	-0.135109	0.0190521	0.746609	0.0111681	0.0584168	-0.0167939
5.54758	-37.8073	2.30112	-1.48649	-3.70574	572.268	-26.0599	-11.992	3.75829	0.640219	-0.504748	-1.18591	0.201345	0.0244775	-14.3395	-1.76776	1.05942	-8.609	-0.418689	-0.0898874	0.00948483	-34.0163	-1.25236	-1.7309	3.03754	0.149399	0.0141748	0.704592	0.00918728	0.0559364	-0.0158943	3.6699	0.00933707	0.0324485	0.856093	0.0151951	0.0716176	-0.0138763
5.55757	-35.9023	2.26406	-1.77555	-0.124889	567.043	-22.5445	-11.772	3.94351	0.573321	-0.487529	-1.19303	0.212817	0.0243734	-15.7387	-1.82778	1.44483	-6.87343	-0.52578	-0.0901344	0.0117368	-31.0982	-1.30663	-2.20681	3.09626	0.00339419	0.00511844	0.739192	0.00857247	0.062584	-0.0216935	3.91163	0.155008	0.0457725	0.960825	0.0191732	0.084593	-0.0106045
5.56756	-33.5526	2.20522	-1.98453	3.88859	558.469	-19.2488	-11.6661	3.96649	0.539288	-0.459014	-1.196	0.21878	0.0242246	-16.6574	-1.91197	1.7563	-5.18814	-0.55705	-0.101179	0.0120565	-27.9517	-1.40711	-2.59894	3.14306	-0.130237	-0.00291545	0.771915	0.00811545	0.0690884	-0.0270807	4.10798	0.286782	0.0576595	1.05305	0.0227459	0.096395	-0.00750375
5.57754	-30.8584	2.1334	-2.09702	8.4226	546.758	-16.2231	-11.6391	3.81717	0.534829	-0.434622	-1.19398	0.218579	0.0240397	-17.1694	-1.9719	1.97347	-3.55818	-0.522268	-0.11817	0.0106301	-24.6462	-1.5184	-2.84793	3.18365	-0.242265	-0.00907116	0.804265	0.00796961	0.0755008	-0.0316908	4.24557	0.395724	0.0671652	1.12769	0.0256728	0.106454	-0.00487775
5.58753	-28.4323	1.9191	-2.01634	12.2363	533.121	-13.2876	-11.5538	3.47848	0.547771	-0.448944	-1.18483	0.212177	0.02382	-17.412	-1.88975	2.07838	-2.01734	-0.438174	-0.134636	0.00782558	-21.9143	-1.61272	-2.95235	3.20628	-0.327282	-0.0133361	0.827348	0.00793325	0.0803117	-0.0351223	4.31147	0.477047	0.0736454	1.17461	0.0276344	0.113174	-0.00276682
5.59752	-25.9569	1.59715	-1.67256	16.2222	517.441	-10.8503	-11.4497	3.02875	0.56826	-0.494165	-1.17093	0.201089	0.0235936	-17.3582	-1.61779	2.03985	-0.605767	-0.316553	-0.144234	0.00391206	-19.3437	-1.80183	-2.87394	3.22144	-0.386501	-0.0154406	0.846955	0.00817857	0.0844246	-0.0376532	4.30124	0.532417	0.0771616	1.19604	0.0286994	0.117067	-0.00104078
5.60751	-23.7976	1.22056	-1.11105	20.026	500.721	-9.01115	-11.2906	2.50662	0.583998	-0.572542	-1.15289	0.186504	0.0233707	-17.1458	-1.18065	1.88299	0.643381	-0.175066	-0.145841	-0.000621013	-17.2219	-2.05824	-2.61536	3.2244	-0.417979	-0.0153905	0.859582	0.00862343	0.0872425	-0.0390961	4.21199	0.560131	0.077484	1.18859	0.0287546	0.117562	0.000240935
5.61749	-22.1787	0.840492	-0.386317	22.9856	484.055	-7.71111	-10.9816	1.92927	0.584845	-0.700018	-1.12967	0.169483	0.0231324	-16.859	-0.63727	1.6424	1.68644	-0.0279821	-0.141058	-0.00532591	-15.8505	-2.33929	-2.20155	3.21011	-0.422481	-0.0134445	0.861566	0.009141	0.0881647	-0.0393344	4.04904	0.561092	0.0746879	1.15129	0.0277745	0.114347	0.00104492
5.62748	-21.3351	0.457887	0.480983	24.085	468.691	-6.77062	-10.3902	1.33651	0.561523	-0.895368	-1.10079	0.152393	0.0228646	-16.5741	-0.00300246	1.34258	2.50305	0.114524	-0.131258	-0.00989236	-15.6349	-2.62166	-1.69366	3.17057	-0.404276	-0.0102922	0.847567	0.00949914	0.0863671	-0.0383649	3.82675	0.539716	0.0692673	1.08527	0.0258279	0.107249	0.00144702
5.63747	-21.4935	0.170904	1.35483	21.9953	456.023	-5.92491	-9.35449	0.73999	0.51063	-1.18299	-1.06469	0.137011	0.0225425	-16.3552	0.563114	1.04299	3.07125	0.247484	-0.124988	-0.0140536	-17.0597	-2.82698	-1.19234	3.09356	-0.367476	-0.00682283	0.810811	0.00939939	0.0808321	-0.0360707	3.57103	0.500171	0.061923	0.994287	0.0230586	0.0963389	0.00138445
5.64746	-22.8603	-0.0788527	2.11933	15.1413	447.475	-4.35955	-7.69321	0.117188	0.435397	-1.59048	-1.01861	0.124046	0.0221309	-16.247	1.04002	0.770186	3.39518	0.366566	-0.126121	-0.0176246	-20.6726	-2.78446	-0.825675	2.96385	-0.315302	-0.0039868	0.743703	0.00851164	0.0704228	-0.0321519	3.31766	0.445782	0.0534419	0.884359	0.0196615	0.0819089	0.00058736
5.65744	-22.6867	0.82465	2.98319	20.0838	434.592	-6.98332	-7.60817	-0.0650509	0.412773	-1.70844	-1.00301	0.115844	0.0218571	-16.2662	0.814534	0.486685	3.73371	0.491606	-0.15326	-0.0209236	-19.68	-3.58433	-0.0523645	2.95349	-0.283209	0.00140936	0.742008	0.00950293	0.0702813	-0.0315082	3.0194	0.411393	0.0458856	0.801503	0.0171239	0.073451	0.00138311
5.66743	-24.2686	1.85094	3.80772	17.1572	429.039	-8.42411	-6.56775	-0.316365	0.361037	-1.99628	-0.976622	0.112056	0.0215396	-16.6477	0.332016	0.286077	3.90757	0.589362	-0.197907	-0.0231722	-21.8871	-4.15401	0.531794	2.91029	-0.240449	0.00555343	0.708915	0.00950601	0.0645553	-0.029312	2.7632	0.3671	0.0377173	0.704288	0.0140385	0.0613212	0.00148806
5.67742	0	0	0	0	0	0	0	0	0	0	0	0	0	0	0	0	0	0	0	0	0	0	0	0	0	0	0	0	0	0	0	0	0	0	0	0	0
