Coordinates
version=1
nRows=242
nColumns=38
inDegrees=no

Units are S.I. units (second, meters, Newtons, ...)
If the header above contains a line with 'inDegrees', this indicates whether rotational values are in degrees (yes) or radians (no).

endheader
time	pelvis_tilt	pelvis_list	pelvis_rotation	pelvis_tx	pelvis_ty	pelvis_tz	hip_flexion_r	hip_adduction_r	hip_rotation_r	knee_angle_r	ankle_angle_r	subtalar_angle_r	mtp_angle_r	hip_flexion_l	hip_adduction_l	hip_rotation_l	knee_angle_l	ankle_angle_l	subtalar_angle_l	mtp_angle_l	lumbar_extension	lumbar_bending	lumbar_rotation	arm_flex_r	arm_add_r	arm_rot_r	elbow_flex_r	pro_sup_r	wrist_flex_r	wrist_dev_r	arm_flex_l	arm_add_l	arm_rot_l	elbow_flex_l	pro_sup_l	wrist_flex_l	wrist_dev_l
2.86	2.25354	-0.0559098	-2.8364	-1.15297	-0.98096	0.240707	-0.432986	0.097626	-0.444486	0.43372	-0.0586571	0	0	-0.369476	-0.27856	0.18978	1.44671	-0.147885	0	0	-1.48293	0.226612	0.266207	0.755391	-0.888505	-0.149459	0.689544	0.631588	0	0	0.689413	0.772743	0.095551	0.741311	0.63868	0	0
2.86999	2.25528	-0.044009	-2.84296	-1.14189	-0.982286	0.24218	-0.433772	0.103142	-0.438546	0.447619	-0.0454672	0	0	-0.350067	-0.27914	0.181741	1.42921	-0.127754	0	0	-1.48205	0.230029	0.265777	0.758183	-0.884383	-0.148842	0.690979	0.631592	0	0	0.692356	0.768677	0.0944529	0.742301	0.638636	0	0
2.87997	2.25719	-0.0320544	-2.84948	-1.13081	-0.983603	0.24366	-0.434497	0.108744	-0.432453	0.461297	-0.0322836	0	0	-0.330493	-0.279819	0.173562	1.41142	-0.107735	0	0	-1.48096	0.23337	0.265953	0.760975	-0.880261	-0.148225	0.692414	0.631595	0	0	0.6953	0.764612	0.0933547	0.743292	0.638592	0	0
2.88996	2.25943	-0.0199884	-2.85593	-1.11973	-0.984894	0.245157	-0.435124	0.114527	-0.425986	0.474438	-0.0191234	0	0	-0.31061	-0.280692	0.165084	1.39287	-0.0880762	0	0	-1.47948	0.236559	0.267391	0.763768	-0.876139	-0.147608	0.693849	0.631598	0	0	0.698244	0.760546	0.0922564	0.744282	0.638549	0	0
2.89995	2.26218	-0.00773825	-2.86231	-1.10863	-0.986142	0.246685	-0.43564	0.12057	-0.418931	0.486791	-0.00599715	0	0	-0.290435	-0.281841	0.156134	1.37287	-0.0690918	0	0	-1.47738	0.239555	0.270564	0.766561	-0.872015	-0.146991	0.695285	0.631601	0	0	0.701188	0.75648	0.091158	0.745273	0.638505	0	0
2.90994	2.26548	0.00478627	-2.86866	-1.09751	-0.987323	0.248256	-0.436043	0.126945	-0.411094	0.498197	0.00708106	0	0	-0.270142	-0.283329	0.146599	1.35063	-0.0511802	0	0	-1.47464	0.242358	0.275738	0.769354	-0.867892	-0.146373	0.696721	0.631605	0	0	0.704133	0.752413	0.0900594	0.746263	0.638462	0	0
2.91992	2.2694	0.0176706	-2.87503	-1.08637	-0.988418	0.249886	-0.436342	0.133692	-0.402309	0.508568	0.0201248	0	0	-0.249962	-0.285228	0.136325	1.32542	-0.034705	0	0	-1.47116	0.245001	0.282958	0.772148	-0.863768	-0.145756	0.698156	0.631608	0	0	0.707078	0.748345	0.0889607	0.747254	0.638418	0	0
2.92991	2.27392	0.0310163	-2.88148	-1.07519	-0.989405	0.251585	-0.43655	0.140869	-0.392438	0.517933	0.0331385	0	0	-0.230235	-0.287603	0.125258	1.29651	-0.0200236	0	0	-1.46705	0.247551	0.292139	0.774941	-0.859643	-0.145139	0.699592	0.631612	0	0	0.710023	0.744278	0.0878619	0.748245	0.638375	0	0
2.9399	2.27898	0.0449247	-2.88803	-1.06397	-0.990262	0.253362	-0.436682	0.148532	-0.381374	0.526392	0.0461443	0	0	-0.211296	-0.290539	0.113368	1.26333	-0.00741216	0	0	-1.46247	0.250103	0.30309	0.777735	-0.855518	-0.144521	0.701028	0.631615	0	0	0.712968	0.740209	0.086763	0.749236	0.638331	0	0
2.94989	2.28455	0.0594832	-2.89473	-1.0527	-0.990972	0.255224	-0.436754	0.156737	-0.369049	0.534051	0.0591848	0	0	-0.193408	-0.294136	0.100619	1.22557	0.00297901	0	0	-1.45746	0.25276	0.315551	0.780528	-0.851393	-0.143904	0.702465	0.631618	0	0	0.715913	0.73614	0.085664	0.750227	0.638288	0	0
2.95987	2.29057	0.0748151	-2.90155	-1.04138	-0.991517	0.257174	-0.43678	0.165598	-0.35542	0.541041	0.0723224	0	0	-0.176782	-0.29854	0.0870453	1.1831	0.0110827	0	0	-1.45211	0.255669	0.329302	0.783322	-0.847267	-0.143286	0.703901	0.631622	0	0	0.718858	0.732071	0.0845649	0.751218	0.638245	0	0
2.96986	2.29708	0.0909982	-2.90846	-1.03	-0.991883	0.259211	-0.436773	0.175219	-0.340506	0.547377	0.0856181	0	0	-0.161442	-0.303889	0.0726802	1.13609	0.0169477	0	0	-1.44632	0.258955	0.34413	0.786116	-0.84314	-0.142669	0.705338	0.631625	0	0	0.721804	0.728001	0.0834656	0.75221	0.638201	0	0
2.97985	2.30409	0.108077	-2.91539	-1.01855	-0.992058	0.261332	-0.436742	0.185701	-0.324382	0.55308	0.099099	0	0	-0.147328	-0.310288	0.0576776	1.08488	0.0206658	0	0	-1.44005	0.262745	0.359849	0.78891	-0.839013	-0.142051	0.706775	0.631629	0	0	0.724749	0.723931	0.0823662	0.753201	0.638158	0	0
2.98983	2.31162	0.126037	-2.9222	-1.00702	-0.992033	0.263534	-0.436696	0.197121	-0.307195	0.558179	0.112772	0	0	-0.134301	-0.317779	0.0423371	1.02998	0.0223501	0	0	-1.4333	0.267163	0.376272	0.791704	-0.834885	-0.141433	0.708212	0.631633	0	0	0.727695	0.719859	0.0812667	0.754193	0.638115	0	0
2.99982	2.31963	0.144771	-2.92871	-0.995429	-0.991802	0.265811	-0.43664	0.209506	-0.289192	0.562747	0.126618	0	0	-0.12218	-0.326312	0.0271465	0.971986	0.0221082	0	0	-1.42616	0.272333	0.393188	0.794498	-0.830757	-0.140815	0.709649	0.631636	0	0	0.73064	0.715788	0.080167	0.755184	0.638071	0	0
3.00981	2.32809	0.164174	-2.93472	-0.98376	-0.991363	0.268156	-0.436578	0.222867	-0.270631	0.566909	0.140602	0	0	-0.110793	-0.335811	0.0126852	0.911537	0.020087	0	0	-1.41881	0.278396	0.41038	0.797291	-0.826628	-0.140197	0.711086	0.63164	0	0	0.733586	0.711715	0.0790672	0.756176	0.638028	0	0
3.0198	2.33703	0.184072	-2.9401	-0.972016	-0.990718	0.270564	-0.436514	0.237127	-0.251802	0.570697	0.154705	0	0	-0.0998566	-0.346142	-0.000508889	0.849463	0.0165156	0	0	-1.41127	0.285431	0.427589	0.800085	-0.822499	-0.139579	0.712524	0.631644	0	0	0.736531	0.707642	0.0779673	0.757168	0.637985	0	0
3.02978	2.34645	0.204275	-2.94477	-0.960197	-0.98987	0.273031	-0.436448	0.252144	-0.232989	0.574158	0.168883	0	0	-0.0891195	-0.357132	-0.0119092	0.786603	0.0116837	0	0	-1.4036	0.293485	0.444543	0.802879	-0.818369	-0.138961	0.713961	0.631648	0	0	0.739477	0.703569	0.0768672	0.75816	0.637942	0	0
3.03977	2.35637	0.224704	-2.94881	-0.948303	-0.988828	0.275551	-0.436381	0.26776	-0.214316	0.57741	0.183138	0	0	-0.078384	-0.368676	-0.0211596	0.723905	0.00599701	0	0	-1.39583	0.302548	0.461069	0.805672	-0.814238	-0.138342	0.715399	0.631651	0	0	0.742422	0.699494	0.075767	0.759152	0.637899	0	0
3.04976	2.36679	0.245392	-2.95251	-0.936335	-0.987603	0.278121	-0.436313	0.283783	-0.195708	0.580517	0.197546	0	0	-0.0674407	-0.380762	-0.0282445	0.662493	2.44927e-06	0	0	-1.38787	0.312481	0.477152	0.808465	-0.810106	-0.137724	0.716837	0.631655	0	0	0.745367	0.695419	0.0746667	0.760144	0.637856	0	0
3.05974	2.37769	0.266302	-2.95616	-0.924298	-0.98621	0.280737	-0.436244	0.299965	-0.177095	0.58367	0.212138	0	0	-0.0562486	-0.393309	-0.0331195	0.603316	-0.00585406	0	0	-1.37984	0.323058	0.492865	0.811258	-0.805974	-0.137105	0.718275	0.631659	0	0	0.748313	0.691343	0.0735662	0.761137	0.637813	0	0
3.06973	2.38901	0.287309	-2.96003	-0.912196	-0.984666	0.283394	-0.436172	0.316001	-0.158489	0.586994	0.226948	0	0	-0.0447725	-0.406172	-0.0357644	0.547273	-0.0112182	0	0	-1.37174	0.333999	0.508253	0.814051	-0.801841	-0.136487	0.719714	0.631663	0	0	0.751258	0.687266	0.0724655	0.762129	0.63777	0	0
3.07972	2.40076	0.308215	-2.96437	-0.900036	-0.98299	0.286087	-0.436096	0.331535	-0.139984	0.590548	0.242006	0	0	-0.032989	-0.419152	-0.0362121	0.495193	-0.0158412	0	0	-1.36355	0.344986	0.523302	0.816844	-0.797707	-0.135868	0.721153	0.631667	0	0	0.754203	0.683188	0.0713645	0.763122	0.637727	0	0
3.08971	2.41297	0.328769	-2.96942	-0.887828	-0.981205	0.288809	-0.436017	0.346185	-0.12174	0.594318	0.257338	0	0	-0.0208848	-0.432015	-0.0345805	0.44782	-0.0195881	0	0	-1.35514	0.355674	0.537943	0.819637	-0.793571	-0.135249	0.722592	0.631672	0	0	0.757148	0.679109	0.0702633	0.764115	0.637684	0	0
3.09969	2.42553	0.348732	-2.97529	-0.875583	-0.979335	0.291552	-0.435931	0.359639	-0.103927	0.598457	0.272914	0	0	-0.00862464	-0.444538	-0.0309883	0.40566	-0.0224731	0	0	-1.34657	0.365782	0.552129	0.82243	-0.789435	-0.134629	0.724031	0.631676	0	0	0.760094	0.675028	0.0691618	0.765108	0.637641	0	0
3.10968	2.43822	0.367913	-2.98194	-0.86331	-0.977408	0.294307	-0.435839	0.371719	-0.0866735	0.603332	0.288652	0	0	0.00343717	-0.456558	-0.0255408	0.368966	-0.0246528	0	0	-1.33819	0.37515	0.565865	0.825223	-0.785297	-0.13401	0.725471	0.63168	0	0	0.763039	0.670946	0.06806	0.766101	0.637598	0	0
3.11967	2.45079	0.38617	-2.98926	-0.851021	-0.975451	0.297065	-0.435738	0.382338	-0.0700723	0.609312	0.304446	0	0	0.0149222	-0.467963	-0.0184268	0.337858	-0.0263933	0	0	-1.33035	0.383696	0.579135	0.828015	-0.781158	-0.13339	0.726911	0.631684	0	0	0.765984	0.666863	0.066958	0.767094	0.637555	0	0
3.12966	2.46304	0.403371	-2.99713	-0.838725	-0.973495	0.299814	-0.435627	0.39142	-0.0542201	0.61663	0.320162	0	0	0.0255346	-0.478658	-0.0100428	0.312397	-0.0280375	0	0	-1.32328	0.39134	0.591866	0.830807	-0.777018	-0.13277	0.728351	0.631689	0	0	0.768929	0.662778	0.0658557	0.768088	0.637513	0	0
3.13964	2.47486	0.41938	-3.00551	-0.826429	-0.971572	0.30254	-0.435505	0.39886	-0.0392327	0.62539	0.335627	0	0	0.0350665	-0.488537	-0.00101641	0.292589	-0.0299897	0	0	-1.31705	0.397967	0.603922	0.833599	-0.772876	-0.13215	0.729792	0.631693	0	0	0.771874	0.658692	0.0647531	0.769081	0.63747	0	0
3.14963	2.48617	0.434086	-3.01436	-0.814138	-0.969713	0.305228	-0.435369	0.404571	-0.0252252	0.635597	0.350644	0	0	0.043396	-0.49752	0.00792621	0.278363	-0.0327001	0	0	-1.31162	0.403484	0.615146	0.83639	-0.768733	-0.13153	0.731233	0.631698	0	0	0.774818	0.654605	0.0636503	0.770075	0.637427	0	0
3.15962	2.49696	0.447409	-3.02365	-0.801855	-0.967953	0.307862	-0.435219	0.408486	-0.0123004	0.647184	0.364992	0	0	0.0504744	-0.505554	0.016048	0.269554	-0.0366423	0	0	-1.30688	0.407819	0.625372	0.839181	-0.764589	-0.130909	0.732674	0.631702	0	0	0.777762	0.650516	0.0625471	0.771069	0.637385	0	0
3.1696	2.5073	0.459241	-3.03342	-0.789582	-0.966323	0.310426	-0.435053	0.410461	-0.000599578	0.659869	0.378413	0	0	0.0564128	-0.512554	0.0225604	0.265946	-0.0422661	0	0	-1.30246	0.410845	0.634385	0.841971	-0.760443	-0.130289	0.734115	0.631707	0	0	0.780706	0.646425	0.0614437	0.772063	0.637342	0	0
3.17959	2.51727	0.46949	-3.04374	-0.777319	-0.964854	0.312903	-0.434868	0.410345	0.00972895	0.673408	0.390604	0	0	0.0613344	-0.51844	0.0267792	0.26721	-0.0499753	0	0	-1.29797	0.412432	0.641965	0.844761	-0.756296	-0.129668	0.735557	0.631712	0	0	0.783649	0.642334	0.06034	0.773058	0.6373	0	0
3.18958	2.52702	0.478025	-3.05478	-0.765072	-0.963577	0.31528	-0.434663	0.407892	0.0184943	0.687395	0.401207	0	0	0.0654922	-0.523094	0.028073	0.272983	-0.0600537	0	0	-1.29282	0.412389	0.647826	0.84755	-0.752147	-0.129046	0.736999	0.631717	0	0	0.786592	0.63824	0.059236	0.774052	0.637258	0	0
3.19957	2.53671	0.484707	-3.0667	-0.752844	-0.962517	0.317544	-0.434436	0.40282	0.025483	0.701447	0.409803	0	0	0.0691458	-0.526383	0.0259759	0.28283	-0.0726006	0	0	-1.28633	0.4105	0.651637	0.850338	-0.747998	-0.128425	0.738441	0.631722	0	0	0.789534	0.634145	0.0581318	0.775047	0.637215	0	0
3.20955	2.54586	0.489436	-3.07912	-0.740645	-0.961698	0.319687	-0.434187	0.39516	0.0305091	0.7161	0.415891	0	0	0.0719925	-0.52817	0.0203879	0.29591	-0.0873991	0	0	-1.27926	0.406747	0.653526	0.853126	-0.743846	-0.127803	0.739884	0.631727	0	0	0.792475	0.630048	0.0570272	0.776041	0.637173	0	0
3.21954	2.55404	0.492197	-3.09159	-0.728486	-0.961137	0.321707	-0.433915	0.385083	0.033499	0.7318	0.418984	0	0	0.0737776	-0.528397	0.0116664	0.311383	-0.103815	0	0	-1.2722	0.401241	0.653581	0.855912	-0.739693	-0.127181	0.741327	0.631732	0	0	0.795416	0.62595	0.0559223	0.777036	0.637131	0	0
3.22953	2.56089	0.493012	-3.10372	-0.716381	-0.960846	0.323603	-0.433618	0.372773	0.03439	0.748922	0.418534	0	0	0.0742571	-0.526999	0.000441431	0.328517	-0.120798	0	0	-1.26567	0.394136	0.651837	0.858698	-0.735538	-0.126559	0.74277	0.631738	0	0	0.798356	0.62185	0.0548171	0.778031	0.637089	0	0
3.23951	2.56616	0.491884	-3.11515	-0.704345	-0.960833	0.32538	-0.433299	0.35839	0.0330798	0.767639	0.413963	0	0	0.0732944	-0.523871	-0.0125394	0.346745	-0.13712	0	0	-1.25992	0.38561	0.648258	0.861482	-0.731382	-0.125936	0.744213	0.631743	0	0	0.801296	0.617748	0.0537117	0.779026	0.637047	0	0
3.2495	2.56966	0.488846	-3.12553	-0.692394	-0.9611	0.327044	-0.43296	0.342116	0.029481	0.78806	0.404717	0	0	0.0707512	-0.518911	-0.0264718	0.365533	-0.151636	0	0	-1.25513	0.375902	0.642793	0.864266	-0.727225	-0.125314	0.745657	0.631748	0	0	0.804234	0.613644	0.0526059	0.780021	0.637005	0	0
3.25949	2.57123	0.483982	-3.13455	-0.680543	-0.961641	0.328605	-0.432603	0.324172	0.0235846	0.810288	0.390316	0	0	0.0664254	-0.512057	-0.0406397	0.38428	-0.163443	0	0	-1.2515	0.365299	0.635418	0.867049	-0.723065	-0.124691	0.747101	0.631754	0	0	0.807172	0.609539	0.0514998	0.781016	0.636963	0	0
3.26948	2.57071	0.477446	-3.14199	-0.66881	-0.962448	0.330074	-0.432233	0.304819	0.015499	0.834433	0.370418	0	0	0.0600262	-0.503316	-0.0545223	0.402328	-0.171929	0	0	-1.24925	0.35411	0.626185	0.86983	-0.718904	-0.124067	0.748545	0.63176	0	0	0.810108	0.605431	0.0503933	0.782011	0.636921	0	0
3.27946	2.56805	0.469372	-3.14774	-0.657209	-0.963507	0.331461	-0.431856	0.284251	0.00542151	0.860426	0.344834	0	0	0.0513378	-0.49272	-0.0679433	0.419139	-0.176735	0	0	-1.24845	0.342561	0.615184	0.872611	-0.71474	-0.123444	0.74999	0.631765	0	0	0.813044	0.601321	0.0492863	0.783006	0.63688	0	0
3.28945	2.56322	0.459949	-3.15178	-0.645756	-0.964799	0.332777	-0.43148	0.262696	-0.00636367	0.888184	0.313644	0	0	0.0401308	-0.48037	-0.0807839	0.43424	-0.177784	0	0	-1.24922	0.330864	0.602584	0.87539	-0.710574	-0.122819	0.751435	0.631771	0	0	0.81598	0.597208	0.048179	0.784002	0.636838	0	0
3.29944	2.55633	0.449314	-3.1542	-0.634463	-0.966304	0.334031	-0.431112	0.240357	-0.0195364	0.917382	0.277219	0	0	0.0263823	-0.466389	-0.0930045	0.447376	-0.175231	0	0	-1.2515	0.319171	0.588545	0.878168	-0.706406	-0.122195	0.75288	0.631777	0	0	0.818914	0.593093	0.0470711	0.784998	0.636796	0	0
3.30943	2.54737	0.437729	-3.155	-0.623345	-0.967998	0.33523	-0.430761	0.217578	-0.0337624	0.947903	0.236346	0	0	0.0099344	-0.451007	-0.104347	0.458227	-0.169505	0	0	-1.25552	0.307713	0.573326	0.880945	-0.702236	-0.12157	0.754326	0.631783	0	0	0.821847	0.588976	0.0459629	0.785993	0.636755	0	0
3.31941	2.53648	0.425408	-3.15423	-0.612411	-0.969856	0.336377	-0.430434	0.194718	-0.0487064	0.979376	0.192188	0	0	-0.00913038	-0.434496	-0.114609	0.466699	-0.161147	0	0	-1.26134	0.296697	0.55717	0.883721	-0.698063	-0.120945	0.755772	0.63179	0	0	0.824779	0.584856	0.0448542	0.786989	0.636713	0	0
3.3294	2.52389	0.412502	-3.152	-0.60167	-0.971851	0.337472	-0.430137	0.172074	-0.0640956	1.01122	0.146223	0	0	-0.0305313	-0.417137	-0.123745	0.472933	-0.150714	0	0	-1.26881	0.286258	0.540268	0.886495	-0.693889	-0.120319	0.757218	0.631796	0	0	0.82771	0.580733	0.043745	0.787985	0.636672	0	0
3.33939	2.50988	0.399179	-3.14844	-0.591127	-0.973957	0.338513	-0.429869	0.14995	-0.0797053	1.0428	0.100225	0	0	-0.0539237	-0.399266	-0.131734	0.477195	-0.138758	0	0	-1.27778	0.276521	0.522806	0.889268	-0.689711	-0.119693	0.758665	0.631802	0	0	0.83064	0.576608	0.0426354	0.788982	0.636631	0	0
3.34937	2.49475	0.385629	-3.14372	-0.580785	-0.976147	0.339496	-0.429626	0.128676	-0.0953352	1.07342	0.0561451	0	0	-0.0788822	-0.381269	-0.138582	0.479877	-0.125767	0	0	-1.28806	0.267609	0.50497	0.892039	-0.685532	-0.119067	0.760112	0.631809	0	0	0.833568	0.572481	0.0415253	0.789978	0.63659	0	0
3.35936	2.4787	0.372153	-3.13791	-0.570641	-0.978391	0.340411	-0.429387	0.108679	-0.110806	1.10258	0.0159739	0	0	-0.105096	-0.363624	-0.144192	0.481328	-0.112186	0	0	-1.29969	0.259723	0.486996	0.894808	-0.681349	-0.11844	0.76156	0.631816	0	0	0.836495	0.56835	0.0404148	0.790974	0.636548	0	0
3.36935	2.46198	0.359028	-3.13107	-0.56069	-0.980664	0.34125	-0.429123	0.0904095	-0.125941	1.12975	-0.0185382	0	0	-0.132174	-0.346808	-0.148499	0.481982	-0.0983645	0	0	-1.31264	0.25306	0.469101	0.897575	-0.677165	-0.117813	0.763007	0.631823	0	0	0.83942	0.564217	0.0393038	0.79197	0.636507	0	0
3.37934	2.44488	0.346453	-3.12327	-0.550921	-0.982938	0.342	-0.428782	0.0742562	-0.140613	1.1544	-0.046137	0	0	-0.159644	-0.331234	-0.151488	0.48232	-0.0845516	0	0	-1.32672	0.247769	0.451465	0.90034	-0.672978	-0.117185	0.764455	0.63183	0	0	0.842344	0.560081	0.0381924	0.792967	0.636466	0	0
3.38932	2.42774	0.334508	-3.11457	-0.541319	-0.985184	0.342648	-0.428289	0.0604714	-0.154768	1.17593	-0.0662422	0	0	-0.186947	-0.317192	-0.1532	0.482867	-0.0708954	0	0	-1.34162	0.243914	0.434216	0.903103	-0.668788	-0.116557	0.765904	0.631837	0	0	0.845266	0.555941	0.0370804	0.793963	0.636425	0	0
3.39931	2.41093	0.32318	-3.10505	-0.531864	-0.987376	0.343177	-0.427543	0.0491497	-0.168446	1.19379	-0.0789481	0	0	-0.213511	-0.304847	-0.15367	0.4841	-0.0574687	0	0	-1.35693	0.241496	0.417431	0.905864	-0.664595	-0.115928	0.767352	0.631844	0	0	0.848186	0.551799	0.035968	0.79496	0.636385	0	0
3.4093	2.39484	0.312356	-3.09481	-0.522533	-0.989486	0.34357	-0.426415	0.0402174	-0.18176	1.20742	-0.0848353	0	0	-0.238726	-0.294224	-0.152954	0.486466	-0.0442738	0	0	-1.37216	0.240429	0.401123	0.908623	-0.6604	-0.115299	0.768801	0.631851	0	0	0.851104	0.547654	0.0348551	0.795956	0.636344	0	0
3.41928	2.37993	0.301828	-3.08402	-0.513299	-0.99149	0.34381	-0.424742	0.0334439	-0.194874	1.21632	-0.0847718	0	0	-0.261962	-0.285207	-0.151126	0.49035	-0.0312583	0	0	-1.38665	0.240539	0.385242	0.911379	-0.656202	-0.11467	0.77025	0.631859	0	0	0.854021	0.543506	0.0337417	0.796952	0.636303	0	0
3.42927	2.36661	0.291382	-3.07287	-0.504138	-0.993364	0.343878	-0.422338	0.0284962	-0.208005	1.22011	-0.0797947	0	0	-0.282696	-0.277597	-0.148249	0.495985	-0.0183531	0	0	-1.3998	0.241609	0.369704	0.914133	-0.652002	-0.11404	0.7717	0.631866	0	0	0.856935	0.539355	0.0326278	0.797949	0.636263	0	0
3.43926	2.35522	0.280817	-3.06155	-0.495023	-0.995084	0.343757	-0.418998	0.0249732	-0.221397	1.21856	-0.0709923	0	0	-0.300537	-0.271128	-0.144366	0.50343	-0.00548671	0	0	-1.41109	0.243394	0.354398	0.916885	-0.647798	-0.113409	0.773149	0.631874	0	0	0.859847	0.535201	0.0315135	0.798945	0.636222	0	0
3.44925	2.34605	0.269974	-3.05029	-0.485931	-0.996631	0.343431	-0.414514	0.0224472	-0.235303	1.21163	-0.0594421	0	0	-0.315289	-0.265504	-0.139488	0.512543	0.00740084	0	0	-1.42012	0.245647	0.339202	0.919633	-0.643592	-0.112779	0.774599	0.631882	0	0	0.862756	0.531043	0.0303986	0.799941	0.636182	0	0
3.45923	2.33925	0.258746	-3.03927	-0.476842	-0.997989	0.342885	-0.408702	0.0204903	-0.249971	1.19941	-0.0461525	0	0	-0.326956	-0.260411	-0.1336	0.522982	0.020358	0	0	-1.42664	0.248127	0.323984	0.922379	-0.639383	-0.112147	0.776049	0.63189	0	0	0.865663	0.526883	0.0292832	0.800938	0.636142	0	0
3.46922	2.33487	0.247088	-3.0287	-0.46774	-0.999144	0.34211	-0.401434	0.0187028	-0.265617	1.18214	-0.0320288	0	0	-0.335775	-0.255535	-0.126658	0.534225	0.0334257	0	0	-1.43046	0.25061	0.308614	0.925122	-0.635171	-0.111515	0.7775	0.631898	0	0	0.868569	0.522718	0.0281672	0.801934	0.636101	0	0
3.47921	2.33283	0.234979	-3.01871	-0.458612	-1.00008	0.341098	-0.392692	0.0167684	-0.282367	1.16008	-0.0178898	0	0	-0.342123	-0.250593	-0.118611	0.54573	0.0466223	0	0	-1.43171	0.252895	0.29299	0.927863	-0.630955	-0.110883	0.778951	0.631907	0	0	0.871471	0.51855	0.0270506	0.80293	0.636061	0	0
3.4892	2.33289	0.222399	-3.00936	-0.449449	-1.00078	0.339846	-0.38263	0.0144704	-0.300233	1.13348	-0.00446037	0	0	-0.346435	-0.245343	-0.109415	0.557062	0.0599467	0	0	-1.43074	0.254807	0.277047	0.930601	-0.626735	-0.110249	0.780402	0.631915	0	0	0.874372	0.514378	0.0259333	0.803926	0.636021	0	0
3.49918	2.33476	0.209325	-3.00069	-0.440244	-1.00125	0.338354	-0.371552	0.0116799	-0.319147	1.10245	0.0076725	0	0	-0.349151	-0.239604	-0.099058	0.567944	0.0733975	0	0	-1.42798	0.256208	0.26075	0.933335	-0.622512	-0.109616	0.781853	0.631924	0	0	0.877269	0.510202	0.0248154	0.804922	0.635981	0	0
3.50917	2.33813	0.195744	-2.99263	-0.430991	-1.00147	0.336627	-0.359829	0.00833853	-0.338998	1.06714	0.0180852	0	0	-0.350678	-0.233259	-0.0875643	0.578225	0.0869858	0	0	-1.4238	0.25701	0.244086	0.936067	-0.618286	-0.108981	0.783305	0.631932	0	0	0.880165	0.506021	0.0236969	0.805918	0.635941	0	0
3.51916	2.34269	0.181655	-2.98516	-0.421686	-1.00144	0.334674	-0.347833	0.0044433	-0.35962	1.02765	0.026499	0	0	-0.351368	-0.226246	-0.0749946	0.587847	0.10073	0	0	-1.41853	0.257166	0.22707	0.938795	-0.614056	-0.108346	0.784757	0.631941	0	0	0.883057	0.501837	0.0225777	0.806914	0.635902	0	0
3.52914	2.34818	0.167069	-2.97819	-0.412323	-1.00115	0.332508	-0.335888	2.56704e-05	-0.380786	0.984188	0.032757	0	0	-0.351514	-0.218541	-0.0614421	0.596823	0.114647	0	0	-1.41245	0.256651	0.209743	0.941519	-0.609822	-0.107711	0.786209	0.63195	0	0	0.885946	0.497649	0.0214579	0.80791	0.635862	0	0
3.53913	2.35438	0.151999	-2.97168	-0.402896	-1.00062	0.330142	-0.32425	-0.00486955	-0.402201	0.936979	0.0368046	0	0	-0.351341	-0.210138	-0.0470284	0.605214	0.128748	0	0	-1.40578	0.25545	0.192171	0.944241	-0.605585	-0.107075	0.787662	0.631959	0	0	0.888833	0.493456	0.0203374	0.808906	0.635822	0	0
3.54912	2.36111	0.136471	-2.9656	-0.393401	-0.999851	0.327594	-0.313072	-0.0102009	-0.423526	0.886371	0.0386888	0	0	-0.351018	-0.20105	-0.0319004	0.613095	0.143035	0	0	-1.39869	0.253556	0.17444	0.946958	-0.601343	-0.106438	0.789115	0.631969	0	0	0.891716	0.48926	0.0192163	0.809902	0.635783	0	0
3.55911	2.36822	0.120513	-2.95995	-0.383829	-0.998837	0.324881	-0.302442	-0.0159362	-0.444352	0.832774	0.0385192	0	0	-0.350664	-0.191289	-0.0162119	0.620588	0.157491	0	0	-1.39136	0.250942	0.156666	0.949672	-0.597098	-0.1058	0.790568	0.631978	0	0	0.894596	0.485059	0.0180945	0.810898	0.635743	0	0
3.56909	2.37563	0.104119	-2.95473	-0.374173	-0.99759	0.322022	-0.292324	-0.0221241	-0.464292	0.776734	0.0365037	0	0	-0.350354	-0.180823	-9.51343e-05	0.627771	0.172133	0	0	-1.38387	0.247562	0.138912	0.952381	-0.592849	-0.105162	0.792021	0.631988	0	0	0.897473	0.480853	0.016972	0.811893	0.635704	0	0
3.57908	2.38331	0.087322	-2.94997	-0.364427	-0.996118	0.319033	-0.282569	-0.0288132	-0.482989	0.718921	0.0329328	0	0	-0.350131	-0.16966	0.0163158	0.63467	0.186964	0	0	-1.37624	0.243413	0.121205	0.955087	-0.588596	-0.104523	0.793475	0.631998	0	0	0.900346	0.476643	0.0158489	0.812888	0.635665	0	0
3.58907	2.39124	0.070177	-2.94566	-0.354584	-0.99443	0.315934	-0.273005	-0.0360377	-0.500092	0.660037	0.0281368	0	0	-0.350012	-0.15784	0.0328983	0.641329	0.201969	0	0	-1.36848	0.23851	0.103576	0.957788	-0.584339	-0.103884	0.794929	0.632008	0	0	0.903215	0.472429	0.014725	0.813883	0.635625	0	0
3.59905	2.39938	0.0527522	-2.94182	-0.344637	-0.992538	0.312743	-0.263473	-0.0438137	-0.515241	0.600782	0.0224624	0	0	-0.349999	-0.14543	0.0495368	0.647842	0.21711	0	0	-1.36071	0.232869	0.0860726	0.960485	-0.580078	-0.103244	0.796383	0.632018	0	0	0.906081	0.46821	0.0136005	0.814878	0.635586	0	0
3.60904	2.40773	0.0351607	-2.9384	-0.33458	-0.990455	0.309475	-0.253741	-0.0521311	-0.52817	0.541955	0.0163163	0	0	-0.35008	-0.132563	0.0661005	0.654215	0.232372	0	0	-1.35292	0.226567	0.0687638	0.963177	-0.575813	-0.102603	0.797837	0.632028	0	0	0.908942	0.463986	0.0124753	0.815873	0.635547	0	0
3.61903	2.4163	0.0175245	-2.93536	-0.324409	-0.988195	0.306149	-0.24363	-0.0609482	-0.538622	0.484325	0.0100976	0	0	-0.350239	-0.119405	0.0824718	0.660499	0.247723	0	0	-1.34516	0.219697	0.0517359	0.965865	-0.571544	-0.101961	0.799291	0.632039	0	0	0.9118	0.459758	0.0113494	0.816867	0.635508	0	0
3.62902	2.42503	-3.66437e-05	-2.93264	-0.31412	-0.985772	0.302782	-0.233027	-0.0702055	-0.546338	0.42861	0.00416103	0	0	-0.350456	-0.106129	0.0985587	0.666783	0.263119	0	0	-1.33754	0.212358	0.0350812	0.968548	-0.567271	-0.101319	0.800745	0.63205	0	0	0.914653	0.455524	0.0102229	0.817861	0.63547	0	0
3.639	2.43396	-0.01738	-2.9301	-0.30371	-0.983203	0.29939	-0.22179	-0.0798147	-0.551152	0.375559	-0.00117896	0	0	-0.350711	-0.0929568	0.114281	0.67305	0.278554	0	0	-1.33001	0.204714	0.0188953	0.971226	-0.562993	-0.100675	0.8022	0.632061	0	0	0.917502	0.451286	0.00909556	0.818854	0.635431	0	0
3.64899	2.44307	-0.0343832	-2.92761	-0.293174	-0.980504	0.295991	-0.209881	-0.0896788	-0.552939	0.325821	-0.00571316	0	0	-0.350985	-0.0800999	0.129599	0.679334	0.294009	0	0	-1.32259	0.196933	0.00326021	0.973898	-0.558711	-0.100032	0.803654	0.632072	0	0	0.920347	0.447043	0.00796756	0.819848	0.635392	0	0
3.65898	2.45232	-0.0509587	-2.92505	-0.282511	-0.977692	0.292602	-0.19736	-0.0997211	-0.551644	0.27994	-0.00935604	0	0	-0.351261	-0.0677321	0.144517	0.685708	0.309465	0	0	-1.31532	0.189165	-0.0117658	0.976566	-0.554424	-0.099387	0.805109	0.632083	0	0	0.923187	0.442795	0.00683884	0.820841	0.635354	0	0
3.66897	2.46176	-0.067027	-2.92225	-0.271717	-0.974783	0.28924	-0.184263	-0.109878	-0.547416	0.238441	-0.0121232	0	0	-0.351525	-0.0560311	0.159058	0.692122	0.324941	0	0	-1.30804	0.181601	-0.0261405	0.979228	-0.550133	-0.0987415	0.806564	0.632094	0	0	0.926022	0.438541	0.0057093	0.821834	0.635315	0	0
3.67895	2.47141	-0.0825416	-2.91903	-0.260789	-0.971794	0.285924	-0.170711	-0.12011	-0.540624	0.201742	-0.0141407	0	0	-0.351766	-0.0451361	0.173273	0.698571	0.34044	0	0	-1.30063	0.17441	-0.0398548	0.981885	-0.545837	-0.0980952	0.808019	0.632106	0	0	0.928854	0.434282	0.00457891	0.822826	0.635277	0	0
3.68894	2.48128	-0.0974925	-2.91525	-0.249723	-0.968745	0.28267	-0.156879	-0.13041	-0.531879	0.170169	-0.0156224	0	0	-0.351975	-0.0351378	0.187237	0.705085	0.35595	0	0	-1.29295	0.167728	-0.0529282	0.984537	-0.541536	-0.0974481	0.809474	0.632117	0	0	0.93168	0.430017	0.00344769	0.823818	0.635238	0	0
3.69893	2.49146	-0.111871	-2.91071	-0.238519	-0.965653	0.279494	-0.142875	-0.140764	-0.522054	0.144024	-0.0168389	0	0	-0.352145	-0.02615	0.201005	0.711559	0.371486	0	0	-1.28464	0.161727	-0.0653813	0.987183	-0.537229	-0.0968	0.810929	0.632129	0	0	0.934501	0.425747	0.00231562	0.82481	0.6352	0	0
3.70891	2.502	-0.12568	-2.90523	-0.227173	-0.962541	0.276411	-0.128864	-0.151133	-0.512169	0.123486	-0.0181149	0	0	-0.352272	-0.0182782	0.214624	0.717965	0.387018	0	0	-1.27537	0.156559	-0.0772542	0.989822	-0.532918	-0.0961511	0.812384	0.632141	0	0	0.937317	0.421471	0.00118269	0.825801	0.635162	0	0
3.7189	2.5127	-0.138945	-2.89885	-0.215687	-0.959434	0.273434	-0.115276	-0.161457	-0.503205	0.108398	-0.0198116	0	0	-0.352353	-0.0114998	0.228141	0.724618	0.402413	0	0	-1.26561	0.152245	-0.0886781	0.992456	-0.528601	-0.0955013	0.81384	0.632154	0	0	0.940129	0.417188	4.89136e-05	0.826792	0.635124	0	0
3.72889	2.52346	-0.151679	-2.89158	-0.204063	-0.956358	0.270576	-0.102441	-0.171643	-0.495938	0.0984761	-0.0223483	0	0	-0.352386	-0.00582143	0.241571	0.731641	0.417573	0	0	-1.25555	0.148826	-0.099735	0.995084	-0.524279	-0.0948506	0.815295	0.632166	0	0	0.942934	0.4129	-0.00108573	0.827782	0.635086	0	0
3.73888	2.53407	-0.163859	-2.8835	-0.192302	-0.953347	0.267846	-0.0907419	-0.181546	-0.49087	0.0933214	-0.0261736	0	0	-0.35237	-0.00126356	0.254882	0.739323	0.432322	0	0	-1.24557	0.146324	-0.110495	0.997706	-0.519952	-0.094199	0.816751	0.632179	0	0	0.945734	0.408606	-0.00222124	0.828772	0.635048	0	0
3.74886	2.54442	-0.175389	-2.87464	-0.18041	-0.95044	0.265254	-0.0804117	-0.190955	-0.488297	0.0924771	-0.0317213	0	0	-0.352305	0.0020544	0.267936	0.747752	0.446484	0	0	-1.23577	0.144829	-0.120953	1.00032	-0.51562	-0.0935464	0.818207	0.632191	0	0	0.948529	0.404305	-0.00335762	0.829762	0.63501	0	0
3.75885	2.55438	-0.186108	-2.86504	-0.168392	-0.94768	0.262804	-0.0715958	-0.199601	-0.488347	0.0954771	-0.0393797	0	0	-0.352191	0.00394181	0.280495	0.757013	0.459831	0	0	-1.22622	0.144476	-0.131042	1.00293	-0.511282	-0.0928929	0.819663	0.632204	0	0	0.951317	0.399999	-0.00449488	0.830751	0.634972	0	0
3.76884	2.56373	-0.195821	-2.85485	-0.156257	-0.945119	0.260501	-0.064419	-0.207205	-0.490968	0.101849	-0.0494667	0	0	-0.352029	0.00421683	0.29226	0.767338	0.472071	0	0	-1.21713	0.14537	-0.140655	1.00553	-0.506938	-0.0922385	0.821118	0.632218	0	0	0.9541	0.395686	-0.00563302	0.83174	0.634935	0	0
3.77883	2.57233	-0.204264	-2.84418	-0.144012	-0.942815	0.258343	-0.0588338	-0.213453	-0.496055	0.111113	-0.0621954	0	0	-0.351821	0.00262736	0.302853	0.77874	0.482883	0	0	-1.20846	0.147673	-0.149597	1.00812	-0.502589	-0.0915831	0.822574	0.632231	0	0	0.956876	0.391367	-0.00677205	0.832728	0.634897	0	0
3.78881	2.58005	-0.211142	-2.83316	-0.131668	-0.940835	0.256322	-0.0547504	-0.218028	-0.503424	0.122795	-0.0776379	0	0	-0.351569	-0.00109072	0.311851	0.79125	0.49187	0	0	-1.20018	0.151559	-0.157619	1.01071	-0.498235	-0.0909267	0.82403	0.632244	0	0	0.959646	0.387041	-0.00791198	0.833715	0.63486	0	0
3.7988	2.5866	-0.216199	-2.82204	-0.11924	-0.939252	0.254425	-0.0521436	-0.220659	-0.512734	0.136393	-0.0956586	0	0	-0.351276	-0.0071053	0.318865	0.805091	0.498552	0	0	-1.19247	0.157125	-0.164464	1.01329	-0.493874	-0.0902693	0.825485	0.632258	0	0	0.962409	0.382709	-0.0090528	0.834702	0.634822	0	0
3.80879	2.59175	-0.219231	-2.8111	-0.106742	-0.938144	0.252628	-0.0509787	-0.221142	-0.523498	0.151431	-0.115802	0	0	-0.350945	-0.0154912	0.323572	0.82047	0.502393	0	0	-1.18547	0.164397	-0.169852	1.01586	-0.489508	-0.0896109	0.826941	0.632272	0	0	0.965165	0.37837	-0.0101945	0.835688	0.634785	0	0
3.81877	2.59527	-0.220105	-2.80063	-0.0941945	-0.937599	0.2509	-0.0512266	-0.219355	-0.535095	0.167529	-0.137189	0	0	-0.350583	-0.0262174	0.325726	0.837588	0.502805	0	0	-1.17933	0.173322	-0.173509	1.01842	-0.485136	-0.0889515	0.828396	0.632286	0	0	0.967915	0.374024	-0.0113372	0.836673	0.634748	0	0
3.82876	2.59691	-0.218795	-2.79099	-0.0816185	-0.937703	0.249199	-0.0528905	-0.215273	-0.546798	0.184431	-0.158583	0	0	-0.350196	-0.0391151	0.325174	0.856662	0.499166	0	0	-1.17424	0.18373	-0.17521	1.02098	-0.480759	-0.0882911	0.829851	0.632301	0	0	0.970657	0.369672	-0.0124807	0.837658	0.634711	0	0
3.83875	2.59646	-0.21541	-2.78253	-0.0690403	-0.938544	0.247474	-0.0560408	-0.208988	-0.557866	0.201934	-0.178641	0	0	-0.349792	-0.053861	0.321895	0.877967	0.490867	0	0	-1.17049	0.19531	-0.174812	1.02353	-0.476375	-0.0876296	0.831306	0.632315	0	0	0.973393	0.365313	-0.0136252	0.838642	0.634674	0	0
3.84874	2.59384	-0.210076	-2.7755	-0.0564897	-0.940202	0.245672	-0.0606322	-0.200633	-0.567815	0.219912	-0.196117	0	0	-0.349382	-0.0701472	0.315969	0.901474	0.477344	0	0	-1.16814	0.207754	-0.172236	1.02607	-0.471985	-0.0869671	0.832761	0.63233	0	0	0.976121	0.360947	-0.0147706	0.839625	0.634637	0	0
3.85872	2.58905	-0.202954	-2.77001	-0.0440007	-0.942743	0.24374	-0.066654	-0.190349	-0.576422	0.23815	-0.210059	0	0	-0.348979	-0.0876989	0.307579	0.927002	0.458126	0	0	-1.16711	0.220774	-0.167488	1.0286	-0.467589	-0.0863035	0.834216	0.632345	0	0	0.978841	0.356574	-0.0159169	0.840608	0.6346	0	0
3.86871	2.5821	-0.194285	-2.76611	-0.0316115	-0.946203	0.241635	-0.0742826	-0.178293	-0.583645	0.256231	-0.219913	0	0	-0.348594	-0.106223	0.297009	0.95441	0.432929	0	0	-1.16749	0.234049	-0.160671	1.03112	-0.463187	-0.0856388	0.83567	0.63236	0	0	0.981554	0.352193	-0.0170643	0.841589	0.634563	0	0
3.8787	2.57293	-0.184372	-2.76379	-0.0193644	-0.950577	0.239338	-0.0838276	-0.164635	-0.589598	0.273613	-0.225518	0	0	-0.348242	-0.125416	0.284639	0.983568	0.401752	0	0	-1.16946	0.247245	-0.151961	1.03363	-0.458778	-0.0849729	0.837124	0.632375	0	0	0.984259	0.347805	-0.0182127	0.84257	0.634526	0	0
3.88868	2.56153	-0.173553	-2.76294	-0.0073045	-0.955796	0.236871	-0.0956531	-0.149574	-0.594499	0.289733	-0.227053	0	0	-0.347936	-0.144973	0.270926	1.01433	0.364962	0	0	-1.17329	0.260044	-0.141577	1.03613	-0.454362	-0.0843058	0.838579	0.632391	0	0	0.986956	0.343409	-0.0193622	0.84355	0.63449	0	0
3.89867	2.54798	-0.16211	-2.76338	0.00452223	-0.961701	0.234316	-0.109971	-0.133326	-0.59868	0.304189	-0.224924	0	0	-0.347688	-0.164633	0.256369	1.04635	0.323338	0	0	-1.1791	0.272216	-0.129757	1.03863	-0.449939	-0.0836376	0.840033	0.632406	0	0	0.989645	0.339005	-0.0205127	0.84453	0.634453	0	0
3.90866	2.53246	-0.150245	-2.76489	0.0160708	-0.968018	0.231836	-0.126777	-0.116127	-0.602533	0.316806	-0.219662	0	0	-0.347502	-0.184176	0.241462	1.07905	0.278106	0	0	-1.18679	0.283628	-0.116736	1.04111	-0.445509	-0.0829681	0.841487	0.632422	0	0	0.992325	0.334593	-0.0216643	0.845508	0.634416	0	0
3.91865	2.51517	-0.138172	-2.76725	0.0273002	-0.974326	0.229704	-0.146001	-0.0982673	-0.606326	0.327522	-0.21186	0	0	-0.347378	-0.203341	0.226642	1.11187	0.230952	0	0	-1.19636	0.294143	-0.102758	1.04359	-0.441073	-0.0822974	0.84294	0.632438	0	0	0.994998	0.330173	-0.022817	0.846485	0.63438	0	0
3.92863	2.49634	-0.1261	-2.77027	0.0381775	-0.980028	0.228324	-0.167459	-0.08009	-0.610173	0.33641	-0.202099	0	0	-0.347302	-0.221817	0.212262	1.1442	0.183956	0	0	-1.20776	0.303612	-0.0880609	1.04606	-0.436629	-0.0816256	0.844393	0.632455	0	0	0.997661	0.325745	-0.0239708	0.847462	0.634344	0	0
3.93862	2.47634	-0.114151	-2.77382	0.0486825	-0.984323	0.228252	-0.190725	-0.0619414	-0.61414	0.343766	-0.190877	0	0	-0.347242	-0.239308	0.198572	1.17525	0.139403	0	0	-1.22072	0.311958	-0.0728654	1.04851	-0.432179	-0.0809524	0.845846	0.632471	0	0	1.00032	0.32131	-0.0251257	0.848438	0.634307	0	0
3.94861	2.45554	-0.102417	-2.77778	0.0588135	-0.986192	0.230214	-0.215278	-0.0441726	-0.618173	0.349982	-0.178617	0	0	-0.347145	-0.255508	0.185722	1.20425	0.0995682	0	0	-1.23491	0.319113	-0.0573717	1.05096	-0.427721	-0.080278	0.847299	0.632488	0	0	1.00296	0.316865	-0.0262816	0.849412	0.634271	0	0
3.9586	2.43467	-0.0909906	-2.78217	0.0689085	-0.987873	0.232087	-0.240665	-0.0270963	-0.622082	0.355499	-0.165683	0	0	-0.346994	-0.270109	0.173769	1.23054	0.0664628	0	0	-1.25016	0.325066	-0.0417485	1.05338	-0.423257	-0.0796022	0.848747	0.632505	0	0	1.00559	0.312412	-0.0274388	0.850382	0.634235	0	0
3.96858	2.4142	-0.0798124	-2.78698	0.0789907	-0.989378	0.233889	-0.266172	-0.0109719	-0.625694	0.36083	-0.152342	0	0	-0.346675	-0.282873	0.162691	1.25336	0.0415324	0	0	-1.26591	0.329835	-0.0261321	1.05579	-0.418788	-0.0789248	0.850189	0.632522	0	0	1.00821	0.30795	-0.0285973	0.851346	0.634198	0	0
3.97857	2.39456	-0.068806	-2.79221	0.0890729	-0.990726	0.23563	-0.291155	0.00401406	-0.628781	0.366399	-0.138819	0	0	-0.346036	-0.293638	0.152381	1.27218	0.0254108	0	0	-1.28174	0.333446	-0.0106069	1.05818	-0.414312	-0.078246	0.851627	0.632539	0	0	1.0108	0.303479	-0.029757	0.852305	0.634162	0	0
3.98856	2.37621	-0.0577989	-2.79783	0.099186	-0.991918	0.237325	-0.314914	0.0177927	-0.631152	0.372618	-0.125267	0	0	-0.344885	-0.302385	0.142699	1.28642	0.017938	0	0	-1.29706	0.336015	0.00478466	1.06055	-0.409831	-0.0775656	0.853059	0.632556	0	0	1.01339	0.299	-0.030918	0.853258	0.634126	0	0
3.99854	2.35963	-0.0466023	-2.80378	0.109362	-0.992956	0.238989	-0.33681	0.0303853	-0.632636	0.379803	-0.111799	0	0	-0.342991	-0.309222	0.133483	1.2957	0.0183172	0	0	-1.31129	0.337704	0.0200361	1.0629	-0.405344	-0.0768838	0.854485	0.632574	0	0	1.01595	0.294512	-0.0320803	0.854207	0.63409	0	0
4.00853	2.34521	-0.0350459	-2.80995	0.119638	-0.993836	0.24063	-0.35629	0.041881	-0.633106	0.388166	-0.098476	0	0	-0.340092	-0.314353	0.124577	1.29972	0.0253591	0	0	-1.32387	0.338709	0.0351533	1.06523	-0.400852	-0.0762005	0.855906	0.632591	0	0	1.0185	0.290016	-0.0332438	0.855149	0.634053	0	0
4.01852	2.33323	-0.0230594	-2.81624	0.130015	-0.994566	0.242246	-0.373033	0.0523807	-0.632466	0.397733	-0.085335	0	0	-0.335912	-0.318004	0.115837	1.2985	0.03762	0	0	-1.3346	0.339196	0.0501563	1.06753	-0.396356	-0.0755158	0.857321	0.632609	0	0	1.02103	0.285513	-0.0344083	0.856086	0.634017	0	0
4.02851	2.32389	-0.0106385	-2.82249	0.140496	-0.995157	0.243833	-0.386888	0.0620187	-0.630661	0.408362	-0.072382	0	0	-0.330183	-0.320445	0.107118	1.29219	0.0536004	0	0	-1.34331	0.339335	0.0650501	1.06982	-0.391856	-0.07483	0.858731	0.632626	0	0	1.02355	0.281002	-0.0355738	0.857018	0.633981	0	0
4.03849	2.31727	0.00215312	-2.82857	0.151084	-0.995616	0.245382	-0.397918	0.0709585	-0.627667	0.419728	-0.0596062	0	0	-0.32269	-0.321982	0.0982662	1.28107	0.0718457	0	0	-1.34993	0.339292	0.0798326	1.07208	-0.387353	-0.0741433	0.860134	0.632644	0	0	1.02605	0.276485	-0.0367399	0.857944	0.633944	0	0
4.04848	2.3133	0.015213	-2.83437	0.161771	-0.995956	0.246885	-0.406396	0.0793791	-0.623481	0.431391	-0.0469928	0	0	-0.313321	-0.32292	0.0891369	1.26553	0.0910088	0	0	-1.35455	0.33922	0.0945073	1.07433	-0.382848	-0.0734559	0.861531	0.632662	0	0	1.02853	0.271964	-0.0379065	0.858865	0.633908	0	0
4.05847	2.31184	0.0284536	-2.83981	0.17257	-0.99618	0.24834	-0.412705	0.0874469	-0.618135	0.442927	-0.0345025	0	0	-0.302149	-0.323565	0.079527	1.2459	0.109984	0	0	-1.35721	0.339248	0.109076	1.07655	-0.378342	-0.0727681	0.862923	0.63268	0	0	1.031	0.267439	-0.0390732	0.859782	0.633872	0	0
4.06845	2.31264	0.0418263	-2.84488	0.183504	-0.99629	0.249747	-0.41727	0.0953018	-0.611666	0.454022	-0.0220904	0	0	-0.289436	-0.324188	0.0692217	1.22244	0.127897	0	0	-1.35795	0.339468	0.123552	1.07875	-0.373835	-0.0720798	0.864308	0.632698	0	0	1.03345	0.262909	-0.0402402	0.860693	0.633836	0	0
4.07844	2.31539	0.0553256	-2.84963	0.194575	-0.996301	0.251108	-0.420504	0.103085	-0.604095	0.464483	-0.00972535	0	0	-0.275596	-0.32501	0.058098	1.1953	0.144039	0	0	-1.35704	0.339952	0.137986	1.08092	-0.369326	-0.071391	0.865689	0.632716	0	0	1.03588	0.258375	-0.0414074	0.8616	0.6338	0	0
4.08843	2.31971	0.0689873	-2.85414	0.205761	-0.996242	0.252426	-0.422774	0.110962	-0.595417	0.474248	0.002611	0	0	-0.261138	-0.326204	0.0461687	1.16451	0.157851	0	0	-1.35498	0.340768	0.15246	1.08308	-0.364817	-0.070702	0.867064	0.632734	0	0	1.03831	0.253837	-0.0425746	0.862503	0.633763	0	0
4.09842	2.3252	0.0828702	-2.85848	0.217046	-0.996132	0.253705	-0.42439	0.119077	-0.585623	0.483341	0.0149538	0	0	-0.246555	-0.32791	0.0334836	1.13014	0.168971	0	0	-1.35218	0.341978	0.167055	1.08522	-0.360307	-0.0700128	0.868434	0.632752	0	0	1.04072	0.249297	-0.0437417	0.863402	0.633727	0	0
4.1084	2.33152	0.0970476	-2.8627	0.228418	-0.995987	0.254949	-0.4256	0.127558	-0.574703	0.491855	0.0273425	0	0	-0.232285	-0.330231	0.0201477	1.09227	0.177205	0	0	-1.34898	0.343638	0.181843	1.08734	-0.355795	-0.0693233	0.869801	0.63277	0	0	1.04312	0.244753	-0.0449087	0.864299	0.633692	0	0
4.11839	2.33839	0.111606	-2.86686	0.239865	-0.99581	0.256169	-0.426592	0.136525	-0.562654	0.499934	0.0398128	0	0	-0.218696	-0.333238	0.00633536	1.05106	0.182486	0	0	-1.34567	0.345802	0.19689	1.08944	-0.35128	-0.0686332	0.871164	0.632789	0	0	1.0455	0.240206	-0.0460759	0.865194	0.633656	0	0
4.12838	2.34562	0.126621	-2.87095	0.251395	-0.995594	0.257368	-0.427507	0.146074	-0.549492	0.507669	0.0524142	0	0	-0.205987	-0.336985	-0.00778315	1.00681	0.184885	0	0	-1.34235	0.348505	0.21224	1.09153	-0.346762	-0.0679423	0.872526	0.632807	0	0	1.04788	0.235654	-0.0472436	0.866086	0.63362	0	0
4.13837	2.35308	0.142176	-2.87497	0.263013	-0.995332	0.258547	-0.428443	0.156301	-0.535253	0.515171	0.0651681	0	0	-0.194279	-0.341512	-0.0219545	0.959874	0.184538	0	0	-1.3391	0.3518	0.227951	1.0936	-0.342239	-0.0672505	0.873885	0.632826	0	0	1.05024	0.231097	-0.0484117	0.866977	0.633584	0	0
4.14835	2.36076	0.158329	-2.87891	0.274745	-0.995009	0.259705	-0.429463	0.167272	-0.519999	0.522455	0.0781106	0	0	-0.183515	-0.346849	-0.0359644	0.910742	0.181692	0	0	-1.33581	0.355716	0.244042	1.09566	-0.337712	-0.0665578	0.875242	0.632844	0	0	1.05259	0.226536	-0.0495804	0.867865	0.633549	0	0
4.15834	2.36877	0.175091	-2.88278	0.286624	-0.994594	0.260825	-0.430611	0.178998	-0.503818	0.529406	0.0912929	0	0	-0.173451	-0.353019	-0.0496822	0.860094	0.176716	0	0	-1.33217	0.36024	0.260482	1.0977	-0.333183	-0.0658647	0.876596	0.632863	0	0	1.05493	0.221971	-0.0507491	0.868751	0.633513	0	0
4.16833	2.37709	0.192495	-2.88657	0.298655	-0.994077	0.261899	-0.431887	0.191529	-0.486799	0.536032	0.104704	0	0	-0.163929	-0.360051	-0.062813	0.808419	0.16998	0	0	-1.3282	0.365399	0.277282	1.09972	-0.328653	-0.0651717	0.877947	0.632882	0	0	1.05726	0.217404	-0.0519174	0.869636	0.633478	0	0
4.17831	2.38566	0.210581	-2.89022	0.310828	-0.99346	0.262933	-0.433279	0.20492	-0.469027	0.542395	0.118326	0	0	-0.154795	-0.367984	-0.0749911	0.756184	0.161879	0	0	-1.32398	0.371254	0.294439	1.10173	-0.324123	-0.064479	0.879297	0.632902	0	0	1.05958	0.212835	-0.0530852	0.870519	0.633443	0	0
4.1883	2.39442	0.22937	-2.89368	0.323133	-0.992765	0.263935	-0.434763	0.219193	-0.450591	0.548582	0.132128	0	0	-0.145904	-0.376846	-0.0858139	0.703843	0.15283	0	0	-1.31961	0.37786	0.311927	1.10373	-0.319593	-0.0637865	0.880646	0.632921	0	0	1.06188	0.208265	-0.0542526	0.871401	0.633408	0	0
4.19829	2.40343	0.2488	-2.89693	0.335573	-0.991998	0.264897	-0.436318	0.234273	-0.431605	0.554536	0.146114	0	0	-0.136991	-0.386617	-0.0950065	0.651978	0.143307	0	0	-1.315	0.385207	0.329647	1.10571	-0.315063	-0.0630942	0.881993	0.63294	0	0	1.06418	0.203693	-0.0554195	0.872282	0.633373	0	0
4.20828	2.41274	0.268763	-2.90004	0.348143	-0.991163	0.265807	-0.437923	0.25001	-0.412198	0.56022	0.160274	0	0	-0.127832	-0.397228	-0.10233	0.601135	0.133752	0	0	-1.31007	0.393238	0.347476	1.10768	-0.310534	-0.0624024	0.883339	0.63296	0	0	1.06647	0.199119	-0.0565858	0.873162	0.633338	0	0
4.21826	2.42239	0.28912	-2.90307	0.360839	-0.990272	0.266658	-0.439555	0.266198	-0.392504	0.565633	0.174598	0	0	-0.11827	-0.408572	-0.107585	0.551803	0.124534	0	0	-1.30478	0.401865	0.365278	1.10963	-0.306005	-0.0617111	0.884684	0.63298	0	0	1.06874	0.194544	-0.0577513	0.874042	0.633303	0	0
4.22825	2.43236	0.309713	-2.90612	0.373645	-0.989346	0.26745	-0.441193	0.282603	-0.372658	0.570833	0.189071	0	0	-0.108234	-0.420521	-0.110609	0.504398	0.115917	0	0	-1.29914	0.410982	0.382926	1.11158	-0.301477	-0.0610204	0.886028	0.633	0	0	1.07101	0.189968	-0.0589161	0.87492	0.633269	0	0
4.23824	2.44263	0.330374	-2.90932	0.386548	-0.988407	0.268187	-0.442818	0.29897	-0.352786	0.575901	0.203676	0	0	-0.0977138	-0.432935	-0.111306	0.459293	0.10805	0	0	-1.29321	0.42047	0.400299	1.1135	-0.29695	-0.0603302	0.887371	0.63302	0	0	1.07326	0.185391	-0.0600801	0.875798	0.633235	0	0
4.24822	2.45312	0.350947	-2.91277	0.399532	-0.987485	0.268883	-0.444411	0.31506	-0.332992	0.580969	0.218392	0	0	-0.0867799	-0.445683	-0.109648	0.416798	0.100971	0	0	-1.28709	0.430207	0.417303	1.11542	-0.292424	-0.0596406	0.888714	0.63304	0	0	1.07551	0.180813	-0.0612433	0.876675	0.6332	0	0
4.25821	2.46387	0.371252	-2.91667	0.412591	-0.986595	0.269541	-0.445964	0.330611	-0.313379	0.586017	0.233225	0	0	-0.0754328	-0.458624	-0.10579	0.377303	0.0946582	0	0	-1.28071	0.440029	0.433824	1.11732	-0.287899	-0.0589517	0.890056	0.63306	0	0	1.07774	0.176235	-0.0624055	0.877551	0.633166	0	0
4.2682	2.47484	0.391128	-2.92115	0.425713	-0.985759	0.270166	-0.447466	0.34539	-0.29403	0.591097	0.248163	0	0	-0.0637597	-0.471635	-0.0999661	0.341135	0.0890266	0	0	-1.27409	0.449775	0.449803	1.1192	-0.283375	-0.0582635	0.891397	0.633081	0	0	1.07997	0.171656	-0.0635668	0.878428	0.633133	0	0
4.27819	2.48607	0.410408	-2.92639	0.438895	-0.984994	0.270764	-0.448911	0.359174	-0.275036	0.596177	0.263209	0	0	-0.0518172	-0.484595	-0.0925292	0.308643	0.0839637	0	0	-1.26711	0.459268	0.465172	1.12108	-0.278852	-0.057576	0.892737	0.633101	0	0	1.08218	0.167078	-0.0647272	0.879304	0.633099	0	0
4.28817	2.49749	0.428952	-2.9325	0.45213	-0.984332	0.271345	-0.450288	0.371788	-0.256479	0.601335	0.27834	0	0	-0.03976	-0.497396	-0.0838774	0.280088	0.079324	0	0	-1.2598	0.468364	0.479921	1.12294	-0.274329	-0.0568891	0.894077	0.633122	0	0	1.08439	0.162499	-0.0658865	0.880179	0.633065	0	0
4.29816	2.50904	0.446636	-2.93955	0.465414	-0.983796	0.271918	-0.451592	0.383077	-0.238449	0.606608	0.293541	0	0	-0.0277302	-0.509936	-0.0744743	0.25571	0.074945	0	0	-1.25212	0.476925	0.494023	1.12478	-0.269808	-0.0562028	0.895417	0.633143	0	0	1.08658	0.15792	-0.0670448	0.881055	0.633032	0	0
4.30815	2.52052	0.463379	-2.94751	0.478725	-0.983425	0.272503	-0.452812	0.392971	-0.221008	0.61225	0.308734	0	0	-0.0160168	-0.522128	-0.0647946	0.2356	0.0706299	0	0	-1.2443	0.484879	0.507528	1.12661	-0.265286	-0.055517	0.896755	0.633164	0	0	1.08877	0.15334	-0.0682023	0.881931	0.632999	0	0
4.31814	2.53173	0.479132	-2.95632	0.492043	-0.983251	0.27312	-0.453942	0.401429	-0.204196	0.618496	0.323828	0	0	-0.00489918	-0.533901	-0.0553401	0.219791	0.0661405	0	0	-1.23654	0.492177	0.520448	1.12843	-0.260764	-0.0548315	0.898094	0.633185	0	0	1.09095	0.14876	-0.069359	0.882807	0.632966	0	0
4.32812	2.54248	0.493851	-2.96592	0.505342	-0.983299	0.273794	-0.454978	0.408419	-0.188042	0.625607	0.338685	0	0	0.00531978	-0.545171	-0.0466342	0.208224	0.0611827	0	0	-1.22908	0.49877	0.532756	1.13024	-0.256241	-0.0541464	0.899433	0.633206	0	0	1.09311	0.14418	-0.070515	0.883683	0.632933	0	0
4.33811	2.55263	0.507483	-2.97628	0.518602	-0.983576	0.274537	-0.455918	0.413884	-0.172589	0.633708	0.35316	0	0	0.0144246	-0.555841	-0.0391771	0.200782	0.0554096	0	0	-1.222	0.504589	0.544383	1.13203	-0.251717	-0.0534614	0.900772	0.633227	0	0	1.09527	0.139598	-0.0716703	0.88456	0.632901	0	0
4.3481	2.56219	0.519916	-2.98747	0.531802	-0.984065	0.275346	-0.456767	0.41769	-0.157939	0.642703	0.36709	0	0	0.0223462	-0.565761	-0.0334885	0.197325	0.048451	0	0	-1.21519	0.509496	0.555198	1.13381	-0.247193	-0.0527765	0.90211	0.633249	0	0	1.09742	0.135014	-0.0728248	0.885437	0.632868	0	0
4.35808	2.5712	0.531007	-2.99953	0.544915	-0.984737	0.276209	-0.457534	0.419654	-0.144234	0.652456	0.380278	0	0	0.0290708	-0.574757	-0.0300265	0.197662	0.0399268	0	0	-1.20845	0.513311	0.565055	1.13557	-0.242667	-0.0520919	0.903446	0.633271	0	0	1.09955	0.13043	-0.0739786	0.886313	0.632836	0	0
4.36807	2.57957	0.540633	-3.01242	0.557896	-0.985558	0.27712	-0.458227	0.419645	-0.131611	0.663037	0.392489	0	0	0.0345269	-0.582663	-0.0290886	0.201512	0.0294748	0	0	-1.20182	0.515883	0.573865	1.13732	-0.238141	-0.0514074	0.904781	0.633293	0	0	1.10168	0.125845	-0.0751317	0.887188	0.632804	0	0
4.37806	2.58727	0.548639	-3.02609	0.570704	-0.986484	0.278063	-0.458862	0.417491	-0.120224	0.674421	0.403458	0	0	0.0387447	-0.589298	-0.0309241	0.208576	0.0168148	0	0	-1.1952	0.517022	0.581496	1.13905	-0.233614	-0.0507229	0.906112	0.633315	0	0	1.10379	0.121258	-0.076284	0.88806	0.632772	0	0
4.38805	2.59426	0.554849	-3.04046	0.583294	-0.98746	0.279016	-0.459451	0.412993	-0.11025	0.686596	0.412854	0	0	0.0417859	-0.594457	-0.0357332	0.21852	0.0017967	0	0	-1.18851	0.516505	0.587785	1.14075	-0.229087	-0.0500384	0.90744	0.633337	0	0	1.10588	0.11667	-0.0774357	0.88893	0.63274	0	0
4.39803	2.60031	0.559123	-3.05533	0.595613	-0.988446	0.279974	-0.460007	0.406032	-0.101852	0.699812	0.420276	0	0	0.0435952	-0.597952	-0.0435318	0.230914	-0.015535	0	0	-1.18194	0.514162	0.592622	1.14243	-0.224558	-0.0493537	0.908762	0.633359	0	0	1.10795	0.112079	-0.0785868	0.889795	0.632708	0	0
4.40802	2.60506	0.561389	-3.07036	0.607599	-0.989413	0.280947	-0.460536	0.396616	-0.0951389	0.714556	0.425252	0	0	0.043976	-0.599639	-0.0540263	0.245212	-0.0348286	0	0	-1.1759	0.509916	0.595946	1.14409	-0.220029	-0.0486689	0.91008	0.633381	0	0	1.11	0.107486	-0.0797372	0.890656	0.632677	0	0
4.41801	2.60827	0.561536	-3.08525	0.619215	-0.99032	0.28193	-0.461046	0.384726	-0.0902547	0.731034	0.427233	0	0	0.0428995	-0.59934	-0.0667465	0.261004	-0.0552645	0	0	-1.17058	0.503701	0.597602	1.14572	-0.215499	-0.047984	0.911392	0.633403	0	0	1.11204	0.10289	-0.080887	0.891511	0.632645	0	0
4.42799	2.60986	0.559403	-3.09973	0.630451	-0.99112	0.282904	-0.461543	0.370308	-0.0874188	0.749178	0.425585	0	0	0.040501	-0.596831	-0.0811224	0.278072	-0.0755974	0	0	-1.16586	0.495472	0.597344	1.14733	-0.210969	-0.047299	0.912697	0.633426	0	0	1.11405	0.0982931	-0.0820362	0.892361	0.632614	0	0
4.43798	2.60965	0.554938	-3.1134	0.641302	-0.991784	0.283869	-0.462031	0.353491	-0.0868404	0.769107	0.419685	0	0	0.0367834	-0.591973	-0.096355	0.296155	-0.094492	0	0	-1.16186	0.485382	0.595005	1.14891	-0.20644	-0.0466141	0.913996	0.633448	0	0	1.11604	0.0936942	-0.0831845	0.893206	0.632582	0	0
4.44797	2.60751	0.548158	-3.12587	0.651783	-0.992287	0.284827	-0.46251	0.334502	-0.0886542	0.790826	0.408936	0	0	0.0317671	-0.584691	-0.111712	0.314958	-0.110769	0	0	-1.15861	0.4737	0.590418	1.15047	-0.201912	-0.0459295	0.915289	0.633471	0	0	1.11801	0.0890942	-0.0843319	0.894044	0.632551	0	0
4.45796	2.60341	0.539146	-3.13677	0.661924	-0.992614	0.285778	-0.462983	0.313615	-0.0928949	0.814255	0.392811	0	0	0.0254288	-0.574988	-0.126719	0.334081	-0.12355	0	0	-1.15614	0.460762	0.583472	1.15199	-0.197385	-0.0452452	0.916575	0.633493	0	0	1.11995	0.0844933	-0.0854783	0.894876	0.632519	0	0
4.46794	2.59719	0.528173	-3.14576	0.671749	-0.992777	0.286749	-0.463453	0.291266	-0.0994564	0.839542	0.370981	0	0	0.017476	-0.563003	-0.140991	0.352892	-0.132352	0	0	-1.15477	0.447018	0.574257	1.1535	-0.19286	-0.0445613	0.917854	0.633515	0	0	1.12188	0.0798912	-0.0866238	0.895702	0.632488	0	0
4.47793	2.58877	0.515612	-3.15258	0.681284	-0.992802	0.28777	-0.463919	0.267948	-0.108067	0.866802	0.343361	0	0	0.00754177	-0.548978	-0.154251	0.370711	-0.137062	0	0	-1.15487	0.432938	0.562997	1.15498	-0.188337	-0.0438777	0.919128	0.633538	0	0	1.12378	0.0752877	-0.0877684	0.896523	0.632457	0	0
4.48792	2.57808	0.501918	-3.15711	0.690551	-0.99273	0.28887	-0.464383	0.244203	-0.118326	0.896106	0.310182	0	0	-0.00476956	-0.533245	-0.166228	0.38687	-0.137911	0	0	-1.15686	0.418981	0.550034	1.15643	-0.183815	-0.0431944	0.920395	0.63356	0	0	1.12566	0.0706825	-0.0889123	0.897336	0.632425	0	0
4.49791	2.56521	0.487489	-3.15932	0.69958	-0.992595	0.290066	-0.464847	0.220526	-0.129785	0.927282	0.272005	0	0	-0.0196733	-0.516152	-0.176772	0.400888	-0.13535	0	0	-1.16097	0.405533	0.535729	1.15786	-0.179294	-0.0425112	0.921656	0.633583	0	0	1.12751	0.0660753	-0.0900555	0.898144	0.632394	0	0
4.50789	2.55035	0.472619	-3.15933	0.708399	-0.992428	0.291352	-0.465318	0.197314	-0.14202	0.959917	0.229745	0	0	-0.0371914	-0.498027	-0.185893	0.412505	-0.129957	0	0	-1.16721	0.392857	0.520433	1.15927	-0.174774	-0.0418281	0.922911	0.633605	0	0	1.12934	0.061466	-0.0911981	0.898945	0.632363	0	0
4.51788	2.53381	0.457499	-3.15731	0.717041	-0.992251	0.292707	-0.465801	0.17489	-0.154664	0.993382	0.184693	0	0	-0.0571387	-0.479183	-0.19368	0.421695	-0.122339	0	0	-1.1754	0.381119	0.504463	1.16065	-0.170255	-0.041145	0.924159	0.633628	0	0	1.13115	0.0568546	-0.0923402	0.89974	0.632332	0	0
4.52787	2.51595	0.442247	-3.15349	0.725539	-0.992081	0.294105	-0.466301	0.153499	-0.16744	1.02692	0.138471	0	0	-0.0791969	-0.459916	-0.200271	0.42863	-0.11308	0	0	-1.18529	0.370396	0.488079	1.162	-0.165737	-0.0404618	0.925401	0.633651	0	0	1.13294	0.0522412	-0.0934817	0.900528	0.632301	0	0
4.53785	2.49703	0.427043	-3.1481	0.733915	-0.991945	0.295531	-0.466818	0.133401	-0.180155	1.05985	0.0929863	0	0	-0.103089	-0.440574	-0.205688	0.43353	-0.10273	0	0	-1.19675	0.360772	0.471529	1.16333	-0.16122	-0.0397785	0.926637	0.633673	0	0	1.1347	0.0476257	-0.0946228	0.901309	0.63227	0	0
4.54784	2.47739	0.41206	-3.14135	0.742188	-0.991865	0.296971	-0.467348	0.114867	-0.192663	1.09147	0.050255	0	0	-0.128446	-0.421536	-0.209932	0.436756	-0.0917546	0	0	-1.20963	0.352324	0.455021	1.16464	-0.156704	-0.0390948	0.927865	0.633696	0	0	1.13644	0.0430077	-0.0957635	0.902083	0.632238	0	0
4.55783	2.45734	0.39744	-3.1334	0.750381	-0.991857	0.298402	-0.467881	0.0981609	-0.204862	1.12105	0.0121826	0	0	-0.154811	-0.403179	-0.213031	0.438779	-0.0805102	0	0	-1.22368	0.34511	0.438721	1.16592	-0.152187	-0.0384108	0.929088	0.633719	0	0	1.13815	0.0383871	-0.096904	0.902851	0.632207	0	0
4.56782	2.43713	0.383378	-3.12438	0.758502	-0.991946	0.299821	-0.468391	0.083559	-0.21671	1.14803	-0.0196517	0	0	-0.181818	-0.385888	-0.214937	0.440012	-0.0692849	0	0	-1.23885	0.339228	0.422801	1.16718	-0.147671	-0.0377262	0.930303	0.633741	0	0	1.13984	0.0337636	-0.0980444	0.903611	0.632176	0	0
4.5778	2.41706	0.369975	-3.1144	0.766567	-0.99214	0.301215	-0.468843	0.0712532	-0.228211	1.17182	-0.0442349	0	0	-0.209009	-0.369965	-0.215668	0.440924	-0.0582622	0	0	-1.25489	0.334723	0.407381	1.16842	-0.143154	-0.0370409	0.931512	0.633764	0	0	1.14151	0.029137	-0.0991847	0.904365	0.632145	0	0
4.58779	2.39742	0.357264	-3.10359	0.774591	-0.99244	0.302574	-0.469185	0.0613003	-0.239435	1.19187	-0.0612555	0	0	-0.235911	-0.355605	-0.21526	0.441958	-0.0475453	0	0	-1.27155	0.331592	0.392533	1.16963	-0.138637	-0.0363549	0.932715	0.633787	0	0	1.14315	0.0245073	-0.100325	0.905111	0.632114	0	0
4.59778	2.37853	0.345187	-3.09208	0.782596	-0.992834	0.303889	-0.469344	0.0535998	-0.250502	1.20762	-0.0710025	0	0	-0.262026	-0.342872	-0.213782	0.443535	-0.0371656	0	0	-1.28845	0.329763	0.378279	1.17081	-0.134119	-0.0356681	0.933911	0.63381	0	0	1.14476	0.0198745	-0.101465	0.90585	0.632083	0	0
4.60777	2.36075	0.333598	-3.08008	0.790608	-0.993296	0.305144	-0.469226	0.0478979	-0.261569	1.21857	-0.0741626	0	0	-0.286812	-0.331701	-0.211331	0.446051	-0.0270933	0	0	-1.3051	0.329082	0.364578	1.17197	-0.129601	-0.0349806	0.9351	0.633833	0	0	1.14636	0.0152389	-0.102605	0.906583	0.632052	0	0
4.61775	2.3445	0.322268	-3.06784	0.798668	-0.993784	0.306317	-0.468717	0.0438077	-0.272817	1.22418	-0.0716395	0	0	-0.309688	-0.321898	-0.208042	0.449872	-0.0172514	0	0	-1.32083	0.329314	0.351333	1.17311	-0.125084	-0.0342924	0.936282	0.633856	0	0	1.14792	0.0106009	-0.103746	0.907308	0.632021	0	0
4.62774	2.33019	0.310964	-3.05565	0.80681	-0.994261	0.307389	-0.467677	0.0408762	-0.284434	1.22406	-0.064474	0	0	-0.330141	-0.313199	-0.204022	0.455249	-0.00755446	0	0	-1.33501	0.33019	0.33842	1.17422	-0.120566	-0.0336036	0.937457	0.633879	0	0	1.14946	0.00596085	-0.104886	0.908026	0.63199	0	0
4.63773	2.31803	0.299519	-3.04369	0.815027	-0.994715	0.308361	-0.465949	0.0386836	-0.296616	1.21811	-0.0538225	0	0	-0.347884	-0.305332	-0.199322	0.462236	0.00206014	0	0	-1.34747	0.331454	0.325748	1.17531	-0.11605	-0.0329143	0.938625	0.633902	0	0	1.15098	0.00131901	-0.106025	0.908736	0.631959	0	0
4.64771	2.3082	0.287804	-3.03216	0.823309	-0.995139	0.309236	-0.463368	0.0368292	-0.309541	1.20635	-0.0408253	0	0	-0.362746	-0.298007	-0.193945	0.470744	0.0116445	0	0	-1.35805	0.332863	0.313217	1.17637	-0.111534	-0.0322244	0.939786	0.633925	0	0	1.15247	-0.00332449	-0.107165	0.90944	0.631928	0	0
4.6577	2.30078	0.275734	-3.02121	0.831641	-0.995534	0.310023	-0.459775	0.0349643	-0.323347	1.18896	-0.0265803	0	0	-0.374723	-0.290938	-0.187847	0.480529	0.0212325	0	0	-1.36678	0.334192	0.30073	1.17741	-0.107018	-0.031534	0.940941	0.633948	0	0	1.15394	-0.00796961	-0.108304	0.910136	0.631896	0	0
4.66769	2.29575	0.263281	-3.01095	0.840002	-0.995903	0.310733	-0.455048	0.0328111	-0.338121	1.16626	-0.0120933	0	0	-0.383998	-0.283852	-0.18095	0.491194	0.0308445	0	0	-1.37378	0.335239	0.2882	1.17843	-0.102504	-0.0308431	0.942088	0.633971	0	0	1.15539	-0.0126169	-0.109443	0.910825	0.631865	0	0
4.67768	2.293	0.250458	-3.0015	0.848388	-0.996244	0.311374	-0.449129	0.0301604	-0.353916	1.13863	0.00180685	0	0	-0.3909	-0.276509	-0.17317	0.502247	0.0405077	0	0	-1.37919	0.335833	0.27555	1.17941	-0.0979887	-0.0301517	0.943228	0.633994	0	0	1.1568	-0.0172666	-0.110582	0.911507	0.631834	0	0
4.68766	2.2924	0.237294	-2.9929	0.856813	-0.996545	0.311952	-0.442079	0.0268859	-0.37077	1.10642	0.0144996	0	0	-0.395831	-0.268731	-0.164466	0.513233	0.0502592	0	0	-1.38305	0.335856	0.262713	1.18038	-0.0934737	-0.0294596	0.944361	0.634017	0	0	1.1582	-0.0219188	-0.111722	0.912182	0.631803	0	0
4.69765	2.29372	0.223811	-2.98515	0.865288	-0.996795	0.312472	-0.434096	0.022953	-0.388678	1.06994	0.0255292	0	0	-0.399202	-0.260406	-0.154828	0.523831	0.0601334	0	0	-1.38545	0.335234	0.249648	1.18132	-0.0889584	-0.028767	0.945488	0.63404	0	0	1.15957	-0.0265736	-0.112861	0.912849	0.631772	0	0
4.70764	2.29672	0.210034	-2.97818	0.873837	-0.996983	0.312935	-0.425444	0.0183931	-0.407617	1.0295	0.0346072	0	0	-0.401402	-0.251491	-0.144287	0.53385	0.0701744	0	0	-1.38641	0.33395	0.236326	1.18224	-0.0844432	-0.0280737	0.946607	0.634063	0	0	1.16092	-0.0312308	-0.113999	0.913509	0.631741	0	0
4.71762	2.30113	0.195974	-2.97189	0.882469	-0.997105	0.313344	-0.41642	0.0132876	-0.427459	0.98535	0.0415308	0	0	-0.402768	-0.241966	-0.132881	0.543213	0.0804079	0	0	-1.38606	0.331994	0.222746	1.18313	-0.0799283	-0.0273799	0.947719	0.634086	0	0	1.16224	-0.0358899	-0.115138	0.914162	0.631709	0	0
4.72761	2.30675	0.181654	-2.96619	0.891218	-0.997137	0.3137	-0.40724	0.00773305	-0.448103	0.93787	0.0462714	0	0	-0.403584	-0.231869	-0.120692	0.551882	0.0908882	0	0	-1.38435	0.329413	0.208903	1.184	-0.0754143	-0.0266857	0.948824	0.634109	0	0	1.16354	-0.0405505	-0.116277	0.914807	0.631678	0	0
4.7376	2.31338	0.167085	-2.96099	0.900101	-0.997071	0.314011	-0.398096	0.00183919	-0.469315	0.887421	0.0488505	0	0	-0.404071	-0.221233	-0.107805	0.559896	0.101637	0	0	-1.38135	0.326239	0.194814	1.18484	-0.0709017	-0.0259912	0.949922	0.634132	0	0	1.16481	-0.0452121	-0.117415	0.915446	0.631647	0	0
4.74759	2.32079	0.152253	-2.95622	0.90911	-0.996909	0.314285	-0.389163	-0.00429976	-0.490711	0.834359	0.0493095	0	0	-0.404399	-0.210061	-0.0942982	0.56738	0.11264	0	0	-1.37729	0.322467	0.180519	1.18566	-0.0663909	-0.0252966	0.951013	0.634155	0	0	1.16607	-0.0498741	-0.118553	0.916078	0.631616	0	0
4.75757	2.32874	0.137111	-2.95187	0.9182	-0.996674	0.314528	-0.380615	-0.0106188	-0.511714	0.779001	0.0476768	0	0	-0.404683	-0.198304	-0.0802431	0.574546	0.123841	0	0	-1.37271	0.31803	0.166081	1.18646	-0.0618829	-0.0246021	0.952097	0.634179	0	0	1.1673	-0.0545356	-0.11969	0.916704	0.631585	0	0
4.76756	2.33709	0.121662	-2.94793	0.927355	-0.996371	0.314745	-0.37244	-0.0170788	-0.531829	0.721893	0.0441302	0	0	-0.404998	-0.185983	-0.0657554	0.58152	0.135223	0	0	-1.36785	0.312924	0.15157	1.18724	-0.0573791	-0.0239081	0.953175	0.634202	0	0	1.16851	-0.0591952	-0.120826	0.917323	0.631553	0	0
4.77755	2.34579	0.105971	-2.94435	0.936592	-0.995979	0.314946	-0.364454	-0.02365	-0.550662	0.663815	0.0390082	0	0	-0.405387	-0.173204	-0.0509836	0.588332	0.1468	0	0	-1.3627	0.307232	0.137075	1.18799	-0.0528807	-0.0232151	0.954246	0.634225	0	0	1.1697	-0.0638517	-0.121961	0.917937	0.631522	0	0
4.78754	2.35465	0.0900526	-2.94116	0.945866	-0.99549	0.315145	-0.356503	-0.0303938	-0.567673	0.605512	0.032685	0	0	-0.405845	-0.159989	-0.036028	0.595106	0.158538	0	0	-1.35758	0.300966	0.122671	1.18873	-0.0483888	-0.0225234	0.955312	0.634247	0	0	1.17088	-0.0685032	-0.123094	0.918546	0.631491	0	0
4.79752	2.36353	0.0739188	-2.93834	0.955156	-0.994897	0.315348	-0.348319	-0.0374581	-0.582348	0.547962	0.0256623	0	0	-0.406361	-0.146348	-0.0209637	0.601935	0.170428	0	0	-1.35266	0.294128	0.108391	1.18945	-0.0439034	-0.021833	0.956375	0.63427	0	0	1.17204	-0.0731496	-0.124225	0.919152	0.631461	0	0
4.80751	2.37244	0.0575916	-2.93587	0.964454	-0.994176	0.315559	-0.339488	-0.0450618	-0.594268	0.492426	0.0186066	0	0	-0.406922	-0.132316	-0.00583952	0.60881	0.182496	0	0	-1.34792	0.286765	0.0942283	1.19015	-0.0394254	-0.0211442	0.957433	0.634293	0	0	1.17318	-0.0777898	-0.125354	0.919756	0.63143	0	0
4.8175	2.38139	0.0410587	-2.93373	0.973749	-0.993312	0.315782	-0.329553	-0.0535142	-0.603003	0.44034	0.0122773	0	0	-0.407511	-0.117892	0.00936217	0.615751	0.194759	0	0	-1.34332	0.278905	0.0801352	1.19084	-0.034956	-0.0204572	0.958488	0.634316	0	0	1.17432	-0.0824225	-0.126481	0.920357	0.631399	0	0
4.82748	2.39039	0.0242449	-2.93187	0.983033	-0.992286	0.316019	-0.318	-0.0632473	-0.608111	0.39334	0.00751943	0	0	-0.408116	-0.102999	0.0247361	0.622793	0.207236	0	0	-1.33882	0.27053	0.0660017	1.19151	-0.0304965	-0.0197725	0.95954	0.634339	0	0	1.17544	-0.0870464	-0.127606	0.920956	0.631369	0	0
4.83747	2.39938	0.00754646	-2.9301	0.992314	-0.991089	0.316275	-0.305211	-0.073734	-0.609864	0.350879	0.00407473	0	0	-0.408704	-0.088056	0.040066	0.629897	0.219854	0	0	-1.33445	0.26194	0.0519618	1.19217	-0.026043	-0.0190889	0.960589	0.634362	0	0	1.17655	-0.0916651	-0.128729	0.921552	0.631338	0	0
4.84746	2.40825	-0.00873775	-2.92822	1.0016	-0.989715	0.31656	-0.291556	-0.0845329	-0.608642	0.31256	0.001692	0	0	-0.409241	-0.0734565	0.055151	0.637094	0.232586	0	0	-1.33026	0.253413	0.0382172	1.19281	-0.0215918	-0.0184052	0.961636	0.634385	0	0	1.17765	-0.0962822	-0.129851	0.922148	0.631308	0	0
4.85745	2.41692	-0.0244085	-2.9261	1.01089	-0.988178	0.316886	-0.277347	-0.0953578	-0.60486	0.278169	0.000172319	0	0	-0.409696	-0.0594805	0.0698804	0.644417	0.245418	0	0	-1.32627	0.245165	0.0249252	1.19345	-0.0171421	-0.0177214	0.962683	0.634408	0	0	1.17873	-0.100898	-0.130973	0.922742	0.631278	0	0
4.86743	2.4253	-0.0393881	-2.92364	1.0202	-0.986502	0.317251	-0.262837	-0.106065	-0.598952	0.247642	-0.00064331	0	0	-0.410038	-0.046288	0.0842316	0.651895	0.258339	0	0	-1.32248	0.237338	0.0121743	1.19408	-0.0126946	-0.0170378	0.963731	0.634431	0	0	1.17981	-0.105511	-0.132095	0.923337	0.631248	0	0
4.87742	2.43361	-0.0537603	-2.92084	1.02829	-0.983279	0.315052	-0.248274	-0.116598	-0.591349	0.22106	-0.000880384	0	0	-0.410306	-0.033968	0.0982565	0.659569	0.271347	0	0	-1.31894	0.230002	-8.90583e-06	1.1947	-0.00824809	-0.0163544	0.964778	0.634454	0	0	1.18087	-0.110123	-0.133216	0.923931	0.631218	0	0
4.88741	2.44186	-0.067606	-2.91769	1.03565	-0.979072	0.311237	-0.233822	-0.127056	-0.582456	0.198552	-0.000628529	0	0	-0.410496	-0.0224445	0.112052	0.667458	0.28444	0	0	-1.31563	0.223106	-0.0116732	1.19531	-0.00380266	-0.015671	0.965825	0.634477	0	0	1.18193	-0.114734	-0.134337	0.924524	0.631189	0	0
4.89739	2.4502	-0.081067	-2.91417	1.04269	-0.974343	0.306552	-0.219482	-0.137627	-0.572673	0.180352	7.58679e-05	0	0	-0.410605	-0.0115829	0.125723	0.675387	0.297674	0	0	-1.31228	0.216574	-0.022913	1.19592	0.000641727	-0.0149878	0.96687	0.6345	0	0	1.18298	-0.119344	-0.135457	0.925117	0.631159	0	0
4.90738	2.45878	-0.0943557	-2.91027	1.04971	-0.969448	0.301554	-0.205215	-0.14857	-0.56235	0.166675	0.00124541	0	0	-0.410632	-0.0011642	0.139397	0.683164	0.311092	0	0	-1.30856	0.210258	-0.0338839	1.19652	0.00508508	-0.0143048	0.967915	0.634524	0	0	1.18402	-0.123953	-0.136577	0.925709	0.631129	0	0
4.91737	2.4677	-0.107511	-2.90589	1.05691	-0.964653	0.296632	-0.191169	-0.159843	-0.551929	0.157366	0.00258081	0	0	-0.410579	0.00881124	0.153133	0.690657	0.324679	0	0	-1.30424	0.204225	-0.0446777	1.19711	0.00952741	-0.0136218	0.968959	0.634547	0	0	1.18506	-0.128561	-0.137697	0.926301	0.6311	0	0
4.92736	2.47699	-0.120375	-2.9008	1.06442	-0.960142	0.292043	-0.177631	-0.17111	-0.541941	0.152049	0.00351567	0	0	-0.410448	0.0180714	0.166881	0.697847	0.338376	0	0	-1.29918	0.198795	-0.0552709	1.19769	0.0139687	-0.012939	0.970002	0.63457	0	0	1.18609	-0.133168	-0.138816	0.926892	0.63107	0	0
4.93734	2.48657	-0.132814	-2.89487	1.07231	-0.956034	0.287933	-0.16493	-0.182065	-0.532788	0.150284	0.00351034	0	0	-0.410241	0.0263818	0.180559	0.704879	0.352094	0	0	-1.29343	0.194207	-0.0656228	1.19827	0.018409	-0.0122564	0.971045	0.634594	0	0	1.18711	-0.137775	-0.139935	0.927483	0.631041	0	0
4.94733	2.4963	-0.144723	-2.88804	1.08061	-0.952396	0.28437	-0.153377	-0.192457	-0.524682	0.151621	0.00208867	0	0	-0.409962	0.0335686	0.194066	0.712024	0.365705	0	0	-1.28713	0.190595	-0.0756824	1.19884	0.0228483	-0.0115738	0.972087	0.634617	0	0	1.18812	-0.14238	-0.141053	0.928073	0.631011	0	0
4.95732	2.50606	-0.156008	-2.88028	1.08931	-0.949262	0.281363	-0.143156	-0.202089	-0.517718	0.155631	-0.00114124	0	0	-0.409615	0.0394642	0.207252	0.719468	0.37908	0	0	-1.28028	0.188056	-0.0853589	1.19941	0.0272865	-0.0108914	0.973128	0.634641	0	0	1.18913	-0.146984	-0.142172	0.928663	0.630982	0	0
4.96731	2.51589	-0.166547	-2.8715	1.09839	-0.946638	0.278883	-0.134271	-0.210769	-0.512016	0.161897	-0.0065071	0	0	-0.409205	0.0438391	0.219866	0.727162	0.392103	0	0	-1.27252	0.186743	-0.0945096	1.19997	0.0317238	-0.0102092	0.974169	0.634665	0	0	1.19014	-0.151588	-0.143289	0.929252	0.630953	0	0
4.97729	2.52546	-0.176194	-2.86193	1.10781	-0.944513	0.276878	-0.126898	-0.218311	-0.507649	0.169966	-0.0142697	0	0	-0.408735	0.0465889	0.231657	0.735528	0.404496	0	0	-1.26445	0.186662	-0.103084	1.20052	0.03616	-0.00952703	0.975209	0.634689	0	0	1.19113	-0.15619	-0.144407	0.929841	0.630924	0	0
4.98728	2.53461	-0.184799	-2.85174	1.11753	-0.94287	0.275286	-0.12097	-0.2246	-0.504684	0.179508	-0.0245867	0	0	-0.408212	0.0476006	0.242344	0.744696	0.416013	0	0	-1.25632	0.187833	-0.110958	1.20107	0.0405953	-0.00884503	0.976249	0.634712	0	0	1.19212	-0.160792	-0.145524	0.930429	0.630895	0	0
4.99727	2.54309	-0.192237	-2.84118	1.12749	-0.941683	0.274041	-0.1164	-0.229582	-0.503126	0.190266	-0.0374771	0	0	-0.407638	0.0468094	0.251659	0.754918	0.426327	0	0	-1.24843	0.190222	-0.118	1.20161	0.0450296	-0.00816318	0.977288	0.634736	0	0	1.19311	-0.165392	-0.146641	0.931017	0.630866	0	0
5.00725	2.55064	-0.198418	-2.83053	1.13765	-0.94093	0.273082	-0.11307	-0.233281	-0.502869	0.202062	-0.0527804	0	0	-0.407019	0.0442206	0.259353	0.766486	0.435058	0	0	-1.24107	0.193716	-0.124054	1.20215	0.0494629	-0.00748145	0.978327	0.63476	0	0	1.19409	-0.169992	-0.147758	0.931605	0.630837	0	0
5.01724	2.55697	-0.203095	-2.82005	1.14797	-0.940585	0.272352	-0.111079	-0.235454	-0.503932	0.214391	-0.0704359	0	0	-0.40636	0.0396745	0.265107	0.779689	0.441717	0	0	-1.23455	0.198425	-0.128878	1.20268	0.0538952	-0.00679987	0.979365	0.634784	0	0	1.19506	-0.17459	-0.148874	0.932192	0.630809	0	0
5.02723	2.56187	-0.20604	-2.80995	1.15839	-0.940627	0.271804	-0.110389	-0.235924	-0.506228	0.227061	-0.0899211	0	0	-0.405664	0.0330166	0.268576	0.794661	0.445793	0	0	-1.22899	0.204437	-0.132199	1.20321	0.0583265	-0.00611841	0.980403	0.634808	0	0	1.19603	-0.179188	-0.14999	0.932779	0.63078	0	0
5.03722	2.56513	-0.207155	-2.80048	1.16889	-0.941032	0.271396	-0.110893	-0.234668	-0.509439	0.240253	-0.110184	0	0	-0.404937	0.0242357	0.269508	0.811564	0.446732	0	0	-1.2245	0.211706	-0.133794	1.20373	0.0627569	-0.0054371	0.98144	0.634832	0	0	1.197	-0.183785	-0.151106	0.933365	0.630751	0	0
5.0472	2.56657	-0.206515	-2.79192	1.17942	-0.941778	0.271094	-0.112393	-0.231868	-0.513027	0.254499	-0.1298	0	0	-0.404183	0.0135201	0.267826	0.83059	0.443969	0	0	-1.22124	0.219997	-0.133534	1.20425	0.0671863	-0.00475592	0.982477	0.634856	0	0	1.19796	-0.18838	-0.152221	0.933952	0.630723	0	0
5.05719	2.56605	-0.204384	-2.78457	1.18995	-0.942844	0.270869	-0.114634	-0.227917	-0.516286	0.27055	-0.147174	0	0	-0.403406	0.00125776	0.263674	0.851967	0.436955	0	0	-1.2194	0.22889	-0.131408	1.20476	0.0716148	-0.00407488	0.983514	0.634881	0	0	1.19892	-0.192975	-0.153336	0.934538	0.630694	0	0
5.06718	2.56351	-0.200872	-2.77859	1.20045	-0.944206	0.270696	-0.117654	-0.222858	-0.518891	0.288269	-0.161334	0	0	-0.402612	-0.0123487	0.257177	0.875586	0.42518	0	0	-1.21898	0.238168	-0.127436	1.20528	0.0760427	-0.0033939	0.98455	0.634905	0	0	1.19987	-0.197569	-0.154451	0.935124	0.630666	0	0
5.07716	2.55886	-0.196232	-2.77411	1.21087	-0.945842	0.270555	-0.12159	-0.216848	-0.520505	0.30753	-0.171475	0	0	-0.401804	-0.027001	0.248596	0.9015	0.408257	0	0	-1.22019	0.247497	-0.121723	1.20579	0.0804702	-0.002713	0.985586	0.634929	0	0	1.20082	-0.202163	-0.155566	0.935709	0.630637	0	0
5.08715	2.55202	-0.190557	-2.77116	1.2212	-0.947726	0.270426	-0.127073	-0.209611	-0.52122	0.327017	-0.17772	0	0	-0.400986	-0.0425808	0.238152	0.929553	0.385963	0	0	-1.22323	0.256744	-0.11437	1.20629	0.0848971	-0.00203216	0.986622	0.634953	0	0	1.20177	-0.206756	-0.156681	0.936295	0.630609	0	0
5.09714	2.54286	-0.184035	-2.76974	1.23141	-0.949834	0.270296	-0.134746	-0.200996	-0.521133	0.34559	-0.180374	0	0	-0.40016	-0.0589186	0.226158	0.959727	0.358348	0	0	-1.22849	0.265707	-0.1055	1.20679	0.0893236	-0.0013514	0.987657	0.634977	0	0	1.20271	-0.211349	-0.157795	0.93688	0.630581	0	0
5.10713	2.53146	-0.176789	-2.76972	1.24147	-0.952138	0.270154	-0.144912	-0.190947	-0.520529	0.362541	-0.179829	0	0	-0.399327	-0.0759123	0.212984	0.991653	0.325755	0	0	-1.23603	0.274292	-0.0952437	1.2073	0.0937495	-0.000670696	0.988692	0.635002	0	0	1.20365	-0.215942	-0.15891	0.937465	0.630552	0	0
5.11711	2.51791	-0.168963	-2.77092	1.25137	-0.954611	0.269993	-0.157773	-0.179507	-0.51971	0.377365	-0.176602	0	0	-0.398488	-0.0934323	0.199026	1.02494	0.28887	0	0	-1.24596	0.282397	-0.0837525	1.20779	0.098175	9.93454e-06	0.989727	0.635026	0	0	1.20459	-0.220534	-0.160024	0.93805	0.630524	0	0
5.1271	2.5024	-0.160654	-2.77317	1.26111	-0.957227	0.26981	-0.173302	-0.166785	-0.519003	0.389807	-0.171255	0	0	-0.397638	-0.111352	0.18467	1.05901	0.248752	0	0	-1.2582	0.289976	-0.071177	1.20829	0.1026	0.000690496	0.990762	0.635051	0	0	1.20552	-0.225125	-0.161138	0.938634	0.630496	0	0
5.13709	2.48525	-0.151921	-2.77622	1.27068	-0.959957	0.269606	-0.191255	-0.15295	-0.51868	0.399879	-0.164304	0	0	-0.396771	-0.129539	0.170249	1.09311	0.206812	0	0	-1.27249	0.297032	-0.0576665	1.20878	0.107024	0.00137099	0.991797	0.635075	0	0	1.20645	-0.229716	-0.162252	0.939219	0.630468	0	0
5.14708	2.46675	-0.14286	-2.77992	1.28008	-0.962777	0.269385	-0.211331	-0.138248	-0.518826	0.407743	-0.156199	0	0	-0.395877	-0.147791	0.156021	1.12657	0.164765	0	0	-1.28866	0.303529	-0.0433801	1.20927	0.111448	0.00205141	0.992831	0.6351	0	0	1.20738	-0.234306	-0.163366	0.939804	0.63044	0	0
5.15706	2.44728	-0.13352	-2.7841	1.28933	-0.965662	0.269154	-0.232992	-0.122983	-0.519436	0.413847	-0.147253	0	0	-0.394941	-0.165891	0.142154	1.15857	0.124481	0	0	-1.30627	0.309471	-0.0284765	1.20976	0.115872	0.00273177	0.993865	0.635124	0	0	1.20831	-0.238896	-0.164479	0.940388	0.630411	0	0
5.16705	2.42728	-0.123956	-2.78868	1.29845	-0.968589	0.268922	-0.255587	-0.107515	-0.520378	0.418827	-0.137656	0	0	-0.393941	-0.18358	0.128749	1.18835	0.0877836	0	0	-1.32481	0.314852	-0.013118	1.21025	0.120295	0.00341206	0.994899	0.635149	0	0	1.20924	-0.243486	-0.165593	0.940972	0.630383	0	0
5.17704	2.40721	-0.114221	-2.79356	1.30747	-0.971539	0.268697	-0.278326	-0.0922612	-0.521443	0.423531	-0.127451	0	0	-0.392852	-0.200551	0.115899	1.21516	0.0561993	0	0	-1.34363	0.319661	0.00252409	1.21073	0.124718	0.00409227	0.995933	0.635173	0	0	1.21016	-0.248075	-0.166706	0.941556	0.630355	0	0
5.18702	2.38748	-0.104432	-2.79878	1.31639	-0.974496	0.268486	-0.300437	-0.0777075	-0.522344	0.428897	-0.116559	0	0	-0.391641	-0.216422	0.103706	1.23845	0.030742	0	0	-1.36215	0.323801	0.018264	1.21122	0.12914	0.00477242	0.996967	0.635198	0	0	1.21108	-0.252663	-0.167819	0.94214	0.630327	0	0
5.19701	2.36853	-0.0947217	-2.80433	1.32526	-0.977445	0.268295	-0.32106	-0.0643823	-0.52281	0.436026	-0.104737	0	0	-0.390273	-0.230797	0.0923068	1.25777	0.0117741	0	0	-1.37964	0.327165	0.0338953	1.2117	0.133561	0.0054525	0.998	0.635222	0	0	1.212	-0.257251	-0.168932	0.942724	0.630299	0	0
5.207	2.35054	-0.0854043	-2.81038	1.33408	-0.980379	0.268126	-0.339543	-0.0529635	-0.522525	0.44608	-0.0915493	0	0	-0.388709	-0.243161	0.0818366	1.27311	-0.00100883	0	0	-1.39602	0.329478	0.0491843	1.21218	0.137982	0.00613252	0.999034	0.635247	0	0	1.21292	-0.261839	-0.170045	0.943308	0.630272	0	0
5.21699	2.33355	-0.0765069	-2.817	1.34287	-0.983291	0.26798	-0.355853	-0.0434822	-0.521449	0.458954	-0.0771726	0	0	-0.386913	-0.253417	0.0722688	1.28473	-0.00843249	0	0	-1.41147	0.330722	0.0640313	1.21266	0.142403	0.00681246	1.00007	0.635272	0	0	1.21384	-0.266426	-0.171158	0.943892	0.630244	0	0
5.22697	2.31752	-0.0681451	-2.82421	1.35165	-0.98618	0.267855	-0.369976	-0.0360127	-0.519575	0.474723	-0.0615829	0	0	-0.384854	-0.261544	0.063566	1.29306	-0.0115395	0	0	-1.42613	0.330869	0.0783521	1.21314	0.146823	0.00749234	1.0011	0.635296	0	0	1.21476	-0.271013	-0.172271	0.944476	0.630216	0	0
5.23696	2.30238	-0.0600601	-2.83186	1.36043	-0.989049	0.267747	-0.382281	-0.0299746	-0.517101	0.492554	-0.0452895	0	0	-0.382518	-0.268037	0.0555529	1.29866	-0.0114703	0	0	-1.44012	0.330255	0.0922314	1.21362	0.151243	0.00817214	1.00213	0.635321	0	0	1.21568	-0.275599	-0.173383	0.945059	0.630188	0	0
5.24695	2.28795	-0.052081	-2.83978	1.3692	-0.991902	0.267652	-0.393244	-0.0248256	-0.514213	0.511692	-0.028655	0	0	-0.379914	-0.273441	0.0480324	1.30224	-0.00931217	0	0	-1.45358	0.329192	0.105809	1.2141	0.155663	0.00885188	1.00317	0.635346	0	0	1.21659	-0.280184	-0.174496	0.945643	0.63016	0	0
5.25693	2.27398	-0.0441387	-2.84782	1.37796	-0.994746	0.267564	-0.403415	-0.0201329	-0.51108	0.531489	-0.0118905	0	0	-0.377091	-0.278242	0.040816	1.30466	-0.00602399	0	0	-1.46672	0.327914	0.119223	1.21458	0.160081	0.00953156	1.0042	0.63537	0	0	1.21751	-0.28477	-0.175608	0.946227	0.630132	0	0
5.26692	2.2602	-0.0362057	-2.85587	1.38673	-0.997587	0.267479	-0.413282	-0.0155896	-0.507849	0.551492	0.00489845	0	0	-0.37415	-0.282815	0.0337463	1.30662	-0.00234697	0	0	-1.4798	0.326569	0.132582	1.21506	0.1645	0.0102112	1.00523	0.635395	0	0	1.21843	-0.289355	-0.17672	0.94681	0.630104	0	0
