Coordinates
version=1
nRows=46
nColumns=38
inDegrees=no

Units are S.I. units (second, meters, Newtons, ...)
If the header above contains a line with 'inDegrees', this indicates whether rotational values are in degrees (yes) or radians (no).

endheader
time	pelvis_tilt	pelvis_list	pelvis_rotation	pelvis_tx	pelvis_ty	pelvis_tz	hip_flexion_r	hip_adduction_r	hip_rotation_r	knee_angle_r	ankle_angle_r	subtalar_angle_r	mtp_angle_r	hip_flexion_l	hip_adduction_l	hip_rotation_l	knee_angle_l	ankle_angle_l	subtalar_angle_l	mtp_angle_l	lumbar_extension	lumbar_bending	lumbar_rotation	arm_flex_r	arm_add_r	arm_rot_r	elbow_flex_r	pro_sup_r	wrist_flex_r	wrist_dev_r	arm_flex_l	arm_add_l	arm_rot_l	elbow_flex_l	pro_sup_l	wrist_flex_l	wrist_dev_l
5.35	2.38603	-0.293304	-2.9874	1.88722	-0.975481	0.222922	-0.465985	-0.260259	-0.697164	0.485307	0.0716868	0	0	-0.373939	0.12604	0.132859	1.04855	-0.016452	0	0	-1.35734	-0.202735	0.378478	0	0	0	0	0	0	0	0	0	0	0	0	0	0
5.35999	2.38968	-0.279488	-2.99162	1.90161	-0.975861	0.223531	-0.475401	-0.248244	-0.697687	0.484008	0.0816384	0	0	-0.356782	0.118286	0.102856	0.989829	-0.00973366	0	0	-1.35137	-0.199828	0.395808	0	0	0	0	0	0	0	0	0	0	0	0	0	0
5.36997	2.39342	-0.265504	-2.99578	1.916	-0.976196	0.224175	-0.48464	-0.236171	-0.698219	0.482912	0.0915895	0	0	-0.339621	0.110368	0.0727764	0.930766	-0.00330952	0	0	-1.3453	-0.196706	0.413208	0	0	0	0	0	0	0	0	0	0	0	0	0	0
5.37996	2.39742	-0.251097	-2.99978	1.9304	-0.976413	0.224904	-0.493394	-0.223953	-0.698775	0.48232	0.101527	0	0	-0.322391	0.102031	0.0425065	0.870839	0.00229493	0	0	-1.33897	-0.193045	0.430778	0	0	0	0	0	0	0	0	0	0	0	0	0	0
5.38995	2.40187	-0.236079	-3.00352	1.94479	-0.976436	0.225781	-0.501336	-0.211587	-0.699368	0.482552	0.111459	0	0	-0.304985	0.0933021	0.0122883	0.810133	0.00753264	0	0	-1.33225	-0.18852	0.448541	0	0	0	0	0	0	0	0	0	0	0	0	0	0
5.39994	2.40696	-0.220267	-3.00696	1.95917	-0.976194	0.226856	-0.508183	-0.199045	-0.700004	0.483871	0.121437	0	0	-0.287288	0.0841602	-0.0176554	0.748705	0.0125762	0	0	-1.325	-0.182833	0.466557	0	0	0	0	0	0	0	0	0	0	0	0	0	0
5.40992	2.4128	-0.203509	-3.01007	1.97354	-0.975628	0.228173	-0.513783	-0.186266	-0.700679	0.486435	0.131563	0	0	-0.269238	0.0745507	-0.0471157	0.686624	0.0172943	0	0	-1.31714	-0.175758	0.484958	0	0	0	0	0	0	0	0	0	0	0	0	0	0
5.41991	2.41936	-0.18573	-3.01281	1.9879	-0.9747	0.229751	-0.518142	-0.173254	-0.701368	0.490322	0.141925	0	0	-0.250862	0.0643093	-0.0759983	0.624005	0.0212467	0	0	-1.3086	-0.167181	0.503956	0	0	0	0	0	0	0	0	0	0	0	0	0	0
5.4299	2.4266	-0.167059	-3.01523	2.00228	-0.973398	0.231604	-0.521359	-0.160181	-0.702021	0.495555	0.152546	0	0	-0.232165	0.0536345	-0.103695	0.561763	0.0261165	0	0	-1.2994	-0.157188	0.523678	0	0	0	0	0	0	0	0	0	0	0	0	0	0
5.43989	2.43445	-0.147712	-3.01736	2.01668	-0.971724	0.233729	-0.52359	-0.147251	-0.702557	0.502106	0.163439	0	0	-0.213161	0.0427417	-0.129613	0.500807	0.0334546	0	0	-1.2896	-0.145937	0.544127	0	0	0	0	0	0	0	0	0	0	0	0	0	0
5.44987	2.44281	-0.127947	-3.01927	2.03111	-0.969697	0.23611	-0.525012	-0.13467	-0.702855	0.50992	0.174613	0	0	-0.193883	0.0318206	-0.153265	0.441977	0.0442707	0	0	-1.27925	-0.133634	0.565185	0	0	0	0	0	0	0	0	0	0	0	0	0	0
5.45986	2.4516	-0.108022	-3.02101	2.04559	-0.96734	0.238722	-0.525803	-0.12261	-0.702752	0.518918	0.18609	0	0	-0.174387	0.0210043	-0.174315	0.38601	0.0587699	0	0	-1.26838	-0.120493	0.586646	0	0	0	0	0	0	0	0	0	0	0	0	0	0
5.46985	2.46071	-0.0881528	-3.02262	2.06014	-0.964685	0.241534	-0.526126	-0.111164	-0.702035	0.529011	0.197884	0	0	-0.154751	0.0103245	-0.19264	0.333497	0.0760791	0	0	-1.25704	-0.106698	0.608259	0	0	0	0	0	0	0	0	0	0	0	0	0	0
5.47984	2.47009	-0.0687131	-3.02422	2.07479	-0.961781	0.244507	-0.526124	-0.100598	-0.700447	0.540117	0.209921	0	0	-0.135067	5.58768e-05	-0.207812	0.285404	0.0961407	0	0	-1.24531	-0.0926117	0.629667	0	0	0	0	0	0	0	0	0	0	0	0	0	0
5.48982	2.47962	-0.0499597	-3.02585	2.08953	-0.958667	0.247597	-0.525912	-0.0910107	-0.697693	0.552178	0.222077	0	0	-0.115455	-0.00969134	-0.219726	0.242413	0.117375	0	0	-1.23332	-0.0784995	0.650492	0	0	0	0	0	0	0	0	0	0	0	0	0	0
5.49981	2.48928	-0.0322736	-3.02762	2.10441	-0.955401	0.250757	-0.525582	-0.0826377	-0.693452	0.565079	0.234145	0	0	-0.0960208	-0.0186338	-0.228137	0.205472	0.139142	0	0	-1.22108	-0.0647805	0.670267	0	0	0	0	0	0	0	0	0	0	0	0	0	0
5.5098	2.49902	-0.0158337	-3.02962	2.11944	-0.952023	0.253946	-0.525202	-0.075495	-0.68741	0.578703	0.245848	0	0	-0.0768512	-0.0266951	-0.233119	0.175158	0.159164	0	0	-1.20848	-0.0517124	0.688633	0	0	0	0	0	0	0	0	0	0	0	0	0	0
5.51979	2.50872	-0.000901715	-3.03186	2.13464	-0.948584	0.257103	-0.524821	-0.069666	-0.679276	0.593074	0.256844	0	0	-0.0582025	-0.0337317	-0.234803	0.151921	0.176034	0	0	-1.19572	-0.0396794	0.705295	0	0	0	0	0	0	0	0	0	0	0	0	0	0
5.52977	2.51826	0.0121534	-3.03444	2.15	-0.945147	0.260167	-0.524472	-0.0653696	-0.668849	0.608264	0.266683	0	0	-0.0404162	-0.0394841	-0.233233	0.136174	0.190692	0	0	-1.18308	-0.0291989	0.719954	0	0	0	0	0	0	0	0	0	0	0	0	0	0
5.53976	2.52749	0.0232031	-3.0374	2.1655	-0.941757	0.263078	-0.524174	-0.0625989	-0.6559	0.624374	0.274857	0	0	-0.0237938	-0.0439111	-0.228771	0.127766	0.20222	0	0	-1.17082	-0.0205752	0.732406	0	0	0	0	0	0	0	0	0	0	0	0	0	0
5.54975	2.5362	0.0324009	-3.04074	2.18117	-0.93844	0.265803	-0.52394	-0.0610959	-0.64018	0.641533	0.280769	0	0	-0.00858885	-0.0472232	-0.222186	0.125926	0.207329	0	0	-1.15921	-0.0138295	0.742625	0	0	0	0	0	0	0	0	0	0	0	0	0	0
5.55973	2.54425	0.039915	-3.04447	2.19699	-0.935234	0.268329	-0.523776	-0.0606418	-0.62159	0.659768	0.283711	0	0	0.00500019	-0.0496167	-0.214432	0.129793	0.203103	0	0	-1.14836	-0.00892484	0.750675	0	0	0	0	0	0	0	0	0	0	0	0	0	0
5.56972	2.55152	0.0458141	-3.04863	2.21298	-0.932193	0.270658	-0.523685	-0.0611734	-0.600244	0.679059	0.282913	0	0	0.016852	-0.051167	-0.206512	0.138614	0.188266	0	0	-1.13828	-0.00584831	0.756644	0	0	0	0	0	0	0	0	0	0	0	0	0	0
5.57971	2.55792	0.0500287	-3.05328	2.22912	-0.929381	0.272793	-0.523667	-0.0628157	-0.576465	0.699362	0.277637	0	0	0.0269459	-0.0517805	-0.199173	0.151885	0.163328	0	0	-1.12888	-0.00466989	0.760597	0	0	0	0	0	0	0	0	0	0	0	0	0	0
5.5897	2.56327	0.0523811	-3.05843	2.24539	-0.926861	0.274743	-0.523723	-0.0658716	-0.55081	0.720828	0.267184	0	0	0.0352279	-0.0512488	-0.192817	0.169336	0.130783	0	0	-1.12039	-0.00552689	0.762631	0	0	0	0	0	0	0	0	0	0	0	0	0	0
5.59968	2.56735	0.0526109	-3.06414	2.26172	-0.924703	0.27652	-0.523851	-0.0707441	-0.523947	0.743571	0.250976	0	0	0.0417516	-0.049306	-0.187477	0.191251	0.095885	0	0	-1.11303	-0.00861211	0.762793	0	0	0	0	0	0	0	0	0	0	0	0	0	0
5.60967	2.56987	0.0504191	-3.07033	2.27803	-0.922979	0.278105	-0.524051	-0.0777808	-0.496613	0.767767	0.228659	0	0	0.0458594	-0.045507	-0.18312	0.21623	0.0615696	0	0	-1.10734	-0.0141863	0.761143	0	0	0	0	0	0	0	0	0	0	0	0	0	0
5.61966	2.5705	0.0458457	-3.0769	2.29421	-0.921724	0.279483	-0.524317	-0.0869712	-0.469341	0.793527	0.200289	0	0	0.0469839	-0.039819	-0.179914	0.242803	0.0289819	0	0	-1.10385	-0.0222078	0.757778	0	0	0	0	0	0	0	0	0	0	0	0	0	0
5.62965	2.56898	0.039357	-3.0838	2.31023	-0.920943	0.280638	-0.524641	-0.0978611	-0.442294	0.820722	0.166505	0	0	0.0447388	-0.0327126	-0.178381	0.269544	-0.00255393	0	0	-1.10277	-0.0323267	0.752902	0	0	0	0	0	0	0	0	0	0	0	0	0	0
5.63963	2.56511	0.0314694	-3.09104	2.32605	-0.920636	0.281562	-0.525007	-0.109994	-0.415587	0.849063	0.128519	0	0	0.0388042	-0.0246857	-0.178849	0.295458	-0.0331667	0	0	-1.1042	-0.0441606	0.746843	0	0	0	0	0	0	0	0	0	0	0	0	0	0
5.64962	2.55869	0.0225442	-3.09861	2.3416	-0.920813	0.282271	-0.525389	-0.123135	-0.389598	0.878305	0.0880577	0	0	0.0287858	-0.0160011	-0.18124	0.319733	-0.0614443	0	0	-1.10847	-0.0573674	0.740001	0	0	0	0	0	0	0	0	0	0	0	0	0	0
5.65961	2.54968	0.0126071	-3.10639	2.35681	-0.921496	0.282796	-0.525745	-0.137352	-0.365032	0.908107	0.0473584	0	0	0.0144167	-0.00648566	-0.184888	0.341953	-0.0839615	0	0	-1.11586	-0.0717566	0.732574	0	0	0	0	0	0	0	0	0	0	0	0	0	0
5.6696	2.53819	0.00183682	-3.11421	2.37168	-0.922671	0.283174	-0.526018	-0.15242	-0.342355	0.937953	0.00912455	0	0	-0.00437992	0.00379616	-0.189419	0.361482	-0.099541	0	0	-1.12618	-0.0869561	0.724591	0	0	0	0	0	0	0	0	0	0	0	0	0	0
5.67958	2.52429	-0.00971959	-3.12192	2.38615	-0.924322	0.283437	-0.526128	-0.168206	-0.321911	0.96752	-0.0239455	0	0	-0.0276526	0.0149277	-0.194131	0.378141	-0.106541	0	0	-1.13953	-0.102726	0.715997	0	0	0	0	0	0	0	0	0	0	0	0	0	0
5.68957	2.50809	-0.0217454	-3.12942	2.40024	-0.926387	0.283616	-0.525972	-0.184147	-0.303496	0.996531	-0.0495209	0	0	-0.0552901	0.0266903	-0.198597	0.39146	-0.105322	0	0	-1.15582	-0.11864	0.706729	0	0	0	0	0	0	0	0	0	0	0	0	0	0
5.69956	2.48971	-0.0340018	-3.13669	2.41395	-0.928798	0.283728	-0.525421	-0.19964	-0.286521	1.02476	-0.0659989	0	0	-0.0869707	0.0389217	-0.202178	0.40173	-0.0959482	0	0	-1.17483	-0.134447	0.69674	0	0	0	0	0	0	0	0	0	0	0	0	0	0
5.70954	2.46937	-0.0459747	-3.14371	2.42737	-0.931443	0.28378	-0.524323	-0.213579	-0.269742	1.05198	-0.072569	0	0	-0.122115	0.0511235	-0.204655	0.409098	-0.0801495	0	0	-1.19592	-0.14975	0.686089	0	0	0	0	0	0	0	0	0	0	0	0	0	0
5.71953	2.44735	-0.0571449	-3.15054	2.4406	-0.934205	0.283771	-0.522506	-0.224827	-0.251632	1.07793	-0.0693201	0	0	-0.159899	0.0627524	-0.205791	0.414466	-0.0594153	0	0	-1.21826	-0.164271	0.674971	0	0	0	0	0	0	0	0	0	0	0	0	0	0
5.72952	2.42419	-0.0668861	-3.15727	2.45374	-0.936978	0.283723	-0.519793	-0.232405	-0.231149	1.10202	-0.0574243	0	0	-0.199043	0.0731285	-0.205306	0.419454	-0.033937	0	0	-1.24073	-0.177635	0.663751	0	0	0	0	0	0	0	0	0	0	0	0	0	0
5.73951	2.40071	-0.0739178	-3.16372	2.46692	-0.939642	0.28371	-0.516018	-0.234991	-0.207964	1.12343	-0.0389426	0	0	-0.237977	0.0808661	-0.20354	0.42494	-0.00607378	0	0	-1.26214	-0.188759	0.653131	0	0	0	0	0	0	0	0	0	0	0	0	0	0
5.74949	2.37768	-0.0779911	-3.16965	2.48019	-0.942173	0.283792	-0.51105	-0.232574	-0.182562	1.14148	-0.0160045	0	0	-0.276177	0.0857176	-0.200818	0.430072	0.0212587	0	0	-1.28162	-0.197263	0.64363	0	0	0	0	0	0	0	0	0	0	0	0	0	0
5.75948	2.35563	-0.0791672	-3.17477	2.49357	-0.944558	0.284033	-0.504838	-0.225775	-0.155821	1.15592	0.00964625	0	0	-0.313369	0.0877867	-0.197262	0.434237	0.0453168	0	0	-1.29878	-0.202919	0.63552	0	0	0	0	0	0	0	0	0	0	0	0	0	0
5.76947	2.33482	-0.0779197	-3.17899	2.50706	-0.946798	0.284442	-0.497451	-0.21547	-0.128489	1.16717	0.036501	0	0	-0.349359	0.0874228	-0.193382	0.437689	0.0647815	0	0	-1.31366	-0.205991	0.628688	0	0	0	0	0	0	0	0	0	0	0	0	0	0
5.77946	2.31505	-0.0749018	-3.18248	2.52061	-0.94895	0.284977	-0.489148	-0.202647	-0.101043	1.17622	0.0636608	0	0	-0.384265	0.085001	-0.190294	0.441423	0.0808876	0	0	-1.32691	-0.207099	0.622678	0	0	0	0	0	0	0	0	0	0	0	0	0	0
5.78944	2.29575	-0.0712663	-3.18582	2.53415	-0.951094	0.28554	-0.480448	-0.188958	-0.0736229	1.1838	0.0908305	0	0	-0.418407	0.0812784	-0.189976	0.447016	0.0982129	0	0	-1.33964	-0.207519	0.616587	0	0	0	0	0	0	0	0	0	0	0	0	0	0
5.79943	2.27628	-0.0681452	-3.1896	2.54763	-0.953283	0.286034	-0.471942	-0.175857	-0.0461607	1.19076	0.11793	0	0	-0.452723	0.0780233	-0.190641	0.452986	0.116578	0	0	-1.35274	-0.208606	0.609877	0	0	0	0	0	0	0	0	0	0	0	0	0	0
