Coordinates
version=1
nRows=100
nColumns=38
inDegrees=no

Units are S.I. units (second, meters, Newtons, ...)
If the header above contains a line with 'inDegrees', this indicates whether rotational values are in degrees (yes) or radians (no).

endheader
time	pelvis_tilt	pelvis_list	pelvis_rotation	pelvis_tx	pelvis_ty	pelvis_tz	hip_flexion_r	hip_adduction_r	hip_rotation_r	knee_angle_r	ankle_angle_r	subtalar_angle_r	mtp_angle_r	hip_flexion_l	hip_adduction_l	hip_rotation_l	knee_angle_l	ankle_angle_l	subtalar_angle_l	mtp_angle_l	lumbar_extension	lumbar_bending	lumbar_rotation	arm_flex_r	arm_add_r	arm_rot_r	elbow_flex_r	pro_sup_r	wrist_flex_r	wrist_dev_r	arm_flex_l	arm_add_l	arm_rot_l	elbow_flex_l	pro_sup_l	wrist_flex_l	wrist_dev_l
5.26	2.3185	-0.122886	-3.13859	1.44869	-1.06179	0.243051	-0.523599	-0.113766	-0.285967	0.304427	-0.115052	0	0	-0.530335	0.0738839	-0.0124792	0.994752	-0.209926	0	0	-1.33958	-0.0159228	-0.220419	0	0	0	0	0	0	0	0	0	0	0	0	0	0
5.26999	2.32469	-0.112974	-3.14489	1.45824	-1.06241	0.243238	-0.523598	-0.108866	-0.281185	0.308877	-0.106366	0	0	-0.512638	0.0709866	-0.0231814	0.964555	-0.19926	0	0	-1.33748	-0.0164041	-0.199385	0	0	0	0	0	0	0	0	0	0	0	0	0	0
5.27998	2.33097	-0.103058	-3.15114	1.4678	-1.06301	0.243432	-0.523598	-0.103907	-0.276225	0.313189	-0.0976588	0	0	-0.494874	0.0679992	-0.0339976	0.934185	-0.188725	0	0	-1.33517	-0.0167981	-0.178626	0	0	0	0	0	0	0	0	0	0	0	0	0	0
5.28997	2.33744	-0.0930874	-3.15728	1.4774	-1.06356	0.243644	-0.523598	-0.0987844	-0.270877	0.317228	-0.0889055	0	0	-0.477038	0.0647669	-0.0450923	0.903312	-0.178529	0	0	-1.33244	-0.0169586	-0.158423	0	0	0	0	0	0	0	0	0	0	0	0	0	0
5.29996	2.34416	-0.0829594	-3.16326	1.48705	-1.06403	0.243889	-0.523598	-0.0933475	-0.264948	0.320892	-0.0800737	0	0	-0.459185	0.0611015	-0.0566021	0.871533	-0.168942	0	0	-1.32914	-0.0167022	-0.138955	0	0	0	0	0	0	0	0	0	0	0	0	0	0
5.30995	2.35123	-0.0725758	-3.16902	1.49678	-1.06437	0.24418	-0.523598	-0.0874441	-0.258246	0.324051	-0.0711348	0	0	-0.441334	0.0567872	-0.0687262	0.838526	-0.160178	0	0	-1.325	-0.0158708	-0.120277	0	0	0	0	0	0	0	0	0	0	0	0	0	0
5.31993	2.35873	-0.0618194	-3.1745	1.5066	-1.06456	0.24453	-0.523598	-0.0809175	-0.250619	0.326633	-0.0620569	0	0	-0.423549	0.0516318	-0.081577	0.803995	-0.152448	0	0	-1.31987	-0.0143141	-0.102337	0	0	0	0	0	0	0	0	0	0	0	0	0	0
5.32992	2.36667	-0.0505653	-3.17967	1.51652	-1.06457	0.244952	-0.523599	-0.0736209	-0.241975	0.32865	-0.0527993	0	0	-0.405944	0.0454881	-0.0951402	0.767679	-0.145963	0	0	-1.3138	-0.0118884	-0.0850228	0	0	0	0	0	0	0	0	0	0	0	0	0	0
5.33991	2.3751	-0.0387539	-3.18449	1.52658	-1.06438	0.245454	-0.523599	-0.0654748	-0.232255	0.330075	-0.0433208	0	0	-0.388533	0.0382703	-0.109408	0.729539	-0.140835	0	0	-1.30666	-0.00852545	-0.0681912	0	0	0	0	0	0	0	0	0	0	0	0	0	0
5.3499	2.38399	-0.0263322	-3.18899	1.53677	-1.06399	0.246037	-0.523599	-0.0564465	-0.221472	0.331012	-0.0335832	0	0	-0.37142	0.0299745	-0.124214	0.689542	-0.137132	0	0	-1.29857	-0.00418025	-0.0517096	0	0	0	0	0	0	0	0	0	0	0	0	0	0
5.35989	2.39331	-0.0133003	-3.19317	1.54711	-1.06339	0.246705	-0.5236	-0.0465778	-0.209703	0.331606	-0.0235476	0	0	-0.354672	0.0206721	-0.139338	0.647822	-0.134829	0	0	-1.28961	0.00114185	-0.0354746	0	0	0	0	0	0	0	0	0	0	0	0	0	0
5.36988	2.40289	0.000348337	-3.19707	1.55756	-1.06258	0.247456	-0.5236	-0.0359422	-0.197113	0.332198	-0.0131772	0	0	-0.338503	0.0104981	-0.154359	0.604444	-0.133873	0	0	-1.28025	0.00744458	-0.019429	0	0	0	0	0	0	0	0	0	0	0	0	0	0
5.37987	2.41262	0.014543	-3.20073	1.56813	-1.06158	0.24829	-0.523601	-0.0246822	-0.183899	0.333055	-0.00242451	0	0	-0.323008	-0.000362164	-0.16888	0.559705	-0.134096	0	0	-1.27075	0.0146666	-0.0035712	0	0	0	0	0	0	0	0	0	0	0	0	0	0
5.38986	2.42244	0.0291565	-3.20421	1.57881	-1.06039	0.249199	-0.523602	-0.0129854	-0.170233	0.334308	0.00877829	0	0	-0.308132	-0.011708	-0.182597	0.514147	-0.135193	0	0	-1.26117	0.0226733	0.0120684	0	0	0	0	0	0	0	0	0	0	0	0	0	0
5.39985	2.43224	0.044054	-3.20759	1.58961	-1.05902	0.250178	-0.523603	-0.00107197	-0.156326	0.336211	0.0204899	0	0	-0.293908	-0.0233143	-0.195144	0.4683	-0.13685	0	0	-1.25172	0.0313152	0.0274528	0	0	0	0	0	0	0	0	0	0	0	0	0	0
5.40984	2.44177	0.0591277	-3.21089	1.60047	-1.0575	0.251234	-0.523604	0.0108571	-0.142432	0.339191	0.0327602	0	0	-0.280515	-0.034971	-0.206049	0.422598	-0.138792	0	0	-1.24287	0.0404878	0.0425584	0	0	0	0	0	0	0	0	0	0	0	0	0	0
5.41983	2.4509	0.0742153	-3.21415	1.61138	-1.05582	0.252367	-0.523605	0.022573	-0.128804	0.343521	0.045635	0	0	-0.268028	-0.0464665	-0.214947	0.377576	-0.140745	0	0	-1.2349	0.0500355	0.0573314	0	0	0	0	0	0	0	0	0	0	0	0	0	0
5.42981	2.45949	0.0891234	-3.21741	1.62232	-1.05402	0.253572	-0.523606	0.0338162	-0.115694	0.349393	0.0591378	0	0	-0.256501	-0.0575798	-0.221561	0.333776	-0.142495	0	0	-1.22799	0.059758	0.0716893	0	0	0	0	0	0	0	0	0	0	0	0	0	0
5.4398	2.46753	0.103609	-3.22074	1.63329	-1.05212	0.254835	-0.523607	0.0442912	-0.103324	0.356821	0.0732745	0	0	-0.245893	-0.0680834	-0.225788	0.29179	-0.143898	0	0	-1.22211	0.0693859	0.0855163	0	0	0	0	0	0	0	0	0	0	0	0	0	0
5.44979	2.47496	0.117429	-3.22423	1.64426	-1.05013	0.256139	-0.523607	0.0536997	-0.0919198	0.365827	0.0880154	0	0	-0.236218	-0.0777591	-0.22762	0.25213	-0.144927	0	0	-1.21726	0.0786385	0.098687	0	0	0	0	0	0	0	0	0	0	0	0	0	0
5.45978	2.48182	0.130317	-3.22795	1.65525	-1.04809	0.257462	-0.523606	0.061741	-0.0816719	0.37629	0.103301	0	0	-0.22742	-0.0864015	-0.227223	0.215319	-0.145649	0	0	-1.21323	0.0872025	0.111055	0	0	0	0	0	0	0	0	0	0	0	0	0	0
5.46977	2.48813	0.142021	-3.232	1.66626	-1.04601	0.258784	-0.523603	0.0681345	-0.0727515	0.388089	0.119031	0	0	-0.219468	-0.0938271	-0.224886	0.181809	-0.146242	0	0	-1.20984	0.0947707	0.122476	0	0	0	0	0	0	0	0	0	0	0	0	0	0
5.47976	2.49394	0.152317	-3.23644	1.67731	-1.04391	0.260081	-0.523598	0.0726381	-0.0652932	0.401085	0.135066	0	0	-0.212333	-0.0998798	-0.221003	0.151996	-0.146985	0	0	-1.20682	0.101061	0.132809	0	0	0	0	0	0	0	0	0	0	0	0	0	0
5.48975	2.49938	0.160958	-3.24137	1.68842	-1.04184	0.261317	-0.523591	0.0750118	-0.0593529	0.414943	0.151227	0	0	-0.205843	-0.104398	-0.21614	0.126326	-0.148197	0	0	-1.20371	0.105756	0.141893	0	0	0	0	0	0	0	0	0	0	0	0	0	0
5.49974	2.5045	0.167763	-3.24684	1.6996	-1.03979	0.262462	-0.52358	0.0750894	-0.0549616	0.42952	0.167272	0	0	-0.199945	-0.107257	-0.210919	0.105092	-0.150248	0	0	-1.20027	0.108612	0.149624	0	0	0	0	0	0	0	0	0	0	0	0	0	0
5.50973	2.50924	0.172643	-3.25277	1.71086	-1.03782	0.263492	-0.523566	0.0728342	-0.0520928	0.444852	0.182924	0	0	-0.194691	-0.10841	-0.205926	0.0884246	-0.153525	0	0	-1.19656	0.109515	0.155954	0	0	0	0	0	0	0	0	0	0	0	0	0	0
5.51972	2.51343	0.175618	-3.25898	1.72214	-1.03592	0.264395	-0.523548	0.0683564	-0.0506491	0.461157	0.197865	0	0	-0.190239	-0.107902	-0.201638	0.0762695	-0.158419	0	0	-1.19288	0.108501	0.160887	0	0	0	0	0	0	0	0	0	0	0	0	0	0
5.52971	2.51696	0.176765	-3.26527	1.73344	-1.03414	0.265161	-0.523526	0.0618597	-0.0504262	0.478606	0.211737	0	0	-0.186712	-0.105833	-0.198414	0.0684786	-0.165289	0	0	-1.1895	0.105695	0.164428	0	0	0	0	0	0	0	0	0	0	0	0	0	0
5.53969	2.5198	0.176158	-3.27151	1.74474	-1.03251	0.265775	-0.5235	0.0535611	-0.0511075	0.497167	0.224121	0	0	-0.184097	-0.102304	-0.196539	0.0648684	-0.174406	0	0	-1.18647	0.101209	0.166565	0	0	0	0	0	0	0	0	0	0	0	0	0	0
5.54968	2.52202	0.173834	-3.27761	1.75605	-1.03105	0.266226	-0.523473	0.0436494	-0.0523201	0.516635	0.234531	0	0	-0.18228	-0.0973815	-0.196209	0.0652104	-0.185867	0	0	-1.18362	0.0951031	0.167282	0	0	0	0	0	0	0	0	0	0	0	0	0	0
5.55967	2.52364	0.169876	-3.28351	1.76739	-1.02979	0.266508	-0.523446	0.0323257	-0.0537371	0.536903	0.242447	0	0	-0.181228	-0.0911468	-0.197464	0.0691263	-0.199485	0	0	-1.18089	0.0874781	0.166615	0	0	0	0	0	0	0	0	0	0	0	0	0	0
5.56966	2.52461	0.164438	-3.28914	1.77876	-1.02876	0.266631	-0.523422	0.0198436	-0.0550786	0.557982	0.247343	0	0	-0.181003	-0.0837247	-0.200172	0.0760978	-0.214707	0	0	-1.17835	0.0785123	0.164649	0	0	0	0	0	0	0	0	0	0	0	0	0	0
5.57965	2.52483	0.157754	-3.29439	1.79014	-1.02798	0.266612	-0.523407	0.00652935	-0.0560781	0.579979	0.248708	0	0	-0.181757	-0.0752986	-0.204068	0.0855026	-0.230593	0	0	-1.17618	0.0684636	0.161519	0	0	0	0	0	0	0	0	0	0	0	0	0	0
5.58964	2.52421	0.150137	-3.29918	1.80153	-1.02746	0.266466	-0.523408	-0.00721933	-0.0564394	0.603033	0.246078	0	0	-0.183702	-0.0661067	-0.208839	0.0966782	-0.24597	0	0	-1.17461	0.0576429	0.157395	0	0	0	0	0	0	0	0	0	0	0	0	0	0
5.59963	2.52268	0.141701	-3.30354	1.81292	-1.02722	0.266198	-0.523433	-0.0212479	-0.0559781	0.627098	0.238988	0	0	-0.186926	-0.0562003	-0.214149	0.109054	-0.259887	0	0	-1.17368	0.0461216	0.152393	0	0	0	0	0	0	0	0	0	0	0	0	0	0
5.60962	2.52018	0.13259	-3.3075	1.82431	-1.02724	0.265828	-0.523492	-0.03542	-0.0546322	0.652123	0.22707	0	0	-0.191563	-0.0456323	-0.219732	0.122061	-0.271628	0	0	-1.17342	0.0340163	0.146617	0	0	0	0	0	0	0	0	0	0	0	0	0	0
5.61961	2.51666	0.122976	-3.31106	1.83569	-1.02754	0.265391	-0.523599	-0.0496013	-0.0524436	0.678012	0.21009	0	0	-0.197767	-0.034465	-0.225366	0.135152	-0.280734	0	0	-1.1739	0.0215183	0.140158	0	0	0	0	0	0	0	0	0	0	0	0	0	0
5.6296	2.51205	0.11307	-3.3142	1.84706	-1.02809	0.264936	-0.523766	-0.063656	-0.0495327	0.70468	0.188007	0	0	-0.205749	-0.0227772	-0.230848	0.147771	-0.286986	0	0	-1.17526	0.00889189	0.133087	0	0	0	0	0	0	0	0	0	0	0	0	0	0
5.63959	2.50623	0.103127	-3.31689	1.85839	-1.02887	0.264517	-0.524007	-0.0774311	-0.0460028	0.732072	0.161043	0	0	-0.21578	-0.0106777	-0.236	0.159376	-0.290372	0	0	-1.1778	-0.00356478	0.125467	0	0	0	0	0	0	0	0	0	0	0	0	0	0
5.64958	2.49915	0.0933517	-3.31918	1.86964	-1.02984	0.264177	-0.524334	-0.0907833	-0.0417993	0.759946	0.129693	0	0	-0.228008	0.00173407	-0.240765	0.169603	-0.29104	0	0	-1.18163	-0.0156461	0.117343	0	0	0	0	0	0	0	0	0	0	0	0	0	0
5.65956	2.4908	0.0839419	-3.32118	1.8808	-1.03099	0.263951	-0.524753	-0.103576	-0.0367974	0.788021	0.0947733	0	0	-0.242547	0.0143423	-0.24516	0.178194	-0.289277	0	0	-1.18692	-0.027196	0.108779	0	0	0	0	0	0	0	0	0	0	0	0	0	0
5.66955	2.48124	0.0750061	-3.32299	1.89186	-1.03228	0.26386	-0.525266	-0.115697	-0.0308169	0.815784	0.0574071	0	0	-0.259298	0.0270537	-0.249267	0.185117	-0.28546	0	0	-1.19357	-0.038147	0.0998503	0	0	0	0	0	0	0	0	0	0	0	0	0	0
5.67954	2.47063	0.0666015	-3.32466	1.9028	-1.03368	0.263924	-0.52586	-0.127059	-0.0237936	0.842647	0.0190048	0	0	-0.278047	0.0397764	-0.253119	0.190467	-0.280008	0	0	-1.20139	-0.0484244	0.0906439	0	0	0	0	0	0	0	0	0	0	0	0	0	0
5.68953	2.45906	0.0587956	-3.32616	1.91362	-1.03518	0.264169	-0.526509	-0.137571	-0.0158962	0.868174	-0.0187664	0	0	-0.298626	0.0523841	-0.256603	0.19433	-0.273347	0	0	-1.21043	-0.057863	0.0812502	0	0	0	0	0	0	0	0	0	0	0	0	0	0
5.69952	2.44664	0.0516115	-3.32737	1.92429	-1.03675	0.26462	-0.527162	-0.147136	-0.00743343	0.891958	-0.0541421	0	0	-0.320778	0.0647353	-0.259488	0.196877	-0.265871	0	0	-1.22071	-0.0662594	0.0717447	0	0	0	0	0	0	0	0	0	0	0	0	0	0
5.70951	2.43356	0.0450202	-3.32808	1.9348	-1.03839	0.265286	-0.527739	-0.15568	0.00117143	0.913633	-0.0855179	0	0	-0.344157	0.0766888	-0.261485	0.198373	-0.257911	0	0	-1.23219	-0.0734095	0.0621829	0	0	0	0	0	0	0	0	0	0	0	0	0	0
5.7195	2.42006	0.0389458	-3.32809	1.94513	-1.04008	0.266162	-0.528126	-0.163133	0.00947113	0.932848	-0.111698	0	0	-0.368304	0.0880999	-0.262283	0.199182	-0.249732	0	0	-1.24471	-0.079134	0.052605	0	0	0	0	0	0	0	0	0	0	0	0	0	0
5.72949	2.40648	0.0332784	-3.32718	1.9553	-1.04181	0.267226	-0.528166	-0.169381	0.0171646	0.949163	-0.131999	0	0	-0.392591	0.0988059	-0.261587	0.19979	-0.241528	0	0	-1.25786	-0.0833183	0.0430259	0	0	0	0	0	0	0	0	0	0	0	0	0	0
5.73948	2.39326	0.0278578	-3.32518	1.96534	-1.04357	0.268436	-0.52766	-0.174349	0.0240471	0.962133	-0.146282	0	0	-0.416294	0.108679	-0.259182	0.200729	-0.233416	0	0	-1.27111	-0.0859575	0.0334406	0	0	0	0	0	0	0	0	0	0	0	0	0	0
5.74947	2.38084	0.0225239	-3.32201	1.97528	-1.04533	0.269745	-0.526359	-0.178006	0.0299706	0.971419	-0.154796	0	0	-0.438718	0.117615	-0.254962	0.202459	-0.225435	0	0	-1.28394	-0.0871239	0.0238325	0	0	0	0	0	0	0	0	0	0	0	0	0	0
5.75946	2.36965	0.017121	-3.31763	1.98513	-1.04707	0.271097	-0.523978	-0.180376	0.0348609	0.9768	-0.157998	0	0	-0.459221	0.125556	-0.248955	0.205341	-0.217555	0	0	-1.29581	-0.0869737	0.0141853	0	0	0	0	0	0	0	0	0	0	0	0	0	0
5.76944	2.36011	0.0114959	-3.31213	1.99493	-1.04876	0.272428	-0.520201	-0.181548	0.0387246	0.978169	-0.156412	0	0	-0.47724	0.132503	-0.241351	0.209608	-0.209684	0	0	-1.30617	-0.08575	0.00449412	0	0	0	0	0	0	0	0	0	0	0	0	0	0
5.77943	2.35253	0.00556012	-3.30568	2.00468	-1.05037	0.273684	-0.514711	-0.18166	0.0415666	0.975626	-0.150602	0	0	-0.492425	0.138482	-0.232467	0.215277	-0.201675	0	0	-1.31465	-0.0837254	-0.00524025	0	0	0	0	0	0	0	0	0	0	0	0	0	0
5.78942	2.34714	-0.000757927	-3.29846	2.01442	-1.05185	0.274818	-0.507223	-0.180933	0.0433268	0.969362	-0.141081	0	0	-0.504607	0.143582	-0.222701	0.222157	-0.193326	0	0	-1.32087	-0.0811674	-0.0149958	0	0	0	0	0	0	0	0	0	0	0	0	0	0
5.79941	2.34405	-0.0074666	-3.29063	2.02412	-1.05319	0.275807	-0.49754	-0.179614	0.0438377	0.959672	-0.128361	0	0	-0.5139	0.147891	-0.212433	0.229865	-0.184383	0	0	-1.32477	-0.0782841	-0.0247611	0	0	0	0	0	0	0	0	0	0	0	0	0	0
5.8094	2.34318	-0.0145614	-3.28231	2.03379	-1.05436	0.276645	-0.485631	-0.177972	0.0428525	0.94686	-0.112896	0	0	-0.520608	0.151528	-0.201962	0.23795	-0.174512	0	0	-1.3264	-0.0752159	-0.0345337	0	0	0	0	0	0	0	0	0	0	0	0	0	0
5.81939	2.34438	-0.0220657	-3.27355	2.04342	-1.05534	0.277341	-0.471645	-0.176286	0.0400968	0.931177	-0.0950478	0	0	-0.525129	0.154644	-0.191448	0.246019	-0.163276	0	0	-1.32584	-0.0720597	-0.0443284	0	0	0	0	0	0	0	0	0	0	0	0	0	0
5.82938	2.34746	-0.0300314	-3.26442	2.05301	-1.05614	0.277906	-0.455843	-0.174832	0.0353655	0.912825	-0.0751436	0	0	-0.527894	0.157447	-0.180873	0.253768	-0.15014	0	0	-1.32317	-0.0689155	-0.0541961	0	0	0	0	0	0	0	0	0	0	0	0	0	0
5.83937	2.35215	-0.0385349	-3.25502	2.06259	-1.05674	0.278346	-0.438537	-0.173889	0.0286171	0.891968	-0.0535297	0	0	-0.529318	0.160223	-0.170028	0.260999	-0.134485	0	0	-1.31857	-0.0659466	-0.0642153	0	0	0	0	0	0	0	0	0	0	0	0	0	0
5.84936	2.35819	-0.0476754	-3.24553	2.07213	-1.05714	0.278663	-0.420076	-0.173753	0.0199449	0.86871	-0.0306721	0	0	-0.52977	0.163351	-0.158447	0.267643	-0.115642	0	0	-1.31233	-0.0633791	-0.0744809	0	0	0	0	0	0	0	0	0	0	0	0	0	0
5.85935	2.36528	-0.0575742	-3.23617	2.08165	-1.05734	0.278858	-0.400852	-0.174769	0.0095259	0.843045	-0.00729765	0	0	-0.529567	0.167314	-0.145294	0.273782	-0.0929244	0	0	-1.30493	-0.0614922	-0.0851069	0	0	0	0	0	0	0	0	0	0	0	0	0	0
5.86934	2.37322	-0.0683835	-3.22715	2.09114	-1.05735	0.278935	-0.381189	-0.177322	-0.0025023	0.814975	0.0155537	0	0	-0.528962	0.172678	-0.12933	0.279533	-0.0656552	0	0	-1.29671	-0.0605906	-0.0962129	0	0	0	0	0	0	0	0	0	0	0	0	0	0
5.87932	2.38182	-0.0802487	-3.21867	2.10062	-1.05717	0.278893	-0.361365	-0.181793	-0.0159903	0.78448	0.0363927	0	0	-0.528148	0.179998	-0.109177	0.285036	-0.0334901	0	0	-1.28799	-0.0609803	-0.107932	0	0	0	0	0	0	0	0	0	0	0	0	0	0
5.88931	2.39096	-0.093254	-3.2109	2.11011	-1.0568	0.278726	-0.341625	-0.188493	-0.0307469	0.751513	0.0531514	0	0	-0.527265	0.189617	-0.0840544	0.290368	0.00297104	0	0	-1.279	-0.0629178	-0.120386	0	0	0	0	0	0	0	0	0	0	0	0	0	0
5.8993	2.40061	-0.107385	-3.20391	2.11964	-1.05621	0.278428	-0.322134	-0.197671	-0.0467265	0.716029	0.0630877	0	0	-0.526409	0.201538	-0.0541946	0.295385	0.0418282	0	0	-1.26971	-0.0665005	-0.133629	0	0	0	0	0	0	0	0	0	0	0	0	0	0
5.90929	2.4107	-0.122374	-3.19755	2.12925	-1.05537	0.277995	-0.303041	-0.208971	-0.0637146	0.678181	0.0649294	0	0	-0.525638	0.215146	-0.0210282	0.299893	0.079535	0	0	-1.26016	-0.0715159	-0.147584	0	0	0	0	0	0	0	0	0	0	0	0	0	0
5.91928	2.42121	-0.137663	-3.19138	2.13897	-1.05428	0.277432	-0.28439	-0.221404	-0.0813706	0.638498	0.0599845	0	0	-0.524984	0.229134	0.0127132	0.30352	0.110747	0	0	-1.25028	-0.0773518	-0.161984	0	0	0	0	0	0	0	0	0	0	0	0	0	0
5.92927	2.43199	-0.152615	-3.18491	2.14879	-1.05294	0.276742	-0.266281	-0.233661	-0.0989629	0.597799	0.0527948	0	0	-0.524455	0.242109	0.044255	0.306247	0.131423	0	0	-1.24027	-0.0833128	-0.176457	0	0	0	0	0	0	0	0	0	0	0	0	0	0
5.93926	2.44284	-0.166839	-3.17783	2.1587	-1.05139	0.275946	-0.248855	-0.244914	-0.11594	0.556785	0.0470326	0	0	-0.524049	0.253201	0.0717537	0.30829	0.140121	0	0	-1.23034	-0.0889256	-0.190649	0	0	0	0	0	0	0	0	0	0	0	0	0	0
5.94925	2.45358	-0.180235	-3.17	2.16869	-1.04969	0.27507	-0.232264	-0.254845	-0.131865	0.516	0.0452592	0	0	-0.523754	0.262219	0.0948327	0.310126	0.138512	0	0	-1.22078	-0.0939986	-0.204325	0	0	0	0	0	0	0	0	0	0	0	0	0	0
5.95924	2.46415	-0.192989	-3.16154	2.17874	-1.0479	0.274141	-0.216495	-0.263631	-0.146333	0.475931	0.0489241	0	0	-0.523554	0.269695	0.114757	0.312317	0.131513	0	0	-1.21175	-0.0986741	-0.21743	0	0	0	0	0	0	0	0	0	0	0	0	0	0
5.96923	2.47452	-0.205252	-3.15254	2.18884	-1.04605	0.273172	-0.201491	-0.271463	-0.159061	0.437022	0.0583606	0	0	-0.523429	0.27606	0.1326	0.315216	0.122838	0	0	-1.20332	-0.103059	-0.229992	0	0	0	0	0	0	0	0	0	0	0	0	0	0
5.97922	2.4846	-0.217126	-3.14326	2.19898	-1.04418	0.272155	-0.187278	-0.278535	-0.169698	0.399567	0.0725701	0	0	-0.523363	0.281721	0.149164	0.319194	0.115002	0	0	-1.19564	-0.10734	-0.242113	0	0	0	0	0	0	0	0	0	0	0	0	0	0
5.9892	2.4943	-0.228726	-3.13404	2.20915	-1.04229	0.27106	-0.173869	-0.285133	-0.178023	0.363761	0.0890531	0	0	-0.52334	0.287109	0.165006	0.324509	0.109586	0	0	-1.18883	-0.111834	-0.253898	0	0	0	0	0	0	0	0	0	0	0	0	0	0
5.99919	2.50361	-0.240226	-3.1253	2.21937	-1.04034	0.269855	-0.161193	-0.291711	-0.184185	0.329745	0.103603	0	0	-0.523345	0.29269	0.180508	0.331204	0.107469	0	0	-1.18288	-0.116947	-0.265435	0	0	0	0	0	0	0	0	0	0	0	0	0	0
6.00918	2.51265	-0.251928	-3.11744	2.22968	-1.03831	0.268513	-0.149085	-0.29896	-0.188774	0.297614	0.110036	0	0	-0.523369	0.29903	0.196035	0.339124	0.109009	0	0	-1.17758	-0.123195	-0.276815	0	0	0	0	0	0	0	0	0	0	0	0	0	0
6.01917	2.52158	-0.264058	-3.11066	2.2401	-1.03614	0.267024	-0.137258	-0.307389	-0.192299	0.267687	0.103811	0	0	-0.523403	0.306492	0.211798	0.347937	0.11417	0	0	-1.17257	-0.130909	-0.28808	0	0	0	0	0	0	0	0	0	0	0	0	0	0
6.02916	2.53052	-0.276498	-3.10485	2.25067	-1.03386	0.26542	-0.125758	-0.316862	-0.195005	0.239947	0.0833255	0	0	-0.52344	0.314903	0.227656	0.357347	0.12257	0	0	-1.16759	-0.139833	-0.299161	0	0	0	0	0	0	0	0	0	0	0	0	0	0
6.03915	2.5394	-0.288955	-3.09986	2.26134	-1.03152	0.26373	-0.114803	-0.326933	-0.196816	0.214512	0.0504959	0	0	-0.523476	0.32386	0.243226	0.367337	0.133619	0	0	-1.16266	-0.149526	-0.309952	0	0	0	0	0	0	0	0	0	0	0	0	0	0
6.04914	2.54793	-0.300943	-3.09553	2.27206	-1.02919	0.261978	-0.104767	-0.336852	-0.197251	0.191681	0.0115639	0	0	-0.523509	0.332747	0.25793	0.378164	0.14657	0	0	-1.15809	-0.159376	-0.320279	0	0	0	0	0	0	0	0	0	0	0	0	0	0
6.05913	2.55585	-0.312093	-3.0918	2.28279	-1.02692	0.260182	-0.0959802	-0.346024	-0.19589	0.171651	-0.0289202	0	0	-0.523537	0.341098	0.271282	0.39009	0.160664	0	0	-1.15417	-0.168949	-0.329917	0	0	0	0	0	0	0	0	0	0	0	0	0	0
6.06912	2.56301	-0.322115	-3.08854	2.29352	-1.02477	0.258368	-0.0886555	-0.354003	-0.19268	0.154587	-0.0680132	0	0	-0.52356	0.348491	0.282907	0.403218	0.175164	0	0	-1.15095	-0.177866	-0.338603	0	0	0	0	0	0	0	0	0	0	0	0	0	0
6.07911	2.56941	-0.330796	-3.08558	2.30426	-1.02277	0.256577	-0.0828674	-0.360547	-0.188098	0.140724	-0.104022	0	0	-0.523578	0.354563	0.292578	0.417478	0.189417	0	0	-1.1482	-0.185788	-0.346079	0	0	0	0	0	0	0	0	0	0	0	0	0	0
6.0891	2.57515	-0.337961	-3.08257	2.31504	-1.02096	0.254864	-0.0785677	-0.365508	-0.182927	0.130292	-0.136128	0	0	-0.523591	0.358897	0.300094	0.432614	0.202816	0	0	-1.14543	-0.192331	-0.352113	0	0	0	0	0	0	0	0	0	0	0	0	0	0
6.09908	2.58051	-0.343436	-3.07902	2.32594	-1.01938	0.2533	-0.0756317	-0.368747	-0.178082	0.123444	-0.164041	0	0	-0.5236	0.360953	0.305189	0.44822	0.214787	0	0	-1.14186	-0.196997	-0.356494	0	0	0	0	0	0	0	0	0	0	0	0	0	0
6.10907	2.58573	-0.347063	-3.07425	2.33702	-1.01809	0.25197	-0.0739529	-0.370119	-0.174477	0.120227	-0.187703	0	0	-0.523606	0.360118	0.307653	0.46393	0.2248	0	0	-1.13668	-0.19918	-0.359044	0	0	0	0	0	0	0	0	0	0	0	0	0	0
6.11906	2.59031	-0.348581	-3.06841	2.3482	-1.01713	0.250875	-0.0740236	-0.369326	-0.172639	0.120115	-0.207014	0	0	-0.523609	0.356226	0.307407	0.480396	0.232226	0	0	-1.13076	-0.198476	-0.360104	0	0	0	0	0	0	0	0	0	0	0	0	0	0
6.12905	2.59396	-0.347854	-3.06186	2.35946	-1.01651	0.25	-0.0759118	-0.366215	-0.172624	0.122664	-0.221487	0	0	-0.52361	0.349312	0.304388	0.497784	0.23663	0	0	-1.12462	-0.194868	-0.359793	0	0	0	0	0	0	0	0	0	0	0	0	0	0
6.13904	2.59637	-0.34476	-3.05499	2.37075	-1.01625	0.24932	-0.0796937	-0.360617	-0.17415	0.127384	-0.230139	0	0	-0.52361	0.339421	0.298433	0.51629	0.237555	0	0	-1.11881	-0.188406	-0.358126	0	0	0	0	0	0	0	0	0	0	0	0	0	0
6.14903	2.59721	-0.339237	-3.04815	2.38202	-1.01638	0.248808	-0.0854887	-0.35241	-0.176676	0.133755	-0.231434	0	0	-0.523609	0.326632	0.289394	0.536167	0.234573	0	0	-1.11388	-0.179181	-0.355137	0	0	0	0	0	0	0	0	0	0	0	0	0	0
6.15902	2.59629	-0.331277	-3.04156	2.39324	-1.0169	0.248453	-0.0933512	-0.341527	-0.179641	0.141338	-0.223433	0	0	-0.523607	0.310999	0.277206	0.557546	0.227355	0	0	-1.1102	-0.167273	-0.350831	0	0	0	0	0	0	0	0	0	0	0	0	0	0
6.16901	2.59358	-0.320933	-3.03523	2.40438	-1.01781	0.248254	-0.103228	-0.327992	-0.182646	0.149835	-0.204167	0	0	-0.523606	0.292565	0.261901	0.580408	0.215714	0	0	-1.10786	-0.152764	-0.345195	0	0	0	0	0	0	0	0	0	0	0	0	0	0
6.179	2.58912	-0.308366	-3.02914	2.41544	-1.0191	0.248212	-0.115031	-0.311951	-0.185353	0.159013	-0.172045	0	0	-0.523604	0.271483	0.243719	0.604717	0.199617	0	0	-1.1069	-0.135811	-0.338245	0	0	0	0	0	0	0	0	0	0	0	0	0	0
6.18899	2.58289	-0.293885	-3.02329	2.42639	-1.02074	0.248319	-0.128783	-0.293687	-0.187432	0.168592	-0.12627	0	0	-0.523603	0.248128	0.223187	0.630662	0.179176	0	0	-1.10758	-0.116706	-0.330106	0	0	0	0	0	0	0	0	0	0	0	0	0	0
6.19898	2.57504	-0.277821	-3.01766	2.43722	-1.02267	0.24855	-0.144318	-0.273545	-0.188813	0.178386	-0.0671435	0	0	-0.523602	0.22289	0.20082	0.658152	0.154666	0	0	-1.10986	-0.0958282	-0.320903	0	0	0	0	0	0	0	0	0	0	0	0	0	0
6.20897	2.56584	-0.260554	-3.01236	2.44796	-1.02485	0.248857	-0.161318	-0.251957	-0.189508	0.188273	0.00339105	0	0	-0.5236	0.196276	0.177069	0.686937	0.126558	0	0	-1.11356	-0.0737347	-0.310773	0	0	0	0	0	0	0	0	0	0	0	0	0	0
6.21895	2.55567	-0.242459	-3.0075	2.45863	-1.02718	0.2492	-0.179326	-0.229445	-0.189609	0.198099	0.0809608	0	0	-0.523599	0.168799	0.152317	0.716578	0.0955092	0	0	-1.11824	-0.050996	-0.299849	0	0	0	0	0	0	0	0	0	0	0	0	0	0
6.22894	2.5448	-0.223906	-3.00312	2.46924	-1.02961	0.249543	-0.19806	-0.206429	-0.189152	0.207693	0.161829	0	0	-0.523598	0.140928	0.126957	0.746863	0.0622915	0	0	-1.12372	-0.028071	-0.288367	0	0	0	0	0	0	0	0	0	0	0	0	0	0
6.23893	2.5335	-0.205206	-2.99913	2.47982	-1.03209	0.249865	-0.217254	-0.18321	-0.188205	0.217008	0.243598	0	0	-0.523597	0.113012	0.101335	0.77758	0.0277613	0	0	-1.12976	-0.00524867	-0.27659	0	0	0	0	0	0	0	0	0	0	0	0	0	0
6.24892	2.52203	-0.186502	-2.99533	2.49039	-1.03457	0.250171	-0.236647	-0.159945	-0.186947	0.226151	0.325294	0	0	-0.523597	0.0851587	0.0756552	0.808496	-0.0072962	0	0	-1.13607	0.017447	-0.264718	0	0	0	0	0	0	0	0	0	0	0	0	0	0
