Coordinates
version=1
nRows=277
nColumns=38
inDegrees=no

Units are S.I. units (second, meters, Newtons, ...)
If the header above contains a line with 'inDegrees', this indicates whether rotational values are in degrees (yes) or radians (no).

endheader
time	pelvis_tilt	pelvis_list	pelvis_rotation	pelvis_tx	pelvis_ty	pelvis_tz	hip_flexion_r	hip_adduction_r	hip_rotation_r	knee_angle_r	ankle_angle_r	subtalar_angle_r	mtp_angle_r	hip_flexion_l	hip_adduction_l	hip_rotation_l	knee_angle_l	ankle_angle_l	subtalar_angle_l	mtp_angle_l	lumbar_extension	lumbar_bending	lumbar_rotation	arm_flex_r	arm_add_r	arm_rot_r	elbow_flex_r	pro_sup_r	wrist_flex_r	wrist_dev_r	arm_flex_l	arm_add_l	arm_rot_l	elbow_flex_l	pro_sup_l	wrist_flex_l	wrist_dev_l
5.89	-2.52846	-0.14052	-0.0608795	-0.746838	-1.07145	0.236545	-0.523632	0.117383	-0.0653195	0.293639	0.059032	0	0	-0.164928	-0.120147	-0.205296	0.200662	-0.149447	0	0	-1.16565	0.0828783	0.210393	0	0	0	0	0	0	0	0	0	0	0	0	0	0
5.89999	-2.53611	-0.148687	-0.0662578	-0.75816	-1.06943	0.235725	-0.523618	0.121378	-0.0536444	0.303971	0.0732179	0	0	-0.153783	-0.126343	-0.206877	0.183663	-0.150784	0	0	-1.16194	0.0892096	0.207594	0	0	0	0	0	0	0	0	0	0	0	0	0	0
5.90998	-2.5437	-0.156697	-0.0716612	-0.769489	-1.06741	0.23491	-0.523603	0.125174	-0.0421458	0.314459	0.0874247	0	0	-0.142868	-0.132357	-0.208366	0.16682	-0.152291	0	0	-1.15822	0.095313	0.205079	0	0	0	0	0	0	0	0	0	0	0	0	0	0
5.91997	-2.55111	-0.164341	-0.0771184	-0.780841	-1.06541	0.234108	-0.523588	0.128505	-0.0310728	0.325337	0.101656	0	0	-0.132433	-0.137982	-0.209765	0.150594	-0.154183	0	0	-1.15452	0.100894	0.203116	0	0	0	0	0	0	0	0	0	0	0	0	0	0
5.92996	-2.55824	-0.171383	-0.0826418	-0.792227	-1.06344	0.233332	-0.523571	0.13108	-0.0207016	0.336864	0.115868	0	0	-0.122756	-0.142983	-0.211099	0.135523	-0.156737	0	0	-1.15086	0.105652	0.201839	0	0	0	0	0	0	0	0	0	0	0	0	0	0
5.93995	-2.56497	-0.177589	-0.0882177	-0.803664	-1.06152	0.232597	-0.523553	0.132634	-0.0112824	0.34927	0.129939	0	0	-0.114074	-0.147137	-0.212432	0.122181	-0.16025	0	0	-1.14727	0.109324	0.201234	0	0	0	0	0	0	0	0	0	0	0	0	0	0
5.94994	-2.57118	-0.18275	-0.0938093	-0.815165	-1.05966	0.23192	-0.523532	0.132946	-0.00301671	0.362743	0.143664	0	0	-0.106563	-0.150251	-0.213851	0.111109	-0.165015	0	0	-1.14374	0.111709	0.201165	0	0	0	0	0	0	0	0	0	0	0	0	0	0
5.95993	-2.5768	-0.186689	-0.0993559	-0.826741	-1.0579	0.231317	-0.52351	0.131851	0.00395333	0.37743	0.156752	0	0	-0.100351	-0.152165	-0.215427	0.102724	-0.171309	0	0	-1.1403	0.112672	0.201425	0	0	0	0	0	0	0	0	0	0	0	0	0	0
5.96992	-2.58174	-0.189273	-0.104778	-0.838397	-1.05625	0.230797	-0.523487	0.129248	0.00955427	0.393444	0.16883	0	0	-0.0955371	-0.152756	-0.217164	0.0972614	-0.179385	0	0	-1.13699	0.112141	0.201767	0	0	0	0	0	0	0	0	0	0	0	0	0	0
5.97991	-2.58589	-0.190411	-0.109985	-0.850139	-1.05474	0.230367	-0.523465	0.125095	0.0137847	0.410864	0.179451	0	0	-0.0921967	-0.15194	-0.218983	0.094751	-0.189458	0	0	-1.1339	0.110103	0.201943	0	0	0	0	0	0	0	0	0	0	0	0	0	0
5.9899	-2.58919	-0.190062	-0.114887	-0.861961	-1.05342	0.23003	-0.523446	0.119409	0.0167112	0.429754	0.188101	0	0	-0.0903916	-0.149676	-0.220757	0.095032	-0.201656	0	0	-1.13117	0.106589	0.201724	0	0	0	0	0	0	0	0	0	0	0	0	0	0
5.99989	-2.59154	-0.188239	-0.119398	-0.873852	-1.0523	0.229781	-0.523436	0.112262	0.0184622	0.450167	0.194213	0	0	-0.0901768	-0.145969	-0.222366	0.0977879	-0.21592	0	0	-1.129	0.101679	0.200924	0	0	0	0	0	0	0	0	0	0	0	0	0	0
6.00988	-2.5929	-0.184988	-0.123497	-0.88581	-1.05142	0.229621	-0.52344	0.103759	0.019277	0.472016	0.197188	0	0	-0.0914986	-0.140875	-0.223755	0.102702	-0.231901	0	0	-1.12741	0.095456	0.199378	0	0	0	0	0	0	0	0	0	0	0	0	0	0
6.01987	-2.59325	-0.1804	-0.127193	-0.897826	-1.05082	0.229545	-0.523466	0.0940311	0.0194246	0.495214	0.196414	0	0	-0.0943217	-0.13448	-0.224943	0.109412	-0.248863	0	0	-1.12646	0.0880151	0.196993	0	0	0	0	0	0	0	0	0	0	0	0	0	0
6.02986	-2.59254	-0.174618	-0.13051	-0.909886	-1.05052	0.229548	-0.523521	0.0832474	0.0191765	0.51968	0.191329	0	0	-0.098641	-0.12691	-0.226006	0.117562	-0.265735	0	0	-1.12625	0.0794853	0.193753	0	0	0	0	0	0	0	0	0	0	0	0	0	0
6.03985	-2.59073	-0.167827	-0.133482	-0.921978	-1.05052	0.229622	-0.523618	0.0716124	0.0188001	0.545299	0.181465	0	0	-0.104453	-0.118324	-0.227049	0.126866	-0.281366	0	0	-1.12685	0.0700317	0.189697	0	0	0	0	0	0	0	0	0	0	0	0	0	0
6.04984	-2.58776	-0.160252	-0.136143	-0.934092	-1.05083	0.229753	-0.523766	0.059361	0.0185392	0.571945	0.166507	0	0	-0.111788	-0.108899	-0.228183	0.137048	-0.29475	0	0	-1.12833	0.0598562	0.184915	0	0	0	0	0	0	0	0	0	0	0	0	0	0
6.05984	-2.58359	-0.152145	-0.138525	-0.946212	-1.05144	0.229923	-0.523977	0.0467386	0.0186042	0.59948	0.146344	0	0	-0.12073	-0.0988143	-0.229477	0.147794	-0.305144	0	0	-1.13082	0.0491859	0.17953	0	0	0	0	0	0	0	0	0	0	0	0	0	0
6.06983	-2.57815	-0.14375	-0.14066	-0.958317	-1.05233	0.230109	-0.52426	0.0339746	0.019171	0.627731	0.121127	0	0	-0.131399	-0.088224	-0.230966	0.158736	-0.312114	0	0	-1.13441	0.0382516	0.173667	0	0	0	0	0	0	0	0	0	0	0	0	0	0
6.07982	-2.57142	-0.135286	-0.142585	-0.970382	-1.05348	0.230282	-0.524621	0.0212624	0.0203759	0.656477	0.0913287	0	0	-0.143935	-0.0772555	-0.232698	0.169474	-0.315547	0	0	-1.13918	0.0272693	0.167429	0	0	0	0	0	0	0	0	0	0	0	0	0	0
6.08981	-2.56336	-0.12692	-0.14434	-0.982382	-1.05484	0.230412	-0.525058	0.00875058	0.022314	0.68543	0.0577809	0	0	-0.158453	-0.0660083	-0.23476	0.179619	-0.315602	0	0	-1.14516	0.0164316	0.160879	0	0	0	0	0	0	0	0	0	0	0	0	0	0
6.0998	-2.55403	-0.118771	-0.145964	-0.994296	-1.05638	0.230471	-0.525559	-0.00345299	0.0250409	0.714231	0.0216863	0	0	-0.175007	-0.0545576	-0.237252	0.188845	-0.31264	0	0	-1.15224	0.0059027	0.15404	0	0	0	0	0	0	0	0	0	0	0	0	0	0
6.10979	-2.54351	-0.110911	-0.147499	-1.00611	-1.05807	0.230436	-0.5261	-0.0152661	0.0285777	0.742443	-0.0154168	0	0	-0.193536	-0.042963	-0.240238	0.196948	-0.307143	0	0	-1.16016	-0.00417731	0.146898	0	0	0	0	0	0	0	0	0	0	0	0	0	0
6.11978	-2.53198	-0.103373	-0.148977	-1.01784	-1.05987	0.230293	-0.526635	-0.0266198	0.032906	0.769565	-0.0517656	0	0	-0.213841	-0.031283	-0.243709	0.203886	-0.299635	0	0	-1.16845	-0.0136887	0.139418	0	0	0	0	0	0	0	0	0	0	0	0	0	0
6.12977	-2.51961	-0.0961856	-0.150372	-1.02949	-1.06175	0.23003	-0.527093	-0.037427	0.0378892	0.795162	-0.0855516	0	0	-0.23571	-0.0195978	-0.247564	0.209628	-0.290626	0	0	-1.17683	-0.0224927	0.131576	0	0	0	0	0	0	0	0	0	0	0	0	0	0
6.13976	-2.5066	-0.0893881	-0.151597	-1.04103	-1.06368	0.229639	-0.527373	-0.0475632	0.0432958	0.818868	-0.115171	0	0	-0.258905	-0.00802287	-0.251593	0.214154	-0.280591	0	0	-1.18515	-0.0304201	0.123354	0	0	0	0	0	0	0	0	0	0	0	0	0	0
6.14975	-2.49316	-0.0830171	-0.152516	-1.05246	-1.06565	0.229119	-0.527342	-0.0568673	0.0488527	0.840371	-0.139467	0	0	-0.283147	0.00329624	-0.2555	0.217474	-0.269943	0	0	-1.19335	-0.0372865	0.114743	0	0	0	0	0	0	0	0	0	0	0	0	0	0
6.15974	-2.47954	-0.0771001	-0.152973	-1.06377	-1.06764	0.228473	-0.526825	-0.0651583	0.0542952	0.859386	-0.157865	0	0	-0.308096	0.0141962	-0.258955	0.219639	-0.259024	0	0	-1.2014	-0.0429172	0.105742	0	0	0	0	0	0	0	0	0	0	0	0	0	0
6.16973	-2.46605	-0.0716442	-0.152812	-1.07495	-1.06963	0.227716	-0.525612	-0.072263	0.0593893	0.875654	-0.170333	0	0	-0.333341	0.0245119	-0.261641	0.220745	-0.248086	0	0	-1.20924	-0.0471786	0.0963503	0	0	0	0	0	0	0	0	0	0	0	0	0	0
6.17972	-2.45304	-0.0666281	-0.151908	-1.08598	-1.0716	0.226865	-0.523462	-0.0780495	0.0639303	0.888936	-0.177223	0	0	-0.358409	0.0340952	-0.263296	0.220933	-0.237301	0	0	-1.21678	-0.049996	0.0865794	0	0	0	0	0	0	0	0	0	0	0	0	0	0
6.18971	-2.44089	-0.0620037	-0.150179	-1.09688	-1.07353	0.22595	-0.520111	-0.082458	0.067726	0.899027	-0.17912	0	0	-0.382795	0.0428313	-0.263736	0.220369	-0.22677	0	0	-1.22385	-0.0513646	0.0764535	0	0	0	0	0	0	0	0	0	0	0	0	0	0
6.1997	-2.42996	-0.0577035	-0.147598	-1.10764	-1.07539	0.224998	-0.515298	-0.0855254	0.0705795	0.905755	-0.176736	0	0	-0.405999	0.0506485	-0.26286	0.219228	-0.216538	0	0	-1.23028	-0.0513479	0.0660227	0	0	0	0	0	0	0	0	0	0	0	0	0	0
6.20969	-2.42059	-0.0536524	-0.1442	-1.11827	-1.07716	0.224037	-0.508798	-0.0874016	0.0722813	0.908979	-0.170837	0	0	-0.427562	0.057522	-0.260661	0.217686	-0.206606	0	0	-1.23585	-0.0500742	0.0553721	0	0	0	0	0	0	0	0	0	0	0	0	0	0
6.21968	-2.41304	-0.0497805	-0.140081	-1.1288	-1.07882	0.223092	-0.500467	-0.0883583	0.072615	0.908572	-0.162177	0	0	-0.447117	0.0634764	-0.257214	0.215931	-0.196945	0	0	-1.24042	-0.0477347	0.0446333	0	0	0	0	0	0	0	0	0	0	0	0	0	0
6.22967	-2.4074	-0.0460009	-0.135375	-1.13922	-1.08034	0.222187	-0.490308	-0.0886949	0.0714296	0.904411	-0.151522	0	0	-0.464466	0.0685938	-0.252689	0.214173	-0.187505	0	0	-1.24389	-0.0445971	0.033988	0	0	0	0	0	0	0	0	0	0	0	0	0	0
6.23966	-2.40365	-0.0422057	-0.13023	-1.14957	-1.0817	0.221347	-0.478455	-0.0887311	0.0686056	0.896407	-0.13961	0	0	-0.479535	0.07301	-0.247273	0.212629	-0.178233	0	0	-1.24628	-0.0409572	0.0235567	0	0	0	0	0	0	0	0	0	0	0	0	0	0
6.24965	-2.40171	-0.038273	-0.124811	-1.15983	-1.0829	0.220594	-0.465099	-0.08879	0.0640638	0.884538	-0.127133	0	0	-0.49232	0.0769017	-0.241166	0.211516	-0.16906	0	0	-1.2476	-0.0371262	0.013405	0	0	0	0	0	0	0	0	0	0	0	0	0	0
6.25964	-2.40147	-0.0340739	-0.119294	-1.17002	-1.08389	0.219948	-0.450433	-0.0891793	0.0577735	0.868852	-0.114724	0	0	-0.502859	0.0804717	-0.23456	0.211041	-0.159908	0	0	-1.24794	-0.0334179	0.00355259	0	0	0	0	0	0	0	0	0	0	0	0	0	0
6.26963	-2.40279	-0.0294767	-0.113855	-1.18015	-1.08468	0.219426	-0.434641	-0.0901707	0.0497548	0.849469	-0.102946	0	0	-0.511227	0.0839357	-0.227637	0.211377	-0.150693	0	0	-1.24734	-0.0301322	-0.00602015	0	0	0	0	0	0	0	0	0	0	0	0	0	0
6.27962	-2.40554	-0.0243523	-0.108651	-1.19021	-1.08524	0.219042	-0.417903	-0.0919822	0.0400776	0.82657	-0.0923041	0	0	-0.517557	0.08751	-0.220532	0.212645	-0.141332	0	0	-1.24588	-0.0275371	-0.0153704	0	0	0	0	0	0	0	0	0	0	0	0	0	0
6.28961	-2.40954	-0.01858	-0.103796	-1.20021	-1.08556	0.218805	-0.400434	-0.0947502	0.0288568	0.800398	-0.0832387	0	0	-0.52208	0.0913951	-0.21333	0.21488	-0.13175	0	0	-1.24366	-0.0258454	-0.0245962	0	0	0	0	0	0	0	0	0	0	0	0	0	0
6.2996	-2.41451	-0.0120643	-0.0993509	-1.21017	-1.08563	0.218725	-0.382522	-0.0984951	0.0162746	0.771269	-0.0760911	0	0	-0.52509	0.0957569	-0.206071	0.218001	-0.121872	0	0	-1.24077	-0.0252017	-0.0338352	0	0	0	0	0	0	0	0	0	0	0	0	0	0
6.30959	-2.42023	-0.00475878	-0.0953471	-1.22009	-1.08545	0.218802	-0.364428	-0.103202	0.0025206	0.739526	-0.0710583	0	0	-0.526893	0.100714	-0.198728	0.221901	-0.11164	0	0	-1.23733	-0.0256727	-0.0432488	0	0	0	0	0	0	0	0	0	0	0	0	0	0
6.31958	-2.42648	0.00333391	-0.0917989	-1.23	-1.08503	0.219033	-0.346359	-0.10881	-0.0121748	0.70552	-0.0682216	0	0	-0.527782	0.106336	-0.191246	0.226471	-0.101007	0	0	-1.23337	-0.0272705	-0.0529669	0	0	0	0	0	0	0	0	0	0	0	0	0	0
6.32957	-2.43308	0.0121702	-0.088705	-1.23991	-1.08436	0.219413	-0.32847	-0.115216	-0.027526	0.669608	-0.0675597	0	0	-0.528016	0.112643	-0.183564	0.231605	-0.0899428	0	0	-1.22893	-0.029967	-0.0630616	0	0	0	0	0	0	0	0	0	0	0	0	0	0
6.33956	-2.43991	0.0216763	-0.0860477	-1.24986	-1.08346	0.219936	-0.310858	-0.122276	-0.0431838	0.63215	-0.0689528	0	0	-0.527814	0.119618	-0.175621	0.237205	-0.0784278	0	0	-1.224	-0.0337026	-0.0735401	0	0	0	0	0	0	0	0	0	0	0	0	0	0
6.34955	-2.44688	0.031759	-0.0837929	-1.25985	-1.08234	0.220593	-0.293576	-0.129818	-0.0587266	0.593508	-0.0722	0	0	-0.527349	0.127207	-0.167369	0.243186	-0.0664532	0	0	-1.21856	-0.0383934	-0.0843533	0	0	0	0	0	0	0	0	0	0	0	0	0	0
6.35954	-2.45392	0.0423158	-0.081894	-1.26991	-1.081	0.221377	-0.276645	-0.137664	-0.0736635	0.554033	-0.0770418	0	0	-0.526754	0.135331	-0.15878	0.249484	-0.0540072	0	0	-1.21259	-0.0439403	-0.0954089	0	0	0	0	0	0	0	0	0	0	0	0	0	0
6.36953	-2.46099	0.0532424	-0.0802955	-1.28005	-1.07948	0.222282	-0.260083	-0.145635	-0.0874503	0.514044	-0.0831828	0	0	-0.526123	0.143892	-0.14986	0.256065	-0.041068	0	0	-1.20613	-0.050236	-0.106587	0	0	0	0	0	0	0	0	0	0	0	0	0	0
6.37952	-2.46805	0.0644336	-0.0789395	-1.29028	-1.07777	0.223302	-0.243922	-0.153562	-0.099497	0.473803	-0.0903202	0	0	-0.525519	0.152776	-0.140651	0.26293	-0.0276119	0	0	-1.19929	-0.0571689	-0.11776	0	0	0	0	0	0	0	0	0	0	0	0	0	0
6.38952	-2.47504	0.0757833	-0.077777	-1.30058	-1.07592	0.224431	-0.228239	-0.161286	-0.109174	0.433504	-0.0981743	0	0	-0.524981	0.16186	-0.131221	0.270127	-0.0136346	0	0	-1.19234	-0.0646287	-0.128806	0	0	0	0	0	0	0	0	0	0	0	0	0	0
6.39951	-2.48194	0.0871867	-0.0767509	-1.31095	-1.07394	0.225665	-0.21309	-0.168691	-0.115939	0.393394	-0.106454	0	0	-0.524528	0.171013	-0.121639	0.277702	0.000853617	0	0	-1.18545	-0.0724972	-0.139602	0	0	0	0	0	0	0	0	0	0	0	0	0	0
6.4095	-2.48872	0.0985427	-0.0757851	-1.32139	-1.07186	0.226998	-0.198525	-0.175707	-0.119388	0.353784	-0.114863	0	0	-0.524164	0.1801	-0.111948	0.285705	0.0158164	0	0	-1.17874	-0.0806374	-0.150032	0	0	0	0	0	0	0	0	0	0	0	0	0	0
6.41949	-2.49538	0.10976	-0.0747865	-1.33188	-1.0697	0.228422	-0.184605	-0.182313	-0.119295	0.315037	-0.123165	0	0	-0.523886	0.188982	-0.102163	0.294188	0.0311896	0	0	-1.17231	-0.088898	-0.159999	0	0	0	0	0	0	0	0	0	0	0	0	0	0
6.42948	-2.5019	0.120765	-0.0736599	-1.34243	-1.06749	0.229928	-0.171404	-0.18854	-0.115654	0.277535	-0.131295	0	0	-0.523684	0.197537	-0.0922744	0.303212	0.0468849	0	0	-1.16622	-0.0971296	-0.169426	0	0	0	0	0	0	0	0	0	0	0	0	0	0
6.43947	-2.50826	0.131507	-0.0723252	-1.35304	-1.06524	0.231506	-0.159017	-0.194469	-0.108707	0.241664	-0.139477	0	0	-0.523545	0.20567	-0.0822661	0.31285	0.0627957	0	0	-1.16053	-0.105202	-0.178274	0	0	0	0	0	0	0	0	0	0	0	0	0	0
6.44946	-2.51442	0.141959	-0.0707318	-1.36371	-1.06298	0.23315	-0.147548	-0.200221	-0.0989438	0.207796	-0.148347	0	0	-0.523457	0.213322	-0.0721298	0.323186	0.0787955	0	0	-1.1553	-0.113017	-0.186531	0	0	0	0	0	0	0	0	0	0	0	0	0	0
6.45945	-2.52035	0.152118	-0.0688712	-1.37444	-1.06073	0.234853	-0.13711	-0.205943	-0.0870911	0.176281	-0.159096	0	0	-0.523405	0.220475	-0.0618656	0.334318	0.0947293	0	0	-1.15062	-0.120516	-0.194218	0	0	0	0	0	0	0	0	0	0	0	0	0	0
6.46944	-2.52594	0.161709	-0.0666055	-1.3852	-1.05853	0.236601	-0.127861	-0.211357	-0.0735988	0.147626	-0.168788	0	0	-0.523379	0.226764	-0.0516387	0.346398	0.110367	0	0	-1.14664	-0.127344	-0.201262	0	0	0	0	0	0	0	0	0	0	0	0	0	0
6.47943	-2.5311	0.170464	-0.0638525	-1.39597	-1.05644	0.238381	-0.119963	-0.216186	-0.0590673	0.122312	-0.174982	0	0	-0.523369	0.231855	-0.0416575	0.35961	0.125441	0	0	-1.14355	-0.133194	-0.20757	0	0	0	0	0	0	0	0	0	0	0	0	0	0
6.48942	-2.53577	0.178141	-0.0605253	-1.40674	-1.0545	0.240178	-0.113481	-0.220167	-0.0442465	0.100827	-0.175913	0	0	-0.523368	0.235434	-0.0321407	0.374037	0.139658	0	0	-1.14134	-0.137776	-0.213017	0	0	0	0	0	0	0	0	0	0	0	0	0	0
6.49941	-2.53985	0.184508	-0.0565697	-1.4175	-1.05276	0.241973	-0.10848	-0.223036	-0.0299476	0.0835501	-0.170444	0	0	-0.52337	0.237215	-0.0233169	0.389783	0.152659	0	0	-1.14001	-0.140831	-0.217493	0	0	0	0	0	0	0	0	0	0	0	0	0	0
6.5094	-2.54326	0.189352	-0.0519775	-1.42826	-1.05126	0.243754	-0.105039	-0.22454	-0.0168958	0.0707325	-0.157992	0	0	-0.523374	0.236951	-0.0154285	0.406982	0.164009	0	0	-1.13959	-0.142149	-0.220903	0	0	0	0	0	0	0	0	0	0	0	0	0	0
6.51939	-2.54597	0.192496	-0.0466953	-1.439	-1.05004	0.245495	-0.103125	-0.224458	-0.00567873	0.0625774	-0.138575	0	0	-0.523378	0.234411	-0.00871819	0.425635	0.173249	0	0	-1.13982	-0.141528	-0.223119	0	0	0	0	0	0	0	0	0	0	0	0	0	0
6.52938	-2.548	0.193816	-0.0406773	-1.44975	-1.04912	0.247173	-0.102677	-0.222625	0.00326305	0.0591468	-0.112958	0	0	-0.523384	0.229416	-0.00340141	0.445735	0.179859	0	0	-1.14039	-0.138823	-0.224035	0	0	0	0	0	0	0	0	0	0	0	0	0	0
6.53937	-2.54935	0.193273	-0.0339035	-1.46052	-1.04852	0.248763	-0.103595	-0.218979	0.00964865	0.0603445	-0.082814	0	0	-0.523397	0.221891	0.000364667	0.467256	0.183281	0	0	-1.14088	-0.133983	-0.223577	0	0	0	0	0	0	0	0	0	0	0	0	0	0
6.54936	-2.55012	0.19096	-0.0263606	-1.47134	-1.04823	0.250239	-0.105678	-0.213617	0.0132656	0.065944	-0.050997	0	0	-0.523422	0.211897	0.00251073	0.490097	0.182973	0	0	-1.14067	-0.127091	-0.221702	0	0	0	0	0	0	0	0	0	0	0	0	0	0
6.55935	-2.55016	0.187052	-0.0184077	-1.48222	-1.04823	0.251607	-0.10899	-0.206767	0.0138625	0.0751317	-0.0218922	0	0	-0.523467	0.199796	0.00295649	0.514239	0.178368	0	0	-1.14014	-0.118424	-0.218665	0	0	0	0	0	0	0	0	0	0	0	0	0	0
6.56934	-2.54935	0.181979	-0.0105201	-1.49318	-1.04849	0.252886	-0.113497	-0.19896	0.0112941	0.0869636	-0.00209816	0	0	-0.523542	0.186281	0.00180063	0.539589	0.169041	0	0	-1.13952	-0.108594	-0.214768	0	0	0	0	0	0	0	0	0	0	0	0	0	0
6.57933	-2.54761	0.176121	-0.00309595	-1.50423	-1.04897	0.254091	-0.119244	-0.190644	0.00558783	0.100417	0.0040348	0	0	-0.523659	0.17196	-0.000824698	0.566023	0.154642	0	0	-1.13901	-0.0981457	-0.210298	0	0	0	0	0	0	0	0	0	0	0	0	0	0
6.58932	-2.54481	0.169726	0.00358906	-1.51535	-1.04965	0.255241	-0.126398	-0.18207	-0.00291791	0.11454	-0.00421179	0	0	-0.52383	0.157239	-0.00481196	0.593443	0.134982	0	0	-1.1389	-0.0874594	-0.205481	0	0	0	0	0	0	0	0	0	0	0	0	0	0
6.59931	-2.5408	0.162871	0.00940823	-1.5265	-1.05053	0.256352	-0.135233	-0.173227	-0.0134908	0.128549	-0.0234515	0	0	-0.524064	0.14226	-0.0101062	0.62178	0.110129	0	0	-1.13957	-0.0767071	-0.200433	0	0	0	0	0	0	0	0	0	0	0	0	0	0
6.6093	-2.53537	0.155425	0.0143953	-1.5376	-1.05163	0.257443	-0.146117	-0.16379	-0.0249631	0.14189	-0.0459316	0	0	-0.524372	0.126853	-0.0167219	0.651	0.0804853	0	0	-1.14155	-0.0658166	-0.19513	0	0	0	0	0	0	0	0	0	0	0	0	0	0
6.61929	-2.52844	0.147416	0.0186051	-1.54859	-1.05296	0.258535	-0.159223	-0.153664	-0.0365124	0.154191	-0.0667526	0	0	-0.524758	0.111044	-0.0244747	0.680868	0.0469297	0	0	-1.14506	-0.0548683	-0.189507	0	0	0	0	0	0	0	0	0	0	0	0	0	0
6.62928	-2.51997	0.13904	0.0220572	-1.55942	-1.0545	0.259657	-0.174676	-0.142993	-0.0476667	0.16509	-0.0839914	0	0	-0.525217	0.0950902	-0.0329947	0.711122	0.0108346	0	0	-1.15034	-0.044111	-0.183557	0	0	0	0	0	0	0	0	0	0	0	0	0	0
6.63927	-2.51004	0.130624	0.0247611	-1.57007	-1.0562	0.260836	-0.192416	-0.132125	-0.0582854	0.174346	-0.0984152	0	0	-0.525736	0.0794432	-0.0417954	0.741323	-0.0258869	0	0	-1.15734	-0.0339061	-0.177322	0	0	0	0	0	0	0	0	0	0	0	0	0	0
6.64926	-2.49876	0.122619	0.0266547	-1.58052	-1.05802	0.262099	-0.212327	-0.121594	-0.0684653	0.181721	-0.113216	0	0	-0.526282	0.0647541	-0.050351	0.771043	-0.0608459	0	0	-1.166	-0.0247499	-0.170934	0	0	0	0	0	0	0	0	0	0	0	0	0	0
6.65925	-2.48631	0.115268	0.0277871	-1.59078	-1.05994	0.26346	-0.234166	-0.111683	-0.0781887	0.187217	-0.129189	0	0	-0.526804	0.05142	-0.0582877	0.799777	-0.0913629	0	0	-1.17605	-0.0168784	-0.164494	0	0	0	0	0	0	0	0	0	0	0	0	0	0
6.66924	-2.47291	0.108499	0.0283602	-1.60084	-1.06196	0.26491	-0.257565	-0.102288	-0.0871808	0.191191	-0.142865	0	0	-0.527221	0.0394302	-0.0654638	0.82701	-0.114706	0	0	-1.18708	-0.0101572	-0.157988	0	0	0	0	0	0	0	0	0	0	0	0	0	0
6.67923	-2.45883	0.10229	0.0285283	-1.6107	-1.06408	0.266437	-0.282086	-0.0933985	-0.0952857	0.194066	-0.152133	0	0	-0.527424	0.0288567	-0.0717973	0.852301	-0.128334	0	0	-1.19853	-0.00450444	-0.151403	0	0	0	0	0	0	0	0	0	0	0	0	0	0
6.68922	-2.44432	0.0966708	0.0283224	-1.62039	-1.06631	0.268022	-0.307353	-0.0851068	-0.102443	0.196115	-0.156281	0	0	-0.527264	0.0199128	-0.0772204	0.87537	-0.130195	0	0	-1.2101	7.96087e-05	-0.144774	0	0	0	0	0	0	0	0	0	0	0	0	0	0
6.69921	-2.42957	0.0917054	0.0276615	-1.62989	-1.06863	0.269648	-0.333029	-0.0775877	-0.108644	0.197484	-0.155804	0	0	-0.526558	0.0129222	-0.0816729	0.896068	-0.118894	0	0	-1.22168	0.00351993	-0.138169	0	0	0	0	0	0	0	0	0	0	0	0	0	0
6.7092	-2.4149	0.0874808	0.0264515	-1.63922	-1.071	0.271292	-0.358675	-0.071059	-0.113935	0.198351	-0.152268	0	0	-0.525081	0.0082103	-0.0851172	0.914255	-0.0936959	0	0	-1.23298	0.00571888	-0.131665	0	0	0	0	0	0	0	0	0	0	0	0	0	0
6.71919	-2.40061	0.0840985	0.0245753	-1.64839	-1.0734	0.272931	-0.383841	-0.0657638	-0.118446	0.198809	-0.148199	0	0	-0.522585	0.00609162	-0.0875188	0.929837	-0.0546773	0	0	-1.24377	0.00656876	-0.125355	0	0	0	0	0	0	0	0	0	0	0	0	0	0
6.72919	-2.38709	0.0816738	0.0219055	-1.65742	-1.07578	0.274546	-0.408057	-0.0619595	-0.122386	0.198871	-0.147028	0	0	-0.518801	0.00682356	-0.0888746	0.942718	-0.00294602	0	0	-1.25385	0.00595243	-0.119339	0	0	0	0	0	0	0	0	0	0	0	0	0	0
6.73918	-2.37473	0.0800726	0.0185581	-1.66632	-1.07809	0.276109	-0.430793	-0.0595219	-0.125771	0.198699	-0.148836	0	0	-0.513475	0.0101121	-0.0893193	0.952717	0.0590473	0	0	-1.26293	0.00407865	-0.113608	0	0	0	0	0	0	0	0	0	0	0	0	0	0
6.74917	-2.36398	0.0791473	0.0147175	-1.67511	-1.0803	0.277599	-0.451491	-0.0582691	-0.128723	0.19842	-0.15425	0	0	-0.506399	0.0154403	-0.0890428	0.959524	0.127026	0	0	-1.2707	0.00120217	-0.108109	0	0	0	0	0	0	0	0	0	0	0	0	0	0
6.75916	-2.3553	0.0784897	0.0108272	-1.68379	-1.08238	0.278993	-0.469629	-0.0576042	-0.131191	0.198233	-0.160378	0	0	-0.497464	0.0216588	-0.0883388	0.962639	0.194317	0	0	-1.27692	-0.00208395	-0.102647	0	0	0	0	0	0	0	0	0	0	0	0	0	0
6.76915	-2.34881	0.0777802	0.00716062	-1.69237	-1.08433	0.280275	-0.484999	-0.0570972	-0.133221	0.198318	-0.164873	0	0	-0.486735	0.0279424	-0.0874761	0.96171	0.256761	0	0	-1.28158	-0.0053428	-0.0970668	0	0	0	0	0	0	0	0	0	0	0	0	0	0
6.77914	-2.34448	0.0767753	0.00387203	-1.70085	-1.08613	0.281432	-0.497612	-0.0564505	-0.134949	0.198842	-0.165777	0	0	-0.474439	0.0337241	-0.0866839	0.956531	0.312104	0	0	-1.28476	-0.00825557	-0.0912688	0	0	0	0	0	0	0	0	0	0	0	0	0	0
6.78913	-2.34218	0.0752837	0.00103883	-1.70924	-1.08777	0.282456	-0.507619	-0.0554552	-0.136558	0.199975	-0.161393	0	0	-0.460872	0.0386225	-0.0861447	0.94703	0.359476	0	0	-1.28661	-0.0105862	-0.0851811	0	0	0	0	0	0	0	0	0	0	0	0	0	0
6.79912	-2.34172	0.0731497	-0.00132324	-1.71755	-1.08925	0.283342	-0.515251	-0.0539672	-0.138251	0.201887	-0.150191	0	0	-0.446328	0.0423878	-0.0860073	0.93326	0.398927	0	0	-1.28729	-0.012171	-0.078751	0	0	0	0	0	0	0	0	0	0	0	0	0	0
6.80911	-2.34292	0.0702485	-0.00325861	-1.72578	-1.09055	0.28409	-0.52079	-0.0519013	-0.140239	0.204734	-0.130775	0	0	-0.431063	0.0448743	-0.0863963	0.915377	0.431011	0	0	-1.28694	-0.0129227	-0.0719424	0	0	0	0	0	0	0	0	0	0	0	0	0	0
6.8191	-2.34564	0.0664987	-0.00486367	-1.73396	-1.09167	0.284706	-0.52455	-0.0492376	-0.142758	0.208648	-0.101904	0	0	-0.41527	0.046039	-0.0874062	0.8936	0.456352	0	0	-1.28563	-0.0128318	-0.0647445	0	0	0	0	0	0	0	0	0	0	0	0	0	0
6.82909	-2.34963	0.0617829	-0.00615944	-1.7421	-1.09258	0.285189	-0.526876	-0.0458787	-0.145864	0.213646	-0.0628113	0	0	-0.399227	0.045795	-0.089023	0.868137	0.475365	0	0	-1.28354	-0.0118002	-0.0571468	0	0	0	0	0	0	0	0	0	0	0	0	0	0
6.83908	-2.35456	0.0559586	-0.00707278	-1.7502	-1.09332	0.285534	-0.528099	-0.0416424	-0.149436	0.219596	-0.0134118	0	0	-0.383338	0.0439927	-0.0911188	0.839194	0.488266	0	0	-1.28092	-0.00964141	-0.0490935	0	0	0	0	0	0	0	0	0	0	0	0	0	0
6.84907	-2.36008	0.0488638	-0.00747479	-1.75826	-1.09391	0.285733	-0.528521	-0.0362824	-0.153151	0.226338	0.0453638	0	0	-0.367962	0.0404387	-0.0934936	0.806983	0.495128	0	0	-1.27804	-0.00612019	-0.040487	0	0	0	0	0	0	0	0	0	0	0	0	0	0
6.85906	-2.36597	0.0404695	-0.00732802	-1.76629	-1.09434	0.285788	-0.528398	-0.029697	-0.156701	0.233674	0.111387	0	0	-0.353341	0.0350792	-0.0960021	0.771767	0.495925	0	0	-1.27507	-0.00118004	-0.0312631	0	0	0	0	0	0	0	0	0	0	0	0	0	0
6.86905	-2.37208	0.0309082	-0.00670746	-1.7743	-1.09462	0.28571	-0.527937	-0.0219567	-0.159787	0.241313	0.180814	0	0	-0.339585	0.0280262	-0.0985823	0.733878	0.490581	0	0	-1.27204	0.00502754	-0.0214308	0	0	0	0	0	0	0	0	0	0	0	0	0	0
6.87904	-2.37833	0.0204988	-0.00582708	-1.78232	-1.09472	0.285523	-0.527297	-0.013333	-0.16211	0.248826	0.247495	0	0	-0.326674	0.0195895	-0.101275	0.693718	0.479082	0	0	-1.26884	0.0121086	-0.0110983	0	0	0	0	0	0	0	0	0	0	0	0	0	0
6.88903	-2.38469	0.00954615	-0.00494234	-1.79037	-1.09461	0.285256	-0.526593	-0.00414305	-0.16348	0.255828	0.306103	0	0	-0.31455	0.0100693	-0.104132	0.651685	0.461678	0	0	-1.26541	0.0196483	-0.00040973	0	0	0	0	0	0	0	0	0	0	0	0	0	0
6.89902	-2.39111	-0.00164879	-0.00432129	-1.79845	-1.09429	0.284934	-0.525904	0.00525955	-0.163768	0.26208	0.352977	0	0	-0.303119	-0.000217429	-0.107131	0.608202	0.439062	0	0	-1.26169	0.0272291	0.0104653	0	0	0	0	0	0	0	0	0	0	0	0	0	0
6.90901	-2.39754	-0.0127733	-0.00423717	-1.80656	-1.09379	0.284584	-0.525281	0.0144783	-0.162889	0.267503	0.386151	0	0	-0.292254	-0.0109181	-0.110142	0.56373	0.412546	0	0	-1.25769	0.0344248	0.0213287	0	0	0	0	0	0	0	0	0	0	0	0	0	0
6.919	-2.40391	-0.0234783	-0.00497014	-1.81469	-1.09313	0.284229	-0.524749	0.0230478	-0.160833	0.272156	0.405098	0	0	-0.281801	-0.021604	-0.112896	0.518762	0.384283	0	0	-1.25348	0.0407868	0.0319447	0	0	0	0	0	0	0	0	0	0	0	0	0	0
6.92899	-2.41015	-0.0333773	-0.00680567	-1.82283	-1.09235	0.283891	-0.524317	0.0304302	-0.157695	0.27619	0.410404	0	0	-0.271546	-0.0317731	-0.115018	0.473868	0.357524	0	0	-1.24903	0.0458479	0.0420369	0	0	0	0	0	0	0	0	0	0	0	0	0	0
6.93898	-2.41619	-0.042068	-0.00999698	-1.83098	-1.09151	0.283585	-0.523984	0.0360409	-0.153728	0.279866	0.403816	0	0	-0.261283	-0.0408568	-0.115994	0.429574	0.33691	0	0	-1.24447	0.0491656	0.051305	0	0	0	0	0	0	0	0	0	0	0	0	0	0
6.94897	-2.42193	-0.0491251	-0.0147595	-1.83908	-1.09069	0.283318	-0.523741	0.0392516	-0.149342	0.283533	0.38799	0	0	-0.250814	-0.0481935	-0.115175	0.386419	0.328734	0	0	-1.23998	0.0503275	0.0594181	0	0	0	0	0	0	0	0	0	0	0	0	0	0
6.95896	-2.4273	-0.0545603	-0.0209604	-1.84715	-1.08991	0.283077	-0.523574	0.0400357	-0.144884	0.287532	0.366755	0	0	-0.240059	-0.0537697	-0.112435	0.344344	0.333988	0	0	-1.23568	0.0494723	0.0662288	0	0	0	0	0	0	0	0	0	0	0	0	0	0
6.96895	-2.43233	-0.0589145	-0.0280519	-1.85519	-1.08915	0.282822	-0.52347	0.0391049	-0.14053	0.292201	0.345272	0	0	-0.229072	-0.0582993	-0.108241	0.302716	0.347945	0	0	-1.23162	0.0473944	0.0718851	0	0	0	0	0	0	0	0	0	0	0	0	0	0
6.97894	-2.437	-0.0629635	-0.0352632	-1.86323	-1.08841	0.282493	-0.523413	0.0375001	-0.136414	0.297947	0.330094	0	0	-0.217978	-0.0626971	-0.103432	0.260885	0.365845	0	0	-1.22794	0.0452139	0.0767505	0	0	0	0	0	0	0	0	0	0	0	0	0	0
6.98893	-2.4414	-0.0672309	-0.0419294	-1.87131	-1.08764	0.282042	-0.523392	0.0360758	-0.132496	0.304883	0.32427	0	0	-0.206671	-0.0674508	-0.0992227	0.218687	0.384677	0	0	-1.22456	0.0437924	0.0811585	0	0	0	0	0	0	0	0	0	0	0	0	0	0
6.99892	-2.44565	-0.0719823	-0.0475556	-1.87945	-1.08679	0.281442	-0.523395	0.0354699	-0.128533	0.312856	0.327315	0	0	-0.194869	-0.0728141	-0.0984371	0.177563	0.403003	0	0	-1.22126	0.0436605	0.0853368	0	0	0	0	0	0	0	0	0	0	0	0	0	0
7.00891	-2.44983	-0.0772015	-0.0519828	-1.88769	-1.08581	0.280698	-0.523413	0.0359754	-0.124031	0.321562	0.335347	0	0	-0.182261	-0.0787596	-0.103994	0.138947	0.420696	0	0	-1.21802	0.044893	0.0893904	0	0	0	0	0	0	0	0	0	0	0	0	0	0
7.0189	-2.45398	-0.0827588	-0.0553348	-1.89602	-1.08466	0.27983	-0.52344	0.0375658	-0.118669	0.330636	0.343981	0	0	-0.168647	-0.0851477	-0.117997	0.103959	0.438122	0	0	-1.21477	0.0472756	0.0933527	0	0	0	0	0	0	0	0	0	0	0	0	0	0
7.02889	-2.45817	-0.0884756	-0.0579089	-1.90446	-1.08336	0.278872	-0.52347	0.0400178	-0.112269	0.339739	0.349439	0	0	-0.15409	-0.0917759	-0.14129	0.0733841	0.455558	0	0	-1.21145	0.0504368	0.0972269	0	0	0	0	0	0	0	0	0	0	0	0	0	0
7.03888	-2.46244	-0.0941706	-0.0601182	-1.913	-1.08192	0.27786	-0.523499	0.0429921	-0.104754	0.348594	0.348974	0	0	-0.139003	-0.0984171	-0.173204	0.0477869	0.472916	0	0	-1.20796	0.0539253	0.101005	0	0	0	0	0	0	0	0	0	0	0	0	0	0
7.04887	-2.46685	-0.0996875	-0.0624601	-1.92166	-1.08038	0.276839	-0.523527	0.046089	-0.0961128	0.356956	0.341067	0	0	-0.124216	-0.104865	-0.21139	0.027219	0.489721	0	0	-1.20412	0.0572538	0.104682	0	0	0	0	0	0	0	0	0	0	0	0	0	0
7.05887	-2.47147	-0.104859	-0.0654664	-1.93046	-1.07881	0.275845	-0.52355	0.048809	-0.0865123	0.364661	0.32554	0	0	-0.110988	-0.110672	-0.252411	0.0114828	0.504947	0	0	-1.19967	0.0599382	0.108227	0	0	0	0	0	0	0	0	0	0	0	0	0	0
7.06886	-2.47637	-0.109638	-0.0693909	-1.93942	-1.07723	0.274896	-0.52357	0.0508806	-0.076231	0.371687	0.303678	0	0	-0.100006	-0.115609	-0.292413	0.000109963	0.517901	0	0	-1.19436	0.061753	0.11165	0	0	0	0	0	0	0	0	0	0	0	0	0	0
7.07885	-2.48147	-0.114093	-0.0741577	-1.94852	-1.07568	0.273982	-0.523585	0.0522396	-0.0657348	0.378392	0.27838	0	0	-0.0913532	-0.119699	-0.328044	-0.00748249	0.528079	0	0	-1.18842	0.0627895	0.115046	0	0	0	0	0	0	0	0	0	0	0	0	0	0
7.08884	-2.48669	-0.118412	-0.0793189	-1.95774	-1.07413	0.273069	-0.523596	0.0530796	-0.0557154	0.385298	0.254383	0	0	-0.0843773	-0.123307	-0.357583	-0.0118785	0.535032	0	0	-1.18211	0.0634789	0.118518	0	0	0	0	0	0	0	0	0	0	0	0	0	0
7.09883	-2.49191	-0.122735	-0.0845437	-1.96707	-1.07262	0.272133	-0.523604	0.0535714	-0.0464837	0.392738	0.234588	0	0	-0.0788751	-0.126572	-0.380355	-0.0134714	0.538268	0	0	-1.17561	0.0641692	0.122087	0	0	0	0	0	0	0	0	0	0	0	0	0	0
7.10882	-2.49706	-0.127156	-0.0893791	-1.97653	-1.07114	0.271141	-0.523608	0.0539878	-0.0382268	0.400955	0.220421	0	0	-0.0739886	-0.129829	-0.397328	-0.012536	0.537179	0	0	-1.16909	0.0652204	0.125736	0	0	0	0	0	0	0	0	0	0	0	0	0	0
7.11881	-2.50203	-0.131667	-0.0936479	-1.9861	-1.0697	0.270085	-0.52361	0.0543907	-0.0309946	0.410116	0.212095	0	0	-0.0694867	-0.133096	-0.410009	-0.00921307	0.531013	0	0	-1.16269	0.066752	0.129376	0	0	0	0	0	0	0	0	0	0	0	0	0	0
7.1288	-2.5067	-0.136143	-0.0974991	-1.99577	-1.06832	0.268973	-0.52361	0.0545752	-0.0247169	0.420365	0.208848	0	0	-0.0659458	-0.135992	-0.4192	-0.00351845	0.518881	0	0	-1.15662	0.0685845	0.132862	0	0	0	0	0	0	0	0	0	0	0	0	0	0
7.13879	-2.51101	-0.140386	-0.100888	-2.00554	-1.06701	0.267814	-0.523608	0.054448	-0.0192921	0.43169	0.209242	0	0	-0.0632642	-0.138283	-0.425687	0.00462379	0.499821	0	0	-1.1509	0.0705538	0.136038	0	0	0	0	0	0	0	0	0	0	0	0	0	0
7.14878	-2.51487	-0.144092	-0.103976	-2.0154	-1.06581	0.266631	-0.523603	0.0537138	-0.0145932	0.444067	0.211201	0	0	-0.0620172	-0.139391	-0.429747	0.0153246	0.472917	0	0	-1.14559	0.0723052	0.138693	0	0	0	0	0	0	0	0	0	0	0	0	0	0
7.15877	-2.51827	-0.147008	-0.10683	-2.02534	-1.06474	0.265441	-0.523596	0.0520921	-0.0107506	0.457481	0.21415	0	0	-0.0625573	-0.1391	-0.4313	0.0286489	0.437492	0	0	-1.14064	0.073568	0.140633	0	0	0	0	0	0	0	0	0	0	0	0	0	0
7.16876	-2.52113	-0.148814	-0.109512	-2.03532	-1.06385	0.264273	-0.523587	0.0492722	-0.00788769	0.471969	0.217161	0	0	-0.0650698	-0.137374	-0.429911	0.044509	0.393372	0	0	-1.13611	0.0739875	0.141681	0	0	0	0	0	0	0	0	0	0	0	0	0	0
7.17875	-2.52332	-0.149019	-0.112371	-2.04529	-1.06319	0.263167	-0.523576	0.0446305	-0.00610872	0.48758	0.218823	0	0	-0.070504	-0.133775	-0.424066	0.0625318	0.341241	0	0	-1.13218	0.0729086	0.141604	0	0	0	0	0	0	0	0	0	0	0	0	0	0
7.18874	-2.52483	-0.147491	-0.115318	-2.05524	-1.06279	0.262141	-0.523562	0.0382352	-0.00514366	0.504121	0.217267	0	0	-0.0788464	-0.128194	-0.412545	0.0819007	0.283081	0	0	-1.12876	0.0702461	0.140275	0	0	0	0	0	0	0	0	0	0	0	0	0	0
7.19873	-2.52559	-0.143989	-0.118507	-2.06514	-1.06271	0.261214	-0.523547	0.0297367	-0.00506448	0.521528	0.212149	0	0	-0.0907523	-0.120261	-0.393706	0.101176	0.222689	0	0	-1.12591	0.0657061	0.13755	0	0	0	0	0	0	0	0	0	0	0	0	0	0
7.20872	-2.52556	-0.1385	-0.121725	-2.075	-1.06292	0.260379	-0.523531	0.0192511	-0.00591222	0.5398	0.203048	0	0	-0.105755	-0.109828	-0.36678	0.118104	0.16626	0	0	-1.12361	0.059406	0.133377	0	0	0	0	0	0	0	0	0	0	0	0	0	0
7.21871	-2.52478	-0.131347	-0.124313	-2.08482	-1.06337	0.259593	-0.523514	0.00738517	-0.00789621	0.559042	0.191108	0	0	-0.122297	-0.0971913	-0.333158	0.129419	0.122985	0	0	-1.12179	0.0520403	0.127829	0	0	0	0	0	0	0	0	0	0	0	0	0	0
7.2287	-2.52333	-0.122892	-0.126015	-2.09463	-1.06399	0.258849	-0.5235	-0.00535116	-0.0108219	0.579201	0.177296	0	0	-0.139451	-0.0831389	-0.295144	0.135113	0.100411	0	0	-1.12026	0.0440617	0.121001	0	0	0	0	0	0	0	0	0	0	0	0	0	0
7.23869	-2.52117	-0.113262	-0.126941	-2.10443	-1.06477	0.258158	-0.52349	-0.0188832	-0.0144648	0.600263	0.162409	0	0	-0.156629	-0.0682573	-0.255294	0.136688	0.104868	0	0	-1.11902	0.0354725	0.112976	0	0	0	0	0	0	0	0	0	0	0	0	0	0
7.24868	-2.5182	-0.102643	-0.127309	-2.1142	-1.06572	0.257527	-0.523488	-0.0331173	-0.018414	0.622245	0.147019	0	0	-0.173503	-0.0529043	-0.216198	0.135713	0.134737	0	0	-1.11812	0.0262541	0.103865	0	0	0	0	0	0	0	0	0	0	0	0	0	0
7.25867	-2.51419	-0.0908927	-0.127617	-2.12389	-1.06686	0.256979	-0.5235	-0.0484578	-0.0224071	0.64523	0.131649	0	0	-0.189887	-0.0371617	-0.180054	0.133218	0.180395	0	0	-1.11781	0.0159278	0.0936733	0	0	0	0	0	0	0	0	0	0	0	0	0	0
7.26866	-2.50887	-0.0781443	-0.128227	-2.13343	-1.06821	0.256518	-0.52353	-0.064962	-0.026139	0.669413	0.116922	0	0	-0.206024	-0.0212895	-0.148512	0.129299	0.231587	0	0	-1.11876	0.00432294	0.0825386	0	0	0	0	0	0	0	0	0	0	0	0	0	0
7.27865	-2.50207	-0.0646738	-0.129429	-2.14276	-1.06975	0.256144	-0.523587	-0.0824375	-0.0291747	0.694832	0.103481	0	0	-0.222245	-0.00557935	-0.122178	0.123795	0.279949	0	0	-1.12144	-0.008546	0.0706797	0	0	0	0	0	0	0	0	0	0	0	0	0	0
7.28864	-2.49372	-0.0508346	-0.131441	-2.15186	-1.07146	0.255854	-0.523676	-0.100505	-0.0310186	0.721347	0.0918877	0	0	-0.238848	0.00970384	-0.100844	0.116566	0.31971	0	0	-1.12605	-0.0225408	0.0583831	0	0	0	0	0	0	0	0	0	0	0	0	0	0
7.29863	-2.48388	-0.0370651	-0.134386	-2.1607	-1.07331	0.255642	-0.523807	-0.118592	-0.0311646	0.748682	0.0824816	0	0	-0.256068	0.0243047	-0.0838588	0.107604	0.347499	0	0	-1.1326	-0.0373882	0.0459944	0	0	0	0	0	0	0	0	0	0	0	0	0	0
7.30862	-2.47266	-0.0240036	-0.138193	-2.16928	-1.07525	0.255487	-0.523985	-0.135836	-0.0291456	0.776518	0.0773184	0	0	-0.274068	0.0378482	-0.0704564	0.0972379	0.361968	0	0	-1.14092	-0.0525279	0.0339459	0	0	0	0	0	0	0	0	0	0	0	0	0	0
7.31861	-2.46026	-0.0124643	-0.142624	-2.17763	-1.07722	0.25536	-0.524217	-0.151073	-0.0245289	0.804481	0.0778875	0	0	-0.29292	0.0498788	-0.060101	0.0862068	0.363503	0	0	-1.15074	-0.0671516	0.0227496	0	0	0	0	0	0	0	0	0	0	0	0	0	0
7.3286	-2.44691	-0.0030874	-0.147449	-2.18576	-1.07916	0.255235	-0.524502	-0.163388	-0.0171538	0.832162	0.0844129	0	0	-0.312456	0.060118	-0.0529305	0.0758825	0.354098	0	0	-1.16181	-0.0805935	0.0128654	0	0	0	0	0	0	0	0	0	0	0	0	0	0
7.33859	-2.43289	0.00378277	-0.152548	-2.19368	-1.08101	0.255087	-0.524836	-0.17244	-0.00720747	0.859143	0.0951711	0	0	-0.332288	0.0684787	-0.0492836	0.0676388	0.336705	0	0	-1.17383	-0.0924608	0.00461609	0	0	0	0	0	0	0	0	0	0	0	0	0	0
7.34858	-2.41839	0.00839469	-0.157896	-2.20138	-1.08277	0.254908	-0.525204	-0.178624	0.00466322	0.884953	0.108716	0	0	-0.352234	0.0753053	-0.0496231	0.0620937	0.314871	0	0	-1.18668	-0.102886	-0.00196201	0	0	0	0	0	0	0	0	0	0	0	0	0	0
7.35857	-2.40357	0.0111057	-0.163417	-2.20886	-1.08446	0.254686	-0.52558	-0.18249	0.0176645	0.909109	0.124364	0	0	-0.372076	0.0809292	-0.0540544	0.0595805	0.291899	0	0	-1.20025	-0.112029	-0.00700069	0	0	0	0	0	0	0	0	0	0	0	0	0	0
7.36856	-2.3886	0.0123029	-0.168954	-2.2161	-1.08611	0.254401	-0.525921	-0.184619	0.0309663	0.931138	0.142467	0	0	-0.391605	0.0856338	-0.0622562	0.0601709	0.270484	0	0	-1.21442	-0.119987	-0.0107363	0	0	0	0	0	0	0	0	0	0	0	0	0	0
7.37855	-2.37363	0.0123849	-0.174261	-2.22312	-1.08774	0.254025	-0.526165	-0.185576	0.0437949	0.950592	0.164347	0	0	-0.410675	0.0896824	-0.0733328	0.0636047	0.252523	0	0	-1.22903	-0.126774	-0.0134642	0	0	0	0	0	0	0	0	0	0	0	0	0	0
7.38855	-2.35895	0.0116959	-0.179049	-2.22994	-1.08935	0.253545	-0.526228	-0.185507	0.0556964	0.967107	0.189578	0	0	-0.429066	0.0932291	-0.086011	0.0693768	0.238857	0	0	-1.24376	-0.13235	-0.0154711	0	0	0	0	0	0	0	0	0	0	0	0	0	0
7.39854	-2.34491	0.0104676	-0.182959	-2.23659	-1.09092	0.252942	-0.525997	-0.184394	0.0663293	0.980274	0.217116	0	0	-0.446513	0.0962879	-0.0987789	0.0768816	0.229311	0	0	-1.25817	-0.136535	-0.0169779	0	0	0	0	0	0	0	0	0	0	0	0	0	0
7.40853	-2.3319	0.00876942	-0.185597	-2.24311	-1.09242	0.252203	-0.525336	-0.182024	0.0754775	0.989719	0.245842	0	0	-0.462651	0.0986508	-0.110435	0.0856553	0.222935	0	0	-1.27173	-0.139035	-0.018109	0	0	0	0	0	0	0	0	0	0	0	0	0	0
7.41852	-2.32021	0.00690258	-0.186862	-2.24953	-1.09386	0.251346	-0.524084	-0.178577	0.0830108	0.995151	0.274855	0	0	-0.477167	0.100401	-0.120381	0.0953075	0.219093	0	0	-1.28402	-0.13998	-0.0190502	0	0	0	0	0	0	0	0	0	0	0	0	0	0
7.42851	-2.31009	0.0049814	-0.186741	-2.25589	-1.09522	0.250401	-0.522062	-0.174117	0.0889221	0.996422	0.30354	0	0	-0.489849	0.101443	-0.128602	0.105469	0.217207	0	0	-1.29472	-0.139474	-0.0199136	0	0	0	0	0	0	0	0	0	0	0	0	0	0
7.4385	-2.30179	0.00291739	-0.185213	-2.2622	-1.09649	0.249396	-0.519088	-0.168505	0.093273	0.993511	0.331598	0	0	-0.500555	0.10143	-0.135737	0.115795	0.216549	0	0	-1.30356	-0.137492	-0.0206832	0	0	0	0	0	0	0	0	0	0	0	0	0	0
7.44849	-2.2954	0.000697519	-0.18249	-2.26848	-1.09767	0.24837	-0.514993	-0.161835	0.0962007	0.986514	0.359059	0	0	-0.509229	0.10035	-0.142001	0.126151	0.216269	0	0	-1.31048	-0.134252	-0.0213432	0	0	0	0	0	0	0	0	0	0	0	0	0	0
7.45848	-2.29086	-0.00139804	-0.179054	-2.27469	-1.09877	0.247376	-0.509655	-0.154706	0.0977996	0.97562	0.38585	0	0	-0.515914	0.0986088	-0.147596	0.136493	0.21621	0	0	-1.3157	-0.130355	-0.0220194	0	0	0	0	0	0	0	0	0	0	0	0	0	0
7.46847	-2.28807	-0.00311229	-0.175318	-2.28082	-1.09981	0.246456	-0.503036	-0.147676	0.0981675	0.961008	0.411503	0	0	-0.520795	0.0966161	-0.152574	0.146803	0.216457	0	0	-1.31938	-0.126325	-0.022847	0	0	0	0	0	0	0	0	0	0	0	0	0	0
7.47846	-2.28703	-0.00424719	-0.171533	-2.28688	-1.10078	0.245629	-0.495082	-0.141121	0.097373	0.942812	0.435446	0	0	-0.524135	0.094686	-0.156803	0.157022	0.217046	0	0	-1.32164	-0.122503	-0.0239335	0	0	0	0	0	0	0	0	0	0	0	0	0	0
7.48845	-2.2876	-0.00472409	-0.167801	-2.29286	-1.10166	0.244904	-0.485942	-0.13524	0.0954353	0.921142	0.457077	0	0	-0.526225	0.0930205	-0.160025	0.166889	0.217852	0	0	-1.32258	-0.119042	-0.0253698	0	0	0	0	0	0	0	0	0	0	0	0	0	0
7.49844	-2.28953	-0.00459158	-0.164084	-2.29878	-1.10243	0.244276	-0.47595	-0.130049	0.0923405	0.896152	0.476064	0	0	-0.52735	0.0917	-0.161906	0.175829	0.218369	0	0	-1.32235	-0.115902	-0.0272322	0	0	0	0	0	0	0	0	0	0	0	0	0	0
7.50843	-2.29234	-0.0036859	-0.160528	-2.30464	-1.10311	0.243755	-0.465637	-0.125878	0.0881532	0.867979	0.492236	0	0	-0.527769	0.0910954	-0.161962	0.18385	0.218684	0	0	-1.32138	-0.113325	-0.0297438	0	0	0	0	0	0	0	0	0	0	0	0	0	0
7.51842	-2.2957	-0.00193691	-0.15717	-2.31043	-1.1037	0.243341	-0.455385	-0.122869	0.0829768	0.836833	0.505683	0	0	-0.527704	0.091375	-0.160065	0.190918	0.218654	0	0	-1.31991	-0.111393	-0.0330373	0	0	0	0	0	0	0	0	0	0	0	0	0	0
7.52841	-2.29947	0.000594793	-0.153927	-2.31617	-1.10418	0.24303	-0.445412	-0.120937	0.0769322	0.803032	0.516674	0	0	-0.527335	0.0924795	-0.156322	0.196922	0.217843	0	0	-1.31804	-0.110008	-0.037126	0	0	0	0	0	0	0	0	0	0	0	0	0	0
7.5384	-2.30364	0.00370421	-0.150591	-2.32188	-1.10453	0.242808	-0.435783	-0.119753	0.0701621	0.766962	0.525657	0	0	-0.526802	0.0941209	-0.151018	0.201598	0.215456	0	0	-1.31569	-0.108883	-0.0418965	0	0	0	0	0	0	0	0	0	0	0	0	0	0
7.54839	-2.3084	0.00704473	-0.146821	-2.32756	-1.10469	0.242652	-0.426394	-0.118749	0.0627935	0.729055	0.533144	0	0	-0.526206	0.09579	-0.144558	0.204483	0.210276	0	0	-1.3127	-0.107548	-0.0471058	0	0	0	0	0	0	0	0	0	0	0	0	0	0
7.55838	-2.31378	0.0104032	-0.142431	-2.33325	-1.10465	0.242553	-0.417258	-0.117587	0.0549884	0.689699	0.539631	0	0	-0.525617	0.0971605	-0.137291	0.205451	0.201457	0	0	-1.30902	-0.105752	-0.0525576	0	0	0	0	0	0	0	0	0	0	0	0	0	0
7.56837	-2.31967	0.0137672	-0.137474	-2.33894	-1.10443	0.242519	-0.408479	-0.116252	0.0469817	0.649236	0.545516	0	0	-0.52508	0.0982391	-0.129295	0.204668	0.189045	0	0	-1.30481	-0.103563	-0.0581638	0	0	0	0	0	0	0	0	0	0	0	0	0	0
7.57836	-2.3257	0.0173329	-0.132299	-2.34459	-1.10407	0.242579	-0.400371	-0.115105	0.0390929	0.607961	0.551039	0	0	-0.524619	0.0994105	-0.120351	0.202867	0.174565	0	0	-1.30047	-0.101427	-0.0639934	0	0	0	0	0	0	0	0	0	0	0	0	0	0
7.58835	-2.33164	0.0211893	-0.127192	-2.3502	-1.10362	0.24276	-0.393109	-0.114355	0.0315978	0.566197	0.55622	0	0	-0.524244	0.100889	-0.110522	0.200583	0.159074	0	0	-1.29627	-0.0996674	-0.0700724	0	0	0	0	0	0	0	0	0	0	0	0	0	0
7.59834	-2.33736	0.0253388	-0.122365	-2.35576	-1.10311	0.24308	-0.386754	-0.114079	0.024693	0.524286	0.560806	0	0	-0.523952	0.102735	-0.100116	0.198194	0.14327	0	0	-1.29237	-0.0984931	-0.0763658	0	0	0	0	0	0	0	0	0	0	0	0	0	0
7.60833	-2.34277	0.0297643	-0.117954	-2.36129	-1.10255	0.24355	-0.381276	-0.114312	0.0184522	0.482588	0.564221	0	0	-0.523738	0.104954	-0.0893982	0.195933	0.127611	0	0	-1.28882	-0.0980288	-0.0828009	0	0	0	0	0	0	0	0	0	0	0	0	0	0
7.61832	-2.34789	0.0344705	-0.114018	-2.36678	-1.10198	0.244167	-0.376577	-0.115087	0.0128191	0.441449	0.565517	0	0	-0.52359	0.107521	-0.0787093	0.193885	0.11239	0	0	-1.28564	-0.0983353	-0.0892994	0	0	0	0	0	0	0	0	0	0	0	0	0	0
7.62831	-2.35276	0.0395125	-0.110555	-2.37225	-1.10141	0.244924	-0.372504	-0.116478	0.00761752	0.401181	0.56334	0	0	-0.523497	0.110397	-0.0685429	0.192002	0.0977913	0	0	-1.28279	-0.0994337	-0.0958068	0	0	0	0	0	0	0	0	0	0	0	0	0	0
7.6383	-2.35746	0.0449897	-0.107489	-2.37769	-1.10087	0.245796	-0.368892	-0.118595	0.00254682	0.362055	0.55592	0	0	-0.523445	0.113511	-0.059584	0.19018	0.0839486	0	0	-1.28022	-0.101291	-0.10231	0	0	0	0	0	0	0	0	0	0	0	0	0	0
7.64829	-2.36202	0.0509376	-0.104686	-2.38313	-1.10037	0.246755	-0.365632	-0.12148	-0.00276964	0.324319	0.541092	0	0	-0.523424	0.11672	-0.0524775	0.188452	0.0710076	0	0	-1.27785	-0.103768	-0.108807	0	0	0	0	0	0	0	0	0	0	0	0	0	0
7.65828	-2.36639	0.0571803	-0.10198	-2.38857	-1.09992	0.247771	-0.362721	-0.12495	-0.00864999	0.288224	0.516368	0	0	-0.523425	0.119812	-0.0472656	0.18715	0.0591707	0	0	-1.27563	-0.106571	-0.115234	0	0	0	0	0	0	0	0	0	0	0	0	0	0
7.66827	-2.37054	0.0634722	-0.0991936	-2.39403	-1.09953	0.248818	-0.360168	-0.12873	-0.0152916	0.254002	0.479084	0	0	-0.52344	0.122585	-0.0435165	0.186635	0.0485902	0	0	-1.27347	-0.109368	-0.121476	0	0	0	0	0	0	0	0	0	0	0	0	0	0
7.67826	-2.37446	0.0696138	-0.096149	-2.39951	-1.09921	0.249867	-0.357947	-0.132578	-0.0227587	0.221852	0.426651	0	0	-0.523462	0.12489	-0.0406906	0.187174	0.0392834	0	0	-1.2713	-0.111856	-0.12741	0	0	0	0	0	0	0	0	0	0	0	0	0	0
7.68825	-2.37821	0.0754707	-0.092693	-2.40504	-1.09895	0.250892	-0.356005	-0.136313	-0.0309857	0.191904	0.356921	0	0	-0.523488	0.12663	-0.0383399	0.188965	0.0310922	0	0	-1.26901	-0.113795	-0.132931	0	0	0	0	0	0	0	0	0	0	0	0	0	0
7.69824	-2.38188	0.0809617	-0.0887137	-2.41062	-1.09875	0.251873	-0.35428	-0.139807	-0.0397785	0.164196	0.268715	0	0	-0.523513	0.127764	-0.0361686	0.192177	0.0236592	0	0	-1.26647	-0.115007	-0.137966	0	0	0	0	0	0	0	0	0	0	0	0	0	0
7.70823	-2.38555	0.0860705	-0.0841661	-2.41627	-1.09859	0.252794	-0.352723	-0.142981	-0.0486742	0.138734	0.16251	0	0	-0.523536	0.128315	-0.034123	0.19699	0.0164171	0	0	-1.26357	-0.115418	-0.14249	0	0	0	0	0	0	0	0	0	0	0	0	0	0
7.71823	-2.38935	0.0907603	-0.0790136	-2.42199	-1.09843	0.253647	-0.351261	-0.145705	-0.0571304	0.115647	0.0413247	0	0	-0.523557	0.128266	-0.0323888	0.203612	0.00858683	0	0	-1.2602	-0.114957	-0.146478	0	0	0	0	0	0	0	0	0	0	0	0	0	0
7.72822	-2.3934	0.0949865	-0.0732323	-2.4278	-1.09825	0.254426	-0.349834	-0.147802	-0.0645456	0.0951979	-0.0882255	0	0	-0.523573	0.127549	-0.0315222	0.212318	-0.000787503	0	0	-1.25627	-0.113576	-0.149899	0	0	0	0	0	0	0	0	0	0	0	0	0	0
7.73821	-2.39783	0.0986984	-0.0668323	-2.43368	-1.09799	0.255138	-0.348391	-0.149034	-0.0701929	0.0778193	-0.214722	0	0	-0.523586	0.126061	-0.0324366	0.223389	-0.0128418	0	0	-1.25169	-0.111264	-0.152715	0	0	0	0	0	0	0	0	0	0	0	0	0	0
7.7482	-2.40243	0.102092	-0.0603828	-2.43966	-1.09764	0.255833	-0.347119	-0.149636	-0.0738381	0.0639608	-0.329825	0	0	-0.523595	0.124307	-0.0357982	0.237611	-0.0281631	0	0	-1.24673	-0.108594	-0.155087	0	0	0	0	0	0	0	0	0	0	0	0	0	0
7.75819	-2.40708	0.105235	-0.0542624	-2.44573	-1.09717	0.256548	-0.346085	-0.149642	-0.0749823	0.0540305	-0.427017	0	0	-0.5236	0.1226	-0.0420159	0.255594	-0.0470403	0	0	-1.24152	-0.10592	-0.15709	0	0	0	0	0	0	0	0	0	0	0	0	0	0
7.76818	-2.41168	0.10815	-0.0486872	-2.45187	-1.09658	0.257304	-0.345349	-0.149122	-0.0734967	0.0480083	-0.503449	0	0	-0.523602	0.12112	-0.0513805	0.277739	-0.0695437	0	0	-1.23622	-0.103434	-0.158765	0	0	0	0	0	0	0	0	0	0	0	0	0	0
7.77817	-2.41611	0.110869	-0.0436683	-2.45807	-1.09589	0.258103	-0.345001	-0.14822	-0.0698721	0.0455437	-0.558971	0	0	-0.523602	0.119928	-0.0640481	0.304151	-0.0954387	0	0	-1.231	-0.101157	-0.160164	0	0	0	0	0	0	0	0	0	0	0	0	0	0
7.78816	-2.42021	0.113373	-0.0390756	-2.46432	-1.09513	0.258936	-0.345158	-0.147096	-0.0651924	0.0459927	-0.595374	0	0	-0.523598	0.118912	-0.080078	0.334501	-0.124046	0	0	-1.22612	-0.0989531	-0.161345	0	0	0	0	0	0	0	0	0	0	0	0	0	0
7.79815	-2.42379	0.11541	-0.0346025	-2.47058	-1.09434	0.259787	-0.345953	-0.145599	-0.0604061	0.0484195	-0.615834	0	0	-0.523593	0.117564	-0.0994606	0.36782	-0.154099	0	0	-1.22178	-0.0963976	-0.162285	0	0	0	0	0	0	0	0	0	0	0	0	0	0
7.80814	-2.42682	0.116706	-0.0300759	-2.47684	-1.09355	0.260666	-0.347373	-0.14348	-0.0561187	0.0521944	-0.624551	0	0	-0.523585	0.115384	-0.121702	0.401873	-0.183979	0	0	-1.21798	-0.0932064	-0.162903	0	0	0	0	0	0	0	0	0	0	0	0	0	0
7.81813	-2.42946	0.117025	-0.0255573	-2.48312	-1.09275	0.261607	-0.349104	-0.14051	-0.053073	0.0566978	-0.625096	0	0	-0.523575	0.112071	-0.145181	0.432667	-0.211865	0	0	-1.21441	-0.0893747	-0.163046	0	0	0	0	0	0	0	0	0	0	0	0	0	0
7.82812	-2.43206	0.116326	-0.0212643	-2.48944	-1.09193	0.262658	-0.350676	-0.136628	-0.0517301	0.0615628	-0.62032	0	0	-0.523563	0.107707	-0.167627	0.457246	-0.235895	0	0	-1.2106	-0.085197	-0.162535	0	0	0	0	0	0	0	0	0	0	0	0	0	0
7.83811	-2.43474	0.114756	-0.0176147	-2.49581	-1.09106	0.263874	-0.35186	-0.131952	-0.0525026	0.0665105	-0.612354	0	0	-0.523551	0.102715	-0.186937	0.474037	-0.254243	0	0	-1.20651	-0.0812128	-0.161311	0	0	0	0	0	0	0	0	0	0	0	0	0	0
7.8481	-2.43754	0.112515	-0.0147895	-2.50221	-1.09014	0.265267	-0.352606	-0.126665	-0.0555189	0.0713201	-0.602651	0	0	-0.523539	0.0974893	-0.201571	0.483018	-0.265205	0	0	-1.20217	-0.0777336	-0.159363	0	0	0	0	0	0	0	0	0	0	0	0	0	0
7.85809	-2.44034	0.109831	-0.0126912	-2.50862	-1.08919	0.266806	-0.353113	-0.12097	-0.060646	0.0758414	-0.592071	0	0	-0.523529	0.0923069	-0.210826	0.485736	-0.267285	0	0	-1.19779	-0.0747763	-0.156765	0	0	0	0	0	0	0	0	0	0	0	0	0	0
7.86808	-2.44284	0.106961	-0.0110183	-2.51499	-1.08829	0.268426	-0.353868	-0.115107	-0.0675151	0.0800262	-0.580973	0	0	-0.523522	0.0873292	-0.215125	0.485361	-0.259306	0	0	-1.19378	-0.0721276	-0.153695	0	0	0	0	0	0	0	0	0	0	0	0	0	0
7.87807	-2.44478	0.103957	-0.00928344	-2.52127	-1.08751	0.270048	-0.355272	-0.109114	-0.0754648	0.0839884	-0.569324	0	0	-0.523523	0.0823436	-0.215328	0.484346	-0.241276	0	0	-1.19048	-0.0692709	-0.150326	0	0	0	0	0	0	0	0	0	0	0	0	0	0
7.88806	-2.44601	0.100853	-0.00711415	-2.52742	-1.08689	0.271611	-0.357594	-0.102978	-0.0838615	0.0877691	-0.556805	0	0	-0.523533	0.0771348	-0.212413	0.484449	-0.215248	0	0	-1.18803	-0.0658006	-0.146822	0	0	0	0	0	0	0	0	0	0	0	0	0	0
7.89805	-2.44645	0.0976404	-0.00427581	-2.53344	-1.08646	0.273081	-0.361019	-0.0966407	-0.092181	0.0913585	-0.542934	0	0	-0.523557	0.0714613	-0.207462	0.486945	-0.186294	0	0	-1.18641	-0.0614398	-0.143311	0	0	0	0	0	0	0	0	0	0	0	0	0	0
7.90804	-2.44603	0.0943916	-0.000735928	-2.53933	-1.08622	0.274453	-0.365631	-0.0901591	-0.100008	0.0946945	-0.527181	0	0	-0.523601	0.0652894	-0.201354	0.492514	-0.158516	0	0	-1.18557	-0.05618	-0.13991	0	0	0	0	0	0	0	0	0	0	0	0	0	0
7.91803	-2.44472	0.0911769	0.00336758	-2.54506	-1.08617	0.275746	-0.371482	-0.0836135	-0.106968	0.0975297	-0.508828	0	0	-0.52367	0.058739	-0.194516	0.501375	-0.134689	0	0	-1.18567	-0.0501799	-0.136725	0	0	0	0	0	0	0	0	0	0	0	0	0	0
7.92802	-2.44258	0.088062	0.00789437	-2.55064	-1.08628	0.276987	-0.37852	-0.0770612	-0.11268	0.0996133	-0.486824	0	0	-0.523769	0.0519954	-0.186866	0.51329	-0.116444	0	0	-1.18677	-0.0436476	-0.133803	0	0	0	0	0	0	0	0	0	0	0	0	0	0
7.93801	-2.43952	0.0852247	0.0126713	-2.55604	-1.08656	0.278209	-0.386848	-0.0706892	-0.116954	0.100715	-0.459974	0	0	-0.523903	0.0452791	-0.178765	0.528102	-0.104914	0	0	-1.189	-0.0368832	-0.131227	0	0	0	0	0	0	0	0	0	0	0	0	0	0
7.948	-2.43552	0.0827816	0.0175455	-2.56127	-1.087	0.279446	-0.396493	-0.064634	-0.11973	0.100681	-0.427155	0	0	-0.524074	0.0387401	-0.170446	0.545369	-0.10049	0	0	-1.19242	-0.0301458	-0.129065	0	0	0	0	0	0	0	0	0	0	0	0	0	0
7.95799	-2.43059	0.0807476	0.0224066	-2.56633	-1.08758	0.280727	-0.4074	-0.0589271	-0.121011	0.0994656	-0.387292	0	0	-0.524283	0.0324065	-0.162021	0.564382	-0.10284	0	0	-1.19702	-0.0236058	-0.127336	0	0	0	0	0	0	0	0	0	0	0	0	0	0
7.96798	-2.42481	0.0790204	0.0271922	-2.57124	-1.08827	0.28208	-0.419428	-0.0534794	-0.120861	0.097121	-0.339415	0	0	-0.524525	0.0261563	-0.153581	0.584167	-0.110901	0	0	-1.20273	-0.0173212	-0.125995	0	0	0	0	0	0	0	0	0	0	0	0	0	0
7.97797	-2.41839	0.0773947	0.0318819	-2.576	-1.08904	0.283521	-0.432229	-0.0481002	-0.119377	0.0938381	-0.282815	0	0	-0.524788	0.0198227	-0.144945	0.603497	-0.123482	0	0	-1.20929	-0.0112622	-0.124909	0	0	0	0	0	0	0	0	0	0	0	0	0	0
7.98796	-2.41171	0.0755773	0.036487	-2.58063	-1.08985	0.285062	-0.445261	-0.0425242	-0.116743	0.0900181	-0.21727	0	0	-0.525051	0.0132459	-0.135551	0.620887	-0.139838	0	0	-1.21634	-0.00532458	-0.123851	0	0	0	0	0	0	0	0	0	0	0	0	0	0
7.99795	-2.40498	0.0733876	0.0409844	-2.58513	-1.09066	0.286704	-0.458114	-0.0366546	-0.113503	0.0862842	-0.14361	0	0	-0.525282	0.00654171	-0.125203	0.636439	-0.159917	0	0	-1.22366	0.000534169	-0.122589	0	0	0	0	0	0	0	0	0	0	0	0	0	0
8.00794	-2.39828	0.0707842	0.0451842	-2.58952	-1.09147	0.28845	-0.470463	-0.030615	-0.110562	0.0833084	-0.0658012	0	0	-0.525433	-0.000123836	-0.114376	0.650219	-0.183546	0	0	-1.23111	0.00616736	-0.120967	0	0	0	0	0	0	0	0	0	0	0	0	0	0
8.01793	-2.39168	0.0678585	0.0488082	-2.5938	-1.09226	0.290295	-0.482037	-0.0247535	-0.109284	0.0820057	0.00831842	0	0	-0.525441	-0.00655616	-0.104058	0.66217	-0.210252	0	0	-1.23854	0.0113172	-0.118919	0	0	0	0	0	0	0	0	0	0	0	0	0	0
8.02792	-2.3853	0.0648685	0.0514388	-2.59799	-1.09298	0.292237	-0.492523	-0.0195501	-0.111377	0.0831899	0.0722823	0	0	-0.525222	-0.0123758	-0.0952821	0.671871	-0.238615	0	0	-1.24591	0.0155227	-0.116501	0	0	0	0	0	0	0	0	0	0	0	0	0	0
8.03791	-2.37932	0.0620642	0.0527314	-2.60211	-1.09359	0.294269	-0.501624	-0.0151161	-0.117884	0.0875007	0.122259	0	0	-0.524678	-0.017173	-0.0886908	0.678992	-0.266627	0	0	-1.25302	0.0183782	-0.113804	0	0	0	0	0	0	0	0	0	0	0	0	0	0
8.0479	-2.37391	0.0596154	0.0526385	-2.60616	-1.09408	0.296352	-0.509158	-0.0115419	-0.129193	0.0947865	0.156111	0	0	-0.52369	-0.0207038	-0.0844375	0.68343	-0.29205	0	0	-1.25973	0.0198094	-0.110899	0	0	0	0	0	0	0	0	0	0	0	0	0	0
8.0579	-2.36919	0.0576414	0.0513934	-2.61015	-1.09444	0.298415	-0.51512	-0.00894005	-0.144791	0.104263	0.172895	0	0	-0.522132	-0.0228846	-0.0821758	0.685424	-0.312784	0	0	-1.26589	0.0200271	-0.10785	0	0	0	0	0	0	0	0	0	0	0	0	0	0
8.06789	-2.36529	0.0563048	0.0491874	-2.61406	-1.09469	0.300406	-0.519603	-0.00734768	-0.163973	0.115223	0.172524	0	0	-0.519874	-0.0235649	-0.0811831	0.685646	-0.327268	0	0	-1.27132	0.0191592	-0.104761	0	0	0	0	0	0	0	0	0	0	0	0	0	0
8.07788	-2.36227	0.055721	0.0464328	-2.61788	-1.09484	0.30225	-0.522784	-0.00683843	-0.185331	0.126791	0.155604	0	0	-0.516804	-0.0227123	-0.0800974	0.685324	-0.334947	0	0	-1.27593	0.0175747	-0.101734	0	0	0	0	0	0	0	0	0	0	0	0	0	0
8.08787	-2.36019	0.0560604	0.0435157	-2.6216	-1.09492	0.303882	-0.52488	-0.00747616	-0.207465	0.138207	0.123435	0	0	-0.512844	-0.0202151	-0.0770122	0.686219	-0.336784	0	0	-1.27964	0.0155764	-0.0989275	0	0	0	0	0	0	0	0	0	0	0	0	0	0
8.09786	-2.35906	0.0574523	0.0408427	-2.62522	-1.09493	0.305254	-0.526116	-0.00923222	-0.229335	0.148892	0.0781783	0	0	-0.507986	-0.0161431	-0.0707427	0.689134	-0.333363	0	0	-1.2824	0.0134879	-0.0965358	0	0	0	0	0	0	0	0	0	0	0	0	0	0
8.10785	-2.35891	0.0599473	0.0388074	-2.62874	-1.09489	0.306329	-0.526705	-0.0120017	-0.25035	0.158493	0.0231796	0	0	-0.502285	-0.010755	-0.0609117	0.693931	-0.32483	0	0	-1.28406	0.0116532	-0.0947551	0	0	0	0	0	0	0	0	0	0	0	0	0	0
8.11784	-2.35972	0.0635251	0.0378017	-2.63215	-1.09479	0.307081	-0.526833	-0.0156184	-0.270358	0.166758	-0.0365817	0	0	-0.495831	-0.0044428	-0.0478852	0.69958	-0.310529	0	0	-1.28463	0.0104331	-0.0937611	0	0	0	0	0	0	0	0	0	0	0	0	0	0
8.12783	-2.36145	0.0680664	0.0381933	-2.63548	-1.09464	0.3075	-0.526657	-0.0198409	-0.289482	0.173525	-0.094491	0	0	-0.488742	0.00228224	-0.0326899	0.704308	-0.289209	0	0	-1.28414	0.0102037	-0.0936811	0	0	0	0	0	0	0	0	0	0	0	0	0	0
8.13782	-2.36405	0.0733175	0.0402145	-2.6387	-1.09447	0.307596	-0.5263	-0.0244101	-0.308136	0.178692	-0.141704	0	0	-0.481216	0.00877805	-0.0161148	0.706919	-0.25967	0	0	-1.28273	0.0112795	-0.0945428	0	0	0	0	0	0	0	0	0	0	0	0	0	0
8.14781	-2.36744	0.0789259	0.0440312	-2.64182	-1.0943	0.307385	-0.525857	-0.0290945	-0.327227	0.182207	-0.166567	0	0	-0.473459	0.0146941	0.000930572	0.706126	-0.220566	0	0	-1.28055	0.013973	-0.0962806	0	0	0	0	0	0	0	0	0	0	0	0	0	0
8.1578	-2.37151	0.0845	0.0495304	-2.64483	-1.09416	0.306924	-0.525394	-0.0336041	-0.346725	0.184253	-0.162974	0	0	-0.465729	0.0196839	0.017597	0.701116	-0.171329	0	0	-1.27781	0.0183344	-0.0987742	0	0	0	0	0	0	0	0	0	0	0	0	0	0
8.16779	-2.37612	0.0895823	0.0563112	-2.64776	-1.09408	0.306313	-0.524956	-0.0375642	-0.365838	0.185161	-0.130108	0	0	-0.458346	0.0233788	0.0329736	0.691474	-0.113275	0	0	-1.27473	0.0241652	-0.10178	0	0	0	0	0	0	0	0	0	0	0	0	0	0
8.17778	-2.38108	0.0937042	0.0637791	-2.6506	-1.09407	0.305671	-0.524567	-0.0405017	-0.383253	0.185228	-0.0724869	0	0	-0.451631	0.0254237	0.0461424	0.677266	-0.050774	0	0	-1.27153	0.0310804	-0.104915	0	0	0	0	0	0	0	0	0	0	0	0	0	0
8.18777	-2.38617	0.0965226	0.071231	-2.65337	-1.09412	0.305126	-0.524242	-0.0418996	-0.397286	0.184575	-0.000285687	0	0	-0.446012	0.0256296	0.056424	0.65866	0.00817346	0	0	-1.2684	0.0385118	-0.107721	0	0	0	0	0	0	0	0	0	0	0	0	0	0
8.19776	-2.39129	0.0978373	0.0779897	-2.6561	-1.09422	0.304782	-0.523983	-0.0414787	-0.406554	0.18301	0.0764056	0	0	-0.441994	0.0240029	0.0633338	0.635338	0.0558279	0	0	-1.26537	0.0458411	-0.109746	0	0	0	0	0	0	0	0	0	0	0	0	0	0
8.20775	-2.39641	0.0975354	0.0835643	-2.65879	-1.09434	0.30471	-0.523787	-0.0390792	-0.410031	0.180253	0.149703	0	0	-0.439905	0.0206122	0.0666266	0.607125	0.0868914	0	0	-1.26237	0.052587	-0.110583	0	0	0	0	0	0	0	0	0	0	0	0	0	0
8.21774	-2.40153	0.0956202	0.0876781	-2.66146	-1.09445	0.304944	-0.523647	-0.0346813	-0.40712	0.176065	0.214397	0	0	-0.439841	0.0156391	0.0664067	0.574221	0.0995707	0	0	-1.2593	0.0584273	-0.10993	0	0	0	0	0	0	0	0	0	0	0	0	0	0
8.22773	-2.4067	0.0923314	0.0901266	-2.66411	-1.09456	0.305491	-0.523554	-0.0286002	-0.397746	0.170352	0.267765	0	0	-0.441902	0.00960742	0.0633103	0.53688	0.0955071	0	0	-1.25609	0.0630251	-0.107678	0	0	0	0	0	0	0	0	0	0	0	0	0	0
8.23772	-2.41193	0.088093	0.0907111	-2.66672	-1.09467	0.306339	-0.523498	-0.0214693	-0.382385	0.163214	0.309109	0	0	-0.446172	0.00338024	0.0585029	0.495549	0.0798197	0	0	-1.25279	0.0660112	-0.103929	0	0	0	0	0	0	0	0	0	0	0	0	0	0
8.24771	-2.41723	0.0833121	0.0894386	-2.66929	-1.09481	0.307448	-0.52347	-0.0138976	-0.36196	0.154864	0.339231	0	0	-0.452672	-0.00234001	0.0532577	0.450692	0.0568451	0	0	-1.24943	0.0672405	-0.0988878	0	0	0	0	0	0	0	0	0	0	0	0	0	0
8.2577	-2.42264	0.0783209	0.0865526	-2.67183	-1.09498	0.308748	-0.523462	-0.00634879	-0.337668	0.145567	0.359655	0	0	-0.461139	-0.00709771	0.048875	0.403201	0.0300787	0	0	-1.24601	0.0668412	-0.0928121	0	0	0	0	0	0	0	0	0	0	0	0	0	0
8.26769	-2.42816	0.073375	0.0824601	-2.67434	-1.09519	0.310154	-0.523469	0.000851852	-0.310854	0.135622	0.372181	0	0	-0.471024	-0.010639	0.0466795	0.354463	0.00228817	0	0	-1.24253	0.0651487	-0.0859871	0	0	0	0	0	0	0	0	0	0	0	0	0	0
8.27768	-2.43379	0.0687074	0.0776235	-2.67681	-1.09542	0.311586	-0.523483	0.00746334	-0.28284	0.125328	0.378636	0	0	-0.481725	-0.0129453	0.0473471	0.305818	-0.0246261	0	0	-1.23901	0.0625426	-0.0787405	0	0	0	0	0	0	0	0	0	0	0	0	0	0
8.28767	-2.4395	0.0643584	0.0724929	-2.67927	-1.09566	0.312966	-0.523501	0.0134589	-0.254737	0.114985	0.38062	0	0	-0.492171	-0.0142472	0.0513708	0.259582	-0.0490205	0	0	-1.23549	0.0595276	-0.0713379	0	0	0	0	0	0	0	0	0	0	0	0	0	0
8.29766	-2.44522	0.0604998	0.0673166	-2.6817	-1.09591	0.31424	-0.523521	0.0186422	-0.22746	0.10487	0.379526	0	0	-0.501647	-0.0144856	0.059322	0.217328	-0.0683415	0	0	-1.23212	0.0563264	-0.0640781	0	0	0	0	0	0	0	0	0	0	0	0	0	0
8.30765	-2.45089	0.0572758	0.0622837	-2.68411	-1.09617	0.315379	-0.523539	0.0228722	-0.201722	0.0952235	0.376492	0	0	-0.509736	-0.0136584	0.0713239	0.179896	-0.0805357	0	0	-1.22893	0.0530866	-0.0572407	0	0	0	0	0	0	0	0	0	0	0	0	0	0
8.31764	-2.45645	0.0547619	0.0575365	-2.6865	-1.09645	0.316372	-0.523556	0.026101	-0.178028	0.0862626	0.372404	0	0	-0.516243	-0.0118802	0.086863	0.14751	-0.0840557	0	0	-1.2258	0.0499243	-0.0510603	0	0	0	0	0	0	0	0	0	0	0	0	0	0
8.32763	-2.46183	0.0529592	0.0531658	-2.68889	-1.09673	0.31722	-0.52357	0.0283649	-0.156718	0.0782155	0.367931	0	0	-0.521108	-0.00942143	0.104369	0.120033	-0.0777256	0	0	-1.22258	0.0469355	-0.0457145	0	0	0	0	0	0	0	0	0	0	0	0	0	0
8.33762	-2.46691	0.0517597	0.0492328	-2.69129	-1.09702	0.317936	-0.523581	0.0298219	-0.13798	0.0712797	0.363553	0	0	-0.524347	-0.00672669	0.12128	0.0971371	-0.0609957	0	0	-1.21924	0.0442362	-0.0412896	0	0	0	0	0	0	0	0	0	0	0	0	0	0
8.34761	-2.47158	0.0510668	0.045695	-2.69369	-1.09732	0.318548	-0.52359	0.0305814	-0.121925	0.0656512	0.359609	0	0	-0.525997	-0.00426478	0.134049	0.0783632	-0.0324481	0	0	-1.21588	0.041837	-0.0378198	0	0	0	0	0	0	0	0	0	0	0	0	0	0
8.3576	-2.47568	0.0506287	0.042253	-2.6961	-1.09763	0.319094	-0.523596	0.0307781	-0.108393	0.061504	0.356293	0	0	-0.526092	-0.00207931	0.14233	0.0643317	0.00557468	0	0	-1.21271	0.0396331	-0.0351879	0	0	0	0	0	0	0	0	0	0	0	0	0	0
8.36759	-2.47918	0.050265	0.0387423	-2.6985	-1.09795	0.319604	-0.5236	0.0305524	-0.0971848	0.0588549	0.353681	0	0	-0.524639	-0.000138396	0.146723	0.055438	0.0497868	0	0	-1.20969	0.0375434	-0.0332105	0	0	0	0	0	0	0	0	0	0	0	0	0	0
8.37758	-2.48207	0.0498751	0.0350931	-2.70091	-1.09827	0.320103	-0.523603	0.0300165	-0.0881158	0.0575902	0.35179	0	0	-0.521622	0.00160253	0.147969	0.0518508	0.0971936	0	0	-1.20685	0.0354905	-0.0316982	0	0	0	0	0	0	0	0	0	0	0	0	0	0
8.38758	-2.48441	0.0494362	0.0313121	-2.70329	-1.09859	0.320606	-0.523604	0.0292421	-0.0810407	0.0575226	0.350622	0	0	-0.517013	0.0031725	0.146572	0.0535769	0.145513	0	0	-1.20439	0.0334026	-0.0304878	0	0	0	0	0	0	0	0	0	0	0	0	0	0
8.39757	-2.48623	0.0489528	0.0274473	-2.70564	-1.09893	0.32112	-0.523605	0.0282783	-0.0758919	0.0585132	0.350172	0	0	-0.510804	0.00453941	0.142501	0.060589	0.19333	0	0	-1.2025	0.0312467	-0.0294567	0	0	0	0	0	0	0	0	0	0	0	0	0	0
8.40756	-2.48753	0.0484617	0.0234216	-2.70796	-1.09928	0.321656	-0.523604	0.0270551	-0.0726871	0.0604788	0.350437	0	0	-0.503055	0.00575899	0.135572	0.0727169	0.239866	0	0	-1.20129	0.0288971	-0.0285263	0	0	0	0	0	0	0	0	0	0	0	0	0	0
8.41755	-2.48833	0.0480476	0.0190158	-2.71026	-1.09966	0.322231	-0.523604	0.0253615	-0.0715049	0.0633667	0.351435	0	0	-0.49395	0.0070251	0.125762	0.0895292	0.284703	0	0	-1.20078	0.0260973	-0.0276411	0	0	0	0	0	0	0	0	0	0	0	0	0	0
8.42754	-2.48863	0.0478551	0.0139226	-2.71256	-1.10011	0.32286	-0.523603	0.0228621	-0.0725011	0.0671338	0.353249	0	0	-0.483879	0.0086727	0.113486	0.110165	0.32752	0	0	-1.20092	0.0224903	-0.0267655	0	0	0	0	0	0	0	0	0	0	0	0	0	0
8.43753	-2.48845	0.0480493	0.00795721	-2.71486	-1.10063	0.323548	-0.523602	0.0192511	-0.0759024	0.0717298	0.356022	0	0	-0.473483	0.0109633	0.0991784	0.133267	0.367988	0	0	-1.20165	0.0178116	-0.0258748	0	0	0	0	0	0	0	0	0	0	0	0	0	0
8.44752	-2.48785	0.0487654	0.00110135	-2.7172	-1.10123	0.324283	-0.523601	0.0143326	-0.0819571	0.0770667	0.359913	0	0	-0.463697	0.0140066	0.0831748	0.156825	0.40549	0	0	-1.20284	0.0119579	-0.0249566	0	0	0	0	0	0	0	0	0	0	0	0	0	0
8.45751	-2.4869	0.0501937	-0.00658681	-2.71957	-1.10191	0.325043	-0.523601	0.00790125	-0.0909132	0.0830223	0.365086	0	0	-0.455922	0.017936	0.0661206	0.177833	0.438858	0	0	-1.20435	0.00485376	-0.0240475	0	0	0	0	0	0	0	0	0	0	0	0	0	0
8.4675	-2.48566	0.0525551	-0.0150424	-2.72196	-1.10269	0.325808	-0.5236	-0.000269887	-0.103034	0.0894798	0.371669	0	0	-0.451492	0.023013	0.0490438	0.193415	0.466927	0	0	-1.20602	-0.00357954	-0.0232438	0	0	0	0	0	0	0	0	0	0	0	0	0	0
8.47749	-2.48415	0.0559689	-0.0240533	-2.72436	-1.10357	0.326548	-0.5236	-0.0102139	-0.118451	0.096451	0.379658	0	0	-0.450973	0.0294046	0.0330259	0.202311	0.489379	0	0	-1.20802	-0.0132159	-0.0226484	0	0	0	0	0	0	0	0	0	0	0	0	0	0
8.48748	-2.48241	0.0603416	-0.033174	-2.72672	-1.10452	0.327216	-0.523599	-0.0216018	-0.137047	0.103852	0.38885	0	0	-0.453935	0.0369557	0.0189661	0.205068	0.506456	0	0	-1.21038	-0.0235964	-0.0223343	0	0	0	0	0	0	0	0	0	0	0	0	0	0
8.49747	-2.48059	0.0653251	-0.041718	-2.72903	-1.10547	0.327756	-0.523599	-0.0336751	-0.158269	0.111467	0.398785	0	0	-0.459216	0.0450674	0.00734898	0.203489	0.518744	0	0	-1.21297	-0.0338991	-0.0223099	0	0	0	0	0	0	0	0	0	0	0	0	0	0
8.50746	-2.47886	0.0705499	-0.0490723	-2.73127	-1.10638	0.328124	-0.523599	-0.0456256	-0.181159	0.118987	0.408723	0	0	-0.465778	0.0530967	-0.00171889	0.199104	0.526999	0	0	-1.21556	-0.0433616	-0.0225716	0	0	0	0	0	0	0	0	0	0	0	0	0	0
8.51745	-2.47742	0.0756435	-0.0548378	-2.73345	-1.10719	0.3283	-0.523599	-0.0567131	-0.204493	0.126083	0.417856	0	0	-0.472788	0.0604929	-0.00826389	0.193085	0.532024	0	0	-1.21788	-0.0514083	-0.0230866	0	0	0	0	0	0	0	0	0	0	0	0	0	0
8.52744	-2.47639	0.0802764	-0.0588375	-2.73557	-1.10788	0.328284	-0.523599	-0.066351	-0.227019	0.132494	0.425348	0	0	-0.479638	0.0668428	-0.012487	0.186284	0.53459	0	0	-1.21974	-0.0576858	-0.0237905	0	0	0	0	0	0	0	0	0	0	0	0	0	0
8.53743	-2.47586	0.084192	-0.0611004	-2.73764	-1.10845	0.328093	-0.523599	-0.0741605	-0.247682	0.138065	0.430289	0	0	-0.485926	0.071891	-0.0147513	0.179299	0.535383	0	0	-1.22101	-0.062065	-0.0245981	0	0	0	0	0	0	0	0	0	0	0	0	0	0
8.54742	-2.47581	0.0872139	-0.0618029	-2.73965	-1.1089	0.327752	-0.523599	-0.079957	-0.265725	0.142741	0.43163	0	0	-0.491411	0.0755176	-0.015553	0.172536	0.534981	0	0	-1.22165	-0.0645925	-0.0254142	0	0	0	0	0	0	0	0	0	0	0	0	0	0
8.55741	-2.47624	0.089226	-0.0612059	-2.74161	-1.10926	0.327292	-0.523599	-0.0836945	-0.280682	0.146546	0.428138	0	0	-0.495976	0.0776915	-0.0154572	0.166251	0.533842	0	0	-1.22168	-0.065424	-0.0261366	0	0	0	0	0	0	0	0	0	0	0	0	0	0
8.5674	-2.47707	0.0901635	-0.0596274	-2.74352	-1.10953	0.326746	-0.523599	-0.0854346	-0.292336	0.149558	0.4184	0	0	-0.499581	0.0784528	-0.0150559	0.160603	0.532312	0	0	-1.22115	-0.0647949	-0.0266631	0	0	0	0	0	0	0	0	0	0	0	0	0	0
8.57739	-2.47821	0.0900174	-0.0574344	-2.74538	-1.10974	0.326154	-0.523599	-0.0853395	-0.30066	0.151892	0.400845	0	0	-0.502239	0.0779147	-0.0149391	0.155698	0.530636	0	0	-1.22016	-0.0630154	-0.0269032	0	0	0	0	0	0	0	0	0	0	0	0	0	0
8.58738	-2.47956	0.0888596	-0.0550264	-2.7472	-1.1099	0.32555	-0.523599	-0.0836849	-0.305809	0.153679	0.373823	0	0	-0.503984	0.0762809	-0.0156668	0.151628	0.528971	0	0	-1.2188	-0.0604713	-0.0267951	0	0	0	0	0	0	0	0	0	0	0	0	0	0
8.59737	-2.48101	0.0868858	-0.0527844	-2.74897	-1.11003	0.32497	-0.523599	-0.0808773	-0.308165	0.155043	0.335784	0	0	-0.504831	0.0738635	-0.0177271	0.148516	0.527404	0	0	-1.21717	-0.0576048	-0.0263371	0	0	0	0	0	0	0	0	0	0	0	0	0	0
8.60736	-2.48248	0.084399	-0.0510509	-2.75073	-1.11013	0.324436	-0.523599	-0.0774263	-0.30834	0.156096	0.285596	0	0	-0.504718	0.071098	-0.0212785	0.146626	0.525968	0	0	-1.2153	-0.0548808	-0.0256036	0	0	0	0	0	0	0	0	0	0	0	0	0	0
8.61735	-2.48394	0.0814903	-0.0497731	-2.75246	-1.11021	0.32394	-0.523599	-0.0735036	-0.30699	0.156876	0.223271	0	0	-0.503672	0.0680509	-0.0262295	0.14601	0.52466	0	0	-1.2132	-0.0523007	-0.0246275	0	0	0	0	0	0	0	0	0	0	0	0	0	0
8.62734	-2.48541	0.0782859	-0.0488533	-2.7542	-1.11029	0.323472	-0.523599	-0.0692784	-0.304693	0.157356	0.150374	0	0	-0.501823	0.0648019	-0.0323561	0.146548	0.523452	0	0	-1.21089	-0.0498489	-0.0234714	0	0	0	0	0	0	0	0	0	0	0	0	0	0
8.63733	-2.48688	0.0749851	-0.0482445	-2.75594	-1.11033	0.323027	-0.523599	-0.0650142	-0.301931	0.157438	0.0705756	0	0	-0.499422	0.0615327	-0.0393021	0.147958	0.522304	0	0	-1.20841	-0.0475998	-0.022232	0	0	0	0	0	0	0	0	0	0	0	0	0	0
8.64732	-2.48845	0.0715654	-0.0476087	-2.75769	-1.11035	0.322573	-0.523599	-0.0606828	-0.299006	0.156908	-0.00936589	0	0	-0.496826	0.0580983	-0.0465105	0.149786	0.521181	0	0	-1.2058	-0.045253	-0.0209121	0	0	0	0	0	0	0	0	0	0	0	0	0	0
