Coordinates
version=1
nRows=222
nColumns=38
inDegrees=no

Units are S.I. units (second, meters, Newtons, ...)
If the header above contains a line with 'inDegrees', this indicates whether rotational values are in degrees (yes) or radians (no).

endheader
time	pelvis_tilt	pelvis_list	pelvis_rotation	pelvis_tx	pelvis_ty	pelvis_tz	hip_flexion_r	hip_adduction_r	hip_rotation_r	knee_angle_r	ankle_angle_r	subtalar_angle_r	mtp_angle_r	hip_flexion_l	hip_adduction_l	hip_rotation_l	knee_angle_l	ankle_angle_l	subtalar_angle_l	mtp_angle_l	lumbar_extension	lumbar_bending	lumbar_rotation	arm_flex_r	arm_add_r	arm_rot_r	elbow_flex_r	pro_sup_r	wrist_flex_r	wrist_dev_r	arm_flex_l	arm_add_l	arm_rot_l	elbow_flex_l	pro_sup_l	wrist_flex_l	wrist_dev_l
3.46	2.45687	0.0762892	-2.89632	-0.999004	-0.997305	0.213587	-0.323152	0.210873	-0.272104	0.304848	0.0464803	0	0	-0.124482	-0.276152	0.16066	1.31323	-0.0102195	0	0	-1.31847	0.247102	0.0472043	1.19376	0.227581	0.128448	1.05193	0.549438	0	0	1.01387	0.26963	-0.0550423	0.883014	0.540018	0	0
3.46999	2.45773	0.0861968	-2.90602	-0.988926	-0.998826	0.214578	-0.333367	0.217428	-0.259511	0.301697	0.0540612	0	0	-0.110714	-0.28158	0.145028	1.2888	0.00199865	0	0	-1.31816	0.244744	0.0619788	1.19331	0.226083	0.128157	1.05182	0.549401	0	0	1.01316	0.270784	-0.0547034	0.882892	0.540003	0	0
3.47998	2.45864	0.0961674	-2.9157	-0.978847	-1.00033	0.215575	-0.343514	0.224035	-0.246866	0.298585	0.0616133	0	0	-0.0970022	-0.287125	0.129287	1.26403	0.0140503	0	0	-1.31782	0.242457	0.076784	1.19287	0.224585	0.127866	1.05172	0.549364	0	0	1.01245	0.271938	-0.0543645	0.882769	0.539987	0	0
3.48997	2.4597	0.106302	-2.92529	-0.968765	-1.0018	0.216588	-0.353473	0.230793	-0.234103	0.295585	0.069091	0	0	-0.0834196	-0.292984	0.113294	1.23843	0.0257004	0	0	-1.31742	0.240377	0.0916506	1.19243	0.223086	0.127575	1.05161	0.549326	0	0	1.01174	0.273092	-0.0540255	0.882646	0.539971	0	0
3.49996	2.46102	0.116716	-2.9347	-0.958676	-1.0032	0.21763	-0.363076	0.237831	-0.221167	0.292801	0.0764449	0	0	-0.0700168	-0.299383	0.0969268	1.21142	0.0367046	0	0	-1.31689	0.238686	0.106592	1.19198	0.221588	0.127284	1.05151	0.549289	0	0	1.01103	0.274247	-0.0536865	0.882523	0.539956	0	0
3.50995	2.46276	0.127514	-2.94382	-0.948575	-1.00451	0.218716	-0.372115	0.245281	-0.208033	0.290374	0.0836357	0	0	-0.0568033	-0.306534	0.0801211	1.18251	0.0468291	0	0	-1.31613	0.23759	0.121597	1.19154	0.22009	0.126993	1.0514	0.549252	0	0	1.01032	0.275401	-0.0533475	0.8824	0.53994	0	0
3.51994	2.46511	0.138785	-2.95251	-0.938453	-1.00568	0.219859	-0.380368	0.253268	-0.194695	0.288464	0.0906445	0	0	-0.0437496	-0.314601	0.0628887	1.15125	0.0558498	0	0	-1.31505	0.237294	0.13664	1.19109	0.218591	0.126702	1.05129	0.549215	0	0	1.00961	0.276555	-0.0530084	0.882277	0.539924	0	0
3.52993	2.46823	0.150596	-2.96068	-0.928302	-1.0067	0.221074	-0.38763	0.261893	-0.181165	0.287231	0.0974812	0	0	-0.0308014	-0.323677	0.0453189	1.11733	0.063574	0	0	-1.31353	0.237977	0.151687	1.19065	0.217092	0.126411	1.05119	0.549178	0	0	1.0089	0.27771	-0.0526693	0.882155	0.539909	0	0
3.53992	2.47225	0.162995	-2.96826	-0.918111	-1.00753	0.222372	-0.393768	0.271219	-0.16745	0.286809	0.104189	0	0	-0.0179101	-0.333773	0.0275644	1.08059	0.0698703	0	0	-1.31148	0.239767	0.166717	1.1902	0.215593	0.12612	1.05108	0.549141	0	0	1.00819	0.278865	-0.0523302	0.882032	0.539893	0	0
3.54991	2.47723	0.176023	-2.97527	-0.907867	-1.00816	0.223764	-0.398785	0.281273	-0.153545	0.28725	0.110841	0	0	-0.00507793	-0.344817	0.00981608	1.041	0.0746814	0	0	-1.30886	0.24272	0.181751	1.18976	0.214094	0.125829	1.05098	0.549104	0	0	1.00748	0.280019	-0.051991	0.881909	0.539878	0	0
3.5599	2.48312	0.189719	-2.98179	-0.897557	-1.00855	0.225258	-0.402773	0.29203	-0.139449	0.288478	0.117547	0	0	0.00759518	-0.356655	-0.00769422	0.998699	0.0780066	0	0	-1.30566	0.24682	0.196864	1.18931	0.212595	0.125538	1.05087	0.549066	0	0	1.00676	0.281174	-0.0516518	0.881786	0.539862	0	0
3.56989	2.4898	0.204075	-2.98794	-0.88717	-1.0087	0.226857	-0.405871	0.303424	-0.125117	0.290422	0.124421	0	0	0.0200117	-0.369126	-0.0247707	0.953944	0.0799479	0	0	-1.30194	0.251976	0.212169	1.18887	0.211095	0.125247	1.05076	0.549029	0	0	1.00605	0.282328	-0.0513126	0.881663	0.539847	0	0
3.57988	2.49717	0.219027	-2.99383	-0.876692	-1.00861	0.228564	-0.408238	0.315336	-0.110527	0.293029	0.131576	0	0	0.0320973	-0.382051	-0.0412086	0.907136	0.0806944	0	0	-1.29773	0.258051	0.227758	1.18842	0.209596	0.124955	1.05066	0.548992	0	0	1.00534	0.283483	-0.0509733	0.88154	0.539832	0	0
3.58987	2.50511	0.234466	-2.99961	-0.866115	-1.00826	0.230377	-0.410033	0.327611	-0.0956959	0.296278	0.13912	0	0	0.0438069	-0.39524	-0.0567933	0.858794	0.0805094	0	0	-1.29308	0.264888	0.243663	1.18798	0.208096	0.124664	1.05055	0.548956	0	0	1.00463	0.284638	-0.050634	0.881417	0.539816	0	0
3.59986	2.51349	0.250254	-3.00537	-0.855432	-1.00767	0.232295	-0.411403	0.340059	-0.0806812	0.300184	0.147158	0	0	0.0551179	-0.408505	-0.0713123	0.809528	0.0797024	0	0	-1.28802	0.272315	0.259861	1.18753	0.206596	0.124373	1.05045	0.548919	0	0	1.00391	0.285792	-0.0502947	0.881294	0.539801	0	0
3.60985	2.5222	0.266236	-3.01123	-0.844639	-1.00683	0.234311	-0.412472	0.352472	-0.0655767	0.304795	0.155786	0	0	0.0660161	-0.421668	-0.0845598	0.760003	0.0785873	0	0	-1.28261	0.280154	0.276278	1.18708	0.205096	0.124081	1.05034	0.548882	0	0	1.0032	0.286947	-0.0499553	0.881171	0.539786	0	0
3.61984	2.53111	0.28225	-3.0173	-0.833737	-1.00577	0.236417	-0.413344	0.364628	-0.0504915	0.310178	0.165085	0	0	0.0764905	-0.434563	-0.0963623	0.710911	0.0774471	0	0	-1.27688	0.288214	0.292803	1.18663	0.203596	0.12379	1.05023	0.548845	0	0	1.00249	0.288101	-0.0496159	0.881047	0.539771	0	0
3.62983	2.54011	0.298133	-3.0237	-0.82273	-1.0045	0.238604	-0.414098	0.376297	-0.0355444	0.316412	0.175117	0	0	0.0865167	-0.447037	-0.106588	0.662933	0.0764949	0	0	-1.2709	0.296292	0.309304	1.18619	0.202096	0.123499	1.05013	0.548808	0	0	1.00177	0.289256	-0.0492765	0.880924	0.539756	0	0
3.63982	2.54911	0.313713	-3.03052	-0.811625	-1.00305	0.24086	-0.414794	0.387252	-0.0208734	0.323579	0.185934	0	0	0.0960456	-0.458952	-0.115155	0.616704	0.0758395	0	0	-1.26475	0.30418	0.325636	1.18574	0.200595	0.123207	1.05002	0.548772	0	0	1.00106	0.29041	-0.0489371	0.880801	0.539741	0	0
3.64981	2.55798	0.328808	-3.03782	-0.800435	-1.00143	0.243173	-0.415473	0.397275	-0.00664765	0.331768	0.197571	0	0	0.104999	-0.470171	-0.122018	0.572792	0.0754632	0	0	-1.25858	0.311674	0.341647	1.18529	0.199095	0.122916	1.04991	0.548735	0	0	1.00034	0.291564	-0.0485976	0.880678	0.539726	0	0
3.6598	2.56661	0.343233	-3.04558	-0.789174	-0.999676	0.245528	-0.416159	0.406173	0.00694142	0.341074	0.210043	0	0	0.113267	-0.480564	-0.127176	0.531681	0.0752282	0	0	-1.25258	0.318593	0.357177	1.18484	0.197594	0.122624	1.04981	0.548699	0	0	0.999624	0.292719	-0.048258	0.880554	0.539711	0	0
3.66979	2.57493	0.356819	-3.05377	-0.777856	-0.997818	0.247909	-0.416869	0.413795	0.0197007	0.351525	0.22336	0	0	0.12079	-0.490047	-0.130719	0.493852	0.0749036	0	0	-1.24677	0.32479	0.372033	1.18439	0.196093	0.122332	1.0497	0.548662	0	0	0.998907	0.293873	-0.0479184	0.88043	0.539696	0	0
3.67978	2.58285	0.369407	-3.0623	-0.766495	-0.995888	0.250298	-0.417606	0.420029	0.0314614	0.363139	0.237476	0	0	0.127498	-0.498546	-0.132832	0.459716	0.0741765	0	0	-1.24122	0.330152	0.386031	1.18394	0.194592	0.122041	1.04959	0.548626	0	0	0.998189	0.295027	-0.0475788	0.880307	0.539681	0	0
3.68977	2.59029	0.380849	-3.07099	-0.755107	-0.993918	0.252675	-0.418371	0.424807	0.0420903	0.375942	0.25226	0	0	0.13331	-0.505993	-0.133794	0.429607	0.0726717	0	0	-1.23608	0.334615	0.399	1.18348	0.19309	0.121749	1.04949	0.548589	0	0	0.997471	0.296181	-0.0472391	0.880183	0.539666	0	0
3.69976	2.59712	0.391003	-3.07962	-0.743703	-0.99194	0.255021	-0.419162	0.428103	0.0514935	0.389993	0.267491	0	0	0.138126	-0.512317	-0.133982	0.403766	0.0699808	0	0	-1.23159	0.338161	0.410801	1.18303	0.191588	0.121457	1.04938	0.548553	0	0	0.996752	0.297335	-0.0468993	0.880059	0.539651	0	0
3.70976	2.60323	0.399765	-3.08798	-0.732292	-0.989989	0.257315	-0.419974	0.429933	0.059617	0.405307	0.282897	0	0	0.141903	-0.517492	-0.133867	0.382421	0.0656907	0	0	-1.22792	0.340791	0.421286	1.18258	0.190086	0.121165	1.04927	0.548517	0	0	0.996031	0.298489	-0.0465594	0.879935	0.539637	0	0
3.71975	2.60857	0.407079	-3.09591	-0.720879	-0.9881	0.259535	-0.420803	0.430344	0.0664799	0.421872	0.298138	0	0	0.144633	-0.521538	-0.134005	0.365758	0.0594259	0	0	-1.22513	0.342493	0.430321	1.18212	0.188584	0.120873	1.04917	0.54848	0	0	0.99531	0.299643	-0.0462195	0.87981	0.539622	0	0
3.72974	2.61311	0.41292	-3.10333	-0.709464	-0.986307	0.261662	-0.421647	0.429387	0.0721561	0.439656	0.312822	0	0	0.146333	-0.524493	-0.134961	0.353891	0.0508674	0	0	-1.2232	0.343236	0.437804	1.18167	0.187081	0.120581	1.04906	0.548444	0	0	0.994588	0.300796	-0.0458795	0.879686	0.539608	0	0
3.73973	2.61682	0.417272	-3.11018	-0.698045	-0.984642	0.263676	-0.422505	0.427104	0.0767387	0.458622	0.326501	0	0	0.147016	-0.526379	-0.13721	0.346807	0.0397779	0	0	-1.22209	0.342971	0.443663	1.18121	0.185578	0.120289	1.04895	0.548408	0	0	0.993865	0.30195	-0.0455395	0.879561	0.539593	0	0
3.74972	2.61967	0.420111	-3.11642	-0.686616	-0.983135	0.265562	-0.423382	0.423516	0.080307	0.478742	0.338683	0	0	0.146683	-0.527189	-0.14105	0.344346	0.0260586	0	0	-1.22172	0.341645	0.447852	1.18075	0.184075	0.119996	1.04884	0.548372	0	0	0.993141	0.303103	-0.0451994	0.879436	0.539579	0	0
3.75971	2.62161	0.421406	-3.12202	-0.675166	-0.981816	0.267307	-0.424282	0.418624	0.082905	0.500002	0.348834	0	0	0.14531	-0.526877	-0.146563	0.346186	0.00985096	0	0	-1.22201	0.339214	0.450338	1.18029	0.182571	0.119704	1.04873	0.548336	0	0	0.992416	0.304256	-0.0448592	0.879311	0.539565	0	0
3.7697	2.62261	0.421117	-3.12696	-0.663687	-0.980706	0.268906	-0.425215	0.412408	0.0845245	0.522388	0.356399	0	0	0.142861	-0.525364	-0.153594	0.351871	-0.00832195	0	0	-1.22285	0.335642	0.451093	1.17983	0.181068	0.119411	1.04862	0.5483	0	0	0.991689	0.305409	-0.044519	0.879186	0.53955	0	0
3.77969	2.62262	0.419206	-3.13124	-0.652165	-0.979827	0.270356	-0.426191	0.404831	0.0850999	0.545876	0.360814	0	0	0.139291	-0.522543	-0.16178	0.360853	-0.0274767	0	0	-1.22408	0.330901	0.450081	1.17937	0.179564	0.119119	1.04851	0.548265	0	0	0.990961	0.306561	-0.0441787	0.879061	0.539536	0	0
3.78968	2.62161	0.415636	-3.13487	-0.640592	-0.97919	0.271663	-0.427223	0.39584	0.0845137	0.570417	0.361535	0	0	0.134555	-0.518289	-0.170608	0.372542	-0.0462827	0	0	-1.22547	0.324982	0.447256	1.1789	0.17806	0.118826	1.04841	0.548229	0	0	0.990232	0.307713	-0.0438384	0.878935	0.539522	0	0
3.79967	2.61949	0.410388	-3.13779	-0.628958	-0.978803	0.272839	-0.428321	0.385411	0.0826352	0.596036	0.358032	0	0	0.128517	-0.512438	-0.179529	0.386256	-0.0633685	0	0	-1.22702	0.317953	0.442629	1.17844	0.176555	0.118533	1.0483	0.548194	0	0	0.989501	0.308865	-0.043498	0.878809	0.539509	0	0
3.80966	2.61621	0.403493	-3.13996	-0.617259	-0.978664	0.273901	-0.429494	0.37357	0.0793519	0.622697	0.349863	0	0	0.121063	-0.504881	-0.187999	0.401347	-0.0776249	0	0	-1.22861	0.309953	0.436196	1.17797	0.175051	0.118241	1.04819	0.548158	0	0	0.988769	0.310016	-0.0431575	0.878683	0.539495	0	0
3.81965	2.61179	0.395039	-3.14134	-0.605498	-0.978768	0.274873	-0.430743	0.360394	0.0746106	0.650273	0.336706	0	0	0.112124	-0.495582	-0.195576	0.417235	-0.088322	0	0	-1.23004	0.301168	0.427937	1.1775	0.173546	0.117948	1.04808	0.548123	0	0	0.988036	0.311167	-0.042817	0.878556	0.539481	0	0
3.82964	2.60618	0.385149	-3.14187	-0.593679	-0.979101	0.275783	-0.43206	0.346027	0.0684598	0.678684	0.318375	0	0	0.10155	-0.484536	-0.201975	0.433287	-0.0951039	0	0	-1.23139	0.291855	0.417907	1.17703	0.172041	0.117655	1.04796	0.548087	0	0	0.987301	0.312318	-0.0424765	0.878429	0.539467	0	0
3.83963	2.59927	0.374001	-3.14141	-0.581816	-0.979644	0.276659	-0.433418	0.330708	0.0610594	0.707916	0.29488	0	0	0.0891022	-0.471787	-0.207049	0.448797	-0.0979653	0	0	-1.23312	0.28236	0.406249	1.17656	0.170535	0.117361	1.04785	0.548052	0	0	0.986564	0.313468	-0.0421358	0.878302	0.539454	0	0
3.84962	2.59103	0.361826	-3.13986	-0.569924	-0.980375	0.277531	-0.43477	0.314723	0.0526635	0.73785	0.266518	0	0	0.0746183	-0.457493	-0.210773	0.463164	-0.0972072	0	0	-1.2356	0.273044	0.393094	1.17609	0.16903	0.117068	1.04774	0.548017	0	0	0.985825	0.314618	-0.0417952	0.878175	0.53944	0	0
3.85961	2.58152	0.348883	-3.13724	-0.558026	-0.981266	0.278425	-0.436039	0.29837	0.043594	0.768243	0.233913	0	0	0.058043	-0.441888	-0.213249	0.475929	-0.0933225	0	0	-1.23903	0.264233	0.378573	1.17561	0.167524	0.116775	1.04763	0.547982	0	0	0.985085	0.315767	-0.0414544	0.878047	0.539427	0	0
3.8696	2.57092	0.335432	-3.13364	-0.546144	-0.98229	0.279361	-0.437114	0.281925	0.0341959	0.79874	0.198047	0	0	0.0394404	-0.425252	-0.214652	0.486784	-0.0868911	0	0	-1.24343	0.256182	0.362827	1.17513	0.166018	0.116481	1.04752	0.547947	0	0	0.984343	0.316915	-0.0411136	0.877919	0.539414	0	0
3.87959	2.55947	0.32171	-3.12921	-0.534303	-0.983416	0.280353	-0.43784	0.265623	0.024784	0.828904	0.160269	0	0	0.0190076	-0.407879	-0.215177	0.495585	-0.0785017	0	0	-1.24871	0.249061	0.345999	1.17465	0.164511	0.116188	1.0474	0.547912	0	0	0.983599	0.318064	-0.0407727	0.87779	0.539401	0	0
3.88958	2.54748	0.307926	-3.12416	-0.522528	-0.984616	0.281405	-0.438016	0.249649	0.0155929	0.858261	0.122241	0	0	-0.00293364	-0.390063	-0.215007	0.502346	-0.0687018	0	0	-1.2546	0.242954	0.328237	1.17417	0.163005	0.115894	1.04729	0.547878	0	0	0.982853	0.319211	-0.0404317	0.877661	0.539388	0	0
3.89957	2.53529	0.294264	-3.11871	-0.510843	-0.985862	0.282513	-0.437395	0.234152	0.00674354	0.886418	0.085809	0	0	-0.0260238	-0.37209	-0.214293	0.507149	-0.0579618	0	0	-1.26086	0.237899	0.309711	1.17369	0.161498	0.1156	1.04718	0.547843	0	0	0.982105	0.320359	-0.0400906	0.877531	0.539375	0	0
3.90956	2.52321	0.280886	-3.11301	-0.499268	-0.987128	0.283665	-0.435685	0.219259	-0.00176124	0.913076	0.0527944	0	0	-0.0498702	-0.354228	-0.213125	0.510135	-0.0466666	0	0	-1.26731	0.233902	0.290612	1.1732	0.15999	0.115306	1.04706	0.547808	0	0	0.981355	0.321505	-0.0397495	0.877401	0.539362	0	0
3.91955	2.51157	0.267931	-3.10722	-0.487823	-0.988393	0.284838	-0.432566	0.205083	-0.0099932	0.938018	0.0247319	0	0	-0.0740438	-0.33673	-0.211528	0.511489	-0.0351194	0	0	-1.27377	0.230945	0.271136	1.17271	0.158482	0.115012	1.04695	0.547774	0	0	0.980602	0.322651	-0.0394082	0.877271	0.539349	0	0
3.92954	2.50069	0.255512	-3.10143	-0.47652	-0.989636	0.286008	-0.427707	0.191737	-0.0180437	0.961056	0.00265444	0	0	-0.0980862	-0.319827	-0.209483	0.511431	-0.0235454	0	0	-1.28003	0.228983	0.251478	1.17222	0.156974	0.114717	1.04683	0.54774	0	0	0.979847	0.323796	-0.0390669	0.87714	0.539336	0	0
3.93953	2.49089	0.243711	-3.09572	-0.465371	-0.990841	0.287144	-0.420809	0.179323	-0.0259916	0.981993	-0.0129996	0	0	-0.121532	-0.303721	-0.206942	0.510189	-0.0120989	0	0	-1.28589	0.227941	0.231832	1.17172	0.155466	0.114423	1.04672	0.547705	0	0	0.979089	0.324941	-0.0387255	0.877008	0.539324	0	0
3.94952	2.48245	0.232585	-3.09012	-0.454378	-0.991994	0.288213	-0.411654	0.167925	-0.0338947	1.00059	-0.0223264	0	0	-0.143953	-0.288585	-0.203855	0.507987	-0.000875457	0	0	-1.29116	0.227722	0.212399	1.17123	0.153957	0.114128	1.0466	0.547671	0	0	0.978329	0.326085	-0.038384	0.876877	0.539312	0	0
3.95951	2.47558	0.22217	-3.08465	-0.443541	-0.993087	0.289184	-0.400182	0.157595	-0.0417951	1.01652	-0.0258017	0	0	-0.165019	-0.274556	-0.200191	0.505028	0.0100737	0	0	-1.29566	0.228206	0.193405	1.17072	0.152448	0.113834	1.04648	0.547637	0	0	0.977566	0.327228	-0.0380425	0.876744	0.539299	0	0
3.9695	2.47031	0.212462	-3.07925	-0.432854	-0.994111	0.290026	-0.386586	0.148364	-0.0497212	1.02935	-0.0241624	0	0	-0.184609	-0.261721	-0.195955	0.501498	0.0207288	0	0	-1.29932	0.229257	0.175088	1.17022	0.150939	0.113539	1.04636	0.547603	0	0	0.976801	0.32837	-0.0377009	0.876611	0.539287	0	0
3.97949	2.46652	0.203376	-3.07381	-0.422306	-0.995061	0.290714	-0.371298	0.140201	-0.0577892	1.03856	-0.0183024	0	0	-0.202773	-0.250083	-0.191086	0.497544	0.0310803	0	0	-1.30217	0.230783	0.157496	1.16971	0.14943	0.113244	1.04624	0.54757	0	0	0.976032	0.329511	-0.0373591	0.876477	0.539275	0	0
3.98948	2.46401	0.194761	-3.06815	-0.411882	-0.995933	0.291228	-0.354879	0.13299	-0.066184	1.04369	-0.00919002	0	0	-0.219678	-0.239562	-0.185496	0.493278	0.0411191	0	0	-1.30427	0.232709	0.14054	1.1692	0.14792	0.112948	1.04612	0.547536	0	0	0.975261	0.330651	-0.0370174	0.876343	0.539263	0	0
3.99947	2.46252	0.18642	-3.06214	-0.401566	-0.996726	0.291553	-0.337915	0.126533	-0.0751272	1.04436	0.00219593	0	0	-0.235548	-0.23	-0.179097	0.488787	0.0508324	0	0	-1.30576	0.234955	0.124057	1.16869	0.14641	0.112653	1.046	0.547502	0	0	0.974487	0.331791	-0.0366755	0.876208	0.539251	0	0
4.00946	2.46179	0.17813	-3.05569	-0.39134	-0.997434	0.291681	-0.320943	0.120551	-0.0848316	1.04034	0.0149104	0	0	-0.25061	-0.221178	-0.171836	0.484145	0.0602074	0	0	-1.30675	0.237413	0.107848	1.16817	0.1449	0.112357	1.04588	0.547469	0	0	0.97371	0.332929	-0.0363336	0.876072	0.53924	0	0
4.01945	2.46163	0.169661	-3.04881	-0.381185	-0.998057	0.291608	-0.304387	0.114714	-0.0954787	1.03152	0.028084	0	0	-0.265051	-0.212832	-0.163705	0.479433	0.069238	0	0	-1.30736	0.239934	0.0917166	1.16765	0.143389	0.112062	1.04576	0.547436	0	0	0.972929	0.334066	-0.0359916	0.875936	0.539228	0	0
4.02944	2.46187	0.160786	-3.04153	-0.371083	-0.998591	0.291337	-0.288544	0.108657	-0.107212	1.01796	0.0409687	0	0	-0.278992	-0.204675	-0.154729	0.474746	0.0779315	0	0	-1.30765	0.242342	0.0754831	1.16713	0.141879	0.111766	1.04564	0.547402	0	0	0.972145	0.335203	-0.0356495	0.875799	0.539216	0	0
4.03943	2.46243	0.151294	-3.03398	-0.361014	-0.999034	0.290874	-0.273561	0.102012	-0.120132	0.999859	0.0529595	0	0	-0.292466	-0.196414	-0.144958	0.470206	0.0863116	0	0	-1.30767	0.244442	0.0590045	1.1666	0.140368	0.11147	1.04551	0.547369	0	0	0.971358	0.336338	-0.0353074	0.875661	0.539205	0	0
4.04942	2.46331	0.141006	-3.0263	-0.350961	-0.999384	0.290226	-0.259451	0.0944392	-0.134287	0.977492	0.0635879	0	0	-0.305421	-0.187774	-0.134454	0.465972	0.0944201	0	0	-1.3074	0.246026	0.042181	1.16607	0.138857	0.111173	1.04539	0.547336	0	0	0.970568	0.337472	-0.0349652	0.875522	0.539194	0	0
4.05941	2.46459	0.129776	-3.01864	-0.340908	-0.99964	0.289404	-0.246104	0.0856547	-0.149656	0.951226	0.072499	0	0	-0.317714	-0.178512	-0.12329	0.462241	0.10232	0	0	-1.3068	0.246897	0.0249557	1.16554	0.137345	0.110877	1.04526	0.547304	0	0	0.969774	0.338604	-0.0346229	0.875383	0.539183	0	0
4.0694	2.46638	0.117517	-3.01116	-0.330836	-0.999807	0.288419	-0.233319	0.0754664	-0.166141	0.921469	0.0794276	0	0	-0.329143	-0.168444	-0.111539	0.459243	0.110099	0	0	-1.30579	0.246872	0.00732222	1.165	0.135834	0.11058	1.04514	0.547271	0	0	0.968976	0.339736	-0.0342806	0.875242	0.539172	0	0
4.07939	2.46883	0.104209	-3.004	-0.320731	-0.999858	0.287283	-0.220849	0.0637938	-0.183565	0.888659	0.0841845	0	0	-0.339485	-0.157463	-0.0992779	0.457232	0.117866	0	0	-1.30429	0.245802	-0.0106717	1.16445	0.134322	0.110284	1.04501	0.547238	0	0	0.968174	0.340866	-0.0339381	0.875101	0.539161	0	0
4.08938	2.47208	0.0898905	-2.99726	-0.310576	-0.99977	0.286007	-0.208446	0.0506711	-0.201677	0.853244	0.0866491	0	0	-0.348552	-0.145534	-0.0865823	0.456449	0.125747	0	0	-1.30221	0.243578	-0.0289343	1.16391	0.132809	0.109987	1.04488	0.547206	0	0	0.967369	0.341995	-0.0335955	0.874959	0.53915	0	0
4.09937	2.47622	0.0746525	-2.99099	-0.300356	-0.999529	0.284602	-0.195912	0.0362395	-0.220163	0.815678	0.0867616	0	0	-0.356255	-0.132695	-0.0735186	0.457079	0.133875	0	0	-1.29951	0.240143	-0.0473543	1.16335	0.131297	0.109689	1.04475	0.547173	0	0	0.966559	0.343123	-0.0332529	0.874816	0.539139	0	0
4.10936	2.48126	0.058609	-2.98521	-0.290055	-0.999121	0.283076	-0.183152	0.020725	-0.238683	0.776418	0.0845177	0	0	-0.36264	-0.119042	-0.0601298	0.459201	0.14238	0	0	-1.29621	0.235508	-0.0658355	1.1628	0.129784	0.109392	1.04462	0.547141	0	0	0.965746	0.344249	-0.0329102	0.874672	0.539129	0	0
4.11935	2.48708	0.0418775	-2.97984	-0.279659	-0.998543	0.28144	-0.170224	0.00441281	-0.25689	0.735935	0.0799717	0	0	-0.367836	-0.10471	-0.0464373	0.462737	0.151392	0	0	-1.29236	0.229755	-0.0843415	1.16224	0.128271	0.109094	1.04449	0.547109	0	0	0.964928	0.345374	-0.0325673	0.874528	0.539119	0	0
4.12934	2.49354	0.0245888	-2.97476	-0.269156	-0.997795	0.279702	-0.157228	-0.0124328	-0.274534	0.694681	0.0732865	0	0	-0.372016	-0.0898666	-0.0324001	0.467599	0.161015	0	0	-1.28805	0.223045	-0.102936	1.16167	0.126757	0.108796	1.04435	0.547077	0	0	0.964105	0.346497	-0.0322244	0.874382	0.539108	0	0
4.13933	2.50049	0.00689877	-2.96983	-0.258535	-0.996882	0.277873	-0.144273	-0.0295532	-0.291399	0.653098	0.0647239	0	0	-0.375365	-0.0747135	-0.0179952	0.473699	0.171333	0	0	-1.28338	0.21558	-0.121683	1.1611	0.125244	0.108498	1.04422	0.547045	0	0	0.963278	0.347619	-0.0318814	0.874235	0.539098	0	0
4.14932	2.50779	-0.0110135	-2.96492	-0.247788	-0.995812	0.275961	-0.131465	-0.0467065	-0.307291	0.611614	0.0546353	0	0	-0.378062	-0.0594679	-0.00324356	0.480951	0.182398	0	0	-1.27842	0.20757	-0.1406	1.16052	0.12373	0.1082	1.04408	0.547013	0	0	0.962447	0.348739	-0.0315384	0.874087	0.539088	0	0
4.15931	2.51532	-0.0289615	-2.95991	-0.236908	-0.994601	0.273977	-0.118901	-0.0636778	-0.322046	0.570657	0.0434489	0	0	-0.380268	-0.0443533	0.0117913	0.489283	0.194236	0	0	-1.27326	0.199222	-0.159647	1.15994	0.122215	0.107901	1.04395	0.546981	0	0	0.961611	0.349857	-0.0311952	0.873938	0.539078	0	0
4.1693	2.52297	-0.0467632	-2.9547	-0.225894	-0.993264	0.271932	-0.106665	-0.0802859	-0.335525	0.530642	0.031656	0	0	-0.382118	-0.0295889	0.0270134	0.49863	0.206845	0	0	-1.26793	0.190736	-0.178726	1.15935	0.120701	0.107603	1.04381	0.54695	0	0	0.96077	0.350974	-0.030852	0.873788	0.539068	0	0
4.17929	2.53067	-0.0642486	-2.94918	-0.214744	-0.991819	0.26984	-0.0948429	-0.0963789	-0.34762	0.491967	0.0197977	0	0	-0.383721	-0.0153886	0.0422955	0.508931	0.220203	0	0	-1.26248	0.182301	-0.197702	1.15876	0.119186	0.107304	1.04367	0.546919	0	0	0.959924	0.352089	-0.0305086	0.873636	0.539059	0	0
4.18929	2.53832	-0.0812547	-2.94329	-0.203462	-0.990286	0.267714	-0.0835265	-0.111824	-0.358234	0.454992	0.00844575	0	0	-0.385158	-0.00195505	0.0574832	0.520136	0.234264	0	0	-1.25693	0.174095	-0.216417	1.15816	0.117672	0.107004	1.04353	0.546887	0	0	0.959073	0.353202	-0.0301652	0.873484	0.539049	0	0
4.19928	2.54585	-0.0976272	-2.93697	-0.192052	-0.988687	0.265571	-0.0728179	-0.126496	-0.36728	0.420034	-0.00184404	0	0	-0.38649	0.0105207	0.0723972	0.5322	0.24896	0	0	-1.25135	0.166276	-0.234699	1.15756	0.116157	0.106705	1.04339	0.546856	0	0	0.958216	0.354313	-0.0298218	0.87333	0.53904	0	0
4.20927	2.55321	-0.113217	-2.93019	-0.180522	-0.987041	0.263427	-0.0628278	-0.140272	-0.37467	0.387357	-0.0106046	0	0	-0.387755	0.0218663	0.0868434	0.545083	0.264195	0	0	-1.24576	0.158986	-0.252371	1.15695	0.114641	0.106405	1.04324	0.546825	0	0	0.957355	0.355422	-0.0294782	0.873175	0.539031	0	0
4.21926	2.56033	-0.127886	-2.923	-0.168879	-0.985369	0.261302	-0.0536747	-0.153031	-0.380318	0.357178	-0.0175243	0	0	-0.388978	0.0319378	0.100625	0.558755	0.279841	0	0	-1.24023	0.152332	-0.269254	1.15633	0.113126	0.106105	1.0431	0.546794	0	0	0.956488	0.356529	-0.0291346	0.873019	0.539022	0	0
4.22925	2.56711	-0.141507	-2.91547	-0.157132	-0.983692	0.259217	-0.0454813	-0.164657	-0.384157	0.329664	-0.0224697	0	0	-0.390169	0.0406295	0.113554	0.573203	0.29573	0	0	-1.23483	0.146385	-0.285177	1.15571	0.111611	0.105805	1.04295	0.546764	0	0	0.955615	0.357635	-0.0287909	0.872862	0.539013	0	0
4.23924	2.57348	-0.153968	-2.90775	-0.145289	-0.982029	0.257195	-0.0383698	-0.175041	-0.386168	0.304938	-0.0254742	0	0	-0.391333	0.047882	0.125466	0.588432	0.311649	0	0	-1.22971	0.141164	-0.299981	1.15508	0.110095	0.105505	1.0428	0.546733	0	0	0.954737	0.358737	-0.0284472	0.872703	0.539004	0	0
4.24923	2.57936	-0.165188	-2.9	-0.133357	-0.9804	0.25526	-0.0323874	-0.18412	-0.386411	0.283161	-0.0267342	0	0	-0.392467	0.0536727	0.136212	0.604392	0.327386	0	0	-1.22482	0.136665	-0.3135	1.15444	0.108579	0.105204	1.04265	0.546703	0	0	0.953853	0.359838	-0.0281034	0.872542	0.538995	0	0
4.25922	2.58479	-0.175127	-2.89231	-0.121342	-0.978821	0.25344	-0.0275073	-0.191884	-0.385082	0.26453	-0.0265893	0	0	-0.393564	0.0580068	0.145686	0.620978	0.342734	0	0	-1.21999	0.132882	-0.32557	1.1538	0.107063	0.104903	1.0425	0.546672	0	0	0.952963	0.360936	-0.0277595	0.872381	0.538987	0	0
4.26921	2.58972	-0.183763	-2.88484	-0.109249	-0.97731	0.251761	-0.0237296	-0.198336	-0.382548	0.249162	-0.0254738	0	0	-0.394619	0.0609357	0.153885	0.638134	0.357413	0	0	-1.21521	0.12979	-0.336103	1.15315	0.105547	0.104602	1.04235	0.546642	0	0	0.952067	0.362033	-0.0274155	0.872218	0.538978	0	0
4.2792	2.59414	-0.191135	-2.87768	-0.0970819	-0.975883	0.250252	-0.0210246	-0.203553	-0.379271	0.237151	-0.0239143	0	0	-0.395623	0.0625655	0.160909	0.655796	0.371123	0	0	-1.21039	0.127364	-0.345048	1.1525	0.104031	0.1043	1.04219	0.546612	0	0	0.951164	0.363127	-0.0270715	0.872053	0.53897	0	0
4.28919	2.59798	-0.197289	-2.87097	-0.0848453	-0.974555	0.248939	-0.0194207	-0.207598	-0.375815	0.228465	-0.0224712	0	0	-0.396573	0.0630329	0.166951	0.673982	0.383488	0	0	-1.20571	0.125574	-0.35245	1.15184	0.102515	0.103999	1.04203	0.546582	0	0	0.950256	0.364218	-0.0267273	0.871887	0.538962	0	0
4.29918	2.60116	-0.202284	-2.86479	-0.072542	-0.973338	0.247848	-0.018932	-0.210547	-0.372719	0.223011	-0.0217334	0	0	-0.397465	0.0624735	0.172205	0.69271	0.39412	0	0	-1.20129	0.124403	-0.358376	1.15117	0.100998	0.103697	1.04187	0.546552	0	0	0.94934	0.365307	-0.0263831	0.871719	0.538954	0	0
4.30917	2.60364	-0.206166	-2.85919	-0.0601758	-0.972245	0.247003	-0.0195629	-0.212459	-0.370471	0.220633	-0.0222657	0	0	-0.398299	0.0609843	0.176826	0.712004	0.402627	0	0	-1.19719	0.123869	-0.362901	1.15049	0.0994813	0.103394	1.04171	0.546522	0	0	0.948418	0.366394	-0.0260388	0.87155	0.538946	0	0
4.31916	2.60533	-0.208961	-2.85417	-0.0477511	-0.971286	0.246424	-0.0213227	-0.213364	-0.369465	0.221107	-0.0245435	0	0	-0.399079	0.0586151	0.180909	0.731896	0.408606	0	0	-1.19347	0.124021	-0.3661	1.1498	0.0979643	0.103092	1.04155	0.546493	0	0	0.94749	0.367478	-0.0256944	0.871379	0.538938	0	0
4.32915	2.60615	-0.210666	-2.84974	-0.0352742	-0.97047	0.246125	-0.0242324	-0.213249	-0.369981	0.224141	-0.028888	0	0	-0.39981	0.0553679	0.184473	0.752442	0.411644	0	0	-1.19019	0.124931	-0.36804	1.14911	0.0964472	0.102789	1.04139	0.546463	0	0	0.946554	0.368559	-0.0253499	0.871206	0.53893	0	0
4.33914	2.60597	-0.211248	-2.84589	-0.0227547	-0.969806	0.246116	-0.0283269	-0.212069	-0.372166	0.229393	-0.0353832	0	0	-0.400502	0.0512089	0.187457	0.773722	0.411324	0	0	-1.18742	0.126675	-0.36877	1.14841	0.09493	0.102485	1.04122	0.546434	0	0	0.945611	0.369637	-0.0250054	0.871031	0.538923	0	0
4.34913	2.60465	-0.210657	-2.84266	-0.0102064	-0.969304	0.2464	-0.0336543	-0.209746	-0.376026	0.236503	-0.0437764	0	0	-0.401166	0.0460848	0.189728	0.795838	0.407231	0	0	-1.18526	0.129312	-0.368315	1.1477	0.0934127	0.102182	1.04105	0.546405	0	0	0.944661	0.370713	-0.0246607	0.870855	0.538915	0	0
4.35912	2.602	-0.208827	-2.84012	0.00235077	-0.968974	0.24697	-0.040303	-0.206174	-0.38142	0.245107	-0.0534029	0	0	-0.401816	0.0399446	0.191107	0.818949	0.398959	0	0	-1.18392	0.132863	-0.366686	1.14698	0.0918953	0.101878	1.04088	0.546376	0	0	0.943703	0.371786	-0.024316	0.870677	0.538908	0	0
4.36911	2.59787	-0.205694	-2.83832	0.0148888	-0.968834	0.247814	-0.0483062	-0.201252	-0.388059	0.254923	-0.0632809	0	0	-0.402463	0.0327279	0.191362	0.843105	0.38619	0	0	-1.18347	0.137334	-0.363846	1.14626	0.0903778	0.101574	1.04071	0.546347	0	0	0.942738	0.372856	-0.0239713	0.870497	0.538901	0	0
4.3791	2.59216	-0.201203	-2.83733	0.0273699	-0.96891	0.248909	-0.057698	-0.194885	-0.395567	0.265708	-0.0723945	0	0	-0.403119	0.0243932	0.190267	0.868336	0.368695	0	0	-1.18398	0.142683	-0.359742	1.14552	0.0888602	0.101269	1.04053	0.546318	0	0	0.941765	0.373923	-0.0236264	0.870316	0.538894	0	0
4.38909	2.58477	-0.195325	-2.83721	0.0397441	-0.96924	0.250222	-0.0685052	-0.186987	-0.403495	0.277209	-0.0799092	0	0	-0.403788	0.0149318	0.187634	0.894626	0.346376	0	0	-1.18549	0.148811	-0.354302	1.14478	0.0873427	0.100965	1.04035	0.546289	0	0	0.940785	0.374987	-0.0232815	0.870132	0.538887	0	0
4.39908	2.57568	-0.18804	-2.83803	0.051947	-0.96988	0.251714	-0.0807413	-0.177473	-0.411325	0.289134	-0.0852393	0	0	-0.404467	0.00435508	0.183337	0.921877	0.319308	0	0	-1.18799	0.155569	-0.347436	1.14403	0.0858251	0.10066	1.04017	0.546261	0	0	0.939796	0.376047	-0.0229366	0.869947	0.53888	0	0
4.40907	2.56491	-0.179334	-2.83984	0.0638976	-0.97091	0.253334	-0.0943913	-0.166248	-0.418495	0.301149	-0.0880612	0	0	-0.405137	-0.00732135	0.177322	0.949887	0.28777	0	0	-1.19139	0.162769	-0.339021	1.14327	0.0843075	0.100354	1.03999	0.546232	0	0	0.938799	0.377104	-0.0225916	0.869759	0.538874	0	0
4.41906	2.55259	-0.169191	-2.84264	0.0754972	-0.972431	0.255028	-0.109386	-0.153227	-0.424459	0.312929	-0.0883004	0	0	-0.405761	-0.0200885	0.169602	0.978335	0.25228	0	0	-1.19554	0.170203	-0.328905	1.1425	0.08279	0.100049	1.03981	0.546204	0	0	0.937794	0.378158	-0.0222465	0.869569	0.538867	0	0
4.42905	2.53876	-0.157609	-2.84652	0.086629	-0.974575	0.256737	-0.12573	-0.138328	-0.428795	0.324048	-0.0860692	0	0	-0.406275	-0.0338814	0.16027	1.00697	0.213567	0	0	-1.20062	0.177587	-0.316984	1.14172	0.0812725	0.0997425	1.03962	0.546176	0	0	0.936781	0.379209	-0.0219014	0.869378	0.538861	0	0
4.43904	2.52356	-0.144623	-2.85153	0.0971598	-0.977496	0.258401	-0.143341	-0.121556	-0.43118	0.334161	-0.0816586	0	0	-0.406585	-0.048617	0.149442	1.03546	0.172579	0	0	-1.20671	0.184624	-0.303143	1.14093	0.079755	0.0994361	1.03943	0.546148	0	0	0.935759	0.380256	-0.0215562	0.869184	0.538855	0	0
4.44903	2.50772	-0.130407	-2.85773	0.107696	-0.980184	0.259962	-0.162127	-0.102973	-0.43143	0.343065	-0.0754616	0	0	-0.406631	-0.0642492	0.137242	1.06344	0.130387	0	0	-1.21383	0.191193	-0.287274	1.14013	0.0782364	0.0991301	1.03924	0.54612	0	0	0.934735	0.381301	-0.0212119	0.868988	0.538848	0	0
4.45902	2.49159	-0.115079	-2.86495	0.118268	-0.98265	0.261391	-0.181827	-0.0827934	-0.429502	0.350645	-0.0678989	0	0	-0.406237	-0.0806987	0.123805	1.09046	0.0880216	0	0	-1.22166	0.197102	-0.269344	1.13934	0.076716	0.0988244	1.03904	0.546092	0	0	0.93371	0.382343	-0.0208685	0.86879	0.538842	0	0
4.46901	2.47549	-0.0990165	-2.87296	0.128875	-0.984912	0.262664	-0.202287	-0.0615478	-0.425546	0.356812	-0.0593687	0	0	-0.405184	-0.0974989	0.109488	1.11627	0.0480699	0	0	-1.23001	0.202114	-0.249515	1.13854	0.0751927	0.0985186	1.03884	0.546065	0	0	0.932682	0.383384	-0.0205259	0.868589	0.538836	0	0
4.479	2.45977	-0.0827128	-2.88147	0.139504	-0.986979	0.263761	-0.223331	-0.0399145	-0.419895	0.361538	-0.0501981	0	0	-0.40321	-0.114061	0.0948062	1.14064	0.0128552	0	0	-1.23865	0.206054	-0.228126	1.13773	0.0736655	0.0982126	1.03863	0.546037	0	0	0.931653	0.384424	-0.0201838	0.868386	0.53883	0	0
4.48899	2.44478	-0.0667712	-2.89012	0.150132	-0.988871	0.264675	-0.244748	-0.0187102	-0.413068	0.364866	-0.0406191	0	0	-0.400018	-0.129664	0.0804276	1.16336	-0.0159252	0	0	-1.24742	0.208807	-0.205693	1.13692	0.0721333	0.0979059	1.03842	0.54601	0	0	0.930621	0.385462	-0.0198422	0.868181	0.538824	0	0
4.49898	2.4309	-0.0519007	-2.89852	0.16073	-0.990594	0.265418	-0.266261	0.00110687	-0.405729	0.366936	-0.0307569	0	0	-0.395296	-0.143463	0.0671771	1.18414	-0.0373508	0	0	-1.25607	0.210311	-0.182912	1.13609	0.0705946	0.0975981	1.03821	0.545982	0	0	0.929587	0.3865	-0.0195007	0.867973	0.538819	0	0
4.50897	2.41844	-0.0384574	-2.90634	0.171286	-0.992157	0.266008	-0.287555	0.0190672	-0.398361	0.367849	-0.0207504	0	0	-0.388749	-0.1551	0.0555559	1.20272	-0.0512225	0	0	-1.2644	0.210672	-0.160437	1.13526	0.0690483	0.0972889	1.03799	0.545955	0	0	0.928549	0.387539	-0.0191591	0.867763	0.538813	0	0
4.51896	2.40763	-0.0264344	-2.91347	0.181801	-0.993562	0.266458	-0.308296	0.0351828	-0.391123	0.367646	-0.0107744	0	0	-0.380138	-0.164703	0.0456317	1.21884	-0.0578761	0	0	-1.27221	0.210091	-0.138741	1.13442	0.0674929	0.0969776	1.03777	0.545927	0	0	0.927507	0.388578	-0.0188169	0.86755	0.538808	0	0
4.52895	2.39862	-0.015791	-2.91986	0.192277	-0.994809	0.266781	-0.328169	0.0494862	-0.384031	0.366414	-0.000962096	0	0	-0.369356	-0.172444	0.0372935	1.23216	-0.0580062	0	0	-1.27933	0.208734	-0.118183	1.13357	0.0659272	0.0966639	1.03753	0.5459	0	0	0.926462	0.389621	-0.0184734	0.867335	0.538802	0	0
4.53894	2.39145	-0.00647755	-2.92558	0.202722	-0.995896	0.267007	-0.347024	0.0619942	-0.377106	0.364298	0.00861218	0	0	-0.356518	-0.17844	0.0303789	1.24224	-0.0525725	0	0	-1.28567	0.206763	-0.0990933	1.13271	0.0643512	0.0963477	1.0373	0.545872	0	0	0.925413	0.390665	-0.0181287	0.867117	0.538797	0	0
4.54893	2.386	0.00162557	-2.9308	0.213152	-0.996832	0.267167	-0.364853	0.0727854	-0.370273	0.361462	0.0179072	0	0	-0.34199	-0.182838	0.024577	1.2486	-0.0426692	0	0	-1.29125	0.204294	-0.0815616	1.13183	0.0627652	0.096029	1.03706	0.545845	0	0	0.924359	0.391713	-0.0177828	0.866896	0.538792	0	0
4.55892	2.38208	0.00871009	-2.93574	0.223589	-0.997628	0.26728	-0.381724	0.0820133	-0.363388	0.358081	0.0269022	0	0	-0.326268	-0.185856	0.0194657	1.25078	-0.0294324	0	0	-1.29616	0.201414	-0.0655062	1.13095	0.0611703	0.0957082	1.03681	0.545817	0	0	0.923302	0.392762	-0.0174357	0.866672	0.538788	0	0
4.56891	2.37947	0.0150081	-2.94058	0.234044	-0.998287	0.267369	-0.397723	0.0898992	-0.35627	0.354335	0.0355918	0	0	-0.309869	-0.187788	0.0145693	1.24844	-0.0139776	0	0	-1.3005	0.198203	-0.0507255	1.13006	0.05957	0.0953862	1.03656	0.54579	0	0	0.922241	0.393811	-0.0170885	0.866446	0.538783	0	0
4.5789	2.37799	0.0207688	-2.94548	0.244536	-0.998827	0.267448	-0.412921	0.0967185	-0.348743	0.350412	0.0439827	0	0	-0.293264	-0.18899	0.00941365	1.24132	0.0026455	0	0	-1.30441	0.194758	-0.0369513	1.12916	0.0579686	0.0950649	1.0363	0.545762	0	0	0.921177	0.394858	-0.0167424	0.86622	0.538779	0	0
4.58889	2.3775	0.0262704	-2.95056	0.255071	-0.999261	0.267524	-0.427339	0.102771	-0.340655	0.346507	0.0520939	0	0	-0.27682	-0.18986	0.00356931	1.22932	0.0194984	0	0	-1.30796	0.191214	-0.0239079	1.12827	0.0563676	0.0947446	1.03605	0.545735	0	0	0.92011	0.395903	-0.0163977	0.865991	0.538774	0	0
4.59888	2.3779	0.0317906	-2.95586	0.265649	-0.999603	0.267606	-0.440931	0.108364	-0.331892	0.34282	0.0599556	0	0	-0.260767	-0.190801	-0.00332338	1.21244	0.0357994	0	0	-1.3112	0.187727	-0.0113311	1.12737	0.0547673	0.0944255	1.03579	0.545708	0	0	0.91904	0.396944	-0.0160546	0.865762	0.53877	0	0
4.60887	2.37912	0.0375952	-2.9614	0.276268	-0.999857	0.267694	-0.453572	0.113802	-0.322377	0.339555	0.0676049	0	0	-0.2452	-0.192209	-0.011536	1.19079	0.0509472	0	0	-1.3141	0.18447	0.00102215	1.12647	0.0531681	0.0941076	1.03553	0.545681	0	0	0.917967	0.397982	-0.0157129	0.865531	0.538766	0	0
4.61886	2.38116	0.0439291	-2.96713	0.286919	-1.00003	0.267791	-0.465079	0.119369	-0.31206	0.336918	0.0750868	0	0	-0.230087	-0.194441	-0.0212433	1.16456	0.0645271	0	0	-1.3166	0.181615	0.0133613	1.12557	0.0515701	0.0937909	1.03527	0.545655	0	0	0.91689	0.399017	-0.0153726	0.8653	0.538761	0	0
4.62885	2.38408	0.051002	-2.97299	0.297601	-1.00012	0.267898	-0.475247	0.12532	-0.300925	0.335108	0.0824603	0	0	-0.215312	-0.197793	-0.0325186	1.13403	0.0762811	0	0	-1.3186	0.17933	0.025859	1.12467	0.0499734	0.0934755	1.03501	0.545628	0	0	0.915809	0.40005	-0.0150339	0.865069	0.538757	0	0
4.63884	2.38794	0.0589764	-2.97893	0.308302	-1.00013	0.268014	-0.483908	0.131855	-0.288991	0.334297	0.0898033	0	0	-0.200725	-0.202471	-0.0453241	1.09951	0.0860663	0	0	-1.31998	0.177762	0.038648	1.12377	0.0483778	0.0931615	1.03475	0.545602	0	0	0.914724	0.401079	-0.0146967	0.864837	0.538753	0	0
4.64883	2.39279	0.0679596	-2.98489	0.31902	-1.00005	0.26814	-0.491001	0.139122	-0.276307	0.334597	0.0972139	0	0	-0.186205	-0.208575	-0.0595158	1.06133	0.0938278	0	0	-1.32066	0.177029	0.0518324	1.12287	0.0467835	0.0928489	1.03449	0.545576	0	0	0.913632	0.402106	-0.0143614	0.864604	0.538749	0	0
4.65882	2.39862	0.0780139	-2.99086	0.329762	-0.999893	0.268281	-0.496605	0.147208	-0.262936	0.336014	0.104804	0	0	-0.17171	-0.216096	-0.0748583	1.01988	0.0995822	0	0	-1.32059	0.177214	0.0655088	1.12198	0.0451909	0.092538	1.03423	0.54555	0	0	0.912534	0.403129	-0.0140279	0.864371	0.538746	0	0
4.66881	2.40534	0.0891636	-2.99686	0.340534	-0.999647	0.268447	-0.500896	0.156154	-0.248947	0.3384	0.112691	0	0	-0.157339	-0.224924	-0.0910313	0.975594	0.103399	0	0	-1.31984	0.178353	0.0797814	1.12108	0.0435997	0.0922286	1.03398	0.545525	0	0	0.911431	0.404149	-0.0136963	0.864136	0.538742	0	0
4.67881	2.41284	0.101394	-3.00295	0.351353	-0.999313	0.268636	-0.504087	0.165948	-0.234347	0.34162	0.120968	0	0	-0.143202	-0.234934	-0.107733	0.928915	0.105449	0	0	-1.31845	0.180415	0.0947823	1.12019	0.0420096	0.0919206	1.03372	0.5455	0	0	0.910322	0.405166	-0.0133663	0.863902	0.538738	0	0
4.6888	2.42102	0.114642	-3.00915	0.362229	-0.99888	0.268846	-0.506399	0.176526	-0.219148	0.345558	0.129711	0	0	-0.129386	-0.245969	-0.124626	0.880326	0.105982	0	0	-1.31652	0.183335	0.110603	1.11929	0.0404201	0.0916138	1.03346	0.545475	0	0	0.909208	0.406182	-0.0130378	0.863667	0.538734	0	0
4.69879	2.42977	0.128797	-3.01548	0.373169	-0.998339	0.269068	-0.50804	0.187778	-0.203396	0.35012	0.13898	0	0	-0.115949	-0.257842	-0.141325	0.830353	0.1053	0	0	-1.31412	0.187044	0.12726	1.1184	0.0388302	0.0913079	1.0332	0.54545	0	0	0.908091	0.407196	-0.0127105	0.863431	0.538731	0	0
4.70878	2.43898	0.143689	-3.02197	0.384184	-0.997677	0.269301	-0.509192	0.199561	-0.187182	0.355249	0.148823	0	0	-0.102904	-0.270349	-0.157414	0.779568	0.103743	0	0	-1.31131	0.19148	0.144675	1.1175	0.0372364	0.0910016	1.03294	0.545425	0	0	0.90697	0.408211	-0.0123834	0.863196	0.538728	0	0
4.71877	2.44854	0.159163	-3.02862	0.395279	-0.996883	0.269546	-0.510013	0.211689	-0.170644	0.360915	0.159274	0	0	-0.0902497	-0.283253	-0.172453	0.728573	0.101659	0	0	-1.30817	0.196569	0.162687	1.11659	0.0356342	0.0906932	1.03268	0.5454	0	0	0.905846	0.409229	-0.0120549	0.862959	0.538724	0	0
4.72876	2.45837	0.17501	-3.03541	0.40646	-0.995942	0.269804	-0.510624	0.223944	-0.153956	0.367119	0.170357	0	0	-0.077981	-0.296319	-0.186006	0.677995	0.0993729	0	0	-1.30476	0.20221	0.181097	1.11568	0.0340237	0.0903826	1.03241	0.545376	0	0	0.904721	0.410251	-0.011725	0.862722	0.538721	0	0
4.73875	2.46837	0.190988	-3.04234	0.417735	-0.994841	0.27007	-0.511112	0.236088	-0.137326	0.373893	0.182089	0	0	-0.0661001	-0.309311	-0.197666	0.628461	0.0971501	0	0	-1.30112	0.208284	0.199665	1.11475	0.0324053	0.0900696	1.03214	0.545351	0	0	0.903594	0.411275	-0.0113936	0.862483	0.538719	0	0
4.74874	2.47842	0.206844	-3.04941	0.42911	-0.993576	0.270333	-0.511537	0.247857	-0.120977	0.381295	0.194474	0	0	-0.0546394	-0.321993	-0.207086	0.580568	0.0951655	0	0	-1.2973	0.214651	0.218132	1.11382	0.0307789	0.0897545	1.03187	0.545326	0	0	0.902466	0.412302	-0.0110606	0.862243	0.538716	0	0
4.75873	2.48841	0.222322	-3.05665	0.440576	-0.992128	0.270594	-0.511937	0.25898	-0.105138	0.389402	0.207501	0	0	-0.0436681	-0.334134	-0.214001	0.534875	0.0934894	0	0	-1.29338	0.22114	0.236229	1.11287	0.0291452	0.0894371	1.03159	0.545301	0	0	0.901336	0.413333	-0.010726	0.862002	0.538714	0	0
4.76872	2.4982	0.237172	-3.0641	0.452126	-0.990488	0.270848	-0.51233	0.269181	-0.0900247	0.398307	0.221124	0	0	-0.0332972	-0.345511	-0.21825	0.491872	0.0920851	0	0	-1.28945	0.227565	0.253699	1.11192	0.0275042	0.0891176	1.0313	0.545277	0	0	0.900205	0.414366	-0.0103899	0.861761	0.538712	0	0
4.77871	2.50765	0.251155	-3.07176	0.463747	-0.988654	0.271095	-0.512719	0.278203	-0.0758274	0.408114	0.235258	0	0	-0.0236717	-0.355919	-0.219805	0.451981	0.0908174	0	0	-1.28561	0.233734	0.270302	1.11096	0.0258561	0.0887961	1.03102	0.545252	0	0	0.899073	0.415401	-0.0100524	0.861518	0.53871	0	0
4.7887	2.5166	0.264066	-3.07966	0.475425	-0.98662	0.27133	-0.513097	0.285833	-0.0626795	0.418934	0.249773	0	0	-0.0149595	-0.365189	-0.218795	0.415557	0.0894733	0	0	-1.28201	0.239458	0.285828	1.10998	0.024201	0.0884725	1.03073	0.545227	0	0	0.897938	0.416439	-0.00971337	0.861275	0.538709	0	0
4.79869	2.52485	0.275741	-3.08778	0.48713	-0.984381	0.271554	-0.513443	0.291912	-0.0506405	0.430888	0.264484	0	0	-0.00734146	-0.373192	-0.215523	0.382877	0.0877934	0	0	-1.27883	0.244575	0.300112	1.109	0.0225391	0.0881469	1.03043	0.545203	0	0	0.896802	0.41748	-0.00937287	0.861032	0.538708	0	0
4.80868	2.53226	0.286069	-3.09612	0.498847	-0.981922	0.271763	-0.513737	0.296355	-0.0396895	0.444036	0.279197	0	0	-0.00092867	-0.37989	-0.210484	0.354228	0.085499	0	0	-1.27612	0.248947	0.313005	1.10802	0.0208706	0.0878194	1.03014	0.545178	0	0	0.895662	0.418525	-0.00903075	0.860788	0.538707	0	0
4.81867	2.53879	0.294986	-3.10474	0.51057	-0.979219	0.27194	-0.513962	0.299145	-0.0297187	0.458364	0.293693	0	0	0.00425136	-0.385327	-0.204356	0.329891	0.0823159	0	0	-1.27379	0.252455	0.324392	1.10702	0.0191956	0.0874899	1.02984	0.545154	0	0	0.89452	0.419573	-0.00868683	0.860544	0.538706	0	0
4.82866	2.54483	0.302574	-3.11348	0.522567	-0.976625	0.272308	-0.514189	0.300316	-0.0205333	0.473815	0.30772	0	0	0.00817061	-0.38965	-0.197943	0.310181	0.0779887	0	0	-1.27168	0.254866	0.334218	1.10602	0.0175231	0.0871606	1.02954	0.54513	0	0	0.893373	0.420617	-0.00834336	0.860299	0.538706	0	0
4.83865	2.55036	0.308902	-3.12225	0.534744	-0.974203	0.272817	-0.514409	0.300036	-0.0118917	0.490315	0.320927	0	0	0.0109003	-0.393017	-0.19209	0.295236	0.0723148	0	0	-1.26983	0.256135	0.342544	1.10502	0.015853	0.0868316	1.02924	0.545105	0	0	0.892222	0.421657	-0.00800035	0.860053	0.538705	0	0
4.84864	2.5554	0.314116	-3.13088	0.547022	-0.972001	0.273423	-0.514619	0.298623	-0.00355999	0.507727	0.332899	0	0	0.0126123	-0.395693	-0.187519	0.285121	0.0651186	0	0	-1.26822	0.256322	0.34949	1.10401	0.0141853	0.0865028	1.02894	0.545081	0	0	0.891066	0.422692	-0.00765779	0.859806	0.538705	0	0
4.85863	2.55997	0.318331	-3.13916	0.559344	-0.970056	0.274089	-0.514816	0.296375	0.00461765	0.525903	0.343183	0	0	0.0134881	-0.397893	-0.184774	0.279758	0.0562311	0	0	-1.26682	0.255505	0.355178	1.103	0.01252	0.0861741	1.02864	0.545058	0	0	0.889906	0.423723	-0.00731567	0.859558	0.538704	0	0
4.86862	2.56403	0.321558	-3.14695	0.571666	-0.968396	0.274789	-0.515	0.293434	0.0126671	0.544772	0.351306	0	0	0.0136131	-0.399658	-0.184206	0.278852	0.0454958	0	0	-1.26557	0.253704	0.359682	1.10198	0.0108568	0.0858457	1.02833	0.545034	0	0	0.888743	0.42475	-0.00697396	0.859309	0.538704	0	0
4.87861	2.56746	0.323679	-3.15414	0.58396	-0.967042	0.275501	-0.515174	0.289727	0.0204648	0.56438	0.356794	0	0	0.012931	-0.40082	-0.185968	0.281891	0.0328279	0	0	-1.26449	0.25085	0.362983	1.10095	0.00919582	0.0855174	1.02803	0.54501	0	0	0.887575	0.425773	-0.00663264	0.859058	0.538704	0	0
4.8886	2.57009	0.324473	-3.16069	0.596211	-0.96601	0.276216	-0.515343	0.285007	0.0277415	0.584866	0.359177	0	0	0.0112659	-0.401034	-0.190009	0.288195	0.0183324	0	0	-1.26364	0.246806	0.364974	1.09992	0.00753692	0.0851893	1.02772	0.544987	0	0	0.886403	0.426792	-0.00629171	0.858807	0.538704	0	0
4.89859	2.5717	0.323655	-3.16661	0.608411	-0.965308	0.276931	-0.515516	0.278902	0.0341059	0.60643	0.357999	0	0	0.00835518	-0.399835	-0.196067	0.296992	0.00242819	0	0	-1.26312	0.241412	0.365476	1.09889	0.00588008	0.0848613	1.02742	0.544964	0	0	0.885228	0.427808	-0.00595117	0.858554	0.538704	0	0
4.90858	2.57207	0.320983	-3.17184	0.620557	-0.964939	0.277651	-0.515703	0.271099	0.0391233	0.629231	0.352813	0	0	0.00396334	-0.396801	-0.203676	0.307558	-0.0140986	0	0	-1.26305	0.234583	0.364287	1.09785	0.00422528	0.0845335	1.02711	0.54494	0	0	0.884048	0.42882	-0.00561101	0.858301	0.538705	0	0
4.91857	2.57105	0.316313	-3.17629	0.63265	-0.964898	0.278387	-0.515918	0.261426	0.0423973	0.653343	0.343196	0	0	-0.00207416	-0.391636	-0.21224	0.319285	-0.0302336	0	0	-1.26353	0.226358	0.361234	1.09681	0.00257248	0.0842059	1.0268	0.544917	0	0	0.882866	0.429828	-0.00527123	0.858047	0.538705	0	0
4.92856	2.5685	0.309625	-3.17982	0.64469	-0.965177	0.279153	-0.516173	0.249877	0.0436453	0.678768	0.32879	0	0	-0.00986871	-0.38419	-0.221134	0.331671	-0.0449898	0	0	-1.26466	0.216903	0.356211	1.09576	0.000921658	0.0838785	1.02649	0.544895	0	0	0.881679	0.430833	-0.00493181	0.857791	0.538705	0	0
4.93855	2.56435	0.301002	-3.18228	0.656676	-0.965761	0.279968	-0.516478	0.236585	0.042733	0.705432	0.309353	0	0	-0.0194946	-0.37445	-0.229762	0.34427	-0.0575631	0	0	-1.26659	0.206487	0.349191	1.09471	-0.000727226	0.0835512	1.02618	0.544872	0	0	0.880489	0.431834	-0.00459275	0.857535	0.538706	0	0
4.94854	2.55858	0.290621	-3.18355	0.668605	-0.966628	0.280849	-0.516842	0.221784	0.0396837	0.733166	0.284828	0	0	-0.0309915	-0.362511	-0.237603	0.356674	-0.0673945	0	0	-1.26942	0.195438	0.340204	1.09366	-0.0023742	0.0832241	1.02586	0.544849	0	0	0.879296	0.432831	-0.00425406	0.857278	0.538707	0	0
4.95853	2.55122	0.278715	-3.18357	0.68047	-0.967755	0.281816	-0.517263	0.205771	0.0346679	0.761714	0.255409	0	0	-0.044378	-0.348555	-0.244253	0.368498	-0.0741836	0	0	-1.27323	0.184107	0.329333	1.0926	-0.0040193	0.0828972	1.02555	0.544827	0	0	0.8781	0.433826	-0.00391571	0.85702	0.538707	0	0
4.96852	2.54236	0.265562	-3.18232	0.692264	-0.969115	0.282883	-0.517732	0.188873	0.0279797	0.790733	0.221593	0	0	-0.0596491	-0.332834	-0.249459	0.379397	-0.0778856	0	0	-1.27807	0.172835	0.316696	1.09153	-0.00566255	0.0825704	1.02524	0.544805	0	0	0.8769	0.434817	-0.00357771	0.856762	0.538708	0	0
4.97851	2.53217	0.251464	-3.17988	0.703975	-0.970679	0.284063	-0.51822	0.171435	0.0200015	0.819804	0.184225	0	0	-0.0767641	-0.315665	-0.253116	0.389088	-0.0786869	0	0	-1.2839	0.16193	0.302436	1.09047	-0.00730399	0.0822438	1.02492	0.544783	0	0	0.875698	0.435805	-0.00324006	0.856502	0.538709	0	0
4.9885	2.52082	0.236735	-3.17637	0.71559	-0.972416	0.285364	-0.518678	0.153794	0.0111545	0.848461	0.144517	0	0	-0.0956393	-0.297407	-0.255247	0.397362	-0.0769419	0	0	-1.29064	0.151655	0.286724	1.0894	-0.00894364	0.0819173	1.0246	0.544761	0	0	0.874492	0.43679	-0.00290274	0.856242	0.538711	0	0
4.99849	2.50859	0.221679	-3.17195	0.727098	-0.974296	0.286786	-0.519029	0.136267	0.001841	0.876189	0.104032	0	0	-0.116101	-0.278451	-0.255951	0.404128	-0.0730902	0	0	-1.29804	0.142219	0.269742	1.08832	-0.0105815	0.0815911	1.02429	0.544739	0	0	0.873284	0.437772	-0.00256575	0.855981	0.538712	0	0
5.00848	2.49572	0.206585	-3.16681	0.738485	-0.97629	0.288326	-0.519162	0.119148	-0.00761448	0.902567	0.0645694	0	0	-0.137981	-0.259172	-0.255353	0.409324	-0.0675772	0	0	-1.30599	0.133804	0.251726	1.08725	-0.0122177	0.0812649	1.02397	0.544718	0	0	0.872073	0.438751	-0.00222908	0.85572	0.538713	0	0
5.01847	2.48242	0.191721	-3.16105	0.749738	-0.978369	0.289971	-0.518926	0.102716	-0.0169996	0.927293	0.027985	0	0	-0.161106	-0.239923	-0.253559	0.412912	-0.060818	0	0	-1.31445	0.126575	0.232942	1.08617	-0.0138522	0.080939	1.02365	0.544696	0	0	0.870859	0.439727	-0.00189274	0.855458	0.538715	0	0
5.02846	2.46897	0.177304	-3.15482	0.760846	-0.980507	0.291704	-0.518128	0.0871888	-0.0261969	0.950042	-0.00402594	0	0	-0.185169	-0.22103	-0.250649	0.414984	-0.0531869	0	0	-1.32322	0.12063	0.213632	1.08508	-0.015485	0.0806131	1.02333	0.544675	0	0	0.869642	0.4407	-0.00155671	0.855195	0.538716	0	0
5.03845	2.45568	0.163512	-3.14824	0.771798	-0.982678	0.293502	-0.516531	0.0727657	-0.0351386	0.970545	-0.0301697	0	0	-0.209817	-0.202783	-0.246709	0.415669	-0.0449922	0	0	-1.33206	0.116019	0.194031	1.084	-0.0171162	0.0802875	1.02301	0.544654	0	0	0.868424	0.44167	-0.00122099	0.854931	0.538718	0	0
5.04844	2.44285	0.150482	-3.14142	0.782589	-0.984857	0.295335	-0.513862	0.0596211	-0.0437741	0.988577	-0.0497324	0	0	-0.234652	-0.185429	-0.24182	0.415119	-0.0364732	0	0	-1.34077	0.112741	0.174359	1.08291	-0.0187457	0.079962	1.02269	0.544633	0	0	0.867202	0.442638	-0.000885578	0.854667	0.53872	0	0
5.05843	2.43084	0.138314	-3.13445	0.793212	-0.987022	0.297173	-0.509825	0.0478952	-0.0520521	1.00393	-0.0626104	0	0	-0.259231	-0.169174	-0.236084	0.413497	-0.027804	0	0	-1.34909	0.110738	0.15482	1.08181	-0.0203737	0.0796367	1.02237	0.544612	0	0	0.865979	0.443603	-0.000550464	0.854402	0.538722	0	0
5.06842	2.41998	0.127078	-3.12746	0.803666	-0.989149	0.29898	-0.504124	0.0376757	-0.0599204	1.01643	-0.0691763	0	0	-0.283103	-0.154172	-0.229632	0.410959	-0.0191057	0	0	-1.35679	0.109893	0.135616	1.08072	-0.0220003	0.0793115	1.02205	0.544591	0	0	0.864753	0.444566	-0.000215611	0.854137	0.538724	0	0
5.07841	2.41058	0.116824	-3.1206	0.813952	-0.991217	0.300725	-0.4965	0.0289745	-0.0673341	1.02592	-0.0700914	0	0	-0.305842	-0.14053	-0.222642	0.40765	-0.0104597	0	0	-1.36363	0.110028	0.11696	1.07962	-0.0236256	0.0789864	1.02172	0.54457	0	0	0.863525	0.445526	0.000118985	0.853871	0.538726	0	0
5.0884	2.40291	0.107597	-3.11404	0.824076	-0.993206	0.302374	-0.486784	0.0216996	-0.0742778	1.03222	-0.0661545	0	0	-0.3271	-0.128304	-0.215348	0.403705	-0.00191773	0	0	-1.36942	0.11091	0.099104	1.07852	-0.0252495	0.0786614	1.0214	0.54455	0	0	0.862295	0.446484	0.000453328	0.853605	0.538728	0	0
5.09839	2.39705	0.0994043	-3.10794	0.834044	-0.995094	0.3039	-0.474972	0.0157182	-0.0807158	1.03511	-0.0582667	0	0	-0.346716	-0.117484	-0.208056	0.399268	0.00649527	0	0	-1.37406	0.112238	0.0823592	1.07742	-0.0268721	0.0783366	1.02107	0.544529	0	0	0.861062	0.44744	0.000787424	0.853338	0.53873	0	0
5.10838	2.39291	0.0921409	-3.10237	0.84387	-0.996863	0.305279	-0.461318	0.0108156	-0.0867533	1.03432	-0.0473808	0	0	-0.364708	-0.107953	-0.200947	0.394474	0.0147606	0	0	-1.37755	0.11376	0.0668177	1.07631	-0.0284934	0.0780119	1.02075	0.544509	0	0	0.859828	0.448394	0.00112128	0.85307	0.538733	0	0
5.11837	2.39031	0.0856072	-3.09732	0.853565	-0.998496	0.306494	-0.446226	0.00669727	-0.0926126	1.02958	-0.0344485	0	0	-0.381196	-0.0994976	-0.194085	0.389457	0.0228638	0	0	-1.37999	0.115261	0.0524012	1.0752	-0.0301134	0.0776873	1.02042	0.544489	0	0	0.858591	0.449345	0.00145489	0.852803	0.538735	0	0
5.12836	2.38899	0.0795345	-3.09273	0.863146	-0.999973	0.307531	-0.430155	0.00300228	-0.09859	1.02071	-0.0203795	0	0	-0.396345	-0.0918374	-0.187443	0.384349	0.030798	0	0	-1.38152	0.11655	0.0389141	1.07409	-0.0317322	0.0773628	1.0201	0.544469	0	0	0.857353	0.450294	0.00178827	0.852534	0.538738	0	0
5.13835	2.38874	0.073593	-3.08853	0.872631	-1.00128	0.308385	-0.413538	-0.000688526	-0.105033	1.00761	-0.00600084	0	0	-0.410305	-0.0846318	-0.180907	0.379295	0.0385652	0	0	-1.38228	0.11746	0.0260743	1.07298	-0.0333498	0.0770384	1.01977	0.544449	0	0	0.856113	0.451242	0.00212141	0.852266	0.53874	0	0
5.14834	2.38935	0.0674264	-3.08463	0.882037	-1.0024	0.309055	-0.396719	-0.00481757	-0.112284	0.990286	0.00797213	0	0	-0.423173	-0.0775162	-0.174315	0.374452	0.0461818	0	0	-1.38238	0.117834	0.013567	1.07187	-0.0349662	0.0767142	1.01944	0.544429	0	0	0.854871	0.452187	0.00245433	0.851996	0.538743	0	0
5.15833	2.39073	0.0606831	-3.08096	0.891385	-1.00331	0.309544	-0.379923	-0.00981494	-0.120643	0.96884	0.0209498	0	0	-0.434973	-0.0701326	-0.167489	0.369994	0.0536803	0	0	-1.38191	0.117528	0.00108394	1.07075	-0.0365815	0.0763901	1.01912	0.544409	0	0	0.853628	0.45313	0.00278703	0.851727	0.538746	0	0
5.16833	2.39281	0.0530408	-3.07747	0.900694	-1.004	0.309859	-0.363256	-0.016063	-0.130343	0.943476	0.0324608	0	0	-0.44566	-0.0621563	-0.160247	0.366111	0.0611086	0	0	-1.38088	0.116415	-0.0116516	1.06963	-0.0381956	0.076066	1.01879	0.54439	0	0	0.852383	0.454072	0.00311951	0.851457	0.538749	0	0
5.17832	2.39562	0.0442279	-3.07411	0.909982	-1.00447	0.310008	-0.346727	-0.0238668	-0.14152	0.914466	0.0421402	0	0	-0.455146	-0.0533163	-0.152415	0.362993	0.0685284	0	0	-1.37931	0.114391	-0.0248635	1.06851	-0.0398086	0.0757421	1.01846	0.544371	0	0	0.851136	0.455012	0.00345178	0.851187	0.538752	0	0
5.18831	2.39921	0.0340378	-3.07083	0.919271	-1.0047	0.310001	-0.330282	-0.0334274	-0.154208	0.882145	0.0497118	0	0	-0.463344	-0.0434113	-0.143836	0.360815	0.0760141	0	0	-1.37715	0.111381	-0.0387192	1.06739	-0.0414205	0.0754184	1.01813	0.544351	0	0	0.849888	0.45595	0.00378384	0.850916	0.538755	0	0
5.1983	2.40361	0.0223429	-3.0676	0.92858	-1.00468	0.309846	-0.313858	-0.0448215	-0.168318	0.846886	0.0549683	0	0	-0.47022	-0.0323226	-0.134382	0.359708	0.0836533	0	0	-1.37439	0.107342	-0.0533301	1.06626	-0.0430314	0.0750947	1.0178	0.544332	0	0	0.848639	0.456886	0.00411569	0.850645	0.538759	0	0
5.20829	2.40884	0.00909847	-3.06434	0.937927	-1.00442	0.309551	-0.297431	-0.0579878	-0.183643	0.809095	0.0577626	0	0	-0.475855	-0.0200187	-0.123956	0.359718	0.0915419	0	0	-1.37102	0.102273	-0.0687656	1.06514	-0.0446411	0.0747712	1.01747	0.544313	0	0	0.847388	0.45782	0.00444733	0.850374	0.538762	0	0
5.21828	2.41479	-0.0056741	-3.061	0.947331	-1.00392	0.309123	-0.281076	-0.0727416	-0.19987	0.769211	0.0580079	0	0	-0.480397	-0.00653991	-0.112485	0.360757	0.0997765	0	0	-1.36709	0.0962198	-0.0850832	1.06401	-0.0462499	0.0744477	1.01714	0.544294	0	0	0.846136	0.458753	0.00477878	0.850102	0.538766	0	0
5.22827	2.42135	-0.0218854	-3.05747	0.956808	-1.00318	0.308567	-0.264875	-0.0888682	-0.216692	0.727683	0.055743	0	0	-0.484027	0.00800528	-0.0998845	0.362737	0.108442	0	0	-1.36266	0.0892931	-0.102378	1.06288	-0.0478577	0.0741244	1.01681	0.544275	0	0	0.844882	0.459685	0.00511004	0.849831	0.538769	0	0
5.23826	2.42843	-0.0393677	-3.05367	0.966372	-1.00221	0.307887	-0.248899	-0.106108	-0.233766	0.684976	0.051136	0	0	-0.48693	0.0234381	-0.08613	0.365581	0.117614	0	0	-1.35782	0.0816392	-0.120701	1.06175	-0.0494645	0.0738012	1.01648	0.544257	0	0	0.843628	0.460615	0.00544111	0.849559	0.538773	0	0
5.24825	2.43592	-0.0578865	-3.04956	0.976036	-1.00104	0.307085	-0.233201	-0.124162	-0.250704	0.641562	0.044476	0	0	-0.48928	0.0395204	-0.07128	0.369233	0.127363	0	0	-1.35264	0.0734166	-0.140024	1.06062	-0.0510703	0.0734781	1.01615	0.544238	0	0	0.842373	0.461543	0.00577199	0.849286	0.538777	0	0
5.25824	2.44371	-0.077157	-3.04511	0.985808	-0.999683	0.306165	-0.217824	-0.14271	-0.267081	0.597928	0.0361438	0	0	-0.491229	0.0559735	-0.0554796	0.373669	0.137748	0	0	-1.3472	0.0647856	-0.160225	1.05948	-0.0526752	0.0731551	1.01582	0.54422	0	0	0.841116	0.462471	0.00610269	0.849014	0.538781	0	0
5.26823	2.45172	-0.0968622	-3.04032	0.995695	-0.998159	0.305129	-0.202798	-0.16143	-0.28246	0.554574	0.0265767	0	0	-0.492905	0.0724947	-0.0389466	0.378888	0.148822	0	0	-1.34159	0.0559025	-0.181101	1.05835	-0.0542793	0.0728322	1.01549	0.544201	0	0	0.839859	0.463396	0.00643324	0.848741	0.538785	0	0
5.27822	2.45986	-0.116677	-3.0352	1.0057	-0.996487	0.303981	-0.188154	-0.180012	-0.296417	0.512002	0.0162259	0	0	-0.494407	0.0887739	-0.0219544	0.384914	0.160624	0	0	-1.33586	0.0469171	-0.202385	1.05721	-0.0558827	0.0725093	1.01516	0.544183	0	0	0.8386	0.464321	0.00676365	0.848468	0.538789	0	0
5.28821	2.46803	-0.136284	-3.0298	1.01582	-0.994686	0.302727	-0.173941	-0.198174	-0.308566	0.470699	0.00553655	0	0	-0.495811	0.104512	-0.00480911	0.391784	0.173178	0	0	-1.33011	0.0379738	-0.223771	1.05608	-0.0574853	0.0721866	1.01483	0.544165	0	0	0.837341	0.465245	0.00709392	0.848195	0.538793	0	0
5.2982	2.47615	-0.1554	-3.02414	1.02606	-0.992779	0.301374	-0.160225	-0.215675	-0.318596	0.431133	-0.0050531	0	0	-0.497169	0.119436	0.0121813	0.399544	0.186482	0	0	-1.32442	0.0292149	-0.244941	1.05494	-0.0590873	0.0718639	1.0145	0.544147	0	0	0.83608	0.466167	0.00742405	0.847922	0.538797	0	0
5.30819	2.48414	-0.173788	-3.01825	1.03641	-0.990788	0.299935	-0.147097	-0.232325	-0.326294	0.393742	-0.0151221	0	0	-0.498517	0.133309	0.0287402	0.40824	0.200499	0	0	-1.31886	0.0207831	-0.265587	1.0538	-0.0606885	0.0715413	1.01416	0.544129	0	0	0.834819	0.467088	0.00775405	0.847648	0.538801	0	0
5.31818	2.49192	-0.191254	-3.01215	1.04686	-0.988738	0.298424	-0.134681	-0.247979	-0.331553	0.358905	-0.0243034	0	0	-0.499873	0.145941	0.044641	0.417921	0.215151	0	0	-1.31357	0.0128192	-0.285442	1.05266	-0.0622891	0.0712187	1.01383	0.544111	0	0	0.833557	0.468009	0.00808392	0.847375	0.538805	0	0
5.32817	2.49939	-0.20765	-3.00586	1.05741	-0.986654	0.296856	-0.123131	-0.26253	-0.334373	0.326937	-0.032329	0	0	-0.501249	0.157187	0.0597152	0.428641	0.23031	0	0	-1.30867	0.00545391	-0.304285	1.05152	-0.0638891	0.0708963	1.0135	0.544093	0	0	0.832295	0.468928	0.00841366	0.847101	0.53881	0	0
5.33816	2.50646	-0.222868	-2.99945	1.06806	-0.984562	0.295252	-0.112622	-0.2759	-0.334875	0.298091	-0.0390555	0	0	-0.502645	0.166956	0.0738591	0.440464	0.245804	0	0	-1.30436	-0.00120403	-0.321943	1.05038	-0.0654884	0.0705739	1.01317	0.544075	0	0	0.831031	0.469846	0.00874328	0.846827	0.538814	0	0
5.34815	2.51308	-0.23685	-2.99292	1.07881	-0.98249	0.293633	-0.103269	-0.288063	-0.3333	0.272621	-0.0444777	0	0	-0.504058	0.175199	0.0870134	0.453388	0.261455	0	0	-1.30065	-0.00705431	-0.338264	1.04923	-0.0670871	0.0702516	1.01283	0.544058	0	0	0.829767	0.470764	0.00907278	0.846553	0.538819	0	0
5.35814	2.51928	-0.249578	-2.98625	1.08965	-0.980465	0.29202	-0.0951168	-0.299034	-0.330032	0.250795	-0.0487211	0	0	-0.505484	0.181888	0.0991559	0.467332	0.277081	0	0	-1.29737	-0.011989	-0.353115	1.04809	-0.0686851	0.0699293	1.0125	0.54404	0	0	0.828502	0.47168	0.00940215	0.846279	0.538824	0	0
5.36813	2.52504	-0.261032	-2.97946	1.10058	-0.978514	0.290437	-0.0882325	-0.308819	-0.325586	0.232771	-0.0520087	0	0	-0.506914	0.187033	0.110327	0.48225	0.292424	0	0	-1.29449	-0.0159253	-0.366432	1.04695	-0.0702826	0.0696071	1.01217	0.544023	0	0	0.827237	0.472596	0.00973141	0.846004	0.538828	0	0
5.37812	2.53038	-0.271217	-2.97259	1.11161	-0.976665	0.288903	-0.0826437	-0.317444	-0.320526	0.218646	-0.0546711	0	0	-0.508343	0.190671	0.120597	0.498074	0.307202	0	0	-1.29188	-0.0188096	-0.37817	1.0458	-0.0718795	0.069285	1.01183	0.544005	0	0	0.825971	0.47351	0.0100606	0.84573	0.538833	0	0
5.38811	2.53521	-0.280115	-2.96574	1.12276	-0.974945	0.287437	-0.0784229	-0.32489	-0.315465	0.208354	-0.0571008	0	0	-0.509765	0.192872	0.130067	0.514807	0.32104	0	0	-1.28967	-0.0206376	-0.38835	1.04466	-0.0734759	0.068963	1.0115	0.543988	0	0	0.824705	0.474424	0.0103896	0.845456	0.538838	0	0
5.3981	2.53949	-0.287717	-2.95907	1.13401	-0.973382	0.286054	-0.0756008	-0.331147	-0.310947	0.201749	-0.0597607	0	0	-0.511177	0.19372	0.138812	0.532426	0.333549	0	0	-1.2879	-0.0214383	-0.396987	1.04351	-0.0750717	0.0686411	1.01117	0.543971	0	0	0.823438	0.475338	0.0107185	0.845181	0.538843	0	0
5.40809	2.54317	-0.294014	-2.95268	1.1454	-0.972001	0.284766	-0.0741734	-0.336195	-0.30744	0.198612	-0.06314	0	0	-0.512576	0.193282	0.14685	0.550894	0.344311	0	0	-1.28655	-0.0212507	-0.404087	1.04236	-0.076667	0.0683192	1.01083	0.543954	0	0	0.822171	0.47625	0.0110473	0.844906	0.538848	0	0
5.41808	2.54621	-0.298988	-2.9467	1.15691	-0.970826	0.283582	-0.0741145	-0.34	-0.305311	0.198658	-0.0677057	0	0	-0.513964	0.191604	0.154137	0.570166	0.352883	0	0	-1.28556	-0.0201156	-0.409648	1.04121	-0.0782617	0.0679973	1.0105	0.543937	0	0	0.820903	0.477162	0.0113761	0.844632	0.538853	0	0
5.42807	2.54858	-0.30262	-2.94123	1.16857	-0.969878	0.282506	-0.0753806	-0.342522	-0.304805	0.201539	-0.0738408	0	0	-0.515344	0.188711	0.160576	0.590199	0.358789	0	0	-1.28483	-0.0180703	-0.41366	1.04007	-0.079856	0.0676756	1.01017	0.54392	0	0	0.819635	0.478073	0.0117047	0.844357	0.538858	0	0
5.43806	2.55023	-0.304879	-2.93633	1.18037	-0.969174	0.281536	-0.0779193	-0.343706	-0.306019	0.206866	-0.0817735	0	0	-0.51672	0.184597	0.166014	0.610952	0.361535	0	0	-1.28425	-0.0151438	-0.416104	1.03892	-0.0814497	0.0673539	1.00983	0.543903	0	0	0.818367	0.478984	0.0120332	0.844082	0.538864	0	0
5.44805	2.55111	-0.305725	-2.93208	1.19232	-0.968727	0.280667	-0.0816712	-0.343486	-0.308884	0.214241	-0.0914798	0	0	-0.518099	0.179232	0.170262	0.632375	0.360617	0	0	-1.28366	-0.0113569	-0.416944	1.03777	-0.083043	0.0670323	1.0095	0.543886	0	0	0.817098	0.479894	0.0123616	0.843808	0.538869	0	0
5.45804	2.55117	-0.305112	-2.92852	1.20441	-0.968545	0.279891	-0.0865863	-0.341788	-0.31315	0.223273	-0.102577	0	0	-0.519489	0.172568	0.173107	0.654433	0.355536	0	0	-1.28294	-0.00672856	-0.416136	1.03662	-0.0846359	0.0667107	1.00917	0.543869	0	0	0.81583	0.480803	0.01269	0.843533	0.538874	0	0
5.46803	2.55022	-0.302969	-2.92582	1.21665	-0.968629	0.279194	-0.09275	-0.338465	-0.318435	0.233485	-0.114264	0	0	-0.520899	0.164588	0.174367	0.677226	0.345777	0	0	-1.2824	-0.00133478	-0.413703	1.03547	-0.0862284	0.0663892	1.00883	0.543853	0	0	0.814561	0.481712	0.0130182	0.843258	0.53888	0	0
5.47802	2.54807	-0.29924	-2.92416	1.229	-0.968974	0.27856	-0.100241	-0.333389	-0.324186	0.244468	-0.125527	0	0	-0.522336	0.155292	0.173864	0.700824	0.330931	0	0	-1.28232	0.00471291	-0.409637	1.03432	-0.0878206	0.0660678	1.0085	0.543836	0	0	0.813292	0.482621	0.0133465	0.842983	0.538885	0	0
5.48801	2.54461	-0.293885	-2.92368	1.24147	-0.969567	0.277969	-0.109115	-0.326459	-0.329816	0.25588	-0.135412	0	0	-0.523805	0.144693	0.17146	0.72523	0.310734	0	0	-1.28292	0.011283	-0.40391	1.03317	-0.0894126	0.0657463	1.00816	0.543819	0	0	0.812022	0.483529	0.0136746	0.842709	0.53889	0	0
5.498	2.53976	-0.286877	-2.92449	1.25402	-0.97039	0.277404	-0.1194	-0.317598	-0.334788	0.267411	-0.14318	0	0	-0.525305	0.132813	0.167078	0.750366	0.285126	0	0	-1.28429	0.0182335	-0.396476	1.03202	-0.0910043	0.0654249	1.00783	0.543803	0	0	0.810753	0.484437	0.0140027	0.842434	0.538896	0	0
5.50799	2.53352	-0.278196	-2.92662	1.26663	-0.971419	0.276845	-0.131098	-0.306757	-0.338649	0.27876	-0.148371	0	0	-0.526831	0.119678	0.160728	0.776048	0.254301	0	0	-1.28644	0.0254267	-0.38728	1.03087	-0.0925958	0.0651035	1.0075	0.543786	0	0	0.809483	0.485344	0.0143308	0.842159	0.538901	0	0
5.51798	2.52597	-0.267838	-2.93006	1.27929	-0.972626	0.276275	-0.144169	-0.293922	-0.341048	0.28965	-0.150822	0	0	-0.528366	0.105323	0.152502	0.801981	0.21876	0	0	-1.28926	0.0327373	-0.376256	1.02972	-0.094187	0.0647822	1.00716	0.54377	0	0	0.808213	0.486251	0.0146588	0.841884	0.538907	0	0
5.52797	2.51713	-0.255826	-2.93483	1.29195	-0.973981	0.27568	-0.158641	-0.279111	-0.341772	0.299737	-0.150628	0	0	-0.52988	0.0898487	0.1426	0.82791	0.179322	0	0	-1.29288	0.0399962	-0.363394	1.02857	-0.095778	0.0644609	1.00683	0.543753	0	0	0.806943	0.487158	0.0149868	0.841609	0.538913	0	0
5.53796	2.50714	-0.242239	-2.94085	1.3046	-0.975452	0.27505	-0.174464	-0.262433	-0.340676	0.30876	-0.148095	0	0	-0.531327	0.0734094	0.13128	0.853482	0.13719	0	0	-1.2973	0.0470314	-0.348686	1.02742	-0.0973687	0.0641396	1.00649	0.543737	0	0	0.805673	0.488065	0.0153147	0.841334	0.538918	0	0
5.54795	2.49622	-0.227226	-2.94801	1.3172	-0.977007	0.274381	-0.19149	-0.244115	-0.337711	0.316586	-0.143646	0	0	-0.532638	0.0562178	0.118848	0.878255	0.0939235	0	0	-1.30231	0.0536895	-0.332151	1.02627	-0.0989592	0.0638184	1.00616	0.543721	0	0	0.804403	0.488971	0.0156425	0.841059	0.538924	0	0
5.55794	2.4846	-0.211013	-2.95615	1.32974	-0.978616	0.273672	-0.209557	-0.224476	-0.332934	0.32314	-0.137718	0	0	-0.533723	0.0385594	0.105633	0.901848	0.0513153	0	0	-1.30778	0.0598136	-0.313878	1.02511	-0.10055	0.0634972	1.00583	0.543704	0	0	0.803132	0.489877	0.0159704	0.840784	0.53893	0	0
5.56793	2.47251	-0.193905	-2.96511	1.34219	-0.980254	0.272931	-0.228498	-0.203923	-0.326477	0.328405	-0.130709	0	0	-0.534465	0.0207896	0.091943	0.923972	0.0112111	0	0	-1.3136	0.0652448	-0.294032	1.02396	-0.10214	0.063176	1.00549	0.543688	0	0	0.801862	0.490783	0.0162981	0.84051	0.538936	0	0
5.57792	2.46018	-0.176306	-2.97474	1.35455	-0.981898	0.272166	-0.24813	-0.18297	-0.318561	0.332434	-0.122949	0	0	-0.534722	0.00334601	0.0780898	0.944432	-0.0247264	0	0	-1.31965	0.0698303	-0.272861	1.02281	-0.103729	0.0628549	1.00516	0.543672	0	0	0.800591	0.491688	0.0166259	0.840235	0.538942	0	0
5.58791	2.44785	-0.158732	-2.98484	1.36679	-0.983531	0.271392	-0.268261	-0.162267	-0.309534	0.335339	-0.114669	0	0	-0.53433	-0.0132068	0.0644599	0.963126	-0.0552461	0	0	-1.32588	0.0734374	-0.250721	1.02166	-0.105319	0.0625338	1.00483	0.543656	0	0	0.799321	0.492594	0.0169536	0.83996	0.538948	0	0
5.5979	2.43577	-0.141859	-2.99518	1.37892	-0.985139	0.270622	-0.288674	-0.142632	-0.299908	0.33733	-0.105982	0	0	-0.533114	-0.0281473	0.0516069	0.98001	-0.0796955	0	0	-1.33217	0.0759761	-0.228099	1.02051	-0.106909	0.0622127	1.00449	0.54364	0	0	0.79805	0.493499	0.0172812	0.839685	0.538954	0	0
5.60789	2.42416	-0.126158	-3.00552	1.39094	-0.986717	0.269869	-0.309138	-0.124605	-0.290168	0.338611	-0.0969663	0	0	-0.530896	-0.0410296	0.0399609	0.995138	-0.0980789	0	0	-1.33838	0.0774875	-0.205486	1.01936	-0.108498	0.0618916	1.00416	0.543624	0	0	0.79678	0.494404	0.0176088	0.83941	0.538959	0	0
5.61788	2.4132	-0.111882	-3.01564	1.40286	-0.98826	0.269141	-0.329419	-0.108447	-0.280689	0.339366	-0.0876769	0	0	-0.527527	-0.0516821	0.0297756	1.00867	-0.110963	0	0	-1.34439	0.0781055	-0.183291	1.0182	-0.110087	0.0615706	1.00382	0.543608	0	0	0.79551	0.495308	0.0179364	0.839136	0.538965	0	0
5.62787	2.40303	-0.0991011	-3.0254	1.4147	-0.989771	0.268442	-0.349305	-0.0941797	-0.271717	0.33975	-0.0781561	0	0	-0.522913	-0.060178	0.0211259	1.02085	-0.119268	0	0	-1.35008	0.0780173	-0.161809	1.01705	-0.111676	0.0612497	1.00349	0.543592	0	0	0.794239	0.496213	0.018264	0.838861	0.538971	0	0
5.63786	2.39369	-0.08774	-3.03471	1.42647	-0.991254	0.267771	-0.368654	-0.081624	-0.263376	0.339893	-0.0684478	0	0	-0.517061	-0.0668239	0.0139094	1.03201	-0.124053	0	0	-1.35537	0.0774368	-0.141223	1.0159	-0.113265	0.0609287	1.00316	0.543576	0	0	0.792969	0.497118	0.0185915	0.838586	0.538978	0	0
5.64786	2.38508	-0.0775504	-3.04356	1.43819	-0.992716	0.267123	-0.387488	-0.0704168	-0.255714	0.3399	-0.0585967	0	0	-0.510139	-0.0720594	0.00791574	1.04246	-0.126426	0	0	-1.36028	0.0766128	-0.121628	1.01475	-0.114853	0.0606078	1.00282	0.54356	0	0	0.791699	0.498022	0.0189189	0.838312	0.538984	0	0
5.65785	2.37694	-0.0680658	-3.05206	1.44988	-0.994166	0.266489	-0.405969	-0.0599933	-0.248527	0.339828	-0.0486706	0	0	-0.502518	-0.0764878	0.00269205	1.05247	-0.127423	0	0	-1.36492	0.0757048	-0.102748	1.0136	-0.116442	0.0602869	1.00249	0.543544	0	0	0.790429	0.498926	0.0192464	0.838037	0.53899	0	0
5.66784	2.369	-0.0588483	-3.06043	1.46156	-0.995613	0.265862	-0.424301	-0.04986	-0.241531	0.339722	-0.0387226	0	0	-0.494615	-0.0806187	-0.00223092	1.06231	-0.127899	0	0	-1.36944	0.0747803	-0.0841727	1.01245	-0.11803	0.059966	1.00216	0.543528	0	0	0.789159	0.499831	0.0195738	0.837763	0.538996	0	0
