PathFileType	4	(X/Y/Z)	/tmp/tmpqn4t43lq/P42/MarkerData/DB4_P42_T18_r_comf_relabeled_segment_1.trc
DataRate	CameraRate	NumFrames	NumMarkers	Units	OrigDataRate	OrigDataStartFrame	OrigNumFrames
100.117	100.117	97	13	m	100.117	0	97
Frame#	Time	CLAV			LKNE			LMT5			LSHO			LTHI			LTIB			LTOE			RKNE			RMT5			RSHO			RTHI			RTIB			RTOE		
		X1	Y1	Z1	X2	Y2	Z2	X3	Y3	Z3	X4	Y4	Z4	X5	Y5	Z5	X6	Y6	Z6	X7	Y7	Z7	X8	Y8	Z8	X9	Y9	Z9	X10	Y10	Z10	X11	Y11	Z11	X12	Y12	Z12	X13	Y13	Z13

1	1.94	-3.7995	-1.3814	0.231787	-3.78878	-0.515209	0.380204	-3.44767	-0.136627	0.372849	-3.90507	-1.45163	0.413067	-3.88851	-0.745963	0.461069	-3.71803	-0.3468	0.409594	-3.41582	-0.148499	0.321186	-4.09276	-0.500766	0.115254	-4.14785	-0.0469509	0.131801	-3.81005	-1.40919	0.0295424	-3.94755	-0.790314	0.0116901	-4.20813	-0.337547	0.0954383	-4.11426	-0.0489513	0.186948
2	1.94999	-3.78816	-1.37967	0.234014	-3.77681	-0.514599	0.381285	-3.43909	-0.132743	0.374093	-3.89388	-1.44987	0.415206	-3.88111	-0.745033	0.462779	-3.70848	-0.345975	0.410367	-3.41098	-0.142121	0.321456	-4.08924	-0.500963	0.114829	-4.1479	-0.0469371	0.131732	-3.79831	-1.40791	0.0317141	-3.93726	-0.794222	0.0119694	-4.19432	-0.347157	0.097003	-4.11424	-0.0489152	0.186947
3	1.95998	-3.77654	-1.37827	0.236373	-3.7647	-0.514639	0.382532	-3.43612	-0.126272	0.373485	-3.88273	-1.44836	0.4173	-3.87133	-0.742631	0.464772	-3.69893	-0.345598	0.411325	-3.40769	-0.134761	0.321139	-4.08634	-0.50107	0.114458	-4.14795	-0.0469243	0.131673	-3.78654	-1.40701	0.0338928	-3.93138	-0.778095	0.0149478	-4.17972	-0.360235	0.0987823	-4.11418	-0.0488413	0.186925
4	1.96996	-3.76526	-1.3769	0.238373	-3.75231	-0.514973	0.383766	-3.43592	-0.118514	0.371835	-3.87142	-1.44703	0.41941	-3.85698	-0.735979	0.466826	-3.68959	-0.345159	0.41241	-3.40589	-0.126401	0.319888	-4.08128	-0.501357	0.114225	-4.14801	-0.0469058	0.131604	-3.77446	-1.40634	0.0361675	-3.9326	-0.739972	0.0208933	-4.17473	-0.361469	0.098591	-4.11416	-0.0487427	0.186882
5	1.97995	-3.75359	-1.37594	0.2405	-3.73936	-0.515525	0.385149	-3.43515	-0.110517	0.369832	-3.85962	-1.44576	0.421766	-3.84043	-0.727626	0.468995	-3.68117	-0.344521	0.412784	-3.40465	-0.117024	0.317571	-4.07142	-0.502116	0.114618	-4.14808	-0.0469174	0.131537	-3.76202	-1.40592	0.0385641	-3.9358	-0.720203	0.0248963	-4.17234	-0.35687	0.0980018	-4.11416	-0.0486566	0.186842
6	1.98994	-3.74141	-1.37528	0.242959	-3.72627	-0.516084	0.386316	-3.4326	-0.10236	0.367407	-3.84798	-1.44484	0.42407	-3.83807	-0.734263	0.470996	-3.673	-0.344145	0.412458	-3.40219	-0.107967	0.31489	-4.05924	-0.503066	0.115509	-4.14816	-0.0469145	0.131449	-3.7493	-1.40582	0.0410983	-3.9466	-0.721421	0.0258851	-4.15828	-0.364409	0.0995799	-4.11418	-0.0485576	0.186811
7	1.99993	-3.72888	-1.37497	0.245691	-3.71351	-0.516799	0.387279	-3.42806	-0.0953124	0.364397	-3.8361	-1.4442	0.426488	-3.83345	-0.739473	0.472683	-3.66472	-0.344381	0.411017	-3.39817	-0.100928	0.311731	-4.04996	-0.503763	0.116158	-4.1482	-0.046884	0.131351	-3.7363	-1.40607	0.0437326	-3.94299	-0.751857	0.0221175	nan	nan	nan	-4.1141	-0.0484637	0.186804
8	2.00992	-3.71614	-1.37509	0.248466	-3.70203	-0.518019	0.388081	-3.42304	-0.0904967	0.361634	-3.82362	-1.44374	0.429232	-3.82418	-0.740853	0.474183	-3.65677	-0.345369	0.410223	-3.39329	-0.0962664	0.307668	-4.04319	-0.504129	0.116584	-4.14821	-0.0468467	0.131256	-3.72291	-1.40668	0.0464929	-3.92488	-0.77465	0.0197982	-4.16037	-0.355708	0.0962311	-4.11398	-0.0483306	0.18676
9	2.01991	-3.70323	-1.37538	0.251273	-3.69183	-0.519735	0.389084	-3.41906	-0.0859643	0.359958	-3.81097	-1.44367	0.43207	-3.81389	-0.741464	0.474907	-3.65101	-0.3456	0.411576	-3.38939	-0.0914369	0.304741	-4.03156	-0.505068	0.117626	-4.14826	-0.0468329	0.131227	-3.70915	-1.40772	0.0493824	-3.92278	-0.76321	0.0238649	-4.15567	-0.355849	0.0955292	-4.11383	-0.048217	0.186697
10	2.02989	-3.6904	-1.37571	0.254077	-3.68281	-0.521399	0.390279	-3.41709	-0.080718	0.359805	-3.79836	-1.44402	0.434798	-3.80299	-0.742919	0.475574	-3.64601	-0.344661	0.41456	-3.38687	-0.0851553	0.304922	-4.01767	-0.506144	0.118507	-4.14836	-0.0468367	0.131265	-3.69506	-1.4092	0.0524361	-3.91523	-0.754161	0.0273477	-4.13922	-0.364288	0.0974551	-4.11363	-0.0481217	0.186623
11	2.03988	-3.67757	-1.37621	0.256919	-3.67363	-0.522926	0.391996	-3.41614	-0.0755682	0.361136	-3.78545	-1.44468	0.437602	-3.79182	-0.744587	0.476119	-3.63297	-0.346532	0.414779	-3.38501	-0.07897	0.306902	-4.00554	-0.506647	0.118787	-4.14852	-0.0468557	0.131388	-3.68076	-1.4111	0.0556671	-3.90065	-0.748379	0.0308945	-4.11775	-0.375613	0.100036	-4.11339	-0.0480929	0.186572
12	2.04987	-3.6645	-1.37705	0.25992	-3.66376	-0.524198	0.393987	-3.41501	-0.0711236	0.363762	-3.77229	-1.44568	0.440569	-3.77975	-0.74641	0.477057	-3.62256	-0.347446	0.414984	-3.3829	-0.0738575	0.309833	nan	nan	nan	-4.14866	-0.0468652	0.131578	-3.66642	-1.41341	0.0590379	-3.88038	-0.734614	0.0360044	-4.11449	-0.370846	0.0987876	-4.11317	-0.0480457	0.186514
13	2.05986	-3.65145	-1.37824	0.262974	-3.65261	-0.525399	0.396459	-3.41356	-0.0668998	0.367261	-3.75902	-1.447	0.443608	-3.76703	-0.748625	0.478357	-3.61575	-0.347678	0.416247	-3.3806	-0.06919	0.313556	-3.97454	-0.506792	0.119704	-4.14856	-0.0469417	0.131858	-3.65225	-1.41608	0.0624953	-3.86116	-0.723643	0.0404192	-4.11455	-0.358476	0.0993564	-4.11305	-0.047958	0.186486
14	2.06985	-3.63857	-1.37972	0.266027	-3.64113	-0.526498	0.399031	-3.41168	-0.0630179	0.370954	-3.74592	-1.44865	0.446577	-3.75388	-0.751324	0.480148	-3.61097	-0.347714	0.417904	-3.37861	-0.0648161	0.316652	-3.95852	-0.506422	0.119432	-4.14819	-0.0471374	0.132283	-3.63837	-1.41912	0.0659423	-3.84526	-0.727963	0.0425519	-4.1085	-0.34583	0.102254	-4.11309	-0.0479074	0.18648
15	2.07984	-3.62566	-1.38168	0.269041	-3.63045	-0.527289	0.40149	-3.40947	-0.0603523	0.373694	-3.73302	-1.45055	0.449524	-3.74062	-0.754358	0.482335	-3.60627	-0.347689	0.420046	-3.37719	-0.0612341	0.317684	-3.93935	-0.506282	0.118905	-4.14767	-0.0475111	0.133021	-3.62477	-1.42245	0.0693078	-3.82884	-0.726681	0.0445052	-4.08357	-0.36322	0.100024	-4.11332	-0.0479014	0.18642
16	2.08982	-3.61304	-1.38399	0.271876	-3.62077	-0.528017	0.403749	-3.40777	-0.0582534	0.373844	-3.72028	-1.45264	0.452378	-3.72733	-0.757558	0.484745	-3.60076	-0.347915	0.422509	-3.37646	-0.0585714	0.31688	-3.91844	-0.505473	0.118132	-4.14692	-0.0481066	0.134114	-3.61164	-1.42602	0.0725479	-3.81415	-0.72878	0.0454789	-4.06296	-0.37567	0.0973765	-4.11351	-0.0479602	0.186277
17	2.09981	-3.60027	-1.38673	0.274802	-3.61226	-0.528989	0.405719	-3.40664	-0.0565502	0.373573	-3.7076	-1.4548	0.455201	-3.71402	-0.76086	0.487124	-3.59435	-0.348295	0.424961	-3.37592	-0.0562652	0.316019	-3.8986	-0.503703	0.117143	-4.14525	-0.0487766	0.135348	-3.59899	-1.42977	0.075565	-3.79579	-0.722645	0.0483714	-4.04678	-0.378512	0.0960444	-4.113	-0.0478036	0.186189
18	2.1098	-3.58732	-1.38981	0.277715	-3.60432	-0.53039	0.407633	-3.40555	-0.0550404	0.374292	-3.69482	-1.45699	0.458067	-3.70067	-0.764163	0.48951	-3.58813	-0.348375	0.426566	-3.37534	-0.0543902	0.315815	-3.87701	-0.501806	0.117057	-4.14188	-0.048899	0.136355	-3.58677	-1.43362	0.0783018	-3.77765	-0.724813	0.0506168	-4.02899	-0.379051	0.0956201	-4.11134	-0.0472834	0.186247
19	2.11979	-3.57441	-1.39309	0.280547	-3.59673	-0.531724	0.40912	-3.40387	-0.0534795	0.375171	-3.68205	-1.45924	0.460909	-3.68756	-0.767268	0.491804	-3.58271	-0.348335	0.426981	-3.37484	-0.0527812	0.315686	nan	nan	nan	-4.13688	-0.0487974	0.136886	-3.57511	-1.43749	0.0807791	-3.75386	-0.736455	0.0519791	nan	nan	nan	-4.10854	-0.046495	0.186494
20	2.12978	-3.56185	-1.39638	0.283083	-3.58898	-0.532643	0.410194	-3.40255	-0.0522214	0.375486	-3.66949	-1.46151	0.463497	-3.67492	-0.770128	0.493823	-3.57774	-0.348418	0.426907	-3.37447	-0.0512397	0.315285	-3.83049	-0.49591	0.118332	-4.13089	-0.0498856	0.138185	-3.5639	-1.44129	0.083022	-3.72149	-0.736229	0.0537282	-3.99275	-0.3794	0.0952866	-4.1049	-0.0455526	0.186763
21	2.13977	-3.54987	-1.39949	0.285114	-3.58126	-0.53298	0.410763	-3.40155	-0.0512789	0.375426	-3.65679	-1.4636	0.466063	-3.66307	-0.772533	0.495574	-3.57353	-0.348464	0.426657	-3.37412	-0.0499305	0.314768	-3.8061	-0.493026	0.118714	-4.12442	-0.0531949	0.141205	-3.55319	-1.44498	0.0850365	-3.7042	-0.729946	0.0553703	-3.95509	-0.386614	0.0978696	-4.10083	-0.0442055	0.186305
22	2.14975	-3.53814	-1.40255	0.286913	-3.57417	-0.532793	0.410705	-3.40076	-0.0504758	0.375406	-3.64405	-1.46558	0.468613	-3.65199	-0.774371	0.497128	-3.57017	-0.348493	0.426504	-3.3738	-0.0489129	0.314224	-3.78149	-0.490061	0.119096	-4.11434	-0.0585082	0.144615	-3.54285	-1.44851	0.0868551	-3.67325	-0.737835	0.0574054	-3.8988	-0.401149	0.101505	-4.09542	-0.0433917	0.184779
23	2.15974	-3.52644	-1.40541	0.288684	-3.56781	-0.532542	0.410515	-3.40011	-0.0496068	0.375586	-3.63103	-1.46736	0.47119	-3.64179	-0.775721	0.498443	-3.56731	-0.348676	0.426486	-3.37351	-0.0480649	0.31377	-3.75658	-0.487936	0.119344	nan	nan	nan	-3.53294	-1.45195	0.0884881	-3.64841	-0.743715	0.0583733	-3.87209	-0.398933	0.102916	-4.08528	-0.0459924	0.183938
24	2.16973	-3.51494	-1.40811	0.290265	-3.56238	-0.53246	0.410656	-3.39957	-0.0486774	0.375889	-3.61814	-1.46907	0.473616	-3.63246	-0.776705	0.499454	-3.56474	-0.349047	0.426712	-3.3733	-0.0473748	0.313419	-3.73077	-0.486834	0.119475	-4.0853	-0.0708726	0.147978	-3.52335	-1.45522	0.089998	-3.62901	-0.745693	0.0591394	nan	nan	nan	-4.06903	-0.0511537	0.185048
25	2.17972	-3.50356	-1.41085	0.291685	-3.5581	-0.532451	0.411251	-3.39911	-0.0478215	0.376155	-3.60533	-1.47061	0.475939	-3.62396	-0.777382	0.500182	-3.56271	-0.349128	0.426874	-3.37313	-0.0467739	0.313156	-3.70484	-0.486752	0.119164	-4.06436	-0.0764294	0.14983	-3.51406	-1.45827	0.0913624	-3.6134	-0.746868	0.058334	-3.8788	-0.354538	0.107343	-4.04802	-0.0560957	0.186768
26	2.18971	-3.49244	-1.41339	0.292849	-3.55515	-0.532348	0.41172	-3.39871	-0.0471055	0.376329	-3.59249	-1.47198	0.478224	-3.6161	-0.777908	0.500709	-3.56146	-0.348715	0.42657	-3.37298	-0.0462223	0.312969	-3.6788	-0.487151	0.118783	-4.03932	-0.0805879	0.152627	-3.50521	-1.46119	0.0925577	-3.60588	-0.750964	0.0556545	nan	nan	nan	-4.02285	-0.060266	0.189459
27	2.1997	-3.48167	-1.41567	0.293688	-3.5525	-0.532443	0.412021	-3.39836	-0.0465313	0.376475	-3.57957	-1.47321	0.480482	-3.60871	-0.778451	0.50105	-3.55968	-0.348527	0.426623	-3.37286	-0.045741	0.312844	-3.65388	-0.487566	0.117996	-4.01104	-0.0836065	0.156139	-3.49665	-1.464	0.0936734	-3.60303	-0.760882	0.0553719	-3.77093	-0.395547	0.106353	-3.99445	-0.064362	0.193244
28	2.20968	-3.47102	-1.41777	0.29434	-3.54944	-0.532758	0.412205	-3.39806	-0.0460555	0.376617	-3.56676	-1.47433	0.4826	-3.60161	-0.779136	0.501281	-3.55705	-0.348685	0.427124	-3.37279	-0.0453731	0.312803	-3.62779	-0.488409	0.117462	-3.97978	-0.0859602	0.160496	-3.48828	-1.46665	0.0947127	-3.59397	-0.76641	0.0555397	-3.73362	-0.403826	0.107002	-3.96361	-0.0676385	0.197953
29	2.21967	-3.46017	-1.41986	0.295049	-3.54551	-0.53315	0.412368	-3.3978	-0.0456252	0.376726	-3.55392	-1.47529	0.484661	-3.59455	-0.779867	0.501416	-3.5545	-0.348725	0.427431	-3.37275	-0.045138	0.312749	-3.60212	-0.489715	0.116614	-3.94699	-0.0876639	0.165649	-3.47996	-1.46904	0.0956592	-3.57932	-0.768569	0.0557118	nan	nan	nan	-3.93142	-0.0687101	0.203765
30	2.22966	-3.44932	-1.42188	0.295679	-3.54093	-0.533469	0.41245	-3.39758	-0.0452375	0.376791	-3.54103	-1.47609	0.486656	-3.5872	-0.780682	0.50163	-3.55141	-0.348922	0.427932	-3.37275	-0.0450329	0.312704	-3.57526	-0.491603	0.116	-3.91313	-0.0887793	0.171012	-3.47204	-1.47129	0.0964545	-3.55608	-0.768816	0.0561192	nan	nan	nan	-3.89756	-0.0693999	0.209798
31	2.23965	-3.4385	-1.42373	0.296144	-3.53626	-0.53355	0.412584	-3.39742	-0.0449125	0.376882	-3.52816	-1.47677	0.488494	-3.57932	-0.781566	0.502072	-3.54905	-0.348532	0.427826	-3.37279	-0.0449905	0.312653	-3.54755	-0.493829	0.115425	-3.87806	-0.0893312	0.176391	-3.4642	-1.47342	0.0972336	-3.52134	-0.76756	0.0563232	-3.6581	-0.403958	0.109386	-3.86201	-0.0702131	0.21554
32	2.24964	-3.4277	-1.42545	0.296441	-3.53181	-0.533384	0.412859	-3.39726	-0.0445611	0.377023	-3.51532	-1.47728	0.490191	-3.57094	-0.782244	0.502749	-3.54665	-0.348154	0.427919	-3.37281	-0.0449696	0.312622	-3.5191	-0.496359	0.11506	-3.84238	-0.0887877	0.181135	-3.45633	-1.47539	0.0980208	-3.49781	-0.768616	0.0562373	-3.63003	-0.405568	0.10995	-3.8243	-0.0705077	0.220644
33	2.25963	-3.417	-1.42692	0.296623	-3.52762	-0.533073	0.413169	-3.39708	-0.0441428	0.377235	-3.50243	-1.47766	0.491839	-3.56247	-0.782651	0.503739	-3.5446	-0.347748	0.427903	-3.37279	-0.0449255	0.312621	-3.49241	-0.498859	0.11461	-3.80441	-0.0876517	0.184987	-3.44841	-1.47717	0.0987656	-3.4889	-0.764998	0.0557535	-3.60386	-0.406231	0.110498	-3.78512	-0.0701793	0.225082
34	2.26961	-3.40627	-1.42816	0.296773	-3.52396	-0.532761	0.41343	-3.39691	-0.043677	0.377462	-3.48955	-1.47791	0.49334	-3.5539	-0.783239	0.504766	-3.54294	-0.347525	0.427855	-3.37273	-0.044894	0.312603	-3.46662	-0.501652	0.114257	-3.76423	-0.0866925	0.187943	-3.44046	-1.47879	0.0994641	-3.49288	-0.753862	0.0565349	nan	nan	nan	-3.74424	-0.0696038	0.228271
35	2.2796	-3.39567	-1.42922	0.296727	-3.52081	-0.532615	0.413531	-3.39674	-0.0432288	0.37767	-3.47669	-1.47804	0.494657	-3.54497	-0.784007	0.505821	-3.54058	-0.347832	0.428041	-3.37268	-0.0448838	0.312607	-3.44086	-0.505014	0.11407	-3.72269	-0.0854925	0.190003	-3.43243	-1.48026	0.100146	-3.4943	-0.755532	0.0577912	-3.56901	-0.3982	0.111479	-3.7021	-0.0686516	0.230204
36	2.28959	-3.38524	-1.43002	0.296552	-3.51781	-0.532668	0.413573	-3.39661	-0.0428538	0.377875	-3.4637	-1.478	0.495873	-3.53494	-0.784664	0.507134	-3.53923	-0.347927	0.427884	-3.37263	-0.0448894	0.312653	-3.41539	-0.508604	0.114273	-3.68104	-0.0835869	0.1911	-3.42435	-1.48151	0.100807	-3.4797	-0.758066	0.0581794	-3.55016	-0.391273	0.11416	-3.65875	-0.0673822	0.231036
37	2.29958	-3.37453	-1.43068	0.296576	-3.51494	-0.532833	0.413674	-3.39658	-0.0425437	0.37809	-3.45076	-1.47783	0.496904	-3.5238	-0.785127	0.508446	-3.5385	-0.347915	0.427726	-3.37257	-0.0449397	0.312711	-3.39129	-0.51222	0.114622	-3.63891	-0.0810466	0.191511	-3.41627	-1.48254	0.101423	-3.45645	-0.756935	0.0579326	-3.52772	-0.38414	0.117386	-3.61409	-0.0658017	0.231158
38	2.30957	-3.36369	-1.43133	0.296541	-3.51215	-0.532955	0.41395	-3.3966	-0.0422925	0.378292	-3.43782	-1.47752	0.497794	-3.51353	-0.784904	0.508906	-3.53792	-0.347911	0.427702	-3.37251	-0.0450235	0.312799	-3.36752	-0.515967	0.115207	-3.59581	-0.0780044	0.191636	-3.40815	-1.48337	0.101951	-3.44114	-0.759003	0.0584672	-3.51896	-0.361308	0.124449	-3.56817	-0.0640591	0.230953
39	2.31956	-3.35284	-1.43195	0.296318	-3.50943	-0.533049	0.414422	-3.39664	-0.0420643	0.378504	-3.42486	-1.47704	0.498569	-3.50331	-0.784565	0.509466	-3.53741	-0.347894	0.42776	-3.37245	-0.0451193	0.312873	-3.34434	-0.519596	0.115763	-3.55241	-0.0746616	0.191576	-3.40008	-1.48399	0.102391	-3.41808	-0.757243	0.0581078	-3.4953	-0.357558	0.124981	-3.52125	-0.0624036	0.230702
40	2.32954	-3.34195	-1.4324	0.296072	-3.50648	-0.533186	0.415076	-3.39666	-0.0418635	0.378674	-3.4118	-1.47639	0.499299	-3.49297	-0.784143	0.510152	-3.53683	-0.347881	0.427882	-3.37257	-0.0451247	0.31293	-3.3203	-0.523151	0.116192	-3.50761	-0.0715246	0.191613	-3.39192	-1.48433	0.102774	-3.40277	-0.758532	0.0585453	-3.46576	-0.357603	0.124657	-3.47599	-0.0607813	0.230516
41	2.33953	-3.33073	-1.43277	0.296025	-3.50356	-0.533176	0.415737	-3.39665	-0.04168	0.378798	-3.39877	-1.47559	0.499913	-3.48235	-0.783658	0.510821	-3.53607	-0.347839	0.428039	-3.3728	-0.0450793	0.312973	-3.29764	-0.526089	0.117128	-3.46287	-0.0680926	0.191567	-3.38367	-1.48437	0.103108	-3.39865	-0.763932	0.060357	-3.43642	-0.356253	0.125181	-3.43007	-0.0594293	0.230616
42	2.34952	-3.31953	-1.43284	0.295827	-3.50049	-0.532987	0.416261	-3.39666	-0.0415558	0.378887	-3.38576	-1.47463	0.500459	-3.47138	-0.78312	0.511524	-3.53509	-0.347658	0.428163	-3.37229	-0.0452917	0.313185	-3.27669	-0.528821	0.118335	-3.41586	-0.0650803	0.191617	-3.37526	-1.48409	0.103424	-3.38874	-0.766654	0.0618717	-3.40055	-0.362344	0.125092	-3.38338	-0.0578271	0.230497
43	2.35951	-3.3081	-1.43286	0.295659	-3.49692	-0.532863	0.416789	-3.39684	-0.0416378	0.37904	-3.37267	-1.47343	0.500938	-3.46082	-0.782394	0.512444	-3.53323	-0.347719	0.428622	-3.37002	-0.0461761	0.313778	-3.25679	-0.531348	0.119663	-3.36893	-0.0622929	0.191487	-3.36665	-1.48349	0.103705	-3.37335	-0.766924	0.0622267	-3.35418	-0.377993	0.124433	-3.33611	-0.0568614	0.230581
44	2.3695	-3.2966	-1.43266	0.295531	-3.49273	-0.532836	0.417354	-3.39721	-0.0419437	0.379334	-3.35946	-1.47205	0.501285	-3.45086	-0.781279	0.512599	-3.53061	-0.347974	0.429316	-3.37042	-0.0463216	0.313902	-3.23753	-0.533538	0.121248	-3.32207	-0.0596133	0.191514	-3.35784	-1.48259	0.103936	-3.35731	-0.766786	0.0621793	-3.3216	-0.37311	0.127414	-3.28858	-0.0565579	0.230716
45	2.37948	-3.28544	-1.43214	0.295054	-3.48817	-0.532766	0.417898	-3.39738	-0.0419718	0.379493	-3.34618	-1.47051	0.501505	-3.44083	-0.780114	0.512877	-3.52778	-0.34807	0.429766	-3.38775	-0.0407282	0.310418	-3.21892	-0.535313	0.123125	-3.2752	-0.0575365	0.190931	-3.3489	-1.48139	0.104083	-3.34251	-0.766806	0.0622665	-3.30156	-0.365641	0.128543	-3.24102	-0.0568663	0.230359
46	2.38947	-3.27446	-1.43126	0.294391	-3.48337	-0.532529	0.418361	-3.39727	-0.0417382	0.379481	-3.33277	-1.46875	0.50169	-3.43096	-0.778789	0.513285	-3.52471	-0.348244	0.430115	-3.42462	-0.0286165	0.302751	-3.20109	-0.536692	0.125343	-3.22835	-0.0560111	0.189842	-3.33977	-1.47991	0.104184	-3.32661	-0.7661	0.0621955	-3.28389	-0.363118	0.12956	-3.19364	-0.057672	0.229235
47	2.39946	-3.26295	-1.42999	0.294012	-3.47856	-0.532205	0.418525	-3.39691	-0.0413725	0.379354	-3.31928	-1.46682	0.501747	-3.42057	-0.777485	0.513875	-3.52154	-0.348555	0.430446	-3.42426	-0.0283363	0.302688	-3.18401	-0.537512	0.127835	-3.18165	-0.0549493	0.18815	-3.33034	-1.47811	0.104292	-3.30643	-0.763512	0.0616198	-3.25994	-0.360445	0.130838	-3.14687	-0.0588742	0.227175
48	2.40945	-3.25106	-1.4283	0.293736	-3.47374	-0.531979	0.418413	-3.3968	-0.0412146	0.379329	-3.30552	-1.46468	0.501726	-3.41019	-0.776142	0.514369	-3.51872	-0.348782	0.430428	-3.38675	-0.0397504	0.310254	-3.1678	-0.537771	0.130563	-3.13533	-0.0548965	0.185834	-3.32051	-1.47599	0.104369	-3.28478	-0.759883	0.0610187	-3.23232	-0.356437	0.131951	-3.10108	-0.0607133	0.224329
49	2.41944	-3.23896	-1.42626	0.293491	-3.46883	-0.531798	0.418246	-3.39686	-0.0411372	0.379438	-3.29167	-1.46246	0.501591	-3.40012	-0.774531	0.514613	-3.51571	-0.349306	0.430466	-3.36931	-0.0449326	0.313725	-3.1523	-0.537374	0.133471	-3.08962	-0.0557486	0.183365	-3.31048	-1.47367	0.104354	-3.27768	-0.760602	0.0625163	-3.20166	-0.351864	0.132928	-3.05548	-0.0636444	0.221616
50	2.42943	-3.227	-1.4238	0.292866	-3.46343	-0.531662	0.418243	-3.39695	-0.0410227	0.379621	-3.27748	-1.46014	0.501384	-3.39011	-0.772793	0.514751	-3.51268	-0.349899	0.430513	-3.36903	-0.0448377	0.313673	-3.13727	-0.536352	0.136507	-3.04473	-0.057795	0.181138	-3.30003	-1.47114	0.10428	-3.26855	-0.76006	0.0638685	-3.16727	-0.347729	0.133844	-3.01049	-0.0677396	0.21928
51	2.43941	-3.21498	-1.42117	0.292124	-3.4575	-0.531497	0.418306	-3.39703	-0.04088	0.379797	-3.26285	-1.45771	0.501191	-3.37982	-0.771092	0.514953	-3.50971	-0.350368	0.430408	-3.37121	-0.0439677	0.313132	-3.12261	-0.534809	0.139485	-3.00085	-0.0613451	0.179225	-3.28936	-1.46838	0.104135	-3.25543	-0.757486	0.06502	-3.13774	-0.34502	0.134676	-2.96676	-0.073234	0.217429
52	2.4494	-3.20275	-1.41834	0.291466	-3.45097	-0.53121	0.418298	-3.3971	-0.0407457	0.37999	-3.24822	-1.45519	0.500874	-3.36936	-0.769318	0.515205	-3.50622	-0.350946	0.430394	-3.37149	-0.0437066	0.312957	-3.10823	-0.532887	0.142308	-2.9583	-0.06648	0.177681	-3.27856	-1.46548	0.103911	-3.24161	-0.754191	0.0661066	-3.11186	-0.343367	0.135407	-2.92471	-0.0801371	0.216063
53	2.45939	-3.19022	-1.41533	0.290929	-3.44396	-0.530927	0.418145	-3.39718	-0.0406136	0.380204	-3.2337	-1.45265	0.500371	-3.35881	-0.767527	0.515389	-3.50195	-0.35174	0.430479	-3.37099	-0.0437334	0.312873	-3.0941	-0.530712	0.145077	-2.91758	-0.0729703	0.17669	-3.26751	-1.46256	0.103623	-3.22824	-0.750791	0.067136	-3.08741	-0.342362	0.13611	-2.88482	-0.0883845	0.215033
54	2.46938	-3.17756	-1.41215	0.290271	-3.43651	-0.530686	0.417977	-3.39723	-0.0404875	0.380403	-3.21915	-1.45008	0.499745	-3.34811	-0.765867	0.515452	-3.49765	-0.352409	0.430325	-3.37066	-0.0437715	0.312651	-3.08014	-0.528472	0.147846	-2.8792	-0.0806269	0.175846	-3.25615	-1.45954	0.103201	-3.21552	-0.747219	0.0681035	-3.06476	-0.34168	0.136879	-2.8475	-0.0977401	0.214288
55	2.47937	-3.16466	-1.40901	0.289478	-3.42859	-0.530561	0.417817	-3.39722	-0.0403767	0.380621	-3.2045	-1.44753	0.499008	-3.3374	-0.764193	0.51541	-3.49278	-0.353268	0.430304	-3.37055	-0.0436673	0.312626	-3.06633	-0.526318	0.150691	-2.84358	-0.0891748	0.174767	-3.2444	-1.45641	0.102694	-3.2025	-0.74346	0.0686539	-3.0458	-0.340731	0.137997	-2.81294	-0.107545	0.213745
56	2.48936	-3.15146	-1.40583	0.288586	-3.42011	-0.530502	0.41764	-3.39721	-0.0402771	0.380836	-3.18967	-1.44509	0.498186	-3.32626	-0.762745	0.515217	-3.48701	-0.354376	0.430606	-3.37051	-0.0435564	0.312602	-3.05257	-0.524271	0.153724	-2.81095	-0.0979609	0.173643	-3.23218	-1.45322	0.102126	-3.18929	-0.739523	0.0687352	-3.02891	-0.339906	0.139222	-2.78138	-0.117217	0.213117
57	2.49934	-3.13797	-1.40277	0.287736	-3.41079	-0.530239	0.417562	-3.39719	-0.0402053	0.380985	-3.17467	-1.44276	0.497276	-3.31491	-0.761493	0.514874	-3.48068	-0.355516	0.430997	-3.37049	-0.0434898	0.312516	-3.03888	-0.522499	0.156772	-2.78139	-0.106286	0.172442	-3.21944	-1.45005	0.101461	-3.17608	-0.735633	0.0686397	-3.00509	-0.341249	0.140313	-2.75276	-0.12615	0.212523
58	2.50933	-3.12427	-1.39979	0.286694	-3.4007	-0.529836	0.417477	-3.39718	-0.0401366	0.381083	-3.15967	-1.44055	0.496163	-3.30334	-0.760375	0.514366	-3.47386	-0.356526	0.431194	-3.37044	-0.0434152	0.312381	-3.02521	-0.520975	0.159502	-2.75484	-0.113339	0.171525	-3.20663	-1.447	0.100602	-3.16259	-0.731979	0.0686273	-2.98606	-0.341375	0.141289	-2.72694	-0.133816	0.21215
59	2.51932	-3.11043	-1.39692	0.285417	-3.39002	-0.529396	0.417406	-3.39717	-0.0400672	0.381176	-3.14456	-1.4385	0.494916	-3.29146	-0.759412	0.513751	-3.4666	-0.357465	0.431096	-3.37036	-0.0433321	0.312264	-3.01136	-0.519446	0.161636	-2.73125	-0.119014	0.171034	-3.19411	-1.44422	0.0994604	-3.14842	-0.728731	0.0689891	-2.972	-0.340009	0.142382	-2.70372	-0.139734	0.211851
60	2.52931	-3.09638	-1.39428	0.283939	-3.37861	-0.528922	0.417341	-3.39718	-0.0400071	0.381286	-3.12934	-1.43669	0.493568	-3.27921	-0.758581	0.513209	-3.45856	-0.358531	0.431011	-3.37027	-0.043228	0.31219	-2.99752	-0.517725	0.163078	-2.71063	-0.122764	0.171253	-3.18122	-1.44164	0.0981809	-3.13331	-0.725994	0.0700453	-2.95147	-0.34074	0.143968	-2.68322	-0.143653	0.21186
61	2.5393	-3.08206	-1.39197	0.282405	-3.3663	-0.528302	0.417328	-3.39719	-0.0399672	0.3814	-3.11407	-1.43517	0.492124	-3.26659	-0.757815	0.512689	-3.44931	-0.359869	0.43147	-3.37019	-0.0431337	0.312104	-2.98385	-0.515827	0.164049	-2.69307	-0.124121	0.172261	-3.16726	-1.43909	0.0968019	-3.11745	-0.723871	0.0715763	-2.93301	-0.340343	0.145778	-2.66555	-0.145387	0.212571
62	2.54929	-3.06749	-1.39005	0.280761	-3.35314	-0.527588	0.417385	-3.39722	-0.0399272	0.381517	-3.09881	-1.43396	0.490523	-3.25349	-0.757171	0.512301	-3.43965	-0.361116	0.431884	-3.37012	-0.0430412	0.312043	-2.97028	-0.513919	0.164855	-2.67857	-0.123262	0.174031	-3.15431	-1.43714	0.0949544	-3.10112	-0.722486	0.0731085	-2.91862	-0.338151	0.147536	-2.65077	-0.144582	0.214292
63	2.55927	-3.05262	-1.38847	0.279052	-3.33922	-0.526819	0.417588	-3.39729	-0.0398926	0.381619	-3.08353	-1.43318	0.488768	-3.23978	-0.756609	0.511993	-3.42944	-0.362423	0.432224	-3.37011	-0.0429557	0.311986	-2.95662	-0.512315	0.165571	-2.66701	-0.120341	0.176481	-3.14069	-1.43535	0.092943	-3.0845	-0.721773	0.0742035	-2.90885	-0.334156	0.14917	-2.63877	-0.141448	0.216869
64	2.56926	-3.0374	-1.38722	0.277258	-3.32449	-0.5259	0.41796	-3.39738	-0.0398192	0.38171	-3.06831	-1.43283	0.486832	-3.22536	-0.756098	0.511754	-3.41842	-0.363824	0.432748	nan	nan	nan	-2.94255	-0.511065	0.166227	-2.65774	-0.114991	0.179457	-3.12588	-1.43361	0.0909245	-3.06762	-0.721507	0.0748241	-2.90413	-0.328629	0.150653	-2.62897	-0.135654	0.220073
65	2.57925	-3.02195	-1.38639	0.275421	-3.30911	-0.524843	0.418373	-3.39746	-0.0396536	0.381829	-3.0531	-1.43298	0.484725	-3.21021	-0.755644	0.511576	-3.40644	-0.36527	0.433545	-3.37026	-0.0428145	0.311875	-2.92786	-0.509801	0.166873	-2.64975	-0.106143	0.182971	-3.11037	-1.43204	0.0887756	-3.05049	-0.721481	0.0748462	-2.89614	-0.324796	0.152449	-2.6202	-0.125959	0.223922
66	2.58924	-3.00636	-1.38596	0.273456	-3.29283	-0.523779	0.418924	-3.39755	-0.0395415	0.381941	-3.03798	-1.43363	0.482495	-3.1943	-0.755204	0.511361	-3.39402	-0.366849	0.434423	nan	nan	nan	-2.91258	-0.508351	0.167457	-2.64208	-0.0938613	0.187838	-3.09449	-1.43074	0.0864345	-3.0333	-0.721648	0.0741253	-2.88575	-0.322949	0.155301	-2.6115	-0.112122	0.228622
67	2.59923	-2.99071	-1.38615	0.271405	-3.27562	-0.522815	0.419599	-3.39763	-0.0394887	0.381997	-3.023	-1.43485	0.480251	-3.17745	-0.754829	0.511017	-3.38082	-0.36868	0.435403	-3.3708	-0.0428576	0.311837	-2.89678	-0.507402	0.16763	-2.63573	-0.082653	0.193377	-3.07852	-1.42987	0.0838149	-3.01651	-0.722325	0.0728209	-2.87483	-0.323146	0.158585	-2.60451	-0.0992307	0.234376
68	2.60922	-2.9749	-1.38715	0.269359	-3.25745	-0.522104	0.420476	-3.39766	-0.0394907	0.381933	-3.0082	-1.43674	0.477999	-3.15968	-0.754543	0.510526	-3.36617	-0.370886	0.436776	nan	nan	nan	-2.88042	-0.508206	0.167117	-2.63139	-0.0740569	0.198368	-3.06224	-1.42941	0.0810557	-3.00042	-0.72413	0.0711135	-2.86336	-0.325344	0.159991	-2.59972	-0.088824	0.240657
69	2.6192	-2.95884	-1.38875	0.267284	-3.23812	-0.521704	0.421737	-3.39734	-0.0395623	0.38168	-2.99327	-1.43925	0.475679	-3.14123	-0.754244	0.50984	-3.35021	-0.373053	0.438145	-3.37131	-0.0428316	0.311878	-2.86359	-0.511346	0.165881	-2.629	-0.0670778	0.201357	-3.04542	-1.42937	0.0783627	-2.98484	-0.72722	0.0693285	-2.85122	-0.32864	0.158979	-2.59699	-0.0801941	0.244468
70	2.62919	-2.94254	-1.39044	0.265171	-3.21734	-0.521392	0.423485	-3.39635	-0.0397026	0.381104	-2.97786	-1.44244	0.473293	-3.12222	-0.753843	0.508983	-3.33312	-0.375047	0.439506	-3.37137	-0.0428177	0.31203	-2.84644	-0.515993	0.16423	-2.62727	-0.0614442	0.201438	-3.02814	-1.42982	0.0758121	-2.96928	-0.731218	0.0677042	-2.83895	-0.331621	0.156512	-2.59493	-0.0731308	0.244874
71	2.63918	-2.92626	-1.39205	0.263043	-3.195	-0.520796	0.425663	-3.39511	-0.0397958	0.379959	-2.96233	-1.44617	0.470722	-3.10275	-0.753385	0.508168	-3.31461	-0.37726	0.441361	-3.37122	-0.0428177	0.312294	-2.82935	-0.520359	0.162589	-2.62515	-0.0568754	0.199028	-3.01069	-1.43078	0.0733828	-2.95338	-0.735442	0.066197	-2.82721	-0.333615	0.153583	-2.59263	-0.0673331	0.242878
72	2.64917	-2.91026	-1.39362	0.260962	-3.17114	-0.519594	0.428238	nan	nan	nan	-2.94686	-1.45019	0.468036	-3.08297	-0.7528	0.507415	-3.29501	-0.379398	0.443328	-3.37074	-0.0427078	0.312615	-2.81309	-0.523303	0.161012	-2.62264	-0.0533793	0.196216	-2.99325	-1.43218	0.0711007	-2.93709	-0.739391	0.064704	-2.81659	-0.334487	0.15056	-2.59052	-0.0626977	0.240768
73	2.65916	-2.89461	-1.39534	0.259	-3.14614	-0.517555	0.430944	-3.39254	-0.0389886	0.376768	-2.93163	-1.45435	0.465342	-3.06297	-0.751952	0.506699	-3.27461	-0.381095	0.444849	-3.36911	-0.0422324	0.312802	-2.79877	-0.524596	0.159172	-2.62046	-0.0508322	0.195023	-2.97592	-1.43381	0.0689396	-2.92075	-0.742958	0.0631789	-2.80743	-0.334251	0.147766	-2.58909	-0.058906	0.24087
74	2.66915	-2.87927	-1.39731	0.257245	-3.12046	-0.514672	0.433476	-3.38784	-0.0398007	0.376541	-2.91669	-1.4585	0.46278	-3.04262	-0.750899	0.506155	-3.25295	-0.382685	0.446268	-3.36591	-0.0413047	0.312769	-2.78718	-0.524388	0.157061	-2.61888	-0.0489148	0.195052	-2.95873	-1.43551	0.067009	-2.90502	-0.746211	0.0616487	-2.7997	-0.333405	0.145456	-2.58819	-0.0556734	0.242681
75	2.67913	-2.8641	-1.39966	0.255719	-3.09422	-0.511124	0.435513	-3.38066	-0.0419256	0.37714	-2.90228	-1.46256	0.460401	-3.02194	-0.749929	0.505775	-3.22997	-0.384061	0.447631	-3.36132	-0.0401092	0.313415	-2.77823	-0.523237	0.155017	-2.61765	-0.0471986	0.194689	-2.94191	-1.43722	0.0652068	-2.89031	-0.749167	0.0600098	-2.79321	-0.332518	0.143844	-2.58751	-0.0530749	0.243436
76	2.68912	-2.84916	-1.40231	0.254357	-3.0673	-0.507317	0.437147	-3.37044	-0.0459065	0.377806	-2.88847	-1.46645	0.458294	-3.0011	-0.749274	0.505412	-3.20556	-0.385079	0.448864	-3.35449	-0.0388946	0.316621	-2.77125	-0.521938	0.153257	-2.61668	-0.0457916	0.193994	-2.92555	-1.43902	0.0634964	-2.87683	-0.751681	0.0583994	-2.78756	-0.331958	0.142861	-2.58701	-0.0511176	0.243562
77	2.69911	-2.83438	-1.40523	0.253158	-3.03958	-0.503837	0.438524	-3.35566	-0.0528627	0.378478	-2.87522	-1.47021	0.456591	-2.98034	-0.749005	0.504946	-3.17961	-0.385759	0.450087	-3.34255	-0.0390578	0.323131	-2.76554	-0.520954	0.15159	-2.61596	-0.0447069	0.193549	-2.90949	-1.44086	0.061967	-2.8645	-0.753704	0.0568696	-2.78251	-0.331875	0.142092	-2.58674	-0.0497329	0.244127
78	2.7091	-2.81985	-1.4084	0.252105	-3.01143	-0.501384	0.439541	-3.33657	-0.060376	0.380814	-2.86242	-1.47378	0.455352	-2.95981	-0.749071	0.504357	-3.15229	-0.386222	0.451422	-3.32259	-0.0423489	0.329012	-2.76065	-0.520406	0.1501	-2.61552	-0.0438915	0.193204	-2.89353	-1.44259	0.0606494	-2.85314	-0.755333	0.0554307	-2.77801	-0.332161	0.14151	-2.58665	-0.0488035	0.244792
79	2.71909	-2.8055	-1.41171	0.251235	-2.98343	-0.500586	0.440036	-3.31291	-0.0666052	0.38532	-2.85001	-1.47715	0.45444	-2.9396	-0.749633	0.503754	-3.12395	-0.386864	0.452747	-3.2959	-0.0468808	0.333238	-2.75604	-0.520202	0.14904	-2.61521	-0.04329	0.192871	-2.87763	-1.44424	0.0594461	-2.8424	-0.756745	0.0540564	-2.77443	-0.332317	0.141376	-2.58662	-0.0481827	0.245248
80	2.72907	-2.79123	-1.4151	0.250564	-2.95582	-0.501499	0.440146	-3.28001	-0.0720414	0.389131	-2.83805	-1.48042	0.453692	-2.91979	-0.750768	0.503053	-3.09506	-0.388034	0.453761	-3.26521	-0.05096	0.337159	-2.75124	-0.520126	0.148522	-2.61495	-0.0428064	0.192597	-2.86184	-1.4459	0.0583069	-2.83215	-0.758005	0.0528402	-2.77201	-0.332241	0.141556	-2.58654	-0.0476886	0.245636
81	2.73906	-2.77701	-1.41843	0.250022	-2.92826	-0.503559	0.440262	-3.2463	-0.0764905	0.391713	-2.82646	-1.48357	0.453042	-2.90043	-0.752465	0.502177	-3.06599	-0.389838	0.454206	-3.23166	-0.0544882	0.340321	-2.74619	-0.519862	0.148464	-2.61473	-0.0423529	0.192242	-2.84624	-1.44766	0.0572147	-2.82311	-0.758999	0.0520442	-2.77065	-0.33222	0.14166	-2.58642	-0.0472241	0.246091
82	2.74905	-2.76284	-1.42159	0.249563	-2.90051	-0.506062	0.440554	nan	nan	nan	-2.81514	-1.48656	0.452451	-2.88149	-0.754713	0.501235	-3.03689	-0.392127	0.453974	-3.19603	-0.057556	0.342791	-2.74105	-0.519269	0.14875	-2.61454	-0.0419056	0.19183	-2.83067	-1.44937	0.0562777	-2.81566	-0.75966	0.0519438	-2.76984	-0.332232	0.141701	-2.58632	-0.0469285	0.246316
83	2.75904	-2.74873	-1.4246	0.249282	-2.87253	-0.508691	0.440909	-3.18191	-0.0829772	0.395634	-2.80396	-1.4894	0.451879	-2.86285	-0.757264	0.500177	-3.00767	-0.394631	0.453145	-3.15907	-0.0598916	0.344854	-2.73616	-0.518626	0.149246	-2.61437	-0.0415132	0.19151	-2.81505	-1.45101	0.0554879	-2.80704	-0.760578	0.0521079	-2.76927	-0.332338	0.141865	-2.58623	-0.0467636	0.246481
84	2.76903	-2.73473	-1.42741	0.249082	-2.84442	-0.511406	0.441067	-3.14768	-0.084338	0.395903	-2.79286	-1.49211	0.45132	-2.84441	-0.759926	0.499011	-2.97817	-0.39704	0.451907	-3.12129	-0.0616453	0.345808	-2.73191	-0.518398	0.149763	-2.61421	-0.0411844	0.191288	-2.79945	-1.45252	0.0547566	-2.79732	-0.761565	0.0524229	-2.76869	-0.332417	0.14234	-2.58613	-0.0466192	0.246693
85	2.77902	-2.72085	-1.43	0.248975	-2.81615	-0.514324	0.441122	-3.11056	-0.0847134	0.395151	-2.7818	-1.4947	0.450708	-2.82596	-0.762559	0.497879	-2.94845	-0.399253	0.450392	-3.08263	-0.0627228	0.345756	-2.72826	-0.518593	0.150232	-2.61406	-0.0408887	0.191133	-2.78399	-1.45401	0.0539878	-2.78734	-0.762344	0.0528582	-2.76777	-0.332588	0.142647	-2.58601	-0.0464287	0.246885
86	2.789	-2.7071	-1.43232	0.24907	-2.78744	-0.517306	0.441403	-3.07151	-0.0843314	0.393938	-2.77072	-1.49716	0.450032	-2.80742	-0.765033	0.496846	-2.9188	-0.401282	0.448767	-3.04285	-0.0630925	0.344996	-2.72493	-0.518833	0.150731	-2.61395	-0.0406085	0.191008	-2.76857	-1.45557	0.0533305	-2.77768	-0.762793	0.0533473	-2.76618	-0.332851	0.142751	-2.58591	-0.0462446	0.247024
87	2.79899	-2.69339	-1.43431	0.249296	-2.75886	-0.520325	0.441661	-3.03099	-0.0834364	0.392513	-2.75946	-1.49945	0.449341	-2.78877	-0.767463	0.496095	-2.88935	-0.403011	0.447019	-3.00173	-0.0629876	0.343876	-2.72168	-0.518855	0.151297	-2.61383	-0.0403416	0.190881	-2.75311	-1.45712	0.0527802	-2.76794	-0.763334	0.0537397	-2.76379	-0.333087	0.142808	-2.5858	-0.0460585	0.247113
88	2.80898	-2.67966	-1.43597	0.249674	-2.73081	-0.523365	0.441804	-2.98908	-0.0821223	0.391025	-2.74806	-1.50153	0.448617	-2.77005	-0.769735	0.495511	-2.86017	-0.40436	0.445165	-2.95913	-0.0625775	0.342685	-2.71832	-0.518636	0.151916	-2.61375	-0.0401274	0.190732	-2.73772	-1.45852	0.0522641	-2.75856	-0.763877	0.0540402	-2.76077	-0.333189	0.143072	-2.58564	-0.0458284	0.247143
89	2.81897	-2.666	-1.43731	0.250086	-2.70369	-0.526446	0.441559	-2.9459	-0.080484	0.389639	-2.73659	-1.50342	0.447881	-2.75139	-0.771715	0.494897	-2.83108	-0.405155	0.443286	-2.91513	-0.0619471	0.341695	-2.71472	-0.51829	0.152545	-2.61369	-0.0399441	0.190561	-2.72236	-1.45978	0.0518752	-2.7492	-0.7642	0.0543196	-2.7575	-0.333093	0.143778	-2.58541	-0.0454739	0.247138
90	2.82896	-2.6525	-1.43836	0.2504	-2.67743	-0.529565	0.440868	-2.90166	-0.0784865	0.388442	-2.7251	-1.50506	0.447189	-2.73282	-0.773531	0.494364	-2.80184	-0.405204	0.441588	-2.86996	-0.0613353	0.340959	-2.71075	-0.517894	0.153215	-2.61364	-0.039797	0.190388	-2.70707	-1.46095	0.0515332	-2.74018	-0.764051	0.0546114	-2.75435	-0.332983	0.144791	-2.58508	-0.0450164	0.247127
91	2.83895	-2.63905	-1.4392	0.250665	-2.652	-0.53276	0.439696	-2.857	-0.076329	0.38734	-2.71358	-1.50637	0.44652	-2.7141	-0.775192	0.49396	-2.77251	-0.40451	0.440123	-2.82394	-0.0609349	0.340515	-2.70643	-0.517527	0.153994	-2.61361	-0.039677	0.190225	-2.69184	-1.46198	0.0512635	-2.73116	-0.763795	0.0548946	-2.75155	-0.333084	0.145901	-2.58467	-0.0444926	0.247097
92	2.84893	-2.62553	-1.43991	0.251012	-2.62746	-0.535945	0.437988	-2.81197	-0.0743794	0.38654	-2.70204	-1.50738	0.445933	-2.6954	-0.776615	0.493526	-2.74313	-0.40314	0.438888	-2.77732	-0.0608134	0.340374	-2.70217	-0.517298	0.154885	-2.61359	-0.0395905	0.190054	-2.6767	-1.4628	0.0511026	-2.72165	-0.763762	0.0552576	-2.74923	-0.333404	0.146919	-2.58421	-0.0439282	0.247111
93	2.85892	-2.61193	-1.44058	0.251484	-2.60385	-0.539081	0.435856	-2.76493	-0.0723837	0.386132	-2.69048	-1.50804	0.445422	-2.67762	-0.777669	0.493174	-2.71377	-0.401019	0.437763	-2.72999	-0.0600714	0.340327	-2.6981	-0.517154	0.155828	-2.61358	-0.0395029	0.189898	-2.66165	-1.46337	0.0510413	-2.71203	-0.763634	0.0556074	-2.74741	-0.33386	0.147707	-2.58382	-0.0435052	0.247064
94	2.86891	-2.59818	-1.44123	0.252078	-2.58107	-0.542023	0.433553	-2.71748	-0.0697384	0.385661	-2.67903	-1.50836	0.444983	-2.65964	-0.77853	0.492864	-2.68445	-0.398224	0.436737	-2.68225	-0.0589363	0.339928	-2.69375	-0.516853	0.156697	-2.61357	-0.0394128	0.189735	-2.64661	-1.46368	0.051041	-2.70232	-0.763327	0.05588	-2.74581	-0.334341	0.148336	-2.5835	-0.0432354	0.246933
95	2.8789	-2.58432	-1.44176	0.252713	-2.55893	-0.544549	0.43117	-2.66947	-0.0666922	0.384788	-2.66764	-1.50829	0.444582	-2.64206	-0.779025	0.492563	-2.65502	-0.394843	0.435738	-2.63409	-0.058143	0.339221	-2.68965	-0.516619	0.157329	-2.61358	-0.0393285	0.189563	-2.63157	-1.46374	0.0510121	-2.69265	-0.762784	0.0560167	-2.74429	-0.334832	0.148793	-2.58319	-0.0429998	0.246732
96	2.88889	-2.57075	-1.44194	0.253107	-2.53743	-0.546534	0.428722	-2.62166	-0.0639811	0.383963	-2.65628	-1.50788	0.444304	-2.6248	-0.779091	0.492212	-2.62547	-0.391068	0.434685	-2.58609	-0.057265	0.338949	-2.68565	-0.516513	0.157592	-2.61361	-0.0392816	0.189342	-2.61658	-1.46347	0.050969	-2.68304	-0.761999	0.0559316	-2.74265	-0.335348	0.149092	-2.58286	-0.0427909	0.246405
97	2.89888	-2.55789	-1.44157	0.253294	-2.51651	-0.547902	0.426222	-2.57359	-0.0616753	0.383737	-2.64488	-1.50708	0.444027	-2.60788	-0.77887	0.491868	-2.59578	-0.386974	0.433475	-2.53782	-0.0563205	0.339483	-2.68148	-0.516532	0.15745	-2.61369	-0.0392526	0.189002	-2.60159	-1.46289	0.0509413	-2.67292	-0.76114	0.0556879	-2.74097	-0.335932	0.149203	-2.58246	-0.0425184	0.246017
