Coordinates
version=1
nRows=228
nColumns=38
inDegrees=no

Units are S.I. units (second, meters, Newtons, ...)
If the header above contains a line with 'inDegrees', this indicates whether rotational values are in degrees (yes) or radians (no).

endheader
time	pelvis_tilt_moment	pelvis_list_moment	pelvis_rotation_moment	pelvis_tx_force	pelvis_ty_force	pelvis_tz_force	hip_flexion_r_moment	hip_adduction_r_moment	hip_rotation_r_moment	knee_angle_r_moment	ankle_angle_r_moment	subtalar_angle_r_moment	mtp_angle_r_moment	hip_flexion_l_moment	hip_adduction_l_moment	hip_rotation_l_moment	knee_angle_l_moment	ankle_angle_l_moment	subtalar_angle_l_moment	mtp_angle_l_moment	lumbar_extension_moment	lumbar_bending_moment	lumbar_rotation_moment	arm_flex_r_moment	arm_add_r_moment	arm_rot_r_moment	elbow_flex_r_moment	pro_sup_r_moment	wrist_flex_r_moment	wrist_dev_r_moment	arm_flex_l_moment	arm_add_l_moment	arm_rot_l_moment	elbow_flex_l_moment	pro_sup_l_moment	wrist_flex_l_moment	wrist_dev_l_moment
0	0	0	0	0	0	0	0	0	0	0	0	0	0	0	0	0	0	0	0	0	0	0	0	0	0	0	0	0	0	0	0	0	0	0	0	0	0
0.00497807	62.8834	28.9647	-8.6056	-24.3093	450.788	-15.059	-21.1855	0.367014	-0.454632	9.56786	0.867865	-0.125165	-0.0609893	-9.48473	18.3093	-6.39993	-2.38452	13.4343	4.65413	-0.0520764	7.18703	0.221598	-3.48364	-0.268772	-5.92504	-1.82271	0.903168	-0.0579845	-0.01198	-0.197922	-1.55144	4.76462	1.67588	1.54367	0.0666317	0.231329	0.0725909
0.00995614	61.2084	29.9601	-9.34026	-36.1225	408.356	-13.5798	-19.2808	0.633667	-0.477826	9.39014	0.849149	-0.105888	-0.060623	-12.5565	16.8223	-5.75946	-4.4911	14.4149	5.87858	-0.0531906	6.88626	0.589729	-3.401	-0.269458	-5.88557	-1.8035	0.88745	-0.0574167	-0.0123203	-0.194769	-1.5576	4.75589	1.66877	1.52956	0.0661628	0.228948	0.0726638
0.0149342	59.027	30.8654	-9.84104	-48.83	365.504	-12.5122	-16.6775	0.955972	-0.50701	9.02743	0.846532	-0.0896147	-0.0607444	-15.8242	15.3173	-5.10797	-6.56437	14.9084	7.17749	-0.0547003	6.47166	1.08338	-3.25086	-0.276481	-5.81298	-1.7694	0.868091	-0.0563577	-0.012043	-0.189839	-1.58218	4.7283	1.65406	1.50867	0.0653619	0.225281	0.0723491
0.0199123	56.3424	31.5725	-10.2259	-62.0365	322.867	-11.7038	-13.5118	1.32121	-0.546116	8.50156	0.862626	-0.0773617	-0.0615053	-19.1364	13.6863	-4.44078	-8.68109	14.9286	8.55268	-0.0564486	5.96424	1.71765	-3.16857	-0.323643	-5.71199	-1.72331	0.833229	-0.0550494	-0.0125244	-0.182691	-1.62304	4.68577	1.63553	1.48042	0.0644296	0.220465	0.0722666
0.0248904	53.132	32.0129	-10.3713	-75.3494	281.051	-10.8989	-9.92805	1.70734	-0.59574	7.84175	0.899408	-0.070043	-0.0630475	-22.3406	11.8317	-3.75323	-10.9084	14.4993	10.0033	-0.0583033	5.41392	2.46288	-3.05292	-0.38351	-5.58179	-1.66457	0.794612	-0.0533515	-0.0125324	-0.174025	-1.68125	4.62579	1.61057	1.44781	0.0632595	0.214715	0.0717949
0.0298684	49.4179	32.1183	-10.2901	-88.3126	240.683	-9.94379	-6.06812	2.09732	-0.657317	7.07859	0.956823	-0.0679821	-0.0654113	-25.3176	9.68211	-3.03887	-13.2899	13.6529	11.5255	-0.060126	4.86299	3.30665	-2.93209	-0.461064	-5.42731	-1.59556	0.751423	-0.0513623	-0.0122925	-0.164046	-1.75574	4.55096	1.58069	1.41197	0.0619341	0.20827	0.0710446
0.0348465	45.2912	31.8523	-10.0871	-100.423	202.442	-8.76892	-2.0659	2.4664	-0.729572	6.243	1.03315	-0.0712521	-0.0685477	-28.0052	7.20157	-2.2917	-15.8331	12.4298	13.1126	-0.06178	4.35237	4.24158	-2.92584	-0.58316	-5.25955	-1.52158	0.694386	-0.0493706	-0.0130716	-0.152713	-1.84355	4.46878	1.55087	1.37303	0.0606848	0.201441	0.0706746
0.0398246	40.819	31.2166	-9.68759	-111.328	166.824	-7.25957	1.96662	2.80152	-0.811824	5.3614	1.12729	-0.0798042	-0.0724428	-30.3555	4.39105	-1.50949	-18.528	10.8772	14.7548	-0.0631572	3.92362	5.23526	-2.95388	-0.725569	-5.08177	-1.44368	0.633539	-0.0473113	-0.0139226	-0.140779	-1.94345	4.37995	1.51986	1.33405	0.0594578	0.194529	0.070228
0.0448026	36.1132	30.1934	-9.1023	-120.565	134.508	-5.35515	5.91583	3.0995	-0.9049	4.46248	1.23659	-0.0927606	-0.0770095	-32.3521	1.26033	-0.690685	-21.3473	9.04732	16.4391	-0.0641807	3.62128	6.26979	-3.02251	-0.886389	-4.9033	-1.36555	0.570614	-0.0452963	-0.014891	-0.128722	-2.05475	4.29037	1.48999	1.29693	0.0583502	0.187896	0.0698034
0.0497807	31.2746	28.8366	-8.4569	-127.948	105.978	-3.13473	9.69568	3.32599	-1.00153	3.56944	1.35718	-0.110107	-0.0820627	-33.9693	-2.151	0.162618	-24.2597	6.99535	18.15	-0.0648012	3.46913	7.32884	-3.24663	-1.08789	-4.73847	-1.2938	0.497262	-0.0436483	-0.0172494	-0.116675	-2.17082	4.21014	1.46674	1.26241	0.0576042	0.181942	0.0700706
0.0547588	26.3789	27.1766	-7.68176	-133.3	81.847	-0.505089	13.2308	3.46872	-1.09683	2.70453	1.48684	-0.131591	-0.0875169	-35.1862	-5.81221	1.0472	-27.2323	4.77692	19.8697	-0.0649898	3.49974	8.38066	-3.54094	-1.30393	-4.59342	-1.23024	0.424383	-0.0423187	-0.0200085	-0.105495	-2.29089	4.14252	1.44961	1.23423	0.0571862	0.177055	0.0705963
0.0597368	21.5052	25.2939	-6.83058	-136.486	62.4571	2.53481	16.4597	3.52417	-1.1865	1.88571	1.62197	-0.156556	-0.0932068	-35.9948	-9.64044	1.95438	-30.2228	2.44476	21.5798	-0.0647416	3.7362	9.3971	-3.9155	-1.53201	-4.47609	-1.17819	0.353492	-0.0414091	-0.0232356	-0.0956015	-2.41193	4.09225	1.44042	1.21414	0.0571701	0.173542	0.0714596
0.0647149	16.7448	23.222	-6.02298	-137.659	48.5393	5.90554	19.33	3.48487	-1.26505	1.13399	1.75813	-0.184159	-0.0989233	-36.3624	-13.594	2.87661	-33.199	0.0483794	23.2608	-0.06413	4.18542	10.3644	-4.46061	-1.78684	-4.40452	-1.14503	0.279099	-0.0412405	-0.0279647	-0.0873408	-2.52732	4.07294	1.44519	1.20428	0.0578035	0.171937	0.073259
0.069693	12.1785	21.0464	-5.17427	-136.73	40.3184	9.72791	21.8032	3.29199	-1.31385	0.464521	1.89279	-0.215264	-0.104533	-36.3221	-17.6584	3.80962	-36.1154	-2.37096	24.8938	-0.0631753	4.86589	11.2478	-5.09442	-2.04482	-4.37987	-1.13073	0.211147	-0.0417072	-0.0331972	-0.0813234	-2.63753	4.084	1.46226	1.20722	0.0590041	0.172438	0.0755382
0.0746711	7.84336	18.6659	-4.33361	-133.991	38.5076	14.3089	23.8701	3.15082	-1.3711	-0.112474	2.02294	-0.24501	-0.10997	-35.8749	-21.7185	4.73438	-38.918	-4.77837	26.4627	-0.0620097	5.79277	12.0116	-5.73591	-2.27695	-4.41373	-1.13903	0.161522	-0.0428256	-0.0379787	-0.0786288	-2.73813	4.13327	1.4923	1.22854	0.0607852	0.175653	0.0778721
0.0796491	3.91623	16.2732	-3.65357	-129.626	43.4912	19.4866	25.4821	2.92879	-1.40761	-0.570225	2.14396	-0.274823	-0.11499	-35.0373	-25.7328	5.6411	-41.5624	-7.14559	27.9512	-0.0607349	6.93915	12.6361	-6.52341	-2.5135	-4.51645	-1.17461	0.118917	-0.0448795	-0.0437909	-0.0789459	-2.82496	4.22828	1.54041	1.26757	0.0633558	0.18174	0.0810609
0.0846272	0.417824	13.8444	-3.04694	-124.166	55.7975	25.6425	26.6697	2.6854	-1.42728	-0.904048	2.25481	-0.303913	-0.119564	-33.819	-29.6887	6.51983	-44.0119	-9.44944	29.3443	-0.0594574	8.29079	13.0767	-7.32532	-2.71376	-4.69064	-1.23749	0.0996943	-0.0477164	-0.0490188	-0.083263	-2.89355	4.37004	1.60374	1.33033	0.066586	0.191123	0.0842491
0.0896053	-2.53793	11.4039	-2.54521	-117.52	75.9826	32.9388	27.4035	2.43273	-1.42705	-1.09199	2.35237	-0.331472	-0.123578	-32.2658	-33.5442	7.35947	-46.2204	-11.6716	30.6282	-0.0583018	9.85681	13.315	-8.13601	-2.87556	-4.94092	-1.32889	0.106125	-0.0513524	-0.0535105	-0.0917856	-2.94737	4.56136	1.68341	1.41792	0.0705063	0.203963	0.0874751
0.0945833	-4.86249	8.91804	-2.30805	-110.27	104.603	41.6461	27.6943	2.22792	-1.41908	-1.11744	2.43365	-0.355674	-0.126935	-30.3744	-37.2836	8.14939	-48.1623	-13.7969	31.7903	-0.0574039	11.5893	13.3307	-9.04129	-3.01519	-5.2752	-1.452	0.132157	-0.055973	-0.0581365	-0.104364	-2.98142	4.80841	1.78269	1.53133	0.0752462	0.220444	0.0911816
0.0995614	-6.37771	6.53383	-2.21293	-102.964	142.351	51.8363	27.5418	1.96354	-1.36888	-0.953711	2.49744	-0.378679	-0.129596	-28.1752	-40.8944	8.88143	-49.8068	-15.8144	32.8197	-0.0568689	13.4228	13.0838	-9.90967	-3.09337	-5.693	-1.60516	0.193177	-0.0613822	-0.0612969	-0.121714	-2.99163	5.11075	1.89794	1.67624	0.0806359	0.240844	0.0944902
0.104539	-7.29719	3.92302	-2.49357	-95.7794	189.173	64.3866	27.0182	1.96611	-1.36244	-0.614892	2.54266	-0.393468	-0.131617	-25.649	-44.3866	9.54852	-51.1554	-17.7151	33.7071	-0.0568144	15.4004	12.5589	-10.8539	-3.14069	-6.19387	-1.78914	0.27937	-0.0677035	-0.0640403	-0.143288	-2.98224	5.4665	2.0315	1.84988	0.0867843	0.265026	0.0979931
0.109518	-7.43172	1.16585	-3.03379	-89.5198	246.553	79.5185	26.1292	2.15498	-1.37981	-0.0621182	2.56896	-0.401353	-0.133046	-22.7872	-47.7869	10.1474	-52.2012	-19.4915	34.4449	-0.0573857	17.4459	11.7159	-11.7408	-3.11518	-6.78281	-2.00382	0.408046	-0.0747906	-0.064678	-0.170018	-2.94823	5.87999	2.18086	2.06074	0.0935735	0.293555	0.10076
0.114496	-6.87839	-1.83901	-3.82516	-84.5402	314.451	97.7161	24.9561	2.57507	-1.43447	0.697147	2.57718	-0.40169	-0.133947	-19.6055	-51.1881	10.6867	-52.9589	-21.139	35.0262	-0.0586435	19.5471	10.5319	-12.5664	-3.01631	-7.45399	-2.24693	0.580375	-0.0825584	-0.06298	-0.201727	-2.89079	6.34595	2.34418	2.30892	0.100931	0.326304	0.102627
0.119474	-5.26447	-4.99428	-5.03535	-80.8155	393.242	118.968	23.3955	3.23118	-1.53182	1.72422	2.563	-0.392985	-0.134245	-16.1939	-54.4508	11.1499	-53.3917	-22.6577	35.4503	-0.0606576	21.6234	9.00173	-13.378	-2.85813	-8.2058	-2.5171	0.790849	-0.0910175	-0.0594687	-0.237819	-2.81243	6.86399	2.52218	2.59291	0.10886	0.363026	0.103901
0.124452	-2.84937	-8.44002	-6.5622	-79.3657	483.875	144.106	21.6051	4.1987	-1.69365	3.00389	2.53072	-0.374884	-0.134168	-12.462	-57.7305	11.5493	-53.558	-24.043	35.7132	-0.0635417	23.6776	7.07442	-14.0941	-2.61246	-9.03774	-2.81362	1.0531	-0.100047	-0.0527785	-0.279029	-2.70776	7.43234	2.71164	2.92035	0.117261	0.404243	0.103696
0.12943	0.339451	-12.174	-8.40032	-80.3497	584.578	173.052	19.645	5.48939	-1.93087	4.51882	2.48096	-0.347074	-0.133743	-8.50075	-61.0191	11.89	-53.4669	-25.2976	35.815	-0.067216	25.6417	4.75617	-14.6978	-2.28126	-9.92867	-3.12886	1.36349	-0.109405	-0.0428326	-0.324437	-2.57643	8.03535	2.90698	3.28571	0.125899	0.449076	0.101819
0.134408	4.33181	-16.315	-10.6366	-84.1303	695.826	206.647	17.5483	7.17181	-2.26772	6.2842	2.41526	-0.308434	-0.133113	-4.32724	-64.4126	12.1851	-53.149	-26.4197	35.7547	-0.0717339	27.4835	2.00756	-15.2351	-1.8762	-10.8726	-3.46055	1.71994	-0.119059	-0.0297709	-0.373611	-2.41931	8.66699	3.10691	3.68994	0.134739	0.497446	0.0982303
0.139386	8.99642	-20.8061	-13.1348	-91.0542	816.966	244.184	15.4399	9.20128	-2.69674	8.27261	2.3374	-0.260449	-0.132412	0.0415253	-67.88	12.4351	-52.6329	-27.4099	35.5341	-0.0770636	29.1684	-1.12261	-15.6339	-1.38134	-11.8649	-3.80622	2.12575	-0.128884	-0.0130721	-0.426542	-2.23456	9.32659	3.30919	4.13259	0.143679	0.549166	0.0926012
0.144364	-26.4545	5.7467	2.68408	0.81138	0.261593	-0.107427	24.6629	-6.50908	1.8271	-5.54578	2.29081	-0.620147	-0.100596	-19.1198	-47.229	11.1259	-49.6493	-29.7174	35.5976	-0.0282888	20.0704	13.953	-13.5491	-3.52825	-6.00412	-1.93714	-0.341011	-0.0752914	-0.134292	-0.136763	-2.15038	5.35592	2.09107	1.29927	0.0876542	0.230595	0.135324
0.149342	-26.9616	5.34834	2.50347	0.867992	0.0168699	-0.157394	23.7331	-6.54211	2.05246	-5.66164	2.20679	-0.61815	-0.0956172	-16.8839	-47.3268	11.0164	-48.7209	-30.726	35.2172	-0.027194	19.7489	13.1295	-13.3402	-3.29412	-6.09981	-1.98884	-0.290324	-0.0764659	-0.13349	-0.145536	-1.9511	5.41861	2.101	1.31793	0.08768	0.233633	0.134836
0.15432	-27.028	4.95478	2.26804	0.911827	-0.211101	-0.151776	22.6298	-6.4882	2.24515	-5.70422	2.11122	-0.610257	-0.0903632	-14.7367	-47.1801	10.8403	-47.5826	-31.6926	34.7828	-0.0263391	19.2684	12.2874	-13.0003	-3.04312	-6.16997	-2.02811	-0.234899	-0.0771083	-0.131453	-0.153252	-1.7697	5.4633	2.10343	1.32912	0.087292	0.235401	0.133949
0.159298	-26.7863	4.45632	2.04083	0.923881	-0.41336	-0.113886	21.3681	-6.36019	2.40501	-5.67338	2.00584	-0.596877	-0.0849186	-12.6271	-46.8691	10.61	-46.2902	-32.6163	34.3018	-0.0257187	18.6507	11.4935	-12.5095	-2.77541	-6.20863	-2.05244	-0.174476	-0.0771488	-0.127942	-0.159714	-1.6074	5.48814	2.09674	1.33393	0.0864682	0.235896	0.13238
0.164276	-26.1134	3.99471	1.72887	0.908881	-0.594142	-0.0592871	20.027	-6.16798	2.53043	-5.58704	1.89567	-0.579149	-0.0795012	-10.6955	-46.3498	10.3334	-44.8172	-33.5001	33.7829	-0.0252657	17.8833	10.6816	-11.9697	-2.51177	-6.22776	-2.06693	-0.116604	-0.0768223	-0.124095	-0.164891	-1.46455	5.49823	2.08556	1.33022	0.0853583	0.235168	0.130913
0.169254	-25.1058	3.5401	1.44966	0.898018	-0.774487	0.00989261	18.5978	-5.96538	2.6357	-5.44083	1.7808	-0.558064	-0.0740908	-8.88723	-45.6939	10.021	-43.2168	-34.343	33.2324	-0.0249795	16.9877	9.88865	-11.3002	-2.23527	-6.21877	-2.06782	-0.0541283	-0.0759458	-0.118915	-0.168901	-1.34187	5.4885	2.06599	1.32049	0.0838413	0.233248	0.128862
0.174232	-23.9172	2.92742	1.22634	0.874298	-0.942189	0.0835289	17.1343	-5.65508	2.67922	-5.25205	1.66421	-0.531797	-0.0688388	-7.18837	-44.9429	9.68344	-41.523	-35.1453	32.6565	-0.0248389	15.9986	9.14923	-10.5011	-1.94687	-6.18594	-2.05663	0.0124859	-0.0745773	-0.112499	-0.17189	-1.24022	5.46301	2.03934	1.30524	0.0819809	0.230282	0.126287
0.179211	-22.4732	2.42238	0.943306	0.864463	-1.09917	0.174047	15.6752	-5.36715	2.70952	-5.02556	1.5501	-0.504518	-0.0638771	-5.64744	-44.0634	9.32122	-39.7364	-35.9102	32.0631	-0.0247975	14.9193	8.43099	-9.70477	-1.67789	-6.13074	-2.03522	0.0728888	-0.0729007	-0.106063	-0.17338	-1.15759	5.42016	2.00792	1.28324	0.0798982	0.226254	0.123747
0.184189	-20.9705	1.72385	0.788071	0.822878	-1.22775	0.247894	14.2383	-5.0141	2.69298	-4.77106	1.43869	-0.47428	-0.0592171	-4.20602	-43.172	8.9496	-37.9113	-36.6375	31.4559	-0.0248648	13.7802	7.80529	-8.77398	-1.39657	-6.05169	-2.0018	0.138108	-0.0707468	-0.0982918	-0.173931	-1.09456	5.36239	1.9691	1.25768	0.0774979	0.221356	0.120499
0.189167	-19.3676	1.19045	0.673034	0.784195	-1.50803	0.293101	12.8308	-4.69033	2.65505	-4.49069	1.33153	-0.443147	-0.0548837	-2.87839	-42.1932	8.56467	-36.0506	-37.3324	30.843	-0.0250009	12.6166	7.16061	-7.77908	-1.11108	-5.95594	-1.96054	0.207041	-0.0682713	-0.0896406	-0.173896	-1.04679	5.28846	1.92455	1.22918	0.07485	0.215817	0.116811
0.194145	-17.7444	0.393785	0.523753	0.839731	-1.7797	0.367338	11.4902	-4.31455	2.56853	-4.19696	1.23221	-0.410455	-0.0510519	-1.68546	-41.276	8.18713	-34.1814	-37.9977	30.2269	-0.025171	11.4185	6.66396	-6.8322	-0.860868	-5.84228	-1.91093	0.263104	-0.0656426	-0.0816577	-0.172189	-1.01684	5.20494	1.8779	1.19497	0.0721474	0.209455	0.11336
0.199123	-16.098	-0.231305	0.462554	0.884113	-2.1215	0.492551	10.2281	-3.97922	2.47597	-3.89226	1.14044	-0.378832	-0.0476332	-0.613142	-40.2978	7.80076	-32.3022	-38.6393	29.6155	-0.0253826	10.2311	6.16348	-5.81604	-0.60306	-5.71321	-1.85429	0.32499	-0.0627208	-0.0726203	-0.170143	-0.998447	5.1064	1.82524	1.16064	0.069225	0.202727	0.109241
0.204101	-14.5507	-0.929874	0.509111	1.02867	-2.56247	0.748965	9.04982	-3.62914	2.34418	-3.58326	1.05667	-0.34652	-0.044658	0.354651	-39.3824	7.42204	-30.4506	-39.2607	29.0107	-0.0256188	9.09463	5.7125	-4.73303	-0.340473	-5.57117	-1.79149	0.391285	-0.0595547	-0.0626689	-0.167786	-0.992234	4.99676	1.76772	1.12659	0.0661494	0.195751	0.104505
0.209079	-13.0724	-1.59173	0.488303	1.05008	-2.85837	0.942512	7.98708	-3.29686	2.19375	-3.27381	0.983859	-0.315514	-0.0422343	1.25122	-38.4877	7.04402	-28.6391	-39.8675	28.4176	-0.02587	7.97431	5.32099	-3.75545	-0.112855	-5.42811	-1.72815	0.446235	-0.0565012	-0.0537867	-0.164635	-0.993968	4.8851	1.71183	1.09065	0.0631809	0.18861	0.100225
0.214057	-11.7243	-2.18869	0.570686	1.03012	-3.0955	1.1044	7.03673	-2.99972	2.0322	-2.96866	0.920377	-0.285986	-0.0402469	2.07006	-37.6313	6.66952	-26.8673	-40.4651	27.8395	-0.0261367	6.92471	4.95788	-2.73521	0.12077	-5.2809	-1.66261	0.506261	-0.0533448	-0.0441912	-0.161615	-1.00128	4.7681	1.65312	1.05757	0.0601549	0.181609	0.0953981
0.219035	-10.5167	-2.67356	0.764301	0.987898	-3.29261	1.27301	6.20097	-2.74481	1.86523	-2.67113	0.866353	-0.258429	-0.0386787	2.80861	-36.7947	6.29583	-25.1388	-41.0592	27.2799	-0.0264158	5.96843	4.61421	-1.66559	0.364829	-5.1299	-1.59535	0.57353	-0.0500938	-0.0337	-0.158937	-1.01071	4.64564	1.59108	1.02928	0.0570742	0.174925	0.0898383
0.224013	-9.4415	-3.15086	0.871993	0.898927	-3.43934	1.33376	5.49149	-2.50313	1.68356	-2.38715	0.823208	-0.232674	-0.0375964	3.47578	-36.0072	5.92619	-23.4619	-41.6557	26.7407	-0.0266766	5.07361	4.34457	-0.741702	0.569168	-4.98632	-1.53169	0.627433	-0.0471312	-0.0247271	-0.155793	-1.0215	4.52811	1.53338	1.00105	0.0542393	0.168462	0.0849088
0.228991	-8.53423	-3.52434	1.06982	0.805255	-3.57477	1.36086	4.87915	-2.30112	1.49932	-2.11333	0.788304	-0.208906	-0.0368517	4.10404	-35.2574	5.55754	-21.8495	-42.2591	26.2245	-0.026955	4.28057	4.08942	0.20881	0.7815	-4.84513	-1.46897	0.687245	-0.0441773	-0.0151632	-0.153168	-1.03172	4.41005	1.47444	0.978035	0.0514288	0.162486	0.0794496
0.233969	-7.78943	-3.78552	1.39277	0.719443	-3.70422	1.36229	4.36188	-2.1558	1.32458	-1.85182	0.76101	-0.187771	-0.0363899	4.67943	-34.5546	5.19105	-20.2953	-42.8749	25.7328	-0.0272458	3.605	3.84427	1.21209	1.01055	-4.70658	-1.40735	0.756326	-0.0412124	-0.00467622	-0.151311	-1.03857	4.29186	1.41351	0.96206	0.0486268	0.15715	0.0732245
0.238947	-7.13642	-3.98743	1.57307	0.701357	-3.80223	1.31918	3.9268	-2.01891	1.13931	-1.60183	0.741844	-0.16827	-0.0362602	5.20246	-33.8639	4.8246	-18.7943	-43.5092	25.2677	-0.0275294	3.00308	3.6575	2.03414	1.19558	-4.58016	-1.35181	0.810662	-0.0386452	0.00397422	-0.149156	-1.04209	4.18206	1.3586	0.947457	0.046151	0.152266	0.0677708
0.243925	-6.59415	-4.07316	1.81497	0.712261	-3.87143	1.27297	3.55948	-1.94625	0.96985	-1.36216	0.728383	-0.151438	-0.0363086	5.67426	-33.233	4.46323	-17.3472	-44.1659	24.8289	-0.027829	2.51174	3.46826	2.86041	1.38885	-4.46206	-1.30005	0.870835	-0.0361953	0.0130093	-0.147803	-1.03889	4.07658	1.30413	0.939962	0.0437777	0.148158	0.061868
0.248904	-6.15312	-4.09462	2.15446	0.778147	-3.88123	1.21699	3.24537	-1.87839	0.795348	-1.13304	0.719431	-0.135781	-0.0364979	6.10087	-32.6143	4.10319	-15.9478	-44.8496	24.4178	-0.028163	2.12751	3.29036	3.73479	1.60006	-4.34992	-1.25066	0.940123	-0.033784	0.0228621	-0.14732	-1.02919	3.975	1.24882	0.940432	0.0414551	0.144822	0.0552629
0.253882	-5.79684	-4.0083	2.36219	0.902968	-3.80647	1.11643	2.9985	-1.85195	0.637659	-0.916363	0.716276	-0.12294	-0.0368636	6.48669	-32.0275	3.74559	-14.5965	-45.5648	24.0342	-0.0284991	1.83228	3.14237	4.425	1.77301	-4.25637	-1.21031	0.996935	-0.0318537	0.0309042	-0.14698	-1.01085	3.88656	1.20097	0.944391	0.0395189	0.142255	0.0494335
0.25886	-5.49537	-3.84887	2.61751	1.01002	-3.69325	1.00718	2.78131	-1.84763	0.48536	-0.707656	0.7158	-0.111549	-0.0372694	6.83516	-31.4682	3.39293	-13.2873	-46.3145	23.6774	-0.028875	1.62673	2.99567	5.12691	1.95812	-4.17195	-1.17401	1.06027	-0.0300495	0.0393684	-0.147502	-0.982032	3.80486	1.15376	0.956465	0.0376922	0.140546	0.043109
0.263838	-5.28715	-3.65007	2.95703	1.13549	-3.45565	0.830384	2.59071	-1.86704	0.343454	-0.50654	0.71739	-0.101742	-0.0376791	7.16931	-30.9593	3.0467	-12.0272	-47.1007	23.3461	-0.0293028	1.52527	2.85682	5.86424	2.16128	-4.09799	-1.14198	1.13221	-0.0283569	0.0484711	-0.149045	-0.943132	3.73172	1.10727	0.977351	0.0359759	0.139774	0.0361984
0.268816	-5.13013	-3.42789	3.1403	1.20825	-3.17821	0.624105	2.43577	-1.90003	0.213289	-0.314918	0.722244	-0.0939511	-0.0381474	7.48767	-30.4912	2.70644	-10.8108	-47.9267	23.0396	-0.0297473	1.47821	2.77103	6.41369	2.32508	-4.04083	-1.1183	1.19022	-0.0271425	0.0556466	-0.150561	-0.892663	3.67285	1.06825	1.00176	0.0346462	0.139729	0.0300823
0.273794	-4.95876	-2.9859	3.38038	1.21459	-2.95605	0.426041	2.25308	-2.01966	0.124141	-0.114678	0.726907	-0.0891161	-0.0385052	7.79646	-30.0491	2.37087	-9.63226	-48.7941	22.7566	-0.0302384	1.51038	2.61529	6.99468	2.51176	-3.99414	-1.09945	1.25919	-0.0260302	0.0635932	-0.153287	-0.82887	3.61956	1.02929	1.03517	0.0333833	0.140625	0.0233449
0.278772	-4.95405	-2.64145	3.73134	1.16836	-2.67402	0.220194	2.12641	-2.08966	0.024195	0.0626139	0.733175	-0.0845042	-0.0388347	8.10872	-29.6782	2.04403	-8.49947	-49.7033	22.4947	-0.0307897	1.63867	2.48672	7.6291	2.71884	-3.95593	-1.08383	1.33687	-0.0249882	0.0722685	-0.156933	-0.755749	3.57546	0.990806	1.07681	0.0322128	0.142374	0.0159996
0.28375	-4.89872	-2.32767	3.87062	1.03413	-2.49709	0.0918741	1.94866	-2.15503	-0.0661191	0.28214	0.739109	-0.0807886	-0.0391418	8.41551	-29.3796	1.72653	-7.4047	-50.6569	22.2528	-0.0313408	1.78624	2.40115	8.04044	2.87926	-3.93521	-1.07728	1.39699	-0.0244762	0.0785751	-0.160388	-0.669161	3.54619	0.960846	1.12024	0.0314535	0.144735	0.00973197
0.288728	-5.01086	-2.04626	4.02274	0.760691	-2.40707	0.033951	1.8412	-2.20578	-0.147928	0.45104	0.747613	-0.0788739	-0.0393989	8.74709	-29.1497	1.41483	-6.35466	-51.6547	22.0294	-0.0319366	1.99879	2.33788	8.42375	3.03922	-3.9226	-1.07453	1.45814	-0.0241301	0.084762	-0.164318	-0.573141	3.52554	0.9331	1.16964	0.0308528	0.147796	0.00332979
0.293706	-5.13323	-1.77109	3.98064	0.465314	-2.38095	-0.00405538	1.73172	-2.24327	-0.220468	0.624234	0.75759	-0.0783188	-0.0396551	9.08327	-28.9789	1.10925	-5.33916	-52.6984	21.8235	-0.0325422	2.22997	2.30186	8.58503	3.15279	-3.9316	-1.08213	1.50201	-0.024335	0.0885319	-0.168166	-0.467581	3.52242	0.915407	1.21957	0.0306895	0.15145	-0.0017778
0.298684	-5.29009	-1.51778	3.93702	0.246054	-2.42722	0.0653141	1.59744	-2.26326	-0.285527	0.808553	0.767568	-0.078635	-0.0398519	9.43117	-28.876	0.809163	-4.3592	-53.7878	21.6338	-0.0331791	2.51357	2.26318	8.71455	3.26568	-3.95058	-1.09425	1.54672	-0.0247137	0.0921073	-0.172529	-0.354681	3.52832	0.900684	1.2739	0.0306848	0.155719	-0.00684389
0.303662	-5.43486	-1.29796	3.90549	-0.10891	-2.63031	0.347125	1.45048	-2.25096	-0.345938	1.00368	0.777931	-0.079724	-0.0400108	9.76929	-28.8411	0.513978	-3.40283	-54.9241	21.4594	-0.0338342	2.8113	2.20957	8.83197	3.38231	-3.97539	-1.10902	1.59345	-0.025187	0.0956926	-0.177275	-0.234388	3.53979	0.887363	1.33202	0.0307609	0.160423	-0.0119829
0.30864	-5.66033	-1.14566	3.68131	-0.658345	-2.98108	0.675107	1.25323	-2.19973	-0.40415	1.22844	0.788985	-0.0814379	-0.0401916	10.209	-28.8767	0.220902	-2.50536	-56.1071	21.3002	-0.0344933	3.12069	2.20634	8.74046	3.45452	-4.01836	-1.13288	1.62312	-0.0261678	0.0969716	-0.181846	-0.103474	3.56768	0.88323	1.39053	0.0312455	0.165652	-0.015928
0.313618	-5.90097	-1.03949	3.48224	-1.30275	-3.47074	1.00794	1.06422	-2.1199	-0.455871	1.46416	0.801887	-0.0842733	-0.0404046	10.6581	-28.9603	-0.0702687	-1.63334	-57.3378	21.1554	-0.0351621	3.42401	2.228	8.64061	3.52658	-4.06523	-1.15814	1.65239	-0.0272132	0.0981189	-0.18651	0.0310652	3.60162	0.880749	1.45076	0.0318024	0.171103	-0.0198041
0.318596	-7.70319	-0.412442	3.01057	-1.81253	-3.97199	1.337	2.55866	-2.37572	-0.606759	0.521417	2.84287	-0.662442	-0.0404711	11.1121	-29.2382	-0.352302	-0.806553	-58.6192	21.0224	-0.0356341	3.63847	2.28916	8.57267	3.59404	-4.08027	-1.17234	1.67527	-0.0279141	0.0992916	-0.18984	0.166051	3.61386	0.870634	1.50184	0.0320442	0.175268	-0.0238734
0.323575	-8.30719	-0.2413	2.6273	-2.49643	-4.68424	1.70545	2.63129	-2.27417	-0.659592	0.606367	3.2659	-0.779669	-0.0408171	11.6742	-29.433	-0.641968	-0.01401	-59.946	20.9051	-0.0362383	3.92081	2.34737	8.28425	3.62556	-4.14319	-1.20579	1.68752	-0.0294041	0.0981832	-0.194239	0.308723	3.66297	0.877188	1.5592	0.0329549	0.180949	-0.0263998
0.328553	-8.9218	0.0263191	2.26506	-3.14532	-5.46062	2.08713	2.66811	-2.17679	-0.691281	0.731684	3.70819	-0.902898	-0.0412699	12.2902	-29.6367	-0.933451	0.746965	-61.3201	20.8013	-0.0368318	4.20861	2.38282	7.99368	3.66028	-4.21088	-1.2412	1.70136	-0.0309423	0.0970969	-0.198912	0.452895	3.71603	0.885213	1.61748	0.0339124	0.186818	-0.0288399
0.333531	-9.52803	0.192938	1.95079	-3.76777	-6.30247	2.46524	2.64674	-2.0269	-0.725017	0.908757	4.16236	-1.02819	-0.0418707	12.955	-29.9016	-1.22331	1.47192	-62.7403	20.7093	-0.0374026	4.48709	2.43996	7.72537	3.70145	-4.28248	-1.27762	1.7165	-0.0324949	0.0960935	-0.203744	0.597911	3.77471	0.894506	1.6761	0.0348995	0.192777	-0.031226
0.338509	-10.0785	0.279823	1.49489	-4.34213	-7.17653	2.83233	2.55604	-1.8274	-0.758948	1.14972	4.62079	-1.15295	-0.0426889	13.6732	-30.2098	-1.51069	2.16107	-64.206	20.6292	-0.0379245	4.7171	2.55554	7.3036	3.70425	-4.36529	-1.31916	1.71565	-0.0343676	0.0931469	-0.208017	0.743198	3.84431	0.911011	1.7305	0.0361464	0.198676	-0.0323944
0.343487	-10.6008	0.414135	1.05102	-4.97504	-8.2658	3.24552	2.37979	-1.6342	-0.771181	1.46147	5.07321	-1.27539	-0.0436994	14.4655	-30.5552	-1.79697	2.80831	-65.7153	20.5603	-0.0384008	4.92429	2.65425	6.88977	3.71107	-4.44863	-1.36096	1.71582	-0.036229	0.0902638	-0.212367	0.889572	3.91451	0.927716	1.78439	0.0373788	0.204542	-0.0335149
0.348465	-11.034	0.542237	0.667936	-5.4405	-9.19248	3.60392	2.08606	-1.40132	-0.776791	1.8638	5.50806	-1.39058	-0.0449533	15.3112	-30.9111	-2.0815	3.42063	-67.266	20.5018	-0.0388494	5.12436	2.7435	6.51047	3.72801	-4.53704	-1.404	1.71928	-0.0380809	0.0876431	-0.217002	1.03379	3.9893	0.945568	1.83819	0.0386165	0.210471	-0.0345858
0.353443	-11.3966	0.617049	0.233045	-6.00197	-10.3955	4.04079	1.66126	-1.13541	-0.772992	2.35953	5.91278	-1.49484	-0.0464627	16.2396	-31.3281	-2.36115	3.98215	-68.8556	20.4524	-0.0392351	5.27956	2.83953	6.08113	3.7347	-4.62904	-1.44892	1.71748	-0.0400356	0.0843454	-0.221472	1.18028	4.06726	0.965726	1.88973	0.0399189	0.216299	-0.0352004
0.358421	-11.6282	0.737567	-0.15207	-6.4497	-11.5589	4.44415	1.07054	-0.884842	-0.741084	2.966	6.27316	-1.58483	-0.0482092	17.235	-31.7699	-2.63618	4.49849	-70.4811	20.4114	-0.039577	5.41797	2.91179	5.70159	3.75464	-4.72107	-1.49321	1.72036	-0.0419056	0.0815519	-0.226142	1.32469	4.14508	0.985125	1.94111	0.0411559	0.222074	-0.0359545
0.363399	-11.6842	0.772061	-0.475031	-6.7162	-12.4624	4.744	0.281501	-0.622181	-0.69185	3.69741	6.57407	-1.65512	-0.0501958	18.2877	-32.262	-2.90387	4.96652	-72.1382	20.3771	-0.0398847	5.54185	3.00503	5.38596	3.78853	-4.81301	-1.53628	1.72761	-0.0436796	0.0792968	-0.230922	1.46632	4.22508	1.00389	1.9928	0.042338	0.227811	-0.0368964
0.368377	-11.5593	0.727291	-0.933431	-7.02627	-13.5756	5.06883	-0.723334	-0.313128	-0.633764	4.55393	6.7991	-1.70013	-0.0523616	19.4219	-32.7882	-3.16301	5.37769	-73.8237	20.3488	-0.0401256	5.59942	3.13081	4.94215	3.79191	-4.91241	-1.58314	1.72169	-0.0456979	0.0754402	-0.235207	1.60951	4.3112	1.02779	2.04024	0.0436927	0.233384	-0.0368479
0.373355	-11.2433	0.64094	-1.31523	-7.2915	-14.6915	5.37318	-1.97007	0.0204396	-0.562727	5.546	6.93309	-1.71536	-0.0546915	20.6309	-33.3459	-3.41232	5.73014	-75.5323	20.3248	-0.0403227	5.63874	3.232	4.57979	3.81614	-5.00902	-1.62803	1.72327	-0.0475626	0.0724551	-0.239739	1.75124	4.39516	1.04935	2.08843	0.0449251	0.238896	-0.0371946
0.378333	-10.7424	0.490479	-1.59459	-7.46923	-15.7658	5.63071	-3.45095	0.372005	-0.475424	6.65974	6.96173	-1.69696	-0.0571317	21.9024	-33.9371	-3.65151	6.02274	-77.2585	20.3033	-0.0404824	5.67065	3.3163	4.32067	3.8648	-5.10131	-1.66997	1.73391	-0.0492275	0.0705742	-0.24452	1.88985	4.47635	1.06788	2.13781	0.0460104	0.24434	-0.0380709
0.383311	-9.78707	0.269089	-2.00144	-7.48493	-16.7195	5.74006	-5.39255	0.754896	-0.370171	7.99081	6.86578	-1.63962	-0.0595215	23.2608	-34.52	-3.87906	6.2494	-78.9961	20.2835	-0.0406198	5.65155	3.42547	3.95247	3.89167	-5.20644	-1.71742	1.73534	-0.0511682	0.0673839	-0.249194	2.0323	4.56774	1.0921	2.18603	0.0472984	0.249937	-0.0381306
0.388289	-8.7698	0.0114054	-2.27582	-7.57889	-17.8926	5.86981	-7.52157	1.16615	-0.254584	9.42528	6.63929	-1.54122	-0.0618737	24.6884	-35.1276	-4.09312	6.40585	-80.7386	20.263	-0.0407099	5.65992	3.4897	3.70224	3.9475	-5.30374	-1.76105	1.7486	-0.0528604	0.0656303	-0.254251	2.1728	4.65243	1.11163	2.23661	0.0483993	0.255534	-0.0389833
0.393268	-7.50242	-0.293283	-2.38818	-7.55963	-18.7147	5.83025	-9.95945	1.62517	-0.13115	11.009	6.27111	-1.39849	-0.0641005	26.185	-35.6992	-4.29426	6.49306	-82.4775	20.2408	-0.0408091	5.68884	3.52162	3.58695	4.03647	-5.39904	-1.802	1.77544	-0.0543251	0.0654312	-0.259838	2.30857	4.73586	1.12785	2.29079	0.0493481	0.261273	-0.0405945
0.398246	-5.91589	-0.66575	-2.58963	-7.43481	-19.3138	5.57539	-12.7323	2.15785	-0.0104219	12.7454	5.75336	-1.20878	-0.0660331	27.7301	-36.2192	-4.47952	6.51403	-84.2051	20.2154	-0.0409078	5.70163	3.56477	3.34779	4.1004	-5.51126	-1.85003	1.79331	-0.056117	0.0638654	-0.265472	2.44536	4.83163	1.1511	2.34456	0.0505565	0.267332	-0.0412977
0.403224	-4.24732	-1.08727	-2.66691	-7.44329	-20.0253	5.10387	-15.7831	2.7955	0.10197	14.6105	5.08575	-0.972129	-0.0676226	29.3929	-36.6653	-4.64971	6.44405	-85.9118	20.1856	-0.0410024	5.76472	3.56993	3.16185	4.181	-5.62744	-1.89903	1.81891	-0.0578679	0.0630321	-0.271669	2.58099	4.92958	1.17403	2.40145	0.051752	0.273704	-0.0423295
0.408202	-2.5375	-1.3973	-2.61844	-7.58976	-20.8394	4.4479	-19.081	3.47253	0.218808	16.5818	4.27234	-0.69217	-0.0687461	31.1621	-36.9886	-4.80471	6.28725	-87.588	20.1509	-0.0411052	5.90805	3.49443	3.03615	4.2823	-5.74646	-1.94893	1.85561	-0.0595539	0.0632615	-0.278649	2.71627	5.02696	1.19556	2.46348	0.0529151	0.280556	-0.0439277
0.41318	-1.18684	-1.68032	-2.48429	-8.20015	-21.8804	3.625	-22.4348	4.24933	0.322131	18.5921	3.32566	-0.371652	-0.0694274	33.1541	-37.2319	-4.94289	5.99167	-89.2212	20.1099	-0.0412117	6.15809	3.35451	2.89901	4.38602	-5.87523	-2.00301	1.89659	-0.0613422	0.0636902	-0.286313	2.84888	5.12892	1.21946	2.52857	0.0541906	0.287935	-0.0455142
0.418158	0.00590306	-1.73376	-1.79941	-9.44587	-24.0205	2.8405	-26.0484	5.0328	0.431081	20.6943	2.25374	-0.0169854	-0.0693339	35.3408	-37.3233	-5.06378	5.57455	-90.8011	20.0635	-0.0412918	6.54923	2.98455	3.26077	4.61256	-5.96473	-2.03889	1.98948	-0.0620308	0.0704909	-0.295562	2.97778	5.19599	1.22038	2.6068	0.0546183	0.295438	-0.0509301
0.423136	0.630218	-1.99144	-0.905099	-11.5935	-27.3385	2.42893	-29.7323	6.03359	0.502744	22.829	1.07919	0.368861	-0.0685038	37.8524	-37.4079	-5.16355	4.96329	-92.3112	20.009	-0.0413564	7.07406	2.52596	3.74236	4.8678	-6.0411	-2.06977	2.0975	-0.0624287	0.0791578	-0.305372	3.10537	5.25059	1.21444	2.69081	0.0548526	0.303231	-0.0575822
0.428114	1.54484	-3.27723	-0.0927865	-13.5409	-30.7276	3.42163	-33.6414	7.48887	0.513275	25.0591	-0.174907	0.78084	-0.0668972	40.2403	-37.7245	-5.22827	4.28626	-93.739	19.9412	-0.0413628	7.58912	2.21448	4.0721	5.06729	-6.11313	-2.09856	2.18712	-0.0629742	0.0861217	-0.313703	3.2218	5.30745	1.21249	2.77263	0.0552932	0.310831	-0.0633917
0.433092	3.19962	-5.26296	0.694746	-14.5389	-33.1709	4.63376	-37.8834	9.20743	0.50048	27.4142	-1.47383	1.2035	-0.0646053	42.3209	-38.1104	-5.26211	3.60742	-95.0708	19.8609	-0.0413692	8.09061	2.04671	4.26387	5.2239	-6.20584	-2.13331	2.2621	-0.0638783	0.0912895	-0.321442	3.32532	5.38602	1.22096	2.85414	0.0561168	0.318747	-0.0679168
0.43807	5.32357	-7.41882	1.48455	-14.7559	-34.701	5.50027	-42.3565	11.0327	0.48606	29.8573	-2.77846	1.62095	-0.061642	44.2144	-38.352	-5.27241	2.90433	-96.2926	19.7719	-0.0414144	8.62374	1.92988	4.31754	5.34419	-6.32635	-2.17724	2.32667	-0.0651888	0.0948779	-0.329179	3.41384	5.48704	1.241	2.93568	0.0573484	0.327184	-0.0710972
0.443048	7.65251	-9.76034	2.25933	-14.421	-35.6078	6.13688	-46.9131	12.9078	0.473083	32.3136	-4.04692	2.01819	-0.0579839	45.9385	-38.5312	-5.25498	2.1601	-97.3898	19.6721	-0.0414651	9.23621	1.84971	4.24762	5.43269	-6.47237	-2.23005	2.38317	-0.0668805	0.0971566	-0.337094	3.48948	5.60843	1.27148	3.01849	0.0589727	0.336259	-0.0731682
0.448026	10.0228	-12.0776	2.99962	-13.9305	-36.0963	6.61226	-51.4523	14.7619	0.46702	34.7325	-5.23319	2.3789	-0.0537895	47.5723	-38.5893	-5.21367	1.35288	-98.3485	19.5628	-0.0415319	9.89598	1.74864	4.05521	5.49248	-6.64137	-2.29105	2.4333	-0.0689054	0.0982879	-0.345218	3.55251	5.74516	1.31107	3.10192	0.0609199	0.345851	-0.0741917
0.453004	12.2564	-14.3774	3.72491	-13.3243	-36.4251	6.98653	-55.8953	16.5946	0.463335	37.07	-6.2932	2.68902	-0.0491921	49.1447	-38.5192	-5.14937	0.471801	-99.1555	19.4442	-0.0416002	10.6358	1.63217	3.75926	5.52596	-6.82881	-2.35874	2.4782	-0.0712051	0.0985031	-0.353523	3.60269	5.89432	1.35835	3.18617	0.0631546	0.355931	-0.0743652
0.457982	14.3561	-16.5553	4.3972	-12.6589	-36.5176	7.2559	-60.2026	18.2693	0.47342	39.2886	-7.18493	2.93144	-0.0442739	50.6457	-38.3485	-5.06095	-0.484792	-99.7972	19.3163	-0.0416646	11.4334	1.4849	3.39135	5.5395	-7.03113	-2.43119	2.52031	-0.0736838	0.0981548	-0.361947	3.63756	6.05263	1.4117	3.27086	0.0655962	0.366352	-0.0738503
0.462961	16.2168	-18.7072	4.96822	-11.829	-36.5117	7.55726	-64.2959	19.7527	0.493902	41.3377	-7.86882	3.09293	-0.0392729	52.0654	-38.153	-4.94589	-1.52306	-100.26	19.1781	-0.0417012	12.2993	1.33992	2.94909	5.52813	-7.24468	-2.50705	2.55731	-0.0763183	0.0971185	-0.37024	3.65548	6.21881	1.47078	3.3548	0.0682395	0.376978	-0.0726136
0.467939	17.7505	-20.6021	5.41447	-11.1338	-36.4303	7.79747	-68.1001	20.907	0.531332	43.1658	-8.31235	3.15912	-0.0343659	53.4355	-37.9152	-4.80597	-2.65124	-100.531	19.0307	-0.041705	13.2165	1.12914	2.45993	5.5054	-7.4704	-2.58689	2.59446	-0.0790695	0.0958454	-0.378788	3.65983	6.39057	1.53429	3.43902	0.0710181	0.387876	-0.0708816
0.472917	18.8928	-22.1741	5.76123	-10.2927	-36.1418	8.0344	-71.555	21.7237	0.581458	44.7266	-8.49221	3.12023	-0.0297498	54.7356	-37.5504	-4.64547	-3.85522	-100.597	18.8766	-0.0416955	14.2085	0.873252	1.94044	5.46792	-7.70128	-2.66768	2.63115	-0.08184	0.094495	-0.387269	3.64472	6.56358	1.60072	3.52239	0.0738822	0.398845	-0.0687559
0.477895	19.615	-23.4206	5.9344	-9.69306	-36.2079	8.38186	-74.5967	22.1224	0.644993	45.9679	-8.39445	2.96677	-0.0256254	55.986	-37.1401	-4.46186	-5.14756	-100.446	18.715	-0.0416294	15.1826	0.562705	1.39724	5.41701	-7.92945	-2.74657	2.66567	-0.0845334	0.093016	-0.395307	3.61238	6.73073	1.66764	3.60157	0.0767035	0.409409	-0.0662331
0.482873	19.885	-24.3834	5.98885	-9.0325	-35.9013	8.68479	-77.1455	22.1002	0.719949	46.8397	-8.01749	2.69614	-0.0221937	57.1454	-36.6821	-4.25657	-6.51652	-100.062	18.5465	-0.041542	16.1751	0.226361	0.871259	5.36049	-8.15868	-2.82396	2.70073	-0.0871313	0.0917129	-0.403081	3.55896	6.8971	1.73582	3.67745	0.0795025	0.419683	-0.063394
0.487851	19.6129	-24.815	5.80502	-8.47325	-35.9084	9.15562	-79.1807	21.5318	0.808986	47.3033	-7.37348	2.30843	-0.0196065	58.2656	-36.1488	-4.0314	-7.97139	-99.4357	18.3729	-0.041408	17.151	-0.191027	0.334979	5.29192	-8.37723	-2.89689	2.73435	-0.0895525	0.0905049	-0.41026	3.48754	7.05001	1.80193	3.7477	0.082165	0.429316	-0.0603342
0.492829	18.7318	-24.7415	5.42945	-8.0324	-35.953	9.68042	-80.5879	20.4257	0.909794	47.3036	-6.48818	1.81293	-0.0180305	59.3209	-35.5398	-3.78901	-9.50243	-98.5528	18.1946	-0.0412427	18.0986	-0.671693	-0.179265	5.21781	-8.58399	-2.96441	2.76763	-0.0917432	0.0895807	-0.41682	3.3973	7.18978	1.86535	3.81144	0.0846483	0.438182	-0.0571254
0.497807	17.3657	-24.2259	4.84237	-7.5224	-35.265	10.0796	-81.3877	18.7629	1.02493	46.8404	-5.40203	1.22375	-0.0175685	60.2797	-34.8951	-3.52806	-11.1008	-97.4009	18.0108	-0.0410926	19.0031	-1.17702	-0.666252	5.13923	-8.78367	-3.02762	2.79984	-0.093745	0.08882	-0.422784	3.28802	7.322	1.92754	3.86883	0.0869944	0.446331	-0.0536511
0.502785	15.4046	-23.0626	4.09074	-7.12858	-35.3404	10.7153	-81.6191	16.5904	1.15446	45.927	-4.16772	0.560356	-0.0182397	61.2116	-34.0918	-3.25965	-12.77	-95.9713	17.8249	-0.0409232	19.8336	-1.79411	-1.09883	5.05966	-8.9546	-3.07972	2.83224	-0.0952954	0.0887141	-0.427705	3.15952	7.42514	1.98157	3.91516	0.088935	0.453046	-0.0503055
0.507763	13.0887	-21.341	3.12583	-6.7164	-34.7392	11.1851	-81.3356	13.8619	1.30162	44.5922	-2.8412	-0.1565	-0.0201229	62.0567	-33.176	-2.98153	-14.4882	-94.2526	17.6355	-0.0408299	20.5738	-2.43891	-1.49276	4.97706	-9.10752	-3.12395	2.86261	-0.0965441	0.088862	-0.431687	3.01601	7.51183	2.03095	3.95304	0.0906094	0.458663	-0.0468919
0.512741	10.4674	-19.1259	2.00046	-6.39382	-34.9295	11.8934	-80.6562	10.6933	1.46989	42.8934	-1.48587	-0.900432	-0.0230687	62.8468	-32.1458	-2.69957	-16.257	-92.2382	17.4427	-0.0407622	21.1624	-3.14074	-1.81502	4.89223	-9.22039	-3.15269	2.88961	-0.0972218	0.0895695	-0.434018	2.85582	7.56297	2.06919	3.97652	0.0917542	0.462317	-0.0436894
0.517719	7.67124	-16.3392	0.704117	-6.00483	-34.4796	12.3839	-79.6157	7.04901	1.66214	40.8596	-0.155055	-1.64875	-0.0271064	63.55	-30.9673	-2.41736	-18.0526	-89.9206	17.2459	-0.0408515	21.6356	-3.89016	-2.08817	4.80869	-9.31139	-3.17263	2.91478	-0.0975508	0.0905958	-0.435391	2.68356	7.5934	2.10118	3.9896	0.09256	0.464649	-0.0404809
0.522697	4.98584	-13.0579	-0.660834	-5.50958	-33.3516	12.6772	-78.3763	3.03762	1.88205	38.5716	1.09888	-2.37684	-0.0321045	64.1162	-29.6069	-2.14254	-19.8418	-87.2968	17.0445	-0.0411447	21.9535	-4.68363	-2.27195	4.73619	-9.37511	-3.18133	2.94043	-0.0974258	0.0923084	-0.435722	2.50186	7.59952	2.12442	3.99211	0.0929218	0.465479	-0.037544
0.527675	2.45257	-9.44424	-2.09237	-4.95373	-32.8189	13.037	-76.9537	-1.23142	2.12932	36.0489	2.23169	-3.0624	-0.0377996	64.5083	-28.1069	-1.8762	-21.6018	-84.369	16.8363	-0.0415822	22.0375	-5.49248	-2.38695	4.65799	-9.3937	-3.17258	2.95796	-0.0966888	0.0942178	-0.433938	2.30515	7.56724	2.13556	3.97575	0.092683	0.463839	-0.0346246
0.532654	0.408979	-5.70722	-3.50693	-3.87676	-31.0888	13.1711	-75.4728	-5.65709	2.40763	33.3632	3.21084	-3.68686	-0.0441342	64.5981	-26.4924	-1.61907	-23.2734	-81.1401	16.6174	-0.0423072	21.9544	-6.25426	-2.42648	4.5824	-9.38588	-3.15254	2.97063	-0.0955491	0.0963271	-0.430774	2.09914	7.51548	2.13941	3.94727	0.0920582	0.460578	-0.0317368
0.537632	-0.721907	-2.68647	-4.74204	-2.6555	-28.5822	14.4458	-74.1067	-9.75294	2.71097	30.6389	4.00316	-4.22699	-0.0508349	64.2821	-24.9763	-1.35845	-24.8088	-77.6207	16.3805	-0.0432996	21.5857	-6.87994	-2.32026	4.51237	-9.32403	-3.10966	2.97674	-0.0936585	0.0991343	-0.42502	1.88638	7.42792	2.12787	3.90464	0.0907529	0.454887	-0.029542
0.54261	-1.88341	-0.28657	-6.12337	-2.47004	-26.9483	17.2189	-72.5358	-13.701	3.03554	27.7403	4.59764	-4.67699	-0.057658	63.8838	-23.7348	-1.08698	-26.3158	-73.8216	16.1176	-0.0445923	20.9996	-7.40976	-2.1684	4.42475	-9.19888	-3.04435	2.96884	-0.0911193	0.101855	-0.416496	1.67595	7.29401	2.09979	3.84607	0.0888165	0.446742	-0.0279184
0.547588	-3.65384	2.19083	-7.50204	-3.50526	-26.5813	19.1548	-70.7091	-17.661	3.38657	24.6745	4.98545	-5.0308	-0.0644034	63.7072	-22.3421	-0.85432	-27.8382	-69.7628	15.8296	-0.0463517	20.3308	-7.86852	-1.99888	4.32944	-9.04503	-2.97056	2.94875	-0.0883355	0.103942	-0.406735	1.47003	7.13931	2.065	3.77217	0.0865885	0.43697	-0.026117
0.552566	-5.43594	5.22886	-8.64043	-5.13956	-25.9143	18.3549	-68.795	-21.7869	3.76735	21.524	5.16351	-5.28703	-0.0708851	63.4733	-20.4928	-0.690031	-29.2269	-65.4758	15.5141	-0.0486554	19.6062	-8.27585	-1.79584	4.25193	-8.9007	-2.90144	2.92423	-0.085653	0.105408	-0.397359	1.27451	6.99365	2.03259	3.6884	0.0843473	0.426601	-0.0237291
0.557544	-7.11817	8.49964	-9.75791	-6.05595	-26.4882	17.0664	-66.9585	-25.8732	4.17176	18.3706	5.13048	-5.44276	-0.0768277	63.0612	-18.4462	-0.578689	-30.4449	-60.9971	15.1611	-0.0513277	18.885	-8.72766	-1.66408	4.14605	-8.73786	-2.82866	2.88527	-0.0828785	0.105731	-0.387046	1.06867	6.82763	1.99785	3.58686	0.0819627	0.414764	-0.0204849
0.562522	-8.48175	11.7151	-10.7633	-6.52159	-27.3524	16.5499	-65.1753	-29.6827	4.58925	15.2455	4.89432	-5.49734	-0.082174	62.3758	-16.342	-0.512889	-31.441	-56.3653	14.7619	-0.054423	18.1374	-9.31967	-1.5337	4.03497	-8.55185	-2.7495	2.8435	-0.079836	0.106154	-0.376175	0.855477	6.63436	1.95635	3.47317	0.0792701	0.401677	-0.0171879
0.5675	-9.28142	14.7608	-11.6207	-7.01095	-28.2312	16.4012	-63.5998	-33.1801	5.01313	12.2524	4.46091	-5.45446	-0.0866875	61.4345	-14.2182	-0.494246	-32.1916	-51.6257	14.3096	-0.0579573	17.3119	-10.0094	-1.40652	3.92852	-8.35336	-2.66787	2.79985	-0.0766685	0.106503	-0.365149	0.648147	6.42486	1.91029	3.35097	0.076355	0.387735	-0.0138476
0.572478	-9.55171	17.3622	-12.2863	-7.55542	-29.0757	16.2624	-62.1764	-36.2661	5.4333	9.39917	3.84276	-5.31812	-0.090281	60.2216	-12.1103	-0.522342	-32.6697	-46.8303	13.7986	-0.0618481	16.4124	-10.6608	-1.31122	3.81449	-8.14685	-2.58515	2.7473	-0.0735074	0.106053	-0.353661	0.449425	6.20927	1.8628	3.22047	0.0733623	0.37305	-0.0101558
0.577456	-9.43022	19.4277	-12.7743	-8.10105	-29.6814	15.8852	-60.9103	-38.9214	5.83691	6.71584	3.05384	-5.09473	-0.0929202	58.8466	-10.0976	-0.591786	-32.9131	-42.0295	13.2229	-0.0661618	15.4834	-11.2602	-1.24336	3.69884	-7.94422	-2.50547	2.68799	-0.0704734	0.104804	-0.342219	0.2607	5.99816	1.81702	3.08427	0.0704123	0.358053	-0.00602579
0.582434	-8.70147	20.8624	-13.0044	-8.57959	-30.3379	15.4427	-59.8213	-41.1067	6.21334	4.23943	2.10656	-4.79006	-0.0945193	57.1313	-8.21689	-0.691798	-32.8156	-37.287	12.5808	-0.0706771	14.523	-11.7913	-1.17104	3.58632	-7.73732	-2.42564	2.62347	-0.0674604	0.103109	-0.330645	0.084315	5.78674	1.77016	2.9434	0.0674241	0.342664	-0.00182082
0.587412	-7.54146	21.5755	-13.0646	-9.05213	-30.9466	14.9786	-58.8753	-42.7912	6.54988	1.981	1.01578	-4.41004	-0.0950865	55.1729	-6.52699	-0.814777	-32.4085	-32.659	11.8717	-0.0753093	13.5689	-12.2193	-1.15627	3.46621	-7.53567	-2.35021	2.5504	-0.0646826	0.10036	-0.319187	-0.0734109	5.58388	1.7259	2.80092	0.0645856	0.327385	0.00270271
0.59239	-6.20407	21.6616	-12.986	-9.34216	-31.3099	14.22	-58.072	-44.0284	6.83865	-0.0385742	-0.203127	-3.96141	-0.0946838	53.1952	-5.05885	-0.960654	-31.7878	-28.1939	11.0969	-0.0801677	12.6532	-12.5675	-1.1655	3.34726	-7.34766	-2.28098	2.47311	-0.0621382	0.0969168	-0.308198	-0.220862	5.39559	1.68616	2.65749	0.0619279	0.312371	0.00761088
0.597368	-4.4889	21.124	-12.6877	-9.35663	-31.3837	13.2173	-57.3379	-44.8342	7.07113	-1.82447	-1.5353	-3.45002	-0.0933563	50.9496	-3.7925	-1.11538	-30.8524	-23.9512	10.2638	-0.084986	11.7912	-12.8005	-1.19015	3.23098	-7.16687	-2.21605	2.39247	-0.0597999	0.0929708	-0.297606	-0.349481	5.21941	1.64873	2.51691	0.0594359	0.297834	0.0124668
0.602346	-2.53976	19.8018	-12.3788	-9.36464	-31.3433	12.2888	-56.7437	-45.1999	7.2381	-3.33347	-2.96831	-2.88074	-0.091152	48.629	-2.90434	-1.24563	-29.6896	-19.9729	9.37729	-0.0896823	10.9659	-12.9146	-1.304	3.10636	-7.00381	-2.16036	2.30441	-0.0578833	0.0877747	-0.287612	-0.453723	5.06297	1.61758	2.38029	0.0572688	0.284093	0.017706
0.607325	-0.608595	18.2159	-11.9882	-9.09847	-30.741	11.184	-56.1255	-45.312	7.34615	-4.62109	-4.48368	-2.26229	-0.0882391	46.2484	-2.23	-1.37118	-28.3088	-16.2982	8.45256	-0.0942395	10.2763	-13.0176	-1.43096	2.99451	-6.85757	-2.11279	2.22129	-0.056238	0.0826447	-0.278859	-0.539617	4.92182	1.59002	2.25216	0.0553358	0.27149	0.0226596
0.612303	1.31964	16.146	-11.5238	-8.84339	-29.8213	10.1593	-55.6189	-45.0633	7.38617	-5.62185	-6.07174	-1.59745	-0.0846744	43.9758	-1.80101	-1.48804	-26.7877	-12.9535	7.50315	-0.0986588	9.67898	-13.0286	-1.55044	2.89447	-6.71952	-2.06952	2.14135	-0.0547848	0.0776264	-0.270856	-0.60262	4.79387	1.56378	2.13393	0.0535828	0.259914	0.0270475
0.617281	3.23438	13.7335	-11.0994	-8.62266	-28.5447	9.09457	-55.0665	-44.6047	7.3658	-6.39349	-7.71683	-0.894144	-0.0805655	41.6599	-1.67805	-1.5566	-25.1064	-9.96225	6.54344	-0.102781	9.15901	-12.9861	-1.74337	2.79629	-6.60343	-2.03695	2.06124	-0.053759	0.0719548	-0.263995	-0.639832	4.68663	1.54362	2.0252	0.0521718	0.249643	0.0314593
0.622259	4.91039	11.274	-10.6743	-8.26875	-26.6886	7.80083	-54.421	-44.1025	7.29811	-6.96745	-9.40224	-0.162089	-0.0761129	39.3748	-1.762	-1.59183	-23.3062	-7.33584	5.59307	-0.106525	8.8296	-12.903	-1.91107	2.71976	-6.49903	-2.01042	1.99134	-0.0529469	0.0669944	-0.258516	-0.651311	4.59379	1.5245	1.93216	0.0509837	0.240991	0.0348776
0.627237	6.48012	9.05214	-10.1413	-7.68105	-23.9452	6.37127	-53.6756	-43.5052	7.18527	-7.33255	-11.1156	0.593295	-0.0714691	37.1259	-1.81235	-1.63975	-21.4085	-5.077	4.67483	-0.109859	8.60964	-12.8165	-2.05677	2.65845	-6.39981	-1.98642	1.93068	-0.0522257	0.0627918	-0.253897	-0.646334	4.50779	1.50482	1.85217	0.049908	0.23352	0.0374113
0.632215	8.01428	6.83467	-9.79022	-7.5682	-21.6299	5.32315	-53.0245	-42.9223	7.03975	-7.43855	-12.8498	1.36301	-0.0665274	35.0261	-2.18435	-1.61677	-19.5145	-3.17167	3.79629	-0.112768	8.39214	-12.7898	-2.2481	2.61268	-6.31543	-1.97054	1.87623	-0.0517843	0.0586074	-0.250524	-0.61222	4.43169	1.48711	1.78263	0.0489938	0.227202	0.0395583
0.637193	9.22494	4.5949	-9.44062	-7.72921	-20.0486	4.49421	-52.2987	-42.2976	6.86118	-7.35834	-14.5887	2.13961	-0.0615367	33.0915	-2.67028	-1.56115	-17.6548	-1.60529	2.97632	-0.115172	8.26224	-12.6468	-2.36711	2.57609	-6.20777	-1.94662	1.82641	-0.0511538	0.0553986	-0.246842	-0.559005	4.3465	1.46159	1.72387	0.0479852	0.221397	0.0402364
0.642171	10.1586	2.73896	-9.07357	-7.72741	-18.9249	3.79017	-51.5462	-41.7242	6.66248	-7.09516	-16.3206	2.91297	-0.0566054	31.3287	-3.10286	-1.51073	-15.8588	-0.354837	2.23017	-0.117085	8.24271	-12.4993	-2.42105	2.55337	-6.08467	-1.91745	1.78599	-0.0503595	0.053433	-0.243347	-0.49341	4.25249	1.42963	1.67613	0.0468937	0.216262	0.0395752
0.647149	10.9735	1.09609	-8.84959	-7.36235	-17.7359	3.04906	-50.7417	-41.3468	6.45919	-6.68091	-18.0343	3.67241	-0.0517902	29.6012	-3.68579	-1.39973	-14.1273	0.606918	1.56175	-0.118402	8.28772	-12.2911	-2.51573	2.52326	-5.96525	-1.89064	1.74553	-0.0497303	0.0513022	-0.240101	-0.415677	4.16544	1.39919	1.63731	0.0459823	0.211998	0.0386094
0.652127	11.4972	-0.038743	-8.61478	-6.71079	-16.583	2.40611	-49.8554	-41.0925	6.24887	-6.14125	-19.7202	4.41147	-0.047245	28.0013	-4.19045	-1.28812	-12.5052	1.31178	0.981237	-0.119181	8.4637	-12.1256	-2.54002	2.51142	-5.83569	-1.8602	1.71767	-0.0489525	0.0506254	-0.237346	-0.329176	4.07135	1.36324	1.61042	0.0450034	0.208554	0.03633
0.657105	11.7423	-1.2589	-8.35443	-5.82139	-15.4455	1.84614	-48.8757	-40.8462	6.02148	-5.49759	-21.3718	5.12552	-0.0430569	26.4986	-4.77698	-1.13085	-11.0207	1.79448	0.486719	-0.119407	8.77251	-11.7991	-2.47951	2.50734	-5.69133	-1.82347	1.69484	-0.0480404	0.0509046	-0.23438	-0.231583	3.97709	1.3225	1.5955	0.0440312	0.205843	0.0327706
0.662083	11.9671	-2.12106	-8.17397	-4.85996	-14.3639	1.43378	-47.9316	-40.7036	5.79054	-4.72562	-22.9872	5.80732	-0.0391686	25.11	-5.27811	-0.978477	-9.66374	2.08674	0.0814185	-0.119113	9.05971	-11.4407	-2.47325	2.48819	-5.54419	-1.78624	1.66943	-0.0472063	0.0508688	-0.231155	-0.127485	3.88231	1.28183	1.58608	0.0431412	0.203538	0.0290799
0.667061	11.7949	-2.63233	-8.00599	-3.94256	-13.5082	1.1317	-46.7682	-40.6731	5.5543	-3.94209	-24.5581	6.45222	-0.0357437	23.8498	-5.69318	-0.829761	-8.48576	2.22428	-0.240642	-0.118349	9.4047	-11.0687	-2.41389	2.47301	-5.38389	-1.74331	1.64957	-0.0461947	0.0517125	-0.227711	-0.0236393	3.77965	1.23657	1.58317	0.0421658	0.201507	0.0245598
0.672039	11.4047	-2.30369	-7.91286	-3.06361	-12.7172	0.995785	-45.5188	-40.8141	5.32169	-3.11641	-26.0863	7.05617	-0.0327253	22.7089	-5.80212	-0.756636	-7.45701	2.23516	-0.480329	-0.117145	9.77615	-10.8276	-2.4191	2.45122	-5.22496	-1.70246	1.63427	-0.0452659	0.0527378	-0.224711	0.0854291	3.6712	1.19078	1.58727	0.0412396	0.200126	0.0197703
0.677018	9.51718	-0.942586	-7.66	-2.14235	-11.9018	1.01347	-44.3239	-40.7034	5.05522	-2.20927	-27.5754	7.62577	-0.0302222	22.9915	-4.70225	-1.26376	-7.20241	2.43117	-0.492397	-0.11535	10.2896	-10.4889	-2.34859	2.41629	-5.04095	-1.64988	1.62137	-0.044006	0.0547834	-0.220674	0.177123	3.54954	1.13881	1.59718	0.0402069	0.198785	0.0140397
0.681996	10.1307	-1.99299	-7.63969	-1.50949	-11.712	0.858999	-42.779	-41.046	4.80635	-1.39263	-29.0218	8.14992	-0.0280737	20.6565	-6.1066	-0.529774	-5.88834	1.99591	-0.771424	-0.113442	10.5915	-9.99438	-2.26518	2.40905	-4.88045	-1.60614	1.60627	-0.0430756	0.0560155	-0.217339	0.304823	3.45511	1.09219	1.61045	0.0393333	0.197906	0.00856432
0.686974	9.63684	-1.59431	-7.50252	-0.849719	-11.5645	0.921934	-41.4562	-41.1393	4.52708	-0.464029	-30.4383	8.64091	-0.0263294	19.6778	-6.06725	-0.461978	-5.27989	1.78854	-0.834142	-0.110956	10.8889	-9.53703	-2.27365	2.36389	-4.71215	-1.55918	1.5851	-0.0421284	0.0567387	-0.21315	0.414646	3.35052	1.04584	1.62373	0.0384976	0.196926	0.00343203
0.691952	9.03516	-1.09969	-7.3142	-0.222222	-11.5409	1.05073	-40.0528	-41.1976	4.23052	0.448359	-31.8235	9.09741	-0.0250136	18.7259	-5.92652	-0.416196	-4.78254	1.55058	-0.85522	-0.108129	11.201	-9.07542	-2.25798	2.32072	-4.54395	-1.51113	1.56694	-0.0411405	0.0578092	-0.208956	0.520597	3.24643	0.9991	1.64033	0.0376607	0.196151	-0.00191648
0.69693	8.52133	-0.60974	-7.02631	0.360941	-11.6945	1.26235	-38.6588	-41.1223	3.90984	1.37048	-33.1845	9.52462	-0.024084	17.7822	-5.66346	-0.408694	-4.37477	1.2976	-0.842257	-0.105003	11.4628	-8.6042	-2.23118	2.27738	-4.37837	-1.46264	1.54935	-0.0401375	0.0589234	-0.204621	0.621928	3.14453	0.952998	1.65782	0.0368194	0.195377	-0.00720248
0.701908	8.11598	-0.066522	-6.74032	0.92066	-11.8216	1.52722	-37.2703	-41.025	3.57519	2.2868	-34.525	9.92332	-0.0234949	16.8209	-5.32752	-0.426233	-4.03241	1.04309	-0.804046	-0.101646	11.6597	-8.13527	-2.25926	2.22211	-4.2247	-1.41785	1.52829	-0.0392854	0.0593991	-0.200254	0.717881	3.05025	0.911303	1.67497	0.0360953	0.194704	-0.011891
0.706886	7.77444	0.447474	-6.40085	1.39843	-11.9687	1.85083	-35.9045	-40.835	3.22497	3.20175	-35.8505	10.2987	-0.0232082	15.8833	-4.91587	-0.475462	-3.75736	0.798422	-0.747547	-0.0981145	11.8163	-7.67371	-2.28955	2.16752	-4.08031	-1.37521	1.50807	-0.0384906	0.0597922	-0.195994	0.808705	2.96219	0.872119	1.69287	0.0354195	0.194144	-0.0163333
0.711864	7.46403	0.745869	-6.06753	1.89952	-12.5385	2.24391	-34.5772	-40.4974	2.85436	4.10592	-37.165	10.6546	-0.0231719	14.9771	-4.46392	-0.543175	-3.54352	0.572087	-0.67967	-0.0944514	11.9238	-7.16218	-2.36436	2.09905	-3.94677	-1.33576	1.48204	-0.0378427	0.0594063	-0.191555	0.892474	2.88338	0.837709	1.70871	0.0348762	0.193562	-0.0200946
0.716842	7.37066	1.03597	-5.6951	2.25981	-12.6361	2.64432	-33.3004	-40.0572	2.47384	5.00933	-38.4704	10.9933	-0.0233778	14.0577	-3.9449	-0.647617	-3.35129	0.369191	-0.603856	-0.0907381	11.9424	-6.70638	-2.49176	2.03208	-3.83861	-1.30484	1.45628	-0.0374454	0.0584427	-0.187724	0.9739	2.8201	0.81029	1.72468	0.0344913	0.193289	-0.0230855
0.72182	7.30324	1.29668	-5.3356	2.5826	-13.0407	3.09886	-32.0633	-39.6021	2.0922	5.89357	-39.7678	11.3151	-0.0237334	13.1672	-3.41171	-0.770743	-3.19598	0.194506	-0.525424	-0.0869934	11.9263	-6.2782	-2.63894	1.96417	-3.74299	-1.27777	1.43028	-0.0371511	0.0571969	-0.18412	1.04892	2.76404	0.78658	1.73945	0.0341792	0.193067	-0.025605
0.726798	7.25702	1.4759	-5.0369	2.81286	-13.3517	3.55677	-30.8491	-39.1021	1.70797	6.74998	-41.0563	11.6223	-0.0242382	12.3172	-2.8753	-0.904741	-3.0653	0.0505965	-0.447894	-0.0832765	11.8662	-5.87449	-2.84911	1.89153	-3.67061	-1.25899	1.4022	-0.0371235	0.0552009	-0.181027	1.12066	2.72311	0.770083	1.75355	0.03406	0.193141	-0.0273033
0.731776	7.35646	1.53603	-4.72574	2.95359	-13.5281	3.94919	-29.7241	-38.5377	1.3257	7.60729	-42.3361	11.917	-0.0248304	11.5015	-2.3327	-1.05981	-2.94676	-0.0609042	-0.372934	-0.0796949	11.738	-5.48265	-3.09225	1.82005	-3.61926	-1.247	1.3729	-0.0372966	0.0526418	-0.178339	1.18863	2.69677	0.759796	1.76628	0.0340776	0.193355	-0.0282783
0.736754	7.51598	1.49355	-4.42031	2.94676	-13.2037	4.19644	-28.6544	-37.9189	0.946748	8.45114	-43.6035	12.1996	-0.02552	10.7411	-1.78238	-1.23158	-2.83342	-0.140986	-0.302158	-0.0762469	11.5844	-5.10816	-3.36087	1.75637	-3.59286	-1.24353	1.34538	-0.0377149	0.0497208	-0.176427	1.25739	2.68836	0.756148	1.78065	0.034273	0.19404	-0.0287115
0.741732	7.66312	1.39063	-4.2231	2.93553	-13.1198	4.44175	-27.6581	-37.3333	0.578634	9.27569	-44.8552	12.469	-0.0262259	10.0561	-1.28011	-1.39561	-2.74076	-0.190004	-0.238278	-0.0729513	11.3999	-4.76204	-3.69408	1.68702	-3.58703	-1.24784	1.31496	-0.0383803	0.04602	-0.174978	1.32266	2.69275	0.759163	1.79285	0.0346419	0.194898	-0.0283089
0.746711	7.97188	1.1644	-4.16658	2.86576	-12.7795	4.50649	-26.7409	-36.7121	0.220548	10.0922	-46.0877	12.7272	-0.0269492	9.39011	-0.789722	-1.57034	-2.63626	-0.213509	-0.17963	-0.0697269	11.111	-4.40313	-4.2129	1.59309	-3.6221	-1.26868	1.27239	-0.0396612	0.0400414	-0.174188	1.39049	2.72587	0.776816	1.80127	0.0354472	0.196187	-0.0260416
0.751689	8.19157	0.859436	-4.07556	2.65214	-11.9559	4.37076	-25.8626	-36.143	-0.12204	10.8806	-47.2945	12.9724	-0.0277004	8.82848	-0.35226	-1.73683	-2.5421	-0.209502	-0.128626	-0.0667679	10.8752	-4.05443	-4.65398	1.52612	-3.66817	-1.29212	1.23915	-0.0409394	0.0348773	-0.174168	1.46017	2.76853	0.795288	1.81434	0.036263	0.197932	-0.0241526
0.756667	8.31884	0.578895	-4.0229	2.4765	-11.3997	4.26876	-25.0753	-35.6318	-0.448769	11.6546	-48.4728	13.2048	-0.0284184	8.37612	0.0411104	-1.89308	-2.46968	-0.18108	-0.0852697	-0.0640595	10.6835	-3.77572	-5.06291	1.47627	-3.72314	-1.31858	1.21256	-0.0422307	0.0302069	-0.174835	1.52865	2.81491	0.814662	1.82852	0.0370758	0.199899	-0.0223499
0.761645	8.50585	0.198873	-3.89516	2.19195	-10.3323	3.93417	-24.3748	-35.1301	-0.759552	12.4192	-49.6186	13.4259	-0.0291086	8.00149	0.397656	-2.04648	-2.39244	-0.131462	-0.0485619	-0.0616717	10.4942	-3.50459	-5.39851	1.45199	-3.78823	-1.34707	1.19353	-0.0435035	0.0261944	-0.176084	1.59833	2.87036	0.83489	1.84522	0.0378719	0.202097	-0.0207759
0.766623	8.57396	-0.21474	-3.75412	1.90299	-9.51816	3.61559	-23.7348	-34.692	-1.05231	13.1588	-50.7276	13.6346	-0.0297559	7.72583	0.677777	-2.17736	-2.33275	-0.0641627	-0.0192623	-0.0595313	10.361	-3.27787	-5.65896	1.45066	-3.85472	-1.37533	1.1829	-0.0446746	0.023076	-0.177851	1.66739	2.92601	0.853451	1.8637	0.0385901	0.204425	-0.0196407
0.771601	8.60092	-0.617224	-3.57852	1.51355	-8.22972	3.07265	-23.1534	-34.3322	-1.32618	13.8761	-51.7964	13.8309	-0.0303813	7.54326	0.923612	-2.29918	-2.27272	0.0169967	0.0042601	-0.0576596	10.2707	-3.07285	-5.85121	1.47479	-3.92837	-1.40532	1.18112	-0.0458224	0.020761	-0.180314	1.74102	2.98785	0.871783	1.88647	0.039292	0.207142	-0.018943
0.776579	8.4451	-1.02912	-3.4486	1.15812	-7.21393	2.5728	-22.6001	-34.0475	-1.58201	14.5542	-52.8233	14.0151	-0.0309273	7.47255	1.08554	-2.38882	-2.23412	0.110741	0.0206644	-0.0560865	10.2337	-2.91665	-6.01077	1.51195	-4.00568	-1.43654	1.18459	-0.0469394	0.0189286	-0.18324	1.81238	3.05055	0.890049	1.90946	0.0399712	0.209959	-0.0183753
0.781557	7.49343	-1.35324	-3.42824	0.735302	-5.42681	1.6615	-22.0703	-33.8364	-1.81894	15.217	-53.8023	14.1869	-0.0316162	8.40559	1.22759	-2.39445	-3.7655	1.05387	-0.049264	-0.0548675	10.1859	-2.74527	-6.04908	1.61051	-4.11165	-1.47582	1.20766	-0.0482117	0.0185073	-0.187967	1.91341	3.14137	0.910663	1.9497	0.0407466	0.214292	-0.018848
0.786535	7.46911	-1.78279	-3.13625	0.381396	-4.25546	1.03786	-21.6621	-33.6685	-2.03923	15.8588	-54.7423	14.3478	-0.0320406	8.26792	1.30147	-2.45873	-3.412	1.01296	-0.0314641	-0.0536724	10.2438	-2.64489	-6.03738	1.69094	-4.17788	-1.5014	1.22701	-0.048985	0.018682	-0.19143	1.98565	3.19613	0.921794	1.9763	0.0411699	0.217136	-0.0195182
0.791513	7.45541	-2.35552	-3.00203	0.135213	-2.98092	0.368554	-21.319	-33.5472	-2.24453	16.4845	-55.6378	14.4971	-0.0324126	8.18862	1.26472	-2.47738	-3.08402	0.977979	-0.0186135	-0.0525583	10.268	-2.51005	-6.1653	1.75002	-4.26811	-1.53773	1.23668	-0.0501849	0.0172238	-0.195284	2.06253	3.26883	0.94242	2.00058	0.0419122	0.220321	-0.018985
0.796491	7.40732	-2.86289	-2.81448	0.207757	-1.43738	-0.35371	-21.0377	-33.5185	-2.43172	17.0924	-56.4886	14.6338	-0.0327545	8.15851	1.18783	-2.47949	-2.77587	0.949486	-0.00909717	-0.0515943	10.3694	-2.40433	-6.22117	1.83024	-4.35687	-1.57297	1.25535	-0.0512745	0.0167657	-0.199628	2.14152	3.34042	0.960509	2.02895	0.0425845	0.223795	-0.0190958
0.801469	7.25777	-3.41071	-2.60049	0.544318	-1.1352	-0.382131	-20.7917	-33.4709	-2.60721	17.6722	-57.2978	14.76	-0.0330033	8.1481	1.04597	-2.45784	-2.50355	0.92632	-0.00309942	-0.0506933	10.5052	-2.35851	-6.19346	1.91891	-4.42065	-1.59866	1.27875	-0.0519906	0.0173821	-0.203464	2.21313	3.39066	0.970302	2.05471	0.0429649	0.22665	-0.0199444
0.806447	7.08792	-3.98596	-2.51881	0.676708	-1.07257	-0.496426	-20.579	-33.5107	-2.76654	18.2317	-58.0658	14.8736	-0.0331839	8.19532	0.821048	-2.40092	-2.26298	0.908456	-0.00142164	-0.0498293	10.5951	-2.29902	-6.27793	1.99223	-4.49995	-1.63215	1.29443	-0.0530239	0.0167203	-0.207583	2.29285	3.45192	0.986364	2.07834	0.0435593	0.229705	-0.0199348
0.811425	6.93504	-4.57569	-2.38359	0.666996	-1.75756	-0.218554	-20.3772	-33.5776	-2.91373	18.7642	-58.7951	14.9756	-0.0332915	8.21067	0.536109	-2.32029	-2.0049	0.893221	-0.00245389	-0.0489893	10.6754	-2.28147	-6.28715	2.079	-4.56019	-1.65849	1.31473	-0.0537767	0.0169508	-0.211406	2.3745	3.49793	0.995417	2.10126	0.0439115	0.232349	-0.0206441
0.816404	6.69373	-5.01078	-2.2245	0.353969	-2.01094	-0.218026	-20.173	-33.7415	-3.04622	19.2712	-59.4855	15.0642	-0.0334092	8.33947	0.259745	-2.23602	-1.80607	0.886418	-0.0067613	-0.0483235	10.7731	-2.29847	-6.23954	2.18799	-4.62116	-1.6847	1.34296	-0.0544649	0.0179679	-0.215721	2.46423	3.54466	1.0024	2.1284	0.0441982	0.235277	-0.0219119
0.821382	6.53946	-5.51582	-2.13051	0.0478811	-1.30864	-0.222465	-19.9811	-33.9731	-3.16642	19.7606	-60.1393	15.1394	-0.0335501	8.4693	-0.114047	-2.11017	-1.60286	0.884224	-0.0154121	-0.0477163	10.8507	-2.30125	-6.27458	2.28987	-4.70042	-1.71871	1.36788	-0.0554495	0.0181421	-0.220516	2.56215	3.60549	1.01548	2.15739	0.0447024	0.238694	-0.0226057
0.82636	6.40351	-6.03085	-2.00181	0.0243371	-1.29668	-0.0883121	-19.8305	-34.2314	-3.27754	20.2403	-60.7619	15.2021	-0.0336499	8.56831	-0.535068	-1.95866	-1.40732	0.886181	-0.0274493	-0.0471622	10.9405	-2.3288	-6.27365	2.3956	-4.76928	-1.74881	1.39428	-0.0562733	0.0187284	-0.225094	2.65611	3.65753	1.02528	2.18403	0.0450816	0.24177	-0.0235361
0.831338	6.16324	-6.39499	-1.88583	0.0738885	-1.48631	-0.084013	-19.6555	-34.6178	-3.37612	20.6912	-61.3539	15.2498	-0.0337314	8.70238	-0.981797	-1.79477	-1.23077	0.894203	-0.0425419	-0.0467465	11.059	-2.38549	-6.26933	2.50342	-4.83589	-1.77853	1.42215	-0.0570626	0.0194936	-0.229771	2.74949	3.70639	1.0342	2.2102	0.0454324	0.244821	-0.0245489
0.836316	6.12175	-6.87874	-1.78388	0.130311	-1.65648	-0.118999	-19.5112	-35.0227	-3.46788	21.1395	-61.92	15.2842	-0.0338015	8.7472	-1.48379	-1.59846	-1.02442	0.904369	-0.0608139	-0.0463545	11.103	-2.39858	-6.31964	2.59849	-4.90575	-1.81008	1.44294	-0.0579736	0.019423	-0.234175	2.84652	3.75962	1.04569	2.23381	0.0458641	0.247737	-0.0250684
0.841294	6.10091	-7.23262	-1.69699	0.0606757	-1.52402	-0.054739	-19.3352	-35.5249	-3.55129	21.5646	-62.4613	15.3032	-0.0338935	8.77315	-2.02806	-1.37973	-0.805562	0.919773	-0.0824324	-0.0461216	11.149	-2.47888	-6.38064	2.70001	-4.97786	-1.84313	1.4668	-0.0589045	0.01952	-0.238917	2.94865	3.81164	1.05684	2.25875	0.0462786	0.250795	-0.0256829
0.846272	6.24893	-7.73153	-1.59316	0.633748	-1.30333	0.844598	-19.2261	-35.9921	-3.63274	21.9995	-62.983	15.3092	-0.0340125	8.68664	-2.6803	-1.11626	-0.551746	0.939297	-0.108347	-0.0460255	11.2108	-2.59818	-6.43872	2.79427	-5.03845	-1.87183	1.49065	-0.0596924	0.0198576	-0.243243	3.04372	3.85267	1.06495	2.28237	0.0465893	0.253567	-0.0264598
0.85125	6.40073	-8.1975	-1.60468	0.902638	-1.50434	1.3018	-19.0623	-36.5456	-3.70916	22.4081	-63.4882	15.3002	-0.0340986	8.566	-3.34838	-0.835766	-0.283843	0.962986	-0.137174	-0.0460686	11.1968	-2.68578	-6.6302	2.86454	-5.11402	-1.90825	1.5026	-0.060818	0.0185195	-0.247579	3.14378	3.90497	1.08034	2.30097	0.0471318	0.256316	-0.0260742
0.856228	6.64678	-8.53073	-1.62727	0.801411	-1.35085	1.40077	-18.84	-37.2199	-3.77901	22.7952	-63.9791	15.2754	-0.0342134	8.39633	-4.02381	-0.54788	0.0178327	0.991642	-0.168441	-0.0463453	11.1256	-2.79591	-6.86868	2.93436	-5.19915	-1.94897	1.5125	-0.0620947	0.0166672	-0.252172	3.25125	3.96388	1.09868	2.31904	0.0477526	0.259171	-0.0253138
0.861206	6.9496	-8.99513	-1.72795	0.689538	-1.34843	1.28242	-18.5546	-37.9144	-3.84775	23.1544	-64.461	15.2369	-0.0343252	8.12936	-4.7529	-0.230067	0.35824	1.0243	-0.203279	-0.0468131	10.9861	-2.84433	-7.22851	2.97621	-5.2962	-1.9956	1.50968	-0.063662	0.0131899	-0.256522	3.35887	4.03331	1.12394	2.33202	0.0485973	0.261932	-0.0234239
0.866184	7.40053	-9.38199	-1.59383	0.599955	-1.38321	1.30411	-18.2788	-38.6606	-3.91413	23.5132	-64.9383	15.1847	-0.0344374	7.76213	-5.50328	0.106565	0.744165	1.0613	-0.241098	-0.047533	10.8631	-2.97334	-7.36679	3.05749	-5.35912	-2.02648	1.52254	-0.0645715	0.0122535	-0.260386	3.46101	4.0774	1.13507	2.34728	0.0489347	0.264081	-0.0232934
0.871162	7.92005	-9.68489	-1.18983	0.49271	-1.44618	1.21375	-17.9472	-39.4672	-3.97812	23.8499	-65.4142	15.1191	-0.0345499	7.27709	-6.26235	0.455889	1.18267	1.10215	-0.281521	-0.0485179	10.782	-3.15814	-7.26948	3.18188	-5.38986	-2.0422	1.55218	-0.0648379	0.0139671	-0.263907	3.55866	4.09901	1.13246	2.36604	0.0487936	0.265765	-0.0250083
0.87614	8.57403	-9.89189	-0.774166	0.311002	-1.47532	1.02089	-17.5612	-40.3333	-4.03994	24.1672	-65.8922	15.0403	-0.0346648	6.66495	-7.01247	0.811297	1.67924	1.14582	-0.323773	-0.0497592	10.6643	-3.38216	-7.19618	3.30358	-5.42091	-2.05839	1.58054	-0.0651199	0.015488	-0.267379	3.65717	4.11934	1.13014	2.38322	0.0486402	0.267319	-0.0265494
0.881118	9.37803	-10.2018	-0.149501	0.156284	-1.45259	0.91472	-17.1433	-41.174	-4.10465	24.4684	-66.3765	14.9505	-0.0347917	5.89607	-7.78953	1.18508	2.24035	1.19202	-0.368649	-0.0512607	10.5485	-3.61077	-6.94977	3.45116	-5.42367	-2.06149	1.61866	-0.0649034	0.0188155	-0.270253	3.75288	4.12174	1.11699	2.40286	0.0481249	0.268429	-0.0294769
0.886096	10.3141	-10.4577	0.698867	0.0856585	-1.46538	0.991	-16.6662	-42.0186	-4.16539	24.7442	-66.8699	14.8501	-0.0349286	4.94889	-8.57412	1.56841	2.87004	1.23943	-0.415333	-0.0529998	10.4655	-3.92221	-6.52273	3.63237	-5.39994	-2.0522	1.67087	-0.0641557	0.0243165	-0.27285	3.84372	4.1036	1.09234	2.42512	0.047202	0.269126	-0.0338849
0.891075	11.4109	-10.7442	1.5331	0.028033	-1.47827	1.10634	-16.128	-42.8297	-4.22645	24.9911	-67.3745	14.7398	-0.0350759	3.8246	-9.33486	1.94719	3.56974	1.28666	-0.462319	-0.054959	10.3412	-4.2386	-6.15256	3.80214	-5.37996	-2.04501	1.71842	-0.0635175	0.0291915	-0.27534	3.93631	4.08771	1.06987	2.44581	0.0463485	0.269785	-0.0378868
0.896053	12.6437	-10.9602	2.51017	-0.0168958	-1.46791	1.32473	-15.5265	-43.6061	-4.28619	25.2049	-67.8914	14.6202	-0.0352378	2.52148	-10.0313	2.30983	4.3403	1.33189	-0.508242	-0.0570933	10.2413	-4.61004	-5.66235	3.99608	-5.3422	-2.02974	1.77616	-0.0625389	0.0355711	-0.277728	4.02988	4.05826	1.03932	2.46998	0.0452291	0.270304	-0.0430128
0.901031	13.9853	-11.081	3.61552	-0.105366	-1.42378	1.55101	-14.8089	-44.3358	-4.34285	25.363	-68.4203	14.4917	-0.0354107	1.02629	-10.6285	2.64728	5.18745	1.37296	-0.551887	-0.0593416	10.1534	-5.02564	-5.06263	4.20994	-5.28784	-2.0066	1.84223	-0.061239	0.0432579	-0.279889	4.12206	4.01647	1.00156	2.49656	0.0438627	0.270606	-0.0490905
0.906009	15.4989	-11.2784	4.66681	-0.21914	-1.47885	1.75435	-14.046	-44.9815	-4.39588	25.4855	-68.9607	14.3552	-0.0356003	-0.641532	-11.1681	2.96572	6.0854	1.40952	-0.593662	-0.0616538	10.0112	-5.41671	-4.55398	4.40709	-5.24433	-1.9886	1.90077	-0.0601772	0.0498487	-0.282045	4.21866	3.98316	0.968681	2.52153	0.0426643	0.271007	-0.0544656
0.910987	17.17	-11.309	5.82417	-0.408295	-1.57864	1.98262	-13.1875	-45.5679	-4.44243	25.5526	-69.509	14.2102	-0.0357971	-2.52628	-11.5467	3.24294	7.07486	1.43634	-0.630191	-0.0639033	9.89087	-5.86332	-3.94286	4.62669	-5.18646	-1.96401	1.96868	-0.0588329	0.0577606	-0.284178	4.3178	3.93849	0.928803	2.55018	0.0412378	0.271343	-0.0608469
0.915965	18.9836	-11.158	7.03704	-0.829422	-1.82172	2.00504	-12.2337	-46.0794	-4.48112	25.5575	-70.0605	14.0567	-0.0360017	-4.58726	-11.7116	3.46664	8.13483	1.45142	-0.659658	-0.0659937	9.76053	-6.33775	-3.25812	4.86352	-5.1195	-1.93503	2.04257	-0.0573062	0.0665237	-0.286278	4.4214	3.88758	0.884208	2.58151	0.0396563	0.27163	-0.067924
0.920943	20.8967	-10.8345	8.08547	-1.39756	-1.51505	1.14264	-11.174	-46.5138	-4.51077	25.4892	-70.6077	13.8941	-0.0362544	-6.7636	-11.5619	3.61292	9.26858	1.45356	-0.678609	-0.0679336	9.5967	-6.73066	-2.72005	5.08206	-5.08462	-1.91967	2.10718	-0.0563198	0.0735231	-0.289028	4.53611	3.86322	0.851248	2.61396	0.0384908	0.272638	-0.0738046
0.925921	22.9063	-10.3114	9.13431	-1.53321	-1.80107	0.583852	-10.0806	-46.821	-4.52957	25.3599	-71.1446	13.723	-0.0364925	-9.1136	-11.1672	3.70254	10.46	1.43891	-0.687723	-0.0694824	9.48876	-7.16947	-2.12013	5.30747	-5.03561	-1.89823	2.17714	-0.0550908	0.0814352	-0.291557	4.6445	3.82612	0.812849	2.64733	0.0371512	0.273454	-0.0803196
0.930899	86.4439	-9.46043	31.0983	340.591	889.379	-213.958	-41.4154	-66.5253	-4.00796	35.7709	-70.5919	13.1446	-0.0886872	-12.3133	6.05436	1.61689	21.3619	2.22583	-0.594928	-0.1237	47.3203	14.9276	-9.71309	8.52394	-15.6275	-5.4491	4.08084	-0.164871	0.0676894	-0.68656	5.50396	12.7969	3.6492	5.69457	0.144173	0.68314	-0.00765244
0.935877	79.6344	-9.33592	28.5051	289.471	745.014	-173.047	-35.9793	-63.2904	-4.10488	34.136	-71.3429	12.9814	-0.0806	-14.8511	3.86221	2.11765	20.7322	2.05663	-0.608874	-0.115848	41.2724	10.5194	-7.89553	8.2477	-13.8141	-4.83641	3.86725	-0.1452	0.0807197	-0.624899	5.48689	11.2421	3.12931	5.24781	0.124753	0.617472	-0.0284339
0.940855	74.0151	-8.73232	26.2399	245.75	613.395	-136.941	-31.0957	-60.37	-4.18317	32.6604	-72.1108	12.7649	-0.0732926	-17.7652	2.35191	2.48127	20.4943	1.86821	-0.60481	-0.107961	35.9818	6.55969	-6.21364	7.9858	-12.1753	-4.28077	3.67436	-0.127305	0.0928413	-0.569002	5.43819	9.8368	2.66114	4.83933	0.107253	0.557915	-0.0469224
0.945833	69.3953	-7.56314	24.1823	209.238	494.115	-104.958	-26.7602	-57.7203	-4.242	31.3252	-72.8754	12.5028	-0.0667361	-20.9122	1.56047	2.70829	20.5901	1.66177	-0.58094	-0.100012	31.4576	2.98153	-4.67452	7.73519	-10.7006	-3.77898	3.50332	-0.111072	0.1043	-0.518661	5.35648	8.56865	2.24123	4.46826	0.0915497	0.504232	-0.0633329
0.950811	65.7816	-6.02275	22.2016	179.759	389.083	-77.8186	-22.957	-55.3632	-4.27774	30.115	-73.613	12.2013	-0.0610225	-24.2026	1.45687	2.82057	21.0005	1.44147	-0.539455	-0.0921028	27.6652	-0.0818078	-3.47375	7.47799	-9.43991	-3.35177	3.34404	-0.0972909	0.112804	-0.475077	5.26039	7.47941	1.88679	4.1387	0.0782546	0.457681	-0.0760821
0.955789	63.088	-4.1307	20.4354	157.167	297.283	-54.7911	-19.7673	-53.2925	-4.28885	29.0458	-74.3046	11.8676	-0.0560903	-27.5289	1.93739	2.84269	21.6428	1.20968	-0.482944	-0.0841408	24.6127	-2.7209	-2.42313	7.24067	-8.35241	-2.98179	3.20788	-0.0852857	0.120543	-0.437397	5.14168	6.53645	1.58266	3.84982	0.066829	0.417348	-0.0867618
0.960768	61.1851	-1.97733	18.8664	141.151	218.34	-35.6604	-17.1488	-51.4756	-4.27397	28.0913	-74.9302	11.509	-0.0519056	-30.827	2.95261	2.79272	22.4771	0.968413	-0.413042	-0.076107	22.2671	-4.92655	-1.51779	7.02082	-7.43076	-2.66649	3.09313	-0.0749879	0.127489	-0.405304	5.0012	5.73446	1.32696	3.60006	0.0572062	0.382977	-0.0954422
0.965746	59.9441	0.237437	17.3198	131.273	151.955	-20.2078	-15.0801	-49.8883	-4.23175	27.2357	-75.4703	11.1324	-0.0484295	-33.9986	4.37201	2.69283	23.4366	0.722863	-0.333432	-0.0680751	20.541	-6.65874	-0.941197	6.7855	-6.69459	-2.41622	2.98521	-0.0668492	0.131503	-0.378858	4.84552	5.08702	1.12911	3.38433	0.0496929	0.354643	-0.100666
0.970724	59.2494	2.47906	15.972	127.064	97.148	-7.98879	-13.5411	-48.5109	-4.16235	26.4656	-75.9071	10.7447	-0.045595	-36.9871	6.10466	2.5585	24.4676	0.475424	-0.246583	-0.0600143	19.4161	-7.97824	-0.490265	6.56369	-6.10235	-2.21311	2.89478	-0.0601913	0.134747	-0.357136	4.66986	4.56331	0.973726	3.20218	0.0437518	0.331433	-0.104094
0.975702	58.963	4.64962	14.8127	127.842	53.2404	1.45542	-12.4837	-47.3098	-4.06485	25.7612	-76.2232	10.3526	-0.0433451	-39.7166	8.03664	2.40352	25.5104	0.230672	-0.155951	-0.0519892	18.8277	-8.91564	-0.15531	6.35414	-5.64042	-2.05268	2.82017	-0.0548797	0.137283	-0.339673	4.47767	4.15189	0.856717	3.05108	0.0392349	0.312894	-0.105928
0.98068	58.9966	6.45408	13.7239	133.286	19.4934	8.39125	-11.8853	-46.2494	-3.94028	25.1109	-76.4025	9.96301	-0.0416104	-42.1667	9.9602	2.24719	26.5064	-0.00547662	-0.0678583	-0.0440865	18.6752	-9.42216	-0.116166	6.11909	-5.32412	-1.9436	2.74471	-0.0513191	0.136883	-0.326264	4.27121	3.86338	0.786915	2.92351	0.0364202	0.298856	-0.104622
0.985658	59.2228	7.85028	12.8932	142.742	-4.83152	13.3972	-11.6984	-45.295	-3.79023	24.4989	-76.4295	9.582	-0.0403358	-44.2888	11.7557	2.09393	27.402	-0.228566	0.0140321	-0.0363763	18.9425	-9.57675	-0.167426	5.89018	-5.11135	-1.86797	2.68035	-0.0488299	0.135819	-0.316068	4.04916	3.66607	0.748243	2.82052	0.0347592	0.288508	-0.101983
0.990636	59.5506	8.70491	12.3373	155.402	-20.6199	16.9699	-11.8598	-44.3951	-3.61724	23.9066	-76.2898	9.2156	-0.0394504	-46.0642	13.2864	1.9468	28.1524	-0.433999	0.0857085	-0.0289547	19.5422	-9.41239	-0.293332	5.66562	-4.98528	-1.82012	2.62459	-0.0472464	0.134135	-0.308477	3.81554	3.54644	0.735771	2.73878	0.0340729	0.28127	-0.0982385
0.995614	59.8835	8.9399	11.9707	170.732	-28.6602	19.1487	-12.3179	-43.5391	-3.42295	23.3217	-75.9696	8.86866	-0.0388927	-47.4543	14.4737	1.80294	28.7131	-0.617407	0.144554	-0.0219344	20.3797	-8.91785	-0.589433	5.42399	-4.94914	-1.80315	2.56702	-0.0467403	0.130571	-0.303174	3.57266	3.50598	0.752892	2.67232	0.0344535	0.276812	-0.0925613
1.00059	60.1579	8.52032	11.8929	188.06	-29.6734	20.4099	-13.0265	-42.678	-3.21096	22.735	-75.4567	8.54609	-0.0385937	-48.4497	15.2421	1.65845	29.0549	-0.774379	0.188078	-0.0154688	21.4129	-8.1585	-0.934956	5.18279	-4.97346	-1.80501	2.51349	-0.0468704	0.126412	-0.299468	3.32123	3.52198	0.788824	2.62039	0.0355255	0.274452	-0.0860307
1.00557	60.2764	7.38773	12.0956	206.736	-24.476	21.0062	-13.929	-41.7638	-2.98592	22.1349	-74.7398	8.25196	-0.0384891	-49.0274	15.5448	1.50875	29.1476	-0.901307	0.214879	-0.00969121	22.5743	-7.14488	-1.30979	4.9394	-5.0423	-1.82028	2.4615	-0.0474858	0.121711	-0.296785	3.06452	3.58262	0.839067	2.58044	0.0371405	0.273717	-0.0789008
1.01055	60.1798	5.50679	12.3738	225.935	-13.7972	20.7727	-14.957	-40.7745	-2.75119	21.5099	-73.8088	7.98907	-0.0385006	-49.1533	15.3797	1.3484	28.9689	-0.995243	0.224807	-0.00474236	23.726	-5.85732	-1.89583	4.66225	-5.17396	-1.85902	2.39517	-0.0490273	0.11421	-0.295105	2.81091	3.70039	0.912708	2.54529	0.0395733	0.274483	-0.0696235
1.01553	59.8023	3.08871	12.8453	245.052	1.44851	20.1137	-16.0527	-39.7059	-2.51016	20.8532	-72.6543	7.7587	-0.0385807	-48.8239	14.7937	1.17624	28.5138	-1.05539	0.219347	-0.000710867	24.8723	-4.41296	-2.48935	4.3844	-5.32611	-1.9035	2.32782	-0.0508087	0.106288	-0.293706	2.55924	3.84167	0.99317	2.51637	0.0422616	0.275979	-0.0600682
1.0205	59.1338	0.0572412	13.4819	263.521	21.0481	19.1157	-17.1926	-38.4834	-2.27051	20.1671	-71.2688	7.56253	-0.0387121	-48.0288	13.8033	0.993872	27.7757	-1.08017	0.19949	0.00228568	25.9517	-2.80574	-3.07352	4.1077	-5.49163	-1.95119	2.25809	-0.0527706	0.0979422	-0.292306	2.31554	4.00261	1.07823	2.49329	0.0451357	0.278015	-0.0504147
1.02548	58.1558	-3.36935	14.2003	280.837	44.1349	17.7349	-18.3244	-37.1294	-2.03481	19.4499	-69.6462	7.39899	-0.0388598	-46.7765	12.519	0.807065	26.7677	-1.07119	0.168825	0.00421244	26.924	-1.09275	-3.64915	3.83256	-5.66232	-1.99986	2.18524	-0.0548349	0.0891945	-0.290718	2.08253	4.1746	1.16523	2.47352	0.0480902	0.280264	-0.0407406
1.03046	56.7846	-7.05064	15.0247	295.864	70.1706	16.2643	-19.3757	-35.5956	-1.80973	18.6919	-67.7829	7.26643	-0.0389759	-45.0101	10.9976	0.618174	25.4855	-1.02886	0.129871	0.00502171	27.7498	0.628817	-4.0704	3.58937	-5.80951	-2.03776	2.11944	-0.0565501	0.0817147	-0.288572	1.86957	4.33537	1.24198	2.45972	0.050719	0.282285	-0.032502
1.03544	55.0726	-10.8222	15.9151	308.287	98.6022	14.6087	-20.3257	-33.9102	-1.59656	17.9019	-65.6771	7.16058	-0.039037	-42.7615	9.34091	0.433761	23.9575	-0.955855	0.0858973	0.00472158	28.3988	2.32698	-4.32176	3.38108	-5.92627	-2.06256	2.06087	-0.0578347	0.0756428	-0.285704	1.67913	4.47886	1.30601	2.45074	0.0529325	0.283855	-0.0258696
1.04042	53.0063	-14.6417	16.6674	317.586	128.762	12.7612	-21.1359	-32.0487	-1.40095	17.0804	-63.3294	7.07641	-0.0390469	-40.0452	7.60479	0.263299	22.203	-0.855881	0.0398275	0.00340407	28.8052	3.98946	-4.54319	3.18682	-6.02848	-2.08287	1.99979	-0.0590362	0.0694305	-0.282346	1.51795	4.61438	1.36424	2.44232	0.054947	0.285031	-0.0197466
1.04539	50.6261	-18.2483	17.3255	322.867	160.423	10.7543	-21.7596	-30.0481	-1.22328	16.2309	-60.743	7.00633	-0.038991	-36.8443	5.88987	0.110945	20.2478	-0.732315	-0.00512679	0.00112412	28.9484	5.51266	-4.59653	3.04035	-6.09449	-2.08939	1.94782	-0.059767	0.0647447	-0.278413	1.39592	4.72471	1.40623	2.4383	0.0564088	0.285571	-0.0155059
1.05037	48.019	-21.7908	17.665	324.637	192.94	8.44565	-22.2495	-27.8893	-1.06894	15.3761	-57.9261	6.9433	-0.0388364	-33.258	4.21735	-0.0183334	18.136	-0.589216	-0.047822	-0.00200761	28.7875	6.98583	-4.72957	2.89243	-6.15834	-2.09832	1.88536	-0.0606904	0.0586642	-0.274177	1.3096	4.83449	1.44787	2.43096	0.057838	0.285722	-0.0108905
1.05535	45.2263	-24.9556	17.8153	322.193	226.019	6.16504	-22.5675	-25.6135	-0.937701	14.5212	-54.8873	6.87697	-0.0386276	-29.3039	2.67331	-0.121038	15.9064	-0.432537	-0.085294	-0.0058008	28.3689	8.25968	-4.7166	2.7934	-6.18528	-2.09445	1.83242	-0.0611645	0.0540594	-0.269552	1.26703	4.91547	1.47266	2.4273	0.0586946	0.285224	-0.00814699
1.06033	42.3784	-27.6806	17.807	315.423	259.363	4.06065	-22.7271	-23.2707	-0.827371	13.6854	-51.6396	6.79656	-0.0383893	-25.0708	1.23516	-0.197453	13.6012	-0.2672	-0.117693	-0.010057	27.695	9.27972	-4.55067	2.75124	-6.17566	-2.07809	1.7918	-0.0611664	0.0511666	-0.264754	1.27118	4.96585	1.47966	2.42761	0.0589328	0.284085	-0.00740266
1.06531	39.52	-30.0203	17.4082	304.345	292.503	1.82669	-22.7251	-20.8785	-0.73841	12.8766	-48.1999	6.69143	-0.0381037	-20.618	-0.0510334	-0.246216	11.264	-0.0982963	-0.143569	-0.0146087	26.7108	10.1176	-4.47026	2.72541	-6.16479	-2.06608	1.74629	-0.0613675	0.0472347	-0.260271	1.32604	5.01128	1.48419	2.4261	0.0590557	0.282686	-0.00658734
1.07029	36.7774	-31.7738	16.8264	289.072	325.315	-0.0933183	-22.5928	-18.5026	-0.666563	12.1187	-44.5867	6.54982	-0.0378325	-16.0379	-1.18382	-0.272398	8.94465	0.0683573	-0.162961	-0.0192169	25.5184	10.6493	-4.26782	2.76014	-6.12412	-2.04521	1.71536	-0.0611868	0.0450043	-0.256135	1.43174	5.02803	1.4723	2.42953	0.0586094	0.280902	-0.00769545
1.07526	34.2711	-32.8794	16.0674	269.903	357.597	-1.62238	-22.3617	-16.1885	-0.608449	11.4315	-40.8216	6.36083	-0.0376045	-11.4273	-2.14003	-0.279661	6.69505	0.227405	-0.175559	-0.0236826	24.1531	10.8543	-3.95945	2.85606	-6.05784	-2.0174	1.70025	-0.0606703	0.0444817	-0.2526	1.588	5.01759	1.44502	2.43838	0.0576287	0.278873	-0.0106585
1.08024	32.1294	-33.5031	14.998	247.287	389.128	-2.92986	-22.0742	-13.9626	-0.562238	10.8349	-36.9288	6.11501	-0.0374212	-6.89461	-2.96122	-0.269637	4.55532	0.375178	-0.182491	-0.0278519	22.5785	10.806	-3.7604	2.97556	-6.0007	-1.99838	1.68558	-0.0604295	0.0431874	-0.250122	1.79341	5.0054	1.41723	2.44691	0.0565887	0.27694	-0.0134874
1.08522	30.417	-33.4831	13.791	221.339	419.909	-3.68092	-21.7441	-11.8701	-0.523044	10.3428	-32.9314	5.80304	-0.0373323	-2.4969	-3.62558	-0.249141	2.56418	0.507146	-0.183564	-0.0315432	20.8876	10.4212	-3.48763	3.15534	-5.92704	-1.97628	1.68776	-0.0599605	0.0434853	-0.248661	2.04839	4.97135	1.3768	2.46166	0.0551087	0.275041	-0.0179578
1.0902	29.2998	-32.8688	12.5591	193.636	449.888	-3.82304	-21.4802	-9.9806	-0.484604	9.99173	-28.8537	5.41749	-0.0373499	1.59835	-4.16	-0.223007	0.77282	0.620351	-0.180454	-0.0346456	19.1958	9.7416	-3.15262	3.38578	-5.84282	-1.95262	1.70706	-0.0592943	0.0453974	-0.248325	2.33653	4.91925	1.32656	2.48213	0.0532893	0.273326	-0.0238024
1.09518	28.8259	-31.7901	11.1473	164.494	479.054	-3.63141	-21.276	-8.29819	-0.44537	9.7804	-24.7174	4.95273	-0.0374657	5.33749	-4.55586	-0.191577	-0.79547	0.712971	-0.1732	-0.0371043	17.4527	8.84977	-2.95757	3.63012	-5.78022	-1.94189	1.72828	-0.0590061	0.0465352	-0.249451	2.6567	4.87342	1.28056	2.50297	0.0515789	0.272095	-0.0291401
1.10015	28.9576	-30.2209	9.76127	134.634	507.451	-2.84106	-21.1555	-6.82433	-0.404044	9.71457	-20.5414	4.40466	-0.0376977	8.6766	-4.82667	-0.160531	-2.12655	0.783988	-0.162663	-0.038869	15.7861	7.72957	-2.72508	3.91273	-5.71428	-1.93176	1.76455	-0.0585994	0.0490275	-0.251719	2.99736	4.81606	1.22848	2.52889	0.049662	0.271201	-0.0354637
1.10513	29.793	-28.2401	8.47897	105.176	535.259	-1.53308	-21.1618	-5.60029	-0.356528	9.80287	-16.3408	3.76977	-0.0380332	11.5224	-4.98887	-0.131894	-3.19971	0.833475	-0.150072	-0.039958	14.2359	6.44358	-2.47065	4.2202	-5.64889	-1.92282	1.81284	-0.0581094	0.0526043	-0.254922	3.34483	4.75137	1.17307	2.55834	0.0476282	0.270624	-0.0424073
1.11011	31.2364	-26.0372	7.22388	77.1966	562.515	0.019318	-21.2978	-4.60265	-0.304971	10.0324	-12.1263	3.04666	-0.0384517	13.849	-5.05269	-0.107083	-4.01884	0.862854	-0.136162	-0.0404294	12.8309	5.12402	-2.34491	4.51306	-5.60843	-1.92529	1.85979	-0.0579597	0.0553939	-0.259098	3.68436	4.69917	1.12645	2.58629	0.0458797	0.270581	-0.0483664
1.11509	33.1657	-23.6779	6.18216	51.5213	589.407	1.83248	-21.5261	-3.81668	-0.250064	10.3755	-7.90438	2.23446	-0.0389095	15.6513	-5.0485	-0.0873217	-4.60073	0.875558	-0.122245	-0.0404229	11.6444	3.82158	-2.213	4.79901	-5.57253	-1.9285	1.91123	-0.0577673	0.0587207	-0.263584	3.99958	4.64757	1.08176	2.61454	0.0442094	0.270791	-0.0542567
1.12007	35.4391	-21.3243	5.41708	29.1162	616.05	3.71529	-21.8095	-3.20997	-0.19517	10.7977	-3.67731	1.33334	-0.0393566	16.9311	-5.00158	-0.0732127	-4.96778	0.875577	-0.109519	-0.0400995	10.7056	2.64963	-2.07704	5.0582	-5.54071	-1.93095	1.96159	-0.0575273	0.0622176	-0.267818	4.27232	4.59979	1.04141	2.64052	0.0427053	0.271089	-0.059686
1.12504	37.8534	-19.2347	4.86347	10.978	642.54	5.20741	-22.0801	-2.7389	-0.144905	11.2492	0.555574	0.343938	-0.039729	17.7088	-4.94132	-0.0641143	-5.15296	0.867925	-0.0992133	-0.0396578	9.99836	1.78887	-2.08854	5.2433	-5.53583	-1.94183	1.99354	-0.057666	0.0636978	-0.271472	4.48446	4.577	1.01822	2.65752	0.041788	0.271516	-0.0628576
1.13002	0	0	0	0	0	0	0	0	0	0	0	0	0	0	0	0	0	0	0	0	0	0	0	0	0	0	0	0	0	0	0	0	0	0	0	0	0
