nColumns=19
nRows=416
DataType=double
version=3
OpenSimVersion=4.1
endheader
time	ground_force_calcn_l_vx	ground_force_calcn_l_vy	ground_force_calcn_l_vz	ground_force_calcn_l_px	ground_force_calcn_l_py	ground_force_calcn_l_pz	ground_force_calcn_l_mx	ground_force_calcn_l_my	ground_force_calcn_l_mz	ground_force_calcn_r_vx	ground_force_calcn_r_vy	ground_force_calcn_r_vz	ground_force_calcn_r_px	ground_force_calcn_r_py	ground_force_calcn_r_pz	ground_force_calcn_r_mx	ground_force_calcn_r_my	ground_force_calcn_r_mz
0	0	0	0	0	0.0276869	0	0	0	0	0	0	0	0	0.027795	0	0	0	0
0.00498798	0.181442	-33.7025	-2.72553	0.306076	3.39504e-17	0.433118	-0.000624329	0.115968	0.00937836	0	0	0	0	3.39504e-17	0	0	0	0
0.00997596	-0.0471566	-8.77621	-0.711112	0.306014	3.39455e-17	0.433077	0.000151472	0.0281901	0.00228417	0	0	0	0	3.39455e-17	0	0	0	0
0.0149639	-0.276375	16.2435	1.31086	0.306007	3.39406e-17	0.433152	0.00101911	-0.0598964	-0.00483366	0	0	0	0	3.39406e-17	0	0	0	0
0.0199519	-0.506549	41.4192	3.34543	0.305954	3.39356e-17	0.433128	0.00181656	-0.148535	-0.0119972	0	0	0	0	3.39356e-17	0	0	0	0
0.0249399	-0.737846	66.8034	5.39687	0.305906	3.39304e-17	0.433119	0.0026275	-0.237889	-0.0192185	0	0	0	0	3.39304e-17	0	0	0	0
0.0299279	-0.970116	92.4228	7.46735	0.305856	3.3925e-17	0.433112	0.00344335	-0.328047	-0.0265047	0	0	0	0	3.3925e-17	0	0	0	0
0.0349159	-1.20276	118.263	9.55569	0.305805	3.39194e-17	0.433107	0.00426076	-0.418947	-0.033851	0	0	0	0	3.39194e-17	0	0	0	0
0.0399038	-1.43456	144.253	11.6561	0.305751	3.39134e-17	0.433103	0.00507508	-0.510326	-0.0412361	0	0	0	0	3.39134e-17	0	0	0	0
0.0448918	-1.66359	170.248	13.757	0.305693	3.3907e-17	0.4331	0.00587922	-0.601663	-0.048618	0	0	0	0	3.3907e-17	0	0	0	0
0.0498798	-1.88696	196.009	15.8391	0.305631	3.39002e-17	0.433099	0.00666283	-0.692104	-0.0559277	0	0	0	0	3.39002e-17	0	0	0	0
0.0548678	-2.10069	221.187	17.8741	0.305565	3.38929e-17	0.433099	0.00741174	-0.780401	-0.0630643	0	0	0	0	3.38929e-17	0	0	0	0
0.0598558	-2.30028	245.37	19.8288	0.305495	3.38851e-17	0.4331	0.00810992	-0.86508	-0.0699087	0	0	0	0	3.38851e-17	0	0	0	0
0.0648438	-2.48226	268.215	21.6756	0.30542	3.38769e-17	0.433102	0.00874488	-0.944908	-0.076362	0	0	0	0	3.38769e-17	0	0	0	0
0.0698317	-2.64445	289.486	23.3956	0.305342	3.38681e-17	0.433105	0.00930882	-1.01903	-0.0823559	0	0	0	0	3.38681e-17	0	0	0	0
0.0748197	-2.78569	309.031	24.9768	0.305259	3.3859e-17	0.433109	0.00979779	-1.08692	-0.087848	0	0	0	0	3.3859e-17	0	0	0	0
0.0798077	-2.90562	326.765	26.4125	0.305174	3.38496e-17	0.433114	0.0102106	-1.14827	-0.0928152	0	0	0	0	3.38496e-17	0	0	0	0
0.0847957	-3.00457	342.661	27.7008	0.305087	3.38399e-17	0.433119	0.0105482	-1.20299	-0.0972498	0	0	0	0	3.38399e-17	0	0	0	0
0.0897837	-3.08342	356.736	28.8437	0.304999	3.38302e-17	0.433125	0.0108139	-1.25111	-0.101158	0	0	0	0	3.38302e-17	0	0	0	0
0.0947716	-3.14337	369.044	29.8459	0.30491	3.38203e-17	0.433131	0.011012	-1.29285	-0.104557	0	0	0	0	3.38203e-17	0	0	0	0
0.0997596	-3.18587	379.667	30.714	0.304821	3.38106e-17	0.433137	0.0111476	-1.32849	-0.107471	0	0	0	0	3.38106e-17	0	0	0	0
0.104748	-3.21259	388.707	31.4566	0.304734	3.38009e-17	0.433143	0.0112265	-1.35835	-0.109926	0	0	0	0	3.38009e-17	0	0	0	0
0.109736	-3.22537	396.28	32.0829	0.304649	3.37915e-17	0.433148	0.011255	-1.38282	-0.111953	0	0	0	0	3.37915e-17	0	0	0	0
0.114724	-3.22608	402.51	32.6026	0.304566	3.37823e-17	0.433152	0.0112396	-1.40234	-0.113587	0	0	0	0	3.37823e-17	0	0	0	0
0.119712	-3.21666	407.526	33.0258	0.304487	3.37736e-17	0.433156	0.0111875	-1.41737	-0.114863	0	0	0	0	3.37736e-17	0	0	0	0
0.1247	-3.19918	411.46	33.3623	0.304412	3.37653e-17	0.433159	0.0111059	-1.42838	-0.115817	0	0	0	0	3.37653e-17	0	0	0	0
0.129688	-3.17577	414.439	33.6217	0.304343	3.37576e-17	0.433161	0.0110029	-1.43588	-0.116487	0	0	0	0	3.37576e-17	0	0	0	0
0.134675	-3.14857	416.586	33.8131	0.304279	3.37506e-17	0.433163	0.0108861	-1.44033	-0.116908	0	0	0	0	3.37506e-17	0	0	0	0
0.139663	-3.11955	418.018	33.9452	0.304221	3.37443e-17	0.433163	0.0107626	-1.44218	-0.117113	0	0	0	0	3.37443e-17	0	0	0	0
0.144651	-3.09053	418.845	34.0258	0.304171	3.37387e-17	0.433162	0.0106395	-1.44192	-0.117137	0	0	0	0	3.37387e-17	0	0	0	0
0.149639	-3.06315	419.168	34.0621	0.304127	3.37339e-17	0.433161	0.010523	-1.43999	-0.117015	0	0	0	0	3.37339e-17	0	0	0	0
0.154627	-3.03881	419.076	34.0608	0.304092	3.373e-17	0.433158	0.0104185	-1.4368	-0.116777	0	0	0	0	3.373e-17	0	0	0	0
0.159615	-3.01866	418.652	34.0277	0.304064	3.3727e-17	0.433155	0.0103302	-1.43267	-0.116447	0	0	0	0	3.3727e-17	0	0	0	0
0.164603	-3.00362	417.969	33.9682	0.304043	3.37247e-17	0.433151	0.0102612	-1.4279	-0.116045	0	0	0	0	3.37247e-17	0	0	0	0
0.169591	-2.9943	417.089	33.8869	0.304031	3.37234e-17	0.433146	0.0102139	-1.42273	-0.115592	0	0	0	0	3.37234e-17	0	0	0	0
0.174579	-2.99102	416.066	33.7881	0.304026	3.37229e-17	0.433141	0.0101893	-1.41739	-0.115104	0	0	0	0	3.37229e-17	0	0	0	0
0.179567	-2.99382	414.948	33.6752	0.304028	3.37233e-17	0.433136	0.0101879	-1.41206	-0.114596	0	0	0	0	3.37233e-17	0	0	0	0
0.184555	-3.00256	413.772	33.5516	0.304038	3.37244e-17	0.43313	0.0102093	-1.40692	-0.114083	0	0	0	0	3.37244e-17	0	0	0	0
0.189543	-3.01698	412.572	33.4198	0.304054	3.37262e-17	0.433125	0.0102531	-1.40212	-0.113577	0	0	0	0	3.37262e-17	0	0	0	0
0.194531	-3.03674	411.375	33.2824	0.304076	3.37286e-17	0.433121	0.0103185	-1.3978	-0.113089	0	0	0	0	3.37286e-17	0	0	0	0
0.199519	-3.06142	410.202	33.1413	0.304101	3.37315e-17	0.433117	0.0104042	-1.39407	-0.112631	0	0	0	0	3.37315e-17	0	0	0	0
0.204507	-3.09056	409.071	32.9984	0.30413	3.37347e-17	0.433114	0.0105091	-1.39101	-0.112208	0	0	0	0	3.37347e-17	0	0	0	0
0.209495	-3.1237	407.998	32.8551	0.304161	3.37382e-17	0.433113	0.0106317	-1.38865	-0.111824	0	0	0	0	3.37382e-17	0	0	0	0
0.214483	-3.16038	406.992	32.7127	0.304194	3.37419e-17	0.433112	0.0107704	-1.38701	-0.111484	0	0	0	0	3.37419e-17	0	0	0	0
0.219471	-3.20018	406.061	32.5721	0.304228	3.37457e-17	0.433113	0.0109239	-1.3861	-0.111185	0	0	0	0	3.37457e-17	0	0	0	0
0.224459	-3.24273	405.211	32.4343	0.304262	3.37495e-17	0.433115	0.0110906	-1.38587	-0.11093	0	0	0	0	3.37495e-17	0	0	0	0
0.229447	-3.28764	404.443	32.3001	0.304295	3.37531e-17	0.433118	0.0112689	-1.38629	-0.110713	0	0	0	0	3.37531e-17	0	0	0	0
0.234435	-3.33444	403.758	32.17	0.304326	3.37566e-17	0.433122	0.0114568	-1.38727	-0.110533	0	0	0	0	3.37566e-17	0	0	0	0
0.239423	-3.38262	403.153	32.0446	0.304356	3.37599e-17	0.433126	0.0116523	-1.38876	-0.110386	0	0	0	0	3.37599e-17	0	0	0	0
0.244411	-3.43166	402.626	31.9243	0.304384	3.3763e-17	0.433131	0.0118532	-1.3907	-0.110269	0	0	0	0	3.3763e-17	0	0	0	0
0.249399	-3.48102	402.169	31.8093	0.304411	3.3766e-17	0.433136	0.0120575	-1.39303	-0.110181	0	0	0	0	3.3766e-17	0	0	0	0
0.254387	-3.53015	401.777	31.6999	0.304437	3.37689e-17	0.433141	0.0122627	-1.39565	-0.110116	0	0	0	0	3.37689e-17	0	0	0	0
0.259375	-3.57853	401.443	31.5961	0.304462	3.37716e-17	0.433147	0.0124661	-1.39845	-0.110067	0	0	0	0	3.37716e-17	0	0	0	0
0.264363	-3.62564	401.159	31.4981	0.304486	3.37742e-17	0.433154	0.0126651	-1.40133	-0.110029	0	0	0	0	3.37742e-17	0	0	0	0
0.269351	-3.67109	400.917	31.4056	0.304508	3.37767e-17	0.43316	0.0128576	-1.40416	-0.109994	0	0	0	0	3.37767e-17	0	0	0	0
0.274339	-3.71446	400.712	31.3187	0.30453	3.37791e-17	0.433165	0.013041	-1.40685	-0.109956	0	0	0	0	3.37791e-17	0	0	0	0
0.279327	-3.75534	400.537	31.237	0.304551	3.37815e-17	0.433171	0.0132133	-1.40931	-0.109909	0	0	0	0	3.37815e-17	0	0	0	0
0.284315	-3.79344	400.385	31.1605	0.304571	3.37838e-17	0.433175	0.0133729	-1.41147	-0.109849	0	0	0	0	3.37838e-17	0	0	0	0
0.289303	-3.8286	400.253	31.089	0.304592	3.3786e-17	0.433179	0.0135188	-1.41329	-0.109775	0	0	0	0	3.3786e-17	0	0	0	0
0.294291	-3.86077	400.137	31.0224	0.304612	3.37883e-17	0.433181	0.0136508	-1.41479	-0.109687	0	0	0	0	3.37883e-17	0	0	0	0
0.299279	-3.89006	400.032	30.9604	0.304633	3.37906e-17	0.433183	0.0137696	-1.41599	-0.10959	0	0	0	0	3.37906e-17	0	0	0	0
0.304267	-3.91678	399.938	30.9027	0.304654	3.3793e-17	0.433183	0.0138767	-1.41694	-0.109485	0	0	0	0	3.3793e-17	0	0	0	0
0.309255	-3.94133	399.852	30.8492	0.304677	3.37955e-17	0.433183	0.013974	-1.41768	-0.109376	0	0	0	0	3.37955e-17	0	0	0	0
0.314243	-3.96415	399.771	30.7994	0.3047	3.37982e-17	0.433181	0.0140631	-1.41822	-0.109263	0	0	0	0	3.37982e-17	0	0	0	0
0.319231	-3.9857	399.696	30.7532	0.304725	3.3801e-17	0.433179	0.0141459	-1.41858	-0.109148	0	0	0	0	3.3801e-17	0	0	0	0
0.324219	-4.0065	399.625	30.7104	0.304752	3.3804e-17	0.433175	0.0142244	-1.4188	-0.109032	0	0	0	0	3.3804e-17	0	0	0	0
0.329207	-4.02706	399.555	30.6706	0.30478	3.38072e-17	0.433171	0.0143007	-1.41888	-0.108916	0	0	0	0	3.38072e-17	0	0	0	0
0.334195	-4.04781	399.487	30.6338	0.304811	3.38106e-17	0.433165	0.0143765	-1.41885	-0.108801	0	0	0	0	3.38106e-17	0	0	0	0
0.339183	-4.06911	399.419	30.5997	0.304844	3.38143e-17	0.433159	0.0144534	-1.41873	-0.10869	0	0	0	0	3.38143e-17	0	0	0	0
0.344171	-4.09124	399.351	30.5683	0.304879	3.38182e-17	0.433151	0.0145328	-1.41857	-0.108585	0	0	0	0	3.38182e-17	0	0	0	0
0.349159	-4.11437	399.281	30.5395	0.304916	3.38223e-17	0.433142	0.0146156	-1.41838	-0.108486	0	0	0	0	3.38223e-17	0	0	0	0
0.354147	-4.13863	399.21	30.5133	0.304955	3.38267e-17	0.433132	0.014702	-1.41815	-0.108395	0	0	0	0	3.38267e-17	0	0	0	0
0.359135	-4.16408	399.138	30.4895	0.304995	3.38312e-17	0.43312	0.0147923	-1.41788	-0.108309	0	0	0	0	3.38312e-17	0	0	0	0
0.364123	-4.19076	399.067	30.4682	0.305036	3.38357e-17	0.433108	0.0148865	-1.41757	-0.10823	0	0	0	0	3.38357e-17	0	0	0	0
0.369111	-4.21862	398.998	30.4495	0.305077	3.38403e-17	0.433094	0.0149844	-1.41722	-0.108156	0	0	0	0	3.38403e-17	0	0	0	0
0.374099	-4.24754	398.932	30.4335	0.305118	3.38448e-17	0.43308	0.0150855	-1.41684	-0.108087	0	0	0	0	3.38448e-17	0	0	0	0
0.379087	-4.2773	398.873	30.4204	0.305157	3.38492e-17	0.433065	0.0151888	-1.41641	-0.108023	0	0	0	0	3.38492e-17	0	0	0	0
0.384075	-4.30767	398.821	30.4101	0.305195	3.38534e-17	0.43305	0.0152934	-1.41592	-0.107964	0	0	0	0	3.38534e-17	0	0	0	0
0.389063	-4.33833	398.778	30.4027	0.305231	3.38574e-17	0.433035	0.0153977	-1.41535	-0.107906	0	0	0	0	3.38574e-17	0	0	0	0
0.39405	-4.36884	398.747	30.3982	0.305266	3.38613e-17	0.433019	0.0154999	-1.41468	-0.107847	0	0	0	0	3.38613e-17	0	0	0	0
0.399038	-4.39861	398.726	30.3964	0.305299	3.38649e-17	0.433004	0.0155978	-1.41391	-0.107788	0	0	0	0	3.38649e-17	0	0	0	0
0.404026	-4.427	398.717	30.3972	0.30533	3.38684e-17	0.432987	0.0156892	-1.41305	-0.107727	0	0	0	0	3.38684e-17	0	0	0	0
0.409014	-4.45335	398.719	30.4002	0.305359	3.38717e-17	0.432971	0.0157718	-1.41208	-0.107664	0	0	0	0	3.38717e-17	0	0	0	0
0.414002	-4.47702	398.731	30.4052	0.305388	3.38749e-17	0.432954	0.0158426	-1.41097	-0.107593	0	0	0	0	3.38749e-17	0	0	0	0
0.41899	-4.4975	398.753	30.4117	0.305415	3.38779e-17	0.432936	0.0158995	-1.40967	-0.107511	0	0	0	0	3.38779e-17	0	0	0	0
0.423978	-4.51442	398.786	30.4195	0.30544	3.38807e-17	0.432918	0.0159409	-1.40815	-0.107414	0	0	0	0	3.38807e-17	0	0	0	0
0.428966	-4.5276	398.83	30.4283	0.305464	3.38834e-17	0.4329	0.0159662	-1.40644	-0.107303	0	0	0	0	3.38834e-17	0	0	0	0
0.433954	-4.53693	398.884	30.4378	0.305486	3.38859e-17	0.432882	0.0159757	-1.40458	-0.10718	0	0	0	0	3.38859e-17	0	0	0	0
0.438942	-4.54241	398.949	30.4477	0.305506	3.38882e-17	0.432864	0.0159701	-1.40261	-0.107047	0	0	0	0	3.38882e-17	0	0	0	0
0.44393	-4.54414	399.025	30.4578	0.305524	3.38902e-17	0.432847	0.0159502	-1.4006	-0.106909	0	0	0	0	3.38902e-17	0	0	0	0
0.448918	-4.54235	399.114	30.4679	0.305539	3.3892e-17	0.43283	0.0159175	-1.39859	-0.106767	0	0	0	0	3.3892e-17	0	0	0	0
0.453906	-4.53734	399.214	30.4779	0.305552	3.38935e-17	0.432815	0.0158736	-1.39662	-0.106625	0	0	0	0	3.38935e-17	0	0	0	0
0.458894	-4.52946	399.326	30.4875	0.305563	3.38948e-17	0.4328	0.0158197	-1.39469	-0.106481	0	0	0	0	3.38948e-17	0	0	0	0
0.463882	-4.51915	399.449	30.4967	0.305573	3.38959e-17	0.432787	0.0157574	-1.3928	-0.106336	0	0	0	0	3.38959e-17	0	0	0	0
0.46887	-4.50691	399.581	30.5053	0.305582	3.38969e-17	0.432774	0.0156886	-1.39095	-0.10619	0	0	0	0	3.38969e-17	0	0	0	0
0.473858	-4.49323	399.721	30.5134	0.305591	3.3898e-17	0.432763	0.0156154	-1.38915	-0.106043	0	0	0	0	3.3898e-17	0	0	0	0
0.478846	-4.47866	399.865	30.5207	0.305601	3.38991e-17	0.432753	0.0155395	-1.3874	-0.105897	0	0	0	0	3.38991e-17	0	0	0	0
0.483834	-4.46373	400.009	30.5271	0.305612	3.39004e-17	0.432743	0.0154629	-1.38568	-0.105749	0	0	0	0	3.39004e-17	0	0	0	0
0.488822	-4.44904	400.151	30.5327	0.305626	3.3902e-17	0.432734	0.0153874	-1.38396	-0.1056	0	0	0	0	3.3902e-17	0	0	0	0
0.49381	-4.43509	400.284	30.5374	0.305643	3.39039e-17	0.432726	0.0153152	-1.38226	-0.105452	0	0	0	0	3.39039e-17	0	0	0	0
0.498798	-4.42236	400.405	30.5412	0.305664	3.39063e-17	0.432718	0.0152481	-1.38057	-0.105304	0	0	0	0	3.39063e-17	0	0	0	0
0.503786	-4.41129	400.509	30.544	0.305689	3.39091e-17	0.43271	0.0151874	-1.37889	-0.105158	0	0	0	0	3.39091e-17	0	0	0	0
0.508774	-4.40224	400.593	30.546	0.305719	3.39125e-17	0.432701	0.0151342	-1.37717	-0.105012	0	0	0	0	3.39125e-17	0	0	0	0
0.513762	-4.39546	400.651	30.5469	0.305753	3.39164e-17	0.432691	0.0150893	-1.3754	-0.104865	0	0	0	0	3.39164e-17	0	0	0	0
0.51875	-4.39112	400.683	30.5469	0.305793	3.39208e-17	0.432681	0.0150535	-1.37361	-0.10472	0	0	0	0	3.39208e-17	0	0	0	0
0.523738	-4.38938	400.687	30.5457	0.305837	3.39258e-17	0.43267	0.0150277	-1.37181	-0.104578	0	0	0	0	3.39258e-17	0	0	0	0
0.528726	-4.39027	400.662	30.5432	0.305886	3.39312e-17	0.432658	0.0150122	-1.37003	-0.10444	0	0	0	0	3.39312e-17	0	0	0	0
0.533714	-4.39379	400.609	30.5394	0.305937	3.39369e-17	0.432644	0.0150074	-1.36832	-0.10431	0	0	0	0	3.39369e-17	0	0	0	0
0.538702	-4.39995	400.532	30.534	0.305991	3.39429e-17	0.43263	0.0150136	-1.36671	-0.104189	0	0	0	0	3.39429e-17	0	0	0	0
0.54369	-4.40872	400.434	30.5272	0.306047	3.39492e-17	0.432615	0.0150308	-1.36522	-0.104078	0	0	0	0	3.39492e-17	0	0	0	0
0.548678	-4.42008	400.319	30.519	0.306104	3.39555e-17	0.432599	0.0150593	-1.36389	-0.103978	0	0	0	0	3.39555e-17	0	0	0	0
0.553666	-4.43401	400.192	30.5095	0.306162	3.3962e-17	0.432581	0.0150988	-1.36274	-0.103892	0	0	0	0	3.3962e-17	0	0	0	0
0.558654	-4.45044	400.057	30.4989	0.306221	3.39685e-17	0.432564	0.0151491	-1.36178	-0.103817	0	0	0	0	3.39685e-17	0	0	0	0
0.563642	-4.46925	399.919	30.4875	0.30628	3.39751e-17	0.432546	0.0152099	-1.36101	-0.103756	0	0	0	0	3.39751e-17	0	0	0	0
0.56863	-4.49031	399.783	30.4754	0.306338	3.39816e-17	0.432528	0.0152805	-1.36046	-0.103708	0	0	0	0	3.39816e-17	0	0	0	0
0.573618	-4.5134	399.653	30.4629	0.306396	3.3988e-17	0.432511	0.0153607	-1.36016	-0.103676	0	0	0	0	3.3988e-17	0	0	0	0
0.578606	-4.53824	399.533	30.4504	0.306452	3.39941e-17	0.432494	0.01545	-1.36017	-0.103666	0	0	0	0	3.39941e-17	0	0	0	0
0.583594	-4.56454	399.424	30.4383	0.306505	3.40001e-17	0.432479	0.0155479	-1.36053	-0.10368	0	0	0	0	3.40001e-17	0	0	0	0
0.588582	-4.59198	399.33	30.4269	0.306556	3.40058e-17	0.432464	0.0156536	-1.36127	-0.103722	0	0	0	0	3.40058e-17	0	0	0	0
0.59357	-4.62027	399.253	30.4168	0.306605	3.40111e-17	0.432451	0.0157663	-1.36242	-0.103795	0	0	0	0	3.40111e-17	0	0	0	0
0.598558	-4.6491	399.195	30.4083	0.30665	3.40161e-17	0.432438	0.015885	-1.36397	-0.103899	0	0	0	0	3.40161e-17	0	0	0	0
0.603546	-4.6782	399.159	30.4017	0.306693	3.40208e-17	0.432427	0.0160087	-1.36591	-0.104034	0	0	0	0	3.40208e-17	0	0	0	0
0.608534	-4.70737	399.146	30.3973	0.306732	3.40251e-17	0.432417	0.0161364	-1.36824	-0.104199	0	0	0	0	3.40251e-17	0	0	0	0
0.613522	-4.73646	399.159	30.3954	0.306768	3.40291e-17	0.432407	0.0162668	-1.37086	-0.104389	0	0	0	0	3.40291e-17	0	0	0	0
0.61851	-4.76552	399.198	30.3961	0.306802	3.40327e-17	0.432399	0.0163985	-1.37367	-0.104595	0	0	0	0	3.40327e-17	0	0	0	0
0.623498	-4.79467	399.267	30.3995	0.306831	3.4036e-17	0.432391	0.0165309	-1.37657	-0.10481	0	0	0	0	3.4036e-17	0	0	0	0
0.628486	-4.82401	399.365	30.4058	0.306858	3.40388e-17	0.432384	0.0166633	-1.3795	-0.105029	0	0	0	0	3.40388e-17	0	0	0	0
0.633474	-4.85357	399.493	30.4152	0.30688	3.40413e-17	0.432378	0.0167953	-1.38241	-0.105249	0	0	0	0	3.40413e-17	0	0	0	0
0.638462	-4.88335	399.65	30.4279	0.306898	3.40433e-17	0.432374	0.0169263	-1.38524	-0.105467	0	0	0	0	3.40433e-17	0	0	0	0
0.64345	-4.91325	399.837	30.4442	0.306913	3.40448e-17	0.43237	0.0170552	-1.38794	-0.10568	0	0	0	0	3.40448e-17	0	0	0	0
0.648438	-4.94315	400.05	30.4642	0.306924	3.4046e-17	0.432367	0.0171811	-1.39047	-0.105886	0	0	0	0	3.4046e-17	0	0	0	0
0.653425	-4.97283	400.287	30.4878	0.306931	3.40468e-17	0.432364	0.0173029	-1.3928	-0.106082	0	0	0	0	3.40468e-17	0	0	0	0
0.658413	-5.00208	400.544	30.5151	0.306936	3.40473e-17	0.432362	0.0174194	-1.39486	-0.106267	0	0	0	0	3.40473e-17	0	0	0	0
0.663401	-5.03066	400.816	30.5459	0.306939	3.40476e-17	0.43236	0.0175288	-1.39661	-0.106434	0	0	0	0	3.40476e-17	0	0	0	0
0.668389	-5.05833	401.1	30.5801	0.30694	3.40477e-17	0.432357	0.0176296	-1.39794	-0.10658	0	0	0	0	3.40477e-17	0	0	0	0
0.673377	-5.08476	401.389	30.6172	0.306939	3.40476e-17	0.432354	0.0177201	-1.39882	-0.106699	0	0	0	0	3.40476e-17	0	0	0	0
0.678365	-5.10957	401.679	30.657	0.306938	3.40475e-17	0.43235	0.0177991	-1.39924	-0.106793	0	0	0	0	3.40475e-17	0	0	0	0
0.683353	-5.13244	401.966	30.6991	0.306936	3.40473e-17	0.432346	0.0178656	-1.39921	-0.106861	0	0	0	0	3.40473e-17	0	0	0	0
0.688341	-5.15311	402.245	30.7432	0.306934	3.40471e-17	0.43234	0.017919	-1.39873	-0.106904	0	0	0	0	3.40471e-17	0	0	0	0
0.693329	-5.1714	402.513	30.7887	0.306933	3.40469e-17	0.432334	0.017959	-1.39783	-0.106921	0	0	0	0	3.40469e-17	0	0	0	0
0.698317	-5.18717	402.767	30.8351	0.306932	3.40468e-17	0.432326	0.0179852	-1.3965	-0.106913	0	0	0	0	3.40468e-17	0	0	0	0
0.703305	-5.20026	403.007	30.8818	0.306931	3.40468e-17	0.432318	0.0179972	-1.39474	-0.106877	0	0	0	0	3.40468e-17	0	0	0	0
0.708293	-5.21052	403.23	30.9284	0.306932	3.40469e-17	0.432309	0.0179947	-1.39257	-0.106812	0	0	0	0	3.40469e-17	0	0	0	0
0.713281	-5.21778	403.438	30.9742	0.306932	3.4047e-17	0.432299	0.0179776	-1.39003	-0.10672	0	0	0	0	3.4047e-17	0	0	0	0
0.718269	-5.22201	403.632	31.0191	0.306933	3.4047e-17	0.432289	0.0179467	-1.38718	-0.106605	0	0	0	0	3.4047e-17	0	0	0	0
0.723257	-5.22325	403.813	31.0628	0.306932	3.40471e-17	0.432278	0.0179028	-1.38407	-0.106468	0	0	0	0	3.40471e-17	0	0	0	0
0.728245	-5.22164	403.984	31.105	0.306931	3.4047e-17	0.432268	0.0178463	-1.38072	-0.106309	0	0	0	0	3.4047e-17	0	0	0	0
0.733233	-5.21732	404.148	31.1457	0.306928	3.40467e-17	0.432258	0.0177781	-1.37714	-0.106129	0	0	0	0	3.40467e-17	0	0	0	0
0.738221	-5.21045	404.307	31.1848	0.306923	3.40462e-17	0.432248	0.017699	-1.37336	-0.105929	0	0	0	0	3.40462e-17	0	0	0	0
0.743209	-5.20121	404.465	31.2221	0.306916	3.40455e-17	0.432239	0.0176104	-1.36945	-0.105713	0	0	0	0	3.40455e-17	0	0	0	0
0.748197	-5.18982	404.623	31.2577	0.306906	3.40444e-17	0.43223	0.0175138	-1.36546	-0.105483	0	0	0	0	3.40444e-17	0	0	0	0
0.753185	-5.17647	404.785	31.2916	0.306892	3.4043e-17	0.432223	0.0174106	-1.36146	-0.105246	0	0	0	0	3.4043e-17	0	0	0	0
0.758173	-5.16121	404.952	31.3239	0.306875	3.40412e-17	0.432216	0.0173023	-1.35755	-0.105009	0	0	0	0	3.40412e-17	0	0	0	0
0.763161	-5.14404	405.125	31.3548	0.306856	3.40391e-17	0.43221	0.0171903	-1.35384	-0.104781	0	0	0	0	3.40391e-17	0	0	0	0
0.768149	-5.12494	405.305	31.3844	0.306833	3.40366e-17	0.432206	0.0170759	-1.35044	-0.10457	0	0	0	0	3.40366e-17	0	0	0	0
0.773137	-5.10393	405.493	31.4125	0.306807	3.40339e-17	0.432202	0.0169601	-1.34743	-0.104382	0	0	0	0	3.40339e-17	0	0	0	0
0.778125	-5.08108	405.687	31.4394	0.306779	3.40308e-17	0.4322	0.0168441	-1.34488	-0.104224	0	0	0	0	3.40308e-17	0	0	0	0
0.783113	-5.05655	405.889	31.465	0.306748	3.40274e-17	0.432199	0.0167288	-1.34282	-0.104097	0	0	0	0	3.40274e-17	0	0	0	0
0.788101	-5.03063	406.097	31.4893	0.306715	3.40237e-17	0.432199	0.0166158	-1.3413	-0.104007	0	0	0	0	3.40237e-17	0	0	0	0
0.793089	-5.00367	406.31	31.5123	0.30668	3.40199e-17	0.432201	0.0165065	-1.34036	-0.103955	0	0	0	0	3.40199e-17	0	0	0	0
0.798077	-4.9761	406.528	31.534	0.306644	3.4016e-17	0.432203	0.0164023	-1.34	-0.103943	0	0	0	0	3.4016e-17	0	0	0	0
0.803065	-4.9484	406.749	31.5544	0.306607	3.40119e-17	0.432207	0.0163045	-1.3402	-0.103969	0	0	0	0	3.40119e-17	0	0	0	0
0.808053	-4.92114	406.971	31.5735	0.30657	3.40077e-17	0.432212	0.0162142	-1.34089	-0.104029	0	0	0	0	3.40077e-17	0	0	0	0
0.813041	-4.89488	407.193	31.5913	0.306532	3.40035e-17	0.432218	0.0161322	-1.342	-0.104117	0	0	0	0	3.40035e-17	0	0	0	0
0.818029	-4.87018	407.413	31.6076	0.306494	3.39993e-17	0.432224	0.0160595	-1.34346	-0.104227	0	0	0	0	3.39993e-17	0	0	0	0
0.823017	-4.84763	407.629	31.6225	0.306457	3.39952e-17	0.432231	0.0159968	-1.34515	-0.104352	0	0	0	0	3.39952e-17	0	0	0	0
0.828005	-4.82775	407.838	31.6359	0.306422	3.39912e-17	0.432238	0.0159447	-1.34697	-0.104484	0	0	0	0	3.39912e-17	0	0	0	0
0.832993	-4.81096	408.038	31.6477	0.306389	3.39875e-17	0.432245	0.0159033	-1.34883	-0.104616	0	0	0	0	3.39875e-17	0	0	0	0
0.837981	-4.79749	408.228	31.6579	0.306358	3.39841e-17	0.432252	0.0158727	-1.35064	-0.104741	0	0	0	0	3.39841e-17	0	0	0	0
0.842969	-4.78746	408.403	31.6663	0.306331	3.39811e-17	0.432259	0.0158526	-1.35234	-0.104856	0	0	0	0	3.39811e-17	0	0	0	0
0.847957	-4.78083	408.563	31.6728	0.306308	3.39785e-17	0.432265	0.0158429	-1.35391	-0.104958	0	0	0	0	3.39785e-17	0	0	0	0
0.852945	-4.77748	408.704	31.6773	0.306288	3.39763e-17	0.432272	0.0158428	-1.35532	-0.105046	0	0	0	0	3.39763e-17	0	0	0	0
0.857933	-4.77719	408.824	31.6795	0.306273	3.39746e-17	0.432278	0.0158516	-1.35656	-0.105119	0	0	0	0	3.39746e-17	0	0	0	0
0.862921	-4.77973	408.923	31.6794	0.306262	3.39733e-17	0.432283	0.0158684	-1.3576	-0.105174	0	0	0	0	3.39733e-17	0	0	0	0
0.867909	-4.78482	408.998	31.677	0.306255	3.39725e-17	0.432288	0.0158927	-1.35848	-0.105214	0	0	0	0	3.39725e-17	0	0	0	0
0.872897	-4.79214	409.05	31.6722	0.306252	3.39722e-17	0.432293	0.0159237	-1.35923	-0.105243	0	0	0	0	3.39722e-17	0	0	0	0
0.877885	-4.80133	409.078	31.6651	0.306253	3.39723e-17	0.432297	0.0159609	-1.35989	-0.105263	0	0	0	0	3.39723e-17	0	0	0	0
0.882873	-4.8121	409.083	31.6557	0.306257	3.39728e-17	0.432301	0.0160036	-1.36048	-0.105277	0	0	0	0	3.39728e-17	0	0	0	0
0.887861	-4.82416	409.064	31.6439	0.306265	3.39736e-17	0.432304	0.0160509	-1.36104	-0.105286	0	0	0	0	3.39736e-17	0	0	0	0
0.892849	-4.8372	409.023	31.6299	0.306275	3.39748e-17	0.432306	0.0161022	-1.36157	-0.10529	0	0	0	0	3.39748e-17	0	0	0	0
0.897837	-4.8509	408.96	31.6134	0.306288	3.39762e-17	0.432307	0.0161563	-1.36207	-0.105291	0	0	0	0	3.39762e-17	0	0	0	0
0.902825	-4.86494	408.875	31.5944	0.306302	3.39778e-17	0.432308	0.0162123	-1.36257	-0.105288	0	0	0	0	3.39778e-17	0	0	0	0
0.907813	-4.87899	408.77	31.5729	0.306319	3.39797e-17	0.432307	0.0162691	-1.36305	-0.10528	0	0	0	0	3.39797e-17	0	0	0	0
0.9128	-4.89275	408.644	31.5488	0.306338	3.39817e-17	0.432306	0.0163256	-1.36352	-0.105269	0	0	0	0	3.39817e-17	0	0	0	0
0.917788	-4.906	408.5	31.5222	0.306358	3.3984e-17	0.432305	0.016381	-1.36397	-0.105252	0	0	0	0	3.3984e-17	0	0	0	0
0.922776	-4.91862	408.336	31.493	0.30638	3.39864e-17	0.432302	0.0164343	-1.36435	-0.105226	0	0	0	0	3.39864e-17	0	0	0	0
0.927764	-4.9305	408.153	31.4613	0.306402	3.39889e-17	0.432299	0.0164847	-1.36462	-0.105188	0	0	0	0	3.39889e-17	0	0	0	0
0.932752	-4.94154	407.952	31.427	0.306426	3.39915e-17	0.432296	0.0165316	-1.36478	-0.105137	0	0	0	0	3.39915e-17	0	0	0	0
0.93774	-4.95172	407.732	31.3905	0.306449	3.39941e-17	0.432292	0.0165746	-1.36478	-0.105072	0	0	0	0	3.39941e-17	0	0	0	0
0.942728	-4.96111	407.494	31.352	0.306473	3.39967e-17	0.432289	0.0166139	-1.36462	-0.104992	0	0	0	0	3.39967e-17	0	0	0	0
0.947716	-4.96995	407.238	31.3116	0.306497	3.39994e-17	0.432285	0.0166501	-1.36431	-0.104898	0	0	0	0	3.39994e-17	0	0	0	0
0.952704	-4.97849	406.965	31.2697	0.30652	3.4002e-17	0.432281	0.0166843	-1.36385	-0.104793	0	0	0	0	3.4002e-17	0	0	0	0
0.957692	-4.98698	406.676	31.2265	0.306543	3.40046e-17	0.432277	0.0167179	-1.36331	-0.104681	0	0	0	0	3.40046e-17	0	0	0	0
0.96268	-4.99571	406.373	31.1823	0.306566	3.40071e-17	0.432273	0.0167522	-1.3627	-0.104564	0	0	0	0	3.40071e-17	0	0	0	0
0.967668	-5.005	406.057	31.1375	0.306587	3.40095e-17	0.432268	0.0167882	-1.36203	-0.104444	0	0	0	0	3.40095e-17	0	0	0	0
0.972656	-5.01512	405.731	31.0923	0.306607	3.40117e-17	0.432264	0.0168263	-1.36127	-0.104318	0	0	0	0	3.40117e-17	0	0	0	0
0.977644	-5.02622	405.397	31.0469	0.306625	3.40137e-17	0.43226	0.0168666	-1.3604	-0.104185	0	0	0	0	3.40137e-17	0	0	0	0
0.982632	-5.03842	405.058	31.0014	0.306641	3.40154e-17	0.432256	0.0169091	-1.35939	-0.104042	0	0	0	0	3.40154e-17	0	0	0	0
0.98762	-5.05171	404.717	30.9562	0.306653	3.40168e-17	0.432253	0.0169537	-1.35824	-0.10389	0	0	0	0	3.40168e-17	0	0	0	0
0.992608	-5.06584	404.375	30.9115	0.306661	3.40177e-17	0.43225	0.0169997	-1.35698	-0.103731	0	0	0	0	3.40177e-17	0	0	0	0
0.997596	-5.08043	404.036	30.8672	0.306664	3.40181e-17	0.432248	0.0170462	-1.35565	-0.103567	0	0	0	0	3.40181e-17	0	0	0	0
1.00258	-5.09502	403.7	30.8235	0.306663	3.40179e-17	0.432246	0.017092	-1.35427	-0.103402	0	0	0	0	3.40179e-17	0	0	0	0
1.00757	-5.10908	403.37	30.7805	0.306655	3.40172e-17	0.432246	0.0171356	-1.35288	-0.103236	0	0	0	0	3.40172e-17	0	0	0	0
1.01256	-5.12202	403.045	30.7381	0.306642	3.40158e-17	0.432248	0.017175	-1.35148	-0.10307	0	0	0	0	3.40158e-17	0	0	0	0
1.01755	-5.13329	402.727	30.6964	0.306623	3.40137e-17	0.432251	0.0172082	-1.35005	-0.102903	0	0	0	0	3.40137e-17	0	0	0	0
1.02254	-5.14243	402.415	30.6552	0.306598	3.40109e-17	0.432255	0.0172333	-1.34858	-0.102732	0	0	0	0	3.40109e-17	0	0	0	0
1.02752	-5.149	402.111	30.6146	0.306566	3.40073e-17	0.432261	0.0172491	-1.34707	-0.102558	0	0	0	0	3.40073e-17	0	0	0	0
1.03251	-5.15257	401.814	30.5746	0.306527	3.40031e-17	0.43227	0.017254	-1.34553	-0.102383	0	0	0	0	3.40031e-17	0	0	0	0
1.0375	-5.15276	401.525	30.5351	0.306481	3.3998e-17	0.432281	0.0172466	-1.34393	-0.102203	0	0	0	0	3.3998e-17	0	0	0	0
1.04249	-5.1492	401.244	30.4963	0.306429	3.39922e-17	0.432294	0.0172252	-1.34225	-0.102017	0	0	0	0	3.39922e-17	0	0	0	0
1.04748	-5.14159	400.972	30.4581	0.306369	3.39856e-17	0.43231	0.0171889	-1.34049	-0.101825	0	0	0	0	3.39856e-17	0	0	0	0
1.05246	-5.1297	400.709	30.4206	0.306302	3.39782e-17	0.432328	0.017137	-1.33866	-0.101627	0	0	0	0	3.39782e-17	0	0	0	0
1.05745	-5.11336	400.458	30.3837	0.306229	3.39702e-17	0.432349	0.017069	-1.33678	-0.101424	0	0	0	0	3.39702e-17	0	0	0	0
1.06244	-5.09242	400.22	30.3475	0.30615	3.39614e-17	0.432371	0.0169849	-1.33486	-0.101219	0	0	0	0	3.39614e-17	0	0	0	0
1.06743	-5.06679	399.997	30.312	0.306065	3.39521e-17	0.432395	0.0168849	-1.33298	-0.101014	0	0	0	0	3.39521e-17	0	0	0	0
1.07242	-5.03642	399.791	30.2774	0.305976	3.39422e-17	0.43242	0.0167698	-1.33119	-0.100815	0	0	0	0	3.39422e-17	0	0	0	0
1.0774	-5.00128	399.603	30.2436	0.305882	3.39318e-17	0.432447	0.0166399	-1.32953	-0.100624	0	0	0	0	3.39318e-17	0	0	0	0
1.08239	-4.96137	399.435	30.2107	0.305785	3.39211e-17	0.432474	0.0164957	-1.32805	-0.100445	0	0	0	0	3.39211e-17	0	0	0	0
1.08738	-4.9167	399.287	30.1786	0.305686	3.39101e-17	0.432502	0.0163376	-1.32678	-0.10028	0	0	0	0	3.39101e-17	0	0	0	0
1.09237	-4.86731	399.161	30.1473	0.305585	3.38989e-17	0.432529	0.0161655	-1.32571	-0.100126	0	0	0	0	3.38989e-17	0	0	0	0
1.09736	-4.81327	399.057	30.1167	0.305482	3.38875e-17	0.432557	0.0159793	-1.3248	-0.0999825	0	0	0	0	3.38875e-17	0	0	0	0
1.10234	-4.75473	398.976	30.0869	0.30538	3.38762e-17	0.432584	0.015779	-1.32404	-0.0998461	0	0	0	0	3.38762e-17	0	0	0	0
1.10733	-4.69186	398.918	30.0578	0.305278	3.38649e-17	0.432611	0.0155653	-1.32341	-0.0997169	0	0	0	0	3.38649e-17	0	0	0	0
1.11232	-4.62492	398.884	30.0294	0.305177	3.38538e-17	0.432637	0.0153391	-1.32295	-0.0995962	0	0	0	0	3.38538e-17	0	0	0	0
1.11731	-4.55425	398.874	30.0016	0.305078	3.38428e-17	0.432663	0.0151019	-1.32267	-0.0994853	0	0	0	0	3.38428e-17	0	0	0	0
1.1223	-4.48033	398.891	29.9746	0.304982	3.38321e-17	0.432688	0.0148555	-1.32261	-0.0993871	0	0	0	0	3.38321e-17	0	0	0	0
1.12728	-4.40379	398.934	29.9484	0.304888	3.38217e-17	0.432712	0.0146024	-1.32281	-0.0993047	0	0	0	0	3.38217e-17	0	0	0	0
1.13227	-4.32537	399.004	29.9231	0.304798	3.38117e-17	0.432735	0.0143453	-1.32332	-0.0992414	0	0	0	0	3.38117e-17	0	0	0	0
1.13726	-4.24592	399.102	29.899	0.304711	3.38022e-17	0.432757	0.0140873	-1.32415	-0.0991999	0	0	0	0	3.38022e-17	0	0	0	0
1.14225	-4.16645	399.226	29.8761	0.30463	3.37931e-17	0.432779	0.0138317	-1.32534	-0.0991816	0	0	0	0	3.37931e-17	0	0	0	0
1.14724	-4.08803	399.376	29.8546	0.304553	3.37846e-17	0.432799	0.0135819	-1.32687	-0.0991876	0	0	0	0	3.37846e-17	0	0	0	0
1.15222	-4.01177	399.549	29.8347	0.304483	3.37768e-17	0.432819	0.0133415	-1.32874	-0.0992183	0	0	0	0	3.37768e-17	0	0	0	0
1.15721	-3.9388	399.743	29.8165	0.304418	3.37696e-17	0.432837	0.0131143	-1.33095	-0.0992744	0	0	0	0	3.37696e-17	0	0	0	0
1.1622	-3.87027	399.956	29.8001	0.30436	3.37632e-17	0.432855	0.0129039	-1.3335	-0.0993569	0	0	0	0	3.37632e-17	0	0	0	0
1.16719	-3.80728	400.181	29.7857	0.30431	3.37576e-17	0.432871	0.0127142	-1.33638	-0.099468	0	0	0	0	3.37576e-17	0	0	0	0
1.17218	-3.75084	400.416	29.7735	0.304266	3.37527e-17	0.432886	0.0125487	-1.33962	-0.0996095	0	0	0	0	3.37527e-17	0	0	0	0
1.17716	-3.7019	400.654	29.7636	0.30423	3.37487e-17	0.432899	0.0124106	-1.34319	-0.0997823	0	0	0	0	3.37487e-17	0	0	0	0
1.18215	-3.66129	400.893	29.7561	0.304202	3.37455e-17	0.432911	0.0123025	-1.34707	-0.0999854	0	0	0	0	3.37455e-17	0	0	0	0
1.18714	-3.62971	401.127	29.7511	0.304181	3.37432e-17	0.432921	0.0122267	-1.3512	-0.100217	0	0	0	0	3.37432e-17	0	0	0	0
1.19213	-3.60776	401.353	29.7486	0.304168	3.37417e-17	0.432929	0.012185	-1.35555	-0.100474	0	0	0	0	3.37417e-17	0	0	0	0
1.19712	-3.59585	401.567	29.7487	0.304163	3.3741e-17	0.432935	0.0121789	-1.36009	-0.100757	0	0	0	0	3.3741e-17	0	0	0	0
1.2021	-3.59431	401.768	29.7515	0.304165	3.37412e-17	0.432938	0.0122097	-1.36479	-0.101065	0	0	0	0	3.37412e-17	0	0	0	0
1.20709	-3.60331	401.954	29.7571	0.304174	3.37421e-17	0.432939	0.012278	-1.36963	-0.101395	0	0	0	0	3.37421e-17	0	0	0	0
1.21208	-3.62283	402.124	29.7655	0.304189	3.37437e-17	0.432938	0.0123839	-1.37458	-0.101747	0	0	0	0	3.37437e-17	0	0	0	0
1.21707	-3.65257	402.277	29.7769	0.30421	3.37459e-17	0.432935	0.0125269	-1.37965	-0.102123	0	0	0	0	3.37459e-17	0	0	0	0
1.22206	-3.69208	402.413	29.7913	0.304234	3.37485e-17	0.43293	0.0127059	-1.38486	-0.102524	0	0	0	0	3.37485e-17	0	0	0	0
1.22704	-3.74063	402.535	29.8089	0.304263	3.37515e-17	0.432924	0.0129189	-1.39022	-0.10295	0	0	0	0	3.37515e-17	0	0	0	0
1.23203	-3.79727	402.642	29.8297	0.304293	3.37548e-17	0.432916	0.0131628	-1.39571	-0.103402	0	0	0	0	3.37548e-17	0	0	0	0
1.23702	-3.86082	402.736	29.8538	0.304325	3.37582e-17	0.432907	0.0134337	-1.40132	-0.103876	0	0	0	0	3.37582e-17	0	0	0	0
1.24201	-3.92993	402.819	29.8812	0.304358	3.37617e-17	0.432898	0.013727	-1.40702	-0.104373	0	0	0	0	3.37617e-17	0	0	0	0
1.247	-4.00312	402.894	29.9118	0.30439	3.37652e-17	0.432888	0.0140376	-1.41281	-0.104891	0	0	0	0	3.37652e-17	0	0	0	0
1.25198	-4.07879	402.962	29.9456	0.304421	3.37685e-17	0.432877	0.0143598	-1.41867	-0.105427	0	0	0	0	3.37685e-17	0	0	0	0
1.25697	-4.15525	403.025	29.9826	0.30445	3.37715e-17	0.432866	0.0146877	-1.42459	-0.105981	0	0	0	0	3.37715e-17	0	0	0	0
1.26196	-4.23085	403.085	30.0226	0.304475	3.37742e-17	0.432856	0.0150155	-1.43057	-0.106552	0	0	0	0	3.37742e-17	0	0	0	0
1.26695	-4.30401	403.145	30.0657	0.304496	3.37764e-17	0.432846	0.0153373	-1.4366	-0.107139	0	0	0	0	3.37764e-17	0	0	0	0
1.27194	-4.37312	403.205	30.1116	0.304512	3.37779e-17	0.432836	0.0156469	-1.44266	-0.107739	0	0	0	0	3.37779e-17	0	0	0	0
1.27692	-4.43663	403.268	30.1601	0.304522	3.37789e-17	0.432828	0.0159381	-1.4487	-0.108347	0	0	0	0	3.37789e-17	0	0	0	0
1.28191	-4.49314	403.335	30.211	0.304526	3.37792e-17	0.43282	0.016205	-1.45467	-0.108959	0	0	0	0	3.37792e-17	0	0	0	0
1.2869	-4.54147	403.409	30.2638	0.304525	3.37789e-17	0.432813	0.0164424	-1.46054	-0.10957	0	0	0	0	3.37789e-17	0	0	0	0
1.29189	-4.5806	403.489	30.3182	0.304516	3.37778e-17	0.432807	0.0166457	-1.46626	-0.110175	0	0	0	0	3.37778e-17	0	0	0	0
1.29688	-4.60978	403.578	30.3735	0.304502	3.3776e-17	0.432802	0.0168112	-1.47179	-0.110767	0	0	0	0	3.3776e-17	0	0	0	0
1.30186	-4.62851	403.675	30.4293	0.304481	3.37736e-17	0.432798	0.0169361	-1.47708	-0.111343	0	0	0	0	3.37736e-17	0	0	0	0
1.30685	-4.63658	403.78	30.4851	0.304455	3.37705e-17	0.432795	0.017019	-1.48211	-0.111898	0	0	0	0	3.37705e-17	0	0	0	0
1.31184	-4.63398	403.893	30.5406	0.304422	3.37668e-17	0.432792	0.0170589	-1.48684	-0.112428	0	0	0	0	3.37668e-17	0	0	0	0
1.31683	-4.62092	404.012	30.5955	0.304385	3.37625e-17	0.43279	0.0170563	-1.49125	-0.112931	0	0	0	0	3.37625e-17	0	0	0	0
1.32181	-4.59771	404.136	30.6495	0.304343	3.37577e-17	0.432788	0.0170124	-1.49538	-0.113409	0	0	0	0	3.37577e-17	0	0	0	0
1.3268	-4.56481	404.262	30.7026	0.304296	3.37524e-17	0.432787	0.016929	-1.49925	-0.113863	0	0	0	0	3.37524e-17	0	0	0	0
1.33179	-4.52276	404.39	30.7547	0.304246	3.37467e-17	0.432786	0.0168084	-1.50288	-0.114297	0	0	0	0	3.37467e-17	0	0	0	0
1.33678	-4.47219	404.516	30.8059	0.304193	3.37408e-17	0.432785	0.0166531	-1.5063	-0.114712	0	0	0	0	3.37408e-17	0	0	0	0
1.34177	-4.41386	404.638	30.8561	0.304138	3.37345e-17	0.432783	0.016466	-1.50952	-0.11511	0	0	0	0	3.37345e-17	0	0	0	0
1.34675	-4.34861	404.756	30.9054	0.30408	3.3728e-17	0.432782	0.0162505	-1.51255	-0.115491	0	0	0	0	3.3728e-17	0	0	0	0
1.35174	-4.27741	404.867	30.9536	0.304021	3.37214e-17	0.432781	0.0160101	-1.51539	-0.115857	0	0	0	0	3.37214e-17	0	0	0	0
1.35673	-4.20123	404.97	31.0008	0.303961	3.37146e-17	0.43278	0.0157484	-1.51804	-0.116207	0	0	0	0	3.37146e-17	0	0	0	0
1.36172	-4.12103	405.063	31.0468	0.303899	3.37077e-17	0.432779	0.0154692	-1.52049	-0.116541	0	0	0	0	3.37077e-17	0	0	0	0
1.36671	-4.03784	405.147	31.0914	0.303837	3.37007e-17	0.432778	0.0151761	-1.52273	-0.116856	0	0	0	0	3.37007e-17	0	0	0	0
1.37169	-3.95269	405.219	31.1343	0.303775	3.36937e-17	0.432778	0.0148732	-1.52476	-0.117152	0	0	0	0	3.36937e-17	0	0	0	0
1.37668	-3.86656	405.279	31.1751	0.303712	3.36866e-17	0.432777	0.0145641	-1.52655	-0.117426	0	0	0	0	3.36866e-17	0	0	0	0
1.38167	-3.78037	405.325	31.2136	0.303648	3.36795e-17	0.432777	0.0142527	-1.52815	-0.117681	0	0	0	0	3.36795e-17	0	0	0	0
1.38666	-3.69493	405.359	31.2493	0.303584	3.36723e-17	0.432778	0.0139425	-1.52958	-0.117916	0	0	0	0	3.36723e-17	0	0	0	0
1.39165	-3.61102	405.378	31.2819	0.30352	3.36651e-17	0.432779	0.0136368	-1.53088	-0.118134	0	0	0	0	3.36651e-17	0	0	0	0
1.39663	-3.52939	405.384	31.311	0.303455	3.36578e-17	0.432782	0.0133385	-1.53205	-0.118332	0	0	0	0	3.36578e-17	0	0	0	0
1.40162	-3.45076	405.377	31.3365	0.303389	3.36505e-17	0.432785	0.0130504	-1.5331	-0.118512	0	0	0	0	3.36505e-17	0	0	0	0
1.40661	-3.3759	405.357	31.3581	0.303323	3.36431e-17	0.432789	0.0127757	-1.53402	-0.118671	0	0	0	0	3.36431e-17	0	0	0	0
1.4116	-3.30551	405.325	31.3757	0.303257	3.36357e-17	0.432795	0.0125169	-1.53484	-0.11881	0	0	0	0	3.36357e-17	0	0	0	0
1.41659	-3.2402	405.283	31.3892	0.303191	3.36284e-17	0.432802	0.0122766	-1.53555	-0.118928	0	0	0	0	3.36284e-17	0	0	0	0
1.42157	-3.18048	405.231	31.3985	0.303125	3.36211e-17	0.432811	0.0120569	-1.53618	-0.119028	0	0	0	0	3.36211e-17	0	0	0	0
1.42656	-3.12675	405.17	31.4038	0.30306	3.36138e-17	0.432821	0.0118593	-1.53674	-0.11911	0	0	0	0	3.36138e-17	0	0	0	0
1.43155	-3.07921	405.099	31.4052	0.302996	3.36067e-17	0.432832	0.0116845	-1.53721	-0.119172	0	0	0	0	3.36067e-17	0	0	0	0
1.43654	-3.03788	405.019	31.4027	0.302933	3.35996e-17	0.432843	0.0115325	-1.53755	-0.119212	0	0	0	0	3.35996e-17	0	0	0	0
1.44153	-3.00268	404.931	31.3967	0.30287	3.35927e-17	0.432856	0.0114025	-1.53769	-0.119227	0	0	0	0	3.35927e-17	0	0	0	0
1.44651	-2.97343	404.833	31.3875	0.302809	3.35859e-17	0.432869	0.0112932	-1.53758	-0.119211	0	0	0	0	3.35859e-17	0	0	0	0
1.4515	-2.94985	404.726	31.3754	0.302751	3.35794e-17	0.432882	0.0112032	-1.5371	-0.11916	0	0	0	0	3.35794e-17	0	0	0	0
1.45649	-2.93162	404.61	31.3607	0.302695	3.35732e-17	0.432894	0.0111307	-1.53622	-0.11907	0	0	0	0	3.35732e-17	0	0	0	0
1.46148	-2.91828	404.485	31.3438	0.302641	3.35673e-17	0.432906	0.0110738	-1.53487	-0.118938	0	0	0	0	3.35673e-17	0	0	0	0
1.46647	-2.90928	404.352	31.3252	0.302592	3.35618e-17	0.432918	0.0110302	-1.53305	-0.118766	0	0	0	0	3.35618e-17	0	0	0	0
1.47145	-2.90396	404.211	31.3051	0.302546	3.35568e-17	0.432928	0.0109973	-1.53074	-0.118552	0	0	0	0	3.35568e-17	0	0	0	0
1.47644	-2.90172	404.063	31.284	0.302504	3.35522e-17	0.432938	0.0109728	-1.52795	-0.118299	0	0	0	0	3.35522e-17	0	0	0	0
1.48143	-2.90203	403.91	31.2623	0.302467	3.35482e-17	0.432946	0.0109547	-1.5247	-0.118011	0	0	0	0	3.35482e-17	0	0	0	0
1.48642	-2.90447	403.754	31.2406	0.302435	3.35447e-17	0.432953	0.0109417	-1.52101	-0.117689	0	0	0	0	3.35447e-17	0	0	0	0
1.49141	-2.90868	403.597	31.2192	0.302408	3.35418e-17	0.432958	0.0109324	-1.51694	-0.117339	0	0	0	0	3.35418e-17	0	0	0	0
1.49639	-2.91435	403.439	31.1986	0.302386	3.35394e-17	0.432962	0.010926	-1.51251	-0.116965	0	0	0	0	3.35394e-17	0	0	0	0
1.50138	-2.92129	403.284	31.1791	0.302369	3.35377e-17	0.432964	0.0109219	-1.50777	-0.11657	0	0	0	0	3.35377e-17	0	0	0	0
1.50637	-2.92946	403.133	31.1611	0.302358	3.35365e-17	0.432965	0.0109202	-1.50277	-0.11616	0	0	0	0	3.35365e-17	0	0	0	0
1.51136	-2.9389	402.987	31.145	0.302352	3.3536e-17	0.432963	0.0109214	-1.49755	-0.115739	0	0	0	0	3.3536e-17	0	0	0	0
1.51635	-2.94982	402.845	31.1311	0.302353	3.35361e-17	0.432959	0.0109263	-1.49217	-0.115312	0	0	0	0	3.35361e-17	0	0	0	0
1.52133	-2.96255	402.71	31.1197	0.302359	3.3537e-17	0.432954	0.0109367	-1.48666	-0.114883	0	0	0	0	3.3537e-17	0	0	0	0
1.52632	-2.97752	402.578	31.1111	0.302373	3.35386e-17	0.432946	0.0109542	-1.48108	-0.114457	0	0	0	0	3.35386e-17	0	0	0	0
1.53131	-2.99517	402.451	31.1052	0.302394	3.3541e-17	0.432936	0.0109811	-1.47549	-0.11404	0	0	0	0	3.3541e-17	0	0	0	0
1.5363	-3.01606	402.325	31.1023	0.302422	3.35442e-17	0.432925	0.0110195	-1.46993	-0.113635	0	0	0	0	3.35442e-17	0	0	0	0
1.54129	-3.04082	402.199	31.1021	0.302458	3.35483e-17	0.432911	0.011072	-1.46446	-0.113247	0	0	0	0	3.35483e-17	0	0	0	0
1.54627	-3.07008	402.07	31.1046	0.302502	3.35533e-17	0.432896	0.0111413	-1.45911	-0.112878	0	0	0	0	3.35533e-17	0	0	0	0
1.55126	-3.10445	401.937	31.1095	0.302554	3.35591e-17	0.43288	0.0112294	-1.45389	-0.112529	0	0	0	0	3.35591e-17	0	0	0	0
1.55625	-3.1444	401.797	31.1165	0.302614	3.35659e-17	0.432862	0.0113379	-1.44877	-0.112198	0	0	0	0	3.35659e-17	0	0	0	0
1.56124	-3.19029	401.649	31.1254	0.302682	3.35736e-17	0.432842	0.0114677	-1.44376	-0.111883	0	0	0	0	3.35736e-17	0	0	0	0
1.56623	-3.24223	401.492	31.1357	0.302758	3.3582e-17	0.432821	0.0116192	-1.43883	-0.111581	0	0	0	0	3.3582e-17	0	0	0	0
1.57121	-3.30018	401.326	31.1473	0.302841	3.35913e-17	0.432798	0.011792	-1.434	-0.111294	0	0	0	0	3.35913e-17	0	0	0	0
1.5762	-3.36397	401.15	31.1597	0.302931	3.36014e-17	0.432773	0.0119856	-1.42927	-0.11102	0	0	0	0	3.36014e-17	0	0	0	0
1.58119	-3.43332	400.967	31.1728	0.303028	3.36122e-17	0.432747	0.0121988	-1.42467	-0.110759	0	0	0	0	3.36122e-17	0	0	0	0
1.58618	-3.50789	400.778	31.1864	0.30313	3.36236e-17	0.43272	0.0124303	-1.42017	-0.11051	0	0	0	0	3.36236e-17	0	0	0	0
1.59117	-3.58711	400.584	31.2003	0.303238	3.36357e-17	0.432692	0.012678	-1.41579	-0.110271	0	0	0	0	3.36357e-17	0	0	0	0
1.59615	-3.67021	400.39	31.2145	0.303352	3.36483e-17	0.432664	0.0129388	-1.41152	-0.110042	0	0	0	0	3.36483e-17	0	0	0	0
1.60114	-3.75625	400.196	31.229	0.30347	3.36614e-17	0.432634	0.0132099	-1.4074	-0.109826	0	0	0	0	3.36614e-17	0	0	0	0
1.60613	-3.84423	400.006	31.2438	0.303592	3.36751e-17	0.432603	0.0134882	-1.40349	-0.109624	0	0	0	0	3.36751e-17	0	0	0	0
1.61112	-3.93313	399.82	31.2586	0.303719	3.36892e-17	0.432572	0.0137703	-1.39981	-0.10944	0	0	0	0	3.36892e-17	0	0	0	0
1.61611	-4.02191	399.64	31.273	0.303849	3.37037e-17	0.43254	0.0140531	-1.39639	-0.109272	0	0	0	0	3.37037e-17	0	0	0	0
1.62109	-4.10955	399.467	31.2869	0.303984	3.37186e-17	0.432508	0.014333	-1.39323	-0.10912	0	0	0	0	3.37186e-17	0	0	0	0
1.62608	-4.19502	399.3	31.3002	0.304121	3.37339e-17	0.432474	0.0146063	-1.39029	-0.108982	0	0	0	0	3.37339e-17	0	0	0	0
1.63107	-4.27735	399.139	31.3129	0.304262	3.37496e-17	0.432439	0.0148694	-1.38754	-0.108854	0	0	0	0	3.37496e-17	0	0	0	0
1.63606	-4.35558	398.986	31.3248	0.304405	3.37655e-17	0.432404	0.015119	-1.38495	-0.108734	0	0	0	0	3.37655e-17	0	0	0	0
1.64105	-4.4289	398.839	31.3362	0.304551	3.37817e-17	0.432367	0.0153522	-1.38252	-0.108623	0	0	0	0	3.37817e-17	0	0	0	0
1.64603	-4.49661	398.698	31.3471	0.304698	3.3798e-17	0.432329	0.0155667	-1.38024	-0.108519	0	0	0	0	3.3798e-17	0	0	0	0
1.65102	-4.55819	398.565	31.3577	0.304846	3.38145e-17	0.432291	0.015761	-1.37813	-0.108426	0	0	0	0	3.38145e-17	0	0	0	0
1.65601	-4.61327	398.439	31.368	0.304996	3.38312e-17	0.432252	0.0159342	-1.3762	-0.108345	0	0	0	0	3.38312e-17	0	0	0	0
1.661	-4.66169	398.321	31.3781	0.305146	3.38479e-17	0.432212	0.0160859	-1.37447	-0.108275	0	0	0	0	3.38479e-17	0	0	0	0
1.66599	-4.70343	398.212	31.3884	0.305297	3.38646e-17	0.432171	0.0162159	-1.37291	-0.108217	0	0	0	0	3.38646e-17	0	0	0	0
1.67097	-4.73851	398.115	31.399	0.305448	3.38814e-17	0.43213	0.0163238	-1.37148	-0.108167	0	0	0	0	3.38814e-17	0	0	0	0
1.67596	-4.76702	398.03	31.4103	0.3056	3.38982e-17	0.432088	0.0164094	-1.37013	-0.108123	0	0	0	0	3.38982e-17	0	0	0	0
1.68095	-4.7892	397.957	31.4226	0.305752	3.39152e-17	0.432045	0.0164731	-1.36882	-0.108082	0	0	0	0	3.39152e-17	0	0	0	0
1.68594	-4.80546	397.898	31.4363	0.305905	3.39321e-17	0.432002	0.0165157	-1.36752	-0.108042	0	0	0	0	3.39321e-17	0	0	0	0
1.69093	-4.81631	397.852	31.4518	0.306058	3.39491e-17	0.431958	0.0165387	-1.36618	-0.108002	0	0	0	0	3.39491e-17	0	0	0	0
1.69591	-4.82232	397.82	31.4694	0.306211	3.39661e-17	0.431914	0.0165435	-1.36476	-0.107959	0	0	0	0	3.39661e-17	0	0	0	0
1.7009	-4.82418	397.802	31.4895	0.306363	3.3983e-17	0.43187	0.0165317	-1.3632	-0.10791	0	0	0	0	3.3983e-17	0	0	0	0
1.70589	-4.8227	397.795	31.5124	0.306515	3.39999e-17	0.431826	0.0165054	-1.36143	-0.107849	0	0	0	0	3.39999e-17	0	0	0	0
1.71088	-4.81873	397.8	31.5385	0.306665	3.40166e-17	0.431782	0.0164668	-1.35938	-0.107775	0	0	0	0	3.40166e-17	0	0	0	0
1.71587	-4.81309	397.816	31.568	0.306813	3.40331e-17	0.431739	0.016418	-1.35699	-0.107682	0	0	0	0	3.40331e-17	0	0	0	0
1.72085	-4.8066	397.842	31.6011	0.306959	3.40493e-17	0.431696	0.0163612	-1.35422	-0.107567	0	0	0	0	3.40493e-17	0	0	0	0
1.72584	-4.80006	397.877	31.6379	0.307103	3.40653e-17	0.431654	0.016299	-1.35102	-0.107429	0	0	0	0	3.40653e-17	0	0	0	0
1.73083	-4.79428	397.92	31.6784	0.307244	3.4081e-17	0.431614	0.0162339	-1.34739	-0.107266	0	0	0	0	3.4081e-17	0	0	0	0
1.73582	-4.78999	397.971	31.7225	0.307381	3.40963e-17	0.431574	0.016169	-1.34338	-0.107082	0	0	0	0	3.40963e-17	0	0	0	0
1.74081	-4.78776	398.029	31.7698	0.307515	3.41112e-17	0.431536	0.016107	-1.33906	-0.10688	0	0	0	0	3.41112e-17	0	0	0	0
1.74579	-4.78806	398.096	31.8199	0.307645	3.41257e-17	0.4315	0.0160504	-1.33449	-0.106666	0	0	0	0	3.41257e-17	0	0	0	0
1.75078	-4.79128	398.169	31.8723	0.30777	3.41396e-17	0.431466	0.0160015	-1.32977	-0.106444	0	0	0	0	3.41396e-17	0	0	0	0
1.75577	-4.79768	398.251	31.9264	0.307889	3.41529e-17	0.431434	0.0159622	-1.32501	-0.106222	0	0	0	0	3.41529e-17	0	0	0	0
1.76076	-4.80743	398.342	31.9818	0.308002	3.41655e-17	0.431404	0.0159344	-1.32032	-0.106005	0	0	0	0	3.41655e-17	0	0	0	0
1.76575	-4.82065	398.443	32.0377	0.308108	3.41774e-17	0.431378	0.0159194	-1.31579	-0.105799	0	0	0	0	3.41774e-17	0	0	0	0
1.77073	-4.83743	398.554	32.0932	0.308208	3.41886e-17	0.431354	0.0159187	-1.31153	-0.10561	0	0	0	0	3.41886e-17	0	0	0	0
1.77572	-4.85784	398.676	32.1476	0.308301	3.41989e-17	0.431332	0.0159333	-1.30762	-0.105441	0	0	0	0	3.41989e-17	0	0	0	0
1.78071	-4.88194	398.81	32.2	0.308385	3.42083e-17	0.431314	0.0159642	-1.30413	-0.105296	0	0	0	0	3.42083e-17	0	0	0	0
1.7857	-4.90974	398.954	32.2497	0.308462	3.42169e-17	0.431298	0.0160119	-1.30109	-0.105174	0	0	0	0	3.42169e-17	0	0	0	0
1.79069	-4.94113	399.109	32.2961	0.308531	3.42246e-17	0.431285	0.0160762	-1.29852	-0.105077	0	0	0	0	3.42246e-17	0	0	0	0
1.79567	-4.97579	399.272	32.3386	0.308592	3.42314e-17	0.431274	0.0161564	-1.29643	-0.105003	0	0	0	0	3.42314e-17	0	0	0	0
1.80066	-5.01327	399.442	32.377	0.308647	3.42375e-17	0.431265	0.0162512	-1.29485	-0.104955	0	0	0	0	3.42375e-17	0	0	0	0
1.80565	-5.05302	399.616	32.411	0.308694	3.42427e-17	0.431258	0.016359	-1.29374	-0.10493	0	0	0	0	3.42427e-17	0	0	0	0
1.81064	-5.09442	399.794	32.4405	0.308734	3.42473e-17	0.431253	0.0164777	-1.29312	-0.104927	0	0	0	0	3.42473e-17	0	0	0	0
1.81563	-5.13688	399.973	32.4654	0.308769	3.42511e-17	0.43125	0.0166055	-1.29295	-0.104948	0	0	0	0	3.42511e-17	0	0	0	0
1.82061	-5.17983	400.152	32.486	0.308797	3.42542e-17	0.431249	0.0167405	-1.29324	-0.104991	0	0	0	0	3.42542e-17	0	0	0	0
1.8256	-5.22268	400.329	32.5025	0.308819	3.42566e-17	0.431249	0.0168811	-1.29397	-0.105057	0	0	0	0	3.42566e-17	0	0	0	0
1.83059	-5.26483	400.504	32.5152	0.308835	3.42584e-17	0.431252	0.0170253	-1.29514	-0.105147	0	0	0	0	3.42584e-17	0	0	0	0
1.83558	-5.3057	400.675	32.5246	0.308846	3.42596e-17	0.431256	0.0171717	-1.29677	-0.105264	0	0	0	0	3.42596e-17	0	0	0	0
1.84056	-5.34485	400.845	32.531	0.30885	3.42601e-17	0.431263	0.017319	-1.29886	-0.105411	0	0	0	0	3.42601e-17	0	0	0	0
1.84555	-5.38192	401.012	32.535	0.308849	3.42599e-17	0.431272	0.0174664	-1.30144	-0.105588	0	0	0	0	3.42599e-17	0	0	0	0
1.85054	-5.41662	401.18	32.5368	0.308842	3.42591e-17	0.431282	0.017613	-1.3045	-0.105799	0	0	0	0	3.42591e-17	0	0	0	0
1.85553	-5.44872	401.349	32.537	0.308829	3.42576e-17	0.431295	0.0177582	-1.30805	-0.106043	0	0	0	0	3.42576e-17	0	0	0	0
1.86052	-5.47808	401.522	32.5358	0.30881	3.42554e-17	0.431309	0.0179017	-1.31213	-0.106323	0	0	0	0	3.42554e-17	0	0	0	0
1.8655	-5.50453	401.701	32.5335	0.308785	3.42525e-17	0.431325	0.0180435	-1.31675	-0.106643	0	0	0	0	3.42525e-17	0	0	0	0
1.87049	-5.52795	401.888	32.5306	0.308753	3.42489e-17	0.431344	0.0181832	-1.32194	-0.107004	0	0	0	0	3.42489e-17	0	0	0	0
1.87548	-5.54818	402.083	32.5271	0.308714	3.42445e-17	0.431364	0.01832	-1.32768	-0.107404	0	0	0	0	3.42445e-17	0	0	0	0
1.88047	-5.56501	402.289	32.5233	0.308669	3.42394e-17	0.431386	0.0184527	-1.33393	-0.107842	0	0	0	0	3.42394e-17	0	0	0	0
1.88546	-5.57816	402.504	32.5191	0.308617	3.42335e-17	0.43141	0.0185793	-1.34063	-0.108312	0	0	0	0	3.42335e-17	0	0	0	0
1.89044	-5.58734	402.729	32.5145	0.30856	3.4227e-17	0.431436	0.0186979	-1.34772	-0.108809	0	0	0	0	3.4227e-17	0	0	0	0
1.89543	-5.59223	402.961	32.5095	0.308496	3.42198e-17	0.431463	0.0188062	-1.35512	-0.109326	0	0	0	0	3.42198e-17	0	0	0	0
1.90042	-5.59255	403.199	32.5042	0.308427	3.4212e-17	0.431492	0.0189015	-1.36272	-0.109857	0	0	0	0	3.4212e-17	0	0	0	0
1.90541	-5.58803	403.441	32.4988	0.308353	3.42036e-17	0.431521	0.0189811	-1.37039	-0.11039	0	0	0	0	3.42036e-17	0	0	0	0
1.9104	-5.57829	403.684	32.4934	0.308273	3.41947e-17	0.431552	0.0190419	-1.378	-0.110919	0	0	0	0	3.41947e-17	0	0	0	0
1.91538	-5.563	403.925	32.4882	0.308189	3.41853e-17	0.431583	0.0190806	-1.38543	-0.111431	0	0	0	0	3.41853e-17	0	0	0	0
1.92037	-5.54195	404.162	32.4832	0.308101	3.41754e-17	0.431613	0.0190944	-1.39251	-0.111919	0	0	0	0	3.41754e-17	0	0	0	0
1.92536	-5.51504	404.39	32.4788	0.308009	3.4165e-17	0.431644	0.0190809	-1.39911	-0.11237	0	0	0	0	3.4165e-17	0	0	0	0
1.93035	-5.48228	404.607	32.4749	0.307913	3.41543e-17	0.431674	0.0190382	-1.40507	-0.112775	0	0	0	0	3.41543e-17	0	0	0	0
1.93534	-5.44371	404.812	32.4716	0.307813	3.41431e-17	0.431704	0.0189653	-1.41032	-0.113127	0	0	0	0	3.41431e-17	0	0	0	0
1.94032	-5.39943	405.001	32.4687	0.30771	3.41316e-17	0.431733	0.0188621	-1.41481	-0.113425	0	0	0	0	3.41316e-17	0	0	0	0
1.94531	-5.34975	405.174	32.4662	0.307604	3.41198e-17	0.431761	0.0187299	-1.41854	-0.113666	0	0	0	0	3.41198e-17	0	0	0	0
1.9503	-5.29515	405.33	32.4636	0.307495	3.41076e-17	0.431789	0.0185704	-1.42151	-0.113851	0	0	0	0	3.41076e-17	0	0	0	0
1.95529	-5.2363	405.47	32.4607	0.307382	3.40951e-17	0.431816	0.0183862	-1.42372	-0.113979	0	0	0	0	3.40951e-17	0	0	0	0
1.96028	-5.17398	405.594	32.4571	0.307267	3.40822e-17	0.431842	0.0181802	-1.42517	-0.114047	0	0	0	0	3.40822e-17	0	0	0	0
1.96526	-5.10903	405.705	32.4525	0.307149	3.40692e-17	0.431868	0.0179556	-1.42584	-0.114053	0	0	0	0	3.40692e-17	0	0	0	0
1.97025	-5.04224	405.804	32.4466	0.30703	3.4056e-17	0.431893	0.0177156	-1.42577	-0.113999	0	0	0	0	3.4056e-17	0	0	0	0
1.97524	-4.97437	405.893	32.4391	0.306909	3.40426e-17	0.431919	0.0174637	-1.42498	-0.113885	0	0	0	0	3.40426e-17	0	0	0	0
1.98023	-4.90619	405.975	32.4296	0.306787	3.40292e-17	0.431944	0.0172032	-1.42352	-0.113712	0	0	0	0	3.40292e-17	0	0	0	0
1.98522	-4.83837	406.049	32.418	0.306665	3.40157e-17	0.431969	0.0169375	-1.42144	-0.113485	0	0	0	0	3.40157e-17	0	0	0	0
1.9902	-4.77156	406.117	32.4041	0.306543	3.40022e-17	0.431994	0.0166701	-1.41883	-0.113208	0	0	0	0	3.40022e-17	0	0	0	0
1.99519	-4.70625	406.179	32.3879	0.306422	3.39888e-17	0.43202	0.0164039	-1.41576	-0.11289	0	0	0	0	3.39888e-17	0	0	0	0
2.00018	-4.64284	406.235	32.3694	0.306302	3.39756e-17	0.432046	0.016141	-1.41229	-0.112534	0	0	0	0	3.39756e-17	0	0	0	0
2.00517	-4.58163	406.284	32.3489	0.306184	3.39626e-17	0.432072	0.0158835	-1.4085	-0.112147	0	0	0	0	3.39626e-17	0	0	0	0
2.01016	-4.52275	406.325	32.3268	0.306068	3.39498e-17	0.432099	0.0156325	-1.40443	-0.111735	0	0	0	0	3.39498e-17	0	0	0	0
2.01514	-4.46622	406.356	32.3031	0.305955	3.39374e-17	0.432126	0.0153885	-1.40011	-0.111301	0	0	0	0	3.39374e-17	0	0	0	0
2.02013	-4.41201	406.378	32.2783	0.305844	3.39253e-17	0.432153	0.0151516	-1.39557	-0.110849	0	0	0	0	3.39253e-17	0	0	0	0
2.02512	-4.35993	406.39	32.2527	0.305738	3.39135e-17	0.432181	0.0149215	-1.39083	-0.110382	0	0	0	0	3.39135e-17	0	0	0	0
2.03011	-4.30962	406.391	32.2267	0.305634	3.39022e-17	0.432209	0.0146975	-1.38596	-0.109906	0	0	0	0	3.39022e-17	0	0	0	0
2.0351	-4.26063	406.382	32.2004	0.305534	3.38912e-17	0.432237	0.0144789	-1.381	-0.109426	0	0	0	0	3.38912e-17	0	0	0	0
2.04008	-4.21251	406.363	32.1741	0.305437	3.38805e-17	0.432264	0.0142645	-1.37604	-0.108949	0	0	0	0	3.38805e-17	0	0	0	0
2.04507	-4.16488	406.337	32.148	0.305342	3.38701e-17	0.432292	0.0140536	-1.37111	-0.108478	0	0	0	0	3.38701e-17	0	0	0	0
2.05006	-4.11748	406.305	32.1223	0.30525	3.386e-17	0.43232	0.0138454	-1.36624	-0.108014	0	0	0	0	3.386e-17	0	0	0	0
2.05505	-4.07013	406.268	32.097	0.305159	3.385e-17	0.432348	0.0136391	-1.36141	-0.107557	0	0	0	0	3.385e-17	0	0	0	0
2.06004	-4.02277	406.228	32.0719	0.305069	3.38402e-17	0.432376	0.0134342	-1.35662	-0.107105	0	0	0	0	3.38402e-17	0	0	0	0
2.06502	-3.97539	406.186	32.047	0.304979	3.38304e-17	0.432404	0.0132307	-1.35185	-0.106657	0	0	0	0	3.38304e-17	0	0	0	0
2.07001	0	0	0	0	0.0371818	0	0	0	0	0	0	0	0	0.0363259	0	0	0	0
