nColumns=19
nRows=223
DataType=double
version=3
OpenSimVersion=4.1
endheader
time	ground_force_calcn_l_vx	ground_force_calcn_l_vy	ground_force_calcn_l_vz	ground_force_calcn_l_px	ground_force_calcn_l_py	ground_force_calcn_l_pz	ground_force_calcn_l_mx	ground_force_calcn_l_my	ground_force_calcn_l_mz	ground_force_calcn_r_vx	ground_force_calcn_r_vy	ground_force_calcn_r_vz	ground_force_calcn_r_px	ground_force_calcn_r_py	ground_force_calcn_r_pz	ground_force_calcn_r_mx	ground_force_calcn_r_my	ground_force_calcn_r_mz
0	0	0	0	0	0.0593717	0	0	0	0	0	0	0	0	0.13608	0	0	0	0
0.00497758	7.77683	191.958	-3.26832	1.44225	1.60144e-16	0.452257	-0.0899664	-2.22067	0.0378096	0	0	0	0	1.60144e-16	0	0	0	0
0.00995516	21.1966	230.255	-6.82288	1.43346	1.59177e-16	0.450396	-0.204455	-2.22096	0.0658111	0	0	0	0	1.59177e-16	0	0	0	0
0.0149327	34.5919	268.445	-10.408	1.42482	1.58222e-16	0.448813	-0.286142	-2.22056	0.0860944	0	0	0	0	1.58222e-16	0	0	0	0
0.0199103	47.9171	306.466	-14.0472	1.41635	1.57283e-16	0.447393	-0.347751	-2.22413	0.101945	0	0	0	0	1.57283e-16	0	0	0	0
0.0248879	61.1037	344.256	-17.7641	1.40808	1.56366e-16	0.446093	-0.396469	-2.23369	0.115262	0	0	0	0	1.56366e-16	0	0	0	0
0.0298655	74.0694	381.73	-21.5796	1.40006	1.55475e-16	0.444896	-0.436685	-2.25053	0.127225	0	0	0	0	1.55475e-16	0	0	0	0
0.034843	86.7281	418.767	-25.509	1.39232	1.54615e-16	0.443798	-0.471325	-2.2758	0.138629	0	0	0	0	1.54615e-16	0	0	0	0
0.0398206	98.9963	455.207	-29.5589	1.38489	1.5379e-16	0.442794	-0.502462	-2.31043	0.150028	0	0	0	0	1.5379e-16	0	0	0	0
0.0447982	110.795	490.858	-33.7257	1.3778	1.53004e-16	0.441884	-0.531537	-2.35488	0.161798	0	0	0	0	1.53004e-16	0	0	0	0
0.0497758	122.05	525.522	-37.9953	1.37109	1.52258e-16	0.441063	-0.559429	-2.40878	0.174155	0	0	0	0	1.52258e-16	0	0	0	0
0.0547534	132.691	559.013	-42.3434	1.36476	1.51556e-16	0.440327	-0.58646	-2.4707	0.187147	0	0	0	0	1.51556e-16	0	0	0	0
0.0597309	142.652	591.175	-46.7361	1.35884	1.50899e-16	0.439672	-0.612434	-2.53803	0.200648	0	0	0	0	1.50899e-16	0	0	0	0
0.0647085	151.878	621.892	-51.1317	1.35331	1.50286e-16	0.439093	-0.636735	-2.60723	0.214366	0	0	0	0	1.50286e-16	0	0	0	0
0.0696861	160.32	651.089	-55.4825	1.34819	1.49718e-16	0.438584	-0.658473	-2.67418	0.22788	0	0	0	0	1.49718e-16	0	0	0	0
0.0746637	167.944	678.732	-59.7379	1.34347	1.49194e-16	0.43814	-0.676645	-2.73461	0.240684	0	0	0	0	1.49194e-16	0	0	0	0
0.0796413	174.722	704.821	-63.8487	1.33913	1.48713e-16	0.437753	-0.690274	-2.78454	0.252248	0	0	0	0	1.48713e-16	0	0	0	0
0.0846188	180.635	729.382	-67.7696	1.33516	1.48272e-16	0.437419	-0.698517	-2.82053	0.262066	0	0	0	0	1.48272e-16	0	0	0	0
0.0895964	185.668	752.454	-71.4612	1.33154	1.4787e-16	0.437131	-0.700737	-2.83986	0.269704	0	0	0	0	1.4787e-16	0	0	0	0
0.094574	189.813	774.077	-74.8923	1.32825	1.47505e-16	0.436884	-0.69657	-2.84069	0.274838	0	0	0	0	1.47505e-16	0	0	0	0
0.0995516	193.063	794.275	-78.0395	1.32528	1.47175e-16	0.436675	-0.685968	-2.82212	0.27728	0	0	0	0	1.47175e-16	0	0	0	0
0.104529	195.421	813.052	-80.8873	1.32261	1.46877e-16	0.4365	-0.6692	-2.78422	0.276991	0	0	0	0	1.46877e-16	0	0	0	0
0.109507	196.893	830.378	-83.4268	1.32021	1.4661e-16	0.436356	-0.646823	-2.72792	0.27407	0	0	0	0	1.4661e-16	0	0	0	0
0.114484	197.495	846.195	-85.6559	1.31808	1.46371e-16	0.436242	-0.619643	-2.65495	0.268747	0	0	0	0	1.46371e-16	0	0	0	0
0.119462	197.248	860.42	-87.5789	1.31619	1.4616e-16	0.436157	-0.588658	-2.56779	0.261366	0	0	0	0	1.4616e-16	0	0	0	0
0.124439	196.186	872.949	-89.2064	1.31452	1.45973e-16	0.436101	-0.554991	-2.46949	0.252356	0	0	0	0	1.45973e-16	0	0	0	0
0.129417	194.348	883.671	-90.5537	1.31305	1.45808e-16	0.436074	-0.519803	-2.36347	0.242195	0	0	0	0	1.45808e-16	0	0	0	0
0.134395	191.781	892.477	-91.64	1.31177	1.45665e-16	0.436077	-0.48422	-2.25338	0.231378	0	0	0	0	1.45665e-16	0	0	0	0
0.139372	188.541	899.266	-92.4865	1.31066	1.4554e-16	0.436113	-0.449276	-2.14286	0.220386	0	0	0	0	1.4554e-16	0	0	0	0
0.14435	184.688	903.956	-93.1151	1.3097	1.45432e-16	0.436182	-0.415868	-2.03547	0.20967	0	0	0	0	1.45432e-16	0	0	0	0
0.149327	180.286	906.489	-93.5477	1.30887	1.45338e-16	0.436286	-0.384727	-1.93443	0.199629	0	0	0	0	1.45338e-16	0	0	0	0
0.154305	175.402	906.834	-93.8052	1.30815	1.45257e-16	0.436426	-0.356399	-1.8426	0.190603	0	0	0	0	1.45257e-16	0	0	0	0
0.159283	170.104	904.99	-93.9067	1.30752	1.45186e-16	0.436605	-0.331248	-1.76231	0.182867	0	0	0	0	1.45186e-16	0	0	0	0
0.16426	164.462	900.988	-93.869	1.30696	1.45124e-16	0.436822	-0.309456	-1.69532	0.176627	0	0	0	0	1.45124e-16	0	0	0	0
0.169238	158.543	894.889	-93.7058	1.30646	1.45068e-16	0.437079	-0.291047	-1.64281	0.172022	0	0	0	0	1.45068e-16	0	0	0	0
0.174215	152.412	886.784	-93.4283	1.306	1.45016e-16	0.437374	-0.275911	-1.60534	0.169133	0	0	0	0	1.45016e-16	0	0	0	0
0.179193	146.131	876.792	-93.0453	1.30555	1.44966e-16	0.437707	-0.26383	-1.58299	0.167987	0	0	0	0	1.44966e-16	0	0	0	0
0.18417	139.759	865.058	-92.5632	1.30511	1.44917e-16	0.438077	-0.254507	-1.57531	0.168562	0	0	0	0	1.44917e-16	0	0	0	0
0.189148	133.348	851.749	-91.987	1.30465	1.44867e-16	0.438482	-0.247587	-1.58144	0.170792	0	0	0	0	1.44867e-16	0	0	0	0
0.194126	126.948	837.051	-91.3206	1.30416	1.44814e-16	0.438921	-0.24268	-1.60014	0.174573	0	0	0	0	1.44814e-16	0	0	0	0
0.199103	120.605	821.161	-90.5672	1.30364	1.44757e-16	0.43939	-0.239385	-1.62989	0.179764	0	0	0	0	1.44757e-16	0	0	0	0
0.204081	114.359	804.289	-89.7303	1.30306	1.44694e-16	0.439887	-0.237308	-1.66899	0.1862	0	0	0	0	1.44694e-16	0	0	0	0
0.209058	108.247	786.643	-88.8141	1.30241	1.44624e-16	0.440409	-0.236079	-1.71562	0.193697	0	0	0	0	1.44624e-16	0	0	0	0
0.214036	102.302	768.435	-87.8239	1.30169	1.44546e-16	0.440954	-0.235364	-1.76793	0.202055	0	0	0	0	1.44546e-16	0	0	0	0
0.219013	96.5524	749.872	-86.7664	1.30088	1.44458e-16	0.441517	-0.234871	-1.82412	0.211066	0	0	0	0	1.44458e-16	0	0	0	0
0.223991	91.0226	731.153	-85.65	1.29998	1.4436e-16	0.442097	-0.234359	-1.88252	0.220526	0	0	0	0	1.4436e-16	0	0	0	0
0.228969	85.7322	712.469	-84.4841	1.29898	1.44252e-16	0.44269	-0.233635	-1.9416	0.230234	0	0	0	0	1.44252e-16	0	0	0	0
0.233946	80.6958	694	-83.2794	1.29787	1.44131e-16	0.443294	-0.232557	-2.00004	0.240003	0	0	0	0	1.44131e-16	0	0	0	0
0.238924	75.9238	675.914	-82.0476	1.29665	1.43998e-16	0.443907	-0.231029	-2.05675	0.249664	0	0	0	0	1.43998e-16	0	0	0	0
0.243901	71.4219	658.364	-80.8015	1.29532	1.43853e-16	0.444527	-0.228997	-2.11089	0.259071	0	0	0	0	1.43853e-16	0	0	0	0
0.248879	67.192	641.492	-79.5543	1.29386	1.43694e-16	0.445151	-0.226441	-2.16186	0.268103	0	0	0	0	1.43694e-16	0	0	0	0
0.253857	63.2325	625.421	-78.3204	1.29229	1.43522e-16	0.445779	-0.223371	-2.20932	0.276669	0	0	0	0	1.43522e-16	0	0	0	0
0.258834	59.5381	610.259	-77.1139	1.29059	1.43336e-16	0.446409	-0.219821	-2.25314	0.284713	0	0	0	0	1.43336e-16	0	0	0	0
0.263812	56.1008	596.097	-75.949	1.28878	1.43138e-16	0.44704	-0.215844	-2.29344	0.292208	0	0	0	0	1.43138e-16	0	0	0	0
0.268789	52.909	583.011	-74.8398	1.28685	1.42926e-16	0.447671	-0.211498	-2.33052	0.299164	0	0	0	0	1.42926e-16	0	0	0	0
0.273767	49.9488	571.056	-73.7992	1.2848	1.42702e-16	0.448301	-0.206848	-2.36485	0.305617	0	0	0	0	1.42702e-16	0	0	0	0
0.278744	47.2035	560.273	-72.8393	1.28265	1.42465e-16	0.44893	-0.201954	-2.39705	0.311633	0	0	0	0	1.42465e-16	0	0	0	0
0.283722	44.655	550.687	-71.9701	1.2804	1.42218e-16	0.449555	-0.19687	-2.42781	0.317295	0	0	0	0	1.42218e-16	0	0	0	0
0.2887	42.2831	542.312	-71.1997	1.27805	1.41959e-16	0.450177	-0.191645	-2.45799	0.322708	-0.377974	-3.04791	-0.11823	0.867942	1.41959e-16	-0.141874	0.00110362	0.00889943	0.000345214
0.293677	40.0671	535.149	-70.5334	1.27562	1.41691e-16	0.450794	-0.186317	-2.4885	0.327988	-0.502269	-3.90654	-0.145633	0.868285	1.41691e-16	-0.142846	0.00157685	0.0122644	0.000457209
0.298655	37.9853	529.191	-69.974	1.2731	1.41414e-16	0.451404	-0.180909	-2.52033	0.333259	-0.643679	-4.8713	-0.175842	0.868662	1.41414e-16	-0.143769	0.00213107	0.0161277	0.000582172
0.303632	36.0157	524.427	-69.5217	1.27052	1.4113e-16	0.452006	-0.175435	-2.55453	0.338645	-0.802561	-5.94197	-0.208722	0.869072	1.4113e-16	-0.144611	0.0027698	0.020507	0.000720344
0.30861	34.1359	520.839	-69.1749	1.26788	1.40838e-16	0.452598	-0.169892	-2.59219	0.34428	-0.978875	-7.11533	-0.244029	0.869512	1.40838e-16	-0.14533	0.00349571	0.0254099	0.000871465
0.313587	32.3236	518.405	-68.9303	1.26519	1.40541e-16	0.453179	-0.164263	-2.63444	0.350292	-1.17209	-8.3845	-0.28139	0.869979	1.40541e-16	-0.14588	0.00431002	0.0308316	0.00103473
0.318565	30.557	517.098	-68.783	1.26245	1.4024e-16	0.453747	-0.158513	-2.68242	0.356808	-1.38107	-9.73826	-0.320283	0.870465	1.4024e-16	-0.146205	0.00521202	0.0367513	0.00120872
0.323543	28.8146	516.891	-68.7273	1.25968	1.39934e-16	0.454302	-0.152588	-2.7372	0.363946	-1.60396	-11.1602	-0.360014	0.870963	1.39934e-16	-0.146241	0.00619861	0.0431294	0.0013913
0.32852	27.0763	517.752	-68.7568	1.25689	1.39626e-16	0.454841	-0.146416	-2.79976	0.371805	-1.83807	-12.628	-0.399691	0.871462	1.39626e-16	-0.145917	0.0072637	0.0499036	0.00157951
0.333498	25.3237	519.65	-68.8651	1.25409	1.39317e-16	0.455364	-0.139906	-2.87091	0.380459	-2.0797	-14.1125	-0.438202	0.871948	1.39317e-16	-0.145154	0.00839768	0.0569851	0.00176943
0.338475	23.5399	522.553	-69.0458	1.25127	1.39006e-16	0.455869	-0.13295	-2.9513	0.38996	-2.32405	-15.5766	-0.47419	0.872405	1.39006e-16	-0.143862	0.00958681	0.064254	0.00195605
0.343453	21.7098	526.429	-69.2933	1.24846	1.38695e-16	0.456357	-0.125424	-3.04134	0.400329	-2.56502	-16.9747	-0.506026	0.872812	1.38695e-16	-0.141948	0.0108127	0.0715557	0.00213312
0.34843	19.8198	531.246	-69.603	1.24565	1.38385e-16	0.456825	-0.117193	-3.14122	0.411557	-2.7951	-18.2517	-0.531795	0.873146	1.38385e-16	-0.13931	0.0120516	0.0786956	0.00229293
0.353408	17.8573	536.973	-69.9715	1.24285	1.38077e-16	0.457273	-0.108107	-3.25078	0.423601	-3.0052	-19.3419	-0.549266	0.87338	1.38077e-16	-0.135842	0.0132742	0.0854347	0.00242615
0.358386	15.8109	543.58	-70.3969	1.24008	1.3777e-16	0.457701	-0.0980107	-3.36962	0.436386	-3.18451	-20.1686	-0.555886	0.873482	1.3777e-16	-0.131433	0.014445	0.0914854	0.00252152
0.363363	13.67	551.034	-70.8792	1.23732	1.37465e-16	0.45811	-0.0867529	-3.497	0.449816	-3.32037	-20.643	-0.548763	0.873416	1.37465e-16	-0.125973	0.0155228	0.0965064	0.00256547
0.368341	11.4252	559.305	-71.4195	1.23459	1.37164e-16	0.458498	-0.0741911	-3.63191	0.46377	-3.39819	-20.6642	-0.524662	0.873141	1.37164e-16	-0.119352	0.016461	0.100098	0.0025415
0.373318	9.06845	568.356	-72.0197	1.23189	1.36865e-16	0.458866	-0.0602013	-3.77306	0.478106	-3.40131	-20.1182	-0.480014	0.872615	1.36865e-16	-0.11147	0.0172109	0.1018	0.00242892
0.378296	6.59233	578.147	-72.6823	1.22922	1.36569e-16	0.459213	-0.0446852	-3.91889	0.492667	-3.311	-18.8788	-0.410927	0.871786	1.36569e-16	-0.102238	0.0177277	0.10108	0.00220018
0.383274	3.99055	588.634	-73.4095	1.22658	1.36276e-16	0.459539	-0.0275763	-4.0677	0.507289	-3.10645	-16.8071	-0.313214	0.8706	1.36276e-16	-0.0915936	0.0179893	0.0973289	0.0018138
0.388251	1.25744	599.76	-74.203	1.22396	1.35985e-16	0.459842	-0.00884262	-4.21764	0.521812	-2.7648	-13.7528	-0.182435	0.868995	1.35985e-16	-0.0795349	0.0180565	0.0898174	0.00119145
0.393229	-1.61222	611.463	-75.0642	1.22138	1.35698e-16	0.46012	0.0115138	-4.36681	0.536077	-2.2613	-9.55523	-0.0139596	0.866871	1.35698e-16	-0.0662745	0.0183422	0.0775059	0.000113231
0.398206	-4.62365	623.668	-75.9936	1.21882	1.35413e-16	0.460373	0.0334593	-4.51321	0.549932	-1.56949	-4.04523	0.196956	0.863606	1.35413e-16	-0.0543279	0.021896	0.0564349	-0.00274773
0.403184	-7.78221	636.288	-76.9913	1.2163	1.35131e-16	0.460598	0.0569312	-4.6548	0.563234	-0.661531	2.95217	0.455064	0.859071	9.56043e-17	-0.0349267	-0.00882373	0.0393771	0.0060698
0.408161	-11.0937	649.223	-78.0559	1.21379	1.3485e-16	0.460793	0.0818413	-4.78951	0.575841	0.491393	11.6144	0.764995	0.857254	9.51823e-17	-0.0134635	0.000532364	0.0125828	0.000828778
0.413139	-14.5644	662.362	-79.1842	1.21131	1.34572e-16	0.460956	0.10808	-4.91529	0.587614	1.91849	22.1173	1.1311	0.852883	9.46828e-17	0.00612607	-0.00212246	-0.0244686	-0.00125135
0.418117	-18.2015	675.577	-80.3707	1.20885	1.34295e-16	0.461085	0.135521	-5.03008	0.598408	3.64868	34.6291	1.55726	0.847671	9.41004e-17	0.0268227	-0.00735678	-0.0698222	-0.00313989
0.423094	-22.0125	688.73	-81.6067	1.20642	1.3402e-16	0.461178	0.16402	-5.13188	0.60807	5.70968	49.305	2.04667	0.841651	9.34304e-17	0.0483314	-0.0144066	-0.124406	-0.00516415
0.428072	-26.0054	701.668	-82.8804	1.204	1.33748e-16	0.461233	0.193418	-5.21874	0.616433	8.127	66.2786	2.60156	0.834805	9.26695e-17	0.0702331	-0.0231839	-0.189073	-0.00742148
0.433049	-30.187	714.233	-84.1762	1.20162	1.33477e-16	0.46125	0.223533	-5.28885	0.62332	10.9226	85.6533	3.2229	0.827123	9.18162e-17	0.0920035	-0.0337395	-0.264579	-0.00995538
0.438027	-34.5616	726.255	-85.4747	1.19925	1.33208e-16	0.461228	0.254152	-5.3406	0.628548	14.1136	107.492	3.91007	0.818612	9.0871e-17	0.112997	-0.0461584	-0.351552	-0.0127878
0.443004	-39.1287	737.559	-86.7523	1.19692	1.32942e-16	0.461166	0.285029	-5.37268	0.631939	17.7099	131.804	4.66045	0.809301	8.98371e-17	0.132549	-0.0605257	-0.450455	-0.0159276
0.447982	-43.8821	747.967	-87.9819	1.19462	1.32679e-16	0.461068	0.315879	-5.38412	0.633324	21.713	158.533	5.46899	0.79925	8.8721e-17	0.150728	-0.0768907	-0.561404	-0.019367
0.45296	-48.8084	757.292	-89.1322	1.19236	1.32419e-16	0.460934	0.34638	-5.3743	0.632548	26.1166	187.551	6.32815	0.788552	8.75332e-17	0.167551	-0.0952739	-0.68419	-0.0230852
0.457937	-53.8862	765.348	-90.1691	1.19013	1.32163e-16	0.46077	0.376185	-5.34296	0.629478	30.9123	218.654	7.22844	0.777343	8.62887e-17	0.183003	-0.115631	-0.817904	-0.0270389
0.462915	-59.0863	771.947	-91.0553	1.18795	1.31911e-16	0.460582	0.404924	-5.29023	0.624012	36.0921	251.564	8.15929	0.765804	8.50076e-17	0.197069	-0.137849	-0.960813	-0.0311633
0.467892	-64.3709	776.903	-91.7521	1.18581	1.31665e-16	0.460379	0.432229	-5.21664	0.616084	41.6467	285.925	9.11013	0.75413	8.37115e-17	0.209747	-0.161792	-1.11078	-0.0353918
0.47287	-69.6953	780.038	-92.2198	1.18374	1.31425e-16	0.460174	0.457738	-5.12305	0.605672	47.5574	321.326	10.0712	0.742502	8.24206e-17	0.221054	-0.18735	-1.26585	-0.039675
0.477848	-75.0076	781.179	-92.4202	1.18172	1.31192e-16	0.45998	0.481107	-5.01057	0.592793	53.7852	357.328	11.0338	0.731077	8.11522e-17	0.23103	-0.21444	-1.42466	-0.0439913
0.482825	-80.2502	780.166	-92.3173	1.17977	1.30967e-16	0.459816	0.502016	-4.88043	0.577503	60.2648	393.496	11.991	0.719987	7.9921e-17	0.23973	-0.242992	-1.58661	-0.0483486
0.487803	-85.3598	776.854	-91.8798	1.1779	1.30751e-16	0.459704	0.520163	-4.73397	0.559895	66.9061	429.434	12.9378	0.709333	7.87382e-17	0.247228	-0.272948	-1.75191	-0.0527809
0.49278	-90.2683	771.114	-91.0822	1.17611	1.30547e-16	0.459672	0.535266	-4.57249	0.540092	73.6042	464.803	13.8706	0.699192	7.76122e-17	0.253608	-0.304271	-1.92144	-0.0573393
0.497758	-94.9039	762.84	-89.9059	1.17442	1.30355e-16	0.459749	0.547053	-4.39723	0.518243	80.2507	499.325	14.785	0.689616	7.6549e-17	0.258961	-0.336955	-2.09656	-0.0620788
0.502735	-99.1914	751.952	-88.3405	1.17284	1.30177e-16	0.459972	0.555254	-4.20927	0.494512	86.7415	532.785	15.6754	0.68064	7.55522e-17	0.263381	-0.371003	-2.27878	-0.0670455
0.507713	-103.054	738.395	-86.384	1.17138	1.30016e-16	0.460381	0.559594	-4.00956	0.469074	92.982	565.022	16.5353	0.672277	7.46236e-17	0.266964	-0.406381	-2.46945	-0.0722682
0.512691	-106.415	722.147	-84.0427	1.17004	1.29873e-16	0.461021	0.559803	-3.79892	0.442114	98.8885	595.923	17.359	0.66453	7.37632e-17	0.269807	-0.442964	-2.6694	-0.0777585
0.517668	-109.198	703.219	-81.331	1.16885	1.2975e-16	0.461941	0.555632	-3.5782	0.413837	104.389	625.411	18.1428	0.657388	7.29699e-17	0.272002	-0.480508	-2.8788	-0.0835122
0.522646	-111.333	681.659	-78.2708	1.16782	1.29649e-16	0.463194	0.546868	-3.34831	0.384467	109.421	653.432	18.8852	0.65083	7.22415e-17	0.273635	-0.518645	-3.0972	-0.0895139
0.527623	-112.757	657.552	-74.8907	1.16695	1.29573e-16	0.464836	0.533363	-3.11035	0.354248	113.93	679.939	19.5869	0.644833	7.15752e-17	0.274789	-0.556893	-3.32357	-0.0957414
0.532601	-113.417	631.023	-71.2254	1.16627	1.29524e-16	0.466926	0.515054	-2.86564	0.323453	117.865	704.883	20.25	0.639366	7.09678e-17	0.275539	-0.594681	-3.55646	-0.102171
0.537578	-113.271	602.239	-67.3153	1.16578	1.29505e-16	0.469524	0.491992	-2.61581	0.292383	121.183	728.214	20.8785	0.634397	7.04156e-17	0.275952	-0.631383	-3.79412	-0.10878
0.542556	-112.295	571.41	-63.2053	1.16549	1.29517e-16	0.47269	0.464362	-2.36291	0.261368	123.851	749.874	21.4775	0.629893	6.9915e-17	0.276091	-0.666338	-4.03445	-0.115553
0.547534	-110.475	538.789	-58.9444	1.16542	1.29563e-16	0.476483	0.432511	-2.10937	0.230769	125.847	769.802	22.0547	0.625817	6.9462e-17	0.276007	-0.698861	-4.27492	-0.122476
0.552511	-107.818	504.667	-54.5846	1.16557	1.29644e-16	0.480956	0.396959	-1.85806	0.200967	127.163	787.938	22.6202	0.622135	6.90526e-17	0.275749	-0.728264	-4.51253	-0.129546
0.557489	-104.347	469.375	-50.1799	1.16595	1.29761e-16	0.486158	0.3584	-1.61216	0.172352	127.802	804.218	23.1854	0.61881	6.86828e-17	0.275357	-0.753892	-4.74399	-0.136768
0.562466	-100.106	433.275	-45.7849	1.16656	1.29916e-16	0.492128	0.317695	-1.37504	0.145302	127.779	818.581	23.7614	0.615806	6.83487e-17	0.274863	-0.775172	-4.96592	-0.144149
0.567444	-95.1554	396.754	-41.4528	1.1674	1.30109e-16	0.498895	0.275834	-1.1501	0.120163	127.117	830.972	24.3576	0.613088	6.80462e-17	0.274298	-0.791637	-5.17497	-0.15169
0.572422	-89.5763	360.214	-37.2336	1.16845	1.30338e-16	0.506469	0.2339	-0.940586	0.0972238	125.848	841.346	24.9801	0.610622	6.77717e-17	0.273685	-0.802949	-5.36805	-0.159381
0.577399	-83.4688	324.062	-33.1709	1.1697	1.30602e-16	0.514845	0.193012	-0.749354	0.0767039	124.009	849.67	25.6317	0.608376	6.75214e-17	0.273043	-0.808896	-5.54232	-0.167193
0.582377	-76.9502	288.695	-29.3009	1.17113	1.30899e-16	0.523991	0.154253	-0.578713	0.0587361	121.641	855.928	26.3118	0.606316	6.72919e-17	0.272388	-0.809399	-5.69535	-0.175079
0.587354	-70.1512	254.49	-25.65	1.17271	1.31224e-16	0.533852	0.118594	-0.430226	0.0433625	118.79	860.122	27.0162	0.604415	6.708e-17	0.271731	-0.804507	-5.82517	-0.182967
0.592332	-63.2113	221.788	-22.2357	1.17441	1.31573e-16	0.544338	0.086783	-0.304493	0.0305274	115.506	862.27	27.7381	0.602645	6.68824e-17	0.271081	-0.794399	-5.93032	-0.190771
0.597309	-56.2715	190.884	-19.067	1.17619	1.31938e-16	0.555329	0.0592374	-0.200945	0.0200719	111.839	862.411	28.469	0.600978	6.66964e-17	0.270445	-0.779373	-6.00987	-0.198391
0.602287	-49.4664	162.017	-16.1466	1.17799	1.32313e-16	0.566669	0.0359624	-0.117787	0.0117387	107.844	860.598	29.1987	0.599392	6.65193e-17	0.269827	-0.759829	-6.06344	-0.205723
0.607265	-42.9155	135.366	-13.473	1.17979	1.32688e-16	0.57817	0.0165499	-0.0522026	0.00519571	103.576	856.907	29.9166	0.597864	6.63487e-17	0.269229	-0.736248	-6.09117	-0.212657
0.612242	-36.7169	111.051	-11.0428	1.18153	1.33055e-16	0.589615	0.000276952	-0.000837644	8.32948e-05	99.0868	851.427	30.6109	0.596373	6.61822e-17	0.268652	-0.709173	-6.09374	-0.219085
0.61722	-30.9418	89.1315	-8.85414	1.18321	1.33408e-16	0.600778	-0.0136171	0.0392257	-0.0038966	94.4305	844.266	31.2685	0.594902	6.60178e-17	0.268097	-0.679184	-6.07232	-0.224896
0.622197	-25.6348	69.6146	-6.90601	1.18479	1.33741e-16	0.611448	-0.0256139	0.0695577	-0.00690036	89.6566	835.547	31.8747	0.593435	6.58539e-17	0.267561	-0.646869	-6.02844	-0.229975
0.627175	-20.8198	52.4532	-5.19387	1.18628	1.34052e-16	0.621463	-0.0361141	0.0909856	-0.00900932	84.8118	825.408	32.4139	0.591957	6.56888e-17	0.267043	-0.612811	-5.96402	-0.234208
0.632152	-16.5051	37.5573	-3.70864	1.18768	1.34337e-16	0.630602	-0.0457014	0.103994	-0.010269	79.9384	813.997	32.8696	0.590457	6.55214e-17	0.266542	-0.577563	-5.88121	-0.237486
0.63713	-12.6864	24.8044	-2.4379	1.189	1.34596e-16	0.638508	-0.0552902	0.108103	-0.0106249	75.0738	801.472	33.2257	0.588926	6.53507e-17	0.266055	-0.541635	-5.78239	-0.239714
0.642108	-9.34938	14.0492	-1.36695	1.1903	1.34828e-16	0.644153	-0.0660977	0.0993243	-0.00966397	70.25	787.997	33.4677	0.587359	6.51759e-17	0.26558	-0.505482	-5.67002	-0.240816
0.647085	-6.4717	5.13098	-0.479629	1.19156	1.35033e-16	0.642306	-0.0710874	0.0563606	-0.00526841	65.4937	773.736	33.5832	0.585751	6.49967e-17	0.265115	-0.469494	-5.54656	-0.240743
0.652063	-4.0254	-2.11954	0.241078	1.18964	1.35212e-16	0.634508	0.0596415	0.0314037	-0.00357189	60.827	758.855	33.5633	0.584099	6.48129e-17	0.264657	-0.434	-5.41442	-0.239474
0.65704	-1.97853	-7.87477	0.812479	1.1903	1.35367e-16	0.664155	0.0329258	0.131049	-0.0135209	56.2678	743.516	33.4024	0.582406	6.46245e-17	0.264203	-0.39927	-5.27591	-0.23702
0.662018	-0.296673	-12.3059	1.25173	1.19149	1.35498e-16	0.673001	0.00319809	0.132655	-0.0134935	51.8303	727.875	33.0991	0.580672	6.44318e-17	0.263753	-0.365522	-5.13319	-0.233424
0.666996	1.0558	-15.5791	1.5755	1.19226	1.35608e-16	0.678005	-0.00840386	0.124004	-0.0125405	47.5255	712.082	32.6556	0.578901	6.4235e-17	0.263304	-0.332925	-4.98827	-0.228758
0.671973	2.11472	-17.8532	1.79968	1.19282	1.35698e-16	0.681755	-0.0134667	0.11369	-0.0114605	43.3617	696.279	32.0777	0.577097	6.40348e-17	0.262854	-0.301605	-4.84302	-0.223118
0.676951	2.91524	-19.2773	1.93919	1.19323	1.35771e-16	0.684728	-0.0155674	0.10294	-0.0103552	39.3443	680.598	31.3741	0.575266	6.38317e-17	0.262402	-0.271649	-4.69913	-0.21662
0.681928	3.49125	-19.9897	2.00785	1.19355	1.35828e-16	0.68709	-0.0160947	0.0921528	-0.00925621	35.4766	665.16	30.5562	0.573413	6.36264e-17	0.261946	-0.243109	-4.55812	-0.209392
0.686906	3.87481	-20.1167	2.01829	1.19378	1.35871e-16	0.688932	-0.0157106	0.0815641	-0.00818325	31.7602	650.079	29.6371	0.571545	6.34195e-17	0.261487	-0.216008	-4.42133	-0.201569
0.691883	4.09588	-19.7725	1.98192	1.19395	1.35902e-16	0.690325	-0.0147804	0.0713512	-0.00715194	28.1947	635.453	28.6315	0.569668	6.32118e-17	0.261022	-0.190342	-4.28995	-0.193291
0.696861	4.18201	-19.0589	1.90888	1.19407	1.35922e-16	0.691331	-0.0135276	0.0616501	-0.0061747	24.7785	621.374	27.5546	0.567788	6.30038e-17	0.260553	-0.166087	-4.16498	-0.184695
0.701839	4.15824	-18.0653	1.80812	1.19414	1.35934e-16	0.692004	-0.0120988	0.0525628	-0.00526091	21.5088	607.919	26.4222	0.565911	6.27963e-17	0.26008	-0.143195	-4.04724	-0.175907
0.706816	4.04706	-16.8698	1.68742	1.19418	1.35939e-16	0.692396	-0.010594	0.04416	-0.00441714	18.3812	595.155	25.2496	0.564043	6.25898e-17	0.259603	-0.121604	-3.93736	-0.167043
0.711794	3.86838	-15.5392	1.55342	1.19419	1.35937e-16	0.692553	-0.00908289	0.0364858	-0.00364741	15.3905	583.141	24.0517	0.562187	6.23848e-17	0.259125	-0.101236	-3.83579	-0.158207
0.716771	3.63966	-14.13	1.41176	1.19418	1.35931e-16	0.692516	-0.0076144	0.0295609	-0.0029535	12.5303	571.924	22.8427	0.56035	6.21819e-17	0.258647	-0.0820026	-3.74287	-0.14949
0.721749	3.37596	-12.6891	1.26711	1.19415	1.35922e-16	0.692323	-0.00622196	0.0233863	-0.00233532	9.79305	561.545	21.636	0.558534	6.19816e-17	0.258171	-0.063808	-3.65882	-0.140972
0.726726	3.0901	-11.2548	1.12327	1.19412	6.17841e-17	0.692006	-0.00492763	0.0179474	-0.00179122	7.17016	552.035	20.4443	0.556745	6.17841e-17	0.257701	-0.0465481	-3.58376	-0.132722
0.731704	2.79286	-9.85754	0.983264	1.19407	6.159e-17	0.691594	-0.00374465	0.0132169	-0.00131835	4.65193	543.422	19.2794	0.554985	6.159e-17	0.257239	-0.0301129	-3.51768	-0.1248
0.736682	2.49309	-8.5209	0.849432	1.19403	6.13994e-17	0.691111	-0.00267948	0.00915794	-0.000912937	2.2274	535.726	18.1523	0.553257	6.13994e-17	0.256788	-0.0143875	-3.46043	-0.117252
0.741659	2.19795	-7.2624	0.723506	1.19398	6.12128e-17	0.690575	-0.00173324	0.00572693	-0.000570537	-0.115744	528.965	17.0727	0.551564	6.12128e-17	0.256351	0.000746542	-3.41179	-0.110118
0.746637	1.91304	-6.09433	0.606699	1.19393	6.10303e-17	0.690001	-0.000902797	0.00287602	-0.000286312	-2.39117	523.153	16.049	0.549909	6.10303e-17	0.255931	0.0154095	-3.37138	-0.103425
0.751614	1.64265	-5.02452	0.499778	1.1939	6.0852e-17	0.689398	-0.000181549	0.000555319	-5.52364e-05	-4.61403	518.303	15.0881	0.548292	6.0852e-17	0.255533	0.0297225	-3.33878	-0.0971941
0.756592	1.38986	-4.05704	0.403138	1.19387	6.06782e-17	0.688767	0.000440185	-0.00128491	0.000127679	-6.80093	514.426	14.1955	0.546714	6.06782e-17	0.255158	0.0438061	-3.31351	-0.0914361
0.76157	1.15676	-3.19291	0.316868	1.19385	6.05088e-17	0.688098	0.000975222	-0.00269182	0.000267139	-8.96978	511.53	13.3753	0.545177	6.05088e-17	0.254809	0.0577786	-3.29501	-0.0861564
0.766547	0	0	0	0	6.03439e-17	0	0	0	0	-11.1396	509.624	12.6299	0.543681	6.03439e-17	0.254491	0.0717538	-3.28265	-0.0813529
0.771525	0	0	0	0	6.01835e-17	0	0	0	0	-13.3303	508.717	11.9607	0.542225	6.01835e-17	0.254204	0.0858385	-3.2758	-0.0770188
0.776502	0	0	0	0	6.00275e-17	0	0	0	0	-15.5625	508.818	11.368	0.540809	6.00275e-17	0.253952	0.100131	-3.27381	-0.0731435
0.78148	0	0	0	0	5.98757e-17	0	0	0	0	-17.8566	509.935	10.8513	0.539431	5.98757e-17	0.253736	0.11472	-3.27607	-0.0697142
0.786457	0	0	0	0	5.9728e-17	0	0	0	0	-20.2334	512.076	10.4096	0.538091	5.9728e-17	0.253558	0.129682	-3.28204	-0.0667179
0.791435	0	0	0	0	5.95842e-17	0	0	0	0	-22.7132	515.251	10.0417	0.536785	5.95842e-17	0.25342	0.145084	-3.29126	-0.064143
0.796413	0	0	0	0	5.94441e-17	0	0	0	0	-25.3159	519.465	9.74652	0.535513	5.94441e-17	0.253322	0.160992	-3.30344	-0.0619812
0.80139	0	0	0	0	5.93073e-17	0	0	0	0	-28.0613	524.724	9.52356	0.534272	5.93073e-17	0.253265	0.177463	-3.31842	-0.0602281
0.806368	0	0	0	0	5.91737e-17	0	0	0	0	-30.9688	531.029	9.37276	0.533059	5.91737e-17	0.253249	0.194558	-3.33612	-0.0588832
0.811345	0	0	0	0	5.90427e-17	0	0	0	0	-34.0572	538.376	9.2947	0.53187	5.90427e-17	0.253274	0.212338	-3.35664	-0.0579502
0.816323	0	0	0	0	5.89141e-17	0	0	0	0	-37.3447	546.759	9.29054	0.530704	5.89141e-17	0.25334	0.230878	-3.38025	-0.0574374
0.8213	0	0	0	0	5.87875e-17	0	0	0	0	-40.8494	556.162	9.36183	0.529556	5.87875e-17	0.253445	0.25027	-3.40741	-0.0573567
0.826278	0	0	0	0	5.86625e-17	0	0	0	0	-44.5884	566.563	9.51033	0.528423	5.86625e-17	0.253588	0.270626	-3.43871	-0.0577222
0.831256	0	0	0	0	5.85385e-17	0	0	0	0	-48.5789	577.932	9.73769	0.527301	5.85385e-17	0.253767	0.292082	-3.47483	-0.0585481
0.836233	0	0	0	0	5.84152e-17	0	0	0	0	-52.8375	590.232	10.045	0.526187	5.84152e-17	0.25398	0.314805	-3.51659	-0.0598481
0.841211	0	0	0	0	5.8292e-17	0	0	0	0	-57.3797	603.414	10.4324	0.525075	5.8292e-17	0.254225	0.338991	-3.56488	-0.0616332
0.846188	0	0	0	0	5.81685e-17	0	0	0	0	-62.2197	617.418	10.8982	0.523962	5.81685e-17	0.2545	0.364867	-3.62064	-0.0639091
0.851166	0	0	0	0	5.80441e-17	0	0	0	0	-67.3694	632.174	11.4385	0.522843	5.80441e-17	0.254803	0.392679	-3.68478	-0.0666723
0.856143	0	0	0	0	5.79184e-17	0	0	0	0	-72.8369	647.598	12.0468	0.521715	5.79184e-17	0.255129	0.422679	-3.75807	-0.0699084
0.861121	0	0	0	0	5.77907e-17	0	0	0	0	-78.626	663.593	12.7135	0.520573	5.77907e-17	0.255476	0.455116	-3.84112	-0.07359
0.866099	0	0	0	0	5.76608e-17	0	0	0	0	-84.7345	680.05	13.4264	0.519413	5.76608e-17	0.255842	0.490214	-3.93429	-0.0776755
0.871076	0	0	0	0	5.75279e-17	0	0	0	0	-91.1536	696.844	14.1706	0.518232	5.75279e-17	0.256221	0.528168	-4.0377	-0.0821082
0.876054	0	0	0	0	5.73917e-17	0	0	0	0	-97.8677	713.841	14.9291	0.517024	5.73917e-17	0.256612	0.569125	-4.15116	-0.0868163
0.881031	0	0	0	0	5.72518e-17	0	0	0	0	-104.854	730.893	15.6831	0.515788	5.72518e-17	0.25701	0.613174	-4.27419	-0.0917129
0.886009	0	0	0	0	5.71077e-17	0	0	0	0	-112.082	747.844	16.4126	0.51452	5.71077e-17	0.257409	0.660346	-4.40602	-0.0966971
0.890987	0	0	0	0	5.69592e-17	0	0	0	0	-119.516	764.527	17.0973	0.513218	5.69592e-17	0.257806	0.710611	-4.54566	-0.101656
0.895964	0	0	0	0	5.68059e-17	0	0	0	0	-127.116	780.77	17.7169	0.511879	5.68059e-17	0.258193	0.763882	-4.69191	-0.106467
0.900942	0	0	0	0	5.66477e-17	0	0	0	0	-134.835	796.394	18.2519	0.510504	5.66477e-17	0.258566	0.820018	-4.84339	-0.111001
0.905919	0	0	0	0	5.64845e-17	0	0	0	0	-142.624	811.22	18.6846	0.50909	5.64845e-17	0.258916	0.878837	-4.99867	-0.115133
0.910897	0	0	0	0	5.63162e-17	0	0	0	0	-150.432	825.062	19	0.507639	5.63162e-17	0.259235	0.940129	-5.15623	-0.118741
0.915874	0	0	0	0	5.6143e-17	0	0	0	0	-158.206	837.737	19.1859	0.506153	5.6143e-17	0.259515	1.00366	-5.31463	-0.121716
0.920852	0	0	0	0	5.59652e-17	0	0	0	0	-165.889	849.063	19.2338	0.504632	5.59652e-17	0.259746	1.0692	-5.47244	-0.123967
0.92583	0	0	0	0	5.57831e-17	0	0	0	0	-173.426	858.86	19.1384	0.503082	5.57831e-17	0.259917	1.1365	-5.62829	-0.125418
0.930807	0	0	0	0	5.55973e-17	0	0	0	0	-180.76	866.952	18.898	0.501507	5.55973e-17	0.260018	1.20532	-5.78091	-0.126014
0.935785	0	0	0	0	5.54083e-17	0	0	0	0	-187.834	873.17	18.5139	0.499911	5.54083e-17	0.260038	1.27547	-5.92918	-0.125717
0.940762	0	0	0	0	5.52171e-17	0	0	0	0	-194.591	877.351	17.9898	0.498302	5.52171e-17	0.259964	1.34675	-6.07205	-0.124505
0.94574	0	0	0	0	5.50246e-17	0	0	0	0	-200.974	879.346	17.331	0.496687	5.50246e-17	0.259786	1.41896	-6.20854	-0.122364
0.950717	0	0	0	0	5.48319e-17	0	0	0	0	-206.923	879.017	16.5443	0.495073	5.48319e-17	0.259491	1.49192	-6.33772	-0.119284
0.955695	0	0	0	0	5.46402e-17	0	0	0	0	-212.379	876.241	15.6373	0.493471	5.46402e-17	0.259069	1.56543	-6.45872	-0.115262
0.960673	0	0	0	0	5.44509e-17	0	0	0	0	-217.281	870.917	14.6186	0.491889	5.44509e-17	0.25851	1.63929	-6.57071	-0.110291
0.96565	0	0	0	0	5.42657e-17	0	0	0	0	-221.567	862.962	13.4975	0.490338	5.42657e-17	0.257806	1.71328	-6.67291	-0.10437
0.970628	0	0	0	0	5.40863e-17	0	0	0	0	-225.174	852.316	12.2842	0.48883	5.40863e-17	0.256951	1.78717	-6.76469	-0.0974976
0.975605	0	0	0	0	5.39146e-17	0	0	0	0	-228.043	838.942	10.9902	0.487376	5.39146e-17	0.25594	1.8608	-6.84565	-0.0896785
0.980583	0	0	0	0	5.37528e-17	0	0	0	0	-230.112	822.829	9.62838	0.485988	5.37528e-17	0.254775	1.93401	-6.91558	-0.0809231
0.985561	0	0	0	0	5.36031e-17	0	0	0	0	-231.325	803.991	8.21341	0.484681	5.36031e-17	0.253459	2.00672	-6.97454	-0.0712505
0.990538	0	0	0	0	5.34681e-17	0	0	0	0	-231.629	782.467	6.76178	0.483469	5.34681e-17	0.252004	2.07893	-7.02282	-0.0606885
0.995516	0	0	0	0	5.33506e-17	0	0	0	0	-230.977	758.325	5.29162	0.482366	5.33506e-17	0.250424	2.15069	-7.06098	-0.0492717
1.00049	0	0	0	0	5.32535e-17	0	0	0	0	-229.327	731.658	3.82235	0.481388	5.32535e-17	0.248746	2.22217	-7.08973	-0.0370384
1.00547	0	0	0	0	5.31799e-17	0	0	0	0	-226.646	702.589	2.37415	0.480551	5.31799e-17	0.247001	2.29357	-7.10993	-0.0240255
1.01045	0	0	0	0	5.31331e-17	0	0	0	0	-222.911	671.267	0.967131	0.479873	5.31331e-17	0.245235	2.3652	-7.1225	-0.0102618
1.01543	0	0	0	0	5.31167e-17	0	0	0	0	-218.11	637.871	-0.379457	0.47937	5.31167e-17	0.243501	2.43745	-7.12841	0.00424055
1.0204	0	0	0	0	5.3134e-17	0	0	0	0	-212.246	602.603	-1.64769	0.479057	5.3134e-17	0.241869	2.51083	-7.12867	0.0194919
1.02538	0	0	0	0	5.31887e-17	0	0	0	0	-205.336	565.692	-2.82144	0.478953	5.31887e-17	0.240424	2.58598	-7.12426	0.035533
1.03036	0	0	0	0	5.32842e-17	0	0	0	0	-197.413	527.381	-3.88665	0.47907	5.32842e-17	0.239265	2.66375	-7.11609	0.0524436
1.03534	0	0	0	0	5.34239e-17	0	0	0	0	-188.526	487.929	-4.83141	0.479422	5.34239e-17	0.238514	2.7452	-7.10493	0.0703522
1.04031	0	0	0	0	5.36109e-17	0	0	0	0	-178.739	447.598	-5.64608	0.48002	5.36109e-17	0.238311	2.83172	-7.09122	0.0894499
1.04529	0	0	0	0	5.38479e-17	0	0	0	0	-168.132	406.647	-6.32358	0.480868	5.38479e-17	0.238827	2.92512	-7.07478	0.110017
1.05027	0	0	0	0	5.41367e-17	0	0	0	0	-156.797	365.325	-6.86004	0.481968	5.41367e-17	0.240262	3.02775	-7.0544	0.132467
1.05525	0	0	0	0	5.44788e-17	0	0	0	0	-144.839	323.855	-7.2557	0.483309	5.44788e-17	0.242862	3.14271	-7.027	0.157434
1.06022	0	0	0	0	5.48743e-17	0	0	0	0	-132.364	282.431	-7.51561	0.484871	5.48743e-17	0.246941	3.27426	-6.98641	0.185912
1.0652	0	0	0	0	5.5322e-17	0	0	0	0	-119.483	241.202	-7.64992	0.486609	5.5322e-17	0.252922	3.42839	-6.92095	0.219504
1.07018	0	0	0	0	5.58193e-17	0	0	0	0	-106.296	200.273	-7.67314	0.488441	5.58193e-17	0.261453	3.61369	-6.8086	0.260861
1.07516	0	0	0	0	5.63616e-17	0	0	0	0	-92.8909	159.701	-7.6029	0.490203	5.63616e-17	0.273668	3.8422	-6.60564	0.314475
1.08013	0	0	0	0	5.69427e-17	0	0	0	0	-79.3412	119.498	-7.45838	0.491519	5.69427e-17	0.29199	4.12711	-6.21593	0.387964
1.08511	0	0	0	0	5.75545e-17	0	0	0	0	-65.7018	79.6337	-7.2587	0.491307	5.75545e-17	0.322919	4.44905	-5.39246	0.491528
1.09009	0	0	0	0	5.81876e-17	0	0	0	0	-52.0107	40.051	-7.02135	0.48539	5.81876e-17	0.388652	4.41326	-3.39844	0.595782
1.09507	0	0	0	0	5.88327e-17	0	0	0	0	-38.2911	0.672037	-6.76104	0.461277	5.88327e-17	0.528488	0.159157	-0.00279332	0.0281023
1.10004	0	0	0	0	5.94835e-17	0	0	0	0	-24.557	-38.5858	-6.48916	0.477162	5.94835e-17	0.415389	-4.20228	-6.60295	-1.11045
1.10502	0	0	0	0	0.0449138	0	0	0	0	0	0	0	0	0.153754	0	0	0	0
