Coordinates
version=1
nRows=192
nColumns=38
inDegrees=no

Units are S.I. units (second, meters, Newtons, ...)
If the header above contains a line with 'inDegrees', this indicates whether rotational values are in degrees (yes) or radians (no).

endheader
time	pelvis_tilt_moment	pelvis_list_moment	pelvis_rotation_moment	pelvis_tx_force	pelvis_ty_force	pelvis_tz_force	hip_flexion_r_moment	hip_adduction_r_moment	hip_rotation_r_moment	knee_angle_r_moment	ankle_angle_r_moment	subtalar_angle_r_moment	mtp_angle_r_moment	hip_flexion_l_moment	hip_adduction_l_moment	hip_rotation_l_moment	knee_angle_l_moment	ankle_angle_l_moment	subtalar_angle_l_moment	mtp_angle_l_moment	lumbar_extension_moment	lumbar_bending_moment	lumbar_rotation_moment	arm_flex_r_moment	arm_add_r_moment	arm_rot_r_moment	elbow_flex_r_moment	pro_sup_r_moment	wrist_flex_r_moment	wrist_dev_r_moment	arm_flex_l_moment	arm_add_l_moment	arm_rot_l_moment	elbow_flex_l_moment	pro_sup_l_moment	wrist_flex_l_moment	wrist_dev_l_moment
0	0	0	0	0	0	0	0	0	0	0	0	0	0	0	0	0	0	0	0	0	0	0	0	0	0	0	0	0	0	0	0	0	0	0	0	0	0
0.00994792	-3.46216	30.3557	-0.515649	1.76709	492.796	-1.69368	9.44434	-0.271376	-0.0279822	-2.57015	0.7089	-0.0861519	-0.0232578	-6.43646	0.346886	0.0182487	2.46641	0.810108	-0.146314	-0.0281413	2.55202	-1.50982	0.000943532	-1.52835	-0.806095	0.088798	0.00949737	0.0101881	0.0190174	0.03395	1.32339	-1.48429	-0.458957	0.826482	-0.0247912	0.0153494	-0.104857
0.0198958	-3.25784	32.119	-0.777789	2.04827	489.563	-1.5709	6.24009	-0.197162	-0.10704	-1.08798	0.69561	-0.205524	-0.0236992	-5.51777	0.192201	0.0429223	2.45819	0.754112	-0.132627	-0.0256924	2.70663	-1.8309	-0.136528	-1.46883	-0.839575	0.0649803	0.0281861	0.0086871	0.0219567	0.0269803	0.93673	-1.44394	-0.356637	0.745851	-0.0210925	0.0220823	-0.0858536
0.0298437	-2.46494	34.1131	-0.630995	2.1379	481.265	0.155291	2.0381	0.100488	-0.187336	0.732184	0.798244	-0.419498	-0.0246761	-4.14721	0.122888	0.0593146	2.34864	0.692952	-0.11526	-0.0228674	2.82596	-2.18097	-0.0966146	-1.3768	-0.892627	0.0342875	0.0520317	0.00669581	0.0256447	0.0181489	0.519648	-1.40939	-0.251181	0.661792	-0.0173841	0.0291253	-0.0658939
0.0397917	-1.15121	35.8302	-0.0694816	2.07578	468.048	3.26338	-2.44292	0.544137	-0.2461	2.44526	1.09202	-0.708728	-0.026372	-2.48592	0.142892	0.0613186	2.16624	0.635517	-0.0966516	-0.0201379	2.87378	-2.52913	0.0994052	-1.26244	-0.956159	0.000887207	0.0795567	0.00452459	0.0298301	0.00851532	0.126885	-1.38865	-0.157045	0.583257	-0.0142218	0.0353572	-0.0475763
0.0497396	0.505938	36.7168	0.808409	1.85083	450.288	7.43449	-6.49824	0.966931	-0.263249	3.63221	1.60506	-1.04515	-0.0288634	-0.682252	0.240095	0.0449263	1.94151	0.588488	-0.0789865	-0.0178895	2.85548	-2.84806	0.407697	-1.13619	-1.02223	-0.0320176	0.109291	0.00246874	0.0342637	-0.00114409	-0.20973	-1.38628	-0.0818849	0.514301	-0.0118912	0.0400859	-0.0322478
0.0596875	2.25244	36.5513	1.87676	1.42859	428.796	12.3085	-9.68613	1.17857	-0.226008	4.05732	2.30316	-1.38965	-0.0319709	1.13263	0.399246	0.00960774	1.70295	0.556768	-0.0637324	-0.016435	2.7333	-3.12334	0.812163	-1.00324	-1.08456	-0.0623364	0.1402	0.000773543	0.0387104	-0.010302	-0.474053	-1.40468	-0.0292355	0.456042	-0.0104843	0.0428822	-0.020516
0.0696354	3.87698	35.4525	3.00806	0.743563	404.429	17.5196	-11.939	1.02518	-0.13175	3.723	3.10576	-1.70581	-0.0352663	2.87013	0.596902	-0.0437614	1.47114	0.544644	-0.0521597	-0.0160387	2.47673	-3.33661	1.29818	-0.866448	-1.14101	-0.0895287	0.171379	-0.000367586	0.0429795	-0.0187739	-0.658542	-1.44307	0.000582498	0.408749	-0.0099925	0.0436455	-0.0125111
0.0795833	5.2022	33.5949	4.093	-0.336409	377.925	22.7954	-13.3147	0.378259	0.0215616	2.71617	3.9181	-1.96605	-0.0383179	4.47618	0.816532	-0.113601	1.25885	0.555446	-0.0450062	-0.0169038	2.07722	-3.46599	1.84944	-0.728351	-1.19385	-0.114376	0.201482	-0.000816347	0.0468563	-0.0266427	-0.763656	-1.49693	0.00974135	0.372259	-0.0102963	0.0425532	-0.00804311
0.0895312	6.13011	31.177	5.05384	-1.92247	349.781	27.9367	-13.9641	-0.8325	0.235323	1.17883	4.65314	-2.15505	-0.0407655	5.93027	1.03867	-0.196833	1.06884	0.591446	-0.042811	-0.0191499	1.54367	-3.49066	2.44655	-0.59167	-1.24946	-0.138982	0.228636	-0.000465082	0.050083	-0.0342521	-0.79623	-1.55918	0.00187564	0.346133	-0.0111645	0.0399587	-0.00674234
0.0994792	6.56798	28.3735	5.76998	-3.62563	319.992	32.5466	-14.1158	-2.5692	0.513445	-0.715771	5.24502	-2.26923	-0.0423759	7.21978	1.24127	-0.286163	0.894901	0.653721	-0.0456999	-0.0228133	0.933817	-3.50183	3.02058	-0.450856	-1.30541	-0.161636	0.25059	0.000440178	0.0518345	-0.0414982	-0.772741	-1.62494	-0.0189506	0.328233	-0.0122229	0.0362581	-0.00814245
0.109427	6.47423	25.2252	6.15776	-5.29215	288.91	36.5211	-13.9419	-4.78576	0.847088	-2.81802	5.65666	-2.3174	-0.0430311	8.39952	1.40161	-0.377795	0.714071	0.74143	-0.0540502	-0.0277655	0.336928	-3.5616	3.52297	-0.305768	-1.36281	-0.180833	0.265285	0.00157494	0.0515311	-0.0481219	-0.708662	-1.68581	-0.0479504	0.317823	-0.0131229	0.0320331	-0.0116922
0.119375	5.87334	21.7507	6.15766	-6.66668	256.774	39.7102	-13.5978	-7.37623	1.22433	-4.99722	5.87643	-2.31553	-0.042747	9.52482	1.50447	-0.46687	0.499139	0.852288	-0.0679847	-0.0337809	-0.158711	-3.73405	3.90538	-0.16175	-1.41713	-0.194275	0.272091	0.0027131	0.0489675	-0.053516	-0.622532	-1.73537	-0.0802938	0.313522	-0.0135363	0.0278909	-0.0167407
0.129323	4.84454	17.9527	5.75819	-7.61161	224.099	42.0946	-13.1788	-10.2244	1.62756	-7.15709	5.91307	-2.28369	-0.0416434	10.655	1.54625	-0.550809	0.221714	0.981717	-0.0871943	-0.0405001	-0.484373	-4.04313	4.14379	-0.0301399	-1.46117	-0.199812	0.272569	0.00370633	0.0446199	-0.0569071	-0.530142	-1.76824	-0.111554	0.314534	-0.0133003	0.0244427	-0.0226232
0.139271	3.48045	13.8417	4.94917	-7.89578	191.229	43.5313	-12.7549	-13.1982	2.03854	-9.22397	5.78713	-2.24196	-0.0398953	11.8181	1.52438	-0.626327	-0.139385	1.12314	-0.111166	-0.0474742	-0.583922	-4.5162	4.20951	0.0751015	-1.47995	-0.193859	0.269553	0.00459913	0.0393251	-0.0572431	-0.448417	-1.78217	-0.138257	0.319015	-0.0122648	0.0221112	-0.0286581
0.149219	1.86484	9.44314	3.72801	-7.33936	158.572	43.8129	-12.3609	-16.183	2.43916	-11.1479	5.52434	-2.20804	-0.0377038	13.0043	1.4354	-0.688702	-0.59301	1.26821	-0.139277	-0.0541931	-0.408629	-5.17175	4.07672	0.139405	-1.45508	-0.171946	0.266563	0.00550563	0.0342155	-0.0534189	-0.392793	-1.77672	-0.157898	0.32496	-0.0103222	0.0211614	-0.0342137
0.159167	0.416789	4.96183	2.39396	-6.68279	127.013	43.346	-11.9615	-19.1094	2.81164	-12.9098	5.15066	-2.19609	-0.0352935	14.1868	1.29629	-0.737363	-1.13031	1.40818	-0.169953	-0.0601927	-0.05642	-5.70025	3.88054	0.133236	-1.39219	-0.143397	0.267962	0.00756565	0.0314876	-0.0468695	-0.354641	-1.74825	-0.166404	0.334155	-0.0083786	0.0220946	-0.0384806
0.169115	-0.826148	0.510735	0.986242	-5.81092	97.4037	42.2386	-11.5126	-21.8949	3.14133	-14.4977	4.6859	-2.21462	-0.0328592	15.3009	1.12792	-0.773021	-1.72769	1.53417	-0.200938	-0.0650759	0.463785	-6.12079	3.60985	0.0705625	-1.30019	-0.111209	0.273428	0.0103477	0.0309254	-0.0388354	-0.331374	-1.70493	-0.166365	0.34546	-0.00660687	0.0244058	-0.0415375
0.179062	-1.84281	-3.77685	-0.450807	-4.65468	70.6234	40.6493	-10.9587	-24.4674	3.41679	-15.9067	4.14182	-2.26695	-0.0305656	16.2694	0.957869	-0.798155	-2.34899	1.63823	-0.229543	-0.0685688	1.12557	-6.44712	3.25257	-0.0326543	-1.19013	-0.0792394	0.283148	0.0134146	0.0322064	-0.0306986	-0.317251	-1.65685	-0.161296	0.357638	-0.00515891	0.0274529	-0.0436304
0.18901	-2.60434	-7.78234	-1.83837	-3.32123	47.023	38.484	-10.2944	-26.7819	3.63277	-17.1222	3.52081	-2.35162	-0.0285276	17.0082	0.773904	-0.809877	-2.95421	1.71347	-0.254395	-0.070479	1.92021	-6.68003	2.82889	-0.166016	-1.07591	-0.05093	0.295155	0.0164122	0.0347013	-0.0235005	-0.313969	-1.60919	-0.153637	0.368957	-0.00395062	0.0306881	-0.044939
0.198958	-3.20167	-11.4037	-3.17764	-1.58565	26.5736	35.5185	-9.54702	-28.7855	3.78836	-18.1219	2.8157	-2.46258	-0.0267766	17.4338	0.576755	-0.809456	-3.50056	1.7561	-0.273687	-0.0708283	2.84676	-6.91674	2.32021	-0.310543	-0.961765	-0.0253613	0.308201	0.0187139	0.0376007	-0.0173618	-0.324733	-1.56993	-0.145936	0.376713	-0.00279614	0.033598	-0.0456691
0.208906	-3.71893	-14.542	-4.43358	0.442415	9.45691	31.7506	-8.73557	-30.4622	3.88508	-18.8899	2.01437	-2.59092	-0.0253495	17.4984	0.391775	-0.805262	-3.94903	1.76297	-0.285019	-0.0696823	3.88026	-7.18763	1.72683	-0.454786	-0.84949	-0.00131231	0.32319	0.0198832	0.0407799	-0.0121936	-0.347811	-1.54197	-0.139796	0.380174	-0.00163815	0.035911	-0.0460166
0.218854	-4.22104	-17.1035	-5.555	2.49601	-4.17219	27.3203	-7.88416	-31.8212	3.92701	-19.4135	1.10168	-2.72573	-0.0242662	17.1869	0.246725	-0.807449	-4.26748	1.73327	-0.286511	-0.067201	4.97344	-7.48243	1.06321	-0.590915	-0.740745	0.0223468	0.341468	0.0196672	0.0443783	-0.00783555	-0.378291	-1.52494	-0.136003	0.379716	-0.000489549	0.0375169	-0.0461356
0.228802	-4.72707	-19.0044	-6.49915	4.39837	-14.3813	22.45	-7.02333	-32.8839	3.91986	-19.6832	0.0618525	-2.85511	-0.0235044	16.5112	0.132916	-0.814017	-4.43361	1.66917	-0.278253	-0.0636189	6.0589	-7.78176	0.353326	-0.71261	-0.636081	0.0468039	0.36394	0.017981	0.0485443	-0.00403713	-0.409888	-1.51774	-0.134772	0.375888	0.000621114	0.0383776	-0.0461189
0.23875	-5.01696	-20.1053	-7.02069	5.27087	-21.1678	17.7917	-6.16735	-33.7083	3.87026	-19.7015	-1.11696	-2.96803	-0.0230537	15.5268	0.0610081	-0.827872	-4.43664	1.57615	-0.260974	-0.0592686	6.98837	-7.82361	-0.257691	-0.832022	-0.547317	0.0649167	0.389505	0.0160979	0.0534147	-0.00196005	-0.422492	-1.50974	-0.132447	0.372284	0.000994421	0.0388495	-0.0456134
0.248698	-5.14459	-20.4076	-7.15309	5.21715	-24.9867	13.6004	-5.34477	-34.3281	3.78495	-19.472	-2.44269	-3.05465	-0.0228509	14.2977	0.0119962	-0.843979	-4.27993	1.46079	-0.236549	-0.0544461	7.69269	-7.64058	-0.767483	-0.937847	-0.479784	0.0756789	0.416885	0.0140394	0.0584369	-0.00173342	-0.412234	-1.50103	-0.13048	0.369304	0.000807684	0.0387747	-0.0449687
0.258646	-5.1631	-19.9699	-6.97712	4.4447	-26.1943	10.143	-4.56801	-34.7748	3.67028	-19.0081	-3.91538	-3.10798	-0.022877	12.9155	-0.0324856	-0.855235	-3.97769	1.33321	-0.207952	-0.0495436	8.11927	-7.27734	-1.19856	-1.02196	-0.436532	0.079255	0.445612	0.0119486	0.0633362	-0.00328271	-0.378364	-1.49018	-0.12979	0.367684	0.000256769	0.038174	-0.0444434
0.268594	-5.13093	-18.9186	-6.58493	3.25208	-25.4491	7.4815	-3.84971	-35.0742	3.52972	-18.3279	-5.52914	-3.12433	-0.0230558	11.4622	-0.0865336	-0.855596	-3.55413	1.20169	-0.177859	-0.0448143	8.2601	-6.80366	-1.5674	-1.07822	-0.415135	0.077491	0.474638	0.00977717	0.0678081	-0.00610141	-0.325204	-1.47581	-0.130358	0.367357	-0.000360261	0.0371693	-0.0440961
0.278542	-5.09311	-17.4213	-6.07509	1.91345	-23.3819	5.60684	-3.19236	-35.2463	3.36417	-17.4556	-7.2715	-3.10348	-0.0233177	10.0183	-0.155612	-0.840209	-3.03896	1.07421	-0.148835	-0.0404698	8.13696	-6.28608	-1.89427	-1.10401	-0.411618	0.0729714	0.502847	0.00745807	0.0716848	-0.00952272	-0.259521	-1.45609	-0.131693	0.367967	-0.000711443	0.0359213	-0.043855
0.28849	-5.11543	-15.6853	-5.5136	0.49963	-20.77	4.38592	-2.59336	-35.3235	3.1709	-16.4205	-9.12604	-3.04853	-0.0235287	8.6392	-0.222028	-0.809717	-2.4654	0.953239	-0.121876	-0.0364587	7.80931	-5.78611	-2.17327	-1.09924	-0.420387	0.0689627	0.527634	0.00476553	0.0746511	-0.0125731	-0.189877	-1.42828	-0.132759	0.36883	-0.000360557	0.0345974	-0.0435536
0.298437	-4.99872	-13.7747	-4.89073	-0.815773	-17.7766	3.93262	-2.04468	-35.2853	2.9516	-15.2495	-11.0698	-2.96399	-0.0237448	7.3992	-0.31522	-0.753493	-1.86284	0.850257	-0.100462	-0.0331598	7.264	-5.22339	-2.3815	-1.07982	-0.439794	0.0635671	0.548023	0.00288953	0.0768484	-0.0155439	-0.115377	-1.39006	-0.13119	0.371184	-9.1821e-05	0.0335618	-0.0428786
0.308385	-4.73892	-11.8425	-4.26509	-1.88845	-14.7267	4.08741	-1.53563	-35.1319	2.7049	-13.9728	-13.0801	-2.85614	-0.0239362	6.33179	-0.428465	-0.670813	-1.25681	0.769041	-0.0856253	-0.0306359	6.56873	-4.6334	-2.53029	-1.04851	-0.466811	0.0580601	0.563011	0.00180758	0.0781876	-0.0180628	-0.0429222	-1.34196	-0.126872	0.374496	0.000125091	0.0328714	-0.041795
0.318333	-4.34031	-10.0145	-3.68287	-2.62755	-11.8148	4.66481	-1.05456	-34.8691	2.43081	-12.6203	-15.1339	-2.73178	-0.0240857	5.45076	-0.555758	-0.561096	-0.667229	0.71146	-0.0778103	-0.0289017	5.79407	-4.04808	-2.63039	-1.00911	-0.49825	0.0535798	0.572077	0.00146501	0.0786712	-0.0198325	0.0215411	-1.28574	-0.120051	0.378102	0.000279992	0.0325209	-0.0403147
0.328281	-3.81719	-8.3825	-3.17657	-2.99174	-9.12557	5.47131	-0.590432	-34.5096	2.13118	-11.2205	-17.2099	-2.59761	-0.0241869	4.75151	-0.693201	-0.423822	-0.107802	0.67761	-0.0769307	-0.0279313	5.00702	-3.49563	-2.69196	-0.965503	-0.531033	0.0510217	0.575243	0.00176828	0.0783762	-0.0206584	0.073721	-1.22449	-0.111463	0.381262	0.00033428	0.0324293	-0.0385289
0.338229	-3.19835	-7.00052	-2.767	-2.97673	-6.66794	6.32145	-0.134275	-34.0719	1.80944	-9.79888	-19.2892	-2.45999	-0.0242423	4.21315	-0.837721	-0.259577	0.414006	0.666086	-0.0823852	-0.0276694	4.26416	-3.00264	-2.7261	-0.921109	-0.562257	0.0510506	0.573049	0.00258358	0.0774389	-0.0204464	0.111346	-1.16232	-0.102323	0.383305	0.000244465	0.0324572	-0.0366188
0.348177	-2.52963	-5.88894	-2.46767	-2.60449	-4.37941	7.04736	0.321945	-33.5778	1.46992	-8.37723	-21.3559	-2.3247	-0.0242614	3.80215	-0.984737	-0.0712677	0.896726	0.674367	-0.093096	-0.0280439	3.61052	-2.59694	-2.74685	-0.878451	-0.589502	0.0541116	0.566491	0.00373599	0.0760361	-0.019192	0.134024	-1.1039	-0.0942316	0.383768	-9.58558e-06	0.0324384	-0.0348525
0.358125	-1.87251	-5.03875	-2.28959	-1.92091	-2.17129	7.49807	0.783796	-33.0506	1.11691	-6.97264	-23.3973	-2.19685	-0.0242562	3.47456	-1.12747	0.135631	1.34427	0.699141	-0.107613	-0.0289731	3.07935	-2.3074	-2.77403	-0.838951	-0.61101	0.0605404	0.556831	0.0050134	0.0743656	-0.0169407	0.142629	-1.05373	-0.0889592	0.382464	-0.000390763	0.0322222	-0.0335511
0.368073	-1.31748	-4.42824	-2.25074	-1.02827	0.113467	7.54087	1.25855	-32.5181	0.753578	-5.59898	-25.404	-2.08081	-0.0242339	3.18114	-1.24926	0.351002	1.76513	0.736567	-0.124042	-0.0303709	2.69936	-2.16584	-2.83781	-0.80307	-0.626517	0.0706413	0.545257	0.00617125	0.0726059	-0.0137307	0.138444	-1.0149	-0.0881175	0.379756	-0.000762797	0.0317544	-0.0330502
0.378021	-1.04524	-4.06133	-2.38115	-0.248977	2.77799	7.10253	1.76578	-32.0336	0.380602	-4.27134	-27.369	-1.98041	-0.0241649	2.87785	-1.29659	0.557204	2.17141	0.781806	-0.139599	-0.0321216	2.50862	-2.21461	-2.96978	-0.769959	-0.639203	0.084728	0.531436	0.00693946	0.0706989	-0.00939542	0.122291	-0.986976	-0.0927779	0.377448	-0.000836313	0.0312486	-0.03373
0.387969	-0.847454	-3.74541	-2.50494	0.308029	5.42048	6.28599	2.27862	-31.5832	0.00408352	-2.98754	-29.287	-1.89752	-0.024102	2.5069	-1.28684	0.742907	2.57334	0.831835	-0.152727	-0.0341829	2.40892	-2.30498	-3.07392	-0.747407	-0.645384	0.0996492	0.517076	0.00785069	0.0688913	-0.00482887	0.112524	-0.967347	-0.098389	0.375659	-0.00148261	0.0307567	-0.0347939
0.397917	-0.809457	-3.41027	-2.62358	0.542999	8.00642	5.10716	2.7948	-31.1748	-0.374865	-1.74953	-31.1549	-1.83349	-0.0240525	2.028	-1.16879	0.882717	2.98338	0.882686	-0.16046	-0.0364845	2.37317	-2.44051	-3.15945	-0.732926	-0.647569	0.113832	0.502864	0.00874918	0.0671061	-0.000384796	0.111499	-0.955332	-0.104992	0.375029	-0.0025507	0.0303547	-0.0363179
0.407865	-1.02824	-3.00254	-2.74291	0.352121	10.5528	3.67121	3.32002	-30.8255	-0.756295	-0.560351	-32.9711	-1.78872	-0.0240022	1.41482	-0.896733	0.960639	3.41497	0.930791	-0.160617	-0.0389501	2.3711	-2.63182	-3.22701	-0.723209	-0.649152	0.125705	0.488651	0.00947641	0.0651299	0.00370604	0.120723	-0.950109	-0.112523	0.376483	-0.0038595	0.0301989	-0.0383999
0.417812	-1.55137	-2.47188	-2.87538	-0.237813	12.911	2.04836	3.84926	-30.5451	-1.13927	0.579421	-34.7355	-1.76272	-0.0239522	0.648633	-0.445364	0.964361	3.87635	0.972696	-0.151621	-0.0414804	2.36947	-2.87775	-3.28308	-0.716431	-0.651719	0.134092	0.474994	0.00994097	0.0629237	0.00716669	0.140357	-0.951296	-0.120614	0.37975	-0.00523191	0.0303068	-0.040946
0.42776	-2.3982	-1.78148	-3.03394	-1.12991	14.872	0.343315	4.37555	-30.3411	-1.52226	1.66892	-36.4497	-1.7542	-0.0239021	-0.276047	0.194339	0.888942	4.37207	1.00494	-0.132735	-0.0439441	2.33348	-3.17452	-3.33005	-0.711199	-0.655839	0.138276	0.462395	0.0101018	0.0604923	0.00979665	0.169782	-0.958893	-0.12883	0.384091	-0.00650698	0.0306366	-0.0437993
0.437708	-3.56724	-0.913801	-3.23448	-2.19417	16.229	-1.31149	4.8931	-30.2209	-1.90319	2.70555	-38.1166	-1.76109	-0.0238496	-1.35269	1.01751	0.736449	4.90438	1.02404	-0.104044	-0.0461824	2.234	-3.51735	-3.37017	-0.706381	-0.661439	0.138038	0.451426	0.00993979	0.0579038	0.0114735	0.207088	-0.973024	-0.136863	0.388618	-0.00752892	0.0311235	-0.0468015
0.447656	-4.94471	0.134856	-3.45624	-3.15057	16.8329	-2.7416	5.4009	-30.1946	-2.27984	3.68359	-39.7413	-1.78064	-0.0237857	-2.56342	1.90991	0.537226	5.46869	1.02735	-0.0695859	-0.04798	2.048	-3.90326	-3.40282	-0.700895	-0.66832	0.13345	0.442749	0.00943876	0.0552699	0.0121259	0.248943	-0.994437	-0.144718	0.392654	-0.00814136	0.0317398	-0.0498717
0.457604	-6.36266	1.34765	-3.66377	-3.66967	16.453	-3.82633	5.89683	-30.2657	-2.64775	4.59591	-41.33	-1.80923	-0.0237141	-3.89335	2.718	0.322773	6.06113	1.01149	-0.0345416	-0.0490625	1.76888	-4.32833	-3.43622	-0.694271	-0.675474	0.125326	0.436808	0.00865991	0.0527384	0.0118269	0.29103	-1.02308	-0.152659	0.395043	-0.0081926	0.0323464	-0.0528904
0.467552	-7.64425	2.68556	-3.79615	-3.45154	15.0126	-4.36083	6.3852	-30.4383	-3.00224	5.43206	-42.8907	-1.84271	-0.0236358	-5.30102	3.26912	0.119159	6.67308	0.973968	-0.00492711	-0.0491707	1.38908	-4.79333	-3.46721	-0.685838	-0.682692	0.114352	0.434179	0.00764077	0.0504677	0.0106434	0.326718	-1.05935	-0.161517	0.395193	-0.00747718	0.0329021	-0.0558869
0.4775	-8.49805	4.11152	-3.70721	-1.96966	12.666	-4.00257	6.87597	-30.7091	-3.33888	6.17878	-44.432	-1.87644	-0.023545	-6.70724	3.26679	-0.0435569	7.28786	0.915195	0.00926635	-0.0480784	0.879623	-5.31004	-3.4642	-0.674173	-0.688915	0.100924	0.436497	0.00636099	0.0487311	0.00850354	0.347046	-1.10604	-0.172853	0.393046	-0.00572759	0.0334883	-0.0590801
0.487448	-8.60327	5.47924	-3.29571	0.209149	9.20354	-2.90148	7.37596	-31.091	-3.65025	6.82149	-45.9621	-1.90589	-0.0234402	-8.09923	2.58198	-0.159748	7.89966	0.833234	0.00327375	-0.045578	0.339702	-5.71337	-3.45951	-0.661726	-0.700057	0.0862883	0.440935	0.00491002	0.0473964	0.00587899	0.366398	-1.14224	-0.178642	0.390937	-0.00402107	0.0343685	-0.0610999
0.497396	-7.92714	6.66507	-2.53396	2.8909	4.79008	-1.00071	7.8987	-31.5853	-3.93058	7.34502	-47.4875	-1.92682	-0.0233196	-9.3908	1.19855	-0.246718	8.48628	0.730104	-0.0240319	-0.0416758	-0.203519	-5.98766	-3.45455	-0.648384	-0.717959	0.0710931	0.447026	0.00334793	0.0464654	0.00297931	0.384364	-1.16797	-0.180021	0.389214	-0.00246384	0.0353692	-0.0621647
0.507344	-6.55444	7.5444	-1.45305	5.77368	-0.320105	1.62265	8.45642	-32.1855	-4.17422	7.7349	-49.0107	-1.93572	-0.0231804	-10.4916	-0.783794	-0.324519	9.01586	0.610461	-0.069989	-0.0365504	-0.718245	-6.12855	-3.44976	-0.634257	-0.74384	0.0559815	0.454192	0.00175138	0.0459035	2.37356e-05	0.400171	-1.1839	-0.178086	0.388024	-0.00115806	0.0363398	-0.0624832
0.517292	-4.72976	8.02163	-0.176359	8.43323	-5.79434	4.69186	9.05112	-32.8685	-4.37543	7.98024	-50.5295	-1.92991	-0.0230242	-11.3293	-3.09568	-0.409796	9.45223	0.481141	-0.126499	-0.0305804	-1.16639	-6.1423	-3.44418	-0.620351	-0.777994	0.0417122	0.461736	0.000217865	0.0456618	-0.00275968	0.411911	-1.19126	-0.173712	0.387195	-0.000186555	0.0371658	-0.0622089
0.52724	-2.8191	8.04718	1.08914	10.4422	-11.2195	7.79848	9.6784	-33.5953	-4.52936	8.07326	-52.0353	-1.9078	-0.0228568	-11.8605	-5.34358	-0.504293	9.75896	0.350584	-0.181481	-0.0243043	-1.50988	-6.05121	-3.43676	-0.608049	-0.8191	0.0291572	0.469236	-0.00113864	0.0457211	-0.00517381	0.417065	-1.19273	-0.167656	0.386072	0.000384534	0.0377392	-0.061445
0.537187	-1.19078	7.60948	2.11416	11.5103	-16.1173	10.4957	10.3306	-34.3172	-4.63276	8.00864	-53.5127	-1.8691	-0.0226867	-12.0637	-7.13433	-0.591032	9.9014	0.228173	-0.22293	-0.0183166	-1.71413	-5.89029	-3.42673	-0.598694	-0.864356	0.0192007	0.476737	-0.0022012	0.0461119	-0.00708513	0.4128	-1.19218	-0.160553	0.383637	0.000514458	0.0379615	-0.0602515
0.547135	-0.112085	6.7163	2.71452	11.5569	-19.9903	12.4176	10.9987	-34.982	-4.6841	7.78282	-54.9405	-1.8148	-0.0225197	-11.9213	-8.18232	-0.64392	9.84925	0.123132	-0.242391	-0.013153	-1.75544	-5.69986	-3.411	-0.593178	-0.910182	0.0125631	0.484682	-0.00287763	0.0469002	-0.00843729	0.396677	-1.19381	-0.152964	0.378811	0.000197399	0.0377559	-0.0586753
0.557083	0.324394	5.39624	2.8265	10.7517	-22.244	13.4227	11.6516	-35.528	-4.67945	7.3964	-56.293	-1.74644	-0.0223407	-11.373	-8.38257	-0.645004	9.57376	0.043943	-0.237654	-0.00920268	-1.6409	-5.52458	-3.36124	-0.590682	-0.953255	0.00933622	0.494637	-0.00330237	0.0482615	-0.00937819	0.365383	-1.20238	-0.145964	0.370855	-0.000405151	0.0371217	-0.056896
0.567031	0.182304	3.66546	2.5042	9.10907	-22.5037	13.4551	12.2648	-35.926	-4.61679	6.84905	-57.5411	-1.66664	-0.0220922	-10.3724	-7.78284	-0.587242	9.06263	-0.00416352	-0.211093	-0.00664954	-1.38418	-5.36798	-3.2492	-0.591413	-0.993788	0.00890518	0.506781	-0.00358114	0.0501869	-0.0100519	0.318836	-1.21579	-0.139214	0.360594	-0.00121362	0.0362643	-0.0549672
0.576979	-0.416023	1.47724	1.79277	7.159	-20.7963	12.4981	12.8958	-36.1625	-4.50764	6.13512	-58.6511	-1.58017	-0.0217993	-8.95634	-6.59893	-0.476428	8.32889	-0.0185242	-0.169184	-0.00551793	-0.977831	-5.28599	-3.11978	-0.594499	-1.02719	0.0119949	0.520552	-0.00339659	0.0525529	-0.0102866	0.254857	-1.23765	-0.134955	0.347342	-0.00203273	0.0351362	-0.0531914
0.586927	-1.23553	-1.04816	0.897941	4.91134	-17.0698	10.5001	13.5078	-36.2164	-4.34949	5.26291	-59.591	-1.49016	-0.0213972	-7.16618	-5.05524	-0.328319	7.40112	0.000500385	-0.119061	-0.005719	-0.463824	-5.24806	-2.94152	-0.600061	-1.0564	0.0174637	0.535401	-0.00293376	0.0552696	-0.010251	0.176331	-1.26237	-0.132353	0.332791	-0.00280628	0.0339991	-0.0515878
0.596875	-2.02807	-3.80737	0.0155132	2.53566	-11.464	7.50483	14.0963	-36.0743	-4.14461	4.2399	-60.3271	-1.40039	-0.020858	-5.07905	-3.41701	-0.166774	6.32302	0.0507895	-0.0690011	-0.00708822	0.114735	-5.22805	-2.70909	-0.607812	-1.08224	0.0246687	0.550607	-0.0022811	0.0582329	-0.0100245	0.0885567	-1.28582	-0.130988	0.318235	-0.00351992	0.0329788	-0.0502039
0.606823	-2.57658	-6.67995	-0.682669	0.19473	-4.18483	3.61875	14.6688	-35.7277	-3.89773	3.0757	-60.8248	-1.3146	-0.0201729	-2.80125	-1.92586	-0.0152961	5.14962	0.128588	-0.02658	-0.00942266	0.707149	-5.19826	-2.42889	-0.617269	-1.10571	0.0329282	0.565222	-0.00150267	0.0613019	-0.00967052	-0.00230019	-1.30449	-0.130643	0.305001	-0.00416648	0.0321821	-0.0491199
0.616771	-2.72996	-9.52824	-1.07278	-2.02676	4.53086	-1.04223	15.2374	-35.1684	-3.61475	1.78213	-61.0483	-1.23597	-0.0193532	-0.462789	-0.754381	0.109245	3.94201	0.228808	0.00267746	-0.0125111	1.26279	-5.12907	-2.11453	-0.628024	-1.1285	0.0413725	0.578125	-0.000666294	0.0642987	-0.00926753	-0.0901537	-1.31537	-0.131216	0.294423	-0.00473449	0.0317169	-0.0484332
0.626719	-2.41646	-12.1881	-1.09372	-4.0917	14.4798	-6.33911	15.8108	-34.3798	-3.30222	0.374089	-60.9595	-1.16686	-0.0184385	1.79401	0.0127188	0.199381	2.76198	0.345364	0.0159879	-0.016149	1.72744	-4.9953	-1.78377	-0.639134	-1.15241	0.0489671	0.588336	0.000147943	0.0670382	-0.00892675	-0.169181	-1.3166	-0.132755	0.287667	-0.00521032	0.0316756	-0.0482494
0.636667	-2.33031	-13.778	-0.947768	-6.22801	18.5369	-11.3682	16.4007	-33.3384	-2.96849	-1.13211	-60.5171	-1.10861	-0.0175045	2.635	0.589263	0.220316	1.99771	0.605895	0.0361031	-0.0201303	2.05213	-4.78109	-1.45971	-0.648971	-1.17882	0.0546057	0.595181	0.000862851	0.0693388	-0.00878558	-0.234258	-1.30788	-0.135338	0.285497	-0.0055883	0.0321113	-0.0486418
0.646615	-2.35247	-14.5327	-0.676734	-8.22102	17.6461	-15.7146	17.0285	-32.0174	-2.62557	-2.71829	-59.6756	-1.06163	-0.0166699	2.37132	0.913027	0.18417	1.45313	1.01171	0.0679007	-0.0242165	2.19301	-4.48737	-1.17294	-0.654368	-1.20779	0.05718	0.598599	0.00142329	0.071034	-0.00900002	-0.280654	-1.29113	-0.138974	0.288081	-0.00589835	0.0330087	-0.049622
0.656562	-2.44545	-14.6011	-0.363352	-9.99522	12.9323	-19.1187	17.6759	-30.3789	-2.28278	-4.35775	-58.3875	-1.02447	-0.0160766	1.28785	1.0159	0.114972	0.956316	1.53466	0.122902	-0.0282239	2.11152	-4.12145	-0.943134	-0.651858	-1.24022	0.0555373	0.598817	0.00174614	0.0719965	-0.00974709	-0.305484	-1.26799	-0.143574	0.295557	-0.00613473	0.0343743	-0.0511691
0.66651	-2.58338	-14.1171	-0.0961684	-11.4763	5.85624	-21.336	18.3033	-28.3921	-1.94905	-6.01461	-56.6062	-0.994379	-0.0158881	-0.30515	0.943036	0.0394304	0.35789	2.12476	0.212167	-0.0319767	1.77822	-3.7013	-0.785814	-0.637424	-1.27674	0.0486556	0.596396	0.00174738	0.072129	-0.0111896	-0.307371	-1.24043	-0.148913	0.307719	-0.00626459	0.0361812	-0.0531989
0.676458	-2.73002	-13.2923	0.0351962	-12.3577	-1.32686	-21.959	18.8945	-26.059	-1.63882	-7.6471	-54.2915	-0.968599	-0.0162964	-2.01785	0.679331	-0.0211879	-0.47253	2.71681	0.339922	-0.0352656	1.19312	-3.2947	-0.736607	-0.604345	-1.31673	0.0357715	0.592948	0.00138095	0.0713686	-0.0134479	-0.289942	-1.21508	-0.156158	0.323871	-0.00614292	0.0384328	-0.0558014
0.686406	-2.84473	-12.1138	-0.00587353	-12.557	-6.93231	-20.8257	19.3646	-23.3748	-1.35798	-9.19372	-51.418	-0.942361	-0.0174763	-3.62175	0.24672	-0.0412232	-1.57808	3.24967	0.50611	-0.038	0.334638	-2.92311	-0.791506	-0.549158	-1.35988	0.0163475	0.589542	0.000583263	0.0697388	-0.0166637	-0.251831	-1.19344	-0.164663	0.343303	-0.00573255	0.0409712	-0.0587869
0.696354	-2.89507	-10.5488	-0.230008	-11.9188	-9.39774	-17.6937	19.6596	-20.3808	-1.11586	-10.5881	-47.9812	-0.910957	-0.0195745	-4.9746	-0.383149	-0.00281449	-2.94824	3.67596	0.705752	-0.0400874	-0.791115	-2.61651	-0.950555	-0.468175	-1.40505	-0.00986444	0.58781	-0.000659883	0.0673144	-0.0209454	-0.192497	-1.17917	-0.173983	0.364876	-0.00502961	0.0435599	-0.0619919
0.706302	-2.8656	-8.55892	-0.633187	-10.2981	-7.50924	-12.2893	19.749	-17.1483	-0.92291	-11.7589	-44.0026	-0.869143	-0.0226932	-6.00321	-1.25435	0.105707	-4.54175	3.96661	0.931928	-0.0414833	-2.16148	-2.40071	-1.21189	-0.35917	-1.45097	-0.0427386	0.589359	-0.00231779	0.0642183	-0.0263453	-0.111457	-1.17657	-0.183843	0.387324	-0.00406661	0.0459096	-0.0652903
0.71625	-2.77838	-6.15205	-1.19759	-7.68165	-0.537685	-4.3826	19.6304	-13.7882	-0.787438	-12.6362	-39.5352	-0.812012	-0.0268537	-6.67689	-2.40202	0.289707	-6.30751	4.11054	1.17782	-0.042197	-3.73034	-2.28533	-1.5673	-0.222999	-1.49656	-0.0816724	0.5952	-0.00431601	0.0605959	-0.0328201	-0.00858596	-1.18923	-0.194002	0.409447	-0.00290831	0.0477122	-0.0685765
0.726198	-2.67169	-3.41379	-1.89145	-4.17739	11.7509	6.20802	19.3382	-10.438	-0.715076	-13.1575	-34.6661	-0.736192	-0.0319691	-6.98125	-3.84718	0.548158	-8.1987	4.11246	1.43734	-0.0422857	-5.43328	-2.26165	-2.00314	-0.0632454	-1.54105	-0.125713	0.605772	-0.00655171	0.0566109	-0.0402558	0.116075	-1.21927	-0.204188	0.430426	-0.00166046	0.0487087	-0.0717586
0.736146	-2.58712	-0.509814	-2.66463	-0.0489133	29.114	19.5256	18.9415	-7.25464	-0.707513	-13.2754	-29.5176	-0.641876	-0.0378121	-6.91402	-5.58989	0.874319	-10.1761	3.99019	1.70495	-0.0418481	-7.18525	-2.29921	-2.50142	0.113768	-1.58438	-0.173581	0.620724	-0.00892263	0.0524194	-0.048449	0.261163	-1.26637	-0.214042	0.450181	-0.000474954	0.0487921	-0.0747496
0.746094	-2.55604	2.35026	-3.44742	4.29571	50.5545	35.3653	18.5163	-4.38853	-0.758776	-12.963	-24.2433	-0.534137	-0.0440782	-6.49476	-7.60145	1.25787	-12.2052	3.77116	1.97521	-0.0409996	-8.89826	-2.34316	-3.03324	0.298478	-1.62695	-0.223709	0.638439	-0.0113008	0.0481435	-0.057114	0.424716	-1.32571	-0.222768	0.469269	0.000526553	0.0479983	-0.0773802
0.756042	-1.5008	-0.444272	-3.43196	-0.53895	0.225358	0.991261	16.1539	-2.31446	-0.771715	-12.2034	-19.1507	-0.411626	-0.0458029	-10.5857	-9.44237	1.73641	-13.1287	3.36285	2.25469	-0.0368302	-4.93099	-0.706541	-3.49355	-0.185791	-1.49725	-0.143731	0.456765	-0.00761746	0.0380101	-0.0371476	0.139082	-1.17486	-0.164772	0.379565	0.00476059	0.041088	-0.0612832
0.76599	-1.41797	-0.382815	-3.76742	-0.814539	-0.209073	1.17618	15.1565	-0.622176	-0.853823	-11.1049	-14.229	-0.30935	-0.0500402	-11.2397	-11.5871	2.19943	-14.7619	2.96991	2.52324	-0.0344852	-4.18495	-0.084016	-3.97809	-0.250167	-1.49063	-0.150363	0.404251	-0.00784048	0.0312993	-0.035982	0.140193	-1.15228	-0.141427	0.358088	0.00659028	0.0377452	-0.055357
0.775937	-1.50602	-0.808174	-4.00977	-1.02861	-0.476958	1.28917	14.2087	0.529509	-0.944511	-9.67241	-9.75414	-0.230418	-0.0535088	-11.735	-13.8734	2.67177	-16.3053	2.52266	2.78317	-0.032115	-3.10544	0.467454	-4.42591	-0.33149	-1.47849	-0.152687	0.3533	-0.00808673	0.0251147	-0.034308	0.10567	-1.13631	-0.119909	0.333062	0.00902338	0.0345274	-0.0491403
0.785885	-1.66149	-1.692	-4.09471	-1.17137	-0.601827	1.36994	13.3484	1.16099	-1.02544	-8.01325	-5.89951	-0.181762	-0.0560059	-12.0414	-16.2397	3.13291	-17.7373	2.02744	3.03105	-0.0298894	-1.75552	0.993284	-4.77637	-0.426972	-1.46417	-0.152599	0.307069	-0.00819453	0.0197512	-0.0326671	0.0505408	-1.12787	-0.0991749	0.306337	0.0114357	0.0313482	-0.0427284
0.795833	-1.78702	-2.96513	-3.98392	-1.23018	-0.625413	1.46149	12.5959	1.33263	-1.07875	-6.27349	-2.80846	-0.162228	-0.0574142	-12.1271	-18.6138	3.563	-19.0371	1.48193	3.2635	-0.0279496	-0.222486	1.51236	-4.98073	-0.531517	-1.45186	-0.151854	0.268493	-0.0080625	0.0155063	-0.0315078	-0.0136921	-1.12421	-0.0785743	0.281521	0.0133809	0.0285122	-0.0363144
0.805781	-1.77808	-4.52058	-3.65653	-1.2034	-0.584574	1.54788	11.9573	1.14203	-1.08864	-4.64213	-0.577176	-0.163697	-0.0577262	-11.9667	-20.9166	3.94458	-20.1819	0.876778	3.47739	-0.0264049	1.38932	2.02941	-4.99978	-0.639387	-1.44546	-0.15185	0.240205	-0.00759533	0.0127039	-0.0311655	-0.0780867	-1.12052	-0.057465	0.262918	0.0145648	0.0265224	-0.0301003
0.815729	-1.51572	-6.25643	-3.1038	-1.13107	-0.518413	1.64299	11.4509	0.71685	-1.05476	-3.3343	0.796238	-0.174939	-0.057027	-11.5465	-23.0737	4.26423	-21.149	0.198326	3.67005	-0.0253181	2.9697	2.55596	-4.80488	-0.745676	-1.44694	-0.153292	0.224036	-0.0066682	0.0116719	-0.0317975	-0.135178	-1.11068	-0.0351114	0.254553	0.0147954	0.0259002	-0.0242567
0.825677	-1.13385	-8.16375	-2.47827	-1.02347	-0.430221	1.74016	11.1185	0.151884	-0.980598	-2.59855	1.39395	-0.187126	-0.0554839	-10.8593	-24.9973	4.51185	-21.9158	-0.56722	3.83971	-0.0247204	4.47257	2.94352	-4.48091	-0.832749	-1.46013	-0.153737	0.220832	-0.00616635	0.0125754	-0.0327812	-0.195974	-1.09371	-0.0176424	0.259936	0.0148745	0.0271485	-0.0201486
0.835625	-0.546835	-10.0974	-1.81072	-0.901191	-0.294599	1.8534	10.9873	-0.431203	-0.884861	-2.71046	1.36539	-0.196137	-0.0533319	-9.91625	-26.6303	4.68241	-22.4599	-1.4298	3.98525	-0.0246214	5.76388	3.18593	-4.02898	-0.894487	-1.48954	-0.154982	0.229829	-0.00596731	0.0151999	-0.0342666	-0.248865	-1.07409	-0.00651555	0.280136	0.0145897	0.0299746	-0.0182432
0.845573	-0.152108	-11.7603	-1.14645	-0.76827	-0.208852	1.9495	10.7383	-0.945907	-0.790265	-2.74484	1.3135	-0.198214	-0.0504099	-9.01407	-27.9514	4.78007	-22.7146	-2.40538	4.10742	-0.0246167	6.99051	3.32899	-3.45826	-0.951393	-1.51538	-0.152273	0.238355	-0.00562912	0.0185762	-0.0349363	-0.300607	-1.04054	0.000583909	0.30549	0.0139388	0.0333194	-0.0177302
0.855521	0.0658963	-13.0103	-0.50944	-0.632325	-0.156166	2.0304	10.3643	-1.36608	-0.707683	-2.68871	1.24374	-0.193679	-0.047018	-8.17239	-28.9432	4.80711	-22.6692	-3.49157	4.20712	-0.0246975	8.03838	3.36967	-2.78119	-1.0017	-1.53896	-0.147387	0.245568	-0.00481053	0.0224023	-0.0349894	-0.348362	-0.997843	0.0034628	0.334519	0.0129385	0.0368758	-0.0185838
0.865469	0.167141	-13.7401	0.106377	-0.491244	-0.128719	2.10757	9.86596	-1.67843	-0.646649	-2.53735	1.16092	-0.183132	-0.0433748	-7.39304	-29.6196	4.76769	-22.326	-4.68068	4.2862	-0.0248197	8.79856	3.33758	-2.00221	-1.04968	-1.55972	-0.142578	0.251723	-0.00302841	0.0266188	-0.034872	-0.390285	-0.950109	0.00207048	0.36561	0.0115178	0.040317	-0.0206737
0.875417	0.096816	-14.0519	0.586657	-0.359082	-0.126675	2.19237	9.27694	-1.88597	-0.60997	-2.29946	1.0722	-0.168262	-0.0397594	-6.67333	-29.9956	4.66898	-21.6995	-5.9595	4.3477	-0.0249574	9.31578	3.18446	-1.23986	-1.07998	-1.57387	-0.133952	0.257131	-0.001284	0.0310927	-0.033822	-0.423109	-0.89779	-0.00295774	0.398462	0.00973973	0.043662	-0.0238182
0.885365	-0.087028	-13.9632	0.929699	-0.240114	-0.144706	2.27606	8.61863	-1.99642	-0.596949	-1.98523	0.983603	-0.150875	-0.0363752	-6.01124	-30.1205	4.51979	-20.8128	-7.31065	4.3952	-0.0250837	9.57214	2.93139	-0.526517	-1.08786	-1.58379	-0.123402	0.261145	0.000337448	0.0353435	-0.032193	-0.446825	-0.842224	-0.0108922	0.432036	0.00774357	0.0468236	-0.0277712
0.895312	-0.317136	-13.5016	1.16541	-0.146332	-0.178247	2.35899	7.91952	-2.02068	-0.60336	-1.60899	0.901929	-0.133102	-0.0334512	-5.41164	-30.048	4.33094	-19.6973	-8.71367	4.43269	-0.0252031	9.56296	2.61088	0.13292	-1.06914	-1.58976	-0.112756	0.263466	0.00177505	0.0389308	-0.0303497	-0.461736	-0.785581	-0.0204935	0.465266	0.0057445	0.0497813	-0.0322168
0.90526	-0.540579	-12.729	1.32275	-0.0805927	-0.222495	2.42911	7.20415	-1.97944	-0.621403	-1.18836	0.83125	-0.116692	-0.0310814	-4.86798	-29.8371	4.11139	-18.3931	-10.1477	4.46403	-0.0253031	9.31091	2.25813	0.733744	-1.02316	-1.59158	-0.103736	0.264874	0.00299993	0.0416872	-0.0287567	-0.46928	-0.728915	-0.0305329	0.497298	0.00382074	0.0525399	-0.0368364
0.915208	-0.726639	-11.73	1.42412	-0.0421076	-0.27009	2.46872	6.49428	-1.89481	-0.641705	-0.741988	0.773621	-0.102938	-0.0292743	-4.36902	-29.5398	3.86822	-16.9444	-11.5933	4.49269	-0.0253698	8.86102	1.90281	1.27129	-0.952204	-1.58803	-0.0973852	0.266672	0.00400454	0.0436517	-0.0277751	-0.471667	-0.673132	-0.0399007	0.527349	0.00199109	0.0551071	-0.0413345
0.925156	-0.867074	-10.5919	1.49181	-0.0306432	-0.316969	2.47499	5.8097	-1.78667	-0.654916	-0.288444	0.72968	-0.0926887	-0.0279886	-3.9036	-29.1964	3.60704	-15.3958	-13.034	4.52162	-0.0253966	8.26677	1.56531	1.74878	-0.860611	-1.57736	-0.0940403	0.270144	0.00479217	0.0449704	-0.0275805	-0.471329	-0.619489	-0.047652	0.554699	0.000255248	0.0574865	-0.0454586
0.935104	-0.969834	-9.4012	1.54113	-0.0416701	-0.357511	2.43546	5.16372	-1.67102	-0.652967	0.156224	0.698764	-0.0863125	-0.0271444	-3.46161	-28.8359	3.33202	-13.7898	-14.4577	4.55322	-0.0253824	7.59092	1.25809	2.16999	-0.754726	-1.55793	-0.0935292	0.276246	0.00538505	0.0458321	-0.0281881	-0.47031	-0.569597	-0.0529968	0.578738	-0.00141937	0.0596784	-0.0489972
0.945052	-1.03943	-8.23983	1.5837	-0.0720515	-0.3912	2.3503	4.56543	-1.55745	-0.630584	0.578539	0.679269	-0.0836963	-0.0266399	-3.03148	-28.4815	3.04602	-12.1653	-15.8572	4.58934	-0.0253291	6.8956	0.99227	2.53774	-0.642094	-1.52897	-0.0953922	0.285326	0.00583697	0.0464054	-0.0294869	-0.469988	-0.525087	-0.0552618	0.59906	-0.00311955	0.0616983	-0.0517765
0.955	-1.0588	-7.1867	1.62707	-0.116198	-0.412344	2.20559	4.01709	-1.44856	-0.58553	0.968852	0.668834	-0.084267	-0.026359	-2.59662	-28.1607	2.74993	-10.5568	-17.2298	4.63097	-0.0252343	6.24227	0.781341	2.84997	-0.531018	-1.49115	-0.0990056	0.296972	0.00626157	0.0467977	-0.0312767	-0.471144	-0.486933	-0.0538875	0.615687	-0.00503141	0.0636093	-0.0536797
0.964948	-0.928601	-6.33551	1.66685	-0.176549	-0.411183	1.96972	3.50913	-1.33364	-0.51723	1.32412	0.663328	-0.0866882	-0.0261275	-2.11638	-27.9298	2.44068	-8.99665	-18.5771	4.67752	-0.0250587	5.69085	0.660886	3.07905	-0.430477	-1.44779	-0.103738	0.310029	0.00687787	0.047067	-0.0333536	-0.473949	-0.452838	-0.048446	0.629144	-0.00754584	0.0654973	-0.0546135
0.974896	-0.818597	-5.65461	1.70263	-0.231567	-0.399415	1.71421	3.06789	-1.23538	-0.428614	1.63376	0.663749	-0.0912742	-0.025986	-1.64488	-27.7448	2.13218	-7.50058	-19.9038	4.73047	-0.024858	5.24245	0.556765	3.25574	-0.338189	-1.39827	-0.108142	0.32452	0.00703279	0.047226	-0.035351	-0.486389	-0.429618	-0.0420897	0.637579	-0.00935857	0.0669824	-0.0549482
0.984844	-0.722824	-5.14374	1.74268	-0.275806	-0.377813	1.44726	2.69201	-1.1436	-0.32689	1.89692	0.668828	-0.0971837	-0.0259078	-1.18337	-27.5982	1.82683	-6.08377	-21.2161	4.78883	-0.0246463	4.90171	0.472846	3.39035	-0.258264	-1.3449	-0.111804	0.339376	0.00677278	0.0472674	-0.0370879	-0.50615	-0.417349	-0.0350422	0.641553	-0.0104897	0.0680759	-0.0547266
0.994792	-0.641607	-4.7883	1.78986	-0.299842	-0.347542	1.17949	2.37984	-1.05034	-0.219177	2.11469	0.678035	-0.103799	-0.0259039	-0.734105	-27.4778	1.52679	-4.75505	-22.5211	4.85103	-0.024437	4.65958	0.410919	3.49005	-0.193509	-1.29013	-0.114378	0.353436	0.00616711	0.047159	-0.0384065	-0.530354	-0.415993	-0.0276357	0.641587	-0.0109839	0.0687676	-0.054005
1.00474	-0.584656	-4.55936	1.84096	-0.302039	-0.307628	0.922886	2.1259	-0.952867	-0.111186	2.29041	0.691487	-0.110808	-0.0260173	-0.29878	-27.3684	1.23374	-3.51782	-23.826	4.91502	-0.0242426	4.49584	0.371243	3.55882	-0.145199	-1.23627	-0.115624	0.365614	0.0053006	0.0468574	-0.039193	-0.555845	-0.425217	-0.0202387	0.638153	-0.0109099	0.0690364	-0.0528436
1.01469	-0.564569	-4.41931	1.88767	-0.281116	-0.264705	0.683493	1.92119	-0.851226	-0.00763411	2.42892	0.709739	-0.118103	-0.0263133	0.120774	-27.2552	0.948782	-2.37042	-25.1382	4.97848	-0.024072	4.38425	0.352521	3.59731	-0.11314	-1.18545	-0.115433	0.374968	0.00426483	0.0463129	-0.0393837	-0.57934	-0.444197	-0.0131793	0.631725	-0.0103639	0.0688678	-0.0513007
1.02464	-0.589752	-4.31484	1.92671	-0.237161	-0.216398	0.458745	1.75001	-0.748427	0.0885531	2.5372	0.733494	-0.125756	-0.0268661	0.524121	-27.1285	0.672086	-1.30716	-26.4652	5.0391	-0.0239287	4.29063	0.351747	3.61194	-0.0957053	-1.13928	-0.113639	0.380805	0.00316746	0.0454933	-0.0389184	-0.598076	-0.471769	-0.00669399	0.622676	-0.00948277	0.0682533	-0.0494195
1.03458	-0.672748	-4.18496	1.95314	-0.176408	-0.173105	0.255781	1.59231	-0.650946	0.17521	2.62312	0.763284	-0.133949	-0.0277407	0.910435	-26.9799	0.404591	-0.31979	-27.8142	5.09498	-0.0238182	4.17588	0.366745	3.60949	-0.0906043	-1.09892	-0.11047	0.382906	0.0021191	0.0444086	-0.0378506	-0.609805	-0.506703	-0.00105562	0.611385	-0.00837945	0.0671941	-0.0472587
1.04453	-0.801989	-3.98229	1.9631	-0.111478	-0.136008	0.0751838	1.42318	-0.553554	0.248561	2.69684	0.799143	-0.142489	-0.0289887	1.28496	-26.8062	0.146545	0.600845	-29.1921	5.14475	-0.0237398	4.01389	0.399416	3.59296	-0.0946512	-1.06537	-0.106269	0.381311	0.00122526	0.0430707	-0.0362778	-0.612285	-0.547099	0.00382305	0.598309	-0.00720999	0.0657474	-0.0448287
1.05448	-0.91876	-3.71243	1.9523	-0.0440331	-0.109254	-0.0841271	1.21871	-0.448113	0.311283	2.77249	0.841211	-0.151315	-0.0306732	1.66927	-26.621	-0.103055	1.46185	-30.6052	5.18771	-0.0236596	3.8105	0.46555	3.55324	-0.103961	-1.03924	-0.101359	0.376375	0.000607757	0.041504	-0.0343305	-0.602762	-0.589795	0.00875758	0.583129	-0.00615837	0.0639485	-0.0418964
1.06443	-0.970307	-3.32966	1.94246	0.0265454	-0.0757085	-0.208707	0.947206	-0.326734	0.361524	2.86282	0.88778	-0.160011	-0.0327652	2.07626	-26.44	-0.343148	2.26964	-32.0577	5.22386	-0.0235758	3.54353	0.581127	3.51247	-0.11741	-1.02045	-0.0968836	0.368972	0.000509092	0.0398287	-0.0322955	-0.580159	-0.632341	0.0147284	0.566627	-0.00540734	0.0620458	-0.0383834
1.07437	-0.998986	-2.8042	1.89118	0.101263	-0.0183235	-0.305329	0.579204	-0.181918	0.397009	2.98077	0.935423	-0.167791	-0.0351503	2.51654	-26.2688	-0.571029	3.02897	-33.5516	5.25398	-0.0234995	3.19986	0.701668	3.43907	-0.129003	-1.01038	-0.0926229	0.359837	0.000624182	0.0380609	-0.0302441	-0.5524	-0.673495	0.0194295	0.548751	-0.00442799	0.0598451	-0.0347103
1.08432	-0.97173	-2.12959	1.80462	0.145598	0.0617763	-0.376838	0.0899329	0.00604609	0.414947	3.14021	0.97964	-0.173469	-0.037662	3.00705	-26.1167	-0.784673	3.7412	-35.0865	5.27918	-0.02344	2.77921	0.830065	3.33225	-0.138251	-1.00927	-0.0894858	0.350034	0.000983723	0.0363249	-0.0284544	-0.520023	-0.711997	0.0222403	0.530274	-0.00323658	0.0573408	-0.0310757
1.09427	-0.855494	-1.37323	1.70225	0.159222	0.206341	-0.491332	-0.540269	0.247057	0.416175	3.35468	1.01558	-0.176221	-0.0400979	3.56832	-26.0014	-0.982565	4.40358	-36.6599	5.30061	-0.0233976	2.34783	0.964625	3.20826	-0.141375	-1.01526	-0.0864652	0.340838	0.00132796	0.0347814	-0.0268309	-0.476798	-0.744935	0.0263209	0.513453	-0.00264699	0.0551776	-0.0272538
1.10422	-0.669428	-0.611815	1.57948	0.156991	0.37469	-0.626757	-1.30848	0.528682	0.40329	3.63087	1.03799	-0.175804	-0.0422012	4.23082	-25.9385	-1.16253	5.00662	-38.2668	5.31928	-0.0233784	1.93687	1.08883	3.06915	-0.138929	-1.02716	-0.0841776	0.33351	0.00161942	0.0335728	-0.0256104	-0.425957	-0.771298	0.031935	0.499214	-0.00264705	0.0535465	-0.0233765
1.11417	-0.458052	0.0505777	1.43034	0.0959537	0.42693	-0.570068	-2.18407	0.822755	0.378531	3.96702	1.04182	-0.172308	-0.0436952	5.03343	-25.9344	-1.32281	5.5356	-39.9004	5.33581	-0.0233801	1.5636	1.18644	2.91671	-0.129701	-1.04483	-0.0837084	0.329143	0.00179968	0.0327602	-0.0250943	-0.368652	-0.790115	0.0390868	0.488559	-0.00323184	0.0525864	-0.0196065
1.12411	-0.226214	0.787351	1.24764	0.0756755	0.311535	-0.366824	-3.19337	1.12783	0.342043	4.38263	1.0215	-0.165533	-0.0443136	5.92761	-26.0119	-1.46124	6	-41.5517	5.34959	-0.0234208	1.14422	1.24295	2.74185	-0.119379	-1.06854	-0.0862083	0.327632	0.00205278	0.0323398	-0.0254898	-0.314884	-0.805005	0.0451571	0.479502	-0.00368532	0.0517893	-0.0161687
1.13406	0.073249	1.84686	1.03704	0.0801596	0.318168	-0.358455	-4.39116	1.40728	0.297493	4.90131	0.973774	-0.157013	-0.0438634	6.81505	-26.211	-1.57548	6.42056	-43.211	5.35868	-0.0235257	0.632663	1.29646	2.54774	-0.115077	-1.09823	-0.0905518	0.327977	0.00237746	0.0323249	-0.0264736	-0.266113	-0.819394	0.0501676	0.471465	-0.00405064	0.0510846	-0.0129481
1.14401	0.464658	4.39543	-0.0538127	13.4625	8.14464	-22.5936	-7.08995	2.53279	0.22952	5.95626	0.902298	-0.142573	-0.0431431	6.04286	-27.4534	-1.64611	7.20985	-44.8618	5.3449	-0.0242277	2.0555	-0.0542368	2.23925	-0.421877	-0.974789	-0.0388293	0.318092	0.00609009	0.0367256	-0.0176327	-0.472537	-1.01316	0.07089	0.40557	-0.00304152	0.0494111	-0.0026468
1.15396	0.718372	5.28587	-0.0240312	7.84117	2.80918	-13.7679	-7.95653	2.19836	0.182755	6.41748	0.797315	-0.137873	-0.0397894	7.58822	-27.5358	-1.71787	7.3435	-46.5357	5.33322	-0.0241125	0.520696	0.61058	2.06559	-0.309159	-1.07114	-0.070071	0.324517	0.00518724	0.0355751	-0.0237317	-0.333309	-0.952771	0.0680947	0.420102	-0.0039758	0.0490525	-0.00239791
1.16391	0.824303	5.92261	-0.0726988	2.64095	-2.26238	-5.20581	-8.67157	1.68368	0.118894	6.84798	0.675182	-0.135912	-0.0354005	9.16073	-27.7305	-1.76304	7.38359	-48.2012	5.30055	-0.0240147	-0.944673	1.23514	1.92717	-0.216044	-1.16142	-0.101362	0.333095	0.00455535	0.0349969	-0.0300987	-0.200304	-0.904736	0.0640929	0.433792	-0.00520406	0.0485838	-0.00214482
1.17385	0.649662	6.18433	-0.296161	-1.42167	-7.30051	2.40665	-9.18566	1.07262	0.0529451	7.19722	0.543118	-0.133936	-0.0302601	10.7269	-28.0204	-1.77811	7.31303	-49.8367	5.24505	-0.0239064	-2.27157	1.66729	1.76508	-0.14012	-1.23622	-0.126942	0.342447	0.00362072	0.0348557	-0.0355938	-0.0880118	-0.874528	0.0573728	0.442765	-0.00606641	0.0475303	-0.00185264
1.1838	0.208603	5.90851	-0.646983	-4.35405	-11.9533	8.82273	-9.34167	0.420481	-0.00446385	7.37796	0.413927	-0.130144	-0.0248368	12.2697	-28.3487	-1.76075	7.10997	-51.417	5.1648	-0.0237602	-3.42351	1.91753	1.5957	-0.0829413	-1.29533	-0.145795	0.351434	0.00234228	0.0350455	-0.0399266	0.00127342	-0.862265	0.0482954	0.446712	-0.00649985	0.0458794	-0.00145282
1.19375	-0.477922	4.93624	-1.06996	-6.26253	-15.9212	13.7585	-8.98933	-0.221114	-0.0373993	7.29448	0.30154	-0.122671	-0.0196547	13.7697	-28.6514	-1.70913	6.7536	-52.913	5.05793	-0.0235415	-4.36377	2.00662	1.43518	-0.0447531	-1.34019	-0.157459	0.358668	0.000672993	0.0353975	-0.0429029	0.0640176	-0.866041	0.0378458	0.445354	-0.00640238	0.0437045	-0.000841823
1.2037	-1.41425	3.10074	-1.513	-7.45458	-18.7737	17.0814	-7.95652	-0.854047	-0.0352211	6.84119	0.220187	-0.111432	-0.0152123	15.2073	-28.8564	-1.6217	6.22443	-54.2932	4.92387	-0.023203	-5.06104	1.97352	1.30798	-0.0244439	-1.37478	-0.162323	0.363058	-0.00144947	0.035768	-0.0445098	0.0980724	-0.882366	0.0272549	0.438985	-0.0056738	0.0411462	6.21102e-05
1.21365	-2.53664	0.700194	-1.91144	-8.07834	-20.0867	18.4539	-6.45674	-1.41396	0.000983318	6.11829	0.170098	-0.0967969	-0.011714	16.5546	-28.9014	-1.49506	5.50697	-55.5235	4.76458	-0.0226732	-5.5197	1.84072	1.25418	-0.0146783	-1.40208	-0.160242	0.365321	-0.0043248	0.0362391	-0.0447423	0.103747	-0.90949	0.0167907	0.427664	-0.00416094	0.0381909	0.00129968
1.22359	-3.68311	-1.86365	-2.23527	-8.26519	-20.4739	17.8262	-4.92383	-1.84001	0.0535307	5.35002	0.143336	-0.0814805	-0.00918136	17.8865	-28.7961	-1.33955	4.58032	-56.5645	4.58168	-0.021978	-5.81714	1.6635	1.28615	-0.0141993	-1.42445	-0.154363	0.363172	-0.0072093	0.0363393	-0.0439709	0.0816178	-0.943008	0.00905193	0.412302	-0.00223281	0.0353496	0.00296771
1.23354	-4.80335	-4.23509	-2.47244	-8.1872	-19.9722	15.1048	-3.66911	-2.13692	0.107539	4.68777	0.132696	-0.0685777	-0.00752608	19.2124	-28.5203	-1.15671	3.43701	-57.3775	4.38062	-0.0210813	-5.9908	1.47548	1.42433	-0.0196537	-1.44438	-0.146424	0.356789	-0.0099278	0.036038	-0.0424874	0.0337371	-0.980193	0.00545732	0.39326	-9.26156e-06	0.0328595	0.00521652
1.24349	-5.86024	-6.17991	-2.60871	-8.07	-18.2393	10.4716	-2.84812	-2.34611	0.150407	4.20385	0.134517	-0.0610969	-0.00668205	20.5455	-28.0627	-0.949119	2.07409	-57.9219	4.16754	-0.0199669	-6.08776	1.31995	1.69067	-0.0301716	-1.46607	-0.138874	0.346735	-0.0121927	0.035381	-0.0407284	-0.0345825	-1.01834	0.00703085	0.372305	0.00221108	0.0310401	0.00803967
1.25344	-6.77078	-7.78036	-2.6847	-8.36202	-13.4407	5.05615	-2.3447	-2.57145	0.169993	3.85063	0.153897	-0.0625419	-0.00676107	22.0386	-27.4618	-0.736742	0.475272	-58.1499	3.94483	-0.0187496	-6.14523	1.29097	2.04358	-0.0544641	-1.50026	-0.137107	0.333716	-0.0132478	0.0343986	-0.03968	-0.104912	-1.05366	0.0136122	0.358106	0.00328253	0.0307005	0.0106727
1.26339	-7.41584	-9.24327	-2.82652	-9.15058	-1.69825	0.911198	-1.70463	-2.94076	0.160082	3.43354	0.20824	-0.0761961	-0.00821377	23.8701	-26.805	-0.544691	-1.38225	-58.0061	3.71013	-0.0176542	-6.26171	1.45946	2.36912	-0.105614	-1.55468	-0.146752	0.324931	-0.0124954	0.0341784	-0.0408602	-0.147292	-1.09418	0.0182378	0.366188	0.0014461	0.0324928	0.010775
1.27333	-7.82297	-10.3522	-2.85821	-10.4479	13.7823	-3.64929	-1.14247	-3.34428	0.130473	3.01654	0.286288	-0.0988456	-0.010699	25.6968	-25.9375	-0.34398	-3.4425	-57.4482	3.46637	-0.0166058	-6.37647	1.82398	2.78277	-0.172609	-1.6098	-0.161151	0.31826	-0.0102463	0.0346706	-0.0428088	-0.184107	-1.13355	0.0255587	0.381995	-0.00165232	0.0355564	0.0102813
1.28328	-8.09972	-11.2179	-2.76505	-12.0917	31.3595	-9.10711	-0.569224	-3.76561	0.0912899	2.53043	0.387512	-0.128498	-0.0141186	27.3356	-24.8015	-0.128305	-5.66561	-56.4261	3.20964	-0.0156322	-6.46019	2.30551	3.28945	-0.245588	-1.65366	-0.175782	0.313946	-0.00704905	0.0359391	-0.0447522	-0.22764	-1.1695	0.035614	0.397887	-0.00497502	0.0391358	0.00976682
1.29323	-8.62494	-12.1375	-2.77503	-13.2495	50.2914	-15.457	0.128009	-4.18906	0.0526284	1.90839	0.50975	-0.162301	-0.0182879	28.7365	-23.3977	0.0899184	-8.01256	-54.8884	2.93329	-0.014838	-6.40958	2.55982	3.75386	-0.293978	-1.67211	-0.179073	0.312875	-0.00494657	0.0376757	-0.0448624	-0.290076	-1.20513	0.0440629	0.407369	-0.00716861	0.0420697	0.00907875
1.30318	-9.11623	-12.7279	-2.70724	-14.1879	70.8596	-22.33	0.793986	-4.51129	0.0183454	1.25124	0.640904	-0.196481	-0.0228763	29.8106	-21.7084	0.297886	-10.411	-52.7891	2.63331	-0.0144311	-6.31414	2.73191	4.22092	-0.32848	-1.68007	-0.180381	0.313838	-0.0029638	0.0395024	-0.0447894	-0.357057	-1.2408	0.0499743	0.412935	-0.00881482	0.0443936	0.00801548
1.31312	-9.52752	-12.8001	-2.53883	-14.7209	93.4384	-29.2687	1.33859	-4.65586	-0.0121342	0.633367	0.769395	-0.22761	-0.0275103	30.507	-19.748	0.477208	-12.7701	-50.0948	2.30803	-0.0146344	-6.19042	2.77767	4.6609	-0.345192	-1.68095	-0.180476	0.31671	-0.00122484	0.0411755	-0.0447332	-0.418942	-1.27912	0.0505139	0.415802	-0.00998365	0.0458009	0.006147
1.32307	-9.81906	-12.2306	-2.25532	-14.7097	118.38	-35.8144	1.71276	-4.57031	-0.03986	0.106074	0.885242	-0.252588	-0.0318405	30.7832	-17.5485	0.60909	-14.9747	-46.7934	1.95994	-0.0156698	-6.04113	2.6654	5.0447	-0.342454	-1.67801	-0.18007	0.321005	0.000207246	0.0424636	-0.04485	-0.467087	-1.32202	0.0435899	0.417259	-0.0107533	0.0460911	0.0031192
1.33302	-9.95949	-10.9665	-1.86013	-14.0283	145.924	-41.5426	1.90316	-4.2266	-0.0657608	-0.301316	0.980792	-0.268944	-0.0355787	30.614	-15.1646	0.677757	-16.8941	-42.9019	1.59619	-0.0177281	-5.85934	2.37203	5.34349	-0.320527	-1.67299	-0.179481	0.326214	0.00132164	0.0432046	-0.0451972	-0.495157	-1.37061	0.0279709	0.4184	-0.011172	0.0451799	-0.00132213
1.34297	-9.93434	-9.03569	-1.38194	-12.5651	176.099	-46.0906	1.92635	-3.62442	-0.0905136	-0.579003	1.05114	-0.275171	-0.038519	30.0025	-12.6716	0.672851	-18.3947	-38.4738	1.22858	-0.0209375	-5.63059	1.88118	5.52854	-0.28115	-1.66531	-0.178488	0.332032	0.0021491	0.0433378	-0.0457125	-0.500627	-1.42478	0.00353134	0.419916	-0.0112267	0.0431342	-0.00728882
1.35292	-9.58815	-6.57585	-0.750871	-10.7507	209.173	-48.9076	1.8522	-2.83026	-0.118603	-0.743647	1.09529	-0.271829	-0.040541	29.0275	-10.1822	0.588179	-19.3584	-33.6041	0.871392	-0.0253018	-5.32724	1.34185	5.65809	-0.23446	-1.65995	-0.180091	0.338785	0.00301103	0.0431476	-0.0468595	-0.471048	-1.47776	-0.0256788	0.425372	-0.0115891	0.0407395	-0.0144205
1.36286	-8.97157	-3.70589	-0.0773238	-8.32863	244.41	-49.9258	1.70725	-1.87284	-0.14735	-0.803164	1.11315	-0.259093	-0.0416286	27.7354	-7.80633	0.434582	-19.6846	-28.4301	0.54108	-0.0307361	-4.94593	0.70292	5.68417	-0.18061	-1.65212	-0.182421	0.346	0.00386902	0.0425518	-0.0482439	-0.414139	-1.53142	-0.0602583	0.432775	-0.0119731	0.0378089	-0.0227103
1.37281	-8.14352	-0.626748	0.526175	-5.2147	280.919	-49.1841	1.53261	-0.816495	-0.174709	-0.777066	1.10712	-0.238481	-0.041835	26.2143	-5.66061	0.232992	-19.3161	-23.1273	0.252135	-0.0370133	-4.46889	-0.0579939	5.57946	-0.122438	-1.63795	-0.183878	0.353259	0.00467392	0.0415612	-0.049502	-0.340831	-1.58366	-0.0986372	0.440675	-0.0120814	0.034532	-0.0318828
1.38276	-7.15777	2.41972	0.978101	-1.57528	317.672	-46.8849	1.36848	0.251873	-0.198827	-0.68988	1.08144	-0.212437	-0.0412713	24.5699	-3.84312	0.0121733	-18.2464	-17.9001	0.0147071	-0.0437521	-3.8611	-0.916489	5.3463	-0.0655961	-1.61523	-0.183253	0.360169	0.00533008	0.0403031	-0.0503211	-0.263343	-1.62759	-0.136849	0.44852	-0.0117193	0.0314955	-0.0413305
1.39271	-6.11053	5.21812	1.202	2.35641	353.188	-43.5411	1.22223	1.25301	-0.215905	-0.559154	1.04063	-0.183524	-0.0400786	22.8831	-2.40837	-0.194537	-16.5225	-12.9668	-0.166614	-0.0504967	-3.09286	-1.85263	4.98292	-0.0173893	-1.5814	-0.179113	0.365503	0.00581617	0.0388289	-0.0503103	-0.19945	-1.65443	-0.170489	0.455521	-0.0106544	0.0293573	-0.050338
1.40266	-5.12082	7.57835	1.13873	6.21902	385.728	-39.9605	1.07187	2.10678	-0.221453	-0.396744	0.989303	-0.154527	-0.0384072	21.2025	-1.38148	-0.352071	-14.2504	-8.54078	-0.293165	-0.0567297	-2.12081	-2.84143	4.48921	0.0126773	-1.53572	-0.170032	0.366961	0.00609854	0.0370947	-0.049044	-0.169791	-1.6526	-0.194828	0.461354	-0.00860373	0.028839	-0.0581008
1.4126	-4.165	9.32225	0.924605	8.89116	413.535	-37.1541	0.865937	2.71911	-0.210451	-0.209398	0.932202	-0.128659	-0.0364076	19.5442	-0.708013	-0.441538	-11.5976	-4.81038	-0.368665	-0.0619352	-0.84907	-3.66505	3.95851	0.00687383	-1.48479	-0.158022	0.361127	0.00644503	0.0350805	-0.0466484	-0.177373	-1.60063	-0.199684	0.469167	-0.00648524	0.0313031	-0.0630401
1.42255	-3.37224	10.4657	0.570443	10.2237	435.581	-35.5128	0.612282	3.03868	-0.18261	-0.0158226	0.874285	-0.108305	-0.034241	17.9407	-0.32971	-0.458943	-8.80286	-1.91294	-0.397721	-0.0657612	0.636428	-4.29611	3.39891	-0.033419	-1.43283	-0.144134	0.348138	0.00673555	0.0327899	-0.0433451	-0.219103	-1.50592	-0.188392	0.478778	-0.00439691	0.0361097	-0.0652938
1.4325	-2.87581	11.0152	0.0974405	10.3632	451.267	-35.1293	0.349337	3.06108	-0.141298	0.161556	0.820322	-0.0946516	-0.0320742	16.4927	-0.153365	-0.430077	-6.20056	0.0880217	-0.385315	-0.0680134	2.20319	-4.73414	2.81724	-0.101948	-1.38157	-0.13003	0.330763	0.00687702	0.0304566	-0.0396308	-0.28318	-1.383	-0.166204	0.489899	-0.00247471	0.04237	-0.0653438
1.44245	-2.71885	11.0492	-0.514232	10.048	460.644	-35.7142	0.143939	2.84819	-0.0937852	0.299925	0.774062	-0.0871712	-0.0300599	15.3278	-0.144792	-0.37498	-4.15338	1.24272	-0.345673	-0.0686688	3.65793	-5.03605	2.2011	-0.186048	-1.32751	-0.117418	0.314694	0.00685018	0.0285575	-0.0361972	-0.353117	-1.25528	-0.140852	0.501268	-0.000770011	0.0489154	-0.0641148
1.4524	-2.92331	10.6339	-1.30326	10.3617	463.964	-36.7439	0.0782611	2.52828	-0.0505535	0.381028	0.737695	-0.0836013	-0.0283235	14.6229	-0.256885	-0.326457	-3.06353	1.69654	-0.30556	-0.0678761	4.77176	-5.30049	1.52482	-0.270045	-1.26177	-0.108025	0.307706	0.00681482	0.0277698	-0.0338792	-0.413146	-1.15133	-0.121072	0.510539	0.000823757	0.0545282	-0.0627588
1.46234	-3.51768	9.66213	-2.31439	12.2408	461.186	-37.9781	0.210503	2.26063	-0.0220319	0.39929	0.711444	-0.0807675	-0.0269433	14.5872	-0.407881	-0.334149	-3.38392	1.67868	-0.3103	-0.0658713	5.42724	-5.6452	0.761593	-0.336465	-1.17495	-0.100838	0.316525	0.00648553	0.0287165	-0.0329461	-0.450419	-1.0928	-0.111226	0.515331	0.0021207	0.0585318	-0.0618625
1.47229	-3.98152	9.53834	-3.34751	16.3079	461.169	-37.3389	0.55732	2.17855	-0.015619	0.362198	0.69402	-0.0759171	-0.0259456	14.3668	-0.657671	-0.325939	-3.58797	1.63294	-0.306392	-0.0629276	5.61401	-6.11306	-0.0903143	-0.379071	-1.06369	-0.0949437	0.343947	0.00575607	0.0317263	-0.0334455	-0.461056	-1.092	-0.112656	0.512921	0.00304015	0.060489	-0.0615883
1.48224	-4.16294	10.0626	-4.12382	20.7458	462.884	-35.3557	1.01956	2.2614	-0.0272323	0.291069	0.683155	-0.0695353	-0.0252542	13.9715	-0.838085	-0.33566	-3.67063	1.56128	-0.291832	-0.0592687	5.49614	-6.40659	-0.892707	-0.405246	-0.95235	-0.0922658	0.381191	0.00461379	0.0358987	-0.035133	-0.436431	-1.11309	-0.115138	0.50722	0.002893	0.0611492	-0.0606834
1.49219	-4.17883	10.9173	-4.51642	23.5915	464.348	-33.404	1.40897	2.42463	-0.0457595	0.228549	0.675706	-0.0635098	-0.0247633	13.3562	-0.792691	-0.399898	-3.63164	1.46575	-0.265707	-0.0550738	5.34879	-6.38626	-1.59429	-0.437636	-0.865817	-0.0919021	0.41392	0.00315211	0.0398174	-0.0370037	-0.399821	-1.12609	-0.113645	0.498475	0.0021764	0.0607708	-0.0585786
1.50214	-4.17065	11.9452	-4.52987	24.193	464.504	-32.3529	1.60129	2.61379	-0.0618849	0.2052	0.669753	-0.0589245	-0.0244114	12.498	-0.509346	-0.524151	-3.47431	1.35059	-0.229873	-0.0505192	5.32165	-6.08771	-2.17829	-0.490356	-0.809996	-0.0917338	0.435176	0.00155778	0.0428571	-0.0382451	-0.366222	-1.12172	-0.1069	0.485694	0.00123109	0.0593821	-0.0551484
1.51208	-4.19902	13.2655	-4.23674	23.2104	463.784	-31.6149	1.62591	2.80458	-0.0744675	0.213153	0.665447	-0.0560599	-0.0241788	11.4613	-0.0799975	-0.688887	-3.20541	1.22418	-0.188016	-0.0458896	5.26305	-5.62573	-2.64384	-0.552053	-0.77913	-0.0914829	0.448604	-1.88309e-05	0.0453649	-0.0389463	-0.324931	-1.10943	-0.0984861	0.469387	8.60616e-05	0.0567784	-0.0510498
1.52203	-4.29214	14.8898	-3.71237	21.2108	462.502	-30.7572	1.52276	2.98041	-0.0828836	0.2426	0.662731	-0.0548239	-0.0240413	10.3242	0.42041	-0.874932	-2.84106	1.09527	-0.143791	-0.0414472	5.08193	-5.09503	-2.99358	-0.61397	-0.768011	-0.0908583	0.456899	-0.00142418	0.0475867	-0.0391687	-0.271842	-1.0931	-0.0903566	0.450766	-0.00114421	0.0531145	-0.046722
1.53198	-4.43878	16.7677	-3.04668	18.7959	460.991	-29.4999	1.33417	3.14692	-0.0857967	0.284837	0.661937	-0.0545546	-0.0240109	9.17355	0.922692	-1.06138	-2.40188	0.974498	-0.101283	-0.0375252	4.73543	-4.57862	-3.24305	-0.669924	-0.771315	-0.0893775	0.462277	-0.00244926	0.0497396	-0.0389572	-0.207863	-1.07528	-0.0836337	0.431127	-0.00231293	0.048727	-0.0424694
1.54193	-4.60483	18.7863	-2.27498	16.166	459.356	-27.6889	1.10877	3.28801	-0.084896	0.328287	0.662701	-0.0551067	-0.024048	8.07447	1.39306	-1.23567	-1.91039	0.867795	-0.0629278	-0.0342475	4.22677	-4.09908	-3.38209	-0.716279	-0.785853	-0.0873094	0.465791	-0.00307978	0.0518738	-0.0384151	-0.136648	-1.05326	-0.0780836	0.411872	-0.00319305	0.0440244	-0.0383941
1.55187	-4.77505	20.7956	-1.38072	13.0518	457.576	-25.2115	0.903288	3.34502	-0.0850076	0.356474	0.664452	-0.0574112	-0.0240656	7.06994	1.83556	-1.39386	-1.3895	0.776027	-0.0294067	-0.0315264	3.58592	-3.62479	-3.37529	-0.751525	-0.811459	-0.0856832	0.467408	-0.00344055	0.053885	-0.0377034	-0.0626923	-1.01945	-0.0727132	0.394786	-0.0034399	0.0394278	-0.0345287
1.56182	-4.8786	22.6986	-0.534329	10.3951	455.816	-22.4391	0.710643	3.3911	-0.0795387	0.377306	0.666729	-0.05928	-0.0241135	6.20148	2.16484	-1.50895	-0.860692	0.707013	-0.00436155	-0.029594	2.89659	-3.25355	-3.31594	-0.7736	-0.836532	-0.081655	0.468727	-0.00335376	0.0559303	-0.0365108	0.0101593	-0.979163	-0.0672238	0.380757	-0.00365218	0.0354102	-0.0310055
1.57177	-4.89158	24.4049	0.238503	8.24812	454.149	-19.4849	0.555306	3.4247	-0.0696025	0.386114	0.669244	-0.0604995	-0.0241732	5.48292	2.3786	-1.57657	-0.34098	0.661284	0.0117775	-0.0284099	2.20733	-2.97797	-3.21484	-0.783386	-0.85955	-0.0755729	0.469581	-0.00286906	0.0578836	-0.0349121	0.0786102	-0.93357	-0.0616783	0.370208	-0.00382583	0.0321334	-0.0279648
1.58172	-4.80597	25.8636	0.920119	6.62482	452.648	-16.4605	0.453049	3.44236	-0.0563549	0.380139	0.671803	-0.0610449	-0.0242307	4.91199	2.48005	-1.59437	0.156246	0.637759	0.0191377	-0.0278934	1.55511	-2.7867	-3.08435	-0.781878	-0.879216	-0.0678843	0.469945	-0.00205429	0.0596368	-0.0330051	0.140979	-0.885435	-0.0565059	0.363216	-0.00398494	0.0296344	-0.0255771
1.59167	-4.62902	27.0636	1.49973	5.51244	451.39	-13.4512	0.41265	3.43982	-0.0410008	0.358133	0.674291	-0.0610308	-0.0242763	4.47406	2.47714	-1.56176	0.621204	0.634217	0.0182784	-0.0279417	0.960128	-2.66756	-2.93785	-0.769894	-0.894391	-0.059068	0.469996	-0.000989295	0.0611183	-0.0308982	0.197288	-0.838931	-0.0525243	0.35953	-0.00417041	0.0278326	-0.0240377
1.60161	-4.38102	28.0267	1.96877	4.90982	450.431	-10.5354	0.435766	3.41452	-0.0247757	0.320545	0.676606	-0.0606399	-0.0243031	4.14446	2.37856	-1.47894	1.04776	0.647774	0.0100156	-0.028446	0.428535	-2.6143	-2.79063	-0.748251	-0.903793	-0.0495124	0.470107	0.000240142	0.0623024	-0.0286907	0.248634	-0.79927	-0.0508454	0.358522	-0.00441767	0.0265521	-0.0235402
1.61156	-4.08781	28.8058	2.3238	4.80486	449.812	-7.74912	0.520422	3.36672	-0.00898848	0.268846	0.678638	-0.0600541	-0.0243071	3.89101	2.19452	-1.34729	1.434	0.675283	-0.00465217	-0.0293063	-0.0508235	-2.62329	-2.65897	-0.717281	-0.906492	-0.0395518	0.470769	0.00153737	0.0632004	-0.0264704	0.296644	-0.771764	-0.0527591	0.35931	-0.00473026	0.0255639	-0.0242597
1.62151	-3.78453	29.4694	2.56144	5.19226	449.559	-5.12012	0.662775	3.29841	0.00476477	0.205019	0.680306	-0.059489	-0.0242858	3.67536	1.93505	-1.16935	1.78246	0.713615	-0.024616	-0.0304401	-0.496972	-2.69983	-2.56114	-0.677423	-0.901972	-0.0293515	0.472424	0.00279378	0.0638481	-0.0242855	0.342161	-0.761162	-0.0595573	0.360829	-0.00504457	0.024646	-0.0263339
1.63146	-3.52966	30.0907	2.68117	6.03066	449.719	-2.63763	0.864951	3.20581	0.0137292	0.129639	0.681655	-0.0593862	-0.0242337	3.45454	1.61547	-0.950018	2.101	0.759634	-0.0485416	-0.0317806	-0.935067	-2.85969	-2.51288	-0.628908	-0.890835	-0.0189047	0.47526	0.00388229	0.0642771	-0.0221182	0.38389	-0.770472	-0.072334	0.362274	-0.00518812	0.0236998	-0.02987
1.64141	-3.3973	30.7417	2.67507	7.29758	450.353	-0.319101	1.12867	3.0818	0.0146383	0.0431815	0.682966	-0.060386	-0.0241514	3.18144	1.2488	-0.696202	2.4022	0.810705	-0.0750707	-0.0332939	-1.385	-3.13251	-2.53603	-0.572535	-0.874288	-0.00803137	0.479403	0.00466515	0.0645432	-0.0199168	0.416304	-0.800125	-0.0916998	0.36309	-0.00484908	0.0228225	-0.034862
1.65135	-3.57688	31.4479	2.53565	8.76492	451.761	2.0169	1.49529	2.87494	-0.00232988	-0.0641496	0.685318	-0.0645515	-0.0240168	2.82265	0.888889	-0.4256	2.70211	0.863997	-0.10174	-0.0349567	-1.86981	-3.56979	-2.63475	-0.507826	-0.857053	0.00351074	0.484281	0.00496945	0.0646233	-0.0175051	0.427814	-0.846277	-0.117561	0.364874	-0.00348729	0.0226703	-0.0413274
1.6613	-3.80537	32.3691	2.43699	9.94975	453.434	4.22733	1.88956	2.60887	-0.0288641	-0.175434	0.687385	-0.0709079	-0.0238216	2.30961	0.54341	-0.14842	3.02049	0.916412	-0.12692	-0.0367384	-2.41113	-3.95355	-2.73398	-0.444788	-0.838228	0.014386	0.489251	0.00523201	0.0647096	-0.0151701	0.442161	-0.885568	-0.138219	0.369455	-0.00250714	0.023745	-0.0471746
1.67125	-4.11353	33.561	2.38694	10.8305	455.227	6.207	2.287	2.29674	-0.0645159	-0.283649	0.68913	-0.0792938	-0.0235748	1.59608	0.241606	0.118759	3.37778	0.96504	-0.148528	-0.0386135	-3.00537	-4.28416	-2.83631	-0.386196	-0.81882	0.0244768	0.493807	0.00544239	0.064793	-0.0129263	0.458497	-0.916561	-0.153526	0.37603	-0.00187061	0.0258337	-0.0521837
1.6812	-4.51897	35.0667	2.38865	11.4047	456.954	7.83157	2.65248	1.9613	-0.106818	-0.379232	0.690434	-0.0891322	-0.023292	0.645	0.019311	0.357522	3.79357	1.00643	-0.164299	-0.0405258	-3.63872	-4.55636	-2.94124	-0.335589	-0.800374	0.0335585	0.496996	0.00562453	0.0647943	-0.0107816	0.477769	-0.939614	-0.163651	0.383247	-0.00159665	0.0285381	-0.056197
1.69115	-5.05388	36.8968	2.42117	11.6935	458.411	8.96483	2.94271	1.63671	-0.151109	-0.450757	0.691101	-0.0993728	-0.0229973	-0.560427	-0.0607666	0.543622	4.28408	1.03646	-0.171192	-0.0423873	-4.28308	-4.76872	-3.0504	-0.296846	-0.784125	0.0415284	0.497653	0.00581968	0.0645918	-0.00870811	0.501775	-0.956973	-0.169216	0.389296	-0.00170744	0.031324	-0.0591685
1.70109	-5.71665	39.0165	2.452	11.8305	459.556	9.56806	3.1305	1.35041	-0.194746	-0.490704	0.691427	-0.109273	-0.0227196	-2.00611	0.0112503	0.670529	4.85465	1.05138	-0.168248	-0.0440556	-4.9013	-4.93931	-3.16984	-0.272581	-0.77222	0.0483609	0.494854	0.00599878	0.0640692	-0.00666039	0.530356	-0.973333	-0.171811	0.392725	-0.00214822	0.0337406	-0.0613169
1.71104	-6.48455	41.3576	2.44613	11.9815	460.39	9.65113	3.18818	1.12881	-0.234083	-0.492044	0.691685	-0.117995	-0.0224887	-3.64678	0.230534	0.735353	5.50078	1.04737	-0.155191	-0.0453425	-5.45194	-5.08736	-3.3033	-0.265007	-0.766059	0.0541866	0.487973	0.00614987	0.0631454	-0.00457884	0.562294	-0.992904	-0.172805	0.392266	-0.00283654	0.0354351	-0.062851
1.72099	-7.31284	43.814	2.37262	12.3285	461.001	9.30838	3.09594	0.991972	-0.265643	-0.450249	0.692184	-0.124805	-0.022331	-5.40185	0.568736	0.740358	6.20581	1.02093	-0.132805	-0.046027	-5.89358	-5.23397	-3.45127	-0.27512	-0.766634	0.0591775	0.47694	0.00625151	0.0617999	-0.00242648	0.594307	-1.01928	-0.173476	0.387079	-0.0036433	0.0362146	-0.0639821
1.73094	-8.08646	46.258	2.23457	13.1245	461.561	8.74178	2.84298	0.950916	-0.286842	-0.363769	0.693089	-0.129128	-0.022256	-7.15725	0.920185	0.699761	6.94129	0.970274	-0.104798	-0.0458841	-6.19707	-5.39925	-3.60739	-0.302343	-0.77481	0.0634533	0.462128	0.00627411	0.060063	-0.000198988	0.620913	-1.05534	-0.174956	0.377115	-0.00438232	0.036135	-0.0649296
1.74089	-8.60276	48.5626	2.08903	14.6252	462.201	8.08077	2.42477	1.00856	-0.294285	-0.232708	0.694392	-0.130465	-0.0222747	-8.808	1.10519	0.633307	7.67332	0.894051	-0.0772843	-0.0446438	-6.32902	-5.5938	-3.76329	-0.344904	-0.791222	0.0671138	0.444022	0.00621387	0.057949	0.00212322	0.633566	-1.101	-0.178113	0.362306	-0.00477995	0.0353112	-0.0657537
1.75083	-8.70668	50.6167	2.00419	17.1549	463.208	7.57761	1.8369	1.16687	-0.284213	-0.0587638	0.695672	-0.128121	-0.0223732	-10.2138	0.937732	0.551788	8.35736	0.794338	-0.0573005	-0.0421634	-6.29329	-5.85195	-3.90061	-0.398125	-0.814418	0.0700711	0.42471	0.00601309	0.055659	0.00439431	0.621149	-1.15972	-0.18449	0.343066	-0.00450747	0.0340895	-0.0666307
1.76078	-8.18546	52.2692	2.09848	20.0071	464.507	7.40105	1.14336	1.36738	-0.26345	0.142673	0.697357	-0.123816	-0.0225271	-11.3263	0.347446	0.45808	8.96259	0.672339	-0.0483162	-0.0383492	-6.05973	-6.02325	-4.00539	-0.458451	-0.847491	0.0718077	0.403849	0.00573539	0.053126	0.00659033	0.59888	-1.20795	-0.185765	0.321824	-0.00431591	0.0324634	-0.0663095
1.77073	-6.97793	53.4174	2.45131	22.9702	466.167	7.62097	0.386817	1.56723	-0.23518	0.360593	0.699296	-0.118528	-0.022705	-12.0691	-0.743364	0.35116	9.44613	0.535058	-0.0545802	-0.033323	-5.64113	-6.09083	-4.06306	-0.519386	-0.890517	0.0718102	0.382652	0.00536152	0.050413	0.00858141	0.56616	-1.24422	-0.182585	0.299489	-0.00420226	0.0304619	-0.0650028
1.78068	-5.20441	53.9858	3.06966	25.582	468.17	8.14459	-0.384728	1.7251	-0.203557	0.58363	0.701367	-0.113387	-0.0228781	-12.3983	-2.2307	0.224224	9.76775	0.392084	-0.0748317	-0.027438	-5.06028	-6.03676	-4.05716	-0.574262	-0.9432	0.0694622	0.36224	0.00488196	0.0475797	0.0102106	0.520504	-1.26532	-0.175107	0.276989	-0.0041439	0.028227	-0.06278
1.79062	-3.07257	53.9244	3.89232	27.4819	470.616	8.83532	-1.14897	1.82523	-0.169513	0.805507	0.703114	-0.10871	-0.0230218	-12.2408	-3.91855	0.0725919	9.87764	0.256739	-0.105373	-0.0212529	-4.35763	-5.85943	-3.97361	-0.615962	-1.00339	0.0639603	0.344515	0.00426959	0.0447805	0.0111871	0.457902	-1.27034	-0.163335	0.254693	-0.00409302	0.0259528	-0.0596071
1.80057	-0.876509	53.2583	4.79212	28.6182	473.712	9.37626	-1.92351	1.89154	-0.127736	1.02868	0.703882	-0.10349	-0.023145	-11.5376	-5.5538	-0.0958831	9.72449	0.143554	-0.14057	-0.015434	-3.5777	-5.61368	-3.7979	-0.636595	-1.0663	0.054625	0.332515	0.00347496	0.0422939	0.0111371	0.366842	-1.26636	-0.149415	0.231483	-0.00376104	0.0238447	-0.0556162
1.81052	1.06726	52.0206	5.61725	28.5591	477.258	9.46113	-2.67444	1.91206	-0.0833183	1.24624	0.704128	-0.0986906	-0.0232565	-10.3248	-6.82269	-0.253548	9.27802	0.0639581	-0.171876	-0.0106219	-2.76168	-5.29485	-3.52944	-0.629268	-1.12993	0.0403771	0.327705	0.00249287	0.0402056	0.0097258	0.244105	-1.25014	-0.132086	0.207125	-0.0031893	0.0220472	-0.0504437
1.82047	2.50827	50.2626	6.21967	27.0918	481.036	8.92339	-3.37891	1.89297	-0.0405121	1.45357	0.704577	-0.0948815	-0.0233858	-8.63321	-7.47353	-0.371918	8.51833	0.0268018	-0.192236	-0.00734542	-1.9591	-4.90701	-3.17471	-0.586481	-1.19255	0.0197949	0.331669	0.00130282	0.0385761	0.00655051	0.0881381	-1.22056	-0.110467	0.181051	-0.00242508	0.0206168	-0.0437968
1.83042	3.33363	48.0551	6.50022	24.2663	484.878	7.77927	-4.05866	1.8676	0.00240836	1.65324	0.705281	-0.0913663	-0.0235618	-6.45545	-7.3809	-0.436083	7.43778	0.0370259	-0.198312	-0.00591786	-1.22464	-4.46084	-2.74309	-0.500555	-1.25356	-0.0089688	0.345906	-0.000181179	0.037405	0.00115589	-0.100973	-1.17804	-0.0840544	0.152698	-0.00146499	0.0195741	-0.0354823
1.84036	3.43515	45.3785	6.38822	20.2669	488.367	6.447	-4.59694	1.80005	0.0240259	1.8246	0.70979	-0.0915782	-0.0238585	-3.85876	-6.55163	-0.437653	6.06307	0.0927385	-0.188864	-0.00635342	-0.617826	-4.01293	-2.26719	-0.363029	-1.31439	-0.0478233	0.370827	-0.00187368	0.0364684	-0.00675987	-0.329856	-1.12862	-0.0561396	0.121791	-2.15802e-05	0.0191378	-0.0258442
1.85031	2.98563	42.4318	5.93405	15.4955	491.179	4.94787	-5.08667	1.77044	0.0346927	1.9835	0.716637	-0.092662	-0.0242877	-0.910374	-5.11839	-0.387495	4.4489	0.187785	-0.166534	-0.00845229	-0.17634	-3.56936	-1.75566	-0.172029	-1.37581	-0.0976933	0.40626	-0.00391854	0.0356411	-0.0173526	-0.593389	-1.07252	-0.0261708	0.0882724	0.00189543	0.0192421	-0.0148126
1.86026	2.21333	39.4015	5.22257	10.4994	492.939	3.45698	-5.57569	1.81987	0.0372377	2.13963	0.725494	-0.0935603	-0.0248726	2.26351	-3.31998	-0.305673	2.68458	0.310825	-0.136165	-0.0117752	0.0761182	-3.14372	-1.23776	0.0686673	-1.4373	-0.157841	0.45109	-0.00633664	0.0348237	-0.0304351	-0.882048	-1.01113	0.00568891	0.0524319	0.00420706	0.0197319	-0.00252452
1.87021	1.36234	36.4751	4.35826	5.88769	493.43	2.21619	-6.08424	1.95534	0.0303634	2.2995	0.736277	-0.0943758	-0.025615	5.48576	-1.45195	-0.217307	0.893545	0.446812	-0.104015	-0.0157231	0.140474	-2.7581	-0.761156	0.345705	-1.49676	-0.225181	0.502574	-0.00902101	0.0339433	-0.0453089	-1.18149	-0.947357	0.0386398	0.01514	0.00677501	0.0204168	0.0106309
1.88016	0.662123	33.8134	3.44493	2.32241	492.855	1.59944	-6.59138	2.14738	0.00911713	2.46469	0.749099	-0.0962353	-0.0264857	8.55499	0.165894	-0.150875	-0.770332	0.578312	-0.0771953	-0.0195958	0.0465838	-2.44579	-0.395036	0.632856	-1.5496	-0.29355	0.556038	-0.011691	0.0330024	-0.060616	-1.47034	-0.886922	0.0710959	-0.0220239	0.00935458	0.0210628	0.0239176
1.8901	0.238794	31.742	2.58672	0.249439	491.65	1.42258	-7.10017	2.35995	-0.0215968	2.64162	0.761601	-0.0989229	-0.0273602	11.1029	1.3129	-0.117417	-2.1006	0.686417	-0.0595214	-0.0227803	-0.124728	-2.23777	-0.200787	0.884368	-1.58858	-0.352504	0.603673	-0.0139408	0.0321452	-0.0740858	-1.71984	-0.837745	0.100033	-0.0560778	0.0116416	0.0214629	0.0360121
1.90005	0	0	0	0	0	0	0	0	0	0	0	0	0	0	0	0	0	0	0	0	0	0	0	0	0	0	0	0	0	0	0	0	0	0	0	0	0
