Coordinates
version=1
nRows=156
nColumns=38
inDegrees=no

Units are S.I. units (second, meters, Newtons, ...)
If the header above contains a line with 'inDegrees', this indicates whether rotational values are in degrees (yes) or radians (no).

endheader
time	pelvis_tilt	pelvis_list	pelvis_rotation	pelvis_tx	pelvis_ty	pelvis_tz	hip_flexion_r	hip_adduction_r	hip_rotation_r	knee_angle_r	ankle_angle_r	subtalar_angle_r	mtp_angle_r	hip_flexion_l	hip_adduction_l	hip_rotation_l	knee_angle_l	ankle_angle_l	subtalar_angle_l	mtp_angle_l	lumbar_extension	lumbar_bending	lumbar_rotation	arm_flex_r	arm_add_r	arm_rot_r	elbow_flex_r	pro_sup_r	wrist_flex_r	wrist_dev_r	arm_flex_l	arm_add_l	arm_rot_l	elbow_flex_l	pro_sup_l	wrist_flex_l	wrist_dev_l
3.32	0.0578071	0.0073996	-1.62087	-0.133909	1.02873	0.68747	-0.0354353	-0.0242453	-0.274618	0.174171	0.311534	0	0	0.265895	-0.0792339	-0.343212	0.163899	0.12502	0	0	-0.148487	0.0257419	-0.0844393	0.252051	-0.344181	1.21415	0.516034	0.792246	0	0	0.00609996	-0.355314	0.769189	0.628889	0.758232	0	0
3.32998	0.0580592	0.00706037	-1.62354	-0.13313	1.0286	0.689638	-0.0375265	-0.0258329	-0.271957	0.174545	0.31218	0	0	0.264805	-0.0795067	-0.345054	0.166099	0.118403	0	0	-0.14844	0.0237523	-0.0837033	0.252299	-0.342703	1.2159	0.514809	0.79264	0	0	0.00670666	-0.355998	0.770431	0.628299	0.757339	0	0
3.33996	0.0583095	0.00670689	-1.6262	-0.132348	1.02846	0.691808	-0.0396401	-0.0274232	-0.269308	0.174909	0.312817	0	0	0.263711	-0.0797881	-0.346924	0.168327	0.11178	0	0	-0.14841	0.0217637	-0.082961	0.252547	-0.341236	1.21765	0.513605	0.793093	0	0	0.00732219	-0.356681	0.771665	0.627716	0.756448	0	0
3.34994	0.0585506	0.0063237	-1.62885	-0.131559	1.02834	0.693984	-0.0418043	-0.0290153	-0.266686	0.175248	0.313426	0	0	0.262612	-0.0800941	-0.348866	0.170628	0.105156	0	0	-0.148412	0.0197843	-0.0821953	0.252787	-0.339803	1.21938	0.512461	0.793716	0	0	0.00796076	-0.35736	0.772876	0.627146	0.75557	0	0
3.35992	0.0587692	0.00589741	-1.63149	-0.130757	1.02822	0.696171	-0.0440474	-0.0306039	-0.264106	0.175542	0.313986	0	0	0.261504	-0.080442	-0.350928	0.173045	0.0985518	0	0	-0.148461	0.0178296	-0.081382	0.253007	-0.338437	1.22102	0.511426	0.794647	0	0	0.00863835	-0.358024	0.774045	0.626597	0.754722	0	0
3.3699	0.0589486	0.0054182	-1.63411	-0.129935	1.0281	0.698373	-0.0463944	-0.0321812	-0.261586	0.175771	0.31447	0	0	0.260378	-0.0808442	-0.353145	0.175609	0.0920044	0	0	-0.148568	0.0159211	-0.0804939	0.253192	-0.337176	1.22254	0.510552	0.796038	0	0	0.00936959	-0.358659	0.775149	0.626076	0.753926	0	0
3.37988	0.0590707	0.00488059	-1.63672	-0.129086	1.028	0.700594	-0.0488644	-0.0337384	-0.259142	0.175917	0.314852	0	0	0.259222	-0.0813051	-0.355539	0.178332	0.0855639	0	0	-0.148738	0.0140838	-0.0795047	0.253323	-0.336057	1.22385	0.509889	0.798026	0	0	0.0101655	-0.359248	0.776167	0.62559	0.753204	0	0
3.38986	0.0591188	0.00428331	-1.63931	-0.128204	1.02791	0.702837	-0.051469	-0.0352677	-0.256788	0.175967	0.315107	0	0	0.258016	-0.0818194	-0.358113	0.181204	0.0792878	0	0	-0.148968	0.0123427	-0.0783919	0.253385	-0.335116	1.22489	0.509478	0.80072	0	0	0.0110319	-0.359769	0.777077	0.625144	0.752576	0	0
3.39984	0.0590794	0.0036289	-1.64188	-0.127282	1.02784	0.705106	-0.0542107	-0.0367645	-0.254536	0.175916	0.315211	0	0	0.256741	-0.082372	-0.360856	0.184196	0.0732347	0	0	-0.149254	0.0107202	-0.0771396	0.253363	-0.33438	1.22558	0.509344	0.804179	0	0	0.011969	-0.360205	0.77786	0.624742	0.752063	0	0
3.40982	0.0589438	0.00292313	-1.64444	-0.126315	1.02778	0.707403	-0.0570832	-0.0382283	-0.252389	0.175767	0.315141	0	0	0.255372	-0.0829393	-0.363742	0.187261	0.0674589	0	0	-0.149585	0.00923365	-0.0757404	0.253247	-0.333868	1.22589	0.5095	0.808406	0	0	0.0129703	-0.360538	0.778501	0.624388	0.751677	0	0
3.4198	0.0587084	0.0021745	-1.64698	-0.125299	1.02774	0.70973	-0.0600707	-0.0396628	-0.250346	0.175534	0.314878	0	0	0.253887	-0.0834923	-0.366741	0.190339	0.0620062	0	0	-0.149947	0.00789441	-0.0741966	0.253036	-0.333583	1.22577	0.509933	0.813335	0	0	0.0140226	-0.360755	0.778992	0.624083	0.751426	0	0
3.42977	0.0583749	0.00139378	-1.64953	-0.124232	1.02772	0.712089	-0.0631494	-0.0410758	-0.248397	0.175242	0.314402	0	0	0.252268	-0.0839997	-0.369816	0.193367	0.0569105	0	0	-0.150324	0.00670751	-0.0725214	0.252736	-0.333518	1.22525	0.510615	0.818832	0	0	0.0151057	-0.360847	0.779326	0.623832	0.75131	0	0
3.43975	0.0579484	0.0005936	-1.65207	-0.123111	1.02772	0.71448	-0.0662876	-0.0424775	-0.246526	0.174923	0.313696	0	0	0.250501	-0.0844314	-0.372931	0.19628	0.0521923	0	0	-0.150695	0.00567242	-0.0707389	0.252364	-0.333649	1.22438	0.511497	0.8247	0	0	0.0161926	-0.360814	0.779499	0.623637	0.751327	0	0
3.44973	0.0574371	-0.000211851	-1.65461	-0.121938	1.02775	0.716904	-0.0694481	-0.0438797	-0.24471	0.174617	0.312743	0	0	0.248581	-0.0847619	-0.376054	0.199023	0.0478585	0	0	-0.151039	0.00478431	-0.068884	0.251948	-0.333944	1.22324	0.512516	0.830687	0	0	0.0172498	-0.360658	0.779507	0.623506	0.75147	0	0
3.45971	0.0568499	-0.00100726	-1.65717	-0.120714	1.02781	0.71936	-0.0725894	-0.0452937	-0.242919	0.174368	0.311529	0	0	0.246509	-0.0849723	-0.379157	0.201548	0.043904	0	0	-0.151332	0.00403554	-0.0670015	0.251525	-0.334357	1.22196	0.513593	0.836495	0	0	0.0182373	-0.36039	0.779343	0.623446	0.751731	0	0
3.46969	0.0561959	-0.00178036	-1.65975	-0.119442	1.02789	0.721849	-0.0756731	-0.0467302	-0.241124	0.174222	0.310042	0	0	0.244291	-0.0850513	-0.382214	0.203821	0.0403122	0	0	-0.151557	0.0034168	-0.0651357	0.251125	-0.334844	1.22063	0.514663	0.841912	0	0	0.0191193	-0.360026	0.779008	0.62347	0.752101	0	0
3.47967	0.0554824	-0.0025195	-1.66235	-0.118124	1.02801	0.724368	-0.0786619	-0.0481969	-0.239292	0.174223	0.308272	0	0	0.241936	-0.0849964	-0.385208	0.205825	0.0370606	0	0	-0.151698	0.00291886	-0.0633281	0.250773	-0.335368	1.21933	0.515673	0.84678	0	0	0.0198643	-0.359584	0.778508	0.623587	0.752574	0	0
3.48965	0.0547149	-0.00321388	-1.66498	-0.116766	1.02815	0.726918	-0.0815221	-0.0496986	-0.237393	0.174411	0.306215	0	0	0.239462	-0.0848138	-0.388124	0.207555	0.0341239	0	0	-0.151745	0.002533	-0.0616176	0.250487	-0.335891	1.21809	0.516579	0.850995	0	0	0.0204459	-0.359085	0.77785	0.62381	0.753144	0	0
3.49963	0.053897	-0.00385421	-1.66762	-0.115369	1.02832	0.729497	-0.0842251	-0.0512375	-0.235397	0.174818	0.303873	0	0	0.236888	-0.0845163	-0.390956	0.209024	0.0314791	0	0	-0.151688	0.00225089	-0.0600402	0.250285	-0.336381	1.21697	0.517349	0.854494	0	0	0.0208421	-0.358553	0.777046	0.624149	0.753808	0	0
3.50961	0.0530318	-0.00443345	-1.6703	-0.113937	1.02852	0.732103	-0.08675	-0.0528139	-0.233285	0.175471	0.301253	0	0	0.234236	-0.0841211	-0.393697	0.210256	0.0291086	0	0	-0.151522	0.002064	-0.0586278	0.250182	-0.336813	1.21599	0.517961	0.857259	0	0	0.0210368	-0.358011	0.776105	0.624614	0.754563	0	0
3.51959	0.0521217	-0.00494738	-1.67298	-0.112475	1.02874	0.734735	-0.089084	-0.0544269	-0.231039	0.176382	0.298368	0	0	0.231526	-0.0836469	-0.396343	0.211287	0.0270041	0	0	-0.151249	0.00196281	-0.0574077	0.25019	-0.337163	1.21518	0.518406	0.859308	0	0	0.02102	-0.357482	0.775036	0.625212	0.755409	0	0
3.52957	0.0511706	-0.00539512	-1.67568	-0.110984	1.02898	0.737391	-0.091224	-0.0560761	-0.228654	0.177556	0.295238	0	0	0.228779	-0.0831113	-0.398891	0.212159	0.0251685	0	0	-0.150872	0.00193589	-0.0564006	0.250319	-0.337417	1.21455	0.518684	0.860693	0	0	0.0207889	-0.356988	0.773846	0.625948	0.756345	0	0
3.53955	0.0501836	-0.0057792	-1.67838	-0.109467	1.02924	0.740071	-0.093176	-0.0577621	-0.226135	0.178984	0.291887	0	0	0.226012	-0.0825288	-0.401333	0.212918	0.0236164	0	0	-0.150402	0.00196929	-0.05562	0.250573	-0.337565	1.21411	0.518805	0.861495	0	0	0.020349	-0.356548	0.772546	0.626821	0.75737	0	0
3.54953	0.049168	-0.00610541	-1.68108	-0.107925	1.0295	0.742771	-0.094955	-0.0594871	-0.223494	0.180649	0.288345	0	0	0.223237	-0.0819091	-0.403664	0.213611	0.0223736	0	0	-0.149852	0.0020462	-0.0550713	0.250949	-0.337602	1.21384	0.51879	0.861811	0	0	0.0197141	-0.35618	0.771149	0.627822	0.758479	0	0
3.55951	0.0481337	-0.00638228	-1.68375	-0.106359	1.02978	0.745492	-0.0965829	-0.0612554	-0.220755	0.182524	0.28464	0	0	0.220464	-0.0812563	-0.405873	0.214283	0.0214741	0	0	-0.14924	0.00214724	-0.0547509	0.25144	-0.337531	1.21374	0.518664	0.861752	0	0	0.0189071	-0.355895	0.769673	0.628937	0.759662	0	0
3.56949	0.0470921	-0.00662024	-1.68639	-0.10477	1.03006	0.74823	-0.098087	-0.0630732	-0.217947	0.184575	0.280802	0	0	0.217698	-0.0805691	-0.407948	0.214975	0.0209567	0	0	-0.148584	0.00225126	-0.054646	0.252032	-0.337356	1.21376	0.518459	0.861432	0	0	0.0179597	-0.355704	0.768144	0.630146	0.7609	0	0
3.57947	0.0460557	-0.00683054	-1.68899	-0.103157	1.03034	0.750986	-0.0994978	-0.0649475	-0.215106	0.186765	0.27686	0	0	0.214942	-0.0798417	-0.409878	0.215721	0.0208603	0	0	-0.147905	0.00233659	-0.0547348	0.252703	-0.337089	1.21385	0.518208	0.860965	0	0	0.0169111	-0.355612	0.766596	0.631418	0.762168	0	0
3.58945	0.0450373	-0.00702416	-1.69153	-0.101521	1.03062	0.753757	-0.100846	-0.0668857	-0.212271	0.189051	0.272839	0	0	0.212198	-0.0790652	-0.41165	0.216549	0.0212195	0	0	-0.147222	0.00238271	-0.0549866	0.253427	-0.336743	1.21396	0.517949	0.860461	0	0	0.015808	-0.355618	0.765076	0.632717	0.763433	0	0
3.59943	0.0440489	-0.00721228	-1.69402	-0.0998601	1.03089	0.756542	-0.102164	-0.0688946	-0.20948	0.191393	0.26876	0	0	0.209464	-0.0782285	-0.413251	0.217478	0.0220596	0	0	-0.146554	0.00237118	-0.0553715	0.254181	-0.336331	1.21405	0.517708	0.859994	0	0	0.014692	-0.355723	0.763612	0.634011	0.764668	0	0
3.60941	0.0431004	-0.00740418	-1.69642	-0.0981739	1.03116	0.759339	-0.10348	-0.0709792	-0.206771	0.19375	0.264639	0	0	0.206741	-0.0773205	-0.414673	0.218519	0.0233936	0	0	-0.145917	0.0022878	-0.0558578	0.254945	-0.335863	1.2141	0.517508	0.85961	0	0	0.0136022	-0.355921	0.762231	0.635265	0.765853	0	0
3.61939	0.0421984	-0.00760639	-1.69876	-0.0964615	1.03143	0.762146	-0.104815	-0.0731414	-0.204175	0.196085	0.260489	0	0	0.204029	-0.0763326	-0.415909	0.219678	0.0252206	0	0	-0.145323	0.00212408	-0.0564118	0.255701	-0.33535	1.21409	0.517364	0.859332	0	0	0.0125756	-0.356205	0.760954	0.636447	0.766968	0	0
3.62936	0.0413454	-0.00782226	-1.70101	-0.094722	1.03169	0.764961	-0.106189	-0.0753791	-0.201719	0.198369	0.256315	0	0	0.20133	-0.0752599	-0.416957	0.220955	0.0275251	0	0	-0.144779	0.00187816	-0.0569982	0.256431	-0.334804	1.21403	0.517286	0.859165	0	0	0.0116462	-0.356566	0.759802	0.637529	0.767995	0	0
3.63934	0.0405396	-0.00805207	-1.70317	-0.0929549	1.03194	0.767783	-0.107612	-0.077686	-0.199422	0.200575	0.252124	0	0	0.198651	-0.0741017	-0.417819	0.222344	0.0302776	0	0	-0.144291	0.00155509	-0.0575814	0.25712	-0.334236	1.21391	0.517281	0.859101	0	0	0.0108438	-0.356995	0.758794	0.638487	0.768919	0	0
3.64932	0.0397745	-0.00829335	-1.70526	-0.0911593	1.03219	0.77061	-0.109088	-0.0800518	-0.197294	0.202686	0.247915	0	0	0.195998	-0.0728624	-0.418498	0.223839	0.0334373	0	0	-0.143858	0.00116648	-0.0581265	0.257755	-0.333657	1.21373	0.517349	0.859125	0	0	0.0101929	-0.35748	0.757944	0.639303	0.769728	0	0
3.6593	0.0390403	-0.00854155	-1.70726	-0.089335	1.03243	0.773439	-0.110618	-0.0824626	-0.19534	0.204692	0.243688	0	0	0.193381	-0.0715509	-0.419004	0.225432	0.0369546	0	0	-0.14348	0.000729473	-0.0586015	0.258327	-0.333077	1.21351	0.517491	0.859216	0	0	0.00971158	-0.358011	0.757259	0.63997	0.770416	0	0
3.66928	0.0383244	-0.00879089	-1.70918	-0.0874818	1.03266	0.776269	-0.112197	-0.0849024	-0.193556	0.206587	0.239442	0	0	0.190808	-0.0701794	-0.419347	0.227114	0.0407748	0	0	-0.143153	0.000265276	-0.0589782	0.25883	-0.332505	1.21326	0.517699	0.859356	0	0	0.00941078	-0.358579	0.75674	0.640488	0.770983	0	0
3.67926	0.0376127	-0.00903515	-1.71103	-0.0855998	1.03289	0.779097	-0.113817	-0.0873539	-0.191935	0.208373	0.235176	0	0	0.188288	-0.0687627	-0.419539	0.228876	0.0448411	0	0	-0.142872	-0.000202668	-0.0592338	0.259263	-0.331949	1.21301	0.517967	0.859525	0	0	0.00929388	-0.359176	0.756379	0.640868	0.771437	0	0
3.68924	0.0368912	-0.00926851	-1.71281	-0.0836894	1.03311	0.781923	-0.11547	-0.0898004	-0.190466	0.210059	0.230889	0	0	0.185829	-0.0673162	-0.419593	0.230711	0.0490981	0	0	-0.142633	-0.000650566	-0.0593515	0.259629	-0.331414	1.21277	0.518285	0.859711	0	0	0.0093568	-0.359797	0.756159	0.641129	0.771792	0	0
3.69922	0.0361469	-0.00948614	-1.71452	-0.0817513	1.03332	0.784743	-0.117145	-0.0922266	-0.189138	0.211653	0.226581	0	0	0.183436	-0.0658549	-0.419524	0.232609	0.0534943	0	0	-0.142433	-0.0010561	-0.0593218	0.259936	-0.330903	1.21257	0.51864	0.859906	0	0	0.00958845	-0.360439	0.756057	0.641298	0.772071	0	0
3.7092	0.0353691	-0.00968464	-1.71617	-0.0797864	1.03353	0.787557	-0.118834	-0.0946201	-0.187937	0.213172	0.222254	0	0	0.181112	-0.0643918	-0.419344	0.234561	0.0579838	0	0	-0.142267	-0.00139994	-0.0591419	0.260192	-0.330418	1.21244	0.519021	0.860109	0	0	0.00997161	-0.3611	0.756042	0.641407	0.772301	0	0
3.71918	0.0345503	-0.00986213	-1.71775	-0.0777957	1.03372	0.790365	-0.120527	-0.0969723	-0.186851	0.21463	0.21791	0	0	0.178854	-0.0629369	-0.419068	0.236558	0.062527	0	0	-0.142134	-0.00166684	-0.0588158	0.260409	-0.329957	1.21239	0.519416	0.860325	0	0	0.0104842	-0.361783	0.756076	0.641495	0.772513	0	0
3.72916	0.0336859	-0.0100188	-1.71926	-0.0757806	1.03391	0.793163	-0.122219	-0.0992779	-0.18587	0.216047	0.213549	0	0	0.176659	-0.0614967	-0.418707	0.238586	0.0670921	0	0	-0.142032	-0.00184621	-0.0583547	0.260601	-0.329518	1.21245	0.519812	0.860563	0	0	0.0111004	-0.362489	0.756124	0.641598	0.772738	0	0
3.73914	0.0327751	-0.0101558	-1.72071	-0.0737423	1.03408	0.795953	-0.123902	-0.101536	-0.184983	0.217438	0.209176	0	0	0.174516	-0.0600741	-0.418275	0.240631	0.0716534	0	0	-0.14196	-0.00193213	-0.0577748	0.260783	-0.329096	1.21262	0.520199	0.860831	0	0	0.0117927	-0.363225	0.756147	0.641755	0.773002	0	0
3.74912	0.0318195	-0.0102749	-1.72208	-0.0716822	1.03424	0.798734	-0.125571	-0.103747	-0.184187	0.218822	0.20479	0	0	0.172416	-0.0586687	-0.417783	0.242675	0.0761916	0	0	-0.141916	-0.00192289	-0.0570968	0.260965	-0.328685	1.21293	0.520567	0.861141	0	0	0.0125333	-0.363993	0.756112	0.641998	0.773332	0	0
3.7591	0.030823	-0.0103777	-1.72337	-0.0696017	1.03439	0.801504	-0.12722	-0.105916	-0.183478	0.220214	0.200392	0	0	0.170347	-0.0572773	-0.41724	0.244699	0.0806919	0	0	-0.141898	-0.00182018	-0.0563439	0.261157	-0.328281	1.21337	0.520912	0.861499	0	0	0.0132961	-0.364799	0.755991	0.642355	0.773751	0	0
3.76908	0.0297906	-0.010465	-1.72457	-0.0675019	1.03453	0.804264	-0.128842	-0.108047	-0.182856	0.221632	0.195981	0	0	0.168296	-0.0558954	-0.416654	0.24668	0.085144	0	0	-0.141902	-0.00162796	-0.0555408	0.261366	-0.327881	1.21394	0.521229	0.861908	0	0	0.0140575	-0.365645	0.755761	0.642846	0.774278	0	0
3.77906	0.0287275	-0.0105365	-1.72567	-0.0653838	1.03466	0.807013	-0.130429	-0.110145	-0.182327	0.223088	0.191553	0	0	0.166251	-0.0545175	-0.416034	0.248594	0.0895403	0	0	-0.141922	-0.00135134	-0.0547122	0.261594	-0.327481	1.21461	0.521521	0.862362	0	0	0.0147979	-0.366533	0.755409	0.643483	0.774926	0	0
3.78904	0.0276383	-0.0105898	-1.72666	-0.0632483	1.03478	0.809752	-0.131972	-0.112212	-0.181897	0.224598	0.187103	0	0	0.164204	-0.0531388	-0.415384	0.250419	0.0938754	0	0	-0.14195	-0.000995459	-0.0538819	0.261836	-0.32708	1.21537	0.521792	0.862847	0	0	0.0155024	-0.367464	0.754932	0.644271	0.775702	0	0
3.79902	0.026526	-0.0106211	-1.72753	-0.0610961	1.03489	0.812479	-0.133461	-0.11425	-0.181578	0.226173	0.182624	0	0	0.162147	-0.0517557	-0.414708	0.252133	0.0981455	0	0	-0.141978	-0.000564731	-0.0530713	0.262087	-0.32668	1.21617	0.522049	0.863333	0	0	0.0161609	-0.368435	0.754335	0.645203	0.776608	0	0
3.809	0.0253921	-0.0106242	-1.72826	-0.0589279	1.03499	0.815195	-0.134881	-0.116259	-0.181382	0.227827	0.178107	0	0	0.160079	-0.0503666	-0.414006	0.253716	0.102348	0	0	-0.141994	-6.22446e-05	-0.0522995	0.262336	-0.326284	1.217	0.522302	0.863781	0	0	0.0167683	-0.369441	0.753631	0.646268	0.777638	0	0
3.81898	0.0242364	-0.0105918	-1.72884	-0.0567441	1.03508	0.817899	-0.136217	-0.118234	-0.181321	0.229574	0.173545	0	0	0.157998	-0.0489721	-0.413279	0.255152	0.10648	0	0	-0.141986	0.000510369	-0.051582	0.262568	-0.325897	1.2178	0.522564	0.864139	0	0	0.0173238	-0.370477	0.752841	0.647449	0.778782	0	0
3.82895	0.0230569	-0.0105146	-1.72927	-0.054545	1.03516	0.820589	-0.137451	-0.120171	-0.181408	0.23143	0.16893	0	0	0.155911	-0.0475746	-0.412526	0.256429	0.11054	0	0	-0.14194	0.00115278	-0.0509307	0.262768	-0.325525	1.21855	0.522849	0.864346	0	0	0.0178307	-0.371535	0.751993	0.648721	0.780022	0	0
3.83893	0.0218509	-0.0103832	-1.72952	-0.0523313	1.03523	0.823267	-0.138564	-0.122065	-0.18165	0.233414	0.164256	0	0	0.153825	-0.0461785	-0.411745	0.257541	0.114526	0	0	-0.141844	0.00186552	-0.0503538	0.262921	-0.325176	1.2192	0.52317	0.864336	0	0	0.0182953	-0.372608	0.751116	0.65006	0.781338	0	0
3.84891	0.0206152	-0.0101875	-1.7296	-0.0501035	1.0353	0.825929	-0.139531	-0.12391	-0.18205	0.23555	0.159523	0	0	0.15175	-0.0447894	-0.410934	0.258484	0.118438	0	0	-0.141686	0.00264934	-0.049855	0.263012	-0.324857	1.21973	0.523542	0.864046	0	0	0.0187265	-0.373685	0.750246	0.651439	0.782702	0	0
3.85889	0.0193474	-0.00991891	-1.7295	-0.0478625	1.03536	0.828576	-0.140328	-0.125702	-0.182602	0.237869	0.154734	0	0	0.149699	-0.0434129	-0.410093	0.259261	0.122275	0	0	-0.141455	0.00350431	-0.0494386	0.263032	-0.324575	1.22011	0.523975	0.863414	0	0	0.0191288	-0.374759	0.749403	0.652836	0.784095	0	0
3.86887	0.0180463	-0.00957029	-1.72923	-0.0456096	1.03542	0.831204	-0.140925	-0.12744	-0.183291	0.240407	0.149898	0	0	0.147683	-0.0420541	-0.409222	0.259878	0.126036	0	0	-0.141143	0.0044291	-0.0491066	0.262979	-0.324333	1.22035	0.524476	0.862387	0	0	0.0195045	-0.375823	0.748602	0.654232	0.785503	0	0
3.87885	0.0167125	-0.0091361	-1.72879	-0.0433464	1.03547	0.833812	-0.141289	-0.129125	-0.184093	0.24321	0.145031	0	0	0.145715	-0.040717	-0.408325	0.260344	0.129721	0	0	-0.140747	0.00542038	-0.0488579	0.262859	-0.324135	1.22045	0.525048	0.860933	0	0	0.0198547	-0.376868	0.747852	0.65561	0.786911	0	0
3.88883	0.0153491	-0.00861294	-1.7282	-0.0410751	1.03551	0.836398	-0.141385	-0.130762	-0.184971	0.246331	0.140156	0	0	0.143806	-0.0394037	-0.407409	0.260671	0.133331	0	0	-0.140263	0.00647238	-0.0486874	0.262678	-0.323982	1.22042	0.525696	0.859042	0	0	0.0201796	-0.377892	0.74716	0.656958	0.788309	0	0
3.89881	0.0139619	-0.00799977	-1.72747	-0.0387983	1.03555	0.838958	-0.141171	-0.132361	-0.18588	0.249834	0.135298	0	0	0.141965	-0.0381142	-0.406485	0.260872	0.136865	0	0	-0.139694	0.00757651	-0.0485856	0.262451	-0.323874	1.22028	0.526419	0.856738	0	0	0.0204789	-0.378887	0.746531	0.658268	0.789683	0	0
3.90879	0.0125593	-0.00729813	-1.72665	-0.0365192	1.03559	0.84149	-0.140603	-0.133936	-0.186769	0.253791	0.130489	0	0	0.140198	-0.0368458	-0.405567	0.260959	0.140322	0	0	-0.139044	0.00872133	-0.0485385	0.262194	-0.323812	1.22005	0.527217	0.854076	0	0	0.0207521	-0.379853	0.745968	0.659533	0.791024	0	0
3.91877	0.0111522	-0.00651216	-1.72575	-0.0342414	1.03561	0.84399	-0.139635	-0.135503	-0.18758	0.258282	0.12576	0	0	0.138509	-0.0355931	-0.40467	0.260947	0.143704	0	0	-0.13832	0.00989259	-0.0485278	0.261929	-0.323795	1.21974	0.528091	0.851144	0	0	0.0209993	-0.380786	0.745475	0.660749	0.792322	0	0
3.92875	0.00975389	-0.00564865	-1.72483	-0.031969	1.03563	0.846456	-0.138216	-0.137081	-0.188259	0.26339	0.12114	0	0	0.136899	-0.0343484	-0.403816	0.260848	0.14701	0	0	-0.137535	0.0110735	-0.048531	0.261676	-0.323822	1.21937	0.529039	0.848058	0	0	0.0212215	-0.381687	0.745056	0.661913	0.793569	0	0
3.93873	0.00837922	-0.00471699	-1.72391	-0.0297065	1.03563	0.848883	-0.136296	-0.138692	-0.188751	0.269206	0.116654	0	0	0.135366	-0.0331015	-0.403023	0.260674	0.150239	0	0	-0.136702	0.0122454	-0.0485225	0.261457	-0.323892	1.21894	0.530062	0.844959	0	0	0.0214209	-0.382555	0.744717	0.663026	0.794759	0	0
3.94871	0.00704412	-0.00372912	-1.72305	-0.0274586	1.03562	0.851268	-0.133828	-0.140357	-0.18901	0.275818	0.112317	0	0	0.133904	-0.0318406	-0.402312	0.260436	0.153392	0	0	-0.135841	0.013388	-0.0484746	0.261291	-0.324004	1.21844	0.53116	0.842002	0	0	0.0216014	-0.383393	0.744465	0.664087	0.795887	0	0
3.95869	0.00576477	-0.00269939	-1.72227	-0.0252299	1.0356	0.853609	-0.130765	-0.142095	-0.188998	0.283314	0.108133	0	0	0.132506	-0.0305526	-0.401703	0.260145	0.15647	0	0	-0.13497	0.0144805	-0.0483587	0.261195	-0.324156	1.21786	0.532336	0.83935	0	0	0.0217684	-0.384201	0.744308	0.665095	0.796953	0	0
3.96867	0.0045568	-0.00164444	-1.72163	-0.0230254	1.03557	0.855901	-0.127068	-0.143924	-0.188693	0.291775	0.104092	0	0	0.131161	-0.0292244	-0.401212	0.259813	0.159473	0	0	-0.134115	0.015502	-0.0481468	0.261182	-0.324349	1.21717	0.533593	0.837167	0	0	0.0219294	-0.384984	0.744256	0.666049	0.797955	0	0
3.97865	0.00343452	-0.000582954	-1.72116	-0.0208496	1.03552	0.858143	-0.122702	-0.145857	-0.188083	0.301275	0.100171	0	0	0.129858	-0.0278432	-0.400852	0.25945	0.162404	0	0	-0.133301	0.016433	-0.0478131	0.261263	-0.32458	1.21634	0.534937	0.83561	0	0	0.0220933	-0.385742	0.744319	0.666949	0.798895	0	0
3.98863	0.00241097	0.000466069	-1.72088	-0.0187066	1.03545	0.860331	-0.117642	-0.147901	-0.187171	0.311878	0.0963302	0	0	0.128584	-0.0263967	-0.400631	0.259069	0.165264	0	0	-0.132552	0.0172548	-0.0473414	0.261447	-0.324846	1.21534	0.536366	0.834778	0	0	0.022265	-0.386479	0.744498	0.667792	0.799777	0	0
3.99861	0.00149704	0.00148261	-1.72082	-0.0166006	1.03538	0.862463	-0.111869	-0.15006	-0.185973	0.323635	0.0925204	0	0	0.127327	-0.0248744	-0.400552	0.258682	0.168058	0	0	-0.131896	0.0179512	-0.0467248	0.26175	-0.325138	1.21418	0.537876	0.834725	0	0	0.0224464	-0.387199	0.74479	0.668576	0.800603	0	0
4.00859	0.000701022	0.00244613	-1.72098	-0.0145348	1.03528	0.864539	-0.105377	-0.15233	-0.184515	0.336579	0.0886826	0	0	0.126075	-0.0232676	-0.400612	0.258302	0.17079	0	0	-0.131355	0.0185088	-0.0459655	0.262182	-0.325447	1.21285	0.539457	0.835466	0	0	0.0226367	-0.387903	0.745183	0.6693	0.801378	0	0
4.01857	2.84115e-05	0.00333639	-1.72137	-0.0125122	1.03518	0.866556	-0.0981676	-0.154703	-0.18283	0.35073	0.0847551	0	0	0.124815	-0.0215699	-0.400803	0.257942	0.173464	0	0	-0.130954	0.0189171	-0.045074	0.262755	-0.325762	1.21137	0.541102	0.836986	0	0	0.0228333	-0.388595	0.745662	0.66996	0.802106	0	0
4.02855	-0.000518049	0.00413435	-1.72199	-0.0105349	1.03506	0.868515	-0.0902529	-0.157164	-0.180957	0.366089	0.0806793	0	0	0.123534	-0.0197774	-0.401114	0.257613	0.176087	0	0	-0.130715	0.019169	-0.0440681	0.263473	-0.326075	1.20974	0.542804	0.839242	0	0	0.0230322	-0.389274	0.74621	0.670549	0.802788	0	0
4.03852	-0.000938205	0.00482334	-1.72283	-0.00860452	1.03492	0.870415	-0.0816534	-0.159695	-0.178934	0.382638	0.0764079	0	0	0.122223	-0.0178883	-0.401529	0.257325	0.178664	0	0	-0.130653	0.0192609	-0.0429724	0.264337	-0.326376	1.20798	0.544557	0.842168	0	0	0.0232288	-0.389941	0.746809	0.671061	0.803423	0	0
4.0485	-0.00123423	0.00539011	-1.72385	-0.0067222	1.03478	0.872258	-0.0723969	-0.162272	-0.176799	0.40034	0.0719122	0	0	0.120871	-0.0159033	-0.40203	0.257085	0.181202	0	0	-0.13078	0.0191923	-0.0418158	0.265343	-0.326658	1.20607	0.546359	0.845682	0	0	0.0234177	-0.390592	0.747443	0.671482	0.804007	0	0
4.05848	-0.00141034	0.005826	-1.72505	-0.00488842	1.03463	0.874044	-0.062517	-0.164873	-0.174584	0.419137	0.0671899	0	0	0.119473	-0.0138248	-0.402598	0.256895	0.183707	0	0	-0.131102	0.0189666	-0.0406304	0.266479	-0.326916	1.20404	0.54821	0.849692	0	0	0.0235939	-0.391224	0.748102	0.6718	0.804527	0	0
4.06846	-0.00147262	0.00612794	-1.72639	-0.0031033	1.03447	0.875775	-0.0520522	-0.167469	-0.172316	0.438948	0.062271	0	0	0.118024	-0.0116574	-0.403214	0.256754	0.186185	0	0	-0.131614	0.0185901	-0.0394487	0.267727	-0.327149	1.20187	0.550114	0.854096	0	0	0.0237527	-0.391831	0.748777	0.671999	0.804971	0	0
4.07844	-0.00143174	0.00629541	-1.72784	-0.00136659	1.03431	0.877455	-0.0410516	-0.17003	-0.170019	0.459667	0.0572227	0	0	0.11652	-0.00940999	-0.403857	0.256656	0.188639	0	0	-0.13231	0.0180756	-0.0383049	0.269068	-0.327357	1.19958	0.552076	0.858782	0	0	0.02389	-0.392405	0.749471	0.672057	0.805319	0	0
4.08842	-0.00130367	0.00632992	-1.72937	0.000322248	1.03414	0.879088	-0.0295765	-0.172522	-0.167713	0.481158	0.0521511	0	0	0.114954	-0.00709628	-0.404506	0.256588	0.191072	0	0	-0.133177	0.0174426	-0.0372335	0.270477	-0.327541	1.19716	0.554102	0.863623	0	0	0.0240022	-0.392935	0.750186	0.671952	0.805545	0	0
4.0984	-0.00111003	0.00623513	-1.73095	0.00196385	1.03398	0.880677	-0.0176984	-0.174904	-0.165417	0.503253	0.0472001	0	0	0.113319	-0.00473577	-0.40514	0.256535	0.193483	0	0	-0.134202	0.0167179	-0.0362683	0.271933	-0.327705	1.19465	0.556195	0.868474	0	0	0.0240849	-0.39341	0.750935	0.671662	0.805625	0	0
4.10838	-0.000878919	0.00601567	-1.73254	0.00355885	1.03382	0.882227	-0.00550004	-0.177134	-0.163148	0.525758	0.0425465	0	0	0.111604	-0.00235464	-0.405741	0.256477	0.195869	0	0	-0.135368	0.0159363	-0.0354427	0.273416	-0.327854	1.1921	0.558355	0.873168	0	0	0.0241329	-0.393817	0.751726	0.671163	0.80553	0	0
4.11836	-0.00063927	0.00568752	-1.73412	0.00510785	1.03366	0.883744	0.00694502	-0.179168	-0.160914	0.548463	0.038392	0	0	0.10981	1.77093e-05	-0.406292	0.256395	0.198229	0	0	-0.136649	0.0151353	-0.0347685	0.274887	-0.328002	1.18947	0.560599	0.877632	0	0	0.0241545	-0.394139	0.752601	0.670427	0.805219	0	0
4.12834	-0.000426264	0.00526918	-1.73567	0.00661141	1.03352	0.885231	0.0195594	-0.180955	-0.158724	0.571136	0.034953	0	0	0.10794	0.00234431	-0.406782	0.256273	0.200561	0	0	-0.138016	0.0143595	-0.0342415	0.276293	-0.328174	1.18671	0.562956	0.881854	0	0	0.0241698	-0.394361	0.753621	0.669425	0.80464	0	0
4.13832	-0.000281376	0.00477865	-1.73716	0.00806996	1.03339	0.886693	0.0322603	-0.182444	-0.156583	0.59353	0.0324465	0	0	0.105994	0.00458081	-0.407202	0.256094	0.202859	0	0	-0.139447	0.0136602	-0.0338447	0.277575	-0.3284	1.18373	0.565459	0.885863	0	0	0.0242073	-0.394462	0.754861	0.668127	0.803739	0	0
4.1483	-0.000250537	0.00423225	-1.73858	0.00948371	1.03329	0.888135	0.0449624	-0.183576	-0.154502	0.615386	0.0310749	0	0	0.103971	0.00667732	-0.407546	0.255846	0.205119	0	0	-0.140922	0.0130928	-0.0335525	0.278676	-0.328712	1.18043	0.568142	0.889714	0	0	0.0242991	-0.394427	0.7564	0.666509	0.802464	0	0
4.15828	-0.000381291	0.00364394	-1.73992	0.0108526	1.0332	0.889561	0.0575808	-0.184295	-0.152486	0.636449	0.0310115	0	0	0.101871	0.0085812	-0.407811	0.255524	0.207337	0	0	-0.142427	0.0127137	-0.0333344	0.279543	-0.329141	1.17672	0.571033	0.893473	0	0	0.0244769	-0.394239	0.758311	0.664556	0.800769	0	0
4.16826	-0.000719313	0.00302464	-1.74118	0.0121764	1.03314	0.890973	0.0700346	-0.184547	-0.15054	0.656469	0.0323859	0	0	0.0996906	0.0102408	-0.407996	0.255125	0.209505	0	0	-0.143955	0.012576	-0.0331604	0.280137	-0.329714	1.17254	0.574151	0.897206	0	0	0.0247668	-0.393888	0.76065	0.662265	0.798624	0	0
4.17824	-0.00130462	0.00238148	-1.74235	0.0134545	1.03311	0.892373	0.0822503	-0.184284	-0.148668	0.675216	0.0352729	0	0	0.0974275	0.0116095	-0.408107	0.254654	0.211617	0	0	-0.145503	0.0127259	-0.0330056	0.280433	-0.330448	1.16786	0.577501	0.900969	0	0	0.0251844	-0.393369	0.763447	0.659652	0.796022	0	0
4.18822	-0.00216684	0.00171831	-1.74342	0.0146863	1.03312	0.893764	0.0941654	-0.183471	-0.146866	0.69249	0.0396846	0	0	0.0950792	0.0126511	-0.40815	0.254119	0.213668	0	0	-0.147074	0.0131968	-0.0328556	0.280427	-0.331352	1.16267	0.581067	0.904804	0	0	0.0257303	-0.392683	0.766693	0.656748	0.792985	0	0
4.1982	-0.00332123	0.00103634	-1.7444	0.0158709	1.03315	0.895146	0.105733	-0.182089	-0.145125	0.708121	0.0455675	0	0	0.0926453	0.0133438	-0.408138	0.253533	0.215649	0	0	-0.148673	0.0140056	-0.0327085	0.280135	-0.33242	1.15703	0.584817	0.908732	0	0	0.0263871	-0.391841	0.770339	0.653609	0.789566	0	0
4.20818	-0.00476476	0.000335949	-1.7453	0.0170076	1.03321	0.89652	0.116925	-0.180139	-0.14343	0.721988	0.0528088	0	0	0.0901292	0.0136847	-0.408086	0.252911	0.217556	0	0	-0.150304	0.0151492	-0.0325774	0.279594	-0.333633	1.15104	0.5887	0.912756	0	0	0.0271191	-0.39086	0.77429	0.650308	0.785855	0	0
4.21816	-0.00647529	-0.000382717	-1.74611	0.0180957	1.0333	0.897884	0.127734	-0.177646	-0.141758	0.734013	0.0612448	0	0	0.0875385	0.0136909	-0.408014	0.252269	0.219385	0	0	-0.151971	0.0166034	-0.0324899	0.278857	-0.334961	1.14482	0.592649	0.916853	0	0	0.0278736	-0.389768	0.778413	0.646937	0.78197	0	0
4.22814	-0.00841348	-0.00111917	-1.74684	0.0191348	1.03342	0.899237	0.13817	-0.174656	-0.140085	0.74416	0.0706716	0	0	0.0848845	0.0133977	-0.407945	0.25162	0.221134	0	0	-0.153674	0.0183253	-0.0324808	0.277984	-0.336367	1.13852	0.596589	0.920994	0	0	0.0285912	-0.388596	0.782557	0.643594	0.778045	0	0
4.23811	-0.0105266	-0.00187366	-1.7475	0.0201251	1.03355	0.900578	0.148255	-0.171236	-0.138392	0.752437	0.0808559	0	0	0.0821797	0.0128557	-0.4079	0.250977	0.222802	0	0	-0.155411	0.0202571	-0.0325892	0.277038	-0.33781	1.13227	0.600444	0.925145	0	0	0.0292119	-0.387379	0.786567	0.640379	0.774219	0	0
4.24809	-0.0127544	-0.00264664	-1.74808	0.0210674	1.03369	0.901906	0.158018	-0.167469	-0.136673	0.758879	0.0915473	0	0	0.0794364	0.0121249	-0.407904	0.250348	0.22439	0	0	-0.157181	0.0223329	-0.0328425	0.276063	-0.339256	1.12616	0.604145	0.92929	0	0	0.0296966	-0.386153	0.790335	0.637377	0.770586	0	0
4.25807	-0.0150343	-0.00343987	-1.74859	0.0219634	1.03384	0.90322	0.167488	-0.163448	-0.134939	0.763548	0.102491	0	0	0.076664	0.0112698	-0.407976	0.249736	0.225899	0	0	-0.15898	0.0244837	-0.0332617	0.275096	-0.340674	1.12028	0.607634	0.933421	0	0	0.0300212	-0.38495	0.793784	0.634658	0.767217	0	0
4.26805	-0.0173058	-0.00425647	-1.74902	0.0228151	1.03398	0.904519	0.176688	-0.159276	-0.133223	0.766519	0.113441	0	0	0.0738683	0.0103542	-0.408133	0.249139	0.22733	0	0	-0.160807	0.0266431	-0.0338621	0.27416	-0.342038	1.11465	0.610855	0.937521	0	0	0.0301737	-0.383797	0.796862	0.632275	0.764164	0	0
4.27803	-0.0195159	-0.00510023	-1.74937	0.0236251	1.03412	0.905802	0.185636	-0.155055	-0.131584	0.767874	0.124168	0	0	0.071051	0.00943622	-0.408385	0.24855	0.228683	0	0	-0.162658	0.0287531	-0.0346534	0.273276	-0.343326	1.10932	0.613762	0.941558	0	0	0.0301549	-0.382716	0.799542	0.630261	0.761468	0	0
4.28801	-0.0216225	-0.00597461	-1.74963	0.0243966	1.03426	0.907071	0.194337	-0.150884	-0.130101	0.767698	0.134473	0	0	0.0682109	0.00856405	-0.408739	0.247958	0.229959	0	0	-0.164531	0.0307675	-0.035638	0.272452	-0.344523	1.1043	0.616315	0.945485	0	0	0.0299773	-0.381721	0.801822	0.628627	0.759151	0	0
4.29799	-0.0235965	-0.00688151	-1.7498	0.0251325	1.03438	0.908326	0.20279	-0.146851	-0.128873	0.766068	0.144187	0	0	0.0653446	0.00777288	-0.409191	0.247351	0.231156	0	0	-0.166424	0.0326548	-0.0368112	0.271692	-0.345618	1.09961	0.618482	0.949237	0	0	0.0296643	-0.380816	0.803725	0.627365	0.757222	0	0
4.30797	-0.0254224	-0.00782006	-1.74985	0.025836	1.03449	0.909568	0.210984	-0.14303	-0.128008	0.763055	0.153182	0	0	0.0624493	0.00708382	-0.409733	0.246714	0.232272	0	0	-0.168332	0.0343991	-0.0381607	0.270995	-0.346607	1.09523	0.620238	0.952742	0	0	0.0292483	-0.380001	0.805294	0.626449	0.755672	0	0
4.31795	-0.0270976	-0.00878567	-1.7498	0.02651	1.03459	0.910799	0.218905	-0.139478	-0.127617	0.758719	0.161363	0	0	0.059524	0.00650433	-0.410351	0.246035	0.233306	0	0	-0.170244	0.0359984	-0.0396684	0.270352	-0.347491	1.09118	0.621569	0.955918	0	0	0.0287673	-0.379267	0.806586	0.625836	0.754477	0	0
4.32793	-0.0286295	-0.00976947	-1.74961	0.0271568	1.03468	0.91202	0.226536	-0.136231	-0.127802	0.753113	0.168676	0	0	0.0565717	0.00603005	-0.411024	0.245302	0.234256	0	0	-0.17215	0.0374627	-0.0413115	0.269754	-0.348273	1.08745	0.622468	0.958688	0	0	0.0282617	-0.3786	0.807669	0.625476	0.753604	0	0
4.33791	-0.0300331	-0.0107583	-1.74929	0.0277782	1.03476	0.913234	0.233861	-0.133305	-0.128646	0.746277	0.175096	0	0	0.0536005	0.00564772	-0.411727	0.244508	0.235124	0	0	-0.174033	0.0388102	-0.0430652	0.269189	-0.348961	1.08405	0.622933	0.960984	0	0	0.0277703	-0.377988	0.808612	0.625313	0.753009	0	0
4.34789	-0.0313269	-0.0117352	-1.74883	0.0283755	1.03484	0.914443	0.240871	-0.130698	-0.130205	0.738248	0.18063	0	0	0.0506247	0.00533855	-0.412432	0.243651	0.235913	0	0	-0.175873	0.0400631	-0.044905	0.268646	-0.349563	1.08097	0.622973	0.962752	0	0	0.0273266	-0.377414	0.809475	0.625296	0.752646	0	0
4.35787	-0.0325298	-0.0126803	-1.74823	0.028949	1.03491	0.915648	0.24756	-0.128391	-0.132501	0.729056	0.185304	0	0	0.047664	0.00508161	-0.413108	0.242735	0.23663	0	0	-0.177646	0.0412441	-0.0468089	0.268115	-0.350085	1.07822	0.622599	0.963956	0	0	0.0269559	-0.376867	0.810309	0.625378	0.752473	0	0
4.36785	-0.0336586	-0.0135726	-1.74747	0.0294983	1.03497	0.916853	0.253928	-0.126348	-0.135517	0.71873	0.189161	0	0	0.0447435	0.00485677	-0.413721	0.241766	0.237288	0	0	-0.179328	0.0423734	-0.0487591	0.267589	-0.350536	1.07583	0.621829	0.964582	0	0	0.0266738	-0.376339	0.811142	0.625527	0.752452	0	0
4.37783	-0.0347261	-0.0143912	-1.74655	0.0300226	1.03503	0.918059	0.259982	-0.124524	-0.1392	0.707295	0.192255	0	0	0.0418915	0.00464669	-0.41424	0.240761	0.237902	0	0	-0.180896	0.0434661	-0.0507444	0.267066	-0.350918	1.07383	0.62068	0.964619	0	0	0.0264845	-0.375826	0.811989	0.625721	0.752546	0	0
4.38781	-0.0357402	-0.0151169	-1.74546	0.0305203	1.03508	0.919267	0.26573	-0.122866	-0.143461	0.694774	0.194645	0	0	0.0391383	0.0044382	-0.414633	0.239739	0.238492	0	0	-0.182326	0.0445316	-0.0527595	0.266549	-0.351232	1.07226	0.619173	0.964066	0	0	0.0263821	-0.375333	0.812841	0.625955	0.752729	0	0
4.39779	-0.0367038	-0.0157342	-1.74422	0.0309895	1.03512	0.920481	0.271185	-0.121317	-0.148181	0.681189	0.196387	0	0	0.0365133	0.00422253	-0.41487	0.238723	0.23908	0	0	-0.183602	0.0455732	-0.0548036	0.266043	-0.351478	1.07117	0.617328	0.962932	0	0	0.0263521	-0.374865	0.813673	0.626234	0.752985	0	0
4.40777	-0.0376163	-0.0162321	-1.7428	0.031428	1.03514	0.921702	0.276354	-0.11982	-0.153222	0.666563	0.197537	0	0	0.0340432	0.00399496	-0.414927	0.23774	0.239693	0	0	-0.184711	0.0465887	-0.0568783	0.265555	-0.351654	1.07059	0.615166	0.961235	0	0	0.0263741	-0.374435	0.814446	0.626578	0.753311	0	0
4.41775	-0.0384742	-0.0166054	-1.74122	0.0318337	1.03515	0.922932	0.281246	-0.11832	-0.158432	0.650917	0.198145	0	0	0.0317495	0.00375386	-0.414783	0.236819	0.240354	0	0	-0.185648	0.0475727	-0.0589862	0.265091	-0.351755	1.07056	0.61271	0.958996	0	0	0.0264246	-0.374057	0.81511	0.627012	0.753714	0	0
4.42773	-0.0392731	-0.016855	-1.73948	0.0322042	1.03514	0.924172	0.285861	-0.116767	-0.16366	0.634275	0.198258	0	0	0.0296467	0.0034997	-0.414422	0.235988	0.241087	0	0	-0.186417	0.0485174	-0.0611282	0.264657	-0.351781	1.07112	0.60998	0.956239	0	0	0.0264804	-0.373745	0.815617	0.627564	0.754206	0	0
4.4377	-0.0400088	-0.0169877	-1.73758	0.0325377	1.03512	0.925424	0.290193	-0.115121	-0.168763	0.616664	0.197916	0	0	0.0277408	0.00323404	-0.413834	0.235272	0.241912	0	0	-0.187028	0.0494146	-0.0633019	0.264257	-0.351727	1.07229	0.606996	0.952993	0	0	0.0265207	-0.373514	0.815918	0.628266	0.754803	0	0
4.44768	-0.0406782	-0.017016	-1.73553	0.0328323	1.03507	0.92669	0.294232	-0.11335	-0.173618	0.598115	0.197155	0	0	0.0260291	0.00295873	-0.413016	0.234694	0.242846	0	0	-0.1875	0.0502568	-0.0654997	0.263891	-0.351594	1.07406	0.603779	0.949291	0	0	0.0265296	-0.373376	0.815976	0.629141	0.755525	0	0
4.45766	-0.0412799	-0.0169569	-1.73334	0.0330866	1.035	0.927972	0.297961	-0.111434	-0.178124	0.57867	0.196012	0	0	0.0244994	0.0026755	-0.411972	0.234271	0.243901	0	0	-0.187856	0.0510383	-0.0677073	0.263556	-0.351382	1.07642	0.600348	0.94517	0	0	0.0264976	-0.37334	0.815765	0.630209	0.756386	0	0
4.46764	-0.0418146	-0.0168308	-1.73103	0.0332993	1.03491	0.929273	0.301363	-0.109363	-0.182216	0.558381	0.19452	0	0	0.0231314	0.00238577	-0.410712	0.234012	0.245082	0	0	-0.188121	0.0517554	-0.0699034	0.263243	-0.351094	1.07934	0.596721	0.940678	0	0	0.026422	-0.373411	0.815276	0.63148	0.757395	0	0
4.47762	-0.0422845	-0.0166595	-1.72862	0.0334695	1.03479	0.930594	0.304419	-0.107139	-0.185859	0.537315	0.192714	0	0	0.0218976	0.00209082	-0.409253	0.233919	0.246391	0	0	-0.188324	0.0524062	-0.0720592	0.262935	-0.350737	1.08276	0.59292	0.935872	0	0	0.0263078	-0.37359	0.814516	0.632954	0.758557	0	0
4.4876	-0.0426927	-0.0164654	-1.72611	0.0335966	1.03466	0.931939	0.307112	-0.104773	-0.189055	0.515556	0.190629	0	0	0.0207651	0.00179198	-0.407618	0.233988	0.247825	0	0	-0.188492	0.0529906	-0.0741388	0.262613	-0.350319	1.08661	0.588967	0.930819	0	0	0.0261667	-0.373874	0.813512	0.634621	0.759865	0	0
4.49758	-0.0430432	-0.0162689	-1.72355	0.0336802	1.03451	0.933312	0.309433	-0.102288	-0.191842	0.493207	0.188303	0	0	0.019698	0.00149089	-0.405836	0.234207	0.249375	0	0	-0.188649	0.0535097	-0.0761002	0.262246	-0.349851	1.09077	0.584891	0.925603	0	0	0.0260168	-0.374255	0.812307	0.63646	0.761307	0	0
4.50756	-0.043339	-0.0160894	-1.72095	0.0337197	1.03434	0.934715	0.311376	-0.0997131	-0.194286	0.470389	0.185777	0	0	0.018658	0.00119064	-0.403935	0.234556	0.251032	0	0	-0.188813	0.0539651	-0.0779156	0.261829	-0.349334	1.09523	0.580699	0.920221	0	0	0.0258637	-0.374725	0.810931	0.638447	0.762869	0	0
4.51754	-0.0435819	-0.015942	-1.71833	0.0337148	1.03415	0.936153	0.312949	-0.097084	-0.196484	0.447246	0.183091	0	0	0.0176089	0.000895688	-0.40195	0.235012	0.252782	0	0	-0.188996	0.0543576	-0.0795634	0.261361	-0.348768	1.09997	0.576394	0.914639	0	0	0.0257078	-0.375272	0.80941	0.640558	0.764537	0	0
4.52752	-0.0437722	-0.0158369	-1.71573	0.0336652	1.03395	0.93763	0.314169	-0.0944409	-0.198548	0.423938	0.180289	0	0	0.0165177	0.000611455	-0.399912	0.235549	0.254611	0	0	-0.189203	0.054688	-0.0810245	0.260844	-0.348148	1.10497	0.571978	0.908806	0	0	0.0255479	-0.375884	0.807771	0.64276	0.766297	0	0
4.5375	-0.0439094	-0.0157791	-1.71315	0.0335704	1.03374	0.93915	0.315065	-0.091825	-0.200604	0.400643	0.177415	0	0	0.0153571	0.000343671	-0.397855	0.236138	0.256504	0	0	-0.189432	0.0549567	-0.082282	0.260277	-0.347474	1.11024	0.56746	0.902679	0	0	0.025383	-0.376548	0.806049	0.645018	0.768132	0	0
4.54748	-0.0439925	-0.0157686	-1.71063	0.0334302	1.03351	0.940716	0.315678	-0.0892761	-0.202785	0.377549	0.174513	0	0	0.0141059	9.7765e-05	-0.395809	0.236751	0.258447	0	0	-0.189675	0.0551642	-0.0833215	0.259659	-0.346744	1.11574	0.562849	0.896226	0	0	0.0252134	-0.377249	0.804285	0.647294	0.770023	0	0
4.55746	-0.0440204	-0.0158006	-1.70818	0.0332447	1.03328	0.942332	0.316055	-0.0868312	-0.205214	0.354857	0.171628	0	0	0.0127499	-0.000121786	-0.393802	0.237362	0.260425	0	0	-0.189919	0.0553118	-0.0841318	0.258984	-0.34596	1.12144	0.558163	0.88943	0	0	0.0250403	-0.37797	0.802523	0.649544	0.771951	0	0
4.56744	-0.0439927	-0.0158666	-1.70582	0.0330139	1.03303	0.944	0.316249	-0.0845221	-0.208004	0.332767	0.168799	0	0	0.0112815	-0.000312044	-0.391856	0.237949	0.262428	0	0	-0.190148	0.0554022	-0.0847065	0.258245	-0.345124	1.12731	0.553421	0.882303	0	0	0.0248665	-0.378696	0.800814	0.651726	0.773896	0	0
4.57742	-0.0439102	-0.0159555	-1.70356	0.0327381	1.03278	0.945722	0.316317	-0.0823741	-0.211245	0.311477	0.166067	0	0	0.00969906	-0.000472053	-0.389988	0.238493	0.264443	0	0	-0.190345	0.0554394	-0.0850446	0.257435	-0.344241	1.1333	0.548648	0.87488	0	0	0.0246954	-0.379412	0.799209	0.653797	0.775839	0	0
4.5874	-0.0437748	-0.0160548	-1.70141	0.0324178	1.03251	0.947502	0.316312	-0.0804057	-0.214996	0.291178	0.163467	0	0	0.00800579	-0.000603055	-0.388209	0.238978	0.26646	0	0	-0.190492	0.0554298	-0.0851512	0.256549	-0.343318	1.13936	0.543869	0.867228	0	0	0.0245316	-0.380102	0.79776	0.655714	0.777764	0	0
4.59738	-0.0435897	-0.0161515	-1.69936	0.0320536	1.03224	0.949338	0.316282	-0.0786278	-0.219278	0.272044	0.161029	0	0	0.00620857	-0.000707968	-0.386523	0.239393	0.26847	0	0	-0.190574	0.055381	-0.0850356	0.255574	-0.342364	1.1454	0.539113	0.859457	0	0	0.0243828	-0.380752	0.796521	0.657435	0.779651	0	0
4.60736	-0.0433594	-0.0162338	-1.69742	0.0316467	1.03197	0.951233	0.316268	-0.0770447	-0.224072	0.254225	0.158782	0	0	0.00431622	-0.00079123	-0.38493	0.239729	0.270467	0	0	-0.190577	0.0553022	-0.0847092	0.254498	-0.341393	1.15133	0.534416	0.851731	0	0	0.0242612	-0.38135	0.795553	0.658921	0.781477	0	0
4.61734	-0.0430894	-0.0162918	-1.69558	0.031198	1.03168	0.953185	0.316295	-0.0756538	-0.229316	0.237847	0.156745	0	0	0.00233741	-0.000858488	-0.383422	0.23998	0.272443	0	0	-0.190494	0.0552037	-0.0841842	0.253298	-0.340425	1.15703	0.529819	0.844272	0	0	0.0241852	-0.381885	0.794922	0.660135	0.783213	0	0
4.62732	-0.0427859	-0.0163188	-1.69382	0.0307092	1.0314	0.955196	0.316374	-0.0744468	-0.234908	0.223002	0.154936	0	0	0.000278835	-0.000916193	-0.381987	0.240142	0.274393	0	0	-0.190323	0.0550968	-0.0834723	0.251943	-0.339482	1.16233	0.525373	0.837355	0	0	0.0241798	-0.382348	0.794701	0.66104	0.78482	0	0
4.6373	-0.0424549	-0.0163131	-1.69212	0.0301815	1.03111	0.957263	0.316496	-0.0734125	-0.24072	0.209746	0.153365	0	0	-0.00185678	-0.000970042	-0.380603	0.240208	0.276315	0	0	-0.190061	0.0549927	-0.0826156	0.250442	-0.33857	1.16718	0.521091	0.831113	0	0	0.0242465	-0.382735	0.794921	0.661618	0.786272	0	0
4.64727	-0.042098	-0.0162753	-1.69044	0.0296157	1.03082	0.959387	0.316639	-0.0725391	-0.246589	0.198101	0.152039	0	0	-0.00406871	-0.00102206	-0.379246	0.240174	0.278204	0	0	-0.189711	0.0548988	-0.0816764	0.248829	-0.337685	1.17165	0.516964	0.825594	0	0	0.0243686	-0.383049	0.795572	0.661862	0.787543	0	0
4.65725	-0.0417131	-0.0162079	-1.68878	0.0290125	1.03054	0.961568	0.316769	-0.0718151	-0.252334	0.188055	0.150966	0	0	-0.00635833	-0.00107048	-0.377893	0.240032	0.280055	0	0	-0.189274	0.0548185	-0.0807279	0.247151	-0.336812	1.17582	0.512979	0.820793	0	0	0.0245178	-0.383297	0.79662	0.661778	0.788605	0	0
4.66723	-0.0412949	-0.016115	-1.68708	0.0283717	1.03025	0.963804	0.316842	-0.0712291	-0.257771	0.179562	0.150152	0	0	-0.00872941	-0.00111062	-0.37652	0.239775	0.281864	0	0	-0.188751	0.0547513	-0.0798467	0.245458	-0.335938	1.17977	0.50912	0.816683	0	0	0.0246591	-0.383491	0.798011	0.661383	0.789424	0	0
4.67721	-0.0408359	-0.0160021	-1.68533	0.0276931	1.02996	0.966097	0.316805	-0.0707696	-0.26272	0.172543	0.149597	0	0	-0.011188	-0.00113612	-0.375105	0.239392	0.283625	0	0	-0.188146	0.0546938	-0.0791071	0.243798	-0.335049	1.18361	0.505383	0.813222	0	0	0.024756	-0.383644	0.799683	0.660703	0.789961	0	0
4.68719	-0.0403279	-0.0158752	-1.68349	0.0269758	1.02967	0.968445	0.316602	-0.0704244	-0.267032	0.16689	0.149291	0	0	-0.0137414	-0.00114056	-0.373629	0.238875	0.285335	0	0	-0.187464	0.054641	-0.0785759	0.24221	-0.334134	1.18737	0.501774	0.810361	0	0	0.0247737	-0.383773	0.801568	0.659769	0.790171	0	0
4.69717	-0.0397638	-0.01574	-1.68154	0.0262183	1.02938	0.970851	0.316175	-0.0701804	-0.270591	0.162469	0.149214	0	0	-0.0163974	-0.0011193	-0.372074	0.238216	0.286989	0	0	-0.186707	0.0545877	-0.0783075	0.240722	-0.333187	1.1911	0.498312	0.808049	0	0	0.0246829	-0.383894	0.803602	0.658615	0.79001	0	0
4.70715	-0.039139	-0.0156009	-1.67945	0.0254192	1.02909	0.973314	0.315471	-0.0700226	-0.273333	0.159128	0.149331	0	0	-0.0191623	-0.00107132	-0.370427	0.237408	0.288584	0	0	-0.185881	0.0545302	-0.0783408	0.23935	-0.332208	1.19478	0.495034	0.806231	0	0	0.0244627	-0.384022	0.805725	0.657273	0.789435	0	0
4.71713	-0.0384534	-0.0154603	-1.6772	0.0245765	1.0288	0.975834	0.314444	-0.0699337	-0.275246	0.156701	0.14959	0	0	-0.0220397	-0.00100106	-0.36868	0.236449	0.290116	0	0	-0.184987	0.0544676	-0.0786957	0.238096	-0.331205	1.19836	0.491988	0.804856	0	0	0.024103	-0.384168	0.807893	0.655774	0.788415	0	0
4.72711	-0.0377126	-0.0153176	-1.67479	0.0236882	1.02851	0.978414	0.313062	-0.0698936	-0.276375	0.155016	0.14992	0	0	-0.0250288	-0.0009198	-0.36683	0.235341	0.291579	0	0	-0.184029	0.0544041	-0.0793709	0.236947	-0.330193	1.20174	0.489235	0.803877	0	0	0.0236061	-0.384338	0.810072	0.654141	0.786933	0	0
4.73709	-0.036929	-0.0151695	-1.6722	0.0227526	1.02821	0.981051	0.311311	-0.0698795	-0.276817	0.153903	0.150229	0	0	-0.0281235	-0.000846527	-0.364881	0.234091	0.292969	0	0	-0.183008	0.054349	-0.0803433	0.23588	-0.329197	1.20481	0.486842	0.803256	0	0	0.0229877	-0.384531	0.812247	0.652392	0.784993	0	0
4.74707	-0.0361215	-0.0150098	-1.66945	0.0217683	1.02791	0.983746	0.30919	-0.0698665	-0.276715	0.153199	0.150412	0	0	-0.0313131	-0.000807096	-0.362839	0.232713	0.294279	0	0	-0.181926	0.0543184	-0.0815719	0.234863	-0.328243	1.20743	0.484869	0.802965	0	0	0.0222772	-0.384742	0.814425	0.650528	0.782618	0	0
4.75705	-0.0353153	-0.0148308	-1.66653	0.0207345	1.02762	0.986496	0.306718	-0.069829	-0.27624	0.152758	0.150354	0	0	-0.0345822	-0.000832781	-0.360716	0.231224	0.295501	0	0	-0.180783	0.0543335	-0.0830011	0.233865	-0.327361	1.20949	0.483365	0.802984	0	0	0.0215149	-0.384955	0.816631	0.648544	0.779847	0	0
4.76703	-0.0345382	-0.0146238	-1.66347	0.0196512	1.02732	0.989299	0.30393	-0.0697424	-0.27558	0.152454	0.149937	0	0	-0.0379125	-0.00095703	-0.358525	0.229645	0.296625	0	0	-0.179581	0.0544193	-0.0845731	0.232866	-0.326571	1.21092	0.482346	0.803258	0	0	0.0207438	-0.385154	0.818909	0.646422	0.77671	0	0
4.77701	-0.0338196	-0.0143797	-1.66029	0.018519	1.02703	0.992152	0.300872	-0.0695844	-0.274918	0.152185	0.149053	0	0	-0.0412824	-0.00121294	-0.35628	0.228	0.297641	0	0	-0.178318	0.0546014	-0.0862285	0.23186	-0.325888	1.21172	0.481803	0.803713	0	0	0.0200065	-0.385317	0.821303	0.644144	0.773239	0	0
4.78699	-0.0331864	-0.0140906	-1.65701	0.0173398	1.02676	0.995049	0.297602	-0.0693372	-0.274418	0.151878	0.147612	0	0	-0.0446701	-0.00162957	-0.353999	0.226314	0.298537	0	0	-0.176996	0.054904	-0.0879107	0.230847	-0.325322	1.21192	0.481706	0.804275	0	0	0.0193414	-0.385424	0.823858	0.641691	0.769473	0	0
4.79697	-0.0326606	-0.0137508	-1.65367	0.0161165	1.02649	0.997986	0.294183	-0.0689888	-0.274208	0.151489	0.145553	0	0	-0.0480547	-0.00222831	-0.351701	0.224612	0.299305	0	0	-0.175619	0.0553455	-0.0895693	0.229834	-0.324875	1.21159	0.482003	0.804877	0	0	0.0187792	-0.385455	0.826608	0.639051	0.765453	0	0
4.80695	-0.0322561	-0.0133577	-1.65028	0.0148528	1.02625	1.00096	0.290676	-0.0685342	-0.27437	0.150997	0.142855	0	0	-0.0514188	-0.00301959	-0.349401	0.222915	0.299937	0	0	-0.174192	0.0559365	-0.0911643	0.22883	-0.324544	1.2108	0.482633	0.805466	0	0	0.0183403	-0.385398	0.829574	0.636221	0.761221	0	0
4.81693	-0.0319765	-0.0129124	-1.64689	0.0135539	1.02602	1.00395	0.287133	-0.0679767	-0.274937	0.150406	0.139538	0	0	-0.0547498	-0.0040007	-0.347113	0.22124	0.300434	0	0	-0.172722	0.0566769	-0.0926689	0.227845	-0.32432	1.20966	0.48353	0.806011	0	0	0.0180329	-0.385245	0.832762	0.633207	0.756814	0	0
4.82691	-0.0318141	-0.0124192	-1.6435	0.0122256	1.02581	1.00697	0.283595	-0.0673274	-0.275894	0.149733	0.135666	0	0	-0.0580408	-0.00515489	-0.344845	0.219598	0.300803	0	0	-0.171219	0.0575547	-0.094072	0.226889	-0.324187	1.20826	0.484626	0.806493	0	0	0.0178518	-0.385	0.836156	0.63003	0.75227	0	0
4.83689	-0.0317509	-0.0118859	-1.64013	0.0108745	1.02562	1.01	0.280089	-0.0666039	-0.277182	0.149002	0.131339	0	0	-0.0612913	-0.0064526	-0.342602	0.217993	0.30106	0	0	-0.16969	0.0585473	-0.0953782	0.225963	-0.324127	1.20668	0.485858	0.806912	0	0	0.0177787	-0.384675	0.839723	0.626721	0.747626	0	0
4.84686	-0.0317605	-0.0113227	-1.63678	0.00950746	1.02544	1.01304	0.276624	-0.065828	-0.278715	0.148241	0.126685	0	0	-0.0645071	-0.00785494	-0.340379	0.21642	0.301231	0	0	-0.168145	0.0596237	-0.0966065	0.225067	-0.324119	1.20499	0.487172	0.807278	0	0	0.0177857	-0.384289	0.843416	0.62332	0.742917	0	0
4.85684	-0.0318137	-0.0107412	-1.63345	0.00813112	1.02527	1.01609	0.273191	-0.065022	-0.280393	0.147467	0.12184	0	0	-0.0676993	-0.0093195	-0.338172	0.214871	0.301347	0	0	-0.16659	0.0607498	-0.0977847	0.224191	-0.32414	1.20327	0.488527	0.807609	0	0	0.0178405	-0.383865	0.847182	0.619866	0.738173	0	0
4.86682	-0.0318839	-0.0101523	-1.63013	0.0067512	1.0251	1.01914	0.269775	-0.0642049	-0.282128	0.146691	0.116919	0	0	-0.0708811	-0.0108083	-0.335971	0.213331	0.30144	0	0	-0.165032	0.0618953	-0.0989421	0.223326	-0.324173	1.20152	0.489895	0.807925	0	0	0.0179139	-0.383426	0.850975	0.616392	0.733417	0	0
