Coordinates
version=1
nRows=252
nColumns=38
inDegrees=no

Units are S.I. units (second, meters, Newtons, ...)
If the header above contains a line with 'inDegrees', this indicates whether rotational values are in degrees (yes) or radians (no).

endheader
time	pelvis_tilt_moment	pelvis_list_moment	pelvis_rotation_moment	pelvis_tx_force	pelvis_ty_force	pelvis_tz_force	hip_flexion_r_moment	hip_adduction_r_moment	hip_rotation_r_moment	knee_angle_r_moment	ankle_angle_r_moment	subtalar_angle_r_moment	mtp_angle_r_moment	hip_flexion_l_moment	hip_adduction_l_moment	hip_rotation_l_moment	knee_angle_l_moment	ankle_angle_l_moment	subtalar_angle_l_moment	mtp_angle_l_moment	lumbar_extension_moment	lumbar_bending_moment	lumbar_rotation_moment	arm_flex_r_moment	arm_add_r_moment	arm_rot_r_moment	elbow_flex_r_moment	pro_sup_r_moment	wrist_flex_r_moment	wrist_dev_r_moment	arm_flex_l_moment	arm_add_l_moment	arm_rot_l_moment	elbow_flex_l_moment	pro_sup_l_moment	wrist_flex_l_moment	wrist_dev_l_moment
0	0	0	0	0	0	0	0	0	0	0	0	0	0	0	0	0	0	0	0	0	0	0	0	0	0	0	0	0	0	0	0	0	0	0	0	0	0
0.00996032	-11.7381	-60.6942	0.0663747	-2.69203	808.079	-0.561028	-14.6445	3.0726	0.0656825	5.52377	1.43082	-0.254065	-0.0450617	19.1857	-3.81948	-0.040635	-5.56294	1.41067	-0.219967	-0.0433658	6.20283	-1.53198	-0.537527	2.19159	-2.36658	-0.542194	0.927077	-0.017193	0.0609696	-0.100285	-0.673765	-3.32556	-0.143549	0.355864	-0.00358872	0.0315532	-0.0301122
0.0199206	-11.8116	-62.5983	0.629504	-3.63133	805.467	-5.93978	-13.8453	2.7327	0.0894179	5.53267	1.38768	-0.246587	-0.0433931	16.7043	-4.04143	-0.0492186	-4.52168	1.60797	-0.296874	-0.0445335	5.89127	-1.39738	-0.438581	2.14589	-2.42298	-0.523375	0.902459	-0.0140767	0.0615566	-0.0966046	-0.436643	-3.32575	-0.202947	0.392631	-0.00646156	0.0288598	-0.0427261
0.029881	-11.3938	-64.501	1.41166	-4.0215	798.59	-13.7683	-12.5367	2.36157	0.111383	5.43422	1.33914	-0.23602	-0.0413339	13.4422	-4.14058	-0.0445914	-3.38848	2.0206	-0.420206	-0.0465594	5.64219	-1.10014	-0.175631	2.16707	-2.49166	-0.515039	0.884314	-0.0117265	0.0622306	-0.0946936	-0.121989	-3.33515	-0.281123	0.442241	-0.0112319	0.0251893	-0.0592886
0.0398413	-10.4949	-65.9979	2.27951	-3.68061	786.892	-23.0202	-10.8675	1.94418	0.130245	5.24562	1.28898	-0.224159	-0.0390646	9.82481	-4.14352	-0.0151192	-2.44295	2.63788	-0.569619	-0.0494956	5.50305	-0.599773	0.187668	2.24196	-2.56992	-0.517039	0.870991	-0.0101815	0.0628293	-0.0947829	0.226239	-3.3513	-0.367409	0.496969	-0.0172233	0.0211159	-0.0776824
0.0498016	-9.14501	-66.7472	3.11369	-2.61023	769.985	-32.6922	-8.96469	1.45833	0.146169	4.98385	1.23922	-0.212455	-0.0367043	6.18299	-4.11834	0.0535171	-1.89054	3.4153	-0.722028	-0.053166	5.54059	0.105212	0.573916	2.35484	-2.65428	-0.52824	0.86064	-0.00943865	0.0631974	-0.0968815	0.57429	-3.3711	-0.453473	0.551384	-0.0238505	0.0171501	-0.096258
0.0597619	-7.43804	-66.4421	3.83152	-0.968095	748.099	-41.9835	-6.92548	0.885938	0.159863	4.66388	1.19093	-0.201918	-0.0343391	2.83748	-4.18063	0.177364	-1.88642	4.27193	-0.851278	-0.0572335	5.80725	0.981645	0.920316	2.4912	-2.74073	-0.54731	0.851628	-0.00945648	0.0631891	-0.100881	0.899653	-3.39188	-0.533577	0.601912	-0.0305979	0.0136485	-0.113841
0.0697222	-5.46922	-64.9035	4.39673	0.911952	721.692	-50.4351	-4.80392	0.222266	0.172673	4.29909	1.14394	-0.192798	-0.0320148	-0.00555058	-4.45121	0.368514	-2.48522	5.1089	-0.933967	-0.0611904	6.32414	1.9525	1.19843	2.63912	-2.82464	-0.572453	0.842191	-0.0100072	0.0626303	-0.106438	1.19193	-3.41396	-0.604308	0.64523	-0.0368514	0.0106593	-0.129577
0.0796825	-3.33746	-62.2565	4.81029	2.78431	691.096	-57.7683	-2.66404	-0.513182	0.185384	3.90697	1.0983	-0.184989	-0.0297957	-2.30283	-5.00567	0.639339	-3.64903	5.83079	-0.951618	-0.0646507	6.99443	2.94461	1.41063	2.78152	-2.90156	-0.602275	0.83207	-0.010805	0.0616601	-0.113324	1.44105	-3.43424	-0.664473	0.680934	-0.0421298	0.00833682	-0.143191
0.0896429	-1.164	-58.8851	5.09712	4.533	656.442	-63.851	-0.5981	-1.26735	0.198922	3.51173	1.05522	-0.177951	-0.0278113	-4.12772	-5.8704	0.999416	-5.28145	6.3601	-0.892728	-0.0673634	7.6086	3.91109	1.5916	2.89333	-2.96563	-0.635293	0.82333	-0.011481	0.0608867	-0.121376	1.63415	-3.44481	-0.714165	0.71137	-0.046056	0.00701994	-0.154826
0.0996032	1.00251	-54.556	5.03882	5.71499	618.679	-68.0242	1.34726	-1.98105	0.210497	3.13822	1.01598	-0.171078	-0.0261897	-5.54192	-7.07997	1.44439	-7.27753	6.64414	-0.754627	-0.0690429	8.54918	4.81205	1.52228	3.00367	-3.01127	-0.670333	0.813727	-0.0136571	0.0592247	-0.130115	1.7938	-3.4478	-0.751541	0.735021	-0.0495022	0.00644728	-0.163755
0.109563	3.09947	-49.9265	4.77518	6.28581	577.829	-70.9794	3.1048	-2.59148	0.219513	2.81323	0.981981	-0.163642	-0.0250724	-6.6314	-8.58881	1.96846	-9.52698	6.65955	-0.541825	-0.0695644	9.34583	5.56858	1.3802	3.07559	-3.03448	-0.706089	0.806381	-0.0160953	0.0577082	-0.139306	1.90359	-3.43871	-0.779633	0.75377	-0.0512863	0.00664679	-0.170619
0.119524	5.14169	-44.8173	4.18894	5.98906	535.197	-72.5756	4.67575	-3.07361	0.219245	2.5596	0.954113	-0.155792	-0.024534	-7.42663	-10.3751	2.55553	-11.9446	6.41306	-0.267097	-0.0689488	10.3007	6.1498	1.04155	3.13353	-3.03228	-0.74015	0.799098	-0.0195046	0.0554808	-0.148166	1.99351	-3.42395	-0.797478	0.765603	-0.0522405	0.00710945	-0.174874
0.129484	7.08943	-39.5554	3.32602	4.86664	491.381	-73.1723	6.01088	-3.38175	0.205695	2.40454	0.935316	-0.147488	-0.0247519	-7.99259	-12.3791	3.19108	-14.4523	5.93362	0.0525693	-0.067337	11.2708	6.54506	0.568567	3.1678	-3.0055	-0.771356	0.792161	-0.0235094	0.0527219	-0.156318	2.06726	-3.40389	-0.806824	0.770931	-0.0522143	0.00758427	-0.176776
0.139444	8.88266	-34.4835	2.27169	3.0491	446.914	-73.1616	7.06788	-3.48477	0.175494	2.37066	0.929277	-0.138996	-0.0259209	-8.39314	-14.5537	3.86136	-16.989	5.26537	0.398577	-0.0649375	12.0862	6.76968	0.0563418	3.16469	-2.95554	-0.798148	0.786718	-0.0275996	0.0498748	-0.163354	2.12492	-3.37765	-0.809185	0.770628	-0.0510096	0.00792369	-0.17662
0.149405	10.4077	-29.9926	1.14366	0.796908	402.041	-72.791	7.77112	-3.3602	0.129352	2.4756	0.943987	-0.131481	-0.0284067	-8.7043	-16.8716	4.5545	-19.5089	4.45793	0.753933	-0.061908	12.5494	6.89587	-0.371631	3.10409	-2.88195	-0.819413	0.785486	-0.031322	0.0476598	-0.169072	2.16082	-3.3408	-0.805706	0.765538	-0.0483863	0.00797741	-0.174643
0.159365	11.6864	-25.8087	-0.183815	-1.90411	357.665	-71.6197	8.13117	-3.03935	0.0654361	2.71797	0.981805	-0.126084	-0.032277	-8.96612	-19.3509	5.26191	-21.9852	3.56543	1.10484	-0.0585597	13.0274	6.95699	-0.899202	3.01607	-2.78724	-0.834308	0.78575	-0.0356548	0.0451005	-0.173249	2.18178	-3.29501	-0.795434	0.756655	-0.0451416	0.00788039	-0.170684
0.169325	12.6612	-21.9814	-1.60164	-4.80534	314.32	-69.7695	8.18293	-2.57866	-0.0143226	3.07962	1.04518	-0.124245	-0.0375658	-9.20311	-22.0114	5.97683	-24.4015	2.63699	1.44278	-0.0551547	13.5159	7.01818	-1.47337	2.89937	-2.67807	-0.84231	0.786663	-0.0402606	0.042233	-0.175745	2.18596	-3.23859	-0.778763	0.745996	-0.0413981	0.0077727	-0.16502
0.179286	13.2794	-18.5018	-2.98167	-7.63864	272.47	-67.3489	7.99343	-2.05166	-0.105791	3.52494	1.13526	-0.127378	-0.0442097	-9.41972	-24.877	6.69343	-26.7489	1.7142	1.76408	-0.0519143	14.0095	7.14707	-2.03287	2.7528	-2.56142	-0.842894	0.787527	-0.0448012	0.0391968	-0.176457	2.17058	-3.16977	-0.756062	0.735782	-0.0372938	0.00785282	-0.157977
0.189246	13.5013	-15.3013	-4.19101	-10.1459	232.534	-64.4579	7.66028	-1.53899	-0.203467	4.00171	1.25129	-0.136595	-0.052021	-9.59852	-27.9651	7.40516	-29.0217	0.829068	2.06897	-0.0490089	14.505	7.40411	-2.51589	2.57602	-2.44425	-0.835574	0.787812	-0.0489385	0.0362079	-0.175327	2.13309	-3.08745	-0.727776	0.728219	-0.0329959	0.00834092	-0.149919
0.199206	13.288	-12.2621	-5.10872	-12.1234	194.862	-61.2184	7.30898	-1.09958	-0.305037	4.44437	1.39045	-0.151994	-0.060696	-9.70367	-31.2757	8.10366	-31.2132	0.00278248	2.36013	-0.04655	14.993	7.83443	-2.86148	2.36996	-2.33313	-0.820073	0.787214	-0.0523551	0.033537	-0.172361	2.07217	-2.99173	-0.694584	0.725208	-0.0286841	0.00942422	-0.141247
0.209167	12.6275	-9.2576	-5.6155	-13.3146	159.668	-57.7135	7.0639	-0.798049	-0.404553	4.78034	1.55134	-0.174256	-0.0699527	-9.69586	-34.7828	8.77867	-33.3097	-0.755254	2.64119	-0.0445662	15.4575	8.48351	-3.01277	2.13603	-2.23373	-0.796424	0.785301	-0.0547911	0.031423	-0.167627	1.98849	-2.88269	-0.657305	0.727788	-0.0245034	0.0111511	-0.132304
0.219127	11.5332	-6.19569	-5.60701	-13.5663	127.161	-54.139	7.05123	-0.672357	-0.499224	4.93769	1.7292	-0.203011	-0.079354	-9.52709	-38.4332	9.41728	-35.2917	-1.44541	2.91505	-0.0430604	15.8416	9.35841	-2.90073	1.87571	-2.15166	-0.764988	0.782232	-0.0558532	0.030212	-0.161268	1.88454	-2.76374	-0.617205	0.736431	-0.0205613	0.0135237	-0.123487
0.229087	10.0832	-2.83742	-5.13223	-12.9548	97.5685	-50.4116	7.36776	-0.72181	-0.591662	4.85829	1.91667	-0.236757	-0.0883798	-9.15788	-42.1586	10.0047	-37.1316	-2.07647	3.18244	-0.0420013	16.2607	10.4123	-2.59664	1.60813	-2.09105	-0.726982	0.776484	-0.0559432	0.0296022	-0.15354	1.76443	-2.64059	-0.575234	0.751067	-0.0171428	0.0166065	-0.115039
0.239048	8.34699	0.84817	-4.22066	-11.5757	70.9984	-46.6631	8.06011	-0.913825	-0.687595	4.50846	2.10508	-0.273248	-0.0965183	-8.5593	-45.8687	10.5245	-38.7956	-2.66371	3.44144	-0.0413287	16.6832	11.5777	-2.10838	1.33979	-2.05658	-0.683268	0.767348	-0.0549548	0.0296415	-0.144598	1.63179	-2.51864	-0.533004	0.77152	-0.0142501	0.0204009	-0.10733
0.249008	6.40092	4.95255	-3.01306	-9.64428	47.6219	-42.8166	9.12186	-1.16445	-0.802868	3.88798	2.28732	-0.309286	-0.103443	-7.7229	-49.4572	10.9619	-40.2461	-3.22636	3.68741	-0.0409688	17.2042	12.7748	-1.53249	1.08775	-2.05192	-0.635058	0.75273	-0.0532592	0.0299257	-0.134582	1.49662	-2.40356	-0.491667	0.797021	-0.0121616	0.0248612	-0.100514
0.258968	4.37284	9.41407	-1.63065	-7.24097	27.4535	-38.8466	10.4795	-1.43399	-0.93764	3.02561	2.45785	-0.343489	-0.108972	-6.65663	-52.8084	11.3033	-41.4455	-3.78583	3.91358	-0.0408302	17.848	13.9329	-0.9469	0.861063	-2.08019	-0.583118	0.73065	-0.0509492	0.0301748	-0.123511	1.36744	-2.29763	-0.452245	0.826942	-0.0109287	0.029942	-0.0947096
0.268929	2.40256	14.0906	-0.238312	-4.6178	10.5814	-34.7607	12.0154	-1.66291	-1.09452	1.98383	2.60728	-0.373171	-0.112882	-5.37895	-55.8142	11.5375	-42.3612	-4.36316	4.11192	-0.0408473	18.6232	14.9485	-0.437747	0.666861	-2.14116	-0.527979	0.700799	-0.0481325	0.0302921	-0.111432	1.25109	-2.20365	-0.415482	0.860898	-0.0105489	0.0357053	-0.0900154
0.278889	0.552998	18.2545	1.25602	-1.96912	-3.00045	-31.377	13.5739	-1.80785	-1.26891	0.854081	2.72289	-0.395301	-0.11491	-3.91154	-58.3797	11.6555	-42.9682	-4.97837	4.27479	-0.0409774	19.0318	15.7087	0.249063	0.473941	-2.23255	-0.469122	0.668521	-0.0435328	0.0316795	-0.0983971	1.14905	-2.12706	-0.383579	0.897676	-0.0103127	0.0419364	-0.0868595
0.288849	-1.07594	21.9203	2.61701	0.805644	-13.498	-28.2301	14.9862	-1.85722	-1.45507	-0.268582	2.80265	-0.408936	-0.115315	-2.31302	-60.4344	11.6572	-43.2448	-5.65222	4.39693	-0.0411213	19.2822	16.2298	0.900636	0.305111	-2.35807	-0.408933	0.628038	-0.0375587	0.0330212	-0.0845851	1.06469	-2.06727	-0.354907	0.934785	-0.0103419	0.0485599	-0.0846304
0.29881	-2.39237	25.0776	3.60914	3.47672	-20.9953	-25.0419	16.1186	-1.77382	-1.65397	-1.28736	2.83924	-0.411403	-0.114151	-0.635804	-61.9368	11.547	-43.1829	-6.40281	4.47639	-0.0412421	19.5317	16.4706	1.33176	0.176199	-2.51436	-0.348807	0.577895	-0.0306074	0.0336113	-0.0701926	0.999149	-2.02329	-0.32809	0.971319	-0.0107087	0.0557142	-0.0829443
0.30877	-3.28968	27.7064	4.03556	5.75835	-25.5825	-21.5735	16.8539	-1.56431	-1.85196	-2.11065	2.82539	-0.401408	-0.111423	1.06735	-62.8836	11.3341	-42.7869	-7.24609	4.51495	-0.0413283	19.9157	16.386	1.37759	0.097687	-2.68989	-0.289186	0.520627	-0.023076	0.0332846	-0.0554783	0.950251	-1.99039	-0.30148	1.00779	-0.0114204	0.0636958	-0.0815176
0.31873	-3.72573	29.7587	3.76849	7.26277	-27.4172	-17.7267	17.1192	-1.22106	-2.0439	-2.66575	2.75594	-0.377632	-0.107168	2.74364	-63.3101	11.0318	-42.0722	-8.19559	4.51783	-0.0413847	20.4904	15.9301	0.950322	0.0733278	-2.86351	-0.229748	0.463701	-0.0154987	0.0325955	-0.0408376	0.910682	-1.96034	-0.273256	1.04583	-0.0123142	0.0728894	-0.0801895
0.32869	-3.83096	30.2927	3.32527	7.90595	-26.9438	-14.9033	16.904	-0.77111	-2.21393	-2.90748	2.63278	-0.341331	-0.101601	4.33985	-63.2574	10.6573	-41.0623	-9.26194	4.49359	-0.0414624	20.4002	15.0777	0.701064	0.0476035	-3.00597	-0.169848	0.424328	-0.00744306	0.0346259	-0.0269448	0.873669	-1.93105	-0.246094	1.08451	-0.0121972	0.082648	-0.0795514
0.338651	-3.64945	29.4212	2.69371	7.55691	-24.5702	-12.9593	16.2383	-0.244833	-2.35381	-2.8235	2.46396	-0.294828	-0.0950784	5.79711	-62.8237	10.2308	-39.7899	-10.4532	4.45152	-0.041591	19.7262	13.8714	0.579631	0.0317238	-3.11254	-0.113796	0.401057	0.000467787	0.0384616	-0.0145063	0.830797	-1.90657	-0.219994	1.12088	-0.0110659	0.0926146	-0.0792882
0.348611	-3.25949	27.5808	1.75318	6.24758	-20.8121	-11.3972	15.1617	0.326517	-2.46436	-2.43274	2.2516	-0.239011	-0.0875763	7.11106	-62.1422	9.76297	-38.3012	-11.7762	4.39986	-0.0417148	18.7722	12.415	0.377751	0.0405434	-3.19201	-0.0628868	0.387877	0.00850015	0.0428851	-0.00360373	0.770383	-1.88474	-0.192536	1.15371	-0.00890812	0.102844	-0.0787815
0.358571	-2.80023	24.6612	0.935738	4.41517	-16.402	-10.6025	13.7992	0.892373	-2.54002	-1.79111	2.01668	-0.179331	-0.0797637	8.23874	-61.2734	9.27123	-36.6325	-13.2349	4.34729	-0.0418661	17.281	10.8439	0.478259	0.0505477	-3.23377	-0.0181764	0.388979	0.0157037	0.04866	0.005453	0.702097	-1.86094	-0.164955	1.18265	-0.00639668	0.112648	-0.078139
0.368532	-2.29455	21.0564	0.269618	2.22862	-11.8928	-10.3152	12.2677	1.42112	-2.58312	-0.965257	1.7733	-0.119381	-0.0719727	9.18636	-60.3031	8.76314	-34.8276	-14.8318	4.29936	-0.0420318	15.4418	9.24619	0.81348	0.0647627	-3.24889	0.0185398	0.397969	0.0217396	0.0546941	0.0126617	0.622488	-1.83896	-0.137581	1.2056	-0.00370631	0.121635	-0.0771415
0.378492	-1.73241	17.1574	-0.228521	-0.131001	-7.78169	-10.2982	10.6859	1.88637	-2.59619	-0.0283972	1.53589	-0.0627579	-0.0645373	9.97362	-59.295	8.24259	-32.9258	-16.5687	4.25982	-0.0421976	13.4378	7.69331	1.31	0.0822476	-3.24653	0.0466228	0.409687	0.0264074	0.0601821	0.0181523	0.530037	-1.82022	-0.110919	1.22159	-0.000985385	0.129507	-0.075705
0.388452	-1.08292	13.3208	-0.565322	-2.4961	-4.45762	-10.3455	9.15956	2.26747	-2.58166	0.949801	1.31754	-0.0126249	-0.0577627	10.6303	-58.2946	7.71079	-30.9584	-18.4471	4.2312	-0.0423493	11.4381	6.23784	1.88612	0.100149	-3.23346	0.0662763	0.420418	0.0296517	0.0645924	0.0221172	0.425108	-1.80439	-0.0855598	1.23051	0.00166819	0.136057	-0.0738457
0.398413	-0.306942	9.84496	-0.781186	-4.78387	-2.14493	-10.304	7.768	2.55244	-2.54103	1.91176	1.12759	0.028811	-0.05185	11.197	-57.3389	7.16673	-28.9493	-20.4679	4.21533	-0.0424697	9.58975	4.90473	2.45073	0.116151	-3.21423	0.0782538	0.427902	0.0315945	0.0676298	0.0247649	0.310034	-1.79044	-0.0622402	1.23272	0.00421848	0.141143	-0.0716573
0.408373	0.603778	6.95873	-0.979995	-7.20291	-0.790351	-10.1739	6.5497	2.7556	-2.47631	2.81964	0.963351	0.0621286	-0.0465651	11.7457	-56.4852	6.60468	-26.9197	-22.6314	4.21319	-0.042508	8.00717	3.67066	2.89301	0.130664	-3.19262	0.084136	0.431943	0.0327051	0.0693708	0.026308	0.188975	-1.77886	-0.0417798	1.22816	0.00670277	0.144614	-0.0692017
0.418333	1.6124	4.67736	-1.02621	-9.1337	-0.534436	-9.84071	5.55419	2.82817	-2.38207	3.63378	0.841132	0.0835368	-0.0424983	12.2486	-55.7155	6.03565	-24.8616	-24.9355	4.22791	-0.0425041	6.68359	2.64666	3.30792	0.137082	-3.1671	0.0844211	0.433202	0.0325462	0.0700708	0.0268553	0.0812537	-1.76441	-0.0249006	1.21904	0.00840947	0.146371	-0.0667142
0.428294	2.69409	3.02037	-0.975116	-10.5112	-1.16723	-9.29619	4.78008	2.77197	-2.26069	4.34366	0.761387	0.0932427	-0.0396736	12.7292	-55.0393	5.4613	-22.7715	-27.3744	4.2611	-0.0424618	5.64232	1.84614	3.65213	0.136593	-3.13961	0.0797907	0.432004	0.0312999	0.0698459	0.0265087	-0.00422411	-1.74975	-0.0126092	1.20519	0.00932299	0.146296	-0.0642866
0.438254	3.79772	1.94039	-0.87927	-11.3062	-2.39513	-8.57774	4.20785	2.59967	-2.11748	4.95091	0.721593	0.0922935	-0.0380369	13.206	-54.4617	4.8832	-20.6415	-29.9386	4.31382	-0.0423892	4.87291	1.27919	3.89834	0.131688	-3.1115	0.0708089	0.429197	0.0291848	0.0688846	0.0253317	-0.0590134	-1.73792	-0.00566815	1.18641	0.00945405	0.144344	-0.0619592
0.448214	4.85436	1.34499	-0.776732	-11.5153	-3.88774	-7.76576	3.80902	2.33283	-1.96089	5.46469	0.717036	0.0823479	-0.0374688	13.6937	-53.983	4.30236	-18.4616	-32.6147	4.38644	-0.0422979	4.33709	0.953432	4.04048	0.125556	-3.0838	0.0579336	0.4259	0.0264424	0.0674186	0.0233652	-0.0759629	-1.73206	-0.00447218	1.16258	0.0088148	0.140558	-0.0597056
0.458175	5.78452	1.11855	-0.680139	-11.1637	-5.31028	-6.98385	3.55413	2.00171	-1.80223	5.89746	0.741579	0.0654657	-0.0378001	14.2064	-53.5989	3.71866	-16.2236	-35.3862	4.47862	-0.0422011	3.97546	0.872537	4.0992	0.12135	-3.05727	0.0415862	0.423312	0.0233297	0.0657072	0.0206514	-0.0496573	-1.73502	-0.00893638	1.13378	0.00738895	0.13508	-0.0574219
0.468135	6.51194	1.1472	-0.569748	-10.3331	-6.29215	-6.41068	3.42005	1.6392	-1.65438	6.26189	0.788032	0.0439242	-0.0388109	14.7658	-53.3087	3.1297	-13.9239	-38.2341	4.58916	-0.0421105	3.71778	1.02759	4.12758	0.121613	-3.03207	0.0222836	0.4228	0.020124	0.0640534	0.017259	0.0239128	-1.74938	-0.0184442	1.10029	0.00510188	0.128135	-0.0549086
0.478095	6.93151	1.36496	-0.408145	-9.32256	-6.20125	-6.38205	3.39662	1.29782	-1.52881	6.57252	0.845154	0.0208746	-0.0401019	15.4355	-53.1371	2.52714	-11.573	-41.1381	4.71549	-0.0420123	3.50113	1.38796	4.20038	0.128912	-3.00791	0.000483925	0.427013	0.017147	0.0629396	0.0131823	0.150096	-1.77852	-0.0318689	1.06149	0.00181155	0.119878	-0.0517031
0.488056	7.12277	1.78765	-0.428607	-8.03132	-5.50033	-6.42353	3.47386	0.979026	-1.43703	6.82437	0.912922	-0.00346205	-0.0417012	16.1257	-53.0509	1.92393	-9.16087	-44.0789	4.85698	-0.0419188	3.40285	1.91623	4.0704	0.156521	-2.99021	-0.024562	0.432429	0.0139155	0.0615348	0.00837609	0.288501	-1.81643	-0.046524	1.02078	-0.000785245	0.111485	-0.048065
0.498016	7.09153	2.33337	-0.584821	-6.4952	-4.17621	-6.62824	3.64575	0.69583	-1.38302	7.0196	0.986649	-0.0281565	-0.0434417	16.8314	-53.0312	1.32063	-6.69798	-47.0366	5.01133	-0.0418316	3.35972	2.58047	3.79281	0.205097	-2.97915	-0.0525988	0.439341	0.010581	0.0599653	0.0028953	0.435175	-1.85977	-0.0617867	0.979913	-0.00273462	0.103278	-0.0440996
0.507976	6.87135	2.93001	-0.810055	-4.75039	-2.29428	-7.06729	3.90704	0.446807	-1.36376	7.15785	1.06295	-0.0529992	-0.045193	17.5451	-53.0613	0.718244	-4.20055	-49.9917	5.17592	-0.0417499	3.31276	3.34291	3.43887	0.273057	-2.97416	-0.0831393	0.447867	0.00729341	0.0583641	-0.00315026	0.586525	-1.90632	-0.0772901	0.940192	-0.00419898	0.095461	-0.0399375
0.517937	6.51927	3.51369	-1.01966	-2.84061	0.0427116	-7.79924	4.25035	0.214949	-1.36888	7.23779	1.13982	-0.078492	-0.046869	18.2621	-53.1304	0.11754	-1.69079	-52.9263	5.34786	-0.0416739	3.20775	4.16109	3.09649	0.356516	-2.97357	-0.115405	0.458187	0.00421327	0.0569045	-0.00959323	0.740165	-1.95497	-0.0928372	0.902495	-0.00546083	0.0881412	-0.0357009
0.527897	6.10406	4.03532	-1.11432	-0.858951	2.82072	-8.91484	4.66647	-0.0293946	-1.38153	7.25914	1.21643	-0.10568	-0.0484253	18.995	-53.2427	-0.48288	0.801057	-55.8232	5.52376	-0.0416071	2.99737	4.98492	2.87209	0.449737	-2.97455	-0.148339	0.470894	0.0015286	0.0558368	-0.016217	0.896687	-2.00629	-0.108394	0.86733	-0.00691952	0.081345	-0.0314617
0.537857	5.64302	4.51061	-0.996995	0.916723	6.53041	-10.7049	5.16103	-0.301223	-1.38033	7.22835	1.29155	-0.135248	-0.049809	19.818	-53.44	-1.09155	3.2288	-58.6663	5.69879	-0.0415465	2.65816	5.76028	2.87528	0.54709	-2.97391	-0.181158	0.488433	-0.000541235	0.0556282	-0.0229357	1.06531	-2.06495	-0.124422	0.834108	-0.00904418	0.0749276	-0.0270894
0.547817	5.33093	5.0115	-0.929402	2.58115	10.0717	-12.2663	5.67864	-0.647291	-1.35243	7.14134	1.36674	-0.168627	-0.0511001	20.5884	-53.6902	-1.68454	5.58061	-61.445	5.87183	-0.0414642	2.36663	6.4341	2.82458	0.658337	-2.97601	-0.21359	0.505409	-0.00275558	0.0551849	-0.0295756	1.20655	-2.1213	-0.138875	0.803922	-0.0103269	0.0693731	-0.0230121
0.557778	5.24494	5.49449	-0.876395	4.11794	13.2865	-13.5229	6.17732	-1.10997	-1.27561	7.00842	1.44258	-0.20712	-0.0523465	21.3033	-53.9879	-2.2561	7.8215	-64.1479	6.03937	-0.0413653	2.11829	6.98413	2.76287	0.778682	-2.97892	-0.244987	0.521758	-0.00502138	0.054575	-0.0360091	1.32377	-2.17734	-0.153291	0.775852	-0.0110379	0.0643244	-0.0194243
0.567738	5.42277	5.91308	-0.81117	5.50405	16.0452	-14.4056	6.6064	-1.71596	-1.13396	6.84478	1.51918	-0.251282	-0.0536004	21.9651	-54.3321	-2.79991	9.91851	-66.765	6.19796	-0.0412566	1.9094	7.4019	2.72936	0.90293	-2.98074	-0.274675	0.537433	-0.00721639	0.053881	-0.0421038	1.42126	-2.23518	-0.169041	0.749027	-0.0114399	0.0594529	-0.0164576
0.577698	5.8524	6.21087	-0.712939	6.71084	18.2442	-14.8621	6.90469	-2.46925	-0.919114	6.6714	1.59568	-0.300693	-0.0549031	22.5815	-54.725	-3.30968	11.8426	-69.2872	6.34427	-0.0411459	1.73206	7.69391	2.76052	1.02563	-2.97991	-0.301997	0.552351	-0.00918497	0.053196	-0.0477264	1.50399	-2.29615	-0.187203	0.722893	-0.0117761	0.054504	-0.0141905
0.587659	6.47821	6.31948	-0.564773	7.70648	19.8165	-14.8719	7.00218	-3.35397	-0.630615	6.51487	1.67008	-0.353996	-0.0562719	23.167	-55.1731	-3.78016	13.5693	-71.7061	6.47498	-0.0410408	1.57011	7.87749	2.89286	1.14104	-2.97517	-0.326338	0.566457	-0.0107332	0.0526344	-0.0527474	1.57753	-2.36085	-0.208544	0.697279	-0.0122659	0.0493096	-0.0126613
0.597619	7.18396	6.15516	-0.348903	8.36153	20.8021	-14.4713	6.82348	-4.30844	-0.278314	6.40868	1.73924	-0.408367	-0.0577113	23.7467	-55.6878	-4.20875	15.0791	-74.014	6.58651	-0.0409485	1.3946	7.96793	3.16629	1.2431	-2.96548	-0.347174	0.579999	-0.0116288	0.0523579	-0.0570566	1.64851	-2.4299	-0.233693	0.672399	-0.0131096	0.0437811	-0.0118948
0.607579	7.75938	5.63989	-0.0538581	8.1542	21.6872	-13.986	6.32588	-5.17661	0.119814	6.3965	1.80018	-0.458737	-0.0592875	24.3764	-56.3016	-4.5976	16.3515	-76.2038	6.6745	-0.0408689	1.14948	7.94365	3.61384	1.32691	-2.94834	-0.364476	0.595563	-0.0116175	0.0527915	-0.0607538	1.72918	-2.50895	-0.264346	0.648066	-0.0145111	0.0377729	-0.0119506
0.61754	8.08637	4.89718	0.161703	7.42773	21.7131	-12.7003	5.38094	-5.88508	0.539581	6.51365	1.84347	-0.500658	-0.0607593	25.0184	-56.9912	-4.93613	17.3887	-78.2719	6.73599	-0.0407989	1.04997	7.88857	4.04314	1.40885	-2.93428	-0.378634	0.606819	-0.0116059	0.0527598	-0.0636456	1.81148	-2.58529	-0.297795	0.625846	-0.016258	0.0316572	-0.0126999
0.6275	7.99177	3.88034	0.311304	6.1021	20.7272	-10.6508	3.92028	-6.28812	0.957207	6.80139	1.8625	-0.528821	-0.0620081	25.7003	-57.7319	-5.22423	18.1876	-80.2157	6.76692	-0.0407376	1.07543	7.83207	4.45012	1.48857	-2.924	-0.389951	0.613376	-0.0115396	0.0522084	-0.0657701	1.89918	-2.65698	-0.333625	0.605902	-0.0183911	0.0254826	-0.0140649
0.63746	7.27784	2.55367	0.415766	3.99113	18.8829	-8.00932	1.94348	-6.2172	1.35338	7.29556	1.85252	-0.537606	-0.0629757	26.4353	-58.5095	-5.46261	18.751	-82.0351	6.76295	-0.0406883	1.18819	7.79883	4.81945	1.5674	-2.92043	-0.399347	0.615469	-0.0114093	0.0511634	-0.0673165	1.99866	-2.72304	-0.37206	0.589036	-0.0209524	0.0193325	-0.0160902
0.647421	5.84103	0.912193	0.504629	1.03171	16.2374	-4.92471	-0.511604	-5.54838	1.70566	8.0103	1.80961	-0.522654	-0.0635562	27.2332	-59.2924	-5.65445	19.0861	-83.7325	6.71962	-0.0406557	1.34471	7.79732	5.14275	1.64554	-2.92456	-0.407458	0.613338	-0.0111777	0.0496487	-0.068413	2.11251	-2.78302	-0.412698	0.575654	-0.0239155	0.0133295	-0.0187614
0.657381	3.72827	-0.901165	0.553454	-2.64635	12.8497	-1.43576	-3.34365	-4.24957	1.99633	8.93232	1.73204	-0.482299	-0.0636117	28.1005	-60.0377	-5.8053	19.2039	-85.3129	6.63256	-0.0406431	1.58578	7.82391	5.34531	1.7304	-2.9382	-0.415173	0.606519	-0.0111981	0.0474045	-0.0692261	2.23994	-2.83645	-0.454491	0.565717	-0.0271944	0.00764513	-0.0219844
0.667341	1.11229	-2.96146	0.715599	-6.32708	8.5747	1.95354	-6.39294	-2.48698	2.21828	10.0103	1.62108	-0.420462	-0.0629347	29.0439	-60.6895	-5.92309	19.1196	-86.7833	6.49801	-0.0406589	1.68035	7.94594	5.57204	1.80376	-2.9581	-0.422657	0.596558	-0.010499	0.0450602	-0.0698307	2.38082	-2.88285	-0.496885	0.558187	-0.0304026	0.00218052	-0.0256204
0.677302	-1.54262	-5.03669	0.871211	-9.7084	3.8821	5.15291	-9.42524	-0.534334	2.36762	11.1589	1.48349	-0.344839	-0.0614202	30.0398	-61.2148	-6.01479	18.8536	-88.1515	6.31358	-0.0407141	1.69503	8.07658	5.7222	1.87372	-2.98272	-0.430749	0.584776	-0.00957867	0.042485	-0.0704916	2.53226	-2.92918	-0.539303	0.551642	-0.0333934	-0.00296269	-0.0295923
0.687262	-3.79986	-6.91175	0.918569	-12.5251	-0.716093	7.91666	-12.1774	1.32695	2.44749	12.2771	1.32698	-0.263485	-0.0590057	31.0602	-61.587	-6.08628	18.4277	-89.426	6.07913	-0.0408146	1.64862	8.14733	5.71399	1.94647	-3.01072	-0.440657	0.572808	-0.00881441	0.0396395	-0.0715638	2.69009	-2.98081	-0.581236	0.545168	-0.0359096	-0.00765531	-0.0339032
0.697222	-5.37672	-8.40408	0.795595	-14.3716	-4.92155	10.0756	-14.4446	2.8643	2.46038	13.2663	1.15787	-0.183718	-0.0556242	32.0872	-61.7799	-6.14372	17.8623	-90.6148	5.79687	-0.0409589	1.5513	8.16595	5.49068	2.02754	-3.04474	-0.453713	0.560365	-0.00858098	0.0363034	-0.0732988	2.84651	-3.0352	-0.62085	0.539114	-0.0375527	-0.0116276	-0.0384678
0.707183	-6.06692	-9.35353	0.446303	-14.9681	-8.42502	11.4552	-16.0529	3.88397	2.40785	14.0385	0.982976	-0.11232	-0.051282	33.1119	-61.7851	-6.19241	17.1754	-91.7239	5.47131	-0.0411386	1.40471	8.14323	5.01033	2.12217	-3.08657	-0.471212	0.547375	-0.0092473	0.0322969	-0.0759491	2.99155	-3.08823	-0.655939	0.534372	-0.0378691	-0.0145265	-0.043193
0.717143	-5.66185	-9.6599	-0.208338	-14.1005	-10.8597	11.9692	-16.8861	4.16953	2.29321	14.5171	0.810906	-0.0576102	-0.046066	34.1257	-61.6099	-6.23544	16.3837	-92.7559	5.10913	-0.0413391	1.21074	8.07759	4.24016	2.23426	-3.13614	-0.494133	0.534318	-0.0111416	0.0275259	-0.079744	3.11159	-3.13504	-0.683844	0.53255	-0.0363644	-0.0158655	-0.0479855
0.727103	-4.25904	-9.31202	-0.932899	-11.675	-12.4342	11.2891	-16.9646	3.64609	2.12371	14.6614	0.648867	-0.0245124	-0.0401448	35.2453	-61.303	-6.2909	15.482	-93.7078	4.7161	-0.041543	0.841613	8.04474	3.46663	2.35139	-3.18598	-0.521503	0.522462	-0.0136163	0.0225753	-0.0844044	3.21372	-3.17026	-0.701297	0.532481	-0.0336122	-0.0156848	-0.0519505
0.737063	-1.76654	-8.3997	-1.80813	-7.77034	-12.5424	9.42704	-16.2353	2.22414	1.89607	14.4341	0.50896	-0.0188202	-0.033885	36.4239	-60.867	-6.35138	14.4882	-94.5735	4.3022	-0.0417282	0.237887	8.01328	2.65922	2.46629	-3.23482	-0.553471	0.513048	-0.0165174	0.0176426	-0.0900587	3.28208	-3.1933	-0.708561	0.536459	-0.0289913	-0.013697	-0.0554884
0.747024	1.53637	-6.71634	-2.69369	-3.28314	-11.1974	6.90648	-14.8531	0.135607	1.63872	13.8601	0.398272	-0.036442	-0.027764	37.7621	-60.3682	-6.42745	13.3905	-95.3398	3.87415	-0.0418594	-0.381004	7.92413	1.95089	2.58706	-3.27475	-0.587565	0.506083	-0.0200792	0.0126858	-0.0961622	3.34085	-3.20498	-0.703398	0.543002	-0.0248179	-0.010034	-0.0575987
0.756984	5.45511	-4.28988	-3.58399	1.23961	-7.97901	4.04994	-12.8622	-2.4221	1.36207	12.9561	0.326514	-0.0742573	-0.0223187	39.2467	-59.8204	-6.51297	12.1903	-95.9891	3.44	-0.0419051	-0.967479	7.72633	1.32693	2.7091	-3.3033	-0.62249	0.501972	-0.0241218	0.00781499	-0.10254	3.39028	-3.21247	-0.689673	0.551103	-0.0211847	-0.00523998	-0.0587423
0.766944	9.72486	-1.16491	-4.44687	5.27962	-2.56705	1.2313	-10.3326	-5.19376	1.08041	11.7561	0.301476	-0.127025	-0.0180741	40.8639	-59.2319	-6.60063	10.8821	-96.4979	3.00589	-0.0418295	-1.46722	7.38086	0.776267	2.82625	-3.31828	-0.656623	0.500977	-0.0283719	0.00318805	-0.108966	3.43064	-3.22173	-0.671602	0.559992	-0.0181567	0.000128886	-0.0594997
0.776905	14.0496	2.58153	-5.23737	8.42428	5.2291	-1.16871	-7.36134	-7.90837	0.809404	10.3094	0.328192	-0.188564	-0.0154807	42.597	-58.6026	-6.68186	9.45377	-96.8363	2.57578	-0.0415931	-1.83137	6.86585	0.290283	2.93086	-3.31823	-0.688272	0.503238	-0.032482	-0.000989683	-0.115209	3.46057	-3.23633	-0.653242	0.569448	-0.0156998	0.00560347	-0.0605275
0.786865	18.1488	6.80254	-5.91677	10.4392	15.4644	-2.82731	-4.06983	-10.3247	0.561462	8.67816	0.408538	-0.253164	-0.0148621	44.4162	-57.9175	-6.74578	7.88881	-96.9674	2.15158	-0.0411571	-2.04525	6.18091	-0.141092	3.01338	-3.30258	-0.716042	0.50913	-0.0360925	-0.00442459	-0.121118	3.47417	-3.25645	-0.63799	0.580566	-0.0136224	0.0109735	-0.0625605
0.796825	21.0298	10.1228	-6.5141	10.8489	21.0391	-4.0904	-2.09215	-12.0873	0.3418	7.33874	0.647752	-0.320932	-0.0164076	46.2572	-57.1408	-6.77744	6.17089	-96.8475	1.73386	-0.0404948	-2.20985	5.32334	-0.53026	3.06015	-3.26975	-0.739369	0.520833	-0.0390137	-0.00653313	-0.126781	3.45522	-3.27859	-0.628404	0.598678	-0.0116309	0.016795	-0.066716
0.806786	22.516	13.1244	-6.87873	9.64535	22.2152	-4.27229	-1.32623	-13.0648	0.168543	6.1952	1.07248	-0.362923	-0.0199607	48.1713	-56.2645	-6.77819	4.26377	-96.4245	1.3193	-0.0395727	-1.89828	4.3248	-0.811104	3.09165	-3.22357	-0.755512	0.535127	-0.041883	-0.00780159	-0.131514	3.44143	-3.29345	-0.621265	0.622116	-0.0120076	0.0227414	-0.0717844
0.816746	22.6361	15.994	-6.96051	7.14772	19.299	-3.36157	-1.58933	-13.2914	0.0475476	5.13434	1.66402	-0.360358	-0.0252297	50.1231	-55.2322	-6.73913	2.14685	-95.6404	0.905216	-0.0383856	-1.05317	3.23513	-0.967176	3.10904	-3.16872	-0.764394	0.550737	-0.0446156	-0.00826799	-0.135273	3.44491	-3.30263	-0.619654	0.648549	-0.0149453	0.0280737	-0.078013
0.826706	21.6399	18.568	-6.8683	3.72098	12.6155	-1.69906	-2.65327	-12.9075	-0.0171811	4.03689	2.36193	-0.30184	-0.0318585	51.9817	-53.9494	-6.63937	-0.180894	-94.4335	0.490568	-0.0369619	0.0874163	2.06716	-1.10566	3.1015	-3.10816	-0.767901	0.568486	-0.0468221	-0.00767217	-0.13858	3.43317	-3.31151	-0.627633	0.678713	-0.0185349	0.0329128	-0.0865421
0.836667	19.8355	20.9984	-6.58389	-0.0798993	3.14275	0.441402	-4.21615	-12.1339	-0.0187229	2.77826	3.06771	-0.180578	-0.0392396	53.671	-52.338	-6.47056	-2.71737	-92.739	0.0743217	-0.0353389	1.48969	0.863964	-1.21175	3.07193	-3.04516	-0.766644	0.587948	-0.0484273	-0.00597234	-0.141515	3.40299	-3.31578	-0.642138	0.712197	-0.02248	0.0375583	-0.0967614
0.846627	17.6051	23.3348	-6.11391	-3.69272	-7.89476	2.64243	-5.97779	-11.2413	0.0496566	1.25927	3.6747	0.00491249	-0.0467296	55.0907	-50.3234	-6.22645	-5.4396	-90.4947	-0.341599	-0.0335832	3.05791	-0.336639	-1.27575	3.02364	-2.98201	-0.761666	0.60929	-0.0494122	-0.00308485	-0.144237	3.35066	-3.31416	-0.660344	0.748241	-0.0263966	0.0422985	-0.108044
0.856587	15.3226	25.5489	-5.47858	-6.603	-19.1366	4.40686	-7.68851	-10.5063	0.194919	-0.575029	4.08594	0.252829	-0.053691	56.1408	-47.8548	-5.90726	-8.30375	-87.6454	-0.751717	-0.0317848	4.68123	-1.49576	-1.28782	2.96228	-2.92083	-0.754076	0.632536	-0.0497401	0.00100769	-0.146862	3.27715	-3.30763	-0.679793	0.784924	-0.0298419	0.0471958	-0.119647
0.866548	13.2299	27.6869	-4.61233	-8.38482	-28.949	5.09978	-9.17702	-10.1737	0.422744	-2.7284	4.22667	0.559739	-0.0595292	56.8079	-44.9429	-5.53294	-11.2568	-84.1476	-1.14825	-0.0300657	6.34535	-2.55419	-1.13499	2.90061	-2.86396	-0.744248	0.656965	-0.0492588	0.00620053	-0.14918	3.21908	-3.29643	-0.6983	0.816783	-0.033332	0.0513279	-0.130384
0.876508	11.549	29.4106	-3.57768	-8.87346	-36.3736	4.05679	-10.3645	-10.3998	0.737541	-5.1532	4.05376	0.921218	-0.0639146	56.9646	-41.5803	-5.10798	-14.203	-79.9792	-1.51615	-0.028578	7.8277	-3.49194	-0.843797	2.84477	-2.80993	-0.734114	0.683976	-0.0481456	0.012562	-0.151498	3.18535	-3.28836	-0.718766	0.841158	-0.0366841	0.054135	-0.140495
0.886468	10.3502	30.4452	-2.43449	-8.15576	-40.4902	0.522838	-11.2161	-11.258	1.13789	-7.77903	3.55469	1.33228	-0.0666564	56.5524	-37.8344	-4.64875	-17.0338	-75.1425	-1.83816	-0.0274858	8.95346	-4.30619	-0.431578	2.80506	-2.7569	-0.725214	0.714309	-0.0464535	0.0199728	-0.153965	3.19068	-3.28864	-0.743428	0.854999	-0.0396807	0.0549401	-0.150002
0.896429	9.58246	30.5487	-1.23939	-6.56872	-40.5206	-6.31738	-11.7085	-12.7347	1.61576	-10.5319	2.74715	1.78673	-0.0677472	55.5494	-33.823	-4.17433	-19.6237	-69.6694	-2.09543	-0.0269782	9.55752	-5.01666	0.0872336	2.79361	-2.70151	-0.719174	0.748839	-0.0442609	0.0282331	-0.15674	3.25095	-3.30098	-0.774679	0.85612	-0.0422689	0.053127	-0.159027
0.906389	9.11157	29.539	-0.0477549	-4.65334	-35.8503	-17.2868	-11.8112	-14.7454	2.15699	-13.3477	1.67626	2.27645	-0.0673384	53.9692	-29.6997	-3.70229	-21.8373	-63.6254	-2.27007	-0.027263	9.48917	-5.66681	0.697712	2.8237	-2.63893	-0.71785	0.788619	-0.0416921	0.0370649	-0.160036	3.38024	-3.32768	-0.814979	0.843479	-0.0445552	0.0482244	-0.1678
0.916349	8.76687	27.3186	1.08499	-3.08981	-26.0785	-33.1421	-11.4837	-17.1598	2.7434	-16.1797	0.410001	2.79123	-0.0656971	51.8644	-25.6375	-3.24605	-23.54	-57.1096	-2.34859	-0.0285591	8.62397	-6.32392	1.38289	2.90916	-2.56315	-0.723358	0.834799	-0.03892	0.0461077	-0.164149	3.58814	-3.36996	-0.866511	0.817161	-0.0467553	0.0399703	-0.176592
0.92631	8.42391	24.1805	1.90288	-2.91293	-10.6371	-54.219	-10.674	-19.8176	3.35516	-19.0024	-0.966563	3.31991	-0.0631941	49.3897	-21.8575	-2.82328	-24.623	-50.2518	-2.32712	-0.0310589	7.11294	-7.14902	1.95856	3.08557	-2.46875	-0.737793	0.885706	-0.0368008	0.0539383	-0.169519	3.88076	-3.43154	-0.93023	0.777308	-0.049354	0.0283549	-0.185359
0.93627	7.99438	20.1158	2.44748	-4.6502	9.83611	-80.9036	-9.34958	-22.5804	3.97426	-21.8105	-2.36187	3.85144	-0.0601495	46.6303	-18.4492	-2.4303	-24.9868	-43.2088	-2.20866	-0.0350075	4.82305	-8.21467	2.46883	3.35878	-2.35136	-0.763967	0.941805	-0.0355735	0.0602295	-0.176559	4.25109	-3.5148	-1.00695	0.724757	-0.0525308	0.0135279	-0.194252
0.94623	7.40728	15.3333	2.70084	-8.85551	34.3898	-113.153	-7.48799	-25.3275	4.58591	-24.6182	-3.68349	4.3774	-0.056889	43.7458	-15.5292	-2.0658	-24.5823	-36.1553	-2.009	-0.0405407	1.74662	-9.6017	2.91779	3.72913	-2.20527	-0.803294	1.00341	-0.0353492	0.0646799	-0.18547	4.68606	-3.62081	-1.09605	0.660892	-0.0564229	-0.00413069	-0.203192
0.95619	1.87455	3.52231	2.88145	-0.132118	0.0698926	0.165698	-19.8954	-27.6125	5.4316	-23.4247	-5.02902	4.87606	-0.0525427	29.0779	-13.586	-1.43382	-20.593	-29.5456	-1.74966	-0.0415251	13.0982	-7.75264	3.45712	1.91623	-2.12513	-0.496491	0.893374	-0.0141054	0.0820765	-0.129171	2.90557	-3.31887	-0.780014	0.650048	-0.0370792	0.0185796	-0.159509
0.966151	0.580092	0.983758	2.92336	-0.234153	0.0474562	0.453798	-20.4962	-30.6595	6.08899	-25.446	-6.13368	5.36845	-0.0488374	24.3437	-11.3204	-1.0856	-18.3748	-23.156	-1.45601	-0.047611	14.2158	-8.54783	3.73829	1.80645	-2.00017	-0.464054	0.885114	-0.0105138	0.0826102	-0.122888	2.76673	-3.21624	-0.769827	0.607928	-0.0361793	0.00984167	-0.155706
0.976111	-0.412513	-0.250946	2.74103	-0.0520141	-0.21691	0.264278	-20.654	-33.8277	6.72396	-27.4816	-7.11215	5.84305	-0.0456377	20.0744	-9.38335	-0.790246	-15.6184	-17.3153	-1.16565	-0.0549032	15.6898	-9.50601	3.85661	1.72111	-1.89189	-0.437518	0.86554	-0.00804724	0.0798321	-0.116846	2.60504	-3.08398	-0.758432	0.575337	-0.035962	0.00179283	-0.151892
0.986071	-0.863516	-0.154599	2.26414	-0.271981	-0.330023	0.526387	-20.4172	-37.0616	7.3296	-29.5161	-7.96268	6.30024	-0.0431161	16.3709	-7.77293	-0.552108	-12.4874	-12.1397	-0.905639	-0.0631909	17.5944	-10.7852	3.77778	1.64958	-1.79329	-0.414915	0.839431	-0.00672554	0.074455	-0.11091	2.41021	-2.943	-0.743825	0.551027	-0.0364149	-0.00508023	-0.147825
0.996032	-0.673487	0.750412	1.66143	-0.344259	-0.271432	0.722292	-19.853	-40.3782	7.90401	-31.5233	-8.69611	6.73968	-0.0413215	13.3074	-6.40509	-0.384453	-9.17291	-7.71878	-0.693304	-0.0721264	19.5263	-12.2775	3.57457	1.57603	-1.71168	-0.396492	0.809899	-0.00573216	0.0676415	-0.104981	2.18566	-2.79983	-0.727546	0.537641	-0.0370536	-0.0102946	-0.144007
1.00599	-0.261406	1.51979	0.962412	-0.250259	-0.58501	0.391003	-19.1919	-43.6035	8.4364	-33.3964	-9.33636	7.16245	-0.0401948	10.7869	-5.33183	-0.274458	-5.85673	-4.1159	-0.537053	-0.0811417	21.0116	-13.7213	3.19298	1.51659	-1.64208	-0.381436	0.780211	-0.00543097	0.0600532	-0.0990481	1.94872	-2.66417	-0.710442	0.534488	-0.0378421	-0.0136365	-0.140355
1.01595	0.0540635	1.42666	0.257738	-0.214159	-0.455631	0.430793	-18.6479	-46.5916	8.91881	-35.0312	-9.90911	7.56725	-0.0397336	8.64684	-4.62076	-0.194979	-2.73226	-1.35835	-0.436038	-0.0897171	21.9045	-14.9408	2.68552	1.46179	-1.58077	-0.36606	0.755218	-0.00583856	0.0529388	-0.0926607	1.71789	-2.55309	-0.690943	0.539026	-0.039147	-0.0151689	-0.136401
1.02591	0.208343	0.702534	-0.162942	0.18008	0.633786	1.15902	-18.097	-49.2284	9.3378	-36.4259	-10.4405	7.95279	-0.0399249	6.97803	-4.12245	-0.17291	-0.0914356	0.569267	-0.378477	-0.0972829	22.2649	-15.7817	2.20983	1.42232	-1.52908	-0.353709	0.740988	-0.00654518	0.0472591	-0.0869061	1.46331	-2.48496	-0.666323	0.550334	-0.0401439	-0.0145083	-0.131916
1.03587	-0.205684	0.837567	-0.909247	-0.0402854	-0.340807	0.51735	-17.2565	-51.5486	9.67885	-37.6542	-10.9601	8.31533	-0.0404688	6.41409	-4.14208	-0.151151	1.57639	1.76322	-0.361098	-0.103559	22.2992	-16.1246	1.49196	1.38211	-1.47961	-0.341731	0.735379	-0.00823336	0.0429615	-0.0816422	1.296	-2.4505	-0.65307	0.566815	-0.0423449	-0.0137713	-0.129148
1.04583	-0.430885	0.0985757	-1.66377	-0.0587242	-0.171384	0.599017	-16.5776	-53.646	9.95394	-38.5382	-11.4892	8.64735	-0.041385	6.3441	-4.34527	-0.154435	2.27795	2.33551	-0.368998	-0.108151	21.7257	-16.148	0.598831	1.33236	-1.45551	-0.326514	0.735768	-0.0106298	0.040446	-0.0758633	1.19148	-2.45565	-0.642528	0.590626	-0.0452271	-0.0116555	-0.126871
1.05579	0.539375	0.111969	-2.24819	-0.110365	-0.157087	0.735728	-15.559	-55.7165	10.1565	-39.2393	-12.0404	8.94127	-0.0425435	7.18866	-4.42102	-0.270964	1.67144	2.44377	-0.395273	-0.110885	20.8817	-16.2784	-0.25448	1.26189	-1.45467	-0.314197	0.747232	-0.0123122	0.0404136	-0.0711697	1.12141	-2.50914	-0.636848	0.619124	-0.0476071	-0.00858011	-0.125914
1.06575	1.9831	1.31284	-2.71638	-0.194612	-0.071434	0.759671	-14.1014	-57.6447	10.2729	-39.7859	-12.6345	9.19211	-0.0435454	8.2694	-4.25275	-0.446899	0.930865	2.51438	-0.40935	-0.111651	20.3913	-16.4086	-0.953087	1.17358	-1.45638	-0.303669	0.765299	-0.0136768	0.042171	-0.0677856	1.06668	-2.58524	-0.630034	0.644389	-0.0496793	-0.00533584	-0.12516
1.07571	3.09338	2.77271	-2.9622	-0.172939	-0.0769834	0.770563	-12.4242	-59.1993	10.2899	-40.0646	-13.2774	9.39278	-0.0443175	9.25325	-4.01417	-0.615708	0.191593	2.53751	-0.413617	-0.110332	19.9826	-16.1991	-1.43116	1.07552	-1.45695	-0.29268	0.789849	-0.0148148	0.0460647	-0.0653361	1.04127	-2.67722	-0.619925	0.66446	-0.0516696	-0.00205722	-0.123755
1.08567	3.72472	3.94079	-2.89339	-0.0893041	0.099913	0.630066	-10.6258	-60.3123	10.2048	-40.0281	-13.9668	9.53615	-0.0448089	9.92985	-3.74731	-0.746831	-0.441584	2.50826	-0.408104	-0.107023	19.4819	-15.6333	-1.6299	0.975393	-1.45198	-0.279537	0.820475	-0.0157262	0.0521447	-0.0633673	1.05829	-2.77277	-0.604458	0.680022	-0.0536428	0.00139996	-0.121189
1.09563	3.97436	4.6775	-2.81953	-0.158368	0.187128	0.424924	-8.73775	-60.9437	10.0163	-39.6707	-14.6968	9.61927	-0.0450607	10.2513	-3.46752	-0.825652	-0.909119	2.42568	-0.392613	-0.101904	18.7907	-14.8118	-1.85905	0.87952	-1.44259	-0.264969	0.85492	-0.0160409	0.0597027	-0.0621434	1.06983	-2.86795	-0.584989	0.69438	-0.0534866	0.00580747	-0.118058
1.1056	3.85572	4.80948	-2.6807	-0.0802082	0.117996	0.421108	-6.83553	-61.1335	9.73342	-38.9947	-15.4634	9.64331	-0.0450987	10.1426	-3.1777	-0.84377	-1.15692	2.29282	-0.367691	-0.0952688	17.8825	-13.7374	-2.08489	0.779239	-1.43344	-0.247254	0.890007	-0.0154065	0.0685301	-0.0610628	1.08021	-2.95671	-0.562044	0.706315	-0.0514499	0.0107498	-0.114272
1.11556	3.40807	4.24146	-2.43451	-0.151696	0.104378	0.440446	-4.96188	-60.9018	9.36765	-38.0233	-16.2638	9.6144	-0.0450126	9.63372	-2.90973	-0.8	-1.16492	2.12065	-0.335305	-0.087649	16.6952	-12.4975	-2.23722	0.670952	-1.41909	-0.226321	0.926548	-0.0136844	0.0786576	-0.0599586	1.09855	-3.04022	-0.536952	0.713727	-0.0482468	0.015681	-0.10975
1.12552	2.68857	3.00583	-1.87525	-0.183881	0.0271473	0.430451	-3.14963	-60.3395	8.93152	-36.7952	-17.0999	9.54152	-0.044797	8.74819	-2.64349	-0.714347	-0.935919	1.91172	-0.294682	-0.0791022	15.2581	-11.1217	-2.12372	0.551578	-1.39679	-0.20023	0.963309	-0.0106608	0.0900599	-0.0581368	1.14305	-3.11138	-0.506482	0.714424	-0.0438313	0.0203218	-0.103644
1.13548	1.90634	1.51939	-1.51083	-0.266502	-0.111458	0.489687	-1.38642	-59.5087	8.442	-35.3729	-17.9746	9.43727	-0.0445447	7.65265	-2.38259	-0.609923	-0.513444	1.68998	-0.250072	-0.0705386	13.7407	-9.77675	-2.21524	0.45305	-1.37203	-0.173952	0.995129	-0.00743505	0.100556	-0.0564021	1.16498	-3.15381	-0.472716	0.717065	-0.0377599	0.0257212	-0.0971685
1.14544	1.09922	0.0701301	-1.30107	-0.175649	-0.19324	0.141705	0.373224	-58.51	7.91355	-33.8347	-18.8927	9.31445	-0.0442956	6.51371	-2.11398	-0.516632	0.0476078	1.47071	-0.20364	-0.0624292	12.2065	-8.47614	-2.45961	0.384762	-1.35163	-0.150408	1.01999	-0.0042489	0.109493	-0.0549776	1.17323	-3.17554	-0.438246	0.71828	-0.0306921	0.03106	-0.0903567
1.1554	0.452195	-0.889518	-1.24626	-0.150141	-0.248336	0.336162	2.11472	-57.4442	7.36075	-32.2485	-19.8602	9.18539	-0.04409	5.43893	-1.82913	-0.460915	0.693383	1.26712	-0.157358	-0.0551603	10.9656	-7.36664	-2.80797	0.337399	-1.33516	-0.129652	1.03822	-0.00119414	0.116639	-0.0538443	1.15332	-3.18864	-0.401724	0.7133	-0.0230876	0.0358953	-0.0828349
1.16536	0.181548	-1.0242	-1.31303	-0.193375	-0.369724	0.0556283	3.94083	-56.444	6.79636	-30.7108	-20.8841	9.06128	-0.0439173	4.6319	-1.49039	-0.476208	1.35156	1.09212	-0.112786	-0.0490881	10.0176	-6.55652	-3.20924	0.327231	-1.32363	-0.115739	1.0503	0.00137562	0.121535	-0.0535207	1.11843	-3.19872	-0.366427	0.7014	-0.0156159	0.0397427	-0.0749929
1.17532	0.21903	-0.63229	-1.43499	-0.175352	-0.41194	0.255421	5.65883	-55.5671	6.23124	-29.2147	-21.9727	8.95133	-0.0437898	4.02127	-1.13356	-0.549974	2.0215	0.949032	-0.0720727	-0.0442718	9.40085	-6.01149	-3.61164	0.337002	-1.31952	-0.105619	1.05534	0.00352369	0.124336	-0.0532809	1.06256	-3.21036	-0.329763	0.681346	-0.0084759	0.0426938	-0.0663854
1.18528	0.291662	-0.31254	-1.51167	0.0118555	-0.492623	0.311138	7.12451	-54.824	5.66791	-27.741	-23.1382	8.8631	-0.0436436	3.53365	-0.822873	-0.649749	2.70382	0.830968	-0.0362688	-0.0403277	8.84119	-5.57298	-3.93415	0.369872	-1.32042	-0.0969404	1.05226	0.00542485	0.12518	-0.0523607	1.01181	-3.2297	-0.291389	0.651412	-0.00144986	0.0445425	-0.0564561
1.19524	0.330343	-0.0919095	-1.66864	-0.128518	-0.512679	0.298611	8.33073	-54.1777	5.12134	-26.3186	-24.3918	8.80489	-0.0435363	3.23068	-0.620973	-0.7579	3.35959	0.750833	-0.00968667	-0.037709	8.26758	-5.31566	-4.25688	0.412616	-1.3198	-0.0914082	1.04607	0.00694821	0.124586	-0.0514016	0.937397	-3.25085	-0.254417	0.619356	0.00483564	0.0460156	-0.0467541
1.2052	0.337412	0.0691189	-1.84126	-0.212989	-0.412159	0.465222	9.28359	-53.6786	4.59913	-24.9702	-25.7457	8.78135	-0.043459	3.10088	-0.498347	-0.872115	3.97355	0.706617	0.00784422	-0.0363123	7.7398	-5.18401	-4.54002	0.459303	-1.32214	-0.0885198	1.03649	0.00805158	0.122717	-0.0502575	0.840001	-3.2754	-0.219732	0.586495	0.0101446	0.0471074	-0.0376088
1.21516	0.344241	0.20111	-2.00644	-0.282423	-0.438866	0.411699	10.0388	-53.3474	4.10605	-23.7178	-27.2115	8.7956	-0.0433787	3.15497	-0.446823	-0.98532	4.52213	0.69468	0.0166814	-0.0359648	7.21161	-5.18246	-4.75935	0.512011	-1.32568	-0.088577	1.02447	0.00864643	0.119764	-0.0489849	0.731058	-3.30645	-0.190007	0.553839	0.0142391	0.0476703	-0.0294938
1.22512	0.374493	0.289936	-2.14561	-0.318143	-0.400846	0.107552	10.6327	-53.1892	3.64462	-22.5668	-28.7964	8.84836	-0.0432908	3.36469	-0.457219	-1.0879	4.99797	0.709746	0.0175772	-0.0364609	6.6867	-5.30516	-4.90326	0.570229	-1.33124	-0.091303	1.01084	0.00868142	0.115968	-0.0475726	0.618502	-3.34623	-0.16677	0.523021	0.0170138	0.047739	-0.0227579
1.23508	0.440396	0.349418	-2.23844	-0.15909	-0.564972	0.0434331	11.0639	-53.2033	3.21534	-21.5049	-30.5036	8.9378	-0.0431745	3.65637	-0.509423	-1.17097	5.40117	0.744708	0.0117591	-0.037545	6.23586	-5.51733	-4.97248	0.626299	-1.34059	-0.0948983	0.994981	0.00818688	0.111535	-0.0457608	0.503276	-3.39155	-0.149238	0.495187	0.0185322	0.0475052	-0.0174303
1.24504	0.527214	0.349458	-2.33751	-0.343985	-0.554592	0.164163	11.3737	-53.3204	2.81448	-20.5184	-32.33	9.06039	-0.0430372	3.99062	-0.632976	-1.21699	5.73079	0.793501	-0.000169332	-0.0389839	5.86613	-5.86735	-4.98948	0.685384	-1.34706	-0.0988305	0.979571	0.00714915	0.106786	-0.0436306	0.395862	-3.45048	-0.138598	0.46961	0.0188411	0.046868	-0.0135161
1.255	0.636985	0.292255	-2.40179	-0.0509443	-0.452727	-0.0305679	11.6242	-53.5659	2.43732	-19.6026	-34.2686	9.20976	-0.042789	4.34561	-0.754605	-1.2331	5.98665	0.845292	-0.0151179	-0.0403657	5.54104	-6.20947	-4.9754	0.76052	-1.36011	-0.10349	0.960461	0.0055742	0.101264	-0.0409411	0.314706	-3.51289	-0.134173	0.449613	0.0182571	0.0461107	-0.0109433
1.26496	0.758681	0.256915	-2.38461	-0.214811	-0.473811	0.0781288	11.862	-53.8492	2.07996	-18.7472	-36.3042	9.3791	-0.0425333	4.70325	-0.935888	-1.20631	6.15418	0.902812	-0.0342422	-0.0418089	5.26165	-6.66818	-4.82423	0.816407	-1.36353	-0.10583	0.945682	0.00420492	0.0966527	-0.0379868	0.24013	-3.5822	-0.136068	0.433343	0.0170318	0.0451559	-0.00993929
1.27492	0.893184	0.244899	-2.24993	-0.148816	-0.442068	0.0143654	12.1563	-54.1889	1.73818	-17.9498	-38.4187	9.55981	-0.0422766	5.06989	-1.11783	-1.15001	6.23606	0.963026	-0.0558153	-0.0432347	4.9633	-7.12895	-4.55094	0.864114	-1.36737	-0.107992	0.933089	0.0029383	0.0926641	-0.0350721	0.180604	-3.64778	-0.144057	0.423977	0.0152885	0.0442275	-0.0105924
1.28488	1.01221	0.250319	-2.03717	-0.110362	-0.319712	-0.141676	12.5243	-54.5328	1.40703	-17.1909	-40.5927	9.74408	-0.042038	5.41893	-1.31187	-1.06083	6.23964	1.02359	-0.0792909	-0.0445786	4.64554	-7.59549	-4.18196	0.906889	-1.36787	-0.110033	0.923965	0.00179068	0.08941	-0.0323955	0.136146	-3.71179	-0.157408	0.419693	0.01316	0.0432325	-0.0125946
1.29484	1.0703	0.248156	-1.75934	0.00894653	-0.240339	0.13634	12.9324	-54.8607	1.08326	-16.4431	-42.8066	9.92451	-0.0418304	5.6927	-1.51555	-0.93891	6.18412	1.08221	-0.104062	-0.0457963	4.35761	-8.01475	-3.74532	0.940584	-1.36613	-0.110866	0.917536	0.000834897	0.0869085	-0.0298746	0.0988972	-3.77113	-0.173418	0.41887	0.0108342	0.0422397	-0.0154325
1.3048	1.00938	0.243584	-1.47224	-0.0380459	-0.229008	-0.121876	13.4523	-55.1355	0.763333	-15.7082	-45.0433	10.096	-0.0416467	5.95308	-1.75511	-0.787764	6.06039	1.13889	-0.12995	-0.0468757	3.96352	-8.37777	-3.27801	0.981277	-1.35895	-0.112761	0.914716	-2.42433e-05	0.0850056	-0.0279128	0.0813361	-3.82756	-0.193681	0.420747	0.00826215	0.0410047	-0.0190661
1.31476	0.766644	0.178657	-1.19239	-0.149268	-0.310933	-0.0355783	13.9934	-55.34	0.446084	-14.9511	-47.2904	10.2554	-0.0414428	6.12656	-2.03971	-0.602496	5.90161	1.18976	-0.156315	-0.0477057	3.56899	-8.63047	-2.80926	1.02126	-1.34808	-0.113355	0.913433	-0.000573433	0.0836024	-0.0260687	0.0702541	-3.88099	-0.214304	0.422844	0.0056925	0.0396599	-0.022773
1.32472	0.337684	0.062391	-0.881475	-0.0966954	-0.314646	0.0463225	14.5903	-55.5118	0.130394	-14.1786	-49.5358	10.4005	-0.0413021	6.2553	-2.37349	-0.396526	5.70745	1.23913	-0.183562	-0.0484665	3.10229	-8.74697	-2.32378	1.05845	-1.33803	-0.114041	0.914243	-0.000945807	0.0828293	-0.0246725	0.0638017	-3.92524	-0.235009	0.425987	0.00313995	0.0382367	-0.0265696
1.33468	-0.0139645	-0.0385525	-0.57863	-0.100263	-0.166767	0.0390088	15.2516	-55.7041	-0.183392	-13.398	-51.7734	10.5305	-0.0412169	6.36371	-2.7202	-0.186642	5.48725	1.28733	-0.210511	-0.0492072	2.58713	-8.87065	-1.86162	1.09793	-1.32881	-0.116086	0.917411	-0.00123278	0.0824705	-0.0238933	0.0610032	-3.96123	-0.255041	0.428936	0.000629227	0.036746	-0.0302457
1.34464	0.0726577	-0.032754	-0.299451	-0.0269009	-0.303759	-0.0636991	15.977	-56.0184	-0.49356	-12.6225	-54.0013	10.6448	-0.0411363	6.45774	-2.99195	0.00369636	5.25451	1.33336	-0.235042	-0.0499528	2.05823	-9.13594	-1.46554	1.14174	-1.32459	-0.120428	0.920937	-0.00151856	0.0821143	-0.023704	0.0605192	-3.98288	-0.272866	0.431585	-0.00178402	0.0353544	-0.0336122
1.3546	0.17473	-0.161202	-0.0972105	-0.202921	-0.273014	-0.0810228	16.6786	-56.3182	-0.80245	-11.8165	-56.221	10.7455	-0.0410987	6.49157	-3.29697	0.2001	5.03076	1.37879	-0.259296	-0.0507587	1.47268	-9.42265	-1.15707	1.18351	-1.32447	-0.125717	0.924847	-0.00174748	0.081884	-0.0239049	0.0637212	-3.9979	-0.289027	0.432445	-0.00410564	0.033846	-0.0364782
1.36456	0.10167	-0.0610971	-0.0516295	-0.192134	-0.0923493	-0.347498	17.4402	-56.5604	-1.11218	-11.0106	-58.4357	10.8347	-0.0410926	6.59696	-3.6094	0.389097	4.78417	1.42621	-0.282446	-0.0517043	0.936237	-9.59913	-1.00159	1.21262	-1.34462	-0.132549	0.92407	-0.00196445	0.0812565	-0.0243419	0.088455	-4.0001	-0.30673	0.435721	-0.00641467	0.0321641	-0.0395095
1.37452	0.0953752	0.0121768	-0.0155518	-0.181418	-0.127676	-0.265569	18.1912	-56.8149	-1.4172	-10.2011	-60.6495	10.913	-0.0410917	6.60116	-3.90438	0.56775	4.57426	1.47294	-0.303656	-0.0527975	0.436924	-9.79955	-0.902125	1.24011	-1.37011	-0.141619	0.923293	-0.00205672	0.0805432	-0.0253336	0.107782	-3.99209	-0.320772	0.436218	-0.00845237	0.0304252	-0.04176
1.38448	0.150784	-0.025939	0.0708348	-0.117648	-0.199422	-0.0762147	18.9516	-57.092	-1.71433	-9.40552	-62.8671	10.9825	-0.0410608	6.47244	-4.18852	0.74161	4.42353	1.51899	-0.322963	-0.0540846	-0.065957	-10.0216	-0.815918	1.27859	-1.39811	-0.154981	0.924451	-0.00193222	0.0797432	-0.0272261	0.117751	-3.97551	-0.331033	0.43417	-0.0101887	0.0286944	-0.0432441
1.39444	0.156825	-0.11237	0.147815	-0.161902	-0.18716	-0.460666	19.7961	-57.351	-2.00202	-8.6517	-65.0924	11.0454	-0.0409908	6.23201	-4.4888	0.911701	4.32775	1.56464	-0.340373	-0.0555862	-0.588729	-10.2356	-0.793915	1.35052	-1.42637	-0.175621	0.929201	-0.00211089	0.0785858	-0.0304147	0.130317	-3.95463	-0.340075	0.430546	-0.011877	0.0268261	-0.0442392
1.4044	0.206323	-0.151577	0.147914	-0.0179234	-0.0696946	-0.0613414	20.648	-57.6051	-2.27827	-7.93417	-67.3272	11.1023	-0.040898	5.79434	-4.72207	1.066	4.31851	1.60769	-0.353753	-0.0573109	-0.876688	-10.4245	-0.913169	1.43597	-1.46448	-0.200288	0.934228	-0.00269445	0.0769231	-0.0342608	0.138938	-3.92763	-0.346364	0.426332	-0.013424	0.0250749	-0.0447054
1.41437	0.175728	0.0426269	0.0266605	-0.179559	-0.176524	-0.0215178	21.6544	-57.7785	-2.54281	-7.2992	-69.5722	11.1554	-0.0407671	5.24274	-4.91378	1.2008	4.36721	1.64652	-0.362291	-0.0591726	-1.01014	-10.5878	-1.1662	1.5525	-1.50126	-0.231348	0.943168	-0.00395197	0.0748403	-0.0392656	0.161474	-3.90356	-0.354537	0.421297	-0.0150338	0.022996	-0.0451527
1.42433	0.159342	0.0547293	-0.0444536	-0.15808	-0.0419497	0.00596636	22.7368	-57.9498	-2.7896	-6.73831	-71.8231	11.2043	-0.0406354	4.42229	-5.01409	1.31142	4.53323	1.67668	-0.364797	-0.0610888	-1.07728	-10.6845	-1.45099	1.7141	-1.53125	-0.269591	0.959588	-0.00595869	0.0726774	-0.045629	0.179117	-3.88235	-0.360766	0.414838	-0.0165328	0.0209574	-0.0450797
1.43429	0.27345	-0.369987	-0.293933	-0.127064	-0.273649	-0.125381	23.7855	-58.0513	-3.0207	-6.21841	-74.0755	11.2497	-0.0405098	3.31486	-4.90326	1.38533	4.83727	1.69214	-0.358173	-0.0628961	-1.21981	-10.7472	-1.91986	1.88962	-1.56625	-0.309969	0.975233	-0.00866436	0.0700469	-0.052121	0.226673	-3.86558	-0.3707	0.410482	-0.0180673	0.0188046	-0.0453476
1.44425	-0.142231	-0.140753	-0.637394	-0.209527	0.0594332	-0.150882	25.083	-57.8712	-3.2421	-5.82627	-76.3192	11.2966	-0.0404757	2.30021	-4.66006	1.41726	5.15159	1.69539	-0.342212	-0.0644648	-1.06375	-10.5304	-2.3529	2.03002	-1.60707	-0.349995	0.992984	-0.0106326	0.0680128	-0.0591297	0.306856	-3.86635	-0.389939	0.409587	-0.0193534	0.0158843	-0.0471194
1.45421	-0.305298	0.606678	-0.991164	-0.25089	-0.104424	-0.15615	26.6043	-57.6756	-3.4432	-5.58668	-78.541	11.3437	-0.0404271	1.27024	-4.16694	1.39924	5.52886	1.67941	-0.315407	-0.0656015	-0.670414	-10.3273	-2.7408	2.16729	-1.64637	-0.39275	1.01415	-0.0124269	0.0661479	-0.0669381	0.402152	-3.87635	-0.413497	0.410744	-0.0204791	0.0127571	-0.0498002
1.46417	-0.00961683	0.774252	-1.32451	-0.13746	-0.103087	-0.198167	28.0572	-57.5456	-3.61768	-5.41731	-80.7214	11.3905	-0.040428	0.00550341	-3.40818	1.34103	6.06066	1.63799	-0.27921	-0.0661179	-0.440176	-10.2023	-3.10667	2.3118	-1.68625	-0.437159	1.03703	-0.0143285	0.0643353	-0.0749838	0.511231	-3.89672	-0.438991	0.414423	-0.021482	0.0098732	-0.0529299
1.47413	0.655503	0.192113	-1.63981	-0.193548	-0.0730224	-0.160681	29.3593	-57.4949	-3.76213	-5.30071	-82.8402	11.4374	-0.040486	-1.51528	-2.52548	1.25593	6.74771	1.56874	-0.238415	-0.0657845	-0.427928	-10.1896	-3.46251	2.46224	-1.72429	-0.481594	1.06096	-0.0164716	0.0625925	-0.0829437	0.630496	-3.92943	-0.465523	0.419791	-0.0224239	0.00731577	-0.0563367
1.48409	6.94788	-12.9273	0.349685	25.5667	44.216	69.0538	23.0766	-60.5855	-3.7763	-3.41282	-84.8077	11.3969	-0.0434655	-8.87081	1.32306	1.0989	9.6264	1.4987	-0.184674	-0.068353	5.41619	-9.16833	-3.93797	1.82613	-2.25678	-0.395774	0.988044	-0.012158	0.0647748	-0.0663091	-0.255938	-3.78003	-0.265155	0.452393	-0.0117073	0.030806	-0.0358043
1.49405	7.51049	-12.7602	-0.453478	16.8172	24.5826	50.0824	25.7101	-60.2072	-3.88711	-3.76721	-86.8529	11.4114	-0.0425208	-9.76822	1.38403	0.993786	10.1286	1.34912	-0.151258	-0.0642894	2.64613	-10.1679	-4.26068	2.1664	-2.12651	-0.462036	1.02565	-0.0163779	0.0616029	-0.0778488	0.155793	-3.86167	-0.349009	0.444412	-0.0156327	0.02201	-0.0447998
1.50401	7.8102	-12.7427	-0.937505	9.31502	7.11229	33.9805	28.0698	-60.0454	-3.97617	-4.13202	-88.8405	11.3785	-0.0417598	-10.7228	1.15443	0.865893	10.683	1.18077	-0.128181	-0.059154	0.258255	-10.9889	-4.45375	2.46638	-2.02576	-0.523198	1.05861	-0.0201391	0.0587204	-0.088484	0.524492	-3.93584	-0.423637	0.442457	-0.0190866	0.014629	-0.053488
1.51397	7.68836	-12.8181	-1.03754	2.8049	-7.52912	20.5848	30.1427	-60.0736	-4.04062	-4.51267	-90.7426	11.3021	-0.041177	-11.5656	0.485087	0.702373	11.2088	1.00351	-0.12079	-0.0531037	-1.80385	-11.6586	-4.47184	2.71911	-1.95293	-0.578451	1.08773	-0.0229826	0.0563818	-0.0981772	0.842622	-4.00267	-0.488527	0.446261	-0.0218601	0.00869018	-0.0618179
1.52393	7.12729	-12.7146	-0.890005	-2.6177	-19.5217	10.1695	31.9594	-60.2605	-4.082	-4.91867	-92.5338	11.1841	-0.040755	-12.247	-0.595938	0.513738	11.6472	0.824089	-0.127714	-0.0463369	-3.39325	-12.1614	-4.44976	2.9381	-1.9122	-0.627553	1.11052	-0.02582	0.0540682	-0.106602	1.11256	-4.05663	-0.542237	0.455564	-0.0243568	0.00428252	-0.0694625
1.53389	6.14427	-12.2882	-0.545699	-7.06193	-28.7711	2.45414	33.5467	-60.5434	-4.10184	-5.35564	-94.1918	11.0272	-0.0404676	-12.6203	-2.02142	0.303169	11.9186	0.653024	-0.146795	-0.0392072	-4.54788	-12.5192	-4.39416	3.12509	-1.89938	-0.670105	1.12732	-0.0285571	0.0518228	-0.113719	1.33544	-4.09732	-0.584978	0.469177	-0.0265766	0.00126498	-0.0763098
1.54385	4.81025	-11.4203	-0.0710482	-10.6249	-35.2158	-2.88909	34.9348	-60.8444	-4.10335	-5.82606	-95.6965	10.8341	-0.0402869	-12.5505	-3.66039	0.0819147	11.9491	0.500949	-0.173944	-0.0321374	-5.32188	-12.7579	-4.30186	3.28185	-1.90926	-0.705786	1.13869	-0.0310503	0.0497221	-0.119522	1.51365	-4.12527	-0.617329	0.485672	-0.0284977	-0.000552177	-0.0822795
1.55381	3.22235	-10.0311	0.464746	-13.3847	-38.7988	-6.20346	36.1527	-61.0803	-4.09094	-6.32927	-97.0295	10.608	-0.0401867	-11.9278	-5.34913	-0.132901	11.6785	0.377744	-0.204284	-0.0255737	-5.77962	-12.9	-4.15983	3.40924	-1.93623	-0.734351	1.14534	-0.0330836	0.0478762	-0.124037	1.65027	-4.14167	-0.640178	0.503588	-0.0300602	-0.00138711	-0.0873372
1.56377	1.4766	-8.11104	1.01716	-15.4087	-39.4679	-7.86726	37.2267	-61.1736	-4.06932	-6.86248	-98.1741	10.3536	-0.0401424	-10.6813	-6.92931	-0.323258	11.0679	0.291668	-0.233475	-0.0199345	-6.00912	-12.9629	-3.93499	3.50612	-1.97448	-0.755568	1.14816	-0.0343335	0.0464621	-0.127317	1.74867	-4.14801	-0.654764	0.521649	-0.0311493	-0.00147517	-0.091528
1.57373	-0.373698	-5.72073	1.58622	-16.7713	-37.1567	-8.36658	38.175	-61.0597	-4.04194	-7.42272	-99.1151	10.0765	-0.0401158	-8.76249	-8.29299	-0.48035	10.1005	0.248691	-0.259363	-0.0155473	-6.1368	-12.9531	-3.57001	3.56769	-2.0178	-0.769342	1.14866	-0.0343451	0.0457849	-0.129503	1.81197	-4.14562	-0.662778	0.539202	-0.0315766	-0.00102987	-0.0950391
1.58369	-2.25318	-2.64472	1.9548	-17.4836	-31.8833	-7.40568	39.0253	-60.7027	-4.01239	-8.00933	-99.837	9.7834	-0.0400913	-6.24747	-9.35934	-0.591016	8.80402	0.251304	-0.279976	-0.0126663	-5.92721	-12.8437	-3.25754	3.61686	-2.06942	-0.776507	1.14555	-0.0344554	0.0452071	-0.130488	1.84993	-4.13411	-0.664386	0.556267	-0.0319176	-6.046e-05	-0.0977325
1.59365	-4.13383	1.06113	2.10885	-17.5397	-23.7427	-5.13476	39.8056	-60.0961	-3.98152	-8.62629	-100.323	9.48112	-0.0400561	-3.24056	-10.1024	-0.654641	7.23237	0.299587	-0.295402	-0.0114502	-5.37607	-12.6049	-3.02003	3.65903	-2.12823	-0.778041	1.13865	-0.0347349	0.0445626	-0.130433	1.86966	-4.11452	-0.661166	0.572429	-0.0322513	0.0012048	-0.0997372
1.60361	-6.02867	5.03519	2.22059	-16.8299	-13.1081	-2.04544	40.5276	-59.2507	-3.94631	-9.28205	-100.557	9.1767	-0.0399486	0.100963	-10.526	-0.677199	5.46866	0.389684	-0.306479	-0.0119159	-4.71742	-12.1997	-2.72311	3.68223	-2.19029	-0.774896	1.12922	-0.0345195	0.0442729	-0.129741	1.87445	-4.08605	-0.655682	0.588368	-0.0323286	0.00256954	-0.101561
1.61357	-7.94201	9.10446	2.33454	-15.2748	-0.263896	1.78559	41.2165	-58.1946	-3.90358	-9.99002	-100.515	8.87548	-0.0397398	3.57546	-10.6633	-0.666457	3.61477	0.516133	-0.314469	-0.014022	-3.97416	-11.5833	-2.37822	3.68825	-2.25624	-0.768153	1.11707	-0.0338702	0.0442723	-0.128625	1.86935	-4.0476	-0.6496	0.604741	-0.0321455	0.00392247	-0.103487
1.62353	-9.87173	13.0818	2.49749	-12.8266	14.517	6.30991	41.895	-56.9604	-3.84901	-10.7669	-100.173	8.5806	-0.0393991	6.96792	-10.5591	-0.632033	1.77981	0.671727	-0.32073	-0.0176444	-3.16496	-10.7207	-2.0002	3.67882	-2.32709	-0.759098	1.10213	-0.0328571	0.0444982	-0.127351	1.85872	-3.99832	-0.644499	0.622324	-0.0316858	0.00519057	-0.105804
1.63349	-11.8089	16.7872	2.745	-9.47777	30.9994	11.5082	42.5808	-55.5754	-3.77779	-11.6313	-99.4973	8.29216	-0.0388934	10.0701	-10.2574	-0.582735	0.0685894	0.847992	-0.326319	-0.02258	-2.29995	-9.58685	-1.60919	3.65552	-2.4038	-0.749162	1.08461	-0.0315572	0.0449046	-0.126236	1.84598	-3.9377	-0.641728	0.641944	-0.0309228	0.00635225	-0.108779
1.64345	-13.7377	20.1278	3.07691	-5.38646	49.2225	17.3379	43.2896	-54.0546	-3.6856	-12.6011	-98.45	8.00677	-0.0382065	12.7328	-9.81461	-0.531099	-1.43655	1.036	-0.332673	-0.0285325	-1.34007	-8.18432	-1.24237	3.62251	-2.48667	-0.73978	1.06482	-0.0299542	0.0453741	-0.125568	1.83729	-3.86794	-0.642092	0.66382	-0.0299705	0.00736637	-0.112501
1.65341	-15.6044	22.9596	3.47948	-0.637733	69.009	23.8141	44.0181	-52.3962	-3.56864	-13.6911	-96.9877	7.71778	-0.037297	14.8013	-9.23456	-0.477816	-2.66421	1.22561	-0.338991	-0.035161	-0.283882	-6.52591	-0.930816	3.58234	-2.57581	-0.732422	1.04338	-0.0282863	0.0458809	-0.1257	1.83462	-3.78886	-0.646257	0.688797	-0.0288329	0.00833077	-0.117153
1.66337	-17.3527	25.181	3.9165	4.5743	90.3204	30.8773	44.7516	-50.581	-3.42496	-14.9096	-95.063	7.41582	-0.0361365	16.1843	-8.52119	-0.423584	-3.57315	1.40699	-0.344373	-0.0420714	0.870318	-4.65036	-0.704112	3.53749	-2.66986	-0.728273	1.02108	-0.0266866	0.0464108	-0.126917	1.83984	-3.70141	-0.654392	0.717287	-0.0275	0.00935922	-0.122789
1.67333	-18.9326	26.7315	4.32811	9.98722	113.197	38.4059	45.4598	-48.5755	-3.25494	-16.254	-92.6275	7.09011	-0.0347113	16.8515	-7.67848	-0.368497	-4.15158	1.57103	-0.347792	-0.048846	2.12404	-2.6131	-0.593845	3.49058	-2.76619	-0.728147	0.998743	-0.0252732	0.0469461	-0.129414	1.85505	-3.60708	-0.666109	0.749407	-0.0260069	0.0105862	-0.129335
1.68329	-20.3299	27.8797	4.52795	15.1738	138.103	46.5717	46.1038	-46.3381	-3.06303	-17.7068	-89.6354	6.72984	-0.0330455	16.8496	-6.74255	-0.318034	-4.42074	1.70948	-0.349054	-0.0550164	3.75097	-0.455291	-0.74736	3.46454	-2.86371	-0.732618	0.975224	-0.0250023	0.046774	-0.133093	1.90142	-3.51202	-0.678587	0.784081	-0.0256108	0.0120406	-0.136055
1.69325	-21.5097	28.4808	4.50231	19.8309	165.092	54.8894	46.6173	-43.8282	-2.85509	-19.2324	-86.0489	6.32633	-0.0311796	16.2533	-5.72211	-0.27234	-4.41604	1.81653	-0.347184	-0.0602377	5.60633	1.72926	-1.12319	3.45561	-2.9593	-0.742487	0.950179	-0.0255118	0.0458386	-0.138039	1.97845	-3.42136	-0.692384	0.819468	-0.0260077	0.0135357	-0.142922
1.70321	-22.4663	28.2657	4.29167	23.7564	194.102	62.6892	46.9059	-41.0072	-2.63791	-20.7725	-81.8432	5.87492	-0.0292009	15.1687	-4.62787	-0.230014	-4.18604	1.88924	-0.341411	-0.064288	7.41371	3.84816	-1.61626	3.44869	-3.0473	-0.757379	0.924368	-0.0261487	0.044529	-0.144166	2.07815	-3.33758	-0.708216	0.854267	-0.0266816	0.0149992	-0.15004
1.71317	-23.1914	27.1765	3.85259	26.6702	225.248	69.5618	46.8724	-37.8533	-2.42109	-22.2465	-77.0111	5.37605	-0.0272469	13.7333	-3.50115	-0.192276	-3.79129	1.92698	-0.331876	-0.0670151	9.07684	5.80595	-2.21247	3.43981	-3.12134	-0.775708	0.898167	-0.0269916	0.0429524	-0.151044	2.19584	-3.26369	-0.725142	0.886799	-0.0275481	0.0164452	-0.15714
1.72313	-23.6703	25.1658	3.17248	28.34	258.712	75.107	46.4186	-34.3728	-2.21516	-23.5519	-71.5674	4.83591	-0.0255168	12.0974	-2.39409	-0.161345	-3.2953	1.93152	-0.319222	-0.0683691	10.5044	7.50673	-2.87868	3.42268	-3.17489	-0.795256	0.871882	-0.0279742	0.0412324	-0.158066	2.32524	-3.20255	-0.741788	0.915123	-0.0285098	0.01788	-0.163862
1.7331	-23.8758	22.2009	2.27087	28.6517	294.646	78.9768	45.4555	-30.6052	-2.03004	-24.5698	-65.5534	4.26625	-0.0242652	10.4079	-1.35692	-0.13883	-2.75737	1.90672	-0.304283	-0.0684114	11.614	8.86897	-3.56813	3.38853	-3.20213	-0.813583	0.846008	-0.0289759	0.0395339	-0.164572	2.45735	-3.15558	-0.756653	0.937612	-0.0294688	0.0193418	-0.169851
1.74306	-23.7559	18.2568	1.20842	27.614	333.131	80.8953	43.9142	-26.6243	-1.87342	-25.1722	-59.0399	3.68328	-0.0237907	8.79335	-0.429706	-0.125157	-2.22754	1.85799	-0.287907	-0.0672974	12.3296	9.82227	-4.21372	3.32699	-3.19818	-0.828214	0.821481	-0.0298488	0.0380875	-0.169905	2.5801	-3.12225	-0.768271	0.953235	-0.0303128	0.02092	-0.174814
1.75302	-23.245	13.3668	0.0674602	25.3494	374.174	80.7295	41.7615	-22.5341	-1.75012	-25.2345	-52.1298	3.10586	-0.0244164	7.35762	0.358244	-0.119788	-1.74466	1.79174	-0.270964	-0.0652522	12.622	10.3182	-4.74994	3.22931	-3.15975	-0.836949	0.799532	-0.0304782	0.0370936	-0.173494	2.67955	-3.10029	-0.775129	0.961514	-0.0309181	0.0227424	-0.178472
1.76298	-22.2465	7.79177	-1.1526	22.0068	417.755	78.7801	39.0067	-18.4561	-1.66143	-24.6475	-44.9584	2.55332	-0.0264627	6.17128	0.987783	-0.120823	-1.33495	1.71495	-0.254352	-0.062548	12.6758	10.3232	-5.22554	3.10471	-3.0878	-0.838356	0.779343	-0.0314753	0.0360586	-0.174889	2.74248	-3.08602	-0.775288	0.962461	-0.0313123	0.0249964	-0.180426
1.77294	-20.7417	1.43286	-2.21061	18.0504	463.287	74.797	35.7136	-14.5444	-1.60197	-23.3369	-37.6905	2.04232	-0.0301889	5.27298	1.46512	-0.125482	-1.01155	1.63372	-0.238536	-0.0594541	12.2844	9.86715	-5.44517	2.93233	-2.98337	-0.832227	0.763947	-0.0319703	0.0357073	-0.174093	2.74875	-3.07196	-0.768998	0.957815	-0.0309886	0.0278601	-0.180879
1.7829	-18.6824	-5.16967	-3.17177	13.7515	510.299	69.6264	31.9947	-10.9368	-1.56385	-21.2733	-30.5153	1.5852	-0.0357566	4.66152	1.79406	-0.130226	-0.776736	1.55396	-0.224215	-0.0562362	11.8518	8.99972	-5.56449	2.7419	-2.85038	-0.818453	0.751686	-0.0334774	0.0350702	-0.171108	2.69343	-3.05096	-0.754046	0.949375	-0.0305066	0.0315721	-0.179408
1.79286	-16.1513	-11.8128	-3.89938	9.62352	557.812	63.5737	28.0185	-7.76777	-1.53573	-18.4913	-23.6368	1.1879	-0.043177	4.31322	1.99595	-0.132248	-0.62442	1.48015	-0.211726	-0.0531165	11.4076	7.84272	-5.51981	2.5354	-2.6979	-0.798277	0.741979	-0.0359159	0.0340753	-0.166235	2.57099	-3.01475	-0.730557	0.939749	-0.0298781	0.0361782	-0.176135
1.80282	-13.3006	-18.2598	-4.2832	6.17387	604.604	57.0773	23.988	-5.14697	-1.5046	-15.0964	-17.2615	0.84964	-0.0522722	4.17853	2.09912	-0.129522	-0.540849	1.41544	-0.201245	-0.0502692	10.996	6.55809	-5.26811	2.31579	-2.53532	-0.772674	0.734441	-0.0391412	0.0327978	-0.15981	2.38296	-2.95639	-0.699093	0.93144	-0.0291851	0.0415846	-0.171236
1.81278	-10.3658	-24.5338	-4.14392	3.88943	649.02	50.1682	20.1357	-3.14391	-1.46008	-11.272	-11.5831	0.563894	-0.0626925	4.19995	2.13671	-0.120941	-0.509847	1.36143	-0.192666	-0.0478058	10.3699	5.31622	-4.65191	2.06459	-2.36985	-0.74263	0.732449	-0.041923	0.0323606	-0.152354	2.12452	-2.8721	-0.663044	0.926786	-0.0276811	0.0475647	-0.165449
1.82274	-7.6135	-30.0771	-3.56942	3.04878	689.645	43.8859	16.6745	-1.77482	-1.39545	-7.27139	-6.76984	0.321591	-0.0738453	4.30952	2.13139	-0.106577	-0.514196	1.31906	-0.186089	-0.0457966	9.8712	4.32765	-3.81403	1.80845	-2.20772	-0.708578	0.734645	-0.0449411	0.0323685	-0.144228	1.82652	-2.76174	-0.622207	0.926433	-0.0263535	0.0536079	-0.158649
1.8327	-5.28343	-34.7995	-2.55002	3.85654	724.688	38.5709	13.7975	-1.03911	-1.30388	-3.41896	-2.94471	0.113693	-0.0850826	4.44734	2.10959	-0.0870069	-0.537992	1.28785	-0.181231	-0.0442532	9.38697	3.72961	-2.74283	1.54192	-2.05871	-0.671581	0.741608	-0.0473845	0.0333816	-0.135879	1.4989	-2.63098	-0.581287	0.930329	-0.0245132	0.0591295	-0.151647
1.84266	-3.67643	-38.3901	-1.14338	6.41525	752.611	34.9324	11.6594	-0.871245	-1.18859	-0.104359	-0.175529	-0.0617735	-0.095561	4.56705	2.08885	-0.064746	-0.569319	1.267	-0.177969	-0.0431568	9.04382	3.68265	-1.49006	1.27507	-1.93267	-0.631982	0.751492	-0.0489369	0.0354056	-0.127494	1.18075	-2.48775	-0.541852	0.937128	-0.0227949	0.0633549	-0.14463
1.85262	-2.97961	-40.6392	0.511824	10.6903	772.191	33.4663	10.3556	-1.15862	-1.05861	2.28699	1.58572	-0.202253	-0.104824	4.63042	2.09279	-0.0403927	-0.598027	1.25439	-0.175658	-0.0424398	8.91722	4.2622	-0.17224	1.01878	-1.84142	-0.5911	0.760526	-0.0496496	0.0380594	-0.119282	0.897051	-2.34135	-0.507242	0.944992	-0.0213243	0.0656595	-0.138022
1.86258	-3.33706	-41.3629	2.22665	16.3393	782.714	34.6106	9.91989	-1.71981	-0.941309	3.38061	2.45808	-0.298864	-0.112277	4.62538	2.13286	-0.0161952	-0.620528	1.24843	-0.173902	-0.0420382	9.11662	5.45303	1.0868	0.786714	-1.79789	-0.549674	0.76353	-0.0494828	0.0407399	-0.111178	0.672289	-2.20379	-0.479264	0.951718	-0.0201813	0.0656923	-0.131978
1.87254	-4.74134	-40.4555	3.82529	22.9789	783.672	38.7631	10.3218	-2.42994	-0.853681	2.80311	2.61697	-0.346787	-0.11746	4.55696	2.21525	0.00547551	-0.6369	1.24756	-0.172338	-0.0418824	9.74055	7.16532	2.16799	0.592504	-1.81376	-0.508225	0.754862	-0.04845	0.0427214	-0.102948	0.524937	-2.08505	-0.458221	0.955894	-0.019487	0.0635065	-0.126435
1.8825	-6.62117	-38.9937	5.23388	30.3723	784.248	43.4131	10.8058	-3.07915	-0.758656	2.0644	2.74255	-0.390989	-0.120443	4.43659	2.35811	0.0222294	-0.645617	1.24866	-0.170276	-0.0418492	10.8769	9.3187	2.96225	0.444656	-1.89818	-0.466574	0.728119	-0.0466085	0.0431679	-0.0941403	0.460626	-1.98212	-0.442083	0.957514	-0.019362	0.0595065	-0.120947
1.89246	-8.7701	-36.9758	6.30104	38.0173	784.439	48.5588	11.2817	-3.61715	-0.662478	1.23672	2.8258	-0.427922	-0.121144	4.29405	2.57126	0.0325862	-0.65094	1.25056	-0.167196	-0.0418875	12.584	11.7154	3.37068	0.354184	-2.04967	-0.424388	0.681815	-0.0440155	0.0417388	-0.0844822	0.479162	-1.89454	-0.428027	0.958433	-0.0199121	0.0546645	-0.115151
1.90242	-10.9664	-35.0221	7.07258	44.912	784.51	53.2141	11.6552	-3.98111	-0.571334	0.417331	2.85177	-0.45256	-0.119318	4.16725	2.83278	0.0342412	-0.660747	1.25401	-0.163426	-0.0420033	14.3698	13.9949	3.60771	0.298715	-2.2521	-0.381725	0.625094	-0.0396863	0.0399636	-0.0741494	0.559648	-1.83174	-0.415661	0.962592	-0.0205118	0.0504516	-0.109654
1.91238	-13.0125	-32.995	7.42403	51.1201	784.217	57.7553	11.8257	-4.1981	-0.486307	-0.318016	2.82209	-0.46376	-0.115405	4.06812	3.14276	0.0261401	-0.671724	1.2564	-0.158931	-0.0420935	16.4187	16.0753	3.52406	0.295246	-2.49324	-0.33762	0.5576	-0.0338591	0.0373068	-0.0629642	0.690308	-1.77658	-0.399362	0.97168	-0.0214617	0.0477283	-0.103543
1.92234	-14.6706	-30.8937	7.2309	56.0835	783.651	62.2	11.7398	-4.26795	-0.407628	-0.898948	2.73464	-0.459907	-0.109626	4.00963	3.47988	0.00860626	-0.685015	1.25755	-0.154158	-0.0421398	18.7766	17.7432	3.02474	0.352663	-2.74074	-0.290697	0.488618	-0.0270639	0.0343797	-0.0511549	0.85315	-1.72173	-0.375973	0.989294	-0.0230705	0.0476782	-0.0967636
1.9323	-15.807	-29.8343	6.81695	59.163	782.583	64.8074	11.4083	-4.18209	-0.339581	-1.27505	2.59377	-0.440906	-0.102386	3.97438	3.8302	-0.0131843	-0.696241	1.25815	-0.149126	-0.0421801	20.397	18.6926	2.61564	0.413423	-2.95024	-0.241719	0.440189	-0.018532	0.0346196	-0.0398557	0.994809	-1.67285	-0.351323	1.01824	-0.0230816	0.0508858	-0.091358
1.94226	-16.3726	-30.0453	6.28611	60.1991	780.878	65.2713	10.8553	-3.95672	-0.28788	-1.42237	2.41078	-0.408477	-0.0942536	3.92296	4.1727	-0.0325362	-0.698146	1.25847	-0.144085	-0.0422371	21.0597	18.8434	2.41941	0.475376	-3.10169	-0.193731	0.417015	-0.00920159	0.0380985	-0.0298057	1.10175	-1.63676	-0.328594	1.05585	-0.0217013	0.056824	-0.0879977
1.95222	-16.3823	-31.4158	5.66045	59.2637	778.428	63.7648	10.1202	-3.61276	-0.261293	-1.34261	2.19753	-0.36474	-0.0856925	3.83445	4.47756	-0.0464431	-0.688393	1.25875	-0.139676	-0.0423141	20.8195	18.2241	2.41591	0.545226	-3.19302	-0.149469	0.415538	0.000145476	0.0437525	-0.0212987	1.16619	-1.61893	-0.309528	1.09714	-0.0193063	0.0646001	-0.0866844
1.96218	-15.8907	-33.6334	4.90302	56.4984	775.188	60.692	9.25802	-3.16459	-0.270069	-1.05856	1.96538	-0.311993	-0.0770467	3.71183	4.70946	-0.0559388	-0.670618	1.25939	-0.136865	-0.0424047	19.8789	16.9198	2.49767	0.628612	-3.23055	-0.110583	0.429047	0.00903938	0.050211	-0.0143087	1.18142	-1.62035	-0.294359	1.13746	-0.0161724	0.0734148	-0.0870506
1.97214	-15.0026	-36.2117	3.89262	52.0305	771.222	56.5845	8.31627	-2.61648	-0.324955	-0.605157	1.71815	-0.251162	-0.0682745	3.60747	4.80887	-0.0705511	-0.658862	1.26076	-0.137602	-0.0424602	18.5646	15.0547	2.46343	0.7297	-3.22638	-0.0766568	0.449808	0.0176716	0.0562101	-0.00849021	1.14095	-1.63424	-0.281254	1.17394	-0.0123517	0.0827824	-0.0883903
1.9821	-13.9042	-39.3226	3.11143	46.8144	766.375	51.4478	7.39471	-2.03522	-0.413881	-0.0415146	1.48134	-0.189368	-0.060195	3.43959	4.85128	-0.076468	-0.634589	1.26163	-0.139262	-0.0425138	16.6717	12.8958	2.73121	0.817254	-3.17455	-0.0479921	0.480547	0.0248694	0.0626631	-0.00393961	1.06329	-1.64848	-0.267838	1.20752	-0.00904342	0.0922943	-0.0903108
1.99206	-12.6762	-42.6473	2.55983	41.2737	760.866	45.787	6.55271	-1.45253	-0.530636	0.586465	1.26687	-0.130311	-0.0530908	3.21511	4.85403	-0.0743266	-0.599747	1.2619	-0.141386	-0.0425636	14.436	10.6176	3.22301	0.890099	-3.09373	-0.0262372	0.512972	0.0302363	0.0683983	-0.000533272	0.948889	-1.66063	-0.251766	1.23592	-0.00627488	0.101611	-0.0920141
2.00202	-11.3983	-45.9098	2.21374	35.8244	755.029	40.0959	5.82926	-0.900912	-0.664356	1.24108	1.08402	-0.077221	-0.0471734	2.94236	4.84143	-0.0652235	-0.555549	1.26142	-0.14339	-0.0426067	12.0894	8.39431	3.85007	0.946712	-3.00047	-0.012443	0.540953	0.033579	0.0726132	0.00181442	0.803611	-1.66859	-0.231602	1.25778	-0.00401603	0.1104	-0.0928905
2.01198	-10.1439	-48.8885	2.02373	30.8144	749.279	34.784	5.24299	-0.409608	-0.802097	1.89522	0.938695	-0.0325402	-0.0425667	2.63753	4.83743	-0.05111	-0.504749	1.26008	-0.144752	-0.042638	9.839	6.38068	4.51804	0.986757	-2.90773	-0.00715287	0.560929	0.0349176	0.0748912	0.00311568	0.637966	-1.67173	-0.207166	1.27227	-0.00220824	0.118302	-0.0925689
2.02194	-8.99775	-51.4189	1.91414	26.4612	744.107	30.1345	4.79204	0.00305949	-0.93182	2.53336	0.832437	0.0024887	-0.0392654	2.33001	4.8489	-0.0366378	-0.453162	1.25805	-0.145568	-0.042646	7.85629	4.70146	5.12995	1.01206	-2.82496	-0.0105197	0.571712	0.0344994	0.0751474	0.00330686	0.465472	-1.67093	-0.179604	1.2791	-0.000799847	0.124933	-0.0909406
2.0319	-8.09647	-53.3618	1.75262	22.6513	740.14	26.1697	4.45509	0.349639	-1.04685	3.15202	0.756649	0.0292639	-0.0368891	2.09702	4.82874	-0.0352966	-0.418055	1.25599	-0.14773	-0.0425794	6.26986	3.42999	5.56837	1.02694	-2.75809	-0.0225016	0.574833	0.0328291	0.0736362	0.00218102	0.30024	-1.66915	-0.151187	1.27769	0.000185711	0.129843	-0.0880398
2.04187	-7.48777	-54.7737	1.60231	19.9345	737.39	23.3156	4.22435	0.595083	-1.13628	3.73758	0.71836	0.0455688	-0.0357139	1.84184	4.84195	-0.0304887	-0.377579	1.25231	-0.148446	-0.0424623	5.15403	2.68978	5.87086	1.03757	-2.7126	-0.0420459	0.571277	0.0295649	0.0707597	-0.000167867	0.161327	-1.66375	-0.122749	1.27006	0.000716391	0.133005	-0.0840382
2.05183	-7.22978	-55.6977	1.42173	18.3598	736.092	21.5586	4.0769	0.744668	-1.19985	4.29035	0.713088	0.052351	-0.0355863	1.56927	4.88911	-0.0234825	-0.331754	1.24706	-0.147724	-0.0422929	4.52086	2.50872	6.01352	1.04893	-2.69122	-0.068271	0.563202	0.0251105	0.0669768	-0.00377037	0.0590166	-1.65779	-0.0963531	1.25677	0.000866354	0.134305	-0.0791883
2.06179	-7.36024	-56.2168	1.18694	17.8937	736.336	20.7787	3.99282	0.813715	-1.24219	4.81083	0.735363	0.0510321	-0.0363237	1.28046	4.96394	-0.0155408	-0.279813	1.24042	-0.145791	-0.042074	4.33279	2.87282	5.99569	1.06504	-2.69508	-0.100014	0.552662	0.0198988	0.0627462	-0.00857367	-0.000715194	-1.65351	-0.0735846	1.23882	0.000703664	0.133812	-0.0737627
2.07175	-7.88407	-56.442	0.895526	18.4339	738.069	20.7638	3.95877	0.822245	-1.27182	5.29783	0.779414	0.0432597	-0.0377323	0.973756	5.05573	-0.008052	-0.220216	1.23273	-0.143063	-0.0418154	4.50888	3.72654	5.84072	1.0882	-2.72358	-0.135856	0.541363	0.0143624	0.0584862	-0.0144268	-0.0163848	-1.65222	-0.0553107	1.21752	0.000270806	0.131767	-0.0680089
2.08171	-8.76958	-56.5004	0.568889	19.8131	741.123	21.2183	3.96868	0.792026	-1.29848	5.7479	0.839629	0.0306485	-0.0396196	0.649	5.15068	-0.00305222	-0.151604	1.22452	-0.14016	-0.0415335	4.93257	4.97691	5.59561	1.11861	-2.77414	-0.174191	0.530609	0.0089138	0.0545547	-0.021084	0.00985044	-1.65456	-0.0416292	1.19431	-0.000442844	0.128539	-0.0621187
2.09167	-9.95508	-56.5154	0.248849	21.7849	745.339	21.7623	4.02513	0.743295	-1.33087	6.15579	0.910631	0.0146493	-0.0417919	0.319108	5.22712	-0.00492163	-0.0757063	1.21673	-0.138157	-0.041248	5.46746	6.50025	5.32776	1.15432	-2.84189	-0.213385	0.52163	0.00393033	0.0512645	-0.0282439	0.0741575	-1.66138	-0.0320377	1.17042	-0.00153416	0.124542	-0.056195
2.10163	-11.4035	-56.5711	-0.0290681	23.9302	751.013	21.8581	4.14831	0.705764	-1.37434	6.51934	0.985024	-0.00291385	-0.0439609	0.0428741	5.23631	-0.0251597	-0.00537191	1.21081	-0.139226	-0.0409532	5.98537	8.15786	5.10145	1.19175	-2.92008	-0.252455	0.517326	-0.000294759	0.049047	-0.0357814	0.174796	-1.6761	-0.0256879	1.14568	-0.00321013	0.12003	-0.0500678
2.11159	-12.8383	-56.6976	-0.418067	26.1176	756.88	21.7771	4.33326	0.67327	-1.43419	6.81831	1.06287	-0.0222402	-0.0461338	-0.289387	5.21562	-0.0459846	0.0800889	1.2057	-0.141227	-0.0406935	6.47153	9.76527	4.75148	1.23984	-3.00576	-0.28973	0.513468	-0.0042187	0.0471063	-0.0431655	0.279562	-1.69562	-0.0215077	1.12105	-0.00421038	0.115694	-0.0442129
2.12155	-14.0961	-57.005	-0.862701	28.1803	762.568	21.2184	4.58582	0.640004	-1.50637	7.04387	1.14161	-0.0432978	-0.0482081	-0.675097	5.17963	-0.0659053	0.177433	1.20192	-0.143919	-0.0404969	6.78609	11.1843	4.33831	1.29545	-3.09147	-0.324338	0.510064	-0.00772295	0.0454334	-0.0501118	0.383007	-1.71794	-0.0190311	1.09717	-0.00462081	0.111749	-0.0388163
2.13151	-15.0258	-57.5819	-1.29672	29.9953	767.766	19.923	4.90909	0.589235	-1.58109	7.18834	1.21962	-0.0665345	-0.0501145	-1.10128	5.14356	-0.0827928	0.277716	1.20013	-0.146949	-0.0403869	6.80543	12.3033	3.93013	1.35459	-3.16959	-0.355634	0.507188	-0.010701	0.0440194	-0.0563748	0.481515	-1.74285	-0.0180186	1.07379	-0.00458552	0.108235	-0.0339852
2.14147	-15.512	-58.4855	-1.64563	31.487	772.269	17.6852	5.30223	0.497305	-1.64448	7.24636	1.29612	-0.0926917	-0.0518197	-1.53965	5.11884	-0.0943934	0.36446	1.20112	-0.14996	-0.0403804	6.43057	13.0492	3.60284	1.41209	-3.23277	-0.38314	0.505231	-0.0130237	0.0429107	-0.0617623	0.573691	-1.77167	-0.0184497	1.05003	-0.00429387	0.105053	-0.0297404
2.15143	-15.5043	-59.7339	-1.83094	32.5845	776.076	14.3349	5.76353	0.347562	-1.68332	7.2158	1.37104	-0.122314	-0.0533274	-1.93873	5.10632	-0.0995794	0.411397	1.20603	-0.152823	-0.040486	5.59279	13.3896	3.44042	1.4614	-3.27411	-0.40655	0.505352	-0.0145119	0.042275	-0.0661692	0.661073	-1.80738	-0.0206211	1.02474	-0.00397294	0.102003	-0.0260305
2.16139	-15.0375	-61.2973	-1.7945	33.1301	779.77	9.66356	6.29947	0.126286	-1.67572	7.1047	1.44445	-0.156035	-0.0546553	-2.2067	5.08247	-0.10095	0.378247	1.21655	-0.156018	-0.040692	4.26793	13.3363	3.51111	1.49425	-3.28719	-0.426377	0.511291	-0.0149826	0.0425847	-0.0698217	0.751019	-1.85725	-0.0254712	0.99615	-0.00386687	0.0987514	-0.0226717
2.17135	-14.0104	-62.8512	-1.782	33.2124	782.806	4.57283	6.85336	-0.198877	-1.61243	6.91432	1.51642	-0.194128	-0.0558432	-2.41515	5.0546	-0.0977283	0.301653	1.23019	-0.159427	-0.0409632	2.83565	12.8974	3.53728	1.53839	-3.27923	-0.442771	0.51733	-0.0157882	0.0424277	-0.0725345	0.832561	-1.91742	-0.0325557	0.96367	-0.00358865	0.0952915	-0.0196559
2.18131	-12.5162	-64.4593	-1.76884	32.9861	785.304	-0.60803	7.3802	-0.635027	-1.48337	6.66093	1.58674	-0.236221	-0.0569413	-2.65104	5.03453	-0.0918264	0.232046	1.24394	-0.162908	-0.0412507	1.37481	12.1706	3.54617	1.59433	-3.25353	-0.456861	0.523238	-0.0169076	0.0417217	-0.0745358	0.911094	-1.98631	-0.0426044	0.927543	-0.00329008	0.0913981	-0.0169516
2.19127	-10.7024	-66.1432	-1.73656	32.601	787.413	-5.54521	7.81907	-1.16954	-1.28474	6.36926	1.65447	-0.281073	-0.0579975	-2.95607	5.02623	-0.084343	0.196482	1.2559	-0.166323	-0.0415167	-0.0241856	11.2745	3.56325	1.6614	-3.215	-0.469612	0.528802	-0.0182638	0.040469	-0.0760579	0.992022	-2.06225	-0.0562252	0.888317	-0.00310013	0.0868936	-0.0145125
2.20123	-8.77477	-67.9023	-1.67207	32.1756	789.278	-9.93731	8.0988	-1.75771	-1.0244	6.07303	1.71777	-0.326151	-0.0590547	-3.33788	5.02435	-0.0758587	0.204161	1.26513	-0.169601	-0.0417355	-1.2764	10.3377	3.61416	1.73749	-3.16918	-0.481724	0.533981	-0.0197175	0.0387772	-0.0773183	1.08039	-2.14349	-0.0739362	0.846822	-0.00311908	0.0816561	-0.0123039
2.21119	-6.91891	-69.7516	-1.55641	31.8767	790.917	-13.5421	8.12778	-2.36571	-0.708864	5.81078	1.77372	-0.369025	-0.06011	-3.77357	5.0269	-0.0664949	0.249864	1.27135	-0.17258	-0.0418944	-2.32992	9.48275	3.73181	1.81856	-3.12239	-0.493471	0.538388	-0.0210372	0.0368102	-0.0784384	1.17969	-2.22684	-0.0959758	0.804372	-0.00340896	0.0756589	-0.0103353
2.22115	-5.33288	-71.7387	-1.3654	31.7851	792.336	-16.2319	7.81117	-2.93183	-0.351489	5.62683	1.81872	-0.406513	-0.0611461	-4.22289	5.02954	-0.0564405	0.319613	1.27486	-0.175138	-0.0419901	-3.17748	8.80845	3.95758	1.89866	-3.08039	-0.504863	0.54189	-0.0219208	0.0348218	-0.0794865	1.29287	-2.30944	-0.122577	0.762504	-0.00401647	0.0689404	-0.00867486
2.23111	-4.23291	-73.9556	-1.08263	31.5623	793.871	-18.0668	7.09062	-3.32046	0.0291915	5.57124	1.8502	-0.434002	-0.0622225	-4.65647	5.01746	-0.0456356	0.401941	1.27617	-0.177165	-0.04202	-3.85301	8.33929	4.32887	1.9703	-3.0451	-0.515998	0.546367	-0.0220253	0.0332727	-0.0806294	1.42494	-2.39441	-0.154821	0.721921	-0.00498853	0.0614834	-0.0074542
2.24107	-3.6981	-76.1441	-0.895532	31.2194	795.194	-18.5773	5.89137	-3.44189	0.407152	5.68499	1.8619	-0.447329	-0.063198	-5.03614	4.98776	-0.0336016	0.480704	1.27592	-0.178611	-0.0419982	-4.10957	8.08701	4.62692	2.05506	-3.02749	-0.527024	0.547538	-0.022566	0.0312674	-0.0818112	1.57231	-2.47578	-0.191715	0.68432	-0.00642102	0.0536241	-0.00676776
2.25103	-3.82254	-78.3423	-0.788856	30.6852	796.045	-17.8854	4.19593	-3.19023	0.755827	5.99771	1.84924	-0.442663	-0.0639654	-5.34357	4.95088	-0.020541	0.549861	1.2744	-0.179256	-0.0419371	-4.00878	8.0421	4.85524	2.14878	-3.02842	-0.53751	0.54527	-0.0234325	0.0289441	-0.0829832	1.73274	-2.55244	-0.233059	0.650226	-0.00833094	0.0454842	-0.00675215
2.26099	-4.58835	-80.5002	-0.810306	29.7908	796.602	-16.1569	2.05627	-2.53861	1.063	6.51734	1.81122	-0.419172	-0.064462	-5.56368	4.88449	-0.00849219	0.601347	1.27267	-0.179644	-0.0418531	-3.55218	8.14741	4.96019	2.25574	-3.04866	-0.547349	0.539699	-0.0249281	0.0262606	-0.0841443	1.90771	-2.62556	-0.27923	0.621016	-0.011026	0.0372868	-0.00767201
2.27095	-5.86185	-82.5554	-0.999474	28.6273	796.752	-13.6202	-0.417653	-1.53641	1.31452	7.22461	1.747	-0.378229	-0.0645316	-5.71814	4.7876	0.00164232	0.643143	1.27091	-0.179982	-0.0417619	-2.77747	8.34885	4.88788	2.37729	-3.08535	-0.556307	0.531162	-0.0272318	0.0232168	-0.0853033	2.09306	-2.69635	-0.330274	0.596613	-0.0144708	0.0291361	-0.00972565
2.28091	-7.36561	-84.4107	-1.41026	27.3958	796.511	-10.5963	-3.04704	-0.345826	1.50007	8.06916	1.65814	-0.324799	-0.0639964	-5.84847	4.65735	0.00880432	0.690714	1.26913	-0.180578	-0.0416789	-1.72696	8.5735	4.58544	2.51495	-3.13222	-0.564296	0.520915	-0.030506	0.019871	-0.0865406	2.28421	-2.76831	-0.386334	0.576329	-0.0186003	0.0210871	-0.0130871
2.29087	-9.06879	-87.1357	-1.48665	27.1278	795.416	-9.54854	-5.60227	0.744524	1.61571	8.97088	1.54802	-0.267448	-0.0626472	-5.93489	4.50198	0.00603642	0.742436	1.26869	-0.182502	-0.0416469	-1.68955	9.01097	4.72388	2.55117	-3.16133	-0.569422	0.520265	-0.0277181	0.0199562	-0.0879971	2.45603	-2.84418	-0.452747	0.55617	-0.0197337	0.0119046	-0.0186908
2.30083	-10.373	-89.5946	-1.73673	27.4571	793.967	-8.98048	-7.8982	1.57144	1.65803	9.85988	1.41833	-0.211888	-0.0603119	-6.12124	4.33515	0.000539547	0.849076	1.267	-0.184651	-0.0416404	-1.60071	9.38451	4.69822	2.59306	-3.19577	-0.574148	0.51803	-0.025742	0.0198601	-0.0894963	2.63237	-2.91937	-0.523109	0.541067	-0.0217476	0.00313971	-0.0257834
2.31079	-11.037	-91.7631	-2.14294	28.6035	792.131	-9.23553	-9.79989	1.93825	1.63768	10.6677	1.27157	-0.164879	-0.0568588	-6.44969	4.17804	-0.00691086	1.02779	1.26328	-0.186715	-0.0416547	-1.53819	9.68479	4.53777	2.63878	-3.23106	-0.579048	0.514629	-0.0245573	0.0195505	-0.0910906	2.81052	-2.98935	-0.595368	0.531567	-0.0246361	-0.0049461	-0.0341848
2.32075	-10.9226	-93.6296	-2.67913	30.582	789.953	-10.5975	-11.2024	1.73482	1.56029	11.3369	1.11103	-0.130887	-0.0522624	-6.9447	4.0474	-0.0148899	1.28759	1.25683	-0.188304	-0.0416771	-1.57564	9.90193	4.2828	2.68627	-3.26248	-0.584734	0.510763	-0.024071	0.0190442	-0.0928455	2.98773	-3.05066	-0.667349	0.527798	-0.0283293	-0.012135	-0.0436173
2.33071	-9.96455	-95.1797	-3.33469	33.2536	787.565	-13.2271	-12.0372	0.91445	1.43074	11.8204	0.941725	-0.112741	-0.0466179	-7.6029	3.95137	-0.0212276	1.62396	1.24735	-0.189016	-0.0416907	-1.76775	10.0225	3.96231	2.73306	-3.28539	-0.591766	0.507218	-0.0241008	0.0183625	-0.0948328	3.15952	-3.10157	-0.736957	0.529305	-0.0325785	-0.0182755	-0.0537521
2.34067	-8.27149	-96.4572	-4.05813	36.3128	784.96	-16.8855	-12.3452	-0.422037	1.26422	12.0966	0.769631	-0.109057	-0.040181	-8.40405	3.89799	-0.0206174	2.02232	1.23474	-0.188127	-0.0416893	-2.13421	10.0547	3.62757	2.77305	-3.295	-0.600085	0.504197	-0.0242123	0.0175311	-0.0969825	3.31939	-3.14129	-0.801045	0.533817	-0.0367999	-0.0233602	-0.0639003
2.35063	-5.96033	-97.4271	-4.83308	39.5349	782.603	-21.5581	-12.0794	-2.17835	1.0656	12.1313	0.605615	-0.119001	-0.0333646	-9.27829	3.88399	-0.00895582	2.44203	1.22026	-0.185139	-0.0416694	-2.71997	10.0106	3.28859	2.79795	-3.28974	-0.609942	0.502696	-0.0238887	0.0167241	-0.0993675	3.45855	-3.16998	-0.858232	0.541145	-0.0403825	-0.0272867	-0.07387
2.3606	-3.12822	-97.9725	-5.65867	42.8089	781.196	-27.6336	-11.0906	-4.30011	0.825888	11.8717	0.463573	-0.143651	-0.0266338	-10.091	3.88938	0.0155951	2.81089	1.20632	-0.179972	-0.0416142	-3.64676	9.90578	2.94711	2.79462	-3.2685	-0.621803	0.505164	-0.0224244	0.016405	-0.102209	3.5638	-3.1871	-0.908397	0.553667	-0.0426823	-0.0297441	-0.0839733
2.37056	-0.204805	-97.5312	-6.50182	44.9005	780.723	-33.57	-9.65803	-6.32377	0.60824	11.3627	0.348534	-0.16954	-0.0205453	-10.6037	3.83629	0.0442519	3.03076	1.19737	-0.175148	-0.0415356	-4.33305	9.62466	2.55648	2.79975	-3.22813	-0.632736	0.509796	-0.0220332	0.0157112	-0.104848	3.65146	-3.19209	-0.943225	0.568696	-0.0453398	-0.0302769	-0.0922289
2.38052	2.48128	-96.2086	-7.27735	45.5193	781.56	-38.8808	-7.80927	-7.98418	0.431878	10.6056	0.2713	-0.191028	-0.0156611	-10.8863	3.70923	0.0700334	3.14704	1.1917	-0.171765	-0.0414099	-4.73541	9.19524	2.14752	2.80912	-3.17058	-0.641931	0.51685	-0.0224616	0.0147906	-0.107172	3.7205	-3.18963	-0.96303	0.584405	-0.0480846	-0.0292057	-0.0984158
2.39048	4.68229	-94.1293	-7.91094	44.5533	783.907	-43.1337	-5.57955	-9.09259	0.308368	9.61231	0.240158	-0.204755	-0.0124247	-11.0173	3.50514	0.0889357	3.20166	1.18799	-0.170389	-0.0412329	-4.82609	8.64944	1.7485	2.81597	-3.0992	-0.648256	0.526099	-0.0234189	0.0138328	-0.109014	3.77022	-3.18332	-0.969047	0.599515	-0.0506754	-0.0268801	-0.10255
2.40044	6.27434	-91.473	-8.37102	41.9302	787.681	-46.0827	-3.00846	-9.5605	0.237074	8.40631	0.259396	-0.210107	-0.011094	-11.0864	3.22336	0.100543	3.23043	1.18496	-0.171049	-0.0409985	-4.64119	7.99249	1.37778	2.81116	-3.0152	-0.650618	0.53798	-0.024668	0.0131554	-0.110266	3.7993	-3.17704	-0.964102	0.614418	-0.0530269	-0.0235178	-0.105165
2.4104	7.25616	-88.3844	-8.71851	37.771	792.511	-47.2761	-0.199811	-9.38371	0.212644	7.03335	0.328448	-0.207906	-0.0117411	-11.1877	2.88722	0.107969	3.26531	1.18204	-0.173132	-0.0407469	-4.1434	7.22253	0.963244	2.78735	-2.92361	-0.647332	0.550869	-0.0260119	0.0127798	-0.110692	3.79814	-3.17241	-0.950803	0.62854	-0.0542361	-0.0194047	-0.106761
2.42036	7.63837	-85.0498	-8.77698	32.5085	797.943	-46.7712	2.75678	-8.66703	0.217878	5.54224	0.442624	-0.201194	-0.0142238	-11.356	2.51542	0.106296	3.32258	1.18067	-0.177309	-0.0405608	-3.41633	6.39369	0.695612	2.72469	-2.82683	-0.635621	0.564802	-0.0266152	0.0134384	-0.109741	3.77926	-3.1635	-0.93002	0.642549	-0.0546143	-0.0147752	-0.107362
2.43032	7.57585	-81.5907	-8.58133	26.4883	803.288	-44.4212	5.75238	-7.55018	0.2345	3.99284	0.592712	-0.192969	-0.0182277	-11.6661	2.1487	0.0991222	3.41929	1.18155	-0.182768	-0.0405188	-2.45463	5.50072	0.552082	2.61381	-2.72771	-0.613256	0.578919	-0.0264097	0.0153725	-0.107064	3.74603	-3.14763	-0.905124	0.657431	-0.0540905	-0.0098613	-0.107636
2.44028	7.2728	-78.0729	-8.14981	20.2437	807.97	-40.2903	8.71398	-6.22615	0.240649	2.43843	0.767023	-0.186915	-0.0232915	-12.1709	1.83479	0.0880423	3.56512	1.18619	-0.188921	-0.040719	-1.25576	4.55406	0.523133	2.44672	-2.63054	-0.578167	0.591981	-0.0252639	0.0187702	-0.10228	3.70581	-3.11957	-0.879197	0.674278	-0.0526242	-0.004904	-0.108148
2.45024	6.92294	-74.5588	-7.5074	14.3697	811.5	-34.5981	11.5828	-4.88391	0.219466	0.929778	0.952096	-0.18578	-0.028874	-12.9095	1.62201	0.0744758	3.76504	1.19589	-0.195128	-0.0412454	0.161952	3.58298	0.586261	2.21772	-2.53967	-0.529148	0.602858	-0.0230819	0.0237405	-0.095142	3.66631	-3.074	-0.855013	0.694184	-0.0502669	-8.76341e-05	-0.10941
2.4602	6.66965	-71.1373	-6.69814	9.42249	813.494	-27.6872	14.2933	-3.67126	0.163556	-0.479727	1.1336	-0.190495	-0.034418	-13.9015	1.54844	0.0599123	4.02012	1.21112	-0.200738	-0.0421381	1.75239	2.63464	0.697836	1.92618	-2.45896	-0.466466	0.610608	-0.0198536	0.0302353	-0.0856565	3.63231	-3.00772	-0.834416	0.71755	-0.047131	0.00448373	-0.111742
2.47016	6.57982	-67.9424	-5.8059	5.83032	813.7	-20.0007	16.7508	-2.67915	0.076051	-1.72696	1.29728	-0.200067	-0.0394114	-15.135	1.62627	0.0458391	4.32721	1.23088	-0.20525	-0.0433619	3.44065	1.77475	0.786723	1.5802	-2.39107	-0.392619	0.614593	-0.0157148	0.0379514	-0.0742253	3.602	-2.92244	-0.817486	0.743085	-0.0433501	0.00879298	-0.115056
2.48012	6.6449	-65.1779	-4.97023	3.79525	812.054	-12.0989	18.8103	-1.94311	-0.030375	-2.73166	1.43002	-0.212011	-0.043444	-16.5506	1.82651	0.0339866	4.67751	1.25216	-0.208447	-0.0447767	5.11291	1.07694	0.760506	1.20151	-2.33702	-0.313216	0.614599	-0.01102	0.0462264	-0.0618004	3.5637	-2.82789	-0.801808	0.766805	-0.0390517	0.0128959	-0.11863
2.49008	6.76823	-63.0121	-4.39705	3.18872	809.228	-4.75762	20.2892	-1.46395	-0.135871	-3.39786	1.52082	-0.223143	-0.0462349	-17.9748	2.04337	0.019253	5.04504	1.27104	-0.211842	-0.0461332	6.69156	0.611989	0.524097	0.835702	-2.29712	-0.237925	0.610274	-0.00614915	0.0537412	-0.0499709	3.50844	-2.74217	-0.782098	0.781851	-0.0353591	0.0167742	-0.120809
2.50004	0	0	0	0	0	0	0	0	0	0	0	0	0	0	0	0	0	0	0	0	0	0	0	0	0	0	0	0	0	0	0	0	0	0	0	0	0
