nColumns=19
nRows=389
DataType=double
version=3
OpenSimVersion=4.1
endheader
time	ground_force_calcn_l_vx	ground_force_calcn_l_vy	ground_force_calcn_l_vz	ground_force_calcn_l_px	ground_force_calcn_l_py	ground_force_calcn_l_pz	ground_force_calcn_l_mx	ground_force_calcn_l_my	ground_force_calcn_l_mz	ground_force_calcn_r_vx	ground_force_calcn_r_vy	ground_force_calcn_r_vz	ground_force_calcn_r_px	ground_force_calcn_r_py	ground_force_calcn_r_pz	ground_force_calcn_r_mx	ground_force_calcn_r_my	ground_force_calcn_r_mz
0	0	0	0	0	0.0375267	0	0	0	0	0	0	0	0	0.00112795	0	0	0	0
0.00998058	0	0	0	0	0.0390539	0	0	0	0	0	0	0	0	0.000510212	0	0	0	0
0.0199612	0	0	0	0	3.62445e-17	0	0	0	0	-2.26818	11.2402	-2.82555	0.326196	3.62445e-17	0.107549	0.00239375	-0.0118624	0.00298197
0.0299417	0	0	0	0	3.60032e-17	0	0	0	0	-6.02605	31.2535	-7.82691	0.324087	3.60032e-17	0.111902	0.00482417	-0.0250201	0.00626586
0.0399223	0	0	0	0	3.57501e-17	0	0	0	0	-10.4726	57.4613	-14.3263	0.321884	3.57501e-17	0.116363	0.0052207	-0.0286451	0.00714184
0.0499029	0	0	0	0	3.54851e-17	0	0	0	0	-14.747	86.975	-21.5684	0.319589	3.54851e-17	0.120866	0.00194394	-0.011465	0.00284313
0.0598835	0	0	0	0	3.52143e-17	0	0	0	0	-18.1938	117.283	-28.8911	0.317251	3.52143e-17	0.125226	-0.00505397	0.0325794	-0.00802551
0.0698641	0	0	0	0	3.49441e-17	0	0	0	0	-20.3884	146.451	-35.765	0.314927	3.49441e-17	0.129272	-0.0148617	0.106752	-0.0260701
0.0798447	0	0	0	0	3.46805e-17	0	0	0	0	-21.1412	173.204	-41.8209	0.312669	3.46805e-17	0.132897	-0.0258176	0.211517	-0.0510716
0.0898252	0	0	0	0	3.44288e-17	0	0	0	0	-20.4796	196.903	-46.8546	0.310523	3.44288e-17	0.136049	-0.0358076	0.344274	-0.0819229
0.0998058	0	0	0	0	3.41937e-17	0	0	0	0	-18.6116	217.464	-50.8092	0.308526	3.41937e-17	0.138733	-0.0427555	0.499568	-0.116721
0.109786	0	0	0	0	3.39798e-17	0	0	0	0	-15.8758	235.236	-53.7415	0.306713	3.39798e-17	0.140987	-0.0452	0.669743	-0.153008
0.119767	0	0	0	0	3.3791e-17	0	0	0	0	-12.6839	250.86	-55.7847	0.305112	3.3791e-17	0.142869	-0.042771	0.845916	-0.18811
0.129748	0	0	0	0	3.36303e-17	0	0	0	0	-9.46163	265.121	-57.1125	0.303743	3.36303e-17	0.144446	-0.0363715	1.01915	-0.219546
0.139728	0	0	0	0	3.34997e-17	0	0	0	0	-6.59263	278.836	-57.9098	0.302619	3.34997e-17	0.145785	-0.0279397	1.18171	-0.245423
0.149709	0	0	0	0	3.3399e-17	0	0	0	0	-4.37246	292.758	-58.3524	0.301736	3.3399e-17	0.146952	-0.0198355	1.32808	-0.264713
0.159689	0	0	0	0	3.33259e-17	0	0	0	0	-2.97748	307.524	-58.5946	0.301075	3.33259e-17	0.148009	-0.0140936	1.45563	-0.277351
0.16967	0	0	0	0	3.32757e-17	0	0	0	0	-2.45252	323.621	-58.7639	0.300599	3.32757e-17	0.149018	-0.0118574	1.56464	-0.28411
0.17965	0	0	0	0	3.32421e-17	0	0	0	0	-2.71832	341.369	-58.9609	0.300257	3.32421e-17	0.150041	-0.013201	1.6578	-0.286333
0.189631	0	0	0	0	3.32174e-17	0	0	0	0	-3.59661	360.906	-59.2623	0.299987	3.32174e-17	0.151134	-0.0173325	1.73925	-0.285592
0.199612	0	0	0	0	3.31939e-17	0	0	0	0	-4.84795	382.186	-59.7231	0.299725	3.31939e-17	0.152349	-0.0230017	1.81333	-0.283363
0.209592	0	0	0	0	3.3164e-17	0	0	0	0	-6.21498	404.991	-60.3792	0.299408	3.3164e-17	0.15373	-0.0289038	1.88348	-0.280803
0.219573	0	0	0	0	3.31217e-17	0	0	0	0	-7.46358	428.951	-61.2464	0.298984	3.31217e-17	0.155312	-0.0339544	1.95145	-0.278631
0.229553	0	0	0	0	3.30626e-17	0	0	0	0	-8.41478	453.57	-62.316	0.298412	3.30626e-17	0.157119	-0.037421	2.01705	-0.277123
0.239534	0	0	0	0	3.29843e-17	0	0	0	0	-8.96267	478.258	-63.55	0.297674	3.29843e-17	0.15916	-0.0389523	2.07854	-0.276193
0.249515	0	0	0	0	3.28865e-17	0	0	0	0	-9.07591	502.371	-64.8778	0.296763	3.28865e-17	0.161426	-0.0385421	2.13339	-0.275512
0.259495	0	0	0	0	3.27704e-17	0	0	0	0	-8.78454	525.264	-66.2007	0.295692	3.27704e-17	0.163895	-0.0364452	2.17921	-0.274653
0.269476	0	0	0	0	3.26383e-17	0	0	0	0	-8.15797	546.35	-67.4058	0.29448	3.26383e-17	0.166534	-0.0330644	2.21437	-0.273197
0.279456	0	0	0	0	3.24929e-17	0	0	0	0	-7.28259	565.17	-68.3867	0.293149	3.24929e-17	0.169304	-0.028837	2.23792	-0.270792
0.289437	0	0	0	0	3.23368e-17	0	0	0	0	-6.24506	581.438	-69.0637	0.291724	3.23368e-17	0.172168	-0.0241577	2.24917	-0.267159
0.299417	0	0	0	0	3.21725e-17	0	0	0	0	-5.12262	595.06	-69.3975	0.290225	3.21725e-17	0.175096	-0.0193456	2.24725	-0.26208
0.309398	0	0	0	0	3.20022e-17	0	0	0	0	-3.97897	606.139	-69.3911	0.288671	3.20022e-17	0.178063	-0.0146451	2.23097	-0.255403
0.319379	0	0	0	0	3.18278e-17	0	0	0	0	-2.86291	614.941	-69.0835	0.287081	3.18278e-17	0.18105	-0.0102383	2.19914	-0.247055
0.329359	0	0	0	0	3.16514e-17	0	0	0	0	-1.80798	621.849	-68.5363	0.285472	3.16514e-17	0.18404	-0.00625384	2.15099	-0.237069
0.33934	0	0	0	0	3.1475e-17	0	0	0	0	-0.832205	627.309	-67.8189	0.283862	3.1475e-17	0.187017	-0.00276826	2.08669	-0.225594
0.34932	0	0	0	0	3.13007e-17	0	0	0	0	0.0613031	631.774	-66.9962	0.282269	3.13007e-17	0.189964	0.000194816	2.00772	-0.212908
0.359301	0	0	0	0	3.11306e-17	0	0	0	0	0.881414	635.668	-66.1202	0.280713	3.11306e-17	0.192859	0.00265809	1.91699	-0.1994
0.369282	0	0	0	0	3.0967e-17	0	0	0	0	1.64287	639.364	-65.2276	0.279216	3.0967e-17	0.195676	0.00467304	1.81863	-0.185535
0.379262	0	0	0	0	3.08122e-17	0	0	0	0	2.35848	643.178	-64.3394	0.277799	3.08122e-17	0.198387	0.00629791	1.7175	-0.171807
0.389243	0	0	0	0	3.06685e-17	0	0	0	0	3.03281	647.368	-63.4641	0.276483	3.06685e-17	0.200956	0.0075827	1.61856	-0.158674
0.399223	0	0	0	0	3.0538e-17	0	0	0	0	3.66077	652.14	-62.6015	0.275287	3.0538e-17	0.203351	0.00856753	1.52624	-0.14651
0.409204	0	0	0	0	3.04221e-17	0	0	0	0	4.23146	657.634	-61.7459	0.274224	3.04221e-17	0.205543	0.0092902	1.44384	-0.135563
0.419184	0	0	0	0	3.03215e-17	0	0	0	0	4.7351	663.922	-60.8892	0.273301	3.03215e-17	0.207507	0.00979388	1.37323	-0.125941
0.429165	0	0	0	0	3.02358e-17	0	0	0	0	5.16953	670.998	-60.0224	0.272515	3.02358e-17	0.209232	0.0101291	1.31474	-0.117607
0.439146	0	0	0	0	3.01637e-17	0	0	0	0	5.544	678.774	-59.1362	0.271853	3.01637e-17	0.210718	0.0103505	1.26725	-0.110406
0.449126	0	0	0	0	3.0103e-17	0	0	0	0	5.87917	687.094	-58.2219	0.271295	3.0103e-17	0.21198	0.0105111	1.22843	-0.104093
0.459107	0	0	0	0	3.00507e-17	0	0	0	0	6.20375	695.741	-57.2711	0.270814	3.00507e-17	0.213045	0.0106571	1.19518	-0.0983829
0.469087	0	0	0	0	3.00037e-17	0	0	0	0	6.54874	704.465	-56.2768	0.270381	3.00037e-17	0.213947	0.0108221	1.16416	-0.093
0.479068	0	0	0	0	2.99587e-17	0	0	0	0	6.94032	713	-55.2343	0.269967	2.99587e-17	0.214727	0.0110221	1.13233	-0.0877188
0.489049	0	0	0	0	2.99132e-17	0	0	0	0	7.39292	721.098	-54.1421	0.269549	2.99132e-17	0.215429	0.0112508	1.09739	-0.0823954
0.499029	0	0	0	0	2.9865e-17	0	0	0	0	7.90446	728.548	-53.0023	0.269106	2.9865e-17	0.216092	0.0114804	1.05814	-0.0769801
0.50901	0	0	0	0	2.9813e-17	0	0	0	0	8.45529	735.19	-51.82	0.268629	2.9813e-17	0.216751	0.0116687	1.0146	-0.071514
0.51899	0	0	0	0	2.97567e-17	0	0	0	0	9.01119	740.917	-50.6018	0.268113	2.97567e-17	0.217433	0.0117727	0.967976	-0.0661091
0.528971	0	0	0	0	2.96963e-17	0	0	0	0	9.52948	745.677	-49.3558	0.267562	2.96963e-17	0.21816	0.0117614	0.920325	-0.0609155
0.538951	0	0	0	0	2.96324e-17	0	0	0	0	9.96678	749.466	-48.0912	0.26698	2.96324e-17	0.218944	0.0116231	0.874017	-0.0560833
0.548932	0	0	0	0	2.95659e-17	0	0	0	0	10.2869	752.316	-46.8202	0.266375	2.95659e-17	0.219796	0.0113652	0.831176	-0.0517281
0.558913	0	0	0	0	2.94973e-17	0	0	0	0	10.4676	754.298	-45.5582	0.265752	2.94973e-17	0.220721	0.0110077	0.793213	-0.0479087
0.568893	0	0	0	0	2.94269e-17	0	0	0	0	10.5049	755.504	-44.3234	0.265113	2.94269e-17	0.221726	0.0105761	0.760621	-0.0446236
0.578874	0	0	0	0	2.93545e-17	0	0	0	0	10.4146	756.045	-43.1339	0.264457	2.93545e-17	0.222814	0.0100985	0.733094	-0.0418245
0.588854	0	0	0	0	2.928e-17	0	0	0	0	10.229	756.033	-42.0041	0.263783	2.928e-17	0.223983	0.00960469	0.709891	-0.0394405
0.598835	0	0	0	0	2.92033e-17	0	0	0	0	9.98875	755.586	-40.9403	0.263089	2.92033e-17	0.225228	0.00912669	0.690377	-0.0374071
0.608816	0	0	0	0	2.91249e-17	0	0	0	0	9.73223	754.824	-39.9383	0.262381	2.91249e-17	0.226532	0.00869746	0.674569	-0.0356919
0.618796	0	0	0	0	2.90461e-17	0	0	0	0	9.48407	753.876	-38.9811	0.26167	2.90461e-17	0.227868	0.00834751	0.663532	-0.0343097
0.628777	0	0	0	0	2.89695e-17	0	0	0	0	9.24726	752.88	-38.0407	0.260978	2.89695e-17	0.229198	0.00809995	0.659471	-0.033321
0.638757	0	0	0	0	2.88983e-17	0	0	0	0	9.00037	751.982	-37.0817	0.260337	2.88983e-17	0.230477	0.00796485	0.665464	-0.0328153
0.648738	0	0	0	0	2.88366e-17	0	0	0	0	8.7007	751.313	-36.0675	0.259781	2.88366e-17	0.231658	0.00793118	0.684865	-0.0328776
0.658718	0	0	0	0	2.87886e-17	0	0	0	0	8.29204	750.972	-34.9685	0.259349	2.87886e-17	0.232701	0.00795542	0.720486	-0.033549
0.668699	0	0	0	0	2.87579e-17	0	0	0	0	7.71551	751.006	-33.7695	0.259074	2.87579e-17	0.233575	0.00794925	0.773756	-0.0347925
0.67868	0	0	0	0	2.87472e-17	0	0	0	0	6.92118	751.395	-32.4753	0.25898	2.87472e-17	0.234271	0.00777446	0.844031	-0.036479
0.68866	0	0	0	0	2.87578e-17	0	0	0	0	5.87835	752.057	-31.1128	0.259078	2.87578e-17	0.234798	0.00725526	0.928215	-0.0384004
0.698641	0	0	0	0	2.87892e-17	0	0	0	0	4.58323	752.865	-29.7275	0.259364	2.87892e-17	0.235183	0.00621443	1.02082	-0.0403077
0.708621	0	0	0	0	2.88394e-17	0	0	0	0	3.06289	753.666	-28.3759	0.259818	2.88394e-17	0.23547	0.00452921	1.11447	-0.0419606
0.718602	0	0	0	0	2.89051e-17	0	0	0	0	1.37459	754.312	-27.1151	0.260411	2.89051e-17	0.235716	0.00218854	1.20097	-0.0431711
0.728583	0	0	0	0	2.89822e-17	0	0	0	0	-0.400352	754.681	-25.9918	0.261106	2.89822e-17	0.235975	-0.000675069	1.27253	-0.0438272
0.738563	0	0	0	0	2.90665e-17	0	0	0	0	-2.16784	754.684	-25.035	0.261866	2.90665e-17	0.236303	-0.0038009	1.3232	-0.0438942
0.748544	0	0	0	0	2.91545e-17	0	0	0	0	-3.8359	754.28	-24.2521	0.262658	2.91545e-17	0.236742	-0.00686509	1.34993	-0.0434039
0.758524	0	0	0	0	2.92432e-17	0	0	0	0	-5.33008	753.48	-23.6304	0.263456	2.92432e-17	0.237323	-0.00957334	1.35332	-0.0424426
0.768505	0	0	0	0	2.9331e-17	0	0	0	0	-6.60551	752.35	-23.1425	0.264245	2.9331e-17	0.238061	-0.0117443	1.33764	-0.0411461
0.778485	0	0	0	0	2.94172e-17	0	0	0	0	-7.6524	751.014	-22.7527	0.265019	2.94172e-17	0.238954	-0.0133505	1.31023	-0.0396947
0.788466	0	0	0	0	2.95019e-17	0	0	0	0	-8.49326	749.643	-22.4247	0.265781	2.95019e-17	0.239991	-0.014506	1.28034	-0.0383001
0.798447	0	0	0	0	2.95856e-17	0	0	0	0	-9.17271	748.441	-22.1272	0.266533	2.95856e-17	0.241151	-0.0154109	1.25744	-0.0371755
0.808427	0	0	0	0	2.96683e-17	0	0	0	0	-9.74224	747.61	-21.8369	0.267278	2.96683e-17	0.242412	-0.0162816	1.24944	-0.0364948
0.818408	0	0	0	0	2.97494e-17	0	0	0	0	-10.2435	747.318	-21.5392	0.268007	2.97494e-17	0.243755	-0.0172874	1.26121	-0.0363504
0.828388	0	0	0	0	2.9827e-17	0	0	0	0	-10.6948	747.658	-21.2258	0.268706	2.9827e-17	0.245168	-0.0185064	1.29375	-0.0367292
0.838369	0	0	0	0	2.98984e-17	0	0	0	0	-11.0844	748.619	-20.8926	0.269351	2.98984e-17	0.246646	-0.0199046	1.34432	-0.0375174
0.84835	0	0	0	0	2.99604e-17	0	0	0	0	-11.3742	750.085	-20.5369	0.269911	2.99604e-17	0.248195	-0.0213428	1.40747	-0.0385358
0.85833	0	0	0	0	3.00097e-17	0	0	0	0	-11.5135	751.861	-20.1579	0.270356	3.00097e-17	0.249822	-0.0226142	1.47676	-0.0395931
0.868311	0	0	0	0	3.00438e-17	0	0	0	0	-11.4568	753.722	-19.756	0.270664	3.00438e-17	0.251532	-0.0235072	1.5465	-0.0405355
0.878291	0	0	0	0	3.00615e-17	0	0	0	0	-11.1797	755.467	-19.3323	0.270824	3.00615e-17	0.253323	-0.0238708	1.61306	-0.0412779
0.888272	0	0	0	0	3.00627e-17	0	0	0	0	-10.6864	756.955	-18.8874	0.270836	3.00627e-17	0.255183	-0.0236536	1.67546	-0.0418059
0.898252	0	0	0	0	3.00486e-17	0	0	0	0	-10.0063	758.121	-18.4199	0.27071	3.00486e-17	0.257088	-0.0229001	1.735	-0.042155
0.908233	0	0	0	0	3.00211e-17	0	0	0	0	-9.18383	758.964	-17.926	0.270462	3.00211e-17	0.259013	-0.0217109	1.79422	-0.0423776
0.918214	0	0	0	0	2.9982e-17	0	0	0	0	-8.2652	759.516	-17.4005	0.27011	2.9982e-17	0.26093	-0.020192	1.85551	-0.0425097
0.928194	0	0	0	0	2.99328e-17	0	0	0	0	-7.28797	759.818	-16.8397	0.269667	2.99328e-17	0.262821	-0.0184153	1.91992	-0.0425507
0.938175	0	0	0	0	2.98745e-17	0	0	0	0	-6.27543	759.892	-16.2432	0.269141	2.98745e-17	0.264681	-0.0164046	1.98643	-0.0424614
0.948155	0	0	0	0	2.98072e-17	0	0	0	0	-5.23769	759.734	-15.6157	0.268534	2.98072e-17	0.266516	-0.0141469	2.05202	-0.0421776
0.958136	0	0	0	0	2.97306e-17	0	0	0	0	-4.17737	759.32	-14.9658	0.267844	2.97306e-17	0.268347	-0.0116211	2.11237	-0.0416336
0.968117	0	0	0	0	2.96446e-17	0	0	0	0	-3.09745	758.621	-14.3036	0.267068	2.96446e-17	0.2702	-0.00883164	2.16302	-0.0407833
0.978097	0	0	0	0	2.95494e-17	0	0	0	0	-2.00761	757.628	-13.6369	0.26621	2.95494e-17	0.2721	-0.00583151	2.20068	-0.0396111
0.988078	0	0	0	0	2.94462e-17	0	0	0	0	-0.927079	756.369	-12.9676	0.265278	2.94462e-17	0.274065	-0.00272596	2.22401	-0.0381297
0.998058	0	0	0	0	2.9337e-17	0	0	0	0	0.116642	754.913	-12.2907	0.264292	2.9337e-17	0.276105	0.000345165	2.23392	-0.0363703
1.00804	0	0	0	0	2.92248e-17	0	0	0	0	1.09194	753.364	-11.5964	0.263279	2.92248e-17	0.278219	0.0032368	2.23317	-0.0343749
1.01802	0	0	0	0	2.91131e-17	0	0	0	0	1.96838	751.846	-10.8755	0.262271	2.91131e-17	0.2804	0.00582661	2.22555	-0.0321926
1.028	0	0	0	0	2.90053e-17	0	0	0	0	2.72136	750.481	-10.1238	0.261296	2.90053e-17	0.282639	0.0080318	2.21497	-0.0298793
1.03798	0	0	0	0	2.8904e-17	0	0	0	0	3.33536	749.373	-9.34601	0.260381	2.8904e-17	0.284929	0.00981276	2.20468	-0.0274963
1.04796	0	0	0	0	2.88111e-17	0	0	0	0	3.80576	748.59	-8.55567	0.259541	2.88111e-17	0.287269	0.0111677	2.19668	-0.0251059
1.05794	0	0	0	0	2.87271e-17	0	0	0	0	4.13886	748.159	-7.77309	0.258781	2.87271e-17	0.289663	0.0121228	2.19138	-0.0227676
1.06792	0	0	0	0	2.86516e-17	0	0	0	0	4.35046	748.057	-7.02187	0.258098	2.86516e-17	0.292123	0.0127228	2.18768	-0.0205353
1.0779	0	0	0	0	2.85837e-17	0	0	0	0	4.463	748.221	-6.32449	0.257483	2.85837e-17	0.294663	0.0130229	2.18329	-0.0184547
1.08788	0	0	0	0	2.85219e-17	0	0	0	0	4.5019	748.55	-5.69793	0.256924	2.85219e-17	0.297296	0.0130831	2.17538	-0.0165589
1.09786	0	0	0	0	2.84652e-17	0	0	0	0	4.49211	748.922	-5.15004	0.256411	2.84652e-17	0.30003	0.012964	2.16135	-0.0148627
1.10784	0	0	0	0	2.84131e-17	0	0	0	0	4.45542	749.203	-4.67748	0.25594	2.84131e-17	0.302863	0.0127234	2.1395	-0.0133575
1.11783	0	0	0	0	2.83656e-17	0	0	0	0	4.40914	749.267	-4.26569	0.255511	2.83656e-17	0.30578	0.0124131	2.10942	-0.0120092
1.12781	0	0	0	0	2.83235e-17	0	0	0	0	4.36596	749.005	-3.89097	0.25513	2.83235e-17	0.308756	0.012077	2.07188	-0.0107631
1.13779	0	0	0	0	2.82878e-17	0	0	0	0	4.33462	748.342	-3.52443	0.254807	2.82878e-17	0.311751	0.0117495	2.02847	-0.00955338
1.14777	0	0	0	0	2.82595e-17	0	0	0	0	4.3206	747.248	-3.13704	0.25455	2.82595e-17	0.314724	0.0114542	1.981	-0.0083165
1.15775	0	0	0	0	2.82396e-17	0	0	0	0	4.32634	745.735	-2.70504	0.254369	2.82396e-17	0.317628	0.011203	1.93107	-0.00700466
1.16773	0	0	0	0	2.82284e-17	0	0	0	0	4.35104	743.863	-2.2142	0.254266	2.82284e-17	0.320422	0.0109953	1.87978	-0.00559541
1.17771	0	0	0	0	2.82261e-17	0	0	0	0	4.39058	741.733	-1.66208	0.254244	2.82261e-17	0.32307	0.010819	1.82774	-0.00409561
1.18769	0	0	0	0	2.82322e-17	0	0	0	0	4.43817	739.479	-1.05703	0.254297	2.82322e-17	0.325542	0.0106541	1.77517	-0.00253747
1.19767	0	0	0	0	2.82458e-17	0	0	0	0	4.48575	737.259	-0.413865	0.254417	2.82458e-17	0.327814	0.0104785	1.7222	-0.00096677
1.20765	0	0	0	0	2.82654e-17	0	0	0	0	4.52611	735.24	0.252954	0.254592	2.82654e-17	0.32987	0.0102746	1.66906	0.000574228
1.21763	0	0	0	0	2.82896e-17	0	0	0	0	4.55514	733.58	0.936606	0.254807	2.82896e-17	0.331694	0.0100355	1.61617	0.00206346
1.22761	0	0	0	0	2.83164e-17	0	0	0	0	4.5736	732.411	1.64342	0.255046	2.83164e-17	0.333275	0.00976759	1.56417	0.00350977
1.23759	0	0	0	0	2.8344e-17	0	0	0	0	4.58826	731.819	2.39497	0.255294	2.8344e-17	0.334608	0.00949066	1.51374	0.00495392
1.24757	0	0	0	0	2.8371e-17	0	0	0	0	4.61195	731.835	3.22589	0.255534	2.8371e-17	0.335692	0.00923459	1.46537	0.00645925
1.25755	0	0	0	0	2.83958e-17	0	0	0	0	4.66222	732.432	4.17787	0.255756	2.83958e-17	0.336537	0.00903317	1.4191	0.00809473
1.26753	0	0	0	0	2.84176e-17	0	0	0	0	4.75809	733.531	5.29127	0.25595	2.84176e-17	0.337158	0.00891631	1.37458	0.00991545
1.27751	0	0	0	0	2.84359e-17	0	0	0	0	4.9152	735.019	6.59648	0.256112	2.84359e-17	0.337582	0.00890219	1.33123	0.0119472
1.2875	0	0	0	0	2.84507e-17	0	0	0	0	5.14041	736.761	8.10751	0.256242	2.84507e-17	0.337843	0.00899131	1.2887	0.0141812
1.29748	0	0	0	0	2.84627e-17	0	0	0	0	5.42752	738.623	9.81873	0.256347	2.84627e-17	0.337983	0.00916521	1.24728	0.0165804
1.30746	0	0	0	0	2.84726e-17	0	0	0	0	5.75573	740.484	11.7053	0.256433	2.84726e-17	0.338048	0.00939121	1.20819	0.0190987
1.31744	0	0	0	0	2.84817e-17	0	0	0	0	6.09179	742.245	13.7265	0.256511	2.84817e-17	0.338082	0.00963223	1.17362	0.021704
1.32742	0	0	0	0	2.84911e-17	0	0	0	0	6.39558	743.832	15.831	0.256592	2.84911e-17	0.338129	0.00985714	1.14643	0.0243995
1.3374	0	0	0	0	2.85021e-17	0	0	0	0	6.62752	745.198	17.9633	0.256688	2.85021e-17	0.338225	0.0100463	1.12961	0.0272297
1.34738	0	0	0	0	2.85157e-17	0	0	0	0	6.75557	746.32	20.0691	0.256806	2.85157e-17	0.338399	0.0101898	1.12572	0.0302714
1.35736	0	0	0	0	2.85327e-17	0	0	0	0	6.75986	747.2	22.1004	0.256955	2.85327e-17	0.338671	0.0102798	1.13628	0.0336085
1.36734	0	0	0	0	2.85538e-17	0	0	0	0	6.63397	747.865	24.0186	0.25714	2.85538e-17	0.339055	0.0103028	1.16146	0.0373016
1.37732	0	0	0	0	2.85794e-17	0	0	0	0	6.38318	748.361	25.7958	0.257365	2.85794e-17	0.339553	0.0102356	1.20002	0.0413641
1.3873	0	0	0	0	2.86095e-17	0	0	0	0	6.02096	748.747	27.415	0.25763	2.86095e-17	0.340164	0.0100489	1.24965	0.0457553
1.39728	0	0	0	0	2.8644e-17	0	0	0	0	5.56525	749.087	28.8695	0.257935	2.8644e-17	0.340881	0.00971386	1.30749	0.0503902
1.40726	0	0	0	0	2.86823e-17	0	0	0	0	5.03575	749.44	30.1613	0.258274	2.86823e-17	0.341689	0.00920997	1.37066	0.0551624
1.41724	0	0	0	0	2.87237e-17	0	0	0	0	4.45273	749.854	31.3004	0.25864	2.87237e-17	0.342575	0.00853113	1.43667	0.0599693
1.42722	0	0	0	0	2.87669e-17	0	0	0	0	3.83717	750.354	32.3043	0.259023	2.87669e-17	0.343519	0.00768918	1.50361	0.0647335
1.4372	0	0	0	0	2.88106e-17	0	0	0	0	3.21182	750.944	33.198	0.259411	2.88106e-17	0.344502	0.00671566	1.57016	0.0694143
1.44718	0	0	0	0	2.88536e-17	0	0	0	0	2.60226	751.603	34.0132	0.259792	2.88536e-17	0.345504	0.00566219	1.63539	0.0740084
1.45717	0	0	0	0	2.88943e-17	0	0	0	0	2.03714	752.288	34.7877	0.260153	2.88943e-17	0.346505	0.00459944	1.69851	0.0785435
1.46715	0	0	0	0	2.89315e-17	0	0	0	0	1.5469	752.946	35.5624	0.260481	2.89315e-17	0.347482	0.00361332	1.75876	0.0830682
1.47713	0	0	0	0	2.89639e-17	0	0	0	0	1.16093	753.519	36.379	0.260768	2.89639e-17	0.348416	0.00279686	1.81534	0.0876423
1.48711	0	0	0	0	2.89908e-17	0	0	0	0	0.90336	753.962	37.2761	0.261003	2.89908e-17	0.349287	0.00223751	1.86747	0.0923281
1.49709	0	0	0	0	2.90114e-17	0	0	0	0	0.788696	754.247	38.2861	0.261183	2.90114e-17	0.350081	0.00200199	1.91454	0.0971833
1.50707	0	0	0	0	2.90257e-17	0	0	0	0	0.818665	754.366	39.4314	0.261304	2.90257e-17	0.350787	0.00212305	1.9563	0.102258
1.51705	0	0	0	0	2.90338e-17	0	0	0	0	0.981276	754.334	40.7227	0.261371	2.90338e-17	0.351401	0.00259258	1.99299	0.107591
1.52703	0	0	0	0	2.90363e-17	0	0	0	0	1.25258	754.184	42.1579	0.261386	2.90363e-17	0.351923	0.00336399	2.02547	0.113221
1.53701	0	0	0	0	2.90341e-17	0	0	0	0	1.60067	753.956	43.7238	0.261358	2.90341e-17	0.352361	0.0043633	2.05523	0.119188
1.54699	0	0	0	0	2.90283e-17	0	0	0	0	1.99095	753.696	45.4001	0.261297	2.90283e-17	0.352725	0.00550564	2.08421	0.125546
1.55697	0	0	0	0	2.90199e-17	0	0	0	0	2.39175	753.439	47.1638	0.261212	2.90199e-17	0.353028	0.00671235	2.1145	0.132363
1.56695	0	0	0	0	2.90102e-17	0	0	0	0	2.77903	753.207	48.9943	0.261115	2.90102e-17	0.353283	0.00792474	2.14786	0.139713
1.57693	0	0	0	0	2.90003e-17	0	0	0	0	3.13956	753.002	50.8761	0.261015	2.90003e-17	0.353506	0.00911162	2.18536	0.147652
1.58691	0	0	0	0	2.89911e-17	0	0	0	0	3.47144	752.804	52.7992	0.260921	2.89911e-17	0.353706	0.0102701	2.22713	0.156204
1.59689	0	0	0	0	2.89836e-17	0	0	0	0	3.7821	752.569	54.7572	0.260841	2.89836e-17	0.353896	0.0114201	2.27239	0.16534
1.60687	0	0	0	0	2.89784e-17	0	0	0	0	4.08397	752.228	56.7441	0.260782	2.89784e-17	0.354083	0.0125942	2.31974	0.174989
1.61685	0	0	0	0	2.8976e-17	0	0	0	0	4.3892	751.693	58.751	0.260747	2.8976e-17	0.354276	0.0138243	2.36754	0.185043
1.62683	0	0	0	0	2.89768e-17	0	0	0	0	4.7049	750.857	60.7638	0.260739	2.89768e-17	0.35448	0.0151285	2.41436	0.195385
1.63682	0	0	0	0	2.89805e-17	0	0	0	0	5.03001	749.596	62.7615	0.260759	2.89805e-17	0.354701	0.0165019	2.45918	0.2059
1.6468	0	0	0	0	2.8987e-17	0	0	0	0	5.35423	747.778	64.7159	0.260802	2.8987e-17	0.354939	0.0179113	2.50151	0.216491
1.65678	0	0	0	0	2.89955e-17	0	0	0	0	5.65884	745.256	66.591	0.260863	2.89955e-17	0.355195	0.0192965	2.54131	0.227074
1.66676	0	0	0	0	2.90051e-17	0	0	0	0	5.91918	741.87	68.3431	0.260935	2.90051e-17	0.355469	0.0205761	2.57887	0.237573
1.67674	0	0	0	0	2.90149e-17	0	0	0	0	6.10798	737.442	69.921	0.261007	2.90149e-17	0.355761	0.0216561	2.61464	0.247908
1.68672	0	0	0	0	2.90239e-17	0	0	0	0	6.19894	731.767	71.2675	0.261072	2.90239e-17	0.356072	0.0224409	2.64909	0.257997
1.6967	0.270541	7.27928	-1.14489	0.39612	4.36991e-17	0.688451	0.00432373	0.116336	-0.0182974	6.16981	724.616	72.3224	0.261119	2.90311e-17	0.356407	0.0228405	2.68252	0.267736
1.70668	0.738113	20.9554	-3.32165	0.387707	4.27743e-17	0.693443	0.011319	0.321353	-0.0509378	6.00491	715.735	73.0281	0.261142	2.90356e-17	0.356773	0.0227761	2.71472	0.276989
1.71666	1.32652	40.0736	-6.40587	0.378869	4.18033e-17	0.698713	0.0194061	0.586251	-0.0937136	5.69659	704.866	73.3375	0.261135	2.90368e-17	0.357183	0.0221808	2.74453	0.285554
1.72664	1.95224	63.4714	-10.2402	0.369592	4.07849e-17	0.704286	0.0270377	0.87905	-0.141822	5.24602	691.77	73.2222	0.261095	2.90345e-17	0.357654	0.0210013	2.76935	0.293129
1.73662	2.5186	89.5885	-14.6038	0.360067	3.97408e-17	0.710066	0.0326665	1.16197	-0.189412	4.66342	676.26	72.6774	0.261025	2.90288e-17	0.35821	0.0192053	2.78503	0.299306
1.7466	2.92645	116.899	-19.2559	0.350803	3.87257e-17	0.715784	0.0354091	1.41444	-0.232989	3.96784	658.229	71.7209	0.26093	2.90202e-17	0.358876	0.0167963	2.78637	0.303603
1.75658	3.09356	144.088	-23.9535	0.342243	3.7788e-17	0.721187	0.0349753	1.62903	-0.270815	3.18654	637.678	70.3849	0.260815	2.90095e-17	0.359682	0.0138327	2.76814	0.305539
1.76656	2.96994	170.168	-28.4794	0.334681	3.69598e-17	0.726086	0.0315306	1.8066	-0.302353	2.35386	614.72	68.7069	0.260689	2.89973e-17	0.360653	0.0104394	2.7263	0.304716
1.77654	2.54633	194.533	-32.6653	0.328257	3.62567e-17	0.730371	0.0255547	1.95232	-0.327825	1.50915	589.585	66.7225	0.260553	2.89839e-17	0.361815	0.00680537	2.65867	0.300878
1.78652	1.85531	216.944	-36.4022	0.322981	3.568e-17	0.733998	0.0177301	2.07321	-0.347875	0.693802	562.607	64.464	0.260411	2.89695e-17	0.363185	0.0031634	2.56522	0.293925
1.7965	0.965797	237.464	-39.6359	0.318771	3.52208e-17	0.736976	0.00885339	2.17681	-0.36334	-0.0521816	534.198	61.9626	0.260261	2.89538e-17	0.364778	-0.000239094	2.44768	0.283911
1.80649	-0.0276305	256.374	-42.3554	0.315488	3.48637e-17	0.739346	-0.000244692	2.27042	-0.375095	-0.693501	504.819	59.2515	0.260101	2.89366e-17	0.366602	-0.00317225	2.30917	0.271032
1.81647	-1.01884	274.076	-44.5804	0.312963	3.45904e-17	0.74117	-0.00877479	2.36048	-0.383949	-1.20207	474.946	56.3683	0.259929	2.89177e-17	0.368661	-0.00545094	2.1537	0.255609
1.82645	-1.90554	291.006	-46.3508	0.311028	3.4382e-17	0.742522	-0.0160563	2.45205	-0.390558	-1.55823	445.044	53.3556	0.259745	2.88969e-17	0.370959	-0.00695254	1.9857	0.238062
1.83643	-2.6037	307.576	-47.7194	0.309524	3.42214e-17	0.743473	-0.0215726	2.54838	-0.395373	-1.75073	415.542	50.2603	0.259554	2.88748e-17	0.373497	-0.00762412	1.8096	0.218874
1.84641	-3.05901	324.119	-48.7451	0.308323	3.40942e-17	0.744095	-0.0250165	2.65064	-0.398637	-1.77615	386.819	47.132	0.259366	2.88524e-17	0.376277	-0.0074821	1.62949	0.198545
1.85639	-3.25349	340.858	-49.4875	0.307323	3.39893e-17	0.744455	-0.026325	2.75798	-0.400418	-1.63844	359.201	44.0209	0.259196	2.88314e-17	0.379303	-0.00660898	1.44891	0.177567
1.86637	-3.20616	357.893	-50.0028	0.306457	3.38993e-17	0.744609	-0.0256912	2.86783	-0.400677	-1.34887	332.955	40.9761	0.259061	2.88138e-17	0.382577	-0.00514858	1.27088	0.156405
1.87635	-2.96767	375.206	-50.3408	0.305684	3.38196e-17	0.744608	-0.0235414	2.97637	-0.399336	-0.926185	308.292	38.0438	0.258987	2.88021e-17	0.386101	-0.00329879	1.09804	0.1355
1.88633	-2.61042	392.678	-50.5436	0.304985	3.37481e-17	0.744495	-0.0204699	3.07923	-0.396343	-0.396964	285.373	35.2653	0.258998	2.87994e-17	0.389875	-0.0012978	0.93297	0.115293
1.89631	-2.21601	410.124	-50.6448	0.304355	3.36842e-17	0.744303	-0.0171403	3.17222	-0.391726	0.204044	264.301	32.676	0.259121	2.88086e-17	0.393898	0.000600998	0.778483	0.0962452
1.90629	-1.86196	427.321	-50.6693	0.303798	3.36281e-17	0.744063	-0.0141703	3.2521	-0.385615	0.833881	245.126	30.303	0.259385	2.88332e-17	0.398171	0.00217026	0.637965	0.0788664
1.91627	-1.60963	444.033	-50.6317	0.303318	3.35805e-17	0.743795	-0.0120247	3.31714	-0.378243	1.4424	227.833	28.1636	0.259818	2.88766e-17	0.4027	0.0032638	0.515532	0.0637275
1.92625	-1.49506	460.036	-50.5373	0.302921	3.35417e-17	0.74352	-0.0109436	3.3674	-0.369925	1.97493	212.343	26.2637	0.260446	2.89422e-17	0.407502	0.0038692	0.416011	0.0514546
1.93623	-1.52422	475.136	-50.3819	0.302606	3.35116e-17	0.74325	-0.0109221	3.40469	-0.361023	2.3768	198.512	24.5974	0.26129	2.90329e-17	0.412606	0.00412663	0.34466	0.0427063
1.94621	-1.67429	489.188	-50.155	0.302367	3.34896e-17	0.742999	-0.0117468	3.43214	-0.351887	2.59899	186.157	23.1481	0.262366	2.91512e-17	0.418055	0.0042814	0.306662	0.0381326
1.95619	-1.901	502.097	-49.841	0.302195	3.34745e-17	0.742773	-0.013075	3.45341	-0.342805	2.60392	175.07	21.8928	0.263677	2.92983e-17	0.423891	0.00455831	0.306469	0.0383246
1.96617	-2.15088	513.812	-49.4211	0.302079	3.34653e-17	0.742581	-0.0145333	3.4718	-0.333935	2.36976	165.051	20.8064	0.265219	2.94746e-17	0.430154	0.00498393	0.347125	0.0437587
1.97616	-2.3751	524.316	-48.8748	0.30201	3.3461e-17	0.742425	-0.0158072	3.48953	-0.325281	1.89233	155.93	19.8664	0.266972	2.96788e-17	0.436864	0.00521569	0.42978	0.0547565
1.98614	-2.54117	533.617	-48.1827	0.301982	3.34608e-17	0.742313	-0.0167022	3.50726	-0.316687	1.18446	147.575	19.055	0.268907	2.99084e-17	0.444017	0.0044422	0.553465	0.0714637
1.99612	-2.63936	541.748	-47.3294	0.301991	3.34647e-17	0.742251	-0.0171689	3.52404	-0.307875	0.273459	139.893	18.3584	0.270984	3.01597e-17	0.451582	0.00139793	0.715133	0.0938485
2.0061	-2.68254	548.779	-46.3072	0.302041	3.34729e-17	0.742251	-0.0172925	3.53762	-0.298512	-0.802568	132.816	17.7648	0.273159	3.04284e-17	0.459505	-0.0054983	0.909909	0.121704
2.01608	-2.70026	554.83	-45.1192	0.302138	3.34863e-17	0.74233	-0.0172535	3.54513	-0.288293	-1.99845	126.29	17.2607	0.275385	3.07098e-17	0.467715	-0.0179047	1.13147	0.154643
2.02606	-2.72942	560.072	-43.7803	0.302287	3.35057e-17	0.74251	-0.0172706	3.5439	-0.277023	-3.26516	120.25	16.8288	0.277621	3.09995e-17	0.476141	-0.0372646	1.37239	0.192063
2.03604	-2.80407	564.724	-42.3166	0.302496	3.35318e-17	0.742821	-0.0175387	3.53219	-0.264679	-4.55222	114.612	16.4466	0.279831	3.12932e-17	0.484716	-0.0645192	1.62441	0.233099
2.04602	-2.94668	569.038	-40.7642	0.30277	3.35652e-17	0.743294	-0.0181751	3.50982	-0.251434	-5.80931	109.262	16.0857	0.281986	3.15877e-17	0.493385	-0.099877	1.87849	0.276554
2.056	-3.16242	573.279	-39.1659	0.303111	3.3606e-17	0.743963	-0.0191887	3.47851	-0.237648	-6.98714	104.059	15.7121	0.284067	3.18801e-17	0.502095	-0.142673	2.12483	0.320833
2.06598	-3.43766	577.707	-37.5677	0.303516	3.3654e-17	0.744857	-0.0204809	3.44186	-0.223821	-8.03731	98.8373	15.2879	0.286064	3.21682e-17	0.510786	-0.191307	2.35257	0.363889
2.07596	-3.74339	582.548	-36.0138	0.303976	3.3708e-17	0.745997	-0.0218796	3.40491	-0.210496	-8.91152	93.4167	14.7735	0.287972	3.24505e-17	0.519379	-0.243214	2.54954	0.4032
2.08594	-4.04313	587.979	-34.5421	0.304479	3.37666e-17	0.74739	-0.023194	3.37304	-0.198156	-9.56093	87.6118	14.1313	0.289795	3.2726e-17	0.527759	-0.294863	2.70199	0.435817
2.09592	-4.3031	594.112	-33.1798	0.305006	3.38275e-17	0.749027	-0.0242688	3.3507	-0.187128	-9.93706	81.2451	13.3294	0.29154	3.2994e-17	0.535777	-0.341826	2.79476	0.458522
2.1059	-4.50064	600.983	-31.9406	0.305535	3.38884e-17	0.750888	-0.0250161	3.34048	-0.177537	-9.99499	74.1624	12.3445	0.293211	3.32538e-17	0.543245	-0.379009	2.81223	0.468102
2.11588	-4.62723	608.553	-30.826	0.306044	3.39468e-17	0.752936	-0.0254177	3.34282	-0.169329	-9.69922	66.2559	11.164	0.29481	3.35041e-17	0.549958	-0.401123	2.74009	0.461701
2.12586	-4.68549	616.719	-29.8278	0.306515	3.40007e-17	0.755134	-0.0255014	3.35658	-0.162342	-9.03133	57.4927	9.78917	0.296326	3.37431e-17	0.555718	-0.403373	2.56784	0.437221
2.13584	-4.68224	625.333	-28.9334	0.306932	3.40485e-17	0.757442	-0.0253073	3.3799	-0.156384	-7.99881	47.9501	8.23872	0.297743	3.39678e-17	0.560397	-0.382318	2.29187	0.393785
2.14583	-4.62126	634.238	-28.1301	0.307287	3.40892e-17	0.759829	-0.0248543	3.41109	-0.151291	-6.64467	37.8537	6.55548	0.299041	3.41749e-17	0.564028	-0.336876	1.91913	0.332354
2.15581	-4.49875	643.287	-27.4083	0.307577	3.41225e-17	0.762274	-0.0241216	3.44921	-0.146959	-5.05856	27.6172	4.81514	0.300211	3.43616e-17	0.566762	-0.269544	1.47158	0.256573
2.16579	-4.30355	652.365	-26.7623	0.307805	3.41489e-17	0.764762	-0.0230512	3.49429	-0.143348	-3.3902	17.8835	3.13565	0.301269	3.45267e-17	0.568821	-0.187947	0.991434	0.173835
2.17577	-4.02303	661.379	-26.1888	0.307984	3.41695e-17	0.767288	-0.0215763	3.54711	-0.140456	-1.86573	9.56316	1.6849	0.302217	3.46733e-17	0.57038	-0.106876	0.547814	0.0965176
2.18575	-3.65253	670.247	-25.6844	0.308128	3.41862e-17	0.769847	-0.0196663	3.60881	-0.138292	-0.677669	3.38925	0.599668	0.303086	3.48062e-17	0.571622	-0.0399108	0.199607	0.0353171
2.19573	-3.20404	678.875	-25.242	0.308262	3.42016e-17	0.772432	-0.0173695	3.68026	-0.13684	0	0	0	0	3.42016e-17	0	0	0	0
2.20571	-2.70955	687.154	-24.8497	0.30841	3.42184e-17	0.775031	-0.0148332	3.76177	-0.136038	0	0	0	0	3.42184e-17	0	0	0	0
2.21569	-2.21721	694.963	-24.4904	0.308599	3.42397e-17	0.777627	-0.0122928	3.85308	-0.135782	0	0	0	0	3.42397e-17	0	0	0	0
2.22567	-1.78247	702.185	-24.1433	0.308857	3.42685e-17	0.780196	-0.0100363	3.9537	-0.13594	0	0	0	0	3.42685e-17	0	0	0	0
2.23565	-1.4584	708.724	-23.786	0.309203	3.43071e-17	0.782716	-0.00836124	4.06322	-0.136368	0	0	0	0	3.43071e-17	0	0	0	0
2.24563	-1.28827	714.509	-23.3968	0.309656	3.43575e-17	0.785166	-0.00753901	4.18133	-0.136919	0	0	0	0	3.43575e-17	0	0	0	0
2.25561	-1.30128	719.501	-22.9573	0.310226	3.44208e-17	0.787535	-0.00779104	4.3078	-0.13745	0	0	0	0	3.44208e-17	0	0	0	0
2.26559	-1.51075	723.691	-22.4541	0.31092	3.44979e-17	0.789819	-0.00927339	4.44222	-0.137829	0	0	0	0	3.44979e-17	0	0	0	0
2.27557	-1.91397	727.107	-21.8797	0.311736	3.45886e-17	0.792025	-0.0120659	4.58378	-0.137933	0	0	0	0	3.45886e-17	0	0	0	0
2.28555	-2.49348	729.818	-21.2323	0.312668	3.46922e-17	0.794164	-0.0161645	4.73118	-0.137643	0	0	0	0	3.46922e-17	0	0	0	0
2.29553	-3.21989	731.939	-20.5147	0.313702	3.48071e-17	0.796254	-0.0214793	4.88263	-0.13685	0	0	0	0	3.48071e-17	0	0	0	0
2.30551	-4.05635	733.628	-19.7331	0.314817	3.49312e-17	0.79831	-0.0278445	5.03593	-0.135456	0	0	0	0	3.49312e-17	0	0	0	0
2.3155	-4.96353	735.077	-18.8973	0.315989	3.50617e-17	0.800341	-0.0350358	5.18864	-0.133389	0	0	0	0	3.50617e-17	0	0	0	0
2.32548	-5.90356	736.487	-18.0197	0.317189	3.51954e-17	0.802354	-0.0427909	5.33829	-0.130613	0	0	0	0	3.51954e-17	0	0	0	0
2.33546	-6.84198	738.051	-17.1159	0.31839	3.53292e-17	0.804346	-0.050825	5.48255	-0.127144	0	0	0	0	3.53292e-17	0	0	0	0
2.34544	-7.74811	739.929	-16.204	0.319563	3.54601e-17	0.806311	-0.0588432	5.61941	-0.123061	0	0	0	0	3.54601e-17	0	0	0	0
2.35542	-8.59492	742.226	-15.305	0.320685	3.55855e-17	0.808239	-0.0665528	5.74726	-0.118511	0	0	0	0	3.55855e-17	0	0	0	0
2.3654	-9.35967	744.977	-14.442	0.321741	3.57034e-17	0.810122	-0.0736833	5.86477	-0.113693	0	0	0	0	3.57034e-17	0	0	0	0
2.37538	-10.0256	748.135	-13.6376	0.322718	3.58127e-17	0.811955	-0.080013	5.97075	-0.108839	0	0	0	0	3.58127e-17	0	0	0	0
2.38536	-10.5841	751.577	-12.911	0.323613	3.59129e-17	0.81374	-0.0853972	6.06406	-0.104172	0	0	0	0	3.59129e-17	0	0	0	0
2.39534	-11.0357	755.119	-12.2747	0.324427	3.60039e-17	0.815484	-0.0897851	6.14356	-0.0998655	0	0	0	0	3.60039e-17	0	0	0	0
2.40532	-11.3897	758.537	-11.7323	0.325162	3.60862e-17	0.817196	-0.0932175	6.20813	-0.0960211	0	0	0	0	3.60862e-17	0	0	0	0
2.4153	-11.6614	761.612	-11.2777	0.325822	3.61601e-17	0.818889	-0.0958003	6.25675	-0.0926478	0	0	0	0	3.61601e-17	0	0	0	0
2.42528	-11.8672	764.157	-10.8958	0.326407	3.62255e-17	0.82057	-0.0976602	6.28855	-0.0896656	0	0	0	0	3.62255e-17	0	0	0	0
2.43526	-12.02	766.054	-10.5647	0.326912	3.62819e-17	0.822244	-0.0988961	6.30279	-0.0869217	0	0	0	0	3.62819e-17	0	0	0	0
2.44524	-12.1251	767.266	-10.2589	0.327326	3.63283e-17	0.823912	-0.099541	6.29886	-0.0842205	0	0	0	0	3.63283e-17	0	0	0	0
2.45522	-12.1782	767.835	-9.95368	0.327635	3.6363e-17	0.825572	-0.0995431	6.27619	-0.0813602	0	0	0	0	3.6363e-17	0	0	0	0
2.4652	-12.165	767.87	-9.62834	0.327819	3.6384e-17	0.827224	-0.0987657	6.23419	-0.0781707	0	0	0	0	3.6384e-17	0	0	0	0
2.47518	-12.0624	767.518	-9.26981	0.327859	3.63889e-17	0.828867	-0.0970012	6.17208	-0.0745442	0	0	0	0	3.63889e-17	0	0	0	0
2.48517	-11.8391	766.946	-8.87479	0.327735	3.63757e-17	0.830508	-0.0939928	6.08895	-0.0704588	0	0	0	0	3.63757e-17	0	0	0	0
2.49515	-11.457	766.333	-8.45101	0.327428	3.63423e-17	0.832154	-0.0894618	5.98388	-0.0659893	0	0	0	0	3.63423e-17	0	0	0	0
2.50513	-10.8733	765.869	-8.01696	0.326927	3.62873e-17	0.833814	-0.0831443	5.85634	-0.061303	0	0	0	0	3.62873e-17	0	0	0	0
2.51511	-10.0431	765.756	-7.60002	0.326225	3.62101e-17	0.835497	-0.0748463	5.70678	-0.056639	0	0	0	0	3.62101e-17	0	0	0	0
2.52509	-8.92773	766.203	-7.23275	0.325327	3.6111e-17	0.837214	-0.0645204	5.53732	-0.0522708	0	0	0	0	3.6111e-17	0	0	0	0
2.53507	-7.50565	767.4	-6.9477	0.324248	3.59918e-17	0.838973	-0.05235	5.35242	-0.0484584	0	0	0	0	3.59918e-17	0	0	0	0
2.54505	-5.78768	769.473	-6.77141	0.32302	3.58559e-17	0.840786	-0.0388053	5.15918	-0.0454011	0	0	0	0	3.58559e-17	0	0	0	0
2.55503	-3.8298	772.433	-6.71942	0.321686	3.57081e-17	0.842668	-0.0246269	4.96701	-0.0432082	0	0	0	0	3.57081e-17	0	0	0	0
2.56501	-1.73718	776.144	-6.7936	0.320301	3.55545e-17	0.844638	-0.0107134	4.78657	-0.0418969	0	0	0	0	3.55545e-17	0	0	0	0
2.57499	0.346607	780.334	-6.98227	0.318923	3.54017e-17	0.846714	0.00205579	4.62831	-0.0414132	0	0	0	0	3.54017e-17	0	0	0	0
2.58497	2.26448	784.641	-7.26261	0.317606	3.52554e-17	0.848906	0.0129891	4.50073	-0.0416586	0	0	0	0	3.52554e-17	0	0	0	0
2.59495	3.87777	788.687	-7.6041	0.316388	3.51201e-17	0.851214	0.0216781	4.40904	-0.0425097	0	0	0	0	3.51201e-17	0	0	0	0
2.60493	5.09525	792.147	-7.97235	0.31529	3.49981e-17	0.853619	0.0280078	4.3543	-0.0438227	0	0	0	0	3.49981e-17	0	0	0	0
2.61491	5.89072	794.803	-8.33263	0.314311	3.48892e-17	0.856088	0.0321159	4.33323	-0.0454291	0	0	0	0	3.48892e-17	0	0	0	0
2.62489	6.30487	796.565	-8.65295	0.313432	3.47914e-17	0.858574	0.0343415	4.33875	-0.0471311	0	0	0	0	3.47914e-17	0	0	0	0
2.63487	6.43197	797.466	-8.90685	0.312624	3.47015e-17	0.861025	0.0351753	4.36119	-0.0487099	0	0	0	0	3.47015e-17	0	0	0	0
2.64485	6.39643	797.635	-9.07576	0.311852	3.46156e-17	0.863387	0.0352037	4.3899	-0.0499497	0	0	0	0	3.46156e-17	0	0	0	0
2.65483	6.32609	797.26	-9.15072	0.311087	3.45305e-17	0.865617	0.0350325	4.41505	-0.0506747	0	0	0	0	3.45305e-17	0	0	0	0
2.66482	6.32885	796.545	-9.13363	0.310308	3.4444e-17	0.867682	0.0351917	4.42921	-0.0507877	0	0	0	0	3.4444e-17	0	0	0	0
2.6748	6.47665	795.673	-9.03754	0.309508	3.43553e-17	0.869569	0.0360456	4.42829	-0.0502982	0	0	0	0	3.43553e-17	0	0	0	0
2.68478	6.79782	794.773	-8.88566	0.308694	3.4265e-17	0.871279	0.0377355	4.41188	-0.0493254	0	0	0	0	3.4265e-17	0	0	0	0
2.69476	7.27739	793.904	-8.70823	0.307883	3.41752e-17	0.872835	0.0401754	4.38281	-0.0480745	0	0	0	0	3.41752e-17	0	0	0	0
2.70474	7.8647	793.054	-8.5374	0.3071	3.40884e-17	0.874267	0.0431019	4.34628	-0.0467886	0	0	0	0	3.40884e-17	0	0	0	0
2.71472	8.48657	792.153	-8.40075	0.306369	3.40074e-17	0.875615	0.0461588	4.30855	-0.045692	0	0	0	0	3.40074e-17	0	0	0	0
2.7247	9.06382	791.108	-8.31529	0.305715	3.39348e-17	0.876914	0.0489878	4.27575	-0.0449421	0	0	0	0	3.39348e-17	0	0	0	0
2.73468	9.52704	789.835	-8.28348	0.305152	3.38724e-17	0.878192	0.0512977	4.25282	-0.0446019	0	0	0	0	3.38724e-17	0	0	0	0
2.74466	9.82779	788.283	-8.29256	0.30469	3.38211e-17	0.879463	0.0528981	4.24293	-0.0446347	0	0	0	0	3.38211e-17	0	0	0	0
2.75464	9.94354	786.446	-8.31696	0.30433	3.37811e-17	0.880729	0.0537012	4.24729	-0.0449167	0	0	0	0	3.37811e-17	0	0	0	0
2.76462	9.87647	784.357	-8.32343	0.304067	3.37518e-17	0.881984	0.0537073	4.26526	-0.045262	0	0	0	0	3.37518e-17	0	0	0	0
2.7746	9.64805	782.077	-8.27715	0.303893	3.37324e-17	0.883215	0.0529822	4.29477	-0.0454539	0	0	0	0	3.37324e-17	0	0	0	0
2.78458	9.29157	779.686	-8.14786	0.303797	3.37218e-17	0.88441	0.0516354	4.3329	-0.0452795	0	0	0	0	3.37218e-17	0	0	0	0
2.79456	8.8446	777.276	-7.91448	0.30377	3.37189e-17	0.88556	0.0497998	4.37647	-0.0445627	0	0	0	0	3.37189e-17	0	0	0	0
2.80454	8.34257	774.946	-7.56781	0.303805	3.3723e-17	0.886664	0.0476106	4.42258	-0.0431891	0	0	0	0	3.3723e-17	0	0	0	0
2.81452	7.81368	772.8	-7.11113	0.303899	3.37336e-17	0.887729	0.0451852	4.46898	-0.0411226	0	0	0	0	3.37336e-17	0	0	0	0
2.8245	7.27533	770.935	-6.55929	0.30405	3.37508e-17	0.888769	0.0426013	4.51428	-0.0384085	0	0	0	0	3.37508e-17	0	0	0	0
2.83449	6.73259	769.436	-5.93633	0.30426	3.37746e-17	0.889809	0.0398817	4.55789	-0.0351649	0	0	0	0	3.37746e-17	0	0	0	0
2.84447	6.17934	768.357	-5.27204	0.304535	3.38056e-17	0.890876	0.0369921	4.5997	-0.0315606	0	0	0	0	3.38056e-17	0	0	0	0
2.85445	5.60197	767.723	-4.59755	0.304876	3.3844e-17	0.892003	0.033856	4.6398	-0.0277857	0	0	0	0	3.3844e-17	0	0	0	0
2.86443	4.98517	767.521	-3.9404	0.305284	3.38898e-17	0.893215	0.0303843	4.67798	-0.0240164	0	0	0	0	3.38898e-17	0	0	0	0
2.87441	4.318	767.716	-3.31991	0.305753	3.39425e-17	0.894529	0.0265113	4.71355	-0.0203833	0	0	0	0	3.39425e-17	0	0	0	0
2.88439	3.59904	768.256	-2.74385	0.306275	3.40009e-17	0.895946	0.0222295	4.74513	-0.0169474	0	0	0	0	3.40009e-17	0	0	0	0
2.89437	2.83962	769.084	-2.20739	0.306832	3.40633e-17	0.897452	0.0176145	4.77073	-0.0136927	0	0	0	0	3.40633e-17	0	0	0	0
2.90435	2.06426	770.146	-1.69468	0.307409	3.41277e-17	0.899017	0.0128331	4.78785	-0.0105355	0	0	0	0	3.41277e-17	0	0	0	0
2.91433	1.30781	771.385	-1.18292	0.307985	3.41922e-17	0.900606	0.00812741	4.79381	-0.00735134	0	0	0	0	3.41922e-17	0	0	0	0
2.92431	0.609581	772.745	-0.647814	0.308549	3.42552e-17	0.902181	0.00377554	4.78612	-0.00401234	0	0	0	0	3.42552e-17	0	0	0	0
2.93429	0.00604667	774.165	-0.0694143	0.30909	3.43158e-17	0.903713	3.72022e-05	4.76306	-0.000427072	0	0	0	0	3.43158e-17	0	0	0	0
2.94427	-0.476127	775.578	0.563341	0.309607	3.43738e-17	0.905184	-0.00290011	4.72407	0.00343133	0	0	0	0	3.43738e-17	0	0	0	0
2.95425	-0.825157	776.923	1.25081	0.310105	3.44296e-17	0.906587	-0.0049601	4.67016	0.00751873	0	0	0	0	3.44296e-17	0	0	0	0
2.96423	-1.04686	778.142	1.98384	0.310592	3.44843e-17	0.907929	-0.00619389	4.604	0.0117377	0	0	0	0	3.44843e-17	0	0	0	0
2.97421	-1.16482	779.192	2.74732	0.311078	3.45389e-17	0.909226	-0.0067716	4.52979	0.0159714	0	0	0	0	3.45389e-17	0	0	0	0
2.98419	-1.21782	780.039	3.52445	0.311572	3.45943e-17	0.910499	-0.0069519	4.45283	0.0201193	0	0	0	0	3.45943e-17	0	0	0	0
2.99417	-1.2541	780.654	4.30026	0.312078	3.46511e-17	0.911769	-0.0070344	4.37877	0.0241206	0	0	0	0	3.46511e-17	0	0	0	0
3.00416	-1.32238	781.011	5.0636	0.312596	3.47091e-17	0.913057	-0.00730193	4.31258	0.0279602	0	0	0	0	3.47091e-17	0	0	0	0
3.01414	-1.46087	781.086	5.80803	0.313119	3.47677e-17	0.914384	-0.0079632	4.2577	0.0316596	0	0	0	0	3.47677e-17	0	0	0	0
3.02412	-1.68721	780.869	6.5323	0.313636	3.48256e-17	0.915761	-0.00910796	4.21532	0.035263	0	0	0	0	3.48256e-17	0	0	0	0
3.0341	-1.99282	780.379	7.24066	0.314133	3.48813e-17	0.917195	-0.0106852	4.18429	0.0388235	0	0	0	0	3.48813e-17	0	0	0	0
3.04408	-2.34396	779.675	7.94244	0.314598	3.49334e-17	0.91868	-0.0125108	4.16147	0.0423924	0	0	0	0	3.49334e-17	0	0	0	0
3.05406	-2.68932	778.856	8.65073	0.315024	3.49813e-17	0.920201	-0.0143041	4.14262	0.046012	0	0	0	0	3.49813e-17	0	0	0	0
3.06404	-2.97197	778.054	9.38062	0.315411	3.50247e-17	0.921736	-0.015751	4.12356	0.0497158	0	0	0	0	3.50247e-17	0	0	0	0
3.07402	-3.14233	777.414	10.1481	0.315764	3.50645e-17	0.923252	-0.0165782	4.10146	0.053539	0	0	0	0	3.50645e-17	0	0	0	0
3.084	-3.16925	777.068	10.9701	0.316099	3.51023e-17	0.924717	-0.0166235	4.07591	0.057541	0	0	0	0	3.51023e-17	0	0	0	0
3.09398	-3.04671	777.118	11.8657	0.316436	3.51403e-17	0.926093	-0.0158768	4.04965	0.0618337	0	0	0	0	3.51403e-17	0	0	0	0
3.10396	-2.79549	777.619	12.8567	0.316799	3.51812e-17	0.927347	-0.0144826	4.02861	0.0666065	0	0	0	0	3.51812e-17	0	0	0	0
3.11394	-2.45995	778.577	13.9667	0.31721	3.52277e-17	0.928448	-0.0127054	4.02126	0.0721365	0	0	0	0	3.52277e-17	0	0	0	0
3.12392	-2.10134	779.949	15.2185	0.317691	3.5282e-17	0.929372	-0.0108777	4.03746	0.0787796	0	0	0	0	3.5282e-17	0	0	0	0
3.1339	-1.78872	781.66	16.6291	0.318259	3.53462e-17	0.930103	-0.00935192	4.08673	0.0869414	0	0	0	0	3.53462e-17	0	0	0	0
3.14388	-1.58912	783.612	18.2052	0.318921	3.54211e-17	0.930635	-0.00847008	4.17669	0.0970348	0	0	0	0	3.54211e-17	0	0	0	0
3.15386	-1.55782	785.695	19.9405	0.319681	3.55072e-17	0.930973	-0.00854887	4.31167	0.109428	0	0	0	0	3.55072e-17	0	0	0	0
3.16384	-1.73087	787.8	21.815	0.320531	3.56037e-17	0.931128	-0.00986916	4.49192	0.124386	0	0	0	0	3.56037e-17	0	0	0	0
3.17383	-2.12133	789.822	23.7971	0.321461	3.57093e-17	0.931118	-0.0126595	4.71342	0.142014	0	0	0	0	3.57093e-17	0	0	0	0
3.18381	-2.71986	791.663	25.8474	0.322453	3.58222e-17	0.93097	-0.0170698	4.96845	0.162217	0	0	0	0	3.58222e-17	0	0	0	0
3.19379	-3.4987	793.232	27.9227	0.323485	3.59399e-17	0.930713	-0.0231406	5.24648	0.184682	0	0	0	0	3.59399e-17	0	0	0	0
3.20377	-4.41736	794.443	29.9813	0.324533	3.60596e-17	0.930381	-0.0307785	5.53539	0.208899	0	0	0	0	3.60596e-17	0	0	0	0
3.21375	-5.42868	795.222	31.9867	0.32557	3.61783e-17	0.930009	-0.0397497	5.82275	0.234212	0	0	0	0	3.61783e-17	0	0	0	0
3.22373	-6.48382	795.505	33.9111	0.326566	3.62924e-17	0.929637	-0.0496935	6.09693	0.259903	0	0	0	0	3.62924e-17	0	0	0	0
3.23371	-7.53564	795.249	35.7372	0.327491	3.63986e-17	0.9293	-0.0601525	6.34799	0.285269	0	0	0	0	3.63986e-17	0	0	0	0
3.24369	-8.54078	794.441	37.458	0.328316	3.64937e-17	0.929034	-0.0706142	6.56835	0.309698	0	0	0	0	3.64937e-17	0	0	0	0
3.25367	-9.46159	793.107	39.0762	0.329019	3.6575e-17	0.928864	-0.0805637	6.75316	0.332727	0	0	0	0	3.6575e-17	0	0	0	0
3.26365	-10.2686	791.311	40.6028	0.329583	3.66407e-17	0.928807	-0.0895485	6.90069	0.35408	0	0	0	0	3.66407e-17	0	0	0	0
3.27363	-10.9442	789.154	42.056	0.330004	3.66904e-17	0.928867	-0.0972485	7.01233	0.373705	0	0	0	0	3.66904e-17	0	0	0	0
3.28361	-11.4855	786.766	43.46	0.33029	3.67248e-17	0.929034	-0.103538	7.09244	0.391778	0	0	0	0	3.67248e-17	0	0	0	0
3.29359	-11.9066	784.285	44.8426	0.330458	3.6746e-17	0.929286	-0.108512	7.14768	0.408679	0	0	0	0	3.6746e-17	0	0	0	0
3.30357	-12.2369	781.845	46.2328	0.330535	3.67571e-17	0.929594	-0.112473	7.18614	0.424937	0	0	0	0	3.67571e-17	0	0	0	0
3.31355	-12.517	779.556	47.6572	0.330554	3.67617e-17	0.929922	-0.115867	7.21617	0.441152	0	0	0	0	3.67617e-17	0	0	0	0
3.32353	-12.7914	777.49	49.1375	0.330545	3.67633e-17	0.93024	-0.119201	7.24529	0.457903	0	0	0	0	3.67633e-17	0	0	0	0
3.33351	-13.1022	775.68	50.6877	0.330537	3.67651e-17	0.930519	-0.122954	7.27917	0.475665	0	0	0	0	3.67651e-17	0	0	0	0
3.3435	-13.4821	774.117	52.3124	0.33055	3.67694e-17	0.930741	-0.127502	7.32094	0.494726	0	0	0	0	3.67694e-17	0	0	0	0
3.35348	-13.9505	772.758	54.0063	0.330596	3.67775e-17	0.930899	-0.133065	7.37085	0.515132	0	0	0	0	3.67775e-17	0	0	0	0
3.36346	-14.5116	771.53	55.7531	0.330673	3.67893e-17	0.930996	-0.139682	7.42636	0.536651	0	0	0	0	3.67893e-17	0	0	0	0
3.37344	-15.1541	770.329	57.5265	0.330775	3.6804e-17	0.931046	-0.147198	7.48253	0.558779	0	0	0	0	3.6804e-17	0	0	0	0
3.38342	-15.8518	769.025	59.2909	0.330888	3.68197e-17	0.931068	-0.155273	7.53279	0.58077	0	0	0	0	3.68197e-17	0	0	0	0
3.3934	-16.5673	767.448	61.0034	0.330993	3.68346e-17	0.931089	-0.163414	7.56986	0.601718	0	0	0	0	3.68346e-17	0	0	0	0
3.40338	-17.2552	765.396	62.6164	0.331075	3.68467e-17	0.931131	-0.171037	7.58673	0.620664	0	0	0	0	3.68467e-17	0	0	0	0
3.41336	-17.8671	762.63	64.0812	0.331121	3.68545e-17	0.931218	-0.177529	7.57755	0.636715	0	0	0	0	3.68545e-17	0	0	0	0
3.42334	-18.355	758.885	65.3513	0.331123	3.6857e-17	0.931372	-0.182326	7.53825	0.649156	0	0	0	0	3.6857e-17	0	0	0	0
3.43332	-18.6754	753.881	66.3864	0.331077	3.68537e-17	0.931608	-0.184976	7.46704	0.657544	0	0	0	0	3.68537e-17	0	0	0	0
3.4433	-18.7927	747.347	67.1555	0.330981	3.68446e-17	0.931943	-0.185191	7.36469	0.66178	0	0	0	0	3.68446e-17	0	0	0	0
3.45328	-18.6827	739.041	67.6384	0.330837	3.68298e-17	0.93239	-0.182883	7.23439	0.662105	0	0	0	0	3.68298e-17	0	0	0	0
3.46326	-18.3375	728.782	67.826	0.330648	3.68097e-17	0.932961	-0.178175	7.08119	0.659029	0	0	0	0	3.68097e-17	0	0	0	0
3.47324	-17.7689	716.472	67.7181	0.330417	3.67849e-17	0.933664	-0.171399	6.91111	0.653211	0	0	0	0	3.67849e-17	0	0	0	0
3.48322	-17.0114	702.111	67.3218	0.330152	3.67563e-17	0.934502	-0.163068	6.73031	0.645335	0	0	0	0	3.67563e-17	0	0	0	0
3.4932	-16.1205	685.796	66.6496	0.329862	3.67251e-17	0.935475	-0.153839	6.5446	0.636041	0	0	0	0	3.67251e-17	0	0	0	0
3.50318	-15.1673	667.716	65.72	0.329563	3.66929e-17	0.936576	-0.144455	6.35941	0.625925	0	0	0	0	3.66929e-17	0	0	0	0
3.51317	-14.2292	648.129	64.5586	0.329271	3.66618e-17	0.937794	-0.135677	6.18	0.615575	0	0	0	0	3.66618e-17	0	0	0	0
3.52315	-13.3804	627.346	63.1988	0.329002	3.66338e-17	0.939112	-0.128222	6.01171	0.60562	0	0	0	0	3.66338e-17	0	0	0	0
3.53313	-12.6823	605.702	61.6818	0.328774	3.66106e-17	0.94051	-0.122695	5.85988	0.596742	0	0	0	0	3.66106e-17	0	0	0	0
3.54311	-12.1762	583.541	60.0541	0.328596	3.65937e-17	0.94197	-0.119548	5.72933	0.589625	0	0	0	0	3.65937e-17	0	0	0	0
3.55309	-11.8798	561.193	58.3651	0.328475	3.65838e-17	0.94347	-0.119047	5.62371	0.584875	0	0	0	0	3.65838e-17	0	0	0	0
3.56307	-11.7866	538.965	56.6625	0.328408	3.65807e-17	0.944995	-0.121257	5.54472	0.582928	0	0	0	0	3.65807e-17	0	0	0	0
3.57305	-11.8687	517.125	54.9894	0.328384	3.65834e-17	0.94653	-0.126043	5.49173	0.583972	0	0	0	0	3.65834e-17	0	0	0	0
3.58303	-12.0817	495.907	53.3814	0.328388	3.659e-17	0.948062	-0.133064	5.46174	0.587923	0	0	0	0	3.659e-17	0	0	0	0
3.59301	-12.3714	475.497	51.8652	0.328397	3.65982e-17	0.949583	-0.141794	5.44986	0.594447	0	0	0	0	3.65982e-17	0	0	0	0
3.60299	-12.681	456.036	50.4577	0.328392	3.66056e-17	0.951086	-0.15155	5.45003	0.603014	0	0	0	0	3.66056e-17	0	0	0	0
3.61297	-12.9577	437.609	49.1667	0.32835	3.66097e-17	0.952567	-0.161553	5.45598	0.612996	0	0	0	0	3.66097e-17	0	0	0	0
3.62295	-13.1573	420.241	47.9914	0.328258	3.66088e-17	0.954026	-0.171012	5.4621	0.623772	0	0	0	0	3.66088e-17	0	0	0	0
3.63293	-13.2468	403.889	46.9237	0.328108	3.66018e-17	0.955465	-0.179212	5.46411	0.634819	0	0	0	0	3.66018e-17	0	0	0	0
3.64291	-13.2052	388.441	45.9482	0.327899	3.65887e-17	0.956895	-0.185594	5.45938	0.645782	0	0	0	0	3.65887e-17	0	0	0	0
3.65289	-13.0228	373.724	45.0429	0.327644	3.65708e-17	0.958335	-0.189804	5.44693	0.656489	0	0	0	0	3.65708e-17	0	0	0	0
3.66287	-12.6987	359.516	44.179	0.327359	3.65501e-17	0.959814	-0.191695	5.42712	0.666909	0	0	0	0	3.65501e-17	0	0	0	0
3.67285	-12.239	345.578	43.3222	0.327073	3.653e-17	0.961377	-0.191283	5.40101	0.677079	0	0	0	0	3.653e-17	0	0	0	0
3.68283	-11.6541	331.671	42.4333	0.326818	3.6514e-17	0.963079	-0.188684	5.36984	0.687006	0	0	0	0	3.6514e-17	0	0	0	0
3.69282	-10.9566	317.588	41.4712	0.32663	3.65067e-17	0.964993	-0.184037	5.3345	0.696589	0	0	0	0	3.65067e-17	0	0	0	0
3.7028	-10.1597	303.169	40.3954	0.32655	3.65128e-17	0.967209	-0.177455	5.29531	0.705569	0	0	0	0	3.65128e-17	0	0	0	0
3.71278	-9.2766	288.311	39.1692	0.326624	3.65373e-17	0.969829	-0.168983	5.25188	0.713508	0	0	0	0	3.65373e-17	0	0	0	0
3.72276	-8.32065	272.979	37.7631	0.3269	3.65859e-17	0.972973	-0.158599	5.20322	0.719799	0	0	0	0	3.65859e-17	0	0	0	0
3.73274	-7.3059	257.203	36.1573	0.32743	3.66644e-17	0.97677	-0.146231	5.14802	0.723704	0	0	0	0	3.66644e-17	0	0	0	0
3.74272	-6.24793	241.072	34.3443	0.32827	3.67789e-17	0.981357	-0.131786	5.08487	0.724418	0	0	0	0	3.67789e-17	0	0	0	0
3.7527	-5.16443	224.726	32.3291	0.329482	3.69361e-17	0.986874	-0.115195	5.01264	0.72112	0	0	0	0	3.69361e-17	0	0	0	0
3.76268	-4.07553	208.338	30.1283	0.331128	3.71425e-17	0.993459	-0.0964544	4.93067	0.713039	0	0	0	0	3.71425e-17	0	0	0	0
3.77266	-3.00393	192.095	27.7678	0.333269	3.74045e-17	1.00124	-0.0756719	4.83905	0.699499	0	0	0	0	3.74045e-17	0	0	0	0
3.78264	-1.97441	176.177	25.2796	0.335966	3.77282e-17	1.01034	-0.0531078	4.73883	0.679972	0	0	0	0	3.77282e-17	0	0	0	0
3.79262	-1.01277	160.734	22.6981	0.339274	3.81188e-17	1.02084	-0.0291864	4.6321	0.654123	0	0	0	0	3.81188e-17	0	0	0	0
3.8026	-0.14385	145.864	20.0576	0.34324	3.85806e-17	1.03281	-0.00445969	4.52212	0.621831	0	0	0	0	3.85806e-17	0	0	0	0
3.81258	0.611583	131.599	17.3888	0.347901	3.91167e-17	1.04628	0.0205088	4.41301	0.583113	0	0	0	0	3.91167e-17	0	0	0	0
3.82256	1.24069	117.903	14.7166	0.353278	3.97282e-17	1.06126	0.0453451	4.30914	0.537867	0	0	0	0	3.97282e-17	0	0	0	0
3.83254	1.7422	104.686	12.0583	0.359371	4.0413e-17	1.07769	0.0701331	4.21421	0.485413	0	0	0	0	4.0413e-17	0	0	0	0
3.84252	2.12845	91.8275	9.42204	0.366166	4.11649e-17	1.09548	0.0957318	4.13016	0.423778	0	0	0	0	4.11649e-17	0	0	0	0
3.8525	2.42456	79.1988	6.80778	0.373648	4.1972e-17	1.11444	0.124181	4.05639	0.348679	0	0	0	0	4.1972e-17	0	0	0	0
3.86249	2.66402	66.6895	4.20917	0.381885	4.28169e-17	1.1344	0.159358	3.98928	0.251787	0	0	0	0	4.28169e-17	0	0	0	0
3.87247	0	0	0	0	0.149577	0	0	0	0	0	0	0	0	-0.00453957	0	0	0	0
