Coordinates
version=1
nRows=114
nColumns=38
inDegrees=no

Units are S.I. units (second, meters, Newtons, ...)
If the header above contains a line with 'inDegrees', this indicates whether rotational values are in degrees (yes) or radians (no).

endheader
time	pelvis_tilt	pelvis_list	pelvis_rotation	pelvis_tx	pelvis_ty	pelvis_tz	hip_flexion_r	hip_adduction_r	hip_rotation_r	knee_angle_r	ankle_angle_r	subtalar_angle_r	mtp_angle_r	hip_flexion_l	hip_adduction_l	hip_rotation_l	knee_angle_l	ankle_angle_l	subtalar_angle_l	mtp_angle_l	lumbar_extension	lumbar_bending	lumbar_rotation	arm_flex_r	arm_add_r	arm_rot_r	elbow_flex_r	pro_sup_r	wrist_flex_r	wrist_dev_r	arm_flex_l	arm_add_l	arm_rot_l	elbow_flex_l	pro_sup_l	wrist_flex_l	wrist_dev_l
1.92	-0.124504	-0.0230948	-1.59478	0.072081	0.909641	-0.114337	-0.162165	0.201068	-0.0599012	0.191579	0.331467	0	0	0.546384	-0.174541	-0.118659	0.281873	0.0204387	0	0	-0.31135	0.123432	0.211608	0.404643	-0.47765	0.718544	0.803235	0.971243	0	0	0.0879218	-0.30958	1.0361	0.445737	0.321455	0	0
1.92666	-0.120944	-0.0239277	-1.59446	0.0734333	0.909345	-0.106776	-0.166282	0.195026	-0.0595593	0.203199	0.33025	0	0	0.545366	-0.170341	-0.119685	0.295419	0.0144474	0	0	-0.31094	0.119309	0.20965	0.397861	-0.475409	0.707437	0.808764	0.975405	0	0	0.0837571	-0.309137	1.04577	0.439055	0.315856	0	0
1.93331	-0.117363	-0.0247533	-1.59413	0.074786	0.909051	-0.0992146	-0.170362	0.188957	-0.0592314	0.214872	0.32898	0	0	0.544346	-0.166123	-0.120714	0.308973	0.00846061	0	0	-0.310518	0.115163	0.207691	0.391057	-0.473163	0.696342	0.814286	0.979567	0	0	0.0796053	-0.308697	1.05544	0.432385	0.310255	0	0
1.93997	-0.113726	-0.0255584	-1.5938	0.0761396	0.908761	-0.0916535	-0.174337	0.18281	-0.0589423	0.226694	0.327563	0	0	0.543315	-0.161854	-0.121757	0.322535	0.00249435	0	0	-0.310064	0.110956	0.205728	0.384195	-0.470906	0.685289	0.819788	0.983724	0	0	0.0754858	-0.308268	1.0651	0.425753	0.304653	0	0
1.94662	-0.109988	-0.0263251	-1.59348	0.0774948	0.908478	-0.0840927	-0.178116	0.176521	-0.0587238	0.238792	0.325874	0	0	0.542264	-0.157492	-0.122827	0.336096	-0.00341831	0	0	-0.309551	0.106636	0.20376	0.377238	-0.46863	0.67432	0.82525	0.987867	0	0	0.0714215	-0.30786	1.07474	0.419197	0.299058	0	0
1.95328	-0.106094	-0.0270309	-1.59317	0.0788524	0.908206	-0.0765325	-0.181589	0.170015	-0.0586123	0.251316	0.323764	0	0	0.541181	-0.152987	-0.123942	0.349629	-0.00922461	0	0	-0.308951	0.102143	0.201787	0.370148	-0.466328	0.663494	0.830644	0.991981	0	0	0.067436	-0.307488	1.08429	0.412765	0.293489	0	0
1.95993	-0.101987	-0.0276499	-1.59288	0.0802131	0.907949	-0.0689736	-0.184633	0.163212	-0.0586448	0.264427	0.321071	0	0	0.540057	-0.148287	-0.125128	0.363094	-0.0148518	0	0	-0.308228	0.097415	0.199813	0.36289	-0.463993	0.652878	0.835941	0.99605	0	0	0.063553	-0.307166	1.0937	0.406514	0.287973	0	0
1.96659	-0.0976116	-0.0281528	-1.59263	0.0815778	0.907711	-0.0614171	-0.187112	0.156031	-0.0588565	0.278292	0.317627	0	0	0.538879	-0.143337	-0.126412	0.376433	-0.0202096	0	0	-0.307349	0.0923891	0.197847	0.355435	-0.461621	0.642541	0.841105	1.00005	0	0	0.0597956	-0.306911	1.10287	0.400508	0.282544	0	0
1.97324	-0.0929146	-0.0285078	-1.59243	0.0829469	0.907496	-0.0538641	-0.18889	0.148395	-0.0592769	0.293078	0.313264	0	0	0.537639	-0.13809	-0.127828	0.38958	-0.0251924	0	0	-0.306274	0.0870062	0.195903	0.34776	-0.459212	0.632561	0.846099	1.00397	0	0	0.0561847	-0.30674	1.1117	0.394815	0.277247	0	0
1.9799	-0.0878489	-0.0286811	-1.59231	0.0843208	0.907309	-0.0463165	-0.189828	0.140236	-0.0599268	0.308939	0.30782	0	0	0.53633	-0.132502	-0.129414	0.402458	-0.0296848	0	0	-0.304968	0.0812138	0.194001	0.339853	-0.456767	0.623018	0.850881	1.00779	0	0	0.0527371	-0.30667	1.12007	0.389507	0.272139	0	0
1.98656	-0.0823756	-0.0286378	-1.59229	0.0856998	0.907153	-0.0387763	-0.189789	0.131496	-0.0608156	0.326014	0.301149	0	0	0.534949	-0.126535	-0.131209	0.414984	-0.0335693	0	0	-0.30339	0.0749684	0.192162	0.33171	-0.454292	0.613998	0.855408	1.01148	0	0	0.0494645	-0.306719	1.12783	0.384659	0.267284	0	0
1.99321	-0.076466	-0.028342	-1.59239	0.0870837	0.90703	-0.0312459	-0.188647	0.12213	-0.0619391	0.344418	0.293119	0	0	0.533493	-0.120163	-0.133248	0.427074	-0.0367328	0	0	-0.301501	0.0682375	0.190412	0.323338	-0.451794	0.605586	0.859632	1.01501	0	0	0.0463729	-0.306902	1.13483	0.380345	0.262762	0	0
1.99987	-0.0701027	-0.027757	-1.59264	0.0884721	0.906943	-0.0237282	-0.186282	0.112113	-0.0632776	0.364242	0.283628	0	0	0.531967	-0.113369	-0.135568	0.438646	-0.0390745	0	0	-0.299262	0.0610021	0.188778	0.314752	-0.449281	0.597871	0.863504	1.01837	0	0	0.0434619	-0.307236	1.14092	0.376638	0.25866	0	0
2.00652	-0.0632817	-0.026845	-1.59307	0.0898644	0.906895	-0.0162261	-0.182588	0.101434	-0.0647949	0.385544	0.2726	0	0	0.530378	-0.106148	-0.138195	0.44962	-0.0405116	0	0	-0.296629	0.0532577	0.187285	0.305971	-0.446764	0.590935	0.866975	1.02153	0	0	0.0407247	-0.30773	1.14593	0.373604	0.255077	0	0
2.01318	-0.0560115	-0.0255796	-1.5937	0.0912596	0.906885	-0.00874302	-0.177484	0.0901052	-0.0664392	0.408349	0.26	0	0	0.52873	-0.0985052	-0.141152	0.459925	-0.0409846	0	0	-0.293575	0.0450142	0.185959	0.297028	-0.444257	0.584863	0.869996	1.02447	0	0	0.0381529	-0.308395	1.14969	0.371308	0.252115	0	0
2.01983	-0.048313	-0.0239485	-1.59454	0.0926564	0.906916	-0.0012825	-0.170918	0.0781588	-0.0681432	0.432651	0.245833	0	0	0.527017	-0.0904569	-0.144449	0.469497	-0.0404603	0	0	-0.290089	0.0362951	0.184818	0.287968	-0.441772	0.579732	0.872523	1.02715	0	0	0.0357365	-0.309242	1.15205	0.369814	0.249887	0	0
2.02649	-0.0402181	-0.0219527	-1.59561	0.0940533	0.906986	0.00615178	-0.162865	0.0656451	-0.0698284	0.458408	0.23015	0	0	0.525225	-0.0820288	-0.148089	0.478284	-0.0389337	0	0	-0.28618	0.0271359	0.183876	0.278843	-0.439324	0.575615	0.874518	1.02957	0	0	0.0334652	-0.310279	1.15286	0.369178	0.248507	0	0
2.03314	-0.0317687	-0.0196062	-1.59693	0.0954483	0.907095	0.013556	-0.153328	0.0526326	-0.071407	0.485549	0.21305	0	0	0.523335	-0.0732552	-0.152063	0.486245	-0.036427	0	0	-0.281869	0.0175832	0.183139	0.269712	-0.436924	0.572574	0.875945	1.03171	0	0	0.0313287	-0.311512	1.15199	0.36945	0.248085	0	0
2.0398	-0.0230161	-0.0169345	-1.59848	0.0968396	0.907243	0.0209264	-0.142336	0.0392066	-0.0727857	0.513974	0.194682	0	0	0.521322	-0.0641785	-0.156356	0.49335	-0.032987	0	0	-0.277195	0.00769398	0.182608	0.260638	-0.434585	0.570661	0.876777	1.03355	0	0	0.0293185	-0.312947	1.14933	0.370669	0.248723	0	0
2.04646	-0.0140196	-0.0139721	-1.60027	0.0982249	0.907428	0.0282591	-0.129937	0.025467	-0.0738695	0.543559	0.17524	0	0	0.519158	-0.0548485	-0.16094	0.499585	-0.028681	0	0	-0.272205	-0.00246602	0.182278	0.251688	-0.432316	0.569919	0.876988	1.03508	0	0	0.0274279	-0.314582	1.14483	0.37286	0.25051	0	0
2.05311	-0.00484471	-0.0107613	-1.60229	0.0996017	0.907648	0.0355504	-0.1162	0.0115258	-0.0745652	0.574159	0.154967	0	0	0.516813	-0.0453216	-0.165785	0.504949	-0.0235924	0	0	-0.266957	-0.0128243	0.182136	0.242928	-0.430124	0.570377	0.87656	1.03632	0	0	0.0256538	-0.316414	1.13843	0.376034	0.253513	0	0
2.05977	0.00443849	-0.00734915	-1.60452	0.100968	0.907901	0.0427968	-0.101206	-0.00249629	-0.0747859	0.605612	0.134144	0	0	0.514261	-0.0356591	-0.170853	0.509453	-0.017816	0	0	-0.261515	-0.0233036	0.182163	0.234421	-0.428016	0.572053	0.875479	1.03725	0	0	0.0239968	-0.318436	1.13017	0.380185	0.257777	0	0
2.06642	0.0137578	-0.00378525	-1.60696	0.10232	0.908186	0.0499948	-0.0850451	-0.0164738	-0.0744542	0.637744	0.113084	0	0	0.511476	-0.0259259	-0.176106	0.513123	-0.0114531	0	0	-0.255944	-0.0338243	0.182339	0.226229	-0.425994	0.574952	0.873736	1.03789	0	0	0.0224619	-0.320636	1.12008	0.38529	0.263321	0	0
2.07308	0.0230407	-0.000119313	-1.60958	0.103656	0.9085	0.0571414	-0.0678143	-0.0302799	-0.0735063	0.670373	0.0921237	0	0	0.508438	-0.0161884	-0.181502	0.515996	-0.00460676	0	0	-0.250312	-0.0443068	0.182635	0.21841	-0.424058	0.579067	0.871328	1.03823	0	0	0.0210594	-0.322996	1.10826	0.391307	0.270136	0	0
2.07973	0.0322162	0.00360068	-1.61236	0.104973	0.90884	0.0642337	-0.0496123	-0.0437901	-0.0718944	0.703314	0.0716067	0	0	0.50513	-0.00651364	-0.187	0.518119	0.0026216	0	0	-0.244685	-0.054673	0.183021	0.211016	-0.422204	0.584381	0.868255	1.03829	0	0	0.0198048	-0.325497	1.09486	0.398179	0.278186	0	0
2.08639	0.0412162	0.0073295	-1.61527	0.10627	0.909204	0.0712692	-0.0305388	-0.0568849	-0.0695894	0.736378	0.0518754	0	0	0.501544	0.00303302	-0.192562	0.519548	0.010136	0	0	-0.239124	-0.0648479	0.183464	0.204091	-0.420428	0.59086	0.864524	1.03806	0	0	0.0187196	-0.328116	1.08006	0.40583	0.287406	0	0
2.09304	0.0499766	0.0110257	-1.6183	0.107543	0.90959	0.0782457	-0.0106933	-0.0694529	-0.0665823	0.769375	0.0332549	0	0	0.497676	0.0123888	-0.198146	0.520343	0.0178482	0	0	-0.233686	-0.0747606	0.18393	0.197672	-0.418722	0.598461	0.860146	1.03756	0	0	0.0178317	-0.330828	1.06407	0.414171	0.297706	0	0
2.0997	0.0584382	0.0146522	-1.62141	0.10879	0.909994	0.0851615	0.00982619	-0.0813925	-0.0628849	0.802117	0.0160412	0	0	0.493524	0.0214949	-0.203717	0.520571	0.0256796	0	0	-0.228426	-0.084345	0.184382	0.191787	-0.417077	0.607124	0.85514	1.0368	0	0	0.0171758	-0.333605	1.04716	0.423096	0.308965	0	0
2.10636	0.0665473	0.0181766	-1.62458	0.110009	0.910415	0.092015	0.030923	-0.0926141	-0.05853	0.834418	0.000489668	0	0	0.489094	0.0302976	-0.209238	0.5203	0.0335623	0	0	-0.223389	-0.0935406	0.184783	0.186453	-0.415482	0.61678	0.849528	1.03578	0	0	0.0167925	-0.336419	1.02959	0.43249	0.321041	0	0
2.11301	0.0742562	0.0215711	-1.62778	0.1112	0.910849	0.0988055	0.0525019	-0.103041	-0.0535703	0.866093	-0.0131934	0	0	0.484393	0.0387494	-0.214673	0.519596	0.0414393	0	0	-0.218616	-0.102293	0.185097	0.181679	-0.413925	0.627341	0.843339	1.0345	0	0	0.0167289	-0.339242	1.01168	0.442229	0.333771	0	0
2.11967	0.0815232	0.0248129	-1.63097	0.11236	0.911296	0.105532	0.0744688	-0.112611	-0.048077	0.896961	-0.0248569	0	0	0.47943	0.0468094	-0.219988	0.518526	0.0492648	0	0	-0.214143	-0.110552	0.185289	0.177461	-0.412395	0.638712	0.836607	1.03297	0	0	0.0170353	-0.342046	0.99375	0.452183	0.34698	0	0
2.12632	0.0883134	0.0278832	-1.63413	0.113488	0.911753	0.112195	0.0967312	-0.121276	-0.0421372	0.926845	-0.0344075	0	0	0.474216	0.054444	-0.225148	0.517152	0.0570031	0	0	-0.209998	-0.118278	0.185323	0.173787	-0.410878	0.650783	0.829369	1.03119	0	0	0.017764	-0.344808	0.976099	0.462225	0.360487	0	0
2.13298	0.0945982	0.0307675	-1.63723	0.114585	0.912219	0.118795	0.119197	-0.129003	-0.0358518	0.955575	-0.0418091	0	0	0.468761	0.0616275	-0.230119	0.515529	0.0646278	0	0	-0.206205	-0.125432	0.185162	0.170636	-0.409362	0.663439	0.82167	1.02918	0	0	0.0189664	-0.347507	0.959035	0.472232	0.374114	0	0
2.13963	0.100355	0.0334545	-1.64023	0.115649	0.912691	0.125332	0.141775	-0.135775	-0.0293322	0.982985	-0.0470796	0	0	0.463073	0.0683417	-0.234866	0.513707	0.0721204	0	0	-0.202784	-0.131987	0.184773	0.16798	-0.407837	0.676554	0.813558	1.02693	0	0	0.0206921	-0.350128	0.942836	0.48209	0.387694	0	0
2.14629	0.105568	0.0359356	-1.6431	0.11668	0.913169	0.131808	0.164373	-0.141586	-0.0226975	1.00892	-0.0502852	0	0	0.457161	0.0745762	-0.239357	0.51173	0.0794691	0	0	-0.19975	-0.137917	0.18412	0.165782	-0.406292	0.689999	0.805083	1.02445	0	0	0.0229867	-0.352658	0.927759	0.491694	0.401071	0	0
2.15294	0.110228	0.0382049	-1.6458	0.11768	0.913651	0.138223	0.186902	-0.146448	-0.0160711	1.03323	-0.0515337	0	0	0.451028	0.0803284	-0.243556	0.509631	0.0866676	0	0	-0.197114	-0.143207	0.18317	0.164	-0.404718	0.703641	0.7963	1.02174	0	0	0.0258881	-0.355092	0.914017	0.500956	0.414113	0	0
2.1596	0.114329	0.0402585	-1.64829	0.118648	0.914137	0.144581	0.209272	-0.150385	-0.00957803	1.05577	-0.050966	0	0	0.444677	0.0856028	-0.247429	0.507439	0.0937132	0	0	-0.194883	-0.147845	0.181887	0.162592	-0.403107	0.717347	0.787266	1.01881	0	0	0.029425	-0.357428	0.901783	0.509805	0.426718	0	0
2.16626	0.117875	0.0420942	-1.65056	0.119585	0.914626	0.150883	0.231396	-0.153433	-0.00334166	1.07643	-0.0487478	0	0	0.438108	0.0904103	-0.250945	0.505171	0.100606	0	0	-0.193064	-0.151827	0.180238	0.161511	-0.401454	0.730989	0.778037	1.01564	0	0	0.033616	-0.35967	0.891181	0.518187	0.438814	0	0
2.17291	0.120873	0.0437111	-1.65255	0.120493	0.915118	0.157132	0.25319	-0.15564	0.00251862	1.09509	-0.0450608	0	0	0.431318	0.094768	-0.254073	0.502839	0.107348	0	0	-0.191656	-0.155156	0.178191	0.160708	-0.399753	0.744442	0.768675	1.01225	0	0	0.0384696	-0.361825	0.882289	0.526067	0.450357	0	0
2.17957	0.123335	0.0451097	-1.65424	0.121374	0.915613	0.163331	0.274573	-0.157062	0.00788987	1.11164	-0.0400954	0	0	0.4243	0.0986977	-0.256783	0.500447	0.113942	0	0	-0.19066	-0.157837	0.175715	0.160134	-0.398004	0.757585	0.759237	1.00862	0	0	0.043985	-0.363906	0.875148	0.533427	0.46133	0	0
2.18622	0.125278	0.0462912	-1.6556	0.122228	0.91611	0.169483	0.295467	-0.157766	0.0126677	1.12602	-0.0340428	0	0	0.417048	0.102226	-0.25905	0.497992	0.120392	0	0	-0.190072	-0.159885	0.172783	0.15974	-0.396206	0.770303	0.749782	1.00476	0	0	0.0501525	-0.365926	0.869758	0.540262	0.47174	0	0
2.19288	0.126724	0.0472579	-1.65661	0.123057	0.91661	0.175591	0.315801	-0.157825	0.0167578	1.13814	-0.0270896	0	0	0.409552	0.105381	-0.260852	0.495467	0.1267	0	0	-0.189884	-0.161317	0.169374	0.159479	-0.394362	0.78249	0.740371	1.00067	0	0	0.0569545	-0.367901	0.866088	0.546584	0.48161	0	0
2.19953	0.127698	0.0480132	-1.65725	0.123863	0.917114	0.181659	0.33551	-0.157315	0.0200775	1.14795	-0.019413	0	0	0.401803	0.108194	-0.262171	0.49286	0.132869	0	0	-0.190087	-0.162155	0.165469	0.159302	-0.392475	0.794048	0.731059	0.996336	0	0	0.0643662	-0.36985	0.86408	0.552415	0.49098	0	0
2.20619	0.128228	0.0485613	-1.65748	0.124648	0.917621	0.18769	0.354535	-0.156319	0.0225568	1.15543	-0.0111767	0	0	0.393791	0.110699	-0.262997	0.490155	0.1389	0	0	-0.190668	-0.162427	0.161054	0.159166	-0.390551	0.80489	0.721901	0.991771	0	0	0.0723565	-0.37179	0.863649	0.557788	0.499897	0	0
2.21284	0.128347	0.0489074	-1.65731	0.125414	0.918132	0.193687	0.372824	-0.154918	0.0241391	1.16054	-0.00252963	0	0	0.385506	0.112928	-0.263321	0.487332	0.144794	0	0	-0.191614	-0.162163	0.156122	0.159032	-0.388597	0.81494	0.71295	0.986975	0	0	0.080889	-0.373742	0.864694	0.562745	0.508417	0	0
2.2195	0.128088	0.0490578	-1.65672	0.126162	0.918649	0.199655	0.390334	-0.153194	0.0247811	1.16327	0.00639557	0	0	0.37694	0.114915	-0.263146	0.484374	0.150553	0	0	-0.192904	-0.161399	0.15067	0.158861	-0.38662	0.824135	0.704252	0.981953	0	0	0.0899228	-0.375724	0.867095	0.567332	0.5166	0	0
2.22616	0.127489	0.0490197	-1.65571	0.126893	0.919172	0.205596	0.40703	-0.151227	0.0244537	1.16364	0.0154821	0	0	0.368086	0.116691	-0.262477	0.481258	0.156174	0	0	-0.19452	-0.160172	0.1447	0.158623	-0.384628	0.832426	0.69585	0.976715	0	0	0.0994138	-0.377755	0.870724	0.571602	0.524506	0	0
2.23281	0.126588	0.0488017	-1.65428	0.12761	0.919702	0.211514	0.422884	-0.149093	0.0231413	1.16166	0.024628	0	0	0.358939	0.118286	-0.261329	0.477965	0.161657	0	0	-0.196438	-0.158523	0.138223	0.15829	-0.38263	0.839778	0.687784	0.971272	0	0	0.109316	-0.379855	0.875442	0.575612	0.532195	0	0
2.23947	0.125424	0.0484131	-1.65245	0.128314	0.920242	0.217412	0.437878	-0.146864	0.0208412	1.15736	0.0337445	0	0	0.349497	0.11973	-0.259722	0.474475	0.166999	0	0	-0.198632	-0.156494	0.131252	0.15784	-0.380634	0.846169	0.680084	0.965635	0	0	0.11958	-0.382039	0.881106	0.579417	0.539723	0	0
2.24612	0.124037	0.0478646	-1.65022	0.129006	0.920791	0.223293	0.451999	-0.144605	0.0175634	1.15078	0.0427537	0	0	0.339759	0.12105	-0.257683	0.470771	0.172199	0	0	-0.201076	-0.154132	0.123809	0.157257	-0.378646	0.851592	0.672778	0.959822	0	0	0.130159	-0.384324	0.88757	0.583074	0.547144	0	0
2.25278	0.122468	0.0471675	-1.64761	0.129687	0.921352	0.229159	0.465244	-0.142372	0.0133293	1.14199	0.0515863	0	0	0.329729	0.122269	-0.255245	0.466837	0.177255	0	0	-0.203741	-0.151482	0.11592	0.156529	-0.376673	0.856055	0.665884	0.953849	0	0	0.141004	-0.386725	0.89469	0.586637	0.554506	0	0
2.25943	0.120757	0.0463345	-1.64466	0.130361	0.921911	0.23501	0.477616	-0.140216	0.00817076	1.13102	0.0601796	0	0	0.319414	0.123411	-0.252447	0.462662	0.182163	0	0	-0.206596	-0.148593	0.107615	0.155649	-0.374721	0.85958	0.659417	0.947738	0	0	0.152067	-0.389253	0.902322	0.590159	0.56185	0	0
2.26609	0.118943	0.0453787	-1.64138	0.131028	0.922461	0.240847	0.489123	-0.138177	0.00212892	1.11797	0.0684749	0	0	0.308821	0.124493	-0.249332	0.458237	0.186922	0	0	-0.209611	-0.145512	0.0989326	0.154615	-0.372794	0.862199	0.65338	0.941511	0	0	0.163302	-0.391919	0.910327	0.593687	0.569214	0	0
2.27274	0.117064	0.044314	-1.63782	0.131684	0.922996	0.246675	0.49978	-0.136288	-0.00474733	1.10289	0.0764165	0	0	0.297963	0.125534	-0.245948	0.453556	0.191532	0	0	-0.212755	-0.142288	0.0899122	0.15343	-0.370894	0.863959	0.647775	0.93519	0	0	0.174665	-0.394731	0.918572	0.597266	0.576627	0	0
2.2794	0.115157	0.0431545	-1.634	0.13233	0.92351	0.252495	0.509606	-0.134572	-0.0124026	1.08586	0.0839502	0	0	0.286857	0.126549	-0.242343	0.44862	0.195992	0	0	-0.215997	-0.138966	0.080599	0.1521	-0.369023	0.864916	0.642594	0.928801	0	0	0.186112	-0.397696	0.926929	0.600934	0.584114	0	0
2.28606	0.113257	0.041915	-1.62998	0.132963	0.923996	0.258309	0.518625	-0.133043	-0.0207766	1.06699	0.0910231	0	0	0.27552	0.12755	-0.238571	0.443434	0.200305	0	0	-0.219306	-0.135594	0.0710413	0.150635	-0.367181	0.865138	0.637824	0.922369	0	0	0.197606	-0.400816	0.935277	0.604725	0.591694	0	0
2.29271	0.111395	0.0406101	-1.62579	0.13358	0.924449	0.264118	0.526863	-0.131709	-0.0298054	1.04634	0.0975834	0	0	0.263975	0.128546	-0.234684	0.438008	0.204475	0	0	-0.222652	-0.132214	0.06129	0.149046	-0.365366	0.864696	0.633445	0.91592	0	0	0.209107	-0.404094	0.943506	0.608665	0.599381	0	0
2.29937	0.109601	0.0392544	-1.62148	0.13418	0.924861	0.269926	0.534349	-0.130566	-0.0394227	1.02403	0.103582	0	0	0.252245	0.129548	-0.230735	0.432358	0.208508	0	0	-0.226008	-0.128869	0.0513981	0.147348	-0.363576	0.863671	0.629435	0.909478	0	0	0.220582	-0.407526	0.951512	0.612777	0.607183	0	0
2.30602	0.1079	0.0378622	-1.6171	0.134759	0.925227	0.275732	0.541115	-0.129609	-0.0495614	1.00015	0.108972	0	0	0.24036	0.13056	-0.226775	0.426507	0.212412	0	0	-0.229346	-0.125596	0.0414199	0.145558	-0.361808	0.862148	0.625765	0.903071	0	0	0.231999	-0.411108	0.9592	0.617077	0.615107	0	0
2.31268	0.106314	0.0364474	-1.61269	0.135315	0.925543	0.281539	0.547194	-0.128821	-0.0601541	0.974812	0.113712	0	0	0.228348	0.131586	-0.222856	0.420484	0.2162	0	0	-0.232643	-0.12243	0.0314106	0.143692	-0.360058	0.860214	0.622402	0.896721	0	0	0.243329	-0.414834	0.966487	0.621574	0.623152	0	0
2.31933	0.104862	0.0350229	-1.60829	0.135846	0.925801	0.287349	0.55262	-0.128185	-0.071134	0.94812	0.117767	0	0	0.216242	0.132631	-0.219025	0.414324	0.219886	0	0	-0.235876	-0.119403	0.0214253	0.141768	-0.358322	0.857957	0.619313	0.890451	0	0	0.254547	-0.418692	0.973296	0.626274	0.631317	0	0
2.32599	0.103558	0.0336012	-1.60395	0.136348	0.925999	0.293162	0.557426	-0.127675	-0.0824352	0.920195	0.121111	0	0	0.204077	0.133692	-0.215325	0.408069	0.223486	0	0	-0.239026	-0.116541	0.0115184	0.139805	-0.356595	0.855466	0.616458	0.884281	0	0	0.265627	-0.422671	0.979561	0.631175	0.639597	0	0
2.33264	0.102413	0.0321933	-1.5997	0.136819	0.926132	0.298982	0.561647	-0.127265	-0.0939926	0.891158	0.123727	0	0	0.191889	0.134769	-0.211798	0.401765	0.227022	0	0	-0.242074	-0.113866	0.00174332	0.137818	-0.354873	0.852828	0.613801	0.878229	0	0	0.276549	-0.426755	0.985224	0.636275	0.647986	0	0
2.3393	0.101432	0.0308094	-1.5956	0.137257	0.926197	0.30481	0.565316	-0.126923	-0.105742	0.861141	0.12561	0	0	0.179716	0.135859	-0.208478	0.395467	0.230515	0	0	-0.245006	-0.111395	-0.0078488	0.135824	-0.353152	0.850126	0.6113	0.87231	0	0	0.287294	-0.430925	0.990235	0.641563	0.656475	0	0
2.34596	0.100619	0.0294581	-1.59166	0.13766	0.926192	0.310648	0.568467	-0.126619	-0.117617	0.830279	0.126767	0	0	0.167597	0.136955	-0.205398	0.389232	0.23399	0	0	-0.247809	-0.109142	-0.0172091	0.133839	-0.351426	0.847439	0.608917	0.866535	0	0	0.297844	-0.435164	0.994555	0.647029	0.665057	0	0
2.35261	0.0999732	0.0281469	-1.58793	0.138025	0.926114	0.3165	0.571132	-0.126317	-0.129553	0.798719	0.127217	0	0	0.155569	0.138051	-0.202582	0.383122	0.237473	0	0	-0.250473	-0.107113	-0.0262915	0.131876	-0.349693	0.844844	0.606613	0.860912	0	0	0.308182	-0.439448	0.99815	0.652657	0.673721	0	0
2.35927	0.0994892	0.026882	-1.58443	0.138352	0.925962	0.322367	0.573344	-0.125984	-0.14148	0.766613	0.12699	0	0	0.143671	0.139138	-0.200048	0.377202	0.24099	0	0	-0.252989	-0.105312	-0.0350538	0.129947	-0.347949	0.842408	0.604349	0.855446	0	0	0.318294	-0.443754	1.00099	0.658431	0.682457	0	0
2.36592	0.0991592	0.0256685	-1.58118	0.138637	0.925738	0.328253	0.575131	-0.125586	-0.153324	0.734123	0.126129	0	0	0.13194	0.140206	-0.197809	0.371537	0.244567	0	0	-0.255352	-0.103736	-0.0434572	0.128062	-0.346192	0.840196	0.60209	0.850135	0	0	0.328166	-0.448058	1.00307	0.664333	0.691257	0	0
2.37258	0.0989721	0.0245103	-1.57819	0.13888	0.925441	0.334161	0.576524	-0.125089	-0.165006	0.701419	0.124684	0	0	0.120411	0.141242	-0.195869	0.366192	0.248229	0	0	-0.257556	-0.102381	-0.0514673	0.126229	-0.34442	0.838264	0.599801	0.844976	0	0	0.337782	-0.452334	1.00436	0.670344	0.700112	0	0
2.37923	0.0989144	0.02341	-1.57549	0.13908	0.925073	0.340096	0.577552	-0.12446	-0.17644	0.66868	0.122715	0	0	0.109118	0.142234	-0.194226	0.361233	0.251999	0	0	-0.2596	-0.101236	-0.0590541	0.124454	-0.342633	0.836661	0.597452	0.839962	0	0	0.34713	-0.456557	1.00485	0.676446	0.709012	0	0
2.38589	0.0989702	0.022369	-1.57307	0.139235	0.924638	0.34606	0.57824	-0.12367	-0.187533	0.636093	0.120286	0	0	0.0980885	0.143169	-0.192867	0.35672	0.255898	0	0	-0.261482	-0.100288	-0.0661922	0.122741	-0.340829	0.835431	0.595015	0.83508	0	0	0.356195	-0.460699	1.00456	0.68262	0.717952	0	0
2.39254	0.0991219	0.0213876	-1.57095	0.139345	0.924138	0.352059	0.578617	-0.122692	-0.198184	0.603849	0.117462	0	0	0.0873497	0.144034	-0.191772	0.352709	0.25994	0	0	-0.2632	-0.0995192	-0.0728608	0.121093	-0.33901	0.83461	0.592464	0.830317	0	0	0.364961	-0.464735	1.00346	0.68885	0.726923	0	0
2.3992	0.0993507	0.0204651	-1.56911	0.13941	0.923579	0.358096	0.578706	-0.121501	-0.208288	0.572148	0.114311	0	0	0.0769231	0.144813	-0.190913	0.349252	0.264137	0	0	-0.264757	-0.0989106	-0.0790436	0.11951	-0.337178	0.834228	0.589779	0.825655	0	0	0.373413	-0.468638	1.00158	0.69512	0.73592	0	0
2.40586	0.0996363	0.0195998	-1.56756	0.139428	0.922967	0.364176	0.578533	-0.12008	-0.217736	0.541192	0.110899	0	0	0.0668257	0.145492	-0.190251	0.346393	0.268493	0	0	-0.266152	-0.0984396	-0.084729	0.117989	-0.335337	0.834306	0.586944	0.821074	0	0	0.381533	-0.472382	0.998916	0.701417	0.744938	0	0
2.41251	0.099958	0.018789	-1.56628	0.139399	0.922306	0.370303	0.57812	-0.118415	-0.226417	0.511185	0.107284	0	0	0.0570701	0.146059	-0.189742	0.344169	0.273009	0	0	-0.267389	-0.0980816	-0.0899098	0.116529	-0.333489	0.834862	0.583946	0.816553	0	0	0.389304	-0.475944	0.995481	0.707728	0.75397	0	0
2.41917	0.100294	0.0180293	-1.56526	0.139325	0.921605	0.376483	0.577489	-0.116499	-0.234228	0.48233	0.103523	0	0	0.047664	0.146499	-0.189331	0.34261	0.277674	0	0	-0.268471	-0.09781	-0.0945829	0.115125	-0.331642	0.835906	0.580775	0.812071	0	0	0.396706	-0.479298	0.991289	0.714045	0.763012	0	0
2.42582	0.100624	0.0173161	-1.56449	0.139205	0.920871	0.382718	0.576661	-0.11433	-0.241071	0.454825	0.0996623	0	0	0.038611	0.146799	-0.18896	0.341738	0.282474	0	0	-0.2694	-0.0975967	-0.0987493	0.11377	-0.3298	0.83744	0.577429	0.807604	0	0	0.40372	-0.482424	0.986358	0.720359	0.772059	0	0
2.43248	0.100925	0.0166445	-1.56395	0.139039	0.920111	0.389014	0.575655	-0.111915	-0.246869	0.428862	0.0957393	0	0	0.029911	0.146947	-0.188567	0.34157	0.287384	0	0	-0.27018	-0.097412	-0.102413	0.112459	-0.327973	0.839464	0.573906	0.803131	0	0	0.410323	-0.485299	0.980708	0.726667	0.781104	0	0
2.43913	0.101174	0.0160087	-1.56361	0.13883	0.919333	0.395374	0.574491	-0.109267	-0.251561	0.404622	0.0917825	0	0	0.0215608	0.146928	-0.188085	0.342117	0.292373	0	0	-0.270817	-0.097225	-0.105584	0.111183	-0.32617	0.841971	0.570211	0.798629	0	0	0.416494	-0.487904	0.97436	0.732965	0.790144	0	0
2.44579	0.101351	0.0154035	-1.56346	0.138616	0.918533	0.401765	0.573184	-0.106403	-0.255114	0.382272	0.0878094	0	0	0.0135552	0.146731	-0.187452	0.343386	0.297401	0	0	-0.271315	-0.0970038	-0.108271	0.109937	-0.324399	0.844951	0.566352	0.794077	0	0	0.42221	-0.490221	0.967339	0.739253	0.799174	0	0
2.45244	0.101433	0.0148225	-1.56346	0.138398	0.917715	0.40819	0.57175	-0.103346	-0.257528	0.361957	0.0838266	0	0	0.00588857	0.14634	-0.186606	0.345383	0.302419	0	0	-0.271679	-0.0967157	-0.110489	0.108712	-0.322672	0.84839	0.56234	0.789456	0	0	0.427449	-0.492236	0.959671	0.745532	0.808187	0	0
2.4591	0.101397	0.0142594	-1.56361	0.138172	0.916882	0.414655	0.570205	-0.100122	-0.25883	0.343803	0.0798306	0	0	-0.00144335	0.145741	-0.185493	0.348111	0.307371	0	0	-0.271915	-0.0963276	-0.112254	0.107504	-0.321001	0.852268	0.558189	0.784747	0	0	0.432186	-0.493935	0.951389	0.751805	0.817173	0	0
2.46576	0.101221	0.0137081	-1.56387	0.137937	0.916041	0.421162	0.568561	-0.0967598	-0.259084	0.32791	0.0758075	0	0	-0.00844272	0.144919	-0.184069	0.35158	0.312191	0	0	-0.272028	-0.0958059	-0.113584	0.106304	-0.319397	0.856562	0.553917	0.779938	0	0	0.436402	-0.495308	0.942527	0.758075	0.826123	0	0
2.47241	0.100883	0.0131628	-1.56421	0.137692	0.915196	0.427713	0.566832	-0.0932862	-0.258384	0.314345	0.071735	0	0	-0.0151079	0.143854	-0.1823	0.355798	0.316805	0	0	-0.272024	-0.0951169	-0.114498	0.10511	-0.317871	0.861247	0.549545	0.775015	0	0	0.440075	-0.496348	0.933124	0.764347	0.835024	0	0
2.47907	0.100359	0.0126187	-1.56463	0.137436	0.914354	0.434312	0.565029	-0.0897272	-0.256849	0.303148	0.0675835	0	0	-0.0214321	0.142527	-0.180168	0.360785	0.321131	0	0	-0.271908	-0.0942273	-0.115016	0.103918	-0.316437	0.866296	0.545094	0.769971	0	0	0.443188	-0.497051	0.923223	0.770626	0.843861	0	0
2.48572	0.0996266	0.0120714	-1.56509	0.137169	0.913521	0.440959	0.56316	-0.0861044	-0.25462	0.29432	0.0633192	0	0	-0.0274022	0.140916	-0.177669	0.366564	0.325074	0	0	-0.271686	-0.0931042	-0.115159	0.102725	-0.315105	0.871675	0.540589	0.764802	0	0	0.445723	-0.497415	0.912873	0.776917	0.852615	0	0
2.49238	0.0986633	0.0115178	-1.56558	0.136888	0.912704	0.447655	0.561234	-0.0824341	-0.251853	0.287831	0.0589066	0	0	-0.0329988	0.138996	-0.174816	0.373166	0.328537	0	0	-0.271363	-0.0917153	-0.114949	0.101533	-0.313886	0.877351	0.536055	0.759507	0	0	0.447668	-0.497442	0.902126	0.783225	0.861265	0	0
2.49903	0.0974462	0.0109552	-1.56607	0.136593	0.911909	0.454399	0.559255	-0.0787257	-0.248708	0.283613	0.0543119	0	0	-0.038195	0.136742	-0.171636	0.380632	0.331408	0	0	-0.270944	-0.0900294	-0.114408	0.100342	-0.312791	0.883288	0.531521	0.754088	0	0	0.449013	-0.49714	0.891039	0.789553	0.869787	0	0
2.50569	0.0959529	0.0103831	-1.56657	0.136283	0.911143	0.461192	0.557226	-0.0749819	-0.245347	0.281565	0.0495076	0	0	-0.0429558	0.134124	-0.168176	0.38901	0.333572	0	0	-0.270434	-0.0880167	-0.113557	0.0991584	-0.311829	0.889449	0.527012	0.748554	0	0	0.449751	-0.496517	0.879675	0.795904	0.878156	0	0
2.51234	0.094162	0.00980223	-1.56704	0.135958	0.910412	0.468031	0.555149	-0.0711981	-0.241923	0.281557	0.0444768	0	0	-0.047239	0.131112	-0.164493	0.398356	0.334902	0	0	-0.269835	-0.0856495	-0.112417	0.0979856	-0.311009	0.895789	0.52256	0.74292	0	0	0.449884	-0.495586	0.868106	0.802278	0.886341	0	0
2.519	0.0920531	0.00921518	-1.56748	0.135617	0.909721	0.474915	0.553021	-0.0673623	-0.238576	0.283429	0.0392164	0	0	-0.0509952	0.127677	-0.160658	0.40873	0.335266	0	0	-0.269152	-0.0829024	-0.111011	0.0968299	-0.310337	0.902262	0.518193	0.737205	0	0	0.449416	-0.494362	0.856411	0.808671	0.894303	0	0
2.52566	0.0896073	0.00862583	-1.56788	0.135259	0.909075	0.481839	0.55084	-0.0634559	-0.235427	0.286999	0.0337411	0	0	-0.0541699	0.123786	-0.156749	0.420196	0.334529	0	0	-0.268386	-0.0797525	-0.109359	0.0956984	-0.309821	0.908817	0.513943	0.731437	0	0	0.448359	-0.492866	0.844674	0.815077	0.902003	0	0
2.53231	0.0868075	0.00803905	-1.56824	0.134883	0.908479	0.488802	0.548599	-0.0594539	-0.232576	0.292068	0.0280852	0	0	-0.056705	0.119409	-0.152852	0.43282	0.332554	0	0	-0.26754	-0.0761804	-0.107482	0.0945985	-0.309465	0.9154	0.509841	0.725649	0	0	0.446729	-0.491117	0.832987	0.821487	0.909396	0	0
2.53897	0.0836391	0.00746054	-1.56854	0.134488	0.907938	0.495799	0.546287	-0.0553264	-0.230096	0.298424	0.0223043	0	0	-0.0585406	0.114517	-0.149051	0.446663	0.329203	0	0	-0.266617	-0.0721703	-0.105399	0.0935389	-0.309273	0.921953	0.505916	0.719879	0	0	0.444551	-0.489141	0.821442	0.82789	0.916441	0	0
2.54562	0.0800904	0.0068965	-1.56878	0.134074	0.907453	0.502826	0.543894	-0.0510402	-0.228036	0.305851	0.0164743	0	0	-0.0596177	0.109084	-0.14543	0.461782	0.324346	0	0	-0.26562	-0.0677109	-0.10313	0.0925288	-0.309247	0.92842	0.5022	0.714169	0	0	0.441849	-0.486964	0.810133	0.834272	0.923094	0	0
2.55228	0.0761533	0.00635339	-1.56896	0.133641	0.907028	0.50988	0.541406	-0.0465606	-0.226422	0.31413	0.0106897	0	0	-0.05988	0.103086	-0.142067	0.478224	0.317862	0	0	-0.264551	-0.0627958	-0.100696	0.0915777	-0.309388	0.934742	0.498719	0.708561	0	0	0.438657	-0.484615	0.79915	0.840621	0.92932	0	0
2.55893	0.0718239	0.00583755	-1.56908	0.133187	0.906663	0.516955	0.538808	-0.0418532	-0.225258	0.323051	0.00505931	0	0	-0.0592771	0.096507	-0.139027	0.496024	0.309644	0	0	-0.263416	-0.0574238	-0.0981149	0.0906954	-0.309694	0.940865	0.4955	0.703099	0	0	0.435008	-0.482123	0.788579	0.846919	0.935087	0	0
2.56559	0.0671032	0.00535472	-1.56914	0.132713	0.90636	0.524047	0.536084	-0.0368859	-0.224529	0.332416	-0.000298991	0	0	-0.0577667	0.089336	-0.136365	0.515201	0.299607	0	0	-0.262217	-0.0516	-0.0954065	0.0898912	-0.310164	0.946735	0.492566	0.697827	0	0	0.430941	-0.479518	0.7785	0.853151	0.940371	0	0
2.57224	0.0619971	0.00490959	-1.56913	0.132218	0.906118	0.531153	0.53322	-0.0316311	-0.224207	0.34204	-0.00526494	0	0	-0.0553171	0.0815701	-0.134118	0.535755	0.287687	0	0	-0.260961	-0.0453353	-0.0925889	0.089174	-0.310795	0.952305	0.489939	0.692784	0	0	0.426497	-0.476831	0.768986	0.859302	0.945158	0	0
2.5789	0.0565173	0.00450536	-1.56906	0.131702	0.905937	0.538267	0.5302	-0.0260672	-0.224253	0.351759	-0.00972312	0	0	-0.0519101	0.0732156	-0.132308	0.557669	0.273854	0	0	-0.259655	-0.0386471	-0.0896795	0.0885518	-0.31158	0.957532	0.487633	0.688003	0	0	0.421717	-0.474091	0.760095	0.865355	0.949445	0	0
2.58556	0.0506809	0.00414323	-1.56894	0.131166	0.905814	0.545387	0.52701	-0.0201801	-0.22462	0.36143	-0.0135702	0	0	-0.0475425	0.0642881	-0.130936	0.580901	0.258108	0	0	-0.258305	-0.031559	-0.0866949	0.0880312	-0.312516	0.962384	0.485662	0.683512	0	0	0.416644	-0.471324	0.751874	0.871297	0.953238	0	0
2.59221	0.0445108	0.0038226	-1.56877	0.130611	0.905746	0.55251	0.523636	-0.0139643	-0.225258	0.370935	-0.0167212	0	0	-0.0422271	0.0548137	-0.129989	0.605388	0.240489	0	0	-0.256921	-0.0241006	-0.0836506	0.0876172	-0.313594	0.966836	0.484032	0.679333	0	0	0.411319	-0.468556	0.744356	0.877116	0.956554	0	0
2.59887	0.0380348	0.00354132	-1.56854	0.130037	0.90573	0.559631	0.520069	-0.00742362	-0.226119	0.38018	-0.0191149	0	0	-0.0359926	0.0448277	-0.129438	0.63105	0.221075	0	0	-0.255513	-0.0163063	-0.0805606	0.0873129	-0.314806	0.970871	0.482744	0.675479	0	0	0.405785	-0.465808	0.737558	0.882801	0.959418	0	0
2.60552	0.0312847	0.00329611	-1.56827	0.129445	0.905763	0.566751	0.516305	-0.000570716	-0.227156	0.389097	-0.0207177	0	0	-0.0288831	0.0343742	-0.129239	0.657787	0.199982	0	0	-0.254089	-0.0082146	-0.077438	0.0871187	-0.316143	0.974482	0.481795	0.671957	0	0	0.400082	-0.463098	0.731481	0.888345	0.961863	0	0
2.61218	0.0242955	0.00308284	-1.56796	0.128837	0.905838	0.573865	0.512341	0.00657319	-0.228326	0.397641	-0.021526	0	0	-0.0209573	0.0235046	-0.12934	0.685486	0.177365	0	0	-0.252658	0.000133357	-0.0742943	0.0870327	-0.317595	0.977675	0.481172	0.668765	0	0	0.394248	-0.46044	0.72611	0.893746	0.963928	0	0
2.61883	0.0171038	0.00289682	-1.56761	0.128215	0.905953	0.580975	0.508183	0.0139797	-0.229594	0.405793	-0.0215656	0	0	-0.012287	0.0122756	-0.129682	0.714022	0.153406	0	0	-0.25123	0.00869544	-0.0711394	0.0870503	-0.31915	0.980462	0.480859	0.665892	0	0	0.388317	-0.457842	0.721411	0.899004	0.965659	0	0
2.62549	0.00974653	0.00273316	-1.56724	0.12758	0.9061	0.588078	0.503842	0.0216148	-0.230929	0.413556	-0.0208903	0	0	-0.00295506	0.000746722	-0.130207	0.743268	0.128311	0	0	-0.249809	0.01743	-0.0679813	0.0871644	-0.320796	0.98287	0.48083	0.66332	0	0	0.382318	-0.45531	0.717333	0.904125	0.967103	0	0
2.63214	0.00225949	0.00258702	-1.56683	0.126934	0.906275	0.595176	0.499334	0.0294408	-0.232309	0.420952	-0.019578	0	0	0.00694635	-0.0110221	-0.130859	0.773091	0.102297	0	0	-0.248401	0.0262977	-0.0648262	0.0873654	-0.322519	0.984935	0.481056	0.661022	0	0	0.376277	-0.452844	0.71381	0.909117	0.968311	0	0
2.6388	-0.00532422	0.00245394	-1.5664	0.12628	0.906472	0.602268	0.494679	0.0374186	-0.233716	0.428022	-0.017725	0	0	0.0173192	-0.0229734	-0.131588	0.803365	0.0755818	0	0	-0.247008	0.0352626	-0.0616779	0.0876414	-0.324308	0.986703	0.481499	0.658961	0	0	0.370214	-0.450439	0.710763	0.913996	0.969333	0	0
2.64546	-0.0129756	0.00233007	-1.56595	0.125619	0.906686	0.609355	0.489905	0.0455103	-0.235139	0.43482	-0.0154397	0	0	0.0280631	-0.035055	-0.132356	0.833973	0.0483673	0	0	-0.245631	0.0442943	-0.0585385	0.087979	-0.326147	0.988228	0.48212	0.657097	0	0	0.364143	-0.448087	0.708101	0.91878	0.970216	0	0
2.65211	-0.0206705	0.00221227	-1.56549	0.124954	0.906912	0.616438	0.485039	0.0536808	-0.23657	0.441409	-0.0128346	0	0	0.039079	-0.047222	-0.133135	0.864808	0.0208305	0	0	-0.244267	0.0533679	-0.055408	0.0883633	-0.328025	0.989568	0.482875	0.655382	0	0	0.358072	-0.445776	0.705728	0.92349	0.971005	0	0
2.65877	-0.0283902	0.00209805	-1.56503	0.124285	0.907145	0.623519	0.480111	0.0618999	-0.238005	0.447853	-0.0100185	0	0	0.0502741	-0.0594386	-0.133911	0.895783	-0.00688668	0	0	-0.242915	0.0624647	-0.0522847	0.0887793	-0.329928	0.99078	0.483722	0.653769	0	0	0.352005	-0.443495	0.703551	0.928148	0.971735	0	0
2.66542	-0.0361214	0.00198561	-1.56455	0.123615	0.907382	0.630599	0.475148	0.0701437	-0.239443	0.454216	-0.00708712	0	0	0.0615673	-0.0716785	-0.134679	0.926828	-0.0346839	0	0	-0.241569	0.071572	-0.0491662	0.0892131	-0.331846	0.991922	0.484621	0.652216	0	0	0.345943	-0.441231	0.701482	0.932776	0.972436	0	0
2.67208	-0.0438561	0.00187377	-1.56407	0.122945	0.907621	0.637678	0.470171	0.0783957	-0.240881	0.460549	-0.00411407	0	0	0.0728964	-0.0839256	-0.135441	0.957896	-0.0625031	0	0	-0.240226	0.0806824	-0.0460495	0.0896536	-0.33377	0.993036	0.48554	0.650684	0	0	0.339882	-0.438973	0.699453	0.937394	0.973127	0	0
