PathFileType	4	(X/Y/Z)	/tmp/tmpfc_6rugs/P47/MarkerData/DB4_P47_T23_l_slow_relabeled_segment_1.trc
DataRate	CameraRate	NumFrames	NumMarkers	Units	OrigDataRate	OrigDataStartFrame	OrigNumFrames
100.134	100.134	89	13	m	100.134	0	89
Frame#	Time	CLAV			LANK			LHEE			LKNE			LMT5			LTHI			LTIB			LTOE			RKNE			RMT5			RSHO			RTHI			RTOE		
		X1	Y1	Z1	X2	Y2	Z2	X3	Y3	Z3	X4	Y4	Z4	X5	Y5	Z5	X6	Y6	Z6	X7	Y7	Z7	X8	Y8	Z8	X9	Y9	Z9	X10	Y10	Z10	X11	Y11	Z11	X12	Y12	Z12	X13	Y13	Z13

1	1.99	2.60024	-1.28297	0.251748	2.51892	-0.0400989	0.188588	2.56515	-0.0102156	0.234885	2.51518	-0.455216	0.152298	2.36832	-0.000965954	0.16908	2.55099	-0.657552	0.0666865	2.53546	-0.250107	0.148404	2.33749	-0.00805913	0.220065	2.7239	-0.424431	0.38938	2.97012	0.00401783	0.355981	2.69044	-1.30679	0.430411	2.69684	-0.588389	0.455288	2.94756	0.00445879	0.304376
2	1.99999	2.58916	-1.28492	0.251201	2.51915	-0.0401025	0.188419	2.56527	-0.0101831	0.23478	2.51126	-0.454945	0.150357	2.36851	-0.000605492	0.168701	2.54554	-0.650212	0.0647591	2.53961	-0.232266	0.151824	2.33773	-0.0078539	0.219884	2.70328	-0.422438	0.390097	nan	nan	nan	2.68173	-1.30896	0.428816	nan	nan	nan	2.94552	0.00440869	0.304541
3	2.00997	2.57815	-1.28681	0.250736	2.51942	-0.040056	0.188138	2.56544	-0.010131	0.234585	2.50844	-0.454562	0.148159	2.36856	-0.000294871	0.168545	2.54069	-0.642631	0.0631059	2.54406	-0.228182	0.152159	2.33796	-0.00775247	0.219677	2.68138	-0.420618	0.390984	nan	nan	nan	2.67324	-1.3111	0.427387	nan	nan	nan	2.93872	0.0042226	0.307556
4	2.01996	2.56715	-1.28865	0.250471	2.51971	-0.0400182	0.187782	2.56567	-0.0100741	0.234306	2.50624	-0.454204	0.145977	2.36859	-0.000102227	0.168522	2.53028	-0.652073	0.0621974	2.54859	-0.228658	0.151352	2.3382	-0.00781208	0.219496	2.65877	-0.419207	0.392008	nan	nan	nan	2.66483	-1.31322	0.426059	nan	nan	nan	2.92708	0.00191353	0.311123
5	2.02995	2.55617	-1.29047	0.25047	2.52002	-0.0399665	0.187359	2.5659	-0.0100075	0.233985	2.504	-0.454059	0.144042	2.36866	-8.49753e-06	0.168525	2.52092	-0.659014	0.0611917	2.54267	-0.230225	0.150411	2.3385	-0.00797416	0.219349	2.63607	-0.418656	0.393144	2.92821	-0.00990586	0.354836	2.65616	-1.31528	0.424761	2.63386	-0.588123	0.453031	2.9108	-0.00251203	0.312968
6	2.03993	2.54526	-1.29229	0.250508	2.52029	-0.0398493	0.186918	2.56614	-0.00993785	0.233645	2.50113	-0.454229	0.14251	2.36875	5.30209e-05	0.168528	2.51328	-0.660908	0.0600799	2.53665	-0.228149	0.149823	2.33888	-0.00816617	0.219178	2.61356	-0.418987	0.394255	nan	nan	nan	2.64722	-1.31716	0.423644	2.62254	-0.590395	0.452503	2.89023	-0.00720303	0.314765
7	2.04992	2.53439	-1.294	0.250653	2.52054	-0.0396945	0.186471	2.5664	-0.00988203	0.233277	2.49738	-0.454559	0.141452	2.36881	0.000120344	0.168579	2.5065	-0.660192	0.059091	2.5323	-0.223427	0.149471	2.33933	-0.00837175	0.219048	2.59099	-0.420138	0.395275	nan	nan	nan	2.63884	-1.3187	0.422776	nan	nan	nan	2.8668	-0.0115535	0.316376
8	2.05991	2.52357	-1.29561	0.250834	2.52067	-0.0395374	0.186113	2.56667	-0.00984678	0.232903	2.49293	-0.454821	0.1409	2.36888	0.000157347	0.168693	2.50146	-0.655273	0.0581859	2.5314	-0.225036	0.148049	2.33975	-0.00853123	0.219039	2.56829	-0.422172	0.396137	nan	nan	nan	2.6308	-1.32003	0.422019	2.61146	-0.604904	0.453608	2.84131	-0.0151773	0.318418
9	2.06989	2.51289	-1.29721	0.250937	2.52068	-0.0393953	0.185867	2.56686	-0.00979214	0.232607	2.48826	-0.454839	0.140704	2.36893	0.000177324	0.168854	2.49748	-0.647397	0.0576204	2.52701	-0.219569	0.148115	2.34007	-0.00864913	0.219132	2.54543	-0.424858	0.396936	2.83995	-0.0266659	0.359319	nan	nan	nan	2.58918	-0.610448	0.456794	2.81502	-0.0185277	0.320517
10	2.07988	2.50233	-1.29879	0.250969	2.52066	-0.0392809	0.185708	2.56699	-0.00972984	0.232409	2.48388	-0.454654	0.140597	2.36894	0.000212494	0.169052	2.48875	-0.64999	0.0575852	2.52339	-0.21643	0.148076	2.34036	-0.00871591	0.21932	2.52379	-0.427618	0.397394	nan	nan	nan	2.61376	-1.32228	0.420619	2.56355	-0.615357	0.457683	2.78689	-0.0208616	0.323166
11	2.08987	2.49189	-1.30041	0.2511	2.52065	-0.0392022	0.185649	2.56704	-0.00967532	0.232308	2.47979	-0.454341	0.140523	2.36895	0.00020343	0.169217	2.48562	-0.641946	0.0569162	2.52254	-0.219736	0.147095	2.34063	-0.00873301	0.219618	2.50221	-0.430771	0.397746	nan	nan	nan	2.60496	-1.32315	0.419931	2.53558	-0.620839	0.456242	2.75671	-0.0219173	0.325996
12	2.09985	2.48152	-1.30195	0.251305	2.5207	-0.0391997	0.185627	2.56709	-0.0096738	0.232252	2.47603	-0.454009	0.140457	2.36894	0.000213858	0.169333	2.48102	-0.636884	0.0565444	2.52451	-0.228993	0.145062	2.34083	-0.00871734	0.219898	2.48091	-0.434091	0.39772	2.74803	-0.0347176	0.367542	2.59625	-1.32377	0.419265	2.51727	-0.618995	0.455488	2.72457	-0.0215858	0.328024
13	2.10984	2.47111	-1.30326	0.251584	2.52083	-0.0392681	0.185628	2.56716	-0.00971256	0.232234	2.47263	-0.453715	0.140327	2.36894	0.000256462	0.169371	2.47435	-0.636173	0.0564629	2.52482	-0.232915	0.144308	2.34093	-0.00864579	0.220095	2.45987	-0.437589	0.397553	2.71623	-0.0351942	0.369021	2.58769	-1.32439	0.418663	2.50704	-0.60877	0.454872	2.69165	-0.0215472	0.330513
14	2.11983	2.46074	-1.30443	0.251839	2.52095	-0.0393343	0.185727	2.56722	-0.00976213	0.232285	2.46968	-0.453425	0.140024	2.36891	0.000342731	0.169374	2.46737	-0.636424	0.0564544	2.52399	-0.233022	0.144488	2.34084	-0.00847216	0.220213	2.4391	-0.441354	0.397472	nan	nan	nan	2.57881	-1.32523	0.418174	2.49277	-0.611909	0.454962	2.66259	-0.0254314	0.341413
15	2.12981	2.45048	-1.30552	0.251914	2.5211	-0.0393832	0.185862	2.56724	-0.00982052	0.232378	2.467	-0.453075	0.139564	2.36888	0.000436488	0.169335	2.46102	-0.635929	0.0563671	2.52318	-0.232669	0.144812	2.34066	-0.00821549	0.220286	2.41868	-0.445399	0.397299	nan	nan	nan	2.57019	-1.32619	0.41775	2.47284	-0.630079	0.455274	2.64083	-0.0336459	0.365561
16	2.1398	2.4403	-1.3065	0.251843	2.52127	-0.0394329	0.185938	2.56729	-0.00989794	0.232443	2.46434	-0.452656	0.139025	2.36887	0.000558685	0.169227	2.45529	-0.634721	0.0561915	2.5225	-0.232721	0.144964	2.34048	-0.00785351	0.220223	2.39921	-0.44948	0.396645	nan	nan	nan	2.56127	-1.32676	0.417262	2.45588	-0.641735	0.455336	2.61444	-0.0345579	0.374956
17	2.14979	2.4301	-1.30737	0.251678	2.52138	-0.0394532	0.185975	2.56734	-0.00997597	0.232492	2.46139	-0.452218	0.138554	2.36883	0.000734263	0.16908	2.44883	-0.634714	0.0560956	2.52174	-0.232947	0.144838	2.34037	-0.00751205	0.220077	2.38079	-0.453365	0.395704	nan	nan	nan	2.5521	-1.32693	0.416513	2.44544	-0.649527	0.454919	2.58078	-0.0322825	0.374863
18	2.15977	2.41997	-1.30816	0.251451	2.52144	-0.0394593	0.185994	2.56736	-0.0100488	0.232551	2.45802	-0.451798	0.138182	2.36884	0.000871142	0.168854	2.4392	-0.63948	0.0562499	2.52052	-0.233102	0.144567	2.34029	-0.00719255	0.219857	2.36273	-0.457257	0.39471	nan	nan	nan	2.54276	-1.32695	0.415819	2.43605	-0.654466	0.454874	2.54287	-0.0298023	0.374439
19	2.16976	2.40984	-1.30871	0.251198	2.52142	-0.0394494	0.186022	2.56738	-0.0101208	0.232614	2.45425	-0.451346	0.137945	2.36895	0.000985366	0.16854	2.42799	-0.646432	0.0565737	2.51879	-0.233179	0.144251	2.34014	-0.00683196	0.219639	2.34446	-0.461345	0.393739	nan	nan	nan	2.53327	-1.32694	0.415254	2.41429	-0.65165	0.455089	2.50479	-0.0271284	0.37565
20	2.17975	2.39973	-1.30904	0.250896	2.52133	-0.0394442	0.186084	2.56743	-0.0102044	0.232682	2.45016	-0.450811	0.13791	2.36901	0.00113503	0.168268	2.42689	-0.637856	0.0561052	2.51666	-0.233242	0.143998	2.34	-0.00639504	0.219538	2.32648	-0.465372	0.392846	nan	nan	nan	2.52365	-1.32702	0.414599	2.39656	-0.65095	0.455421	nan	nan	nan
21	2.18973	2.38961	-1.30924	0.2506	2.52122	-0.0394648	0.186198	2.56742	-0.0102558	0.23284	2.44599	-0.450236	0.137933	2.36897	0.00129121	0.168097	2.42422	-0.631083	0.055895	2.51429	-0.233333	0.14392	2.33982	-0.00582037	0.219638	2.30891	-0.46914	0.391985	nan	nan	nan	2.51391	-1.32702	0.413954	2.38288	-0.652989	0.455543	nan	nan	nan
22	2.19972	2.37942	-1.30922	0.250385	2.52113	-0.0395358	0.186356	2.56737	-0.0103238	0.233064	2.44166	-0.449601	0.138049	2.36885	0.00148247	0.16801	2.41717	-0.630166	0.0561637	2.51185	-0.233255	0.144181	2.33955	-0.00514322	0.219896	2.29113	-0.472715	0.391008	nan	nan	nan	2.50401	-1.32657	0.41366	2.36875	-0.655682	0.455672	nan	nan	nan
23	2.20971	2.36925	-1.30895	0.250203	2.52098	-0.039669	0.186588	2.56729	-0.0104748	0.233357	2.43708	-0.44886	0.138307	2.36877	0.00161365	0.16786	2.40579	-0.63467	0.0568147	2.50951	-0.232548	0.144978	2.33918	-0.00457085	0.220263	2.27288	-0.476135	0.389992	nan	nan	nan	2.49401	-1.32609	0.413232	2.35495	-0.65781	0.455511	nan	nan	nan
24	2.21969	2.35902	-1.30848	0.249991	2.5207	-0.0398426	0.186937	2.56713	-0.0107068	0.23377	2.43232	-0.448008	0.138655	2.36888	0.00158974	0.167537	2.39327	-0.640215	0.0575979	2.50713	-0.231483	0.146116	2.33861	-0.00415246	0.220749	2.25698	-0.478717	0.388744	2.31237	-0.0208974	0.380105	2.48382	-1.32554	0.412856	2.34174	-0.659422	0.455095	nan	nan	nan
25	2.22968	2.34869	-1.3078	0.24979	2.52037	-0.0400275	0.187387	2.56693	-0.0109995	0.234251	2.42731	-0.447075	0.139128	2.36921	0.00142052	0.167065	2.39118	-0.631523	0.0577368	2.5047	-0.232527	0.145798	2.33793	-0.00387302	0.221263	2.24281	-0.480802	0.387675	2.27505	-0.0198305	0.380666	2.47355	-1.32479	0.41264	2.32821	-0.660762	0.454675	nan	nan	nan
26	2.23967	2.33838	-1.30692	0.249631	2.51995	-0.0402132	0.187906	2.56675	-0.0113574	0.234723	2.42214	-0.446139	0.13961	2.36936	0.00135441	0.166773	2.38284	-0.630614	0.0584404	2.50224	-0.233289	0.145725	2.33726	-0.00383416	0.221508	2.22933	-0.48212	0.386087	2.23743	-0.0196407	0.381037	2.4631	-1.3238	0.41242	2.31472	-0.661682	0.454209	nan	nan	nan
27	2.24965	2.32857	-1.30563	0.249261	2.51955	-0.0404936	0.188348	2.5666	-0.0118247	0.235143	2.41669	-0.445149	0.140084	2.36942	0.00134131	0.16653	2.3657	-0.640641	0.0597913	2.49964	-0.233399	0.146134	2.33672	-0.0039588	0.221491	2.21585	-0.483025	0.38429	2.19938	-0.0199745	0.381431	2.45249	-1.32266	0.412253	2.30228	-0.661973	0.453445	nan	nan	nan
28	2.25964	2.31917	-1.30402	0.248539	2.5191	-0.0408482	0.188803	2.56634	-0.0123949	0.235634	2.411	-0.444091	0.14058	2.36942	0.00138102	0.166307	2.35709	-0.63908	0.0603037	2.49687	-0.233334	0.146691	2.33613	-0.0035207	0.221994	2.20302	-0.483343	0.382566	2.16136	-0.0208519	0.381972	2.44176	-1.32133	0.412218	2.28991	-0.661934	0.45272	nan	nan	nan
29	2.26963	2.3083	-1.30278	0.247824	2.51844	-0.0411975	0.189415	2.56602	-0.0131116	0.236185	2.40515	-0.443042	0.141082	2.36927	0.00151244	0.166176	2.35849	-0.626129	0.0599974	2.49396	-0.233401	0.147245	2.33546	-0.00312756	0.222158	2.19137	-0.482975	0.380994	2.12376	-0.0226394	0.382333	2.43085	-1.31983	0.412286	2.27802	-0.661281	0.452037	nan	nan	nan
30	2.27961	2.29718	-1.30136	0.247511	2.51785	-0.0416973	0.189944	2.56573	-0.0139655	0.236755	2.39917	-0.442022	0.141556	2.36909	0.00171227	0.166067	2.35435	-0.624208	0.0606289	2.49108	-0.233609	0.147741	2.33485	-0.00297326	0.221867	2.18052	-0.481818	0.379812	2.08677	-0.0258523	0.382438	2.41975	-1.31813	0.412444	2.26678	-0.660003	0.451326	nan	nan	nan
31	2.2896	2.28628	-1.29965	0.247494	2.51726	-0.0422785	0.190399	2.56542	-0.0149928	0.237338	2.39322	-0.441065	0.141847	2.36916	0.00179609	0.165777	2.34592	-0.629763	0.0617556	2.48793	-0.233861	0.148254	2.33439	-0.00286708	0.221432	2.17002	-0.479831	0.378643	2.05038	-0.0305591	0.382809	2.4085	-1.3163	0.412692	2.25524	-0.65828	0.450471	nan	nan	nan
32	2.29959	2.27543	-1.29789	0.247609	2.51666	-0.0429546	0.190836	2.56514	-0.0162438	0.237888	2.38735	-0.440173	0.142	2.36927	0.0018543	0.165502	2.33876	-0.62139	0.0610686	2.48443	-0.234161	0.148816	2.33401	-0.00266018	0.221023	2.15996	-0.47733	0.377653	2.0149	-0.0365969	0.383259	2.39712	-1.31437	0.413053	2.24432	-0.656092	0.449778	nan	nan	nan
33	2.30957	2.26455	-1.29608	0.247785	2.51602	-0.0437008	0.191248	2.56472	-0.0175378	0.238531	2.38159	-0.439367	0.142022	2.36927	0.00196617	0.165344	2.32779	-0.619627	0.0608635	2.48181	-0.234669	0.149295	2.33369	-0.0025132	0.22045	2.15045	-0.474604	0.376835	1.98107	-0.043673	0.383917	2.38559	-1.3124	0.413515	2.2338	-0.653224	0.449244	nan	nan	nan
34	2.31956	2.25332	-1.2941	0.247766	2.5154	-0.0445456	0.191586	2.56431	-0.0189844	0.239143	2.37581	-0.438597	0.141982	2.36927	0.00208181	0.165208	2.3105	-0.629344	0.0615936	2.48224	-0.235591	0.149712	2.33343	-0.00240554	0.219821	2.14133	-0.471555	0.376085	1.94923	-0.0513789	0.384364	2.37406	-1.31049	0.414205	2.22411	-0.649746	0.449316	nan	nan	nan
35	2.32955	2.24204	-1.29208	0.247821	2.5148	-0.0455761	0.191799	2.56393	-0.0206693	0.23963	2.36992	-0.437908	0.14192	2.36929	0.00215841	0.165041	2.2987	-0.633476	0.0619285	2.48403	-0.236777	0.150086	2.33324	-0.00239234	0.219228	2.13233	-0.468331	0.375306	1.91946	-0.0591635	0.384364	2.36261	-1.30868	0.415163	2.21444	-0.646465	0.449696	nan	nan	nan
36	2.33953	2.23072	-1.29011	0.247961	2.51416	-0.0468415	0.191849	2.56354	-0.0225906	0.239868	2.3639	-0.437304	0.141852	2.3694	0.00218564	0.16484	2.29145	-0.632395	0.0615904	2.47573	-0.237057	0.150348	2.3331	-0.00235792	0.218744	2.12297	-0.465286	0.37477	1.89183	-0.0666422	0.384249	2.35091	-1.30672	0.416011	2.20458	-0.643829	0.45022	nan	nan	nan
37	2.34952	2.21936	-1.28828	0.248187	2.51344	-0.0482878	0.191778	2.56321	-0.0247962	0.239839	2.35757	-0.436704	0.141825	2.36948	0.00222838	0.164732	2.2848	-0.630522	0.0611283	2.46875	-0.237658	0.150538	2.33302	-0.00226017	0.218382	2.11318	-0.462516	0.374552	1.86679	-0.073362	0.383676	2.33904	-1.30468	0.416786	2.19487	-0.639836	0.450834	nan	nan	nan
38	2.35951	2.20799	-1.28666	0.248588	2.51261	-0.0499154	0.191597	2.56277	-0.0272554	0.239684	2.35084	-0.436092	0.141821	2.36959	0.0022287	0.164608	2.27694	-0.629281	0.0609914	2.46463	-0.238717	0.150639	2.33301	-0.00219162	0.218155	2.10259	-0.460471	0.374515	1.84466	-0.0785796	0.382291	2.32715	-1.30268	0.417659	2.18569	-0.630126	0.451802	nan	nan	nan
39	2.36949	2.19652	-1.28506	0.249018	2.51166	-0.0517254	0.191292	2.56217	-0.0299622	0.239421	2.34369	-0.435455	0.141899	2.36967	0.00222054	0.164478	2.26835	-0.628323	0.0610374	2.46106	-0.239956	0.150627	2.33305	-0.00214874	0.217986	2.09085	-0.459157	0.374376	1.82539	-0.081769	0.380477	2.31529	-1.30073	0.418639	2.17588	-0.618221	0.45299	nan	nan	nan
40	2.37948	2.18488	-1.28365	0.249402	2.51068	-0.0537752	0.190795	2.56151	-0.0329999	0.238972	2.33622	-0.434839	0.141947	2.36971	0.00224347	0.164373	2.2594	-0.627326	0.0611949	2.45702	-0.241307	0.150514	2.33306	-0.002089	0.217785	2.07821	-0.458476	0.373961	1.809	-0.0829627	0.378426	2.30343	-1.29884	0.419704	2.16296	-0.626326	0.454057	nan	nan	nan
41	2.38947	2.17343	-1.28238	0.250124	2.5096	-0.0560948	0.190166	2.56077	-0.0364169	0.238326	2.32834	-0.434287	0.142002	2.36972	0.00225615	0.164264	2.24983	-0.626424	0.0614895	2.45252	-0.242835	0.150337	2.33315	-0.00212068	0.21764	2.0647	-0.458408	0.373503	1.79546	-0.0822115	0.37578	2.29156	-1.297	0.420807	2.14906	-0.632206	0.454936	nan	nan	nan
42	2.39945	2.16196	-1.28129	0.251011	2.50831	-0.0586958	0.189478	2.55985	-0.040236	0.237577	2.32008	-0.43383	0.142035	2.36964	0.00230107	0.164224	2.23926	-0.625836	0.0620369	2.44749	-0.244509	0.15016	2.33328	-0.0022035	0.21754	2.05064	-0.458616	0.373033	1.78469	-0.0794056	0.372848	2.27968	-1.29532	0.421987	2.1351	-0.632595	0.455313	nan	nan	nan
43	2.40944	2.15032	-1.28048	0.251892	2.50685	-0.0616733	0.188708	2.55875	-0.0445035	0.236725	2.31132	-0.433409	0.142138	2.36963	0.0023276	0.164138	2.22911	-0.624234	0.0626973	2.44183	-0.246322	0.149926	2.33347	-0.00227934	0.217435	2.03617	-0.458939	0.372454	1.77671	-0.0746035	0.369885	2.26781	-1.29378	0.423252	2.12064	-0.631879	0.455774	nan	nan	nan
44	2.41943	2.1386	-1.27989	0.252795	2.50516	-0.0650173	0.187917	2.55734	-0.0492334	0.235879	2.30202	-0.43304	0.142274	2.36964	0.00235657	0.164028	2.22237	-0.618778	0.0632937	2.4364	-0.24856	0.149705	2.33367	-0.00225658	0.217366	2.02157	-0.459241	0.371789	1.7712	-0.0678804	0.367099	2.25592	-1.29241	0.424577	2.10552	-0.631944	0.456014	nan	nan	nan
45	2.42941	2.12681	-1.27952	0.253821	2.50322	-0.0686898	0.187062	2.55545	-0.0543995	0.235096	2.29212	-0.432706	0.142316	2.36962	0.00240395	0.16392	2.21725	-0.611551	0.0637727	2.43431	-0.252227	0.149597	2.33376	-0.00220364	0.217292	2.00723	-0.459203	0.371123	1.76688	-0.0591295	0.36478	2.24402	-1.29112	0.425941	2.09034	-0.632399	0.45599	nan	nan	nan
46	2.4394	2.11505	-1.2794	0.255093	2.50105	-0.0728475	0.18594	2.55318	-0.0601707	0.234098	2.28161	-0.432384	0.142323	2.36968	0.00241072	0.163719	2.19888	-0.616944	0.0649287	2.43611	-0.257646	0.149603	2.33386	-0.00211721	0.21721	1.99379	-0.458743	0.3706	1.76207	-0.0492405	0.362628	2.23208	-1.28992	0.427337	2.07496	-0.633113	0.456064	nan	nan	nan
47	2.44939	2.10345	-1.27922	0.256411	2.49842	-0.0776098	0.184512	2.55021	-0.0666116	0.232953	2.27026	-0.432091	0.142442	2.36959	0.00248011	0.163631	2.18173	-0.620737	0.0661437	2.42927	-0.2611	0.149446	2.33417	-0.00210063	0.217212	1.98148	-0.458449	0.370491	1.75632	-0.0410832	0.36004	2.22011	-1.28889	0.428807	2.05869	-0.634493	0.456782	nan	nan	nan
48	2.45937	2.09225	-1.27894	0.257753	2.4952	-0.0830437	0.182901	2.54649	-0.0738382	0.231715	2.25793	-0.431867	0.142476	2.36952	0.00253917	0.163614	2.16824	-0.62084	0.06711	2.41361	-0.262271	0.149008	2.33458	-0.00212042	0.217353	1.96996	-0.459009	0.371262	1.75097	-0.0341256	0.357258	2.20806	-1.28815	0.430372	2.04314	-0.636071	0.457766	nan	nan	nan
49	2.46936	2.08066	-1.27957	0.259091	2.49108	-0.0890152	0.181285	2.54181	-0.0818635	0.230468	2.24448	-0.431631	0.142265	2.36963	0.00250054	0.163545	2.1552	-0.620163	0.0680907	2.40145	-0.264911	0.148607	2.33486	-0.00209617	0.217528	1.9586	-0.460453	0.372436	1.7469	-0.0277714	0.35518	2.19592	-1.28784	0.431962	2.02904	-0.637613	0.458724	nan	nan	nan
50	2.47935	2.06871	-1.28078	0.260475	2.48574	-0.0954043	0.17967	2.53593	-0.0906502	0.229251	2.22975	-0.431237	0.141748	2.36976	0.00241148	0.163614	2.14132	-0.619854	0.0691165	2.39185	-0.268567	0.148286	2.33514	-0.00210054	0.217796	1.9467	-0.462273	0.373239	1.74356	-0.0228423	0.354949	2.18366	-1.28797	0.433493	2.01522	-0.639227	0.460172	nan	nan	nan
51	2.48933	2.05679	-1.28221	0.261737	2.47896	-0.102221	0.178042	2.52851	-0.100145	0.228182	2.2136	-0.430565	0.14098	2.36962	0.00230586	0.164076	2.12652	-0.619795	0.0702261	2.38015	-0.272954	0.147457	2.33544	-0.00214175	0.218194	1.93399	-0.464209	0.373257	1.74071	-0.0190315	0.355596	2.17134	-1.28854	0.43494	2.00176	-0.640984	0.461773	nan	nan	nan
52	2.49932	2.04516	-1.28365	0.262472	2.47051	-0.109386	0.176406	2.51927	-0.110232	0.22724	2.19609	-0.429522	0.139937	2.369	0.00216307	0.165107	2.11133	-0.619838	0.0712813	2.36239	-0.279586	0.14519	2.33569	-0.00216868	0.218604	1.92108	-0.466161	0.372349	1.73838	-0.0155798	0.355815	2.159	-1.28943	0.436295	1.98805	-0.64302	0.463024	nan	nan	nan
53	2.50931	2.03326	-1.28522	0.263592	2.4601	-0.116609	0.174674	2.50796	-0.120656	0.22626	2.17733	-0.42818	0.138701	2.36815	0.00160307	0.166421	2.09572	-0.620229	0.0722849	2.34086	-0.287085	0.14213	2.33576	-0.00214724	0.218957	1.90888	-0.46753	0.371199	1.73669	-0.0124781	0.355378	2.14665	-1.29055	0.437513	1.97473	-0.644908	0.46406	nan	nan	nan
54	2.51929	2.02111	-1.28695	0.264927	2.44748	-0.12359	0.172771	2.49468	-0.131367	0.224885	2.15758	-0.42661	0.137332	2.36703	0.000590984	0.167921	2.07969	-0.620938	0.073202	2.32993	-0.285886	0.142736	2.33528	-0.00223625	0.219504	1.89799	-0.4683	0.370383	1.73543	-0.0100673	0.355226	2.13426	-1.29187	0.438647	1.9614	-0.646866	0.464929	nan	nan	nan
55	2.52928	2.00951	-1.28861	0.265527	2.43324	-0.130448	0.170759	2.48	-0.142693	0.222784	2.13683	-0.424774	0.136027	2.36524	-0.000486725	0.169894	2.06457	-0.620403	0.073909	2.31574	-0.285679	0.142738	2.33374	-0.00237638	0.220327	1.88872	-0.468583	0.370333	1.73463	-0.00832975	0.3551	2.12179	-1.29333	0.439702	1.94898	-0.648625	0.466148	nan	nan	nan
56	2.53927	1.99841	-1.29003	0.266034	2.41804	-0.137576	0.169215	2.46409	-0.154669	0.220106	2.11495	-0.422705	0.134952	2.36116	-0.00144417	0.172208	2.05299	-0.615532	0.0741858	2.29661	-0.287997	0.141378	2.33068	-0.00225354	0.220687	1.881	-0.468407	0.371085	1.73401	-0.00734281	0.354739	2.10923	-1.29493	0.440704	1.93759	-0.649819	0.46756	nan	nan	nan
57	2.54925	1.98746	-1.29144	0.266647	2.40188	-0.145252	0.168537	2.44676	-0.166746	0.217784	2.09213	-0.420568	0.134018	2.35425	-0.00397654	0.17375	2.04308	-0.608832	0.0742432	2.27544	-0.290987	0.139673	2.32651	-0.00173891	0.219851	1.87454	-0.468019	0.37241	1.73364	-0.00693294	0.354451	2.09658	-1.29667	0.441675	1.9275	-0.65038	0.468521	nan	nan	nan
58	2.55924	1.97509	-1.29336	0.267166	2.38445	-0.153348	0.168697	2.42782	-0.177903	0.217326	2.06858	-0.418664	0.133106	2.34341	-0.00980674	0.173595	2.02201	-0.616239	0.0754772	2.2536	-0.293795	0.138246	2.3197	-0.00189909	0.217542	1.86909	-0.467555	0.373992	1.73348	-0.00677697	0.35436	2.08379	-1.29854	0.44265	1.91878	-0.650646	0.469574	nan	nan	nan
59	2.56923	1.963	-1.2952	0.267491	2.36597	-0.161607	0.16964	2.4078	-0.187262	0.219336	2.04471	-0.417393	0.13227	nan	nan	nan	2.00266	-0.622038	0.0764798	2.23118	-0.296618	0.137207	2.30815	-0.00458657	0.213915	1.86457	-0.466968	0.375732	1.73348	-0.00665325	0.354317	2.0709	-1.30057	0.443556	1.91041	-0.651131	0.470658	nan	nan	nan
60	2.57921	1.9516	-1.29691	0.26764	2.34669	-0.169704	0.171268	2.38733	-0.194605	0.222983	2.02098	-0.41712	0.131557	nan	nan	nan	1.98685	-0.623983	0.077112	2.20823	-0.299795	0.1366	2.29109	-0.0091973	0.209083	1.86063	-0.466361	0.377673	1.73353	-0.00660393	0.354272	2.05793	-1.30276	0.444429	1.90224	-0.651698	0.471669	nan	nan	nan
61	2.5892	1.94082	-1.29848	0.267716	2.32612	-0.177084	0.173427	2.36607	-0.200115	0.227107	1.99746	-0.417975	0.131013	2.29226	-0.0319401	0.162882	1.97197	-0.625292	0.0775752	2.185	-0.303442	0.136564	2.27017	-0.0141904	0.202984	1.85693	-0.46596	0.379351	1.73356	-0.00657239	0.354255	2.04495	-1.30503	0.445279	1.89455	-0.652302	0.472556	nan	nan	nan
62	2.59919	1.93033	-1.29992	0.267781	2.30406	-0.183135	0.17573	2.34356	-0.203922	0.231248	1.97408	-0.419819	0.130512	2.26996	-0.0385834	0.158741	1.957	-0.627316	0.0778008	2.16154	-0.307356	0.137291	2.24667	-0.0186878	0.196594	1.8531	-0.465601	0.380473	1.7336	-0.00656324	0.35426	2.03201	-1.30736	0.446039	1.88693	-0.652997	0.47332	nan	nan	nan
63	2.60917	1.91859	-1.3017	0.267814	2.28072	-0.187592	0.178062	2.32014	-0.206128	0.235133	1.95095	-0.422345	0.129973	2.24552	-0.044024	0.155211	1.9419	-0.629943	0.0779225	2.13785	-0.311233	0.138748	2.22105	-0.0226558	0.190971	1.84907	-0.465403	0.381222	1.73355	-0.00668483	0.354306	2.01914	-1.30974	0.44671	1.87929	-0.65355	0.473868	nan	nan	nan
64	2.61916	1.90696	-1.30331	0.267855	2.25647	-0.190491	0.180321	2.29612	-0.206826	0.238531	1.92798	-0.425299	0.129616	2.22067	-0.0484484	0.151835	1.92674	-0.632857	0.0779905	2.11389	-0.314725	0.140729	2.19375	-0.0257523	0.186417	1.84485	-0.465477	0.381727	1.73335	-0.00699705	0.354436	2.00636	-1.31214	0.447336	1.87168	-0.653804	0.474555	nan	nan	nan
65	2.62915	1.89582	-1.30474	0.267911	2.23145	-0.191836	0.182346	2.27154	-0.206036	0.241217	1.9052	-0.428569	0.129441	2.19151	-0.0523289	0.148463	1.9116	-0.636001	0.0780633	2.08957	-0.317591	0.14302	2.16498	-0.0278189	0.183285	1.84034	-0.465601	0.382019	1.73325	-0.00708145	0.354425	1.99373	-1.31456	0.447874	1.8641	-0.654024	0.475118	nan	nan	nan
66	2.63913	1.88512	-1.30635	0.267707	2.20575	-0.191701	0.183983	2.24633	-0.20388	0.243257	1.88287	-0.432092	0.129427	2.16079	-0.0546243	0.14654	1.89655	-0.639307	0.078123	2.06526	-0.319812	0.145214	2.13468	-0.0290006	0.181509	1.83594	-0.465391	0.38219	1.73333	-0.00689798	0.35426	1.98125	-1.31701	0.448332	1.8564	-0.654329	0.475368	nan	nan	nan
67	2.64912	1.8743	-1.3078	0.267514	2.17936	-0.190155	0.185212	2.22071	-0.200557	0.244553	1.86114	-0.435828	0.12958	2.12898	-0.055288	0.146159	1.8817	-0.642594	0.078012	2.04106	-0.321354	0.147204	2.10308	-0.029396	0.181048	1.83188	-0.464738	0.382314	1.73352	-0.00653086	0.354043	1.9689	-1.31947	0.448747	1.84835	-0.654345	0.475507	nan	nan	nan
68	2.65911	1.86373	-1.30925	0.267377	2.15225	-0.187222	0.186139	2.19452	-0.195998	0.245343	1.84019	-0.439819	0.129818	2.09618	-0.0546933	0.146829	1.86705	-0.645821	0.0778143	2.01701	-0.322149	0.148978	2.07041	-0.0290313	0.181616	1.82829	-0.463808	0.382458	1.73355	-0.00646445	0.35407	1.95675	-1.32184	0.449105	1.84081	-0.654032	0.475617	nan	nan	nan
69	2.66909	1.85328	-1.31068	0.267129	2.12445	-0.182968	0.186865	2.16754	-0.190086	0.245896	1.81993	-0.444016	0.130346	2.06291	-0.0532825	0.1477	1.85241	-0.649061	0.0777043	1.99312	-0.322229	0.150514	2.03634	-0.0281646	0.182881	1.82503	-0.463058	0.382739	1.73344	-0.00665289	0.354356	1.94478	-1.32413	0.449453	1.83387	-0.653623	0.475794	nan	nan	nan
70	2.67908	1.84281	-1.31203	0.26676	2.09591	-0.177509	0.187446	2.13982	-0.182834	0.246251	1.80019	-0.448307	0.131317	2.02883	-0.0512371	0.148658	1.83754	-0.65225	0.0778383	1.96931	-0.321605	0.15186	1.99995	-0.0269186	0.183889	1.8221	-0.462624	0.383269	1.7334	-0.00670816	0.354511	1.93292	-1.32639	0.449762	1.8272	-0.653181	0.47584	nan	nan	nan
71	2.68907	1.83231	-1.31334	0.266514	2.06657	-0.170989	0.187984	2.11129	-0.174311	0.246462	1.78113	-0.452675	0.132519	1.99291	-0.0484544	0.150037	1.82294	-0.655404	0.0778926	1.94579	-0.320335	0.152889	1.96242	-0.0254644	0.184885	1.81924	-0.462158	0.383908	1.7334	-0.00666878	0.354557	1.92121	-1.32857	0.450079	1.82055	-0.652755	0.475892	nan	nan	nan
72	2.69905	1.82185	-1.31466	0.266367	2.03648	-0.163581	0.188401	2.08191	-0.164613	0.246558	1.76269	-0.457037	0.133797	1.95572	-0.0453503	0.151501	1.80856	-0.658524	0.0779159	1.9223	-0.318379	0.153703	1.92411	-0.0240924	0.185872	1.81632	-0.461518	0.384481	1.73339	-0.00662156	0.354579	1.90957	-1.33068	0.450403	1.81393	-0.65221	0.475923	nan	nan	nan
73	2.70904	1.81142	-1.31572	0.266333	2.00548	-0.155387	0.188832	2.05146	-0.153881	0.246655	1.74466	-0.461253	0.135086	1.91799	-0.0422479	0.152603	1.79423	-0.661475	0.0779843	1.89879	-0.315712	0.15425	1.88534	-0.0226793	0.187175	1.81322	-0.460802	0.38494	1.73335	-0.00663504	0.354557	1.89792	-1.33268	0.450701	1.80731	-0.651571	0.475928	nan	nan	nan
74	2.71903	1.801	-1.31647	0.266329	1.97373	-0.146645	0.189232	2.01982	-0.142365	0.246842	1.72691	-0.465225	0.136456	1.87972	-0.0392353	0.153168	1.77996	-0.664324	0.0780855	1.87501	-0.312262	0.154654	1.84567	-0.0213318	0.18816	1.80998	-0.460163	0.385534	1.73333	-0.0066156	0.354608	1.88626	-1.3345	0.450924	1.80059	-0.650929	0.475861	nan	nan	nan
75	2.72901	1.79057	-1.31707	0.266135	1.94127	-0.137543	0.189572	1.98703	-0.130283	0.247184	1.70931	-0.468887	0.137958	1.84092	-0.0364459	0.153324	1.76576	-0.66715	0.0781958	1.85096	-0.308074	0.154844	1.80562	-0.0204479	0.188221	1.80653	-0.459638	0.385948	1.73331	-0.00654802	0.35478	1.8746	-1.33614	0.451136	1.7938	-0.650321	0.475701	nan	nan	nan
76	2.739	1.78015	-1.31761	0.26588	1.90811	-0.128227	0.189904	1.95324	-0.117918	0.247626	1.69224	-0.472201	0.139298	1.80175	-0.034045	0.153023	1.75165	-0.669877	0.0783048	1.8264	-0.303219	0.15498	1.76545	-0.0205654	0.187259	1.80275	-0.459247	0.38607	1.73324	-0.00652187	0.354983	1.86292	-1.33752	0.451306	1.7869	-0.649675	0.475479	nan	nan	nan
77	2.74899	1.76961	-1.31791	0.265867	1.87421	-0.118898	0.190223	1.9183	-0.105463	0.248263	1.67599	-0.475186	0.140505	1.76272	-0.0322785	0.152006	1.73756	-0.672439	0.0784453	1.80152	-0.297963	0.155069	1.72514	-0.0213804	0.185427	1.79866	-0.458613	0.385986	1.73312	-0.00653076	0.355163	1.85121	-1.33863	0.451437	1.77976	-0.649023	0.475077	nan	nan	nan
78	2.75897	1.75899	-1.31808	0.265872	1.83966	-0.109813	0.190479	1.88245	-0.0932653	0.24892	1.66054	-0.477769	0.141722	1.72383	-0.0309999	0.150528	1.72379	-0.674548	0.0785661	1.77675	-0.292574	0.155111	1.68507	-0.0222985	0.183077	1.79432	-0.457812	0.385696	1.73299	-0.00653248	0.355343	1.83948	-1.33946	0.451518	1.77215	-0.6484	0.474629	nan	nan	nan
79	2.76896	1.74842	-1.31806	0.265791	1.80476	-0.101225	0.190542	1.8465	-0.0818858	0.249106	1.64575	-0.479882	0.142914	1.6853	-0.0302555	0.148623	1.71028	-0.676196	0.0788413	1.75198	-0.287378	0.155287	1.64548	-0.0235446	0.180552	1.7895	-0.457434	0.385489	1.73286	-0.00654627	0.355643	1.82771	-1.34003	0.451563	1.76425	-0.647757	0.474149	nan	nan	nan
80	2.77895	1.73779	-1.31783	0.265585	1.7698	-0.0933362	0.19014	1.81036	-0.0713105	0.248679	1.6313	-0.481431	0.144137	1.64663	-0.0299687	0.146898	1.69722	-0.677384	0.079154	1.7275	-0.282539	0.15553	1.60634	-0.025413	0.178284	1.78397	-0.457644	0.38545	1.73287	-0.00638972	0.355818	1.81586	-1.34034	0.451582	1.757	-0.646943	0.473215	nan	nan	nan
81	2.78893	1.72718	-1.31751	0.265365	1.73472	-0.0861133	0.189362	1.77391	-0.0614343	0.247848	1.61744	-0.482334	0.145263	1.60802	-0.0303416	0.145533	1.68439	-0.678013	0.079555	1.70363	-0.278023	0.155732	1.56753	-0.0279051	0.176616	1.77835	-0.457498	0.385406	1.73325	-0.00585509	0.355542	1.80398	-1.3404	0.451473	1.74959	-0.646044	0.472302	nan	nan	nan
82	2.79892	1.71644	-1.31685	0.265178	1.69983	-0.0796534	0.188132	1.73766	-0.0525444	0.246329	1.60427	-0.48258	0.146349	1.56965	-0.0314922	0.144523	1.67181	-0.678182	0.0800113	1.6804	-0.273656	0.15582	1.52927	-0.0312667	0.175596	1.77294	-0.457066	0.385091	1.73378	-0.00542883	0.355129	1.79208	-1.3402	0.451259	1.74148	-0.645608	0.471791	nan	nan	nan
83	2.80891	1.70557	-1.31599	0.265013	1.66517	-0.0741053	0.186561	1.70161	-0.0445917	0.244351	1.59177	-0.482227	0.1473	1.53159	-0.0334339	0.144134	1.65951	-0.677945	0.0805535	1.6577	-0.269389	0.155805	1.49165	-0.0356579	0.175235	1.76747	-0.456714	0.384913	1.73392	-0.00531483	0.355118	1.78029	-1.33983	0.451157	1.7335	-0.645048	0.471305	nan	nan	nan
84	2.81889	1.69452	-1.3149	0.264991	1.63058	-0.0695208	0.184958	1.66575	-0.0377853	0.242271	1.57985	-0.481369	0.148041	1.49412	-0.0363275	0.144137	1.64777	-0.677171	0.0809219	1.63534	-0.265283	0.155697	1.45488	-0.0409535	0.175415	1.76168	-0.456435	0.384724	1.73372	-0.00537516	0.355488	1.76813	-1.33909	0.450786	1.72568	-0.644174	0.470687	nan	nan	nan
85	2.82888	1.68366	-1.31353	0.264532	1.59643	-0.0659219	0.183385	1.63029	-0.0322008	0.240153	1.56846	-0.480001	0.14872	1.45764	-0.0401981	0.144263	1.63651	-0.675827	0.0811861	1.6132	-0.261382	0.155504	1.41921	-0.0470626	0.175835	1.75565	-0.456124	0.384517	1.73339	-0.00548378	0.356004	1.75519	-1.33758	0.449717	1.71764	-0.643431	0.470243	nan	nan	nan
86	2.83887	1.67273	-1.31205	0.26424	1.56298	-0.0632623	0.181942	1.59533	-0.0277486	0.238256	1.5576	-0.478225	0.149314	1.42238	-0.0449714	0.144441	1.62587	-0.673888	0.0811398	1.59147	-0.257742	0.155115	1.3848	-0.0540564	0.176118	1.74954	-0.455739	0.384432	1.73329	-0.00548594	0.356236	1.74313	-1.33619	0.449022	1.70983	-0.642456	0.469797	nan	nan	nan
87	2.84885	1.66172	-1.31039	0.263999	1.53051	-0.0616126	0.180676	1.5612	-0.0243743	0.236702	1.5471	-0.476156	0.149833	1.38861	-0.0505375	0.144433	1.6154	-0.671699	0.0810332	1.56992	-0.254458	0.154658	1.35191	-0.0619503	0.176121	1.74339	-0.455409	0.384368	1.73332	-0.00541814	0.356297	1.73184	-1.33488	0.448639	1.7019	-0.64161	0.469381	nan	nan	nan
88	2.85884	1.65071	-1.30866	0.263666	1.49919	-0.0608768	0.179637	1.52841	-0.0220711	0.235322	1.53681	-0.473878	0.150299	1.35653	-0.0566709	0.144247	1.6051	-0.669304	0.0808637	1.54865	-0.25167	0.154088	1.32082	-0.0701503	0.17601	1.73708	-0.454826	0.384247	1.73333	-0.00528848	0.356463	1.7209	-1.33353	0.448303	1.69386	-0.640772	0.469085	nan	nan	nan
89	2.86883	1.63958	-1.30671	0.26332	1.46935	-0.0609413	0.178646	1.49714	-0.0208224	0.234082	1.5266	-0.471496	0.150668	1.32617	-0.0630832	0.143903	1.5953	-0.666597	0.0803936	1.52784	-0.2494	0.153259	1.29172	-0.078328	0.175792	1.73069	-0.454126	0.384134	1.73335	-0.0049989	0.356793	1.71027	-1.33219	0.448059	1.68583	-0.639808	0.468872	nan	nan	nan
