Coordinates
version=1
nRows=217
nColumns=38
inDegrees=no

Units are S.I. units (second, meters, Newtons, ...)
If the header above contains a line with 'inDegrees', this indicates whether rotational values are in degrees (yes) or radians (no).

endheader
time	pelvis_tilt	pelvis_list	pelvis_rotation	pelvis_tx	pelvis_ty	pelvis_tz	hip_flexion_r	hip_adduction_r	hip_rotation_r	knee_angle_r	ankle_angle_r	subtalar_angle_r	mtp_angle_r	hip_flexion_l	hip_adduction_l	hip_rotation_l	knee_angle_l	ankle_angle_l	subtalar_angle_l	mtp_angle_l	lumbar_extension	lumbar_bending	lumbar_rotation	arm_flex_r	arm_add_r	arm_rot_r	elbow_flex_r	pro_sup_r	wrist_flex_r	wrist_dev_r	arm_flex_l	arm_add_l	arm_rot_l	elbow_flex_l	pro_sup_l	wrist_flex_l	wrist_dev_l
2.92	-2.67599	-0.30152	-0.0848917	1.7522	-0.947183	0.205877	-0.346778	0.252559	0.0133408	0.560806	0.306879	0	0	0.0284532	-0.286194	-0.0439522	0.126135	0.0939621	0	0	-1.08829	0.219407	0.354063	0.974701	-0.689044	-0.0829492	0.931582	0.73095	0	0	0.864894	0.675665	0.0709767	0.95796	0.735203	0	0
2.92998	-2.6819	-0.305525	-0.0923049	1.73968	-0.946117	0.205878	-0.346581	0.248863	0.0217214	0.579473	0.319677	0	0	0.0315662	-0.288036	-0.050267	0.127995	0.0845347	0	0	-1.08499	0.218879	0.348699	0.97632	-0.687092	-0.0827144	0.932091	0.730885	0	0	0.866682	0.673864	0.0707059	0.958265	0.735116	0	0
2.93997	-2.68781	-0.309395	-0.0998123	1.72714	-0.945064	0.205885	-0.346383	0.24496	0.0298959	0.598134	0.332172	0	0	0.0345759	-0.28974	-0.0567601	0.130174	0.0747751	0	0	-1.08124	0.218141	0.343523	0.977939	-0.685141	-0.0824796	0.9326	0.730819	0	0	0.86847	0.672063	0.070435	0.95857	0.73503	0	0
2.94995	-2.69365	-0.312906	-0.107473	1.71459	-0.94405	0.205908	-0.346184	0.24055	0.0376052	0.61687	0.343851	0	0	0.0372507	-0.291072	-0.0636529	0.133044	0.0641501	0	0	-1.07655	0.216932	0.338703	0.979558	-0.683189	-0.0822447	0.933109	0.730754	0	0	0.870258	0.670261	0.0701641	0.958875	0.734943	0	0
2.95994	-2.69934	-0.31578	-0.115366	1.70201	-0.943106	0.205958	-0.345987	0.235268	0.0445712	0.635682	0.353997	0	0	0.0393934	-0.291741	-0.0711728	0.136956	0.0520921	0	0	-1.07006	0.215	0.334216	0.981177	-0.681237	-0.0820098	0.933619	0.730688	0	0	0.872046	0.668459	0.0698932	0.959181	0.734857	0	0
2.96992	-2.70483	-0.317765	-0.123485	1.68938	-0.942268	0.206044	-0.345792	0.228839	0.0506003	0.654545	0.362008	0	0	0.0408702	-0.291497	-0.0794429	0.142156	0.0381797	0	0	-1.06232	0.211953	0.330108	0.982796	-0.679285	-0.0817749	0.934128	0.730623	0	0	0.873834	0.666657	0.0696222	0.959486	0.73477	0	0
2.97991	-2.71001	-0.31867	-0.131723	1.67671	-0.941573	0.206174	-0.345604	0.221096	0.0555957	0.673519	0.367349	0	0	0.0415585	-0.29015	-0.0884889	0.148754	0.0221927	0	0	-1.05387	0.207564	0.32627	0.984415	-0.677332	-0.0815399	0.934637	0.730557	0	0	0.875623	0.664855	0.0693513	0.959791	0.734684	0	0
2.98989	-2.71477	-0.3183	-0.13997	1.66398	-0.941055	0.206353	-0.345427	0.211869	0.0593982	0.692605	0.369367	0	0	0.0414078	-0.28751	-0.0982796	0.156759	0.00421399	0	0	-1.04496	0.201671	0.322435	0.986035	-0.675379	-0.081305	0.935147	0.730492	0	0	0.877411	0.663052	0.0690802	0.960097	0.734597	0	0
2.99988	-2.7189	-0.316489	-0.148032	1.6512	-0.940746	0.20658	-0.34527	0.201023	0.0617155	0.711949	0.367394	0	0	0.0402961	-0.283392	-0.108641	0.166052	-0.0152975	0	0	-1.03594	0.194189	0.318334	0.987654	-0.673426	-0.08107	0.935656	0.730426	0	0	0.8792	0.66125	0.0688092	0.960402	0.73451	0	0
3.00986	-2.72211	-0.313156	-0.155605	1.63839	-0.940672	0.206849	-0.345143	0.188528	0.0621069	0.731889	0.36085	0	0	0.0379899	-0.277688	-0.119138	0.176416	-0.0355006	0	0	-1.02724	0.185167	0.313742	0.989274	-0.671473	-0.0808349	0.936166	0.730361	0	0	0.880989	0.659447	0.0685381	0.960708	0.734424	0	0
3.01985	-2.72405	-0.308359	-0.162361	1.62554	-0.940851	0.207151	-0.345059	0.174508	0.0602577	0.752779	0.349208	0	0	0.0341818	-0.270397	-0.129136	0.187542	-0.0553216	0	0	-1.01941	0.174805	0.308505	0.990893	-0.66952	-0.0805998	0.936675	0.730296	0	0	0.882777	0.657643	0.068267	0.961013	0.734337	0	0
3.02983	-2.72446	-0.302269	-0.168016	1.6127	-0.941294	0.207471	-0.345032	0.159205	0.0560481	0.774873	0.332046	0	0	0.0285733	-0.261624	-0.138027	0.1991	-0.0737121	0	0	-1.01289	0.163404	0.302537	0.992513	-0.667566	-0.0803647	0.937185	0.73023	0	0	0.884566	0.655839	0.0679958	0.961318	0.734251	0	0
3.03982	-2.72312	-0.29514	-0.17235	1.59987	-0.942003	0.207793	-0.345081	0.142931	0.0495345	0.79834	0.3091	0	0	0.0208804	-0.251556	-0.145408	0.210749	-0.0897942	0	0	-1.00808	0.151321	0.295829	0.994132	-0.665612	-0.0801296	0.937695	0.730165	0	0	0.886355	0.654036	0.0677246	0.961624	0.734164	0	0
3.0498	-2.71985	-0.287264	-0.17522	1.58709	-0.942972	0.208101	-0.34522	0.126015	0.0409125	0.823273	0.280344	0	0	0.01084	-0.240425	-0.151125	0.222136	-0.102899	0	0	-1.00533	0.138931	0.288404	0.995751	-0.663657	-0.0798944	0.938204	0.730099	0	0	0.888144	0.652231	0.0674534	0.961929	0.734078	0	0
3.05979	-2.71461	-0.278851	-0.176595	1.57439	-0.944189	0.208376	-0.345465	0.108706	0.03052	0.849505	0.246033	0	0	-0.0016342	-0.22842	-0.155292	0.233019	-0.112578	0	0	-1.00474	0.126526	0.280246	0.997371	-0.661703	-0.0796592	0.938714	0.730034	0	0	0.889932	0.650427	0.0671821	0.962234	0.733991	0	0
3.06977	-2.70739	-0.270099	-0.176519	1.56178	-0.945635	0.208603	-0.345827	0.0912194	0.0187659	0.876821	0.206807	0	0	-0.0166052	-0.21573	-0.15813	0.243171	-0.118626	0	0	-1.00639	0.114357	0.271358	0.99899	-0.659748	-0.079424	0.939223	0.729969	0	0	0.891721	0.648622	0.0669108	0.96254	0.733905	0	0
3.07976	-2.69822	-0.261196	-0.175088	1.54929	-0.947285	0.20877	-0.346306	0.0737553	0.00611047	0.904953	0.163755	0	0	-0.0340951	-0.202543	-0.159866	0.252393	-0.121072	0	0	-1.01034	0.102644	0.261776	1.00061	-0.657792	-0.0791887	0.939733	0.729903	0	0	0.89351	0.646816	0.0666395	0.962845	0.733818	0	0
3.08974	-2.68715	-0.252312	-0.172424	1.53694	-0.949114	0.208869	-0.346889	0.0565187	-0.00698467	0.933578	0.118407	0	0	-0.0540646	-0.189058	-0.160719	0.260541	-0.120134	0	0	-1.01663	0.0915815	0.251568	1.00223	-0.655837	-0.0789533	0.940243	0.729838	0	0	0.895298	0.645011	0.0663681	0.96315	0.733732	0	0
3.09972	-2.67433	-0.243599	-0.168656	1.52475	-0.95109	0.208898	-0.347544	0.0397265	-0.0201011	0.962322	0.0726564	0	0	-0.076391	-0.175491	-0.160914	0.267545	-0.116183	0	0	-1.02523	0.0813395	0.240821	1.00385	-0.653881	-0.078718	0.940752	0.729773	0	0	0.897086	0.643205	0.0660966	0.963455	0.733645	0	0
3.10971	-2.65993	-0.235184	-0.163905	1.51272	-0.953181	0.20886	-0.34821	0.0236175	-0.0328946	0.990759	0.0286002	0	0	-0.100855	-0.162075	-0.16067	0.273418	-0.109674	0	0	-1.03603	0.072064	0.229632	1.00546	-0.651924	-0.0784825	0.941262	0.729707	0	0	0.898875	0.641398	0.0658251	0.963761	0.733558	0	0
3.11969	-2.64422	-0.227144	-0.158265	1.50086	-0.955354	0.208765	-0.348791	0.00845064	-0.0451303	1.01842	-0.0116556	0	0	-0.127129	-0.149042	-0.16015	0.278261	-0.101099	0	0	-1.04883	0.0638593	0.218088	1.00708	-0.649968	-0.0782471	0.941772	0.729642	0	0	0.900663	0.639591	0.0655536	0.964066	0.733472	0	0
3.12968	-2.62751	-0.219506	-0.151794	1.48917	-0.957577	0.208628	-0.349147	-0.0055037	-0.056681	1.0448	-0.0462095	0	0	-0.154777	-0.136611	-0.159434	0.28225	-0.0909504	0	0	-1.06335	0.0567866	0.206254	1.0087	-0.648011	-0.0780115	0.942281	0.729576	0	0	0.902451	0.637784	0.065282	0.964371	0.733385	0	0
3.13966	-2.61021	-0.212223	-0.144523	1.47765	-0.959815	0.208468	-0.349087	-0.017999	-0.0675142	1.06935	-0.0735634	0	0	-0.183238	-0.124963	-0.158517	0.285643	-0.0797161	0	0	-1.07916	0.0508477	0.194154	1.01032	-0.646053	-0.0777759	0.942791	0.729511	0	0	0.904239	0.635976	0.0650103	0.964676	0.733299	0	0
3.14965	-2.59281	-0.205185	-0.136478	1.46628	-0.962034	0.208309	-0.348363	-0.0288546	-0.0776632	1.09146	-0.0928086	0	0	-0.211809	-0.11422	-0.157325	0.28877	-0.0678474	0	0	-1.09565	0.0460076	0.181778	1.01194	-0.644094	-0.0775403	0.943301	0.729446	0	0	0.906027	0.634167	0.0647385	0.964981	0.733212	0	0
3.15963	-2.57591	-0.198214	-0.127679	1.45506	-0.964203	0.208176	-0.346669	-0.0379911	-0.0872269	1.11044	-0.103718	0	0	-0.239652	-0.104435	-0.155708	0.292022	-0.0557202	0	0	-1.11204	0.0422047	0.169075	1.01356	-0.642135	-0.0773045	0.94381	0.729381	0	0	0.907815	0.632358	0.0644667	0.965286	0.733126	0	0
3.16962	-2.56013	-0.191125	-0.118149	1.44397	-0.966291	0.208094	-0.343653	-0.0454244	-0.0963583	1.12573	-0.106683	0	0	-0.265954	-0.0956087	-0.153464	0.295724	-0.0436298	0	0	-1.12755	0.0393727	0.155978	1.01517	-0.640176	-0.0770687	0.94432	0.729315	0	0	0.909603	0.630548	0.0641947	0.965591	0.733039	0	0
3.1796	-2.54604	-0.183748	-0.107954	1.43299	-0.968267	0.208086	-0.338918	-0.0512586	-0.10521	1.1369	-0.102538	0	0	-0.289966	-0.0876925	-0.150395	0.300133	-0.0317914	0	0	-1.14144	0.0374249	0.142417	1.01679	-0.638215	-0.0768328	0.94483	0.72925	0	0	0.911391	0.628737	0.0639227	0.965896	0.732953	0	0
3.18959	-2.5342	-0.175936	-0.0972189	1.42211	-0.970105	0.208174	-0.332068	-0.055684	-0.113906	1.14368	-0.0923972	0	0	-0.31104	-0.0805889	-0.146346	0.305416	-0.0203442	0	0	-1.15296	0.036241	0.128337	1.01841	-0.636254	-0.0765968	0.945339	0.729185	0	0	0.913179	0.626925	0.0636506	0.9662	0.732866	0	0
3.19957	-2.52502	-0.167597	-0.0860925	1.41131	-0.971782	0.208376	-0.322744	-0.0589327	-0.122549	1.146	-0.077567	0	0	-0.328764	-0.0741812	-0.141224	0.311579	-0.0093476	0	0	-1.16167	0.0356776	0.113717	1.02003	-0.634293	-0.0763607	0.945849	0.729119	0	0	0.914966	0.625113	0.0633784	0.966505	0.73278	0	0
3.20956	-2.51872	-0.158695	-0.0747382	1.40058	-0.973278	0.208707	-0.310695	-0.0612659	-0.131212	1.14394	-0.0594314	0	0	-0.342994	-0.0683279	-0.134987	0.318459	0.00120345	0	0	-1.1674	0.0355669	0.0985837	1.02164	-0.632331	-0.0761246	0.946359	0.729054	0	0	0.916754	0.6233	0.0631061	0.96681	0.732693	0	0
3.21954	-2.51533	-0.149246	-0.0633461	1.38991	-0.974576	0.209179	-0.295868	-0.0629855	-0.139934	1.13765	-0.0393423	0	0	-0.353915	-0.062856	-0.12762	0.325736	0.0113571	0	0	-1.17014	0.035716	0.0830061	1.02326	-0.630367	-0.0758883	0.946868	0.728989	0	0	0.91854	0.621486	0.0628337	0.967114	0.732607	0	0
3.22953	-2.51466	-0.139258	-0.0520758	1.37928	-0.975666	0.209799	-0.278492	-0.0643709	-0.148677	1.12721	-0.0185733	0	0	-0.361905	-0.0575667	-0.119152	0.333071	0.0211858	0	0	-1.17019	0.0359045	0.0670845	1.02487	-0.628404	-0.075652	0.947378	0.728924	0	0	0.920327	0.619671	0.0625612	0.967419	0.73252	0	0
3.23951	-2.51641	-0.128729	-0.0410555	1.36869	-0.976539	0.21057	-0.259002	-0.0656717	-0.15734	1.11258	0.001731	0	0	-0.36744	-0.0522499	-0.10964	0.340176	0.0307767	0	0	-1.16806	0.0359014	0.0509249	1.02649	-0.626439	-0.0754156	0.947888	0.728859	0	0	0.922113	0.617856	0.0622887	0.967723	0.732434	0	0
3.2495	-2.52021	-0.117647	-0.0303721	1.35812	-0.977188	0.211493	-0.237924	-0.0671227	-0.165852	1.09371	0.020643	0	0	-0.37102	-0.0467109	-0.0991553	0.346855	0.0402429	0	0	-1.16422	0.0354962	0.0346416	1.0281	-0.624474	-0.0751791	0.948397	0.728793	0	0	0.923899	0.616039	0.062016	0.968027	0.732347	0	0
3.25948	-2.5257	-0.10599	-0.020068	1.34756	-0.977612	0.212567	-0.215817	-0.0689328	-0.174167	1.07059	0.0374577	0	0	-0.373118	-0.0407813	-0.0877602	0.353005	0.0497061	0	0	-1.15909	0.0345048	0.0183576	1.02972	-0.622508	-0.0749424	0.948906	0.728728	0	0	0.925685	0.614222	0.0617432	0.968331	0.732261	0	0
3.26946	-2.53252	-0.0937166	-0.010147	1.33701	-0.977809	0.213789	-0.193234	-0.0712859	-0.182266	1.04323	0.0516703	0	0	-0.374151	-0.0343158	-0.0754825	0.358609	0.0592791	0	0	-1.15303	0.0327683	0.0021829	1.03133	-0.620541	-0.0747057	0.949416	0.728663	0	0	0.927469	0.612403	0.0614703	0.968635	0.732174	0	0
3.27945	-2.54034	-0.0807707	-0.000579305	1.32646	-0.97778	0.215152	-0.170681	-0.0743449	-0.190144	1.01169	0.0629646	0	0	-0.37447	-0.0271954	-0.0623223	0.363735	0.069063	0	0	-1.14636	0.0301516	-0.0137953	1.03294	-0.618573	-0.0744689	0.949925	0.728598	0	0	0.929254	0.610584	0.0611973	0.968938	0.732088	0	0
3.28943	-2.54889	-0.067084	0.00868625	1.31589	-0.977526	0.21665	-0.148591	-0.078249	-0.197794	0.976108	0.0712073	0	0	-0.374356	-0.0193243	-0.0482546	0.368504	0.079149	0	0	-1.13936	0.0265469	-0.0295332	1.03456	-0.616605	-0.074232	0.950434	0.728533	0	0	0.931038	0.608764	0.0609242	0.969242	0.732001	0	0
3.29942	-2.55794	-0.0525936	0.0177097	1.3053	-0.977048	0.218275	-0.127306	-0.0831115	-0.205192	0.936676	0.0764197	0	0	-0.374022	-0.0106326	-0.0332362	0.373068	0.0895997	0	0	-1.13228	0.0218789	-0.0450419	1.03617	-0.614635	-0.073995	0.950943	0.728468	0	0	0.932821	0.606943	0.060651	0.969545	0.731914	0	0
3.3094	-2.5673	-0.0372525	0.0265476	1.29468	-0.97635	0.220018	-0.107078	-0.0890145	-0.212285	0.893662	0.0787342	0	0	-0.37362	-0.00107278	-0.0172233	0.377589	0.100435	0	0	-1.1253	0.0161014	-0.0603788	1.03778	-0.612665	-0.0737578	0.951452	0.728403	0	0	0.934604	0.60512	0.0603777	0.969848	0.731828	0	0
3.31939	-2.57692	-0.0210568	0.0352677	1.28402	-0.975434	0.22187	-0.0879712	-0.0960149	-0.219075	0.847515	0.0784042	0	0	-0.373251	0.0093511	-0.00019465	0.382153	0.111694	0	0	-1.11842	0.00924161	-0.0756217	1.03939	-0.610694	-0.0735206	0.951961	0.728337	0	0	0.936386	0.603297	0.0601043	0.970151	0.731741	0	0
3.32937	-2.58675	-0.00403901	0.0439334	1.27331	-0.974306	0.223819	-0.0699806	-0.104123	-0.225537	0.798723	0.0757564	0	0	-0.372977	0.0205996	0.0178491	0.386839	0.123395	0	0	-1.11159	0.00136355	-0.0908543	1.041	-0.608722	-0.0732832	0.952469	0.728272	0	0	0.938168	0.601472	0.0598307	0.970454	0.731655	0	0
3.33936	-2.59677	0.0137465	0.0525977	1.26255	-0.972973	0.225855	-0.0530524	-0.113323	-0.231617	0.747805	0.0711937	0	0	-0.372828	0.0326067	0.0368622	0.391732	0.135534	0	0	-1.10482	-0.00744732	-0.106142	1.0426	-0.606748	-0.0730457	0.952978	0.728207	0	0	0.939949	0.599646	0.059557	0.970756	0.731568	0	0
3.34934	-2.60698	0.0322217	0.0613033	1.25171	-0.971444	0.227965	-0.0371079	-0.123574	-0.237239	0.695305	0.0651931	0	0	-0.372812	0.0452823	0.0567423	0.39693	0.148096	0	0	-1.09809	-0.0170913	-0.121528	1.04421	-0.604774	-0.0728081	0.953487	0.728142	0	0	0.941729	0.597819	0.0592831	0.971059	0.731482	0	0
3.35933	-2.61735	0.0512866	0.0700853	1.24079	-0.969731	0.230136	-0.0220657	-0.134808	-0.242301	0.641785	0.0582871	0	0	-0.372921	0.0585099	0.0773364	0.402545	0.161047	0	0	-1.09147	-0.0274567	-0.137021	1.04582	-0.602798	-0.0725703	0.953995	0.728077	0	0	0.943509	0.59599	0.059009	0.971361	0.731395	0	0
3.36931	-2.62792	0.0707859	0.0790176	1.22979	-0.96785	0.232356	-0.00773019	-0.146928	-0.246793	0.588	0.0510687	0	0	-0.373142	0.0721011	0.0984321	0.408611	0.174403	0	0	-1.08478	-0.0383674	-0.152563	1.04742	-0.600821	-0.0723323	0.954503	0.728012	0	0	0.945288	0.59416	0.0587349	0.971662	0.731309	0	0
3.3793	-2.63871	0.0905285	0.0881806	1.2187	-0.965819	0.234611	0.00606483	-0.159786	-0.250695	0.534709	0.0441337	0	0	-0.373454	0.0858215	0.119775	0.415171	0.188163	0	0	-1.07788	-0.0496171	-0.16805	1.04903	-0.598843	-0.0720942	0.955011	0.727947	0	0	0.947066	0.592329	0.0584605	0.971964	0.731222	0	0
3.38928	-2.6497	0.110303	0.0976421	1.2075	-0.963662	0.236888	0.019438	-0.173198	-0.253957	0.482665	0.0380229	0	0	-0.373835	0.0994187	0.141088	0.422294	0.202313	0	0	-1.07071	-0.0609936	-0.18335	1.05063	-0.596864	-0.071856	0.955519	0.727882	0	0	0.948844	0.590496	0.058186	0.972265	0.731136	0	0
3.39927	-2.66085	0.12989	0.107447	1.1962	-0.961405	0.239172	0.0324483	-0.186957	-0.256497	0.432594	0.0331651	0	0	-0.374266	0.11264	0.16209	0.430081	0.216819	0	0	-1.06327	-0.0722866	-0.198328	1.05223	-0.594883	-0.0716175	0.956027	0.727817	0	0	0.95062	0.588661	0.0579113	0.972566	0.731049	0	0
3.40925	-2.67208	0.14907	0.117607	1.18479	-0.959079	0.241449	0.0450847	-0.200839	-0.258217	0.385182	0.0298289	0	0	-0.374727	0.125252	0.182507	0.438668	0.231622	0	0	-1.05566	-0.0832992	-0.21287	1.05383	-0.592901	-0.071379	0.956534	0.727752	0	0	0.952396	0.586825	0.0576365	0.972867	0.730962	0	0
3.41924	-2.68323	0.167647	0.12808	1.17327	-0.956716	0.243704	0.0572557	-0.214631	-0.259029	0.341043	0.0280921	0	0	-0.375204	0.13706	0.202077	0.448237	0.246627	0	0	-1.04807	-0.0938694	-0.226888	1.05543	-0.590918	-0.0711402	0.957042	0.727688	0	0	0.954171	0.584988	0.0573615	0.973167	0.730876	0	0
3.42922	-2.69412	0.185457	0.138761	1.16162	-0.954351	0.245923	0.0687806	-0.228136	-0.258872	0.300695	0.027839	0	0	-0.375683	0.147932	0.220562	0.459016	0.261695	0	0	-1.04086	-0.10389	-0.240324	1.05703	-0.588933	-0.0709013	0.957549	0.727623	0	0	0.955944	0.583149	0.0570863	0.973467	0.730789	0	0
3.4392	-2.7046	0.202347	0.149553	1.14985	-0.952019	0.248088	0.0795209	-0.241179	-0.257807	0.264676	0.0287976	0	0	-0.376155	0.15774	0.23773	0.471142	0.276689	0	0	-1.03419	-0.113259	-0.253102	1.05863	-0.586947	-0.0706623	0.958056	0.727558	0	0	0.957717	0.581308	0.0568109	0.973767	0.730703	0	0
3.44919	-2.71459	0.218167	0.160386	1.13794	-0.949756	0.250182	0.0893696	-0.253583	-0.256038	0.233502	0.0305889	0	0	-0.376613	0.166341	0.253357	0.484667	0.291453	0	0	-1.02808	-0.121856	-0.265135	1.06023	-0.584959	-0.070423	0.958563	0.727493	0	0	0.959488	0.579465	0.0565353	0.974066	0.730616	0	0
3.45917	-2.72399	0.232777	0.171217	1.12589	-0.947596	0.252188	0.0982257	-0.265172	-0.253877	0.20759	0.0327522	0	0	-0.377051	0.173573	0.267238	0.499577	0.305793	0	0	-1.02244	-0.129542	-0.276332	1.06182	-0.58297	-0.0701836	0.959069	0.727428	0	0	0.961258	0.577621	0.0562596	0.974365	0.730529	0	0
3.46916	-2.73277	0.246044	0.182031	1.11368	-0.945571	0.254089	0.10596	-0.275757	-0.251692	0.187166	0.0347486	0	0	-0.377466	0.17927	0.279208	0.515819	0.319457	0	0	-1.0171	-0.136167	-0.286594	1.06341	-0.58098	-0.069944	0.959575	0.727363	0	0	0.963027	0.575775	0.0559837	0.974663	0.730443	0	0
3.47914	-2.74081	0.257858	0.192793	1.1013	-0.943709	0.25587	0.112348	-0.28514	-0.249824	0.172187	0.0359605	0	0	-0.377856	0.183295	0.289164	0.533411	0.332102	0	0	-1.01207	-0.141597	-0.295848	1.065	-0.578988	-0.0697042	0.960081	0.727299	0	0	0.964795	0.573927	0.0557076	0.974961	0.730356	0	0
3.48913	-2.74807	0.268084	0.203542	1.08875	-0.942034	0.257518	0.117233	-0.293104	-0.248678	0.162465	0.0357305	0	0	-0.378221	0.18544	0.297016	0.552235	0.343347	0	0	-1.00715	-0.145648	-0.303979	1.06659	-0.576995	-0.0694642	0.960586	0.727234	0	0	0.966561	0.572077	0.0554312	0.975259	0.73027	0	0
3.49911	-2.75448	0.276628	0.214273	1.07601	-0.940565	0.259023	0.120474	-0.299466	-0.248585	0.157666	0.0334063	0	0	-0.378561	0.18555	0.302701	0.572231	0.352768	0	0	-1.00229	-0.148181	-0.310912	1.06818	-0.575	-0.0692241	0.961092	0.727169	0	0	0.968326	0.570225	0.0551547	0.975556	0.730183	0	0
3.5091	-2.7599	0.28344	0.224915	1.06308	-0.939314	0.260381	0.121966	-0.304091	-0.249799	0.157353	0.0284178	0	0	-0.378877	0.183549	0.306176	0.593414	0.359895	0	0	-0.997541	-0.149119	-0.316613	1.06977	-0.573003	-0.0689837	0.961597	0.727104	0	0	0.970089	0.568372	0.054878	0.975852	0.730096	0	0
3.51908	-2.76424	0.288451	0.235409	1.04994	-0.938285	0.261596	0.121707	-0.306836	-0.252576	0.161004	0.0203562	0	0	-0.379173	0.179337	0.307378	0.615688	0.364221	0	0	-0.99288	-0.148373	-0.321038	1.07135	-0.571005	-0.0687432	0.962101	0.72704	0	0	0.971851	0.566517	0.0546011	0.976149	0.73001	0	0
3.52907	-2.76745	0.291546	0.24572	1.03659	-0.937473	0.262678	0.119791	-0.307517	-0.257174	0.168051	0.00903792	0	0	-0.379451	0.17275	0.306184	0.638854	0.365178	0	0	-0.988171	-0.145808	-0.32412	1.07293	-0.569006	-0.0685024	0.962605	0.726975	0	0	0.973611	0.564659	0.054324	0.976444	0.729923	0	0
3.53905	-2.76949	0.292565	0.255839	1.02304	-0.936866	0.263643	0.116372	-0.305923	-0.263811	0.177923	-0.00543704	0	0	-0.379716	0.163557	0.302416	0.66263	0.362123	0	0	-0.983192	-0.141244	-0.325773	1.07451	-0.567004	-0.0682614	0.963109	0.72691	0	0	0.97537	0.562799	0.0540466	0.976739	0.729836	0	0
3.54904	-2.77024	0.291389	0.265714	1.00928	-0.936444	0.26452	0.111539	-0.301866	-0.272492	0.19004	-0.0226185	0	0	-0.379976	0.151579	0.295874	0.686876	0.35435	0	0	-0.977926	-0.134518	-0.325956	1.07609	-0.565	-0.0680202	0.963613	0.726846	0	0	0.977127	0.560937	0.053769	0.977034	0.729749	0	0
3.55902	-2.76943	0.288038	0.275143	0.995327	-0.936181	0.26534	0.105209	-0.295276	-0.282786	0.203789	-0.0416453	0	0	-0.380237	0.136842	0.286376	0.711727	0.341194	0	0	-0.972775	-0.125631	-0.324725	1.07767	-0.562995	-0.0677787	0.964116	0.726781	0	0	0.978883	0.559072	0.0534911	0.977328	0.729663	0	0
3.56901	-2.76681	0.282656	0.283866	0.981201	-0.936047	0.266142	0.0972203	-0.286197	-0.293924	0.218592	-0.0612875	0	0	-0.380512	0.11956	0.273855	0.737371	0.322069	0	0	-0.968241	-0.114739	-0.322155	1.07924	-0.560987	-0.067537	0.964619	0.726716	0	0	0.980636	0.557206	0.053213	0.977622	0.729576	0	0
3.57899	-2.76217	0.275461	0.291638	0.966931	-0.936015	0.266967	0.0874492	-0.274752	-0.305089	0.234012	-0.0801745	0	0	-0.38081	0.100052	0.258404	0.763904	0.296496	0	0	-0.964743	-0.102108	-0.318313	1.08081	-0.558978	-0.0672951	0.965121	0.726652	0	0	0.982388	0.555337	0.0529346	0.977915	0.729489	0	0
3.58898	-2.75545	0.266724	0.298236	0.952564	-0.936066	0.267847	0.075827	-0.261157	-0.315697	0.249737	-0.0970602	0	0	-0.381148	0.0787406	0.240295	0.791309	0.264165	0	0	-0.962594	-0.0880915	-0.313266	1.08238	-0.556966	-0.0670529	0.965623	0.726587	0	0	0.984138	0.553465	0.052656	0.978207	0.729402	0	0
3.59896	-2.7466	0.25678	0.303474	0.938163	-0.936199	0.268808	0.0623083	-0.245723	-0.325423	0.265472	-0.110961	0	0	-0.381539	0.0561395	0.219993	0.819491	0.225043	0	0	-0.962048	-0.0731354	-0.307092	1.08395	-0.554953	-0.0668104	0.966125	0.726522	0	0	0.985887	0.551591	0.0523771	0.978499	0.729315	0	0
3.60894	-2.73559	0.246092	0.307157	0.923824	-0.936445	0.269852	0.0467155	-0.228887	-0.333976	0.280779	-0.121237	0	0	-0.381998	0.0329272	0.198107	0.848479	0.179534	0	0	-0.96357	-0.0578291	-0.29992	1.08551	-0.552937	-0.0665677	0.966626	0.726458	0	0	0.987633	0.549714	0.052098	0.97879	0.729229	0	0
3.61893	-2.72248	0.235129	0.309161	0.909674	-0.93688	0.270949	0.0289015	-0.211121	-0.341157	0.295208	-0.127624	0	0	-0.382539	0.00980735	0.175418	0.8782	0.128476	0	0	-0.96752	-0.0427762	-0.29187	1.08707	-0.55092	-0.0663248	0.967127	0.726393	0	0	0.989377	0.547835	0.0518185	0.97908	0.729142	0	0
3.62891	-2.70735	0.224321	0.30948	0.89589	-0.93764	0.272023	0.00875442	-0.192887	-0.346888	0.308341	-0.130203	0	0	-0.383171	-0.0125648	0.152811	0.908499	0.0731186	0	0	-0.974148	-0.0285082	-0.283063	1.08863	-0.5489	-0.0660816	0.967627	0.726329	0	0	0.991119	0.545953	0.0515389	0.97937	0.729055	0	0
3.6389	-2.69037	0.214029	0.308192	0.882705	-0.938942	0.272941	-0.0137728	-0.174613	-0.35122	0.319847	-0.129294	0	0	-0.383895	-0.0336098	0.131161	0.939144	0.0151096	0	0	-0.983582	-0.0154571	-0.273631	1.09019	-0.546878	-0.0658381	0.968126	0.726264	0	0	0.992858	0.544068	0.0512589	0.979659	0.728968	0	0
3.64888	-2.67175	0.204516	0.305432	0.870416	-0.941096	0.273496	-0.0386145	-0.156676	-0.354313	0.329542	-0.125335	0	0	-0.3847	-0.0528443	0.111234	0.969808	-0.0436039	0	0	-0.995778	-0.00393728	-0.263704	1.09174	-0.544853	-0.0655943	0.968625	0.7262	0	0	0.994596	0.542181	0.0509786	0.979947	0.728881	0	0
3.65887	-2.65176	0.195936	0.301351	0.859397	-0.944524	0.273397	-0.0655731	-0.139393	-0.356368	0.337407	-0.118805	0	0	-0.38556	-0.0698859	0.0935916	1.00008	-0.100878	0	0	-1.01051	0.00585253	-0.253408	1.09329	-0.542827	-0.0653503	0.969124	0.726135	0	0	0.996331	0.540291	0.0506981	0.980234	0.728794	0	0
3.66885	-2.63072	0.188319	0.296093	0.850086	-0.949767	0.272269	-0.0942799	-0.123013	-0.357588	0.343606	-0.110175	0	0	-0.386421	-0.0844481	0.0785762	1.02945	-0.154469	0	0	-1.02736	0.0138306	-0.242837	1.09484	-0.540798	-0.065106	0.969622	0.726071	0	0	0.998063	0.538398	0.0504173	0.980521	0.728707	0	0
3.67884	-2.60916	0.181559	0.289763	0.840816	-0.954688	0.271234	-0.12422	-0.107717	-0.358164	0.348494	-0.0998992	0	0	-0.387224	-0.0963389	0.0663277	1.05729	-0.202189	0	0	-1.04565	0.0200686	-0.232047	1.09639	-0.538768	-0.0648614	0.970119	0.726007	0	0	0.999794	0.536503	0.0501362	0.980807	0.72862	0	0
3.68882	-2.58753	0.175477	0.282468	0.831535	-0.959273	0.270258	-0.154746	-0.0936393	-0.35824	0.352507	-0.0884273	0	0	-0.387849	-0.105441	0.0567808	1.08297	-0.24208	0	0	-1.06463	0.0246738	-0.221057	1.09793	-0.536737	-0.0646167	0.970614	0.725942	0	0	1.00152	0.534607	0.0498549	0.981091	0.728533	0	0
3.69881	-2.56622	0.169901	0.274267	0.822213	-0.96352	0.269315	-0.185258	-0.0809073	-0.357879	0.356037	-0.0761794	0	0	-0.388132	-0.111709	0.0496477	1.10596	-0.272671	0	0	-1.0837	0.0277534	-0.209876	1.09947	-0.534705	-0.0643718	0.971109	0.725878	0	0	1.00325	0.532708	0.0495734	0.981375	0.728446	0	0
3.70879	-2.54573	0.164584	0.265227	0.812807	-0.96742	0.268374	-0.215033	-0.0695727	-0.357107	0.359545	-0.0635281	0	0	-0.387865	-0.115236	0.0445269	1.12568	-0.293164	0	0	-1.10211	0.0294779	-0.198457	1.10101	-0.532672	-0.0641267	0.971603	0.725813	0	0	1.00497	0.530808	0.0492917	0.981657	0.728359	0	0
3.71878	-2.52651	0.159262	0.255442	0.803283	-0.970965	0.267411	-0.243364	-0.0596235	-0.355916	0.363447	-0.0507711	0	0	-0.386791	-0.116265	0.0409171	1.14162	-0.303471	0	0	-1.11914	0.0300426	-0.186727	1.10254	-0.530638	-0.0638813	0.972095	0.725749	0	0	1.0067	0.528906	0.0490096	0.981939	0.728271	0	0
3.72876	-2.50906	0.153675	0.245043	0.793601	-0.974148	0.266411	-0.269575	-0.0509796	-0.35427	0.368106	-0.0381274	0	0	-0.384605	-0.115175	0.0382719	1.15335	-0.30408	0	0	-1.1341	0.0296666	-0.174589	1.10407	-0.528603	-0.0636357	0.972587	0.725685	0	0	1.00842	0.527002	0.0487273	0.982219	0.728184	0	0
3.73875	-2.49373	0.147613	0.234141	0.783761	-0.976983	0.26537	-0.29315	-0.0435276	-0.352119	0.373712	-0.025723	0	0	-0.380976	-0.112408	0.0359967	1.16066	-0.295933	0	0	-1.14667	0.0285592	-0.161961	1.1056	-0.526566	-0.0633898	0.973077	0.72562	0	0	1.01014	0.525096	0.0484446	0.982498	0.728097	0	0
3.74873	-2.4809	0.140897	0.222901	0.773758	-0.979477	0.264293	-0.313637	-0.0371046	-0.349385	0.380387	-0.0136217	0	0	-0.37557	-0.108466	0.0335509	1.16343	-0.280232	0	0	-1.15649	0.0269294	-0.14876	1.10712	-0.524529	-0.0631436	0.973566	0.725556	0	0	1.01185	0.523189	0.0481616	0.982775	0.72801	0	0
3.75872	-2.47082	0.133417	0.211491	0.763608	-0.981655	0.263187	-0.330768	-0.0315207	-0.345983	0.388096	-0.00182767	0	0	-0.368087	-0.103853	0.0304812	1.16166	-0.258375	0	0	-1.16346	0.024979	-0.134931	1.10864	-0.522491	-0.0628972	0.974053	0.725491	0	0	1.01357	0.521279	0.0478783	0.983052	0.727922	0	0
3.7687	-2.46363	0.125136	0.200085	0.753336	-0.983556	0.262063	-0.344492	-0.0265695	-0.341824	0.396649	0.00969606	0	0	-0.358319	-0.0990284	0.026458	1.15542	-0.231873	0	0	-1.16769	0.0229	-0.120448	1.11016	-0.520452	-0.0626506	0.974538	0.725427	0	0	1.01528	0.519368	0.0475947	0.983326	0.727835	0	0
3.77869	-2.45929	0.116091	0.188875	0.742962	-0.985225	0.26093	-0.355036	-0.022018	-0.336816	0.405697	0.0210099	0	0	-0.346236	-0.0944163	0.021284	1.14482	-0.202232	0	0	-1.16941	0.0208822	-0.105311	1.11167	-0.518412	-0.0624037	0.975022	0.725362	0	0	1.01698	0.517456	0.0473108	0.9836	0.727748	0	0
3.78867	-2.45759	0.106326	0.178014	0.732501	-0.986703	0.259792	-0.362791	-0.0176199	-0.330885	0.414924	0.0321832	0	0	-0.332064	-0.0903804	0.0148802	1.12989	-0.170844	0	0	-1.16892	0.0191186	-0.089533	1.11318	-0.516372	-0.0621566	0.975505	0.725298	0	0	1.01869	0.515542	0.0470266	0.983871	0.72766	0	0
3.79865	-2.45821	0.0958734	0.167608	0.721972	-0.988045	0.25865	-0.368236	-0.0131162	-0.323984	0.424048	0.0432791	0	0	-0.316235	-0.0872205	0.00727725	1.11052	-0.138976	0	0	-1.1667	0.0178118	-0.0731452	1.11469	-0.514331	-0.0619092	0.975985	0.725233	0	0	1.02039	0.513626	0.0467422	0.984142	0.727573	0	0
3.80864	-2.46078	0.0847441	0.157725	0.71139	-0.989295	0.257502	-0.371859	-0.00826606	-0.31608	0.432872	0.0543677	0	0	-0.299272	-0.0851907	-0.00146924	1.08662	-0.107718	0	0	-1.1632	0.0171492	-0.0561877	1.11618	-0.51229	-0.0616617	0.976464	0.725169	0	0	1.02208	0.51171	0.0464575	0.98441	0.727485	0	0
3.81862	-2.46493	0.0729338	0.148402	0.700757	-0.990486	0.256346	-0.374116	-0.00285715	-0.307145	0.441276	0.0655206	0	0	-0.281697	-0.0844906	-0.0112835	1.05814	-0.0779973	0	0	-1.15879	0.0172936	-0.0387007	1.11768	-0.510248	-0.0614139	0.976941	0.725104	0	0	1.02378	0.509792	0.0461727	0.984678	0.727397	0	0
3.82861	-2.47031	0.0604258	0.139646	0.690074	-0.991641	0.255176	-0.375411	0.00328511	-0.297168	0.449212	0.0768027	0	0	-0.264	-0.0852619	-0.0220652	1.02507	-0.0505852	0	0	-1.15379	0.0183793	-0.0207287	1.11917	-0.508206	-0.0611659	0.977417	0.72504	0	0	1.02547	0.507873	0.0458876	0.984944	0.72731	0	0
3.83859	-2.47663	0.0471986	0.131448	0.679336	-0.992772	0.25399	-0.376079	0.0102966	-0.286154	0.456693	0.0882656	0	0	-0.246615	-0.087582	-0.0336875	0.987482	-0.0261078	0	0	-1.14843	0.0205131	-0.00232424	1.12065	-0.506163	-0.0609176	0.977891	0.724975	0	0	1.02716	0.505953	0.0456023	0.985209	0.727222	0	0
3.84858	-2.48365	0.0332356	0.123789	0.668537	-0.99388	0.252785	-0.376384	0.0182671	-0.274125	0.463771	0.0999455	0	0	-0.229885	-0.0914721	-0.0459965	0.945534	-0.00501264	0	0	-1.1429	0.0237683	0.016447	1.12214	-0.504119	-0.060669	0.978364	0.724911	0	0	1.02884	0.504032	0.0453167	0.985472	0.727135	0	0
3.85856	-2.49119	0.0185306	0.116652	0.657666	-0.994957	0.251561	-0.376527	0.0272538	-0.261128	0.470517	0.111862	0	0	-0.21405	-0.0969066	-0.058814	0.899496	0.0124733	0	0	-1.1373	0.0281831	0.03551	1.12361	-0.502075	-0.0604202	0.978835	0.724846	0	0	1.03053	0.502109	0.0450309	0.985734	0.727047	0	0
3.86855	-2.49914	0.00309409	0.110024	0.646712	-0.995986	0.250322	-0.376648	0.0372775	-0.247231	0.477001	0.124024	0	0	-0.199223	-0.10382	-0.0719368	0.849763	0.0263503	0	0	-1.13168	0.0337688	0.0547781	1.12508	-0.50003	-0.060171	0.979305	0.724782	0	0	1.0322	0.500185	0.0447447	0.985995	0.726959	0	0
3.87853	-2.50742	-0.0130424	0.103894	0.635665	-0.996942	0.249074	-0.376843	0.0483169	-0.232527	0.483283	0.136429	0	0	-0.185407	-0.112107	-0.0851349	0.796857	0.0368235	0	0	-1.12602	0.0405005	0.0741528	1.12655	-0.497983	-0.0599214	0.979773	0.724717	0	0	1.03388	0.498258	0.0444582	0.986254	0.726871	0	0
3.88852	-2.516	-0.0298286	0.0982492	0.624514	-0.997798	0.247823	-0.377165	0.0603241	-0.217128	0.489421	0.149072	0	0	-0.172522	-0.121638	-0.0981484	0.7414	0.0442523	0	0	-1.12032	0.0483321	0.0935262	1.12802	-0.495935	-0.0596714	0.980239	0.724652	0	0	1.03555	0.49633	0.0441713	0.986511	0.726784	0	0
3.8985	-2.52487	-0.0471951	0.0930702	0.613251	-0.998526	0.246577	-0.377641	0.0732213	-0.201164	0.495473	0.161951	0	0	-0.160423	-0.132264	-0.110689	0.684096	0.0491173	0	0	-1.11451	0.0571952	0.112788	1.12948	-0.493886	-0.0594211	0.980705	0.724588	0	0	1.03722	0.4944	0.0438841	0.986768	0.726696	0	0
3.90849	-2.53401	-0.06505	0.0883242	0.60187	-0.999098	0.245342	-0.378274	0.0868942	-0.184782	0.5015	0.175082	0	0	-0.148925	-0.143822	-0.122437	0.625719	0.0519558	0	0	-1.10857	0.0670006	0.13183	1.13094	-0.491836	-0.0591705	0.981168	0.724523	0	0	1.03889	0.492467	0.0435965	0.987022	0.726608	0	0
3.91847	-2.54341	-0.0832767	0.0839602	0.590368	-0.99949	0.244126	-0.379052	0.101192	-0.168144	0.507574	0.18849	0	0	-0.137826	-0.156127	-0.133026	0.56709	0.0533262	0	0	-1.10246	0.0776336	0.150549	1.13239	-0.489785	-0.0589196	0.98163	0.724459	0	0	1.04055	0.490533	0.0433086	0.987275	0.72652	0	0
3.92846	-2.55303	-0.101729	0.0799049	0.578742	-0.999686	0.242933	-0.379953	0.115925	-0.151422	0.513773	0.202206	0	0	-0.12693	-0.168969	-0.142039	0.509051	0.0537773	0	0	-1.09615	0.0889494	0.168842	1.13383	-0.487734	-0.0586686	0.982091	0.724394	0	0	1.04221	0.488598	0.0430205	0.987527	0.726432	0	0
3.93844	-2.56281	-0.120229	0.076063	0.566997	-0.999673	0.241765	-0.380947	0.130865	-0.134796	0.520193	0.216244	0	0	-0.116085	-0.18212	-0.149025	0.452439	0.0538246	0	0	-1.08967	0.100769	0.186611	1.13528	-0.485682	-0.0584175	0.98255	0.72433	0	0	1.04387	0.486661	0.0427324	0.987778	0.726344	0	0
3.94843	-2.57268	-0.138574	0.0723307	0.555133	-0.999448	0.240616	-0.382005	0.145752	-0.118443	0.526944	0.230595	0	0	-0.105195	-0.195343	-0.153518	0.39805	0.0539414	0	0	-1.08306	0.112885	0.203766	1.13672	-0.48363	-0.0581664	0.983008	0.724265	0	0	1.04553	0.484723	0.0424442	0.988028	0.726256	0	0
3.95841	-2.58253	-0.156554	0.0686074	0.543157	-0.99901	0.239476	-0.383094	0.160315	-0.102525	0.534157	0.245223	0	0	-0.0942445	-0.208405	-0.155094	0.346624	0.0545166	0	0	-1.0764	0.125072	0.220221	1.13815	-0.481577	-0.0579151	0.983465	0.7242	0	0	1.04718	0.482783	0.0421558	0.988277	0.726168	0	0
3.96839	-2.59225	-0.17397	0.0648128	0.531077	-0.998365	0.238336	-0.38419	0.174289	-0.0871817	0.541992	0.260062	0	0	-0.0833078	-0.221099	-0.153452	0.298821	0.0557896	0	0	-1.06986	0.137103	0.235897	1.13959	-0.479523	-0.0576637	0.983922	0.724136	0	0	1.04883	0.480841	0.0418673	0.988526	0.726079	0	0
3.97838	-2.60171	-0.190641	0.0608949	0.518914	-0.99752	0.237193	-0.385272	0.187431	-0.0725239	0.550644	0.275017	0	0	-0.0725472	-0.233252	-0.148531	0.255205	0.0578016	0	0	-1.06368	0.14876	0.250727	1.14101	-0.477468	-0.0574121	0.984378	0.724071	0	0	1.05048	0.478898	0.0415787	0.988774	0.725991	0	0
3.98836	-2.61081	-0.206375	0.0567772	0.506674	-0.996474	0.236048	-0.386325	0.199494	-0.0586308	0.56023	0.289989	0	0	-0.0620931	-0.244717	-0.140657	0.216353	0.0603877	0	0	-1.05795	0.159806	0.264623	1.14244	-0.475412	-0.0571604	0.984833	0.724007	0	0	1.05212	0.476953	0.04129	0.989021	0.725903	0	0
3.99835	-2.61952	-0.220974	0.0523496	0.494355	-0.99522	0.234907	-0.387338	0.210217	-0.0455593	0.570804	0.304865	0	0	-0.0520484	-0.255347	-0.130559	0.182813	0.0631978	0	0	-1.0526	0.169969	0.277479	1.14386	-0.473354	-0.0569085	0.985289	0.723942	0	0	1.05377	0.475006	0.0410011	0.989269	0.725815	0	0
4.00833	-2.62775	-0.234285	0.0475397	0.481969	-0.99376	0.233778	-0.388304	0.219393	-0.0333467	0.582491	0.319476	0	0	-0.0426197	-0.265011	-0.119253	0.154925	0.065738	0	0	-1.04773	0.179019	0.289233	1.14528	-0.471296	-0.0566564	0.985743	0.723878	0	0	1.05541	0.473057	0.0407121	0.989515	0.725727	0	0
4.01832	-2.63543	-0.246185	0.0422543	0.469522	-0.992095	0.232671	-0.389215	0.226842	-0.0220126	0.59536	0.333651	0	0	-0.0340189	-0.273585	-0.1079	0.132835	0.0674037	0	0	-1.04331	0.186745	0.299812	1.1467	-0.469236	-0.0564042	0.986198	0.723813	0	0	1.05705	0.471106	0.0404229	0.989762	0.725639	0	0
4.0283	-2.64257	-0.256563	0.0363658	0.457006	-0.990213	0.231601	-0.390068	0.232396	-0.0115806	0.609381	0.347208	0	0	-0.0264437	-0.280932	-0.0976231	0.116463	0.0675302	0	0	-1.03916	0.19293	0.309137	1.14811	-0.467174	-0.0561518	0.986652	0.723748	0	0	1.05869	0.469153	0.0401337	0.990007	0.72555	0	0
4.03829	-2.64916	-0.265332	0.0297445	0.444416	-0.9881	0.230585	-0.390861	0.235894	-0.00209676	0.624502	0.359922	0	0	-0.0200876	-0.286915	-0.0893299	0.105518	0.0654587	0	0	-1.03504	0.197367	0.317136	1.14952	-0.465112	-0.0558992	0.987105	0.723684	0	0	1.06032	0.467197	0.0398442	0.990253	0.725462	0	0
4.04827	-2.65508	-0.272442	0.0223916	0.431782	-0.985761	0.229636	-0.391593	0.237268	0.00636192	0.640847	0.37147	0	0	-0.0152042	-0.291428	-0.083562	0.0995298	0.0606192	0	0	-1.03108	0.199927	0.323828	1.15093	-0.463048	-0.0556465	0.987558	0.723619	0	0	1.06196	0.46524	0.0395547	0.990498	0.725374	0	0
4.05826	-2.66029	-0.277821	0.0143091	0.419123	-0.983189	0.228766	-0.392266	0.236432	0.0136735	0.658355	0.381493	0	0	-0.0118998	-0.294342	-0.0805903	0.0979197	0.0525876	0	0	-1.02721	0.200496	0.329178	1.15233	-0.460982	-0.0553937	0.98801	0.723555	0	0	1.06359	0.463281	0.0392651	0.990742	0.725286	0	0
4.06824	-2.66472	-0.281389	0.00554447	0.406466	-0.980383	0.227987	-0.392883	0.233302	0.0196702	0.676978	0.389542	0	0	-0.0102114	-0.295515	-0.0804574	0.100052	0.0411386	0	0	-1.02339	0.19898	0.333149	1.15373	-0.458916	-0.0551408	0.988461	0.72349	0	0	1.06522	0.461319	0.0389754	0.990987	0.725197	0	0
4.07823	-2.6683	-0.28306	-0.00382866	0.393842	-0.977343	0.227308	-0.393448	0.227795	0.0241622	0.696653	0.395092	0	0	-0.0101176	-0.294804	-0.0830594	0.105256	0.0262635	0	0	-1.01957	0.195308	0.335695	1.15512	-0.456849	-0.0548878	0.988912	0.723426	0	0	1.06684	0.459357	0.0386857	0.99123	0.725109	0	0
4.08821	-2.67094	-0.282783	-0.013666	0.381288	-0.974079	0.226735	-0.393969	0.219891	0.026956	0.717339	0.397572	0	0	-0.0115632	-0.292118	-0.0880887	0.112868	0.00822171	0	0	-1.0158	0.189494	0.336783	1.15651	-0.454781	-0.0546348	0.989362	0.723362	0	0	1.06847	0.457392	0.038396	0.991473	0.725021	0	0
4.0982	-2.67251	-0.28057	-0.0237695	0.368841	-0.970608	0.226274	-0.394457	0.209655	0.0278944	0.739016	0.396389	0	0	-0.0144788	-0.287438	-0.0950245	0.122295	-0.0123539	0	0	-1.01216	0.181641	0.336404	1.1579	-0.452714	-0.0543818	0.989811	0.723297	0	0	1.07009	0.455427	0.0381063	0.991715	0.724933	0	0
4.10818	-2.673	-0.27647	-0.0339388	0.356523	-0.96695	0.225933	-0.394927	0.197214	0.0269048	0.761554	0.390959	0	0	-0.018745	-0.280803	-0.103201	0.13309	-0.0344178	0	0	-1.0086	0.171915	0.33455	1.15928	-0.450646	-0.0541289	0.990259	0.723233	0	0	1.07171	0.453462	0.0378168	0.991957	0.724844	0	0
4.11817	-2.67226	-0.27066	-0.04389	0.34436	-0.963154	0.225708	-0.395398	0.182842	0.0239772	0.784965	0.380736	0	0	-0.0243651	-0.272352	-0.111826	0.144881	-0.0566741	0	0	-1.00533	0.160624	0.331297	1.16065	-0.44858	-0.0538761	0.990705	0.723168	0	0	1.07332	0.451496	0.0375274	0.992198	0.724756	0	0
4.12815	-2.67013	-0.263429	-0.0533047	0.332373	-0.959296	0.225574	-0.395886	0.166942	0.0191886	0.809366	0.365245	0	0	-0.0314626	-0.262321	-0.1202	0.157335	-0.0778061	0	0	-1.00273	0.148185	0.326774	1.16202	-0.446514	-0.0536235	0.991149	0.723103	0	0	1.07494	0.44953	0.0372381	0.992438	0.724668	0	0
4.13813	-2.66643	-0.255106	-0.061888	0.320578	-0.955462	0.225491	-0.396413	0.149954	0.0127073	0.834852	0.344127	0	0	-0.0402065	-0.250993	-0.127869	0.170161	-0.0966381	0	0	-1.00123	0.135058	0.321122	1.16339	-0.444449	-0.0533709	0.991592	0.723039	0	0	1.07655	0.447565	0.0369488	0.992677	0.724579	0	0
4.14812	-2.66103	-0.246044	-0.0694072	0.308991	-0.951728	0.225411	-0.397001	0.132311	0.00478236	0.861489	0.317194	0	0	-0.0507826	-0.238668	-0.134632	0.183071	-0.112194	0	0	-1.00123	0.121693	0.314492	1.16475	-0.442384	-0.0531183	0.992034	0.722974	0	0	1.07815	0.445599	0.0366595	0.992915	0.724491	0	0
4.1581	-2.65381	-0.236607	-0.0757108	0.29763	-0.948184	0.225299	-0.397669	0.114419	-0.00426077	0.889302	0.28451	0	0	-0.0633999	-0.225662	-0.140467	0.195757	-0.123817	0	0	-1.00312	0.108515	0.307041	1.1661	-0.440321	-0.0528658	0.992473	0.72291	0	0	1.07976	0.443633	0.0363702	0.993152	0.724403	0	0
4.16809	-2.6448	-0.227061	-0.0807677	0.286487	-0.944902	0.225129	-0.398432	0.0965885	-0.0139975	0.918064	0.246426	0	0	-0.0781291	-0.212227	-0.145485	0.207996	-0.131218	0	0	-1.00702	0.0958324	0.298905	1.16745	-0.438257	-0.0526131	0.992911	0.722845	0	0	1.08135	0.441666	0.0360808	0.993387	0.724314	0	0
4.17807	-2.63402	-0.21764	-0.0846183	0.275552	-0.941939	0.224882	-0.399295	0.0790843	-0.0239972	0.947507	0.203674	0	0	-0.0950227	-0.198593	-0.149803	0.219538	-0.134462	0	0	-1.01296	0.0838987	0.290221	1.16879	-0.436194	-0.0523604	0.993347	0.72278	0	0	1.08295	0.439699	0.0357912	0.993621	0.724226	0	0
4.18806	-2.62157	-0.208542	-0.0873256	0.264809	-0.939353	0.224544	-0.400255	0.0621505	-0.0338687	0.977319	0.157405	0	0	-0.114098	-0.184976	-0.153523	0.230143	-0.133888	0	0	-1.02093	0.072934	0.281117	1.17013	-0.434131	-0.0521075	0.993781	0.722715	0	0	1.08454	0.43773	0.0355015	0.993853	0.724137	0	0
4.19804	-2.60757	-0.199914	-0.0889445	0.254239	-0.937187	0.224104	-0.40129	0.0460099	-0.0433063	1.00714	0.109176	0	0	-0.135298	-0.171578	-0.156724	0.239634	-0.130003	0	0	-1.03086	0.0631155	0.271697	1.17146	-0.432067	-0.0518546	0.994213	0.72265	0	0	1.08613	0.435761	0.0352116	0.994083	0.724049	0	0
4.20803	-2.5922	-0.191839	-0.0895192	0.243822	-0.93547	0.223558	-0.402359	0.0308518	-0.0521255	1.03658	0.0608591	0	0	-0.15846	-0.15858	-0.159439	0.247948	-0.123392	0	0	-1.04255	0.0545768	0.262021	1.17279	-0.430004	-0.0516015	0.994644	0.722586	0	0	1.08771	0.43379	0.0349216	0.994312	0.72396	0	0
4.21801	-2.57558	-0.184411	-0.0890221	0.233571	-0.934237	0.222896	-0.403393	0.0168859	-0.0603363	1.06541	0.0145554	0	0	-0.183463	-0.14619	-0.161607	0.255011	-0.114632	0	0	-1.0561	0.0474755	0.252138	1.17411	-0.42794	-0.0513482	0.995073	0.722521	0	0	1.08929	0.431819	0.0346313	0.994539	0.723871	0	0
4.228	-2.55799	-0.177594	-0.087415	0.223477	-0.933496	0.222131	-0.404283	0.00428434	-0.0679927	1.09321	-0.027679	0	0	-0.209943	-0.134554	-0.163144	0.260966	-0.104283	0	0	-1.07128	0.0418674	0.24203	1.17543	-0.425876	-0.0510949	0.9955	0.722456	0	0	1.09086	0.429846	0.0343409	0.994765	0.723783	0	0
4.23798	-2.53979	-0.171285	-0.0846653	0.213521	-0.933238	0.221284	-0.404881	-0.0068072	-0.0751983	1.11952	-0.0640239	0	0	-0.237396	-0.123783	-0.163961	0.266062	-0.0928874	0	0	-1.0877	0.0377357	0.231638	1.17674	-0.423812	-0.0508415	0.995926	0.722391	0	0	1.09243	0.427873	0.0340504	0.99499	0.723694	0	0
4.24797	-2.5214	-0.165331	-0.0807601	0.203676	-0.933439	0.220387	-0.404986	-0.0162733	-0.0820683	1.1438	-0.0931013	0	0	-0.265195	-0.113957	-0.163972	0.270624	-0.0809305	0	0	-1.10481	0.0350053	0.220892	1.17805	-0.421749	-0.050588	0.99635	0.722326	0	0	1.094	0.425898	0.0337598	0.995212	0.723605	0	0
4.25795	-2.50336	-0.159532	-0.0757258	0.193907	-0.934058	0.219474	-0.404347	-0.0240632	-0.0887085	1.16547	-0.114168	0	0	-0.292604	-0.105101	-0.16311	0.275034	-0.0688162	0	0	-1.12192	0.03353	0.209716	1.17936	-0.419685	-0.0503344	0.996772	0.722261	0	0	1.09556	0.423924	0.033469	0.995434	0.723516	0	0
4.26794	-2.48621	-0.153715	-0.0696248	0.184176	-0.935054	0.218576	-0.402658	-0.0302047	-0.0952403	1.18398	-0.127171	0	0	-0.318908	-0.0972144	-0.161325	0.279612	-0.0568507	0	0	-1.13837	0.033155	0.198052	1.18066	-0.417622	-0.0500807	0.997193	0.722196	0	0	1.09712	0.421948	0.0331781	0.995653	0.723428	0	0
4.27792	-2.47047	-0.14773	-0.0625632	0.174457	-0.936384	0.217712	-0.39958	-0.0348026	-0.101781	1.1989	-0.132614	0	0	-0.343429	-0.0902646	-0.158585	0.284611	-0.0452411	0	0	-1.15354	0.0337228	0.185869	1.18195	-0.41556	-0.049827	0.997613	0.722131	0	0	1.09867	0.419973	0.0328872	0.995872	0.723339	0	0
4.28791	-2.45665	-0.141465	-0.0546921	0.16472	-0.938	0.216897	-0.394741	-0.0380326	-0.108431	1.20987	-0.131345	0	0	-0.365551	-0.084191	-0.154872	0.290216	-0.0340954	0	0	-1.16682	0.0350747	0.173165	1.18324	-0.413498	-0.0495734	0.99803	0.722066	0	0	1.10022	0.417997	0.0325962	0.996089	0.72325	0	0
4.29789	-2.44524	-0.134849	-0.0462128	0.154928	-0.939849	0.21614	-0.387781	-0.0401336	-0.115266	1.21664	-0.124366	0	0	-0.384759	-0.0788911	-0.150184	0.296535	-0.0234418	0	0	-1.17764	0.0370501	0.15997	1.18453	-0.411437	-0.0493197	0.998446	0.722001	0	0	1.10176	0.416021	0.0323051	0.996304	0.723161	0	0
4.30787	-2.43656	-0.127873	-0.0373356	0.145066	-0.941892	0.215442	-0.378403	-0.0413699	-0.122354	1.21914	-0.112772	0	0	-0.400754	-0.0742533	-0.144553	0.303515	-0.0132453	0	0	-1.18565	0.0394941	0.146352	1.18581	-0.409376	-0.049066	0.99886	0.721935	0	0	1.1033	0.414045	0.032014	0.996517	0.723072	0	0
4.31786	-2.43075	-0.120576	-0.0282745	0.135133	-0.944109	0.214799	-0.366437	-0.0420203	-0.129739	1.21738	-0.0977034	0	0	-0.413524	-0.0701441	-0.13803	0.310943	-0.00343097	0	0	-1.19081	0.0422515	0.132406	1.18708	-0.407316	-0.0488123	0.999273	0.72187	0	0	1.10484	0.412069	0.0317228	0.99673	0.722983	0	0
4.32784	-2.42775	-0.11302	-0.0192332	0.125132	-0.946485	0.214205	-0.351943	-0.042368	-0.137435	1.21139	-0.0803151	0	0	-0.423304	-0.0664078	-0.130683	0.318515	0.006097	0	0	-1.19325	0.0451604	0.118246	1.18835	-0.405256	-0.0485586	0.999684	0.721805	0	0	1.10637	0.410092	0.0314315	0.99694	0.722894	0	0
4.33783	-2.42733	-0.105245	-0.0103755	0.115072	-0.949017	0.213656	-0.335232	-0.0426741	-0.145403	1.20111	-0.0617448	0	0	-0.43049	-0.0628645	-0.122591	0.325958	0.0154379	0	0	-1.19333	0.0480428	0.103987	1.18962	-0.403196	-0.048305	1.00009	0.72174	0	0	1.1079	0.408114	0.0311402	0.997149	0.722805	0	0
4.34781	-2.42914	-0.0972532	-0.00183184	0.104976	-0.951713	0.213145	-0.316783	-0.0431735	-0.153561	1.18642	-0.0430761	0	0	-0.435539	-0.0593124	-0.113828	0.333059	0.024681	0	0	-1.19155	0.0507014	0.0897338	1.19088	-0.401137	-0.0480513	1.0005	0.721674	0	0	1.10942	0.406136	0.0308489	0.997357	0.722716	0	0
4.3578	-2.43281	-0.0890142	0.00630329	0.0948591	-0.954575	0.212672	-0.297144	-0.0440869	-0.161838	1.1672	-0.0252286	0	0	-0.438918	-0.0555483	-0.104435	0.339687	0.0339111	0	0	-1.18839	0.0529434	0.075567	1.19214	-0.399078	-0.0477977	1.00091	0.721609	0	0	1.11094	0.404158	0.0305575	0.997563	0.722627	0	0
4.36778	-2.43796	-0.080465	0.0139733	0.0847316	-0.957601	0.212242	-0.276864	-0.0456088	-0.170183	1.14343	-0.00891487	0	0	-0.441052	-0.05138	-0.094417	0.34579	0.0432	0	0	-1.18426	0.0545859	0.0615357	1.1934	-0.397019	-0.0475442	1.00131	0.721544	0	0	1.11245	0.402179	0.0302661	0.997768	0.722538	0	0
4.37777	-2.44425	-0.0715139	0.0211626	0.0746059	-0.96079	0.211859	-0.256467	-0.0479034	-0.178568	1.11509	0.00535552	0	0	-0.442317	-0.0466338	-0.0837491	0.3514	0.052605	0	0	-1.17951	0.055461	0.0476506	1.19465	-0.394961	-0.0472908	1.00172	0.721478	0	0	1.11396	0.4002	0.0299747	0.997972	0.722448	0	0
4.38775	-2.45138	-0.0620504	0.027885	0.0644946	-0.964113	0.211538	-0.236418	-0.0511069	-0.186972	1.08227	0.0172382	0	0	-0.443022	-0.0411571	-0.0723818	0.35661	0.0621718	0	0	-1.17444	0.0554198	0.0338846	1.19589	-0.392904	-0.0470376	1.00212	0.721413	0	0	1.11547	0.398222	0.0296835	0.998175	0.722359	0	0
4.39774	-2.45907	-0.05195	0.0341746	0.0543897	-0.967574	0.211275	-0.217096	-0.0553201	-0.195377	1.04513	0.0265267	0	0	-0.443407	-0.0348216	-0.0602474	0.361544	0.0719419	0	0	-1.16931	0.0543286	0.0201838	1.19714	-0.390847	-0.0467847	1.00252	0.721347	0	0	1.11697	0.396244	0.0293925	0.998377	0.72227	0	0
4.40772	-2.46715	-0.041099	0.0400708	0.0442917	-0.971152	0.211077	-0.198788	-0.0606129	-0.203749	1.00388	0.0331416	0	0	-0.443653	-0.0275255	-0.0472842	0.366345	0.0819571	0	0	-1.1643	0.0520775	0.00647704	1.19838	-0.388792	-0.0465318	1.00292	0.721282	0	0	1.11847	0.394266	0.0291016	0.998577	0.722181	0	0
4.41771	-2.47545	-0.029406	0.0456107	0.0342003	-0.974828	0.210948	-0.181681	-0.0670206	-0.212028	0.958842	0.037136	0	0	-0.443886	-0.0191947	-0.0334423	0.371154	0.0922512	0	0	-1.15956	0.0485826	-0.00730885	1.19961	-0.386738	-0.0462792	1.00332	0.721216	0	0	1.11997	0.392288	0.0288107	0.998777	0.722091	0	0
4.42769	-2.48388	-0.0168063	0.0508274	0.0241157	-0.978579	0.210893	-0.165867	-0.074545	-0.220126	0.910381	0.0386891	0	0	-0.444188	-0.00978492	-0.0186912	0.376107	0.102842	0	0	-1.1552	0.04379	-0.0212359	1.20085	-0.384685	-0.0460268	1.00372	0.721151	0	0	1.12147	0.390312	0.0285201	0.998975	0.722002	0	0
4.43768	-2.49243	-0.00328819	0.0557668	0.0140172	-0.982366	0.210912	-0.151263	-0.0831682	-0.228022	0.859067	0.0381309	0	0	-0.444606	0.000686833	-0.00303678	0.381254	0.113776	0	0	-1.15111	0.0377167	-0.0353382	1.20208	-0.382634	-0.0457746	1.00412	0.721085	0	0	1.12296	0.388336	0.0282297	0.999173	0.721913	0	0
4.44766	-2.50112	0.0111146	0.0604807	0.00388495	-0.986146	0.211	-0.137729	-0.0928328	-0.23568	0.80552	0.0358911	0	0	-0.44516	0.0121588	0.0134822	0.386638	0.12508	0	0	-1.14718	0.0304243	-0.0496262	1.20331	-0.380584	-0.0455227	1.00451	0.721019	0	0	1.12445	0.386362	0.0279394	0.99937	0.721823	0	0
4.45765	-2.50997	0.0263312	0.0650266	-0.00629413	-0.98988	0.211149	-0.125088	-0.103446	-0.243047	0.750393	0.0324687	0	0	-0.445853	0.0245286	0.0307909	0.392297	0.136771	0	0	-1.14333	0.0220073	-0.0640845	1.20453	-0.378536	-0.045271	1.00491	0.720953	0	0	1.12594	0.384389	0.0276494	0.999566	0.721734	0	0
4.46763	-2.51901	0.0422565	0.0694705	-0.0165219	-0.993514	0.211347	-0.113153	-0.114886	-0.250057	0.694367	0.0284058	0	0	-0.446676	0.0376563	0.0487683	0.398272	0.148857	0	0	-1.13945	0.0125944	-0.0786705	1.20575	-0.376489	-0.0450196	1.0053	0.720888	0	0	1.12742	0.382417	0.0273595	0.999762	0.721645	0	0
4.47761	-2.52825	0.0587426	0.0738878	-0.0268103	-0.997014	0.211584	-0.101739	-0.126998	-0.256633	0.638143	0.0242749	0	0	-0.447611	0.0513575	0.0672526	0.40461	0.161325	0	0	-1.13551	0.00235376	-0.0933178	1.20697	-0.374444	-0.0447685	1.00569	0.720822	0	0	1.12891	0.380446	0.0270699	0.999956	0.721555	0	0
4.4876	-2.53769	0.0756043	0.0783647	-0.0371735	-1.00035	0.211846	-0.090683	-0.139597	-0.262694	0.582434	0.020642	0	0	-0.448637	0.065409	0.0860442	0.411375	0.174151	0	0	-1.13148	-0.00851385	-0.107942	1.20819	-0.372401	-0.0445177	1.00608	0.720756	0	0	1.13039	0.378476	0.0267804	1.00015	0.721466	0	0
4.49758	-2.5473	0.0926305	0.0829935	-0.0476235	-1.00351	0.212113	-0.0798675	-0.152483	-0.268152	0.527949	0.0180194	0	0	-0.449732	0.0795595	0.104912	0.41865	0.187307	0	0	-1.12734	-0.0197825	-0.122452	1.20941	-0.37036	-0.0442671	1.00647	0.72069	0	0	1.13187	0.376508	0.0264912	1.00034	0.721377	0	0
4.50757	-2.55696	0.109664	0.0878367	-0.0576719	-1.00246	0.213798	-0.0692083	-0.165426	-0.272919	0.475376	0.0167977	0	0	-0.450853	0.0935198	0.123605	0.42654	0.20077	0	0	-1.12312	-0.0311984	-0.136743	1.21062	-0.368319	-0.0440167	1.00686	0.720624	0	0	1.13335	0.37454	0.026202	1.00054	0.721287	0	0
4.51755	-2.56659	0.126482	0.0929598	-0.0674815	-0.998676	0.21641	-0.0587007	-0.17822	-0.2769	0.425385	0.0171929	0	0	-0.451985	0.107023	0.141859	0.43517	0.214519	0	0	-1.11889	-0.0425165	-0.150726	1.21183	-0.366278	-0.0437662	1.00725	0.720558	0	0	1.13483	0.372572	0.0259129	1.00073	0.721198	0	0
4.52754	-2.5761	0.142869	0.0984007	-0.0771852	-0.993305	0.219554	-0.0483953	-0.190681	-0.28001	0.378609	0.0192078	0	0	-0.453114	0.11982	0.159417	0.444683	0.228524	0	0	-1.11475	-0.0535068	-0.16432	1.21304	-0.364238	-0.0435158	1.00764	0.720492	0	0	1.1363	0.370604	0.0256238	1.00092	0.721109	0	0
4.53752	-2.58536	0.158632	0.104158	-0.0868875	-0.987208	0.222931	-0.0383964	-0.202654	-0.282191	0.335632	0.0226336	0	0	-0.454229	0.131706	0.176041	0.455235	0.242732	0	0	-1.11087	-0.0639738	-0.177465	1.21425	-0.362198	-0.0432654	1.00803	0.720426	0	0	1.13778	0.368636	0.0253347	1.00111	0.721019	0	0
4.54751	-2.59424	0.173618	0.110178	-0.0966672	-0.981006	0.226322	-0.0288619	-0.214027	-0.283418	0.296971	0.027092	0	0	-0.455321	0.142536	0.191537	0.467004	0.257048	0	0	-1.10751	-0.0737741	-0.190123	1.21546	-0.360157	-0.043015	1.00842	0.72036	0	0	1.13925	0.366668	0.0250457	1.0013	0.72093	0	0
4.55749	-2.60253	0.187721	0.116344	-0.106582	-0.975111	0.229576	-0.0200198	-0.224726	-0.283697	0.263013	0.0320937	0	0	-0.456386	0.152252	0.205774	0.480209	0.271326	0	0	-1.10503	-0.0828348	-0.202294	1.21666	-0.358118	-0.0427647	1.0088	0.720294	0	0	1.14072	0.3647	0.0247567	1.00149	0.72084	0	0
4.56748	-2.61012	0.200862	0.122556	-0.116674	-0.969773	0.232594	-0.0120532	-0.234703	-0.283092	0.234094	0.0370873	0	0	-0.457418	0.160816	0.218676	0.49498	0.285408	0	0	-1.10363	-0.0911031	-0.213946	1.21787	-0.356078	-0.0425143	1.00919	0.720228	0	0	1.14219	0.362732	0.0244678	1.00168	0.720751	0	0
4.57746	-2.61694	0.212972	0.128762	-0.126972	-0.965122	0.235319	-0.00512496	-0.243907	-0.28173	0.21044	0.0414858	0	0	-0.458417	0.168176	0.2302	0.511359	0.299111	0	0	-1.10333	-0.0985139	-0.225019	1.21907	-0.354039	-0.042264	1.00958	0.720162	0	0	1.14365	0.360764	0.0241789	1.00187	0.720661	0	0
4.58745	-2.62297	0.223975	0.134972	-0.137496	-0.9612	0.237721	0.000606819	-0.252261	-0.279759	0.192088	0.0446573	0	0	-0.459381	0.174241	0.240324	0.529302	0.312215	0	0	-1.10395	-0.104972	-0.235414	1.22026	-0.351999	-0.0420138	1.00996	0.720096	0	0	1.14512	0.358797	0.02389	1.00206	0.720572	0	0
4.59743	-2.62828	0.233763	0.14129	-0.148256	-0.957991	0.239789	0.00504183	-0.259646	-0.27737	0.178924	0.0459469	0	0	-0.460308	0.178842	0.249018	0.548626	0.324474	0	0	-1.10503	-0.110318	-0.244977	1.22146	-0.34996	-0.0417635	1.01035	0.72003	0	0	1.14658	0.356829	0.0236012	1.00225	0.720482	0	0
4.60742	-2.63306	0.242154	0.147944	-0.159259	-0.955447	0.241526	0.00818975	-0.265871	-0.2749	0.170712	0.0447183	0	0	-0.461201	0.181668	0.256216	0.56895	0.335608	0	0	-1.10577	-0.114274	-0.253482	1.22266	-0.347922	-0.0415133	1.01073	0.719963	0	0	1.14804	0.354861	0.0233124	1.00244	0.720393	0	0
4.6174	-2.63749	0.248956	0.15518	-0.170502	-0.953501	0.242942	0.0101222	-0.270734	-0.272735	0.167123	0.0404182	0	0	-0.462059	0.182382	0.261812	0.589869	0.345296	0	0	-1.10524	-0.116553	-0.260683	1.22385	-0.345883	-0.0412631	1.01112	0.719897	0	0	1.1495	0.352893	0.0230236	1.00263	0.720303	0	0
4.62739	-2.64142	0.254011	0.162912	-0.181975	-0.952081	0.244053	0.0107905	-0.274016	-0.271168	0.16775	0.0326669	0	0	-0.462884	0.180806	0.265646	0.611378	0.353103	0	0	-1.10372	-0.116952	-0.266633	1.22504	-0.343845	-0.041013	1.0115	0.719831	0	0	1.15096	0.350926	0.0227349	1.00281	0.720214	0	0
4.63737	-2.64483	0.257136	0.171115	-0.193663	-0.95112	0.244881	0.0103323	-0.275509	-0.27056	0.172158	0.0213137	0	0	-0.463677	0.176729	0.267582	0.633218	0.358569	0	0	-1.10109	-0.115284	-0.271262	1.22624	-0.341807	-0.0407628	1.01188	0.719765	0	0	1.15241	0.348958	0.0224462	1.003	0.720124	0	0
4.64735	-2.64771	0.258125	0.179788	-0.20554	-0.950558	0.245449	0.00894918	-0.274994	-0.271293	0.179922	0.00650329	0	0	-0.46444	0.169894	0.267442	0.655098	0.361149	0	0	-1.09712	-0.111332	-0.274456	1.22742	-0.339769	-0.0405127	1.01227	0.719699	0	0	1.15387	0.346991	0.0221576	1.00319	0.720034	0	0
4.65734	-2.64991	0.256819	0.188807	-0.217575	-0.950342	0.245784	0.00673922	-0.272273	-0.273602	0.190613	-0.0112627	0	0	-0.465176	0.160126	0.265004	0.676981	0.360215	0	0	-1.09202	-0.104938	-0.276201	1.22861	-0.337732	-0.0402627	1.01265	0.719633	0	0	1.15532	0.345024	0.021869	1.00337	0.719945	0	0
4.66732	-2.65123	0.253143	0.197986	-0.229731	-0.950431	0.245918	0.00377166	-0.267231	-0.277471	0.203833	-0.031091	0	0	-0.465887	0.147362	0.26006	0.698881	0.355138	0	0	-1.08601	-0.0960514	-0.276484	1.2298	-0.335695	-0.0400127	1.01303	0.719566	0	0	1.15678	0.343057	0.0215805	1.00356	0.719855	0	0
4.67731	-2.65143	0.24714	0.207055	-0.241966	-0.950792	0.245885	1.15227e-05	-0.259848	-0.2826	0.219174	-0.0517302	0	0	-0.466578	0.131699	0.252446	0.720931	0.345315	0	0	-1.07951	-0.0847739	-0.27534	1.23099	-0.333658	-0.0397627	1.01342	0.7195	0	0	1.15823	0.34109	0.021292	1.00375	0.719766	0	0
4.68729	-2.65023	0.23901	0.215684	-0.254234	-0.951398	0.245723	-0.00469848	-0.25022	-0.288511	0.23619	-0.0718126	0	0	-0.467254	0.113421	0.242096	0.743357	0.330215	0	0	-1.0731	-0.0713912	-0.272858	1.23217	-0.331621	-0.0395127	1.0138	0.719434	0	0	1.15968	0.339123	0.0210035	1.00393	0.719676	0	0
4.69728	-2.64743	0.229095	0.223545	-0.266486	-0.952228	0.245474	-0.0105628	-0.238565	-0.294725	0.254391	-0.090143	0	0	-0.467923	0.0929685	0.22909	0.766368	0.309421	0	0	-1.06735	-0.0563527	-0.269152	1.23336	-0.329585	-0.0392628	1.01418	0.719368	0	0	1.16113	0.337157	0.0207151	1.00412	0.719586	0	0
4.70726	-2.64285	0.217869	0.230314	-0.278675	-0.953264	0.245178	-0.0178686	-0.225211	-0.300802	0.273172	-0.105826	0	0	-0.468591	0.070917	0.213641	0.790177	0.282698	0	0	-1.06287	-0.0402583	-0.26437	1.23454	-0.327549	-0.0390129	1.01456	0.719301	0	0	1.16258	0.33519	0.0204268	1.0043	0.719497	0	0
4.71725	-2.63633	0.205904	0.235723	-0.290755	-0.954491	0.244877	-0.0270073	-0.210559	-0.306353	0.291788	-0.11829	0	0	-0.469269	0.0479131	0.196094	0.815021	0.250052	0	0	-1.06036	-0.0237968	-0.2587	1.23572	-0.325514	-0.0387631	1.01494	0.719235	0	0	1.16403	0.333224	0.0201385	1.00449	0.719407	0	0
4.72723	-2.62781	0.193739	0.239619	-0.302688	-0.955895	0.244608	-0.0382987	-0.195005	-0.311103	0.309537	-0.127257	0	0	-0.469967	0.0245611	0.176949	0.84095	0.211755	0	0	-1.06033	-0.00762563	-0.252302	1.2369	-0.323478	-0.0385133	1.01532	0.719169	0	0	1.16547	0.331258	0.0198502	1.00467	0.719317	0	0
4.73722	-2.61735	0.181839	0.241998	-0.314436	-0.957462	0.244405	-0.0519821	-0.178907	-0.314958	0.325838	-0.132679	0	0	-0.470698	0.00136193	0.156844	0.867854	0.168374	0	0	-1.06307	0.00771833	-0.245328	1.23808	-0.321443	-0.0382635	1.0157	0.719102	0	0	1.16692	0.329292	0.0195619	1.00486	0.719228	0	0
4.7472	-2.60506	0.170576	0.24297	-0.325973	-0.95918	0.244292	-0.0681971	-0.162591	-0.317985	0.340255	-0.134682	0	0	-0.471471	-0.021279	0.136503	0.895502	0.120819	0	0	-1.06873	0.0218481	-0.237927	1.23926	-0.319408	-0.0380137	1.01608	0.719036	0	0	1.16837	0.327326	0.0192737	1.00504	0.719138	0	0
4.75719	-2.59108	0.160223	0.242712	-0.337278	-0.961034	0.244285	-0.086968	-0.146345	-0.320361	0.352526	-0.13351	0	0	-0.472297	-0.0430301	0.11666	0.923572	0.0703464	0	0	-1.07731	0.0345109	-0.230235	1.24044	-0.317373	-0.0377639	1.01646	0.71897	0	0	1.16981	0.325361	0.0189855	1.00522	0.719048	0	0
4.76717	-2.57562	0.150955	0.24141	-0.34834	-0.963009	0.24439	-0.108208	-0.130425	-0.322284	0.362554	-0.129479	0	0	-0.473181	-0.063598	0.0979832	0.95168	0.0185086	0	0	-1.08869	0.0455652	-0.222367	1.24162	-0.315338	-0.0375142	1.01684	0.718903	0	0	1.17125	0.323395	0.0186973	1.00541	0.718959	0	0
4.77716	-2.55891	0.142839	0.239213	-0.359152	-0.965089	0.244602	-0.131699	-0.115053	-0.323921	0.370397	-0.122957	0	0	-0.474123	-0.0827088	0.0810026	0.979383	-0.0329508	0	0	-1.10258	0.0549729	-0.214393	1.2428	-0.313303	-0.0372645	1.01722	0.718837	0	0	1.1727	0.321429	0.0184091	1.00559	0.718869	0	0
4.78714	-2.54124	0.135836	0.23621	-0.369718	-0.967256	0.244905	-0.157085	-0.100418	-0.325398	0.376267	-0.11438	0	0	-0.475112	-0.100098	0.0660869	1.00617	-0.0822014	0	0	-1.11857	0.0627654	-0.206334	1.24398	-0.311268	-0.0370147	1.0176	0.71877	0	0	1.17414	0.319464	0.0181209	1.00578	0.718779	0	0
4.79713	-2.52286	0.129888	0.232415	-0.380045	-0.96949	0.245275	-0.184006	-0.0867227	-0.326735	0.380395	-0.104251	0	0	-0.476125	-0.115486	0.0533911	1.03162	-0.127375	0	0	-1.13632	0.0689681	-0.198179	1.24515	-0.309234	-0.036765	1.01798	0.718704	0	0	1.17558	0.317498	0.0178328	1.00596	0.718689	0	0
4.80711	-2.50411	0.124826	0.227785	-0.390146	-0.971768	0.245679	-0.211937	-0.0741154	-0.327904	0.38316	-0.0930859	0	0	-0.477118	-0.128608	0.0429493	1.05521	-0.166773	0	0	-1.15529	0.0736713	-0.189856	1.24633	-0.3072	-0.0365154	1.01836	0.718638	0	0	1.17703	0.315533	0.0175447	1.00614	0.7186	0	0
4.81709	-2.48532	0.120432	0.222256	-0.400038	-0.974067	0.24608	-0.2403	-0.0627116	-0.328818	0.384983	-0.0813623	0	0	-0.478026	-0.139242	0.0346752	1.07644	-0.199027	0	0	-1.17491	0.0769917	-0.181263	1.2475	-0.305166	-0.0362657	1.01874	0.718571	0	0	1.17847	0.313568	0.0172566	1.00633	0.71851	0	0
4.82708	-2.46685	0.116437	0.215777	-0.409742	-0.97636	0.246439	-0.268452	-0.0525659	-0.32936	0.386329	-0.0694823	0	0	-0.478754	-0.147252	0.0284059	1.09477	-0.223252	0	0	-1.19454	0.0790831	-0.172266	1.24868	-0.303132	-0.0360161	1.01912	0.718505	0	0	1.17991	0.311602	0.0169685	1.00651	0.71842	0	0
4.83706	-2.44912	0.112505	0.208342	-0.419277	-0.978622	0.246717	-0.295679	-0.0436545	-0.329427	0.387707	-0.0577511	0	0	-0.479172	-0.152639	0.0239421	1.10964	-0.23911	0	0	-1.21339	0.0801504	-0.162717	1.24985	-0.301098	-0.0357665	1.0195	0.718438	0	0	1.18135	0.309637	0.0166805	1.00669	0.71833	0	0
4.84705	-2.43251	0.108318	0.199998	-0.428664	-0.980823	0.246876	-0.321325	-0.0359029	-0.328923	0.389569	-0.0463765	0	0	-0.479116	-0.155545	0.0210324	1.1206	-0.246754	0	0	-1.23076	0.0804055	-0.15248	1.25103	-0.299064	-0.0355169	1.01988	0.718372	0	0	1.18279	0.307673	0.0163925	1.00687	0.718241	0	0
4.85703	-2.4173	0.10364	0.190782	-0.437921	-0.982937	0.246884	-0.344926	-0.0292291	-0.32775	0.392191	-0.0354596	0	0	-0.478386	-0.156191	0.0193163	1.1274	-0.246711	0	0	-1.24643	0.0800307	-0.141464	1.2522	-0.297031	-0.0352673	1.02025	0.718305	0	0	1.18423	0.305708	0.0161045	1.00706	0.718151	0	0
4.86702	-2.40376	0.0982673	0.180792	-0.447065	-0.984938	0.246715	-0.366062	-0.0235147	-0.32581	0.395797	-0.0250311	0	0	-0.476758	-0.1549	0.0184188	1.12988	-0.239743	0	0	-1.26013	0.0791959	-0.129598	1.25338	-0.294997	-0.0350177	1.02063	0.718239	0	0	1.18567	0.303743	0.0158166	1.00724	0.718061	0	0
4.877	-2.39214	0.0920295	0.170194	-0.456111	-0.986802	0.246351	-0.384372	-0.0185989	-0.323014	0.400557	-0.0150674	0	0	-0.47398	-0.152082	0.0179793	1.12799	-0.22677	0	0	-1.27152	0.0780746	-0.116832	1.25455	-0.292964	-0.0347682	1.02101	0.718172	0	0	1.18711	0.301779	0.0155286	1.00742	0.717971	0	0
4.88699	-2.38266	0.0848279	0.159167	-0.46507	-0.988507	0.245778	-0.399652	-0.0143138	-0.319298	0.406487	-0.00550403	0	0	-0.469806	-0.148169	0.0176479	1.12177	-0.20885	0	0	-1.2805	0.0768248	-0.10316	1.25572	-0.290931	-0.0345187	1.02139	0.718106	0	0	1.18855	0.299815	0.0152407	1.0076	0.717881	0	0
4.89697	-2.37541	0.0766364	0.147895	-0.473952	-0.990035	0.244992	-0.411885	-0.010488	-0.314617	0.413451	0.00374579	0	0	-0.464023	-0.143588	0.017104	1.11138	-0.187131	0	0	-1.28714	0.0755829	-0.0886179	1.2569	-0.288899	-0.0342692	1.02177	0.718039	0	0	1.18999	0.297851	0.0149529	1.00779	0.717791	0	0
4.90696	-2.37038	0.0675112	0.136591	-0.482767	-0.991372	0.243992	-0.421267	-0.00693473	-0.308932	0.421157	0.0127793	0	0	-0.456497	-0.138762	0.0160655	1.09706	-0.16276	0	0	-1.29148	0.0744682	-0.0732706	1.25807	-0.286866	-0.0340198	1.02215	0.717973	0	0	1.19143	0.295887	0.014665	1.00797	0.717702	0	0
4.91694	-2.36748	0.0575448	0.125443	-0.49152	-0.992509	0.242785	-0.428153	-0.00346619	-0.302225	0.429252	0.0216914	0	0	-0.447232	-0.134075	0.0143091	1.07903	-0.136852	0	0	-1.29372	0.0735908	-0.0572147	1.25924	-0.284834	-0.0337703	1.02252	0.717906	0	0	1.19287	0.293923	0.0143772	1.00815	0.717612	0	0
4.92693	-2.36648	0.0468265	0.114581	-0.500217	-0.99344	0.241379	-0.432969	8.3496e-05	-0.294508	0.437469	0.0305774	0	0	-0.436425	-0.129862	0.0116431	1.05748	-0.110413	0	0	-1.29398	0.0730426	-0.040563	1.26042	-0.282801	-0.0335209	1.0229	0.71784	0	0	1.19431	0.291959	0.0140894	1.00833	0.717522	0	0
4.93691	-2.36712	0.0354285	0.104087	-0.508861	-0.994166	0.239788	-0.436153	0.00387087	-0.285799	0.44559	0.0395183	0	0	-0.424393	-0.1264	0.00794814	1.03249	-0.0843664	0	0	-1.29252	0.0729093	-0.0234395	1.26159	-0.280769	-0.0332715	1.02328	0.717773	0	0	1.19574	0.289995	0.0138015	1.00852	0.717432	0	0
4.9469	-2.3691	0.023396	0.0940163	-0.517457	-0.994689	0.238026	-0.438114	0.00805143	-0.276126	0.453444	0.0485732	0	0	-0.411526	-0.123911	0.00318828	1.00409	-0.0595543	0	0	-1.28974	0.0732816	-0.00596865	1.26276	-0.278737	-0.033022	1.02366	0.717707	0	0	1.19718	0.288032	0.0135137	1.0087	0.717342	0	0
4.95688	-2.37213	0.010741	0.0844076	-0.526008	-0.995015	0.23611	-0.43921	0.0127853	-0.265522	0.460902	0.0577738	0	0	-0.398252	-0.122569	-0.00257341	0.972217	-0.0367233	0	0	-1.28618	0.0742653	0.0117306	1.26393	-0.276704	-0.0327726	1.02404	0.71764	0	0	1.19862	0.286068	0.0132259	1.00888	0.717252	0	0
4.96687	-2.37595	-0.00253273	0.0752899	-0.534516	-0.995156	0.234057	-0.439739	0.0182037	-0.254027	0.467888	0.0671436	0	0	-0.384936	-0.1225	-0.00925162	0.936923	-0.0164552	0	0	-1.28225	0.0759506	0.0295547	1.26511	-0.274672	-0.0325232	1.02441	0.717574	0	0	1.20006	0.284104	0.0129381	1.00906	0.717162	0	0
4.97685	-2.38036	-0.0164241	0.0666814	-0.542983	-0.995123	0.231881	-0.439937	0.0244038	-0.241691	0.474365	0.0766917	0	0	-0.371864	-0.123772	-0.0167345	0.898344	0.000858003	0	0	-1.27826	0.0784073	0.0474165	1.26628	-0.27264	-0.0322737	1.02479	0.717507	0	0	1.2015	0.28214	0.0126502	1.00925	0.717073	0	0
4.98683	-2.3852	-0.0309233	0.0585963	-0.551414	-0.994931	0.229601	-0.439976	0.0314453	-0.228583	0.480324	0.0864141	0	0	-0.359228	-0.126404	-0.0248789	0.856717	0.0150068	0	0	-1.2744	0.0816845	0.065245	1.26745	-0.270607	-0.0320243	1.02517	0.71744	0	0	1.20294	0.280177	0.0123624	1.00943	0.716983	0	0
4.99682	-2.39036	-0.0460073	0.0510445	-0.559811	-0.994596	0.22723	-0.439978	0.0393531	-0.214784	0.485778	0.0962971	0	0	-0.347132	-0.130354	-0.0335175	0.812361	0.0259466	0	0	-1.27076	0.0858054	0.0829831	1.26862	-0.268575	-0.0317749	1.02555	0.717374	0	0	1.20437	0.278213	0.0120746	1.00961	0.716893	0	0
5.0068	-2.39578	-0.0616366	0.0440251	-0.568178	-0.994134	0.224784	-0.440022	0.0481139	-0.200389	0.490754	0.106318	0	0	-0.335599	-0.135534	-0.0424763	0.765659	0.0337766	0	0	-1.2674	0.0907637	0.100585	1.2698	-0.266543	-0.0315254	1.02593	0.717307	0	0	1.20581	0.276249	0.0117868	1.00979	0.716803	0	0
5.01679	-2.40139	-0.077759	0.0375241	-0.57652	-0.993565	0.222276	-0.440148	0.057683	-0.185498	0.495298	0.116441	0	0	-0.324597	-0.141817	-0.0515842	0.717021	0.0387141	0	0	-1.26431	0.0965256	0.118018	1.27097	-0.26451	-0.031276	1.0263	0.717241	0	0	1.20725	0.274285	0.011499	1.00997	0.716713	0	0
5.02677	-2.40716	-0.0943097	0.0315132	-0.584841	-0.992908	0.219719	-0.440372	0.067987	-0.170212	0.499464	0.126626	0	0	-0.314048	-0.149051	-0.060696	0.666875	0.041075	0	0	-1.26149	0.10303	0.135263	1.27214	-0.262478	-0.0310266	1.02668	0.717174	0	0	1.20869	0.272321	0.0112111	1.01016	0.716623	0	0
5.03676	-2.41306	-0.111213	0.0259422	-0.593146	-0.992181	0.217125	-0.440689	0.0789226	-0.154632	0.503314	0.136842	0	0	-0.303842	-0.157067	-0.0697149	0.615639	0.0412583	0	0	-1.25886	0.110183	0.15232	1.27331	-0.260445	-0.0307771	1.02706	0.717107	0	0	1.21013	0.270358	0.0109233	1.01034	0.716533	0	0
5.04674	-2.41905	-0.128384	0.0207349	-0.601441	-0.991404	0.214504	-0.441084	0.0903553	-0.138856	0.506918	0.147074	0	0	-0.293858	-0.16568	-0.0786027	0.563707	0.0397274	0	0	-1.25633	0.117862	0.169201	1.27449	-0.258413	-0.0305277	1.02744	0.717041	0	0	1.21157	0.268394	0.0106355	1.01052	0.716443	0	0
5.05673	-2.42515	-0.145729	0.0157859	-0.609728	-0.990593	0.211867	-0.441535	0.102125	-0.122967	0.510341	0.157326	0	0	-0.283968	-0.174697	-0.087379	0.51143	0.0369838	0	0	-1.25375	0.125913	0.185933	1.27566	-0.256381	-0.0302783	1.02781	0.716974	0	0	1.21301	0.26643	0.0103477	1.0107	0.716353	0	0
5.06671	-2.43133	-0.163158	0.0109664	-0.618012	-0.989765	0.209221	-0.442017	0.11406	-0.107025	0.513644	0.167616	0	0	-0.274051	-0.183931	-0.0961145	0.459111	0.0335321	0	0	-1.25091	0.13417	0.202551	1.27683	-0.254348	-0.0300288	1.02819	0.716908	0	0	1.21444	0.264466	0.0100598	1.01089	0.716263	0	0
5.0767	-2.43755	-0.180613	0.00619697	-0.626295	-0.98893	0.206572	-0.442512	0.12605	-0.0910732	0.516897	0.177921	0	0	-0.264116	-0.19324	-0.104835	0.406791	0.0298078	0	0	-1.24797	0.142499	0.219124	1.278	-0.252316	-0.0297794	1.02857	0.716841	0	0	1.21588	0.262503	0.00977201	1.01107	0.716173	0	0
