Coordinates
version=1
nRows=36
nColumns=38
inDegrees=no

Units are S.I. units (second, meters, Newtons, ...)
If the header above contains a line with 'inDegrees', this indicates whether rotational values are in degrees (yes) or radians (no).

endheader
time	pelvis_tilt	pelvis_list	pelvis_rotation	pelvis_tx	pelvis_ty	pelvis_tz	hip_flexion_r	hip_adduction_r	hip_rotation_r	knee_angle_r	ankle_angle_r	subtalar_angle_r	mtp_angle_r	hip_flexion_l	hip_adduction_l	hip_rotation_l	knee_angle_l	ankle_angle_l	subtalar_angle_l	mtp_angle_l	lumbar_extension	lumbar_bending	lumbar_rotation	arm_flex_r	arm_add_r	arm_rot_r	elbow_flex_r	pro_sup_r	wrist_flex_r	wrist_dev_r	arm_flex_l	arm_add_l	arm_rot_l	elbow_flex_l	pro_sup_l	wrist_flex_l	wrist_dev_l
3.37	-2.59362	0.334695	-0.14259	2.02857	-0.964893	0.175078	-0.290106	-0.612609	-0.212554	1.10757	-0.0295357	0	0	-0.437617	0.46888	0.175001	0.037011	-0.322191	0	0	-0.847091	-0.342918	-0.225248	0	0	0	0	0	0	0	0	0	0	0	0	0	0
3.37999	-2.58845	0.307994	-0.106158	2.02249	-0.965008	0.173734	-0.295076	-0.570561	-0.242141	1.08637	-0.0168672	0	0	-0.456594	0.431383	0.171908	0.0503863	-0.268413	0	0	-0.86419	-0.293624	-0.233071	0	0	0	0	0	0	0	0	0	0	0	0	0	0
3.38998	-2.58423	0.281907	-0.070369	2.01645	-0.965098	0.172376	-0.29805	-0.529436	-0.270778	1.06507	-0.00440714	0	0	-0.47406	0.394431	0.169568	0.0633933	-0.215858	0	0	-0.879963	-0.245439	-0.240493	0	0	0	0	0	0	0	0	0	0	0	0	0	0
3.39997	-2.58128	0.257752	-0.0362087	2.01031	-0.965214	0.171131	-0.298504	-0.490854	-0.298349	1.04283	0.00766041	0	0	-0.48917	0.359428	0.167648	0.0755556	-0.166704	0	0	-0.893583	-0.20038	-0.247625	0	0	0	0	0	0	0	0	0	0	0	0	0	0
3.40995	-2.57959	0.236415	-0.00440057	2.00396	-0.965355	0.170087	-0.296521	-0.455983	-0.325128	1.01884	0.0192993	0	0	-0.501574	0.32735	0.166175	0.0869397	-0.121489	0	0	-0.904619	-0.159807	-0.254661	0	0	0	0	0	0	0	0	0	0	0	0	0	0
3.41994	-2.57903	0.218352	0.0247025	1.99731	-0.965496	0.169313	-0.292504	-0.425364	-0.351602	0.99231	0.0305917	0	0	-0.511262	0.298655	0.165443	0.0981517	-0.0796587	0	0	-0.912998	-0.124403	-0.261784	0	0	0	0	0	0	0	0	0	0	0	0	0	0
3.42993	-2.57922	0.203693	0.0509477	1.99031	-0.965599	0.168854	-0.287212	-0.399137	-0.378383	0.96253	0.0416646	0	0	-0.518446	0.273446	0.165835	0.109982	-0.040253	0	0	-0.918993	-0.0943562	-0.269122	0	0	0	0	0	0	0	0	0	0	0	0	0	0
3.43992	-2.57974	0.192366	0.0744023	1.98298	-0.965631	0.168744	-0.281451	-0.377083	-0.406057	0.928858	0.0524601	0	0	-0.52346	0.251567	0.167578	0.123469	-0.00228363	0	0	-0.923188	-0.0694723	-0.276764	0	0	0	0	0	0	0	0	0	0	0	0	0	0
3.44991	-2.58026	0.184107	0.0953358	1.97538	-0.965551	0.168973	-0.275938	-0.358757	-0.435001	0.890985	0.0627915	0	0	-0.526687	0.232668	0.170607	0.139563	0.0351242	0	0	-0.926213	-0.049284	-0.28471	0	0	0	0	0	0	0	0	0	0	0	0	0	0
3.4599	-2.58049	0.178483	0.113992	1.96757	-0.965321	0.169491	-0.271269	-0.343593	-0.465295	0.848774	0.0724071	0	0	-0.528514	0.216286	0.174501	0.1588	0.0723518	0	0	-0.928629	-0.033183	-0.292827	0	0	0	0	0	0	0	0	0	0	0	0	0	0
3.46988	-2.58021	0.174857	0.130542	1.95975	-0.964871	0.170213	-0.267529	-0.330882	-0.496431	0.802441	0.0810086	0	0	-0.529296	0.20187	0.178496	0.180971	0.109118	0	0	-0.931133	-0.0203843	-0.300798	0	0	0	0	0	0	0	0	0	0	0	0	0	0
3.47987	-2.57907	0.172481	0.144935	1.95214	-0.964188	0.171174	-0.264732	-0.319531	-0.526874	0.752493	0.0883495	0	0	-0.529341	0.18882	0.181478	0.205523	0.143761	0	0	-0.934677	-0.0103384	-0.308104	0	0	0	0	0	0	0	0	0	0	0	0	0	0
3.48986	-2.57688	0.170651	0.157108	1.94509	-0.963297	0.172463	-0.262532	-0.308374	-0.554407	0.699466	0.0938074	0	0	-0.528897	0.176569	0.182161	0.231641	0.173451	0	0	-0.940448	-0.00262825	-0.314201	0	0	0	0	0	0	0	0	0	0	0	0	0	0
3.49985	-2.57345	0.168729	0.166871	1.93903	-0.962247	0.174183	-0.260319	-0.296349	-0.576069	0.644093	0.096359	0	0	-0.528158	0.16467	0.178862	0.25801	0.194025	0	0	-0.94983	0.00301771	-0.318502	0	0	0	0	0	0	0	0	0	0	0	0	0	0
3.50984	-2.56818	0.165713	0.175188	1.9344	-0.961112	0.176437	-0.258242	-0.281363	-0.589396	0.586824	0.0944842	0	0	-0.527263	0.151612	0.17067	0.284353	0.204809	0	0	-0.964544	0.00793464	-0.320758	0	0	0	0	0	0	0	0	0	0	0	0	0	0
3.51983	-2.56079	0.160839	0.181983	1.93132	-0.959903	0.179083	-0.256214	-0.262732	-0.593137	0.52809	0.0877331	0	0	-0.526308	0.13719	0.158181	0.310195	0.208405	0	0	-0.985055	0.0129688	-0.320257	0	0	0	0	0	0	0	0	0	0	0	0	0	0
3.52981	-2.55159	0.153924	0.186453	1.92968	-0.958586	0.181857	-0.253623	-0.241186	-0.587124	0.468702	0.0766054	0	0	-0.525349	0.12253	0.14369	0.334614	0.210592	0	0	-1.01073	0.0181183	-0.316107	0	0	0	0	0	0	0	0	0	0	0	0	0	0
3.5398	-2.54082	0.144955	0.187897	1.92922	-0.957114	0.184489	-0.250185	-0.217638	-0.572232	0.409942	0.062341	0	0	-0.524418	0.108335	0.128086	0.357996	0.213792	0	0	-1.04057	0.0232544	-0.30774	0	0	0	0	0	0	0	0	0	0	0	0	0	0
3.54979	-2.52872	0.13414	0.185953	1.92966	-0.955473	0.186746	-0.245753	-0.193092	-0.549555	0.353153	0.0458118	0	0	-0.523529	0.0949988	0.11152	0.381092	0.218542	0	0	-1.07361	0.0283131	-0.294993	0	0	0	0	0	0	0	0	0	0	0	0	0	0
3.55978	-2.51572	0.122081	0.180473	1.93073	-0.953681	0.188502	-0.24012	-0.168775	-0.520261	0.299746	0.0278616	0	0	-0.522688	0.0830417	0.0943047	0.404168	0.224678	0	0	-1.10875	0.0329851	-0.278175	0	0	0	0	0	0	0	0	0	0	0	0	0	0
3.56977	-2.5025	0.109991	0.17157	1.932	-0.951816	0.189785	-0.23323	-0.146226	-0.485644	0.250888	0.00938734	0	0	-0.5219	0.0734765	0.0768122	0.426925	0.231321	0	0	-1.14452	0.0364447	-0.25824	0	0	0	0	0	0	0	0	0	0	0	0	0	0
3.57976	-2.49031	0.0999145	0.159449	1.93286	-0.950015	0.190845	-0.224843	-0.127581	-0.447103	0.207518	-0.00851722	0	0	-0.521181	0.0679012	0.0601985	0.448075	0.237154	0	0	-1.17868	0.0368881	-0.236953	0	0	0	0	0	0	0	0	0	0	0	0	0	0
3.58975	-2.48129	0.0949701	0.144363	1.93244	-0.94848	0.192228	-0.214388	-0.115788	-0.406293	0.17029	-0.0244023	0	0	-0.520563	0.0686873	0.0466194	0.465066	0.240356	0	0	-1.20791	0.0311804	-0.217117	0	0	0	0	0	0	0	0	0	0	0	0	0	0
3.59973	-2.47633	0.0972334	0.126519	1.93024	-0.947309	0.19423	-0.201815	-0.112884	-0.364638	0.139918	-0.0374891	0	0	-0.520102	0.0775156	0.0378632	0.47703	0.239585	0	0	-1.23036	0.0173381	-0.201624	0	0	0	0	0	0	0	0	0	0	0	0	0	0
3.60972	-2.47594	0.108418	0.106313	1.92623	-0.946566	0.196958	-0.187146	-0.120623	-0.323449	0.116854	-0.0478044	0	0	-0.519885	0.095809	0.0350574	0.483214	0.233859	0	0	-1.24561	-0.00559358	-0.193261	0	0	0	0	0	0	0	0	0	0	0	0	0	0
3.61971	-2.48035	0.129976	0.0842702	1.92069	-0.946284	0.200321	-0.170407	-0.140654	-0.283981	0.10128	-0.0560152	0	0	-0.520033	0.124914	0.0387986	0.482781	0.22251	0	0	-1.25445	-0.0376749	-0.194666	0	0	0	0	0	0	0	0	0	0	0	0	0	0
3.6297	-2.48846	0.160296	0.0626888	1.91392	-0.946319	0.204052	-0.152661	-0.170862	-0.248466	0.0928853	-0.0630821	0	0	-0.520404	0.162206	0.0493826	0.47786	0.206939	0	0	-1.25833	-0.0756041	-0.206113	0	0	0	0	0	0	0	0	0	0	0	0	0	0
3.63969	-2.49882	0.195145	0.0439655	1.90605	-0.946535	0.207773	-0.135513	-0.20639	-0.218944	0.0908334	-0.0701753	0	0	-0.520891	0.202552	0.0655699	0.471598	0.189739	0	0	-1.25826	-0.114171	-0.225673	0	0	0	0	0	0	0	0	0	0	0	0	0	0
3.64968	-2.51016	0.230264	0.0301334	1.89731	-0.946932	0.211151	-0.120624	-0.242383	-0.196922	0.0937862	-0.0788647	0	0	-0.521419	0.240921	0.0850584	0.466708	0.172903	0	0	-1.25529	-0.148585	-0.250369	0	0	0	0	0	0	0	0	0	0	0	0	0	0
3.65966	-2.5215	0.261781	0.0231787	1.88795	-0.947627	0.213877	-0.109764	-0.27439	-0.183606	0.0998844	-0.0908526	0	0	-0.521941	0.272698	0.105499	0.465444	0.157641	0	0	-1.25024	-0.174485	-0.276796	0	0	0	0	0	0	0	0	0	0	0	0	0	0
3.66965	-2.53238	0.287729	0.0246891	1.8781	-0.948749	0.215852	-0.104502	-0.299934	-0.179808	0.106988	-0.107191	0	0	-0.52243	0.29519	0.125715	0.469622	0.144256	0	0	-1.24384	-0.189553	-0.302368	0	0	0	0	0	0	0	0	0	0	0	0	0	0
3.67964	-2.54211	0.307225	0.0333644	1.86805	-0.950301	0.217056	-0.104651	-0.318046	-0.183775	0.113894	-0.128354	0	0	-0.522876	0.308204	0.146214	0.479159	0.131886	0	0	-1.23711	-0.19395	-0.325353	0	0	0	0	0	0	0	0	0	0	0	0	0	0
3.68963	-2.55078	0.320539	0.0475207	1.85801	-0.95213	0.217611	-0.108838	-0.329066	-0.193295	0.120217	-0.153544	0	0	-0.523282	0.312801	0.166264	0.492738	0.121391	0	0	-1.23027	-0.189303	-0.344934	0	0	0	0	0	0	0	0	0	0	0	0	0	0
3.69962	-2.55858	0.329746	0.064948	1.84796	-0.954091	0.217778	-0.115632	-0.335347	-0.206118	0.126047	-0.180897	0	0	-0.523657	0.311879	0.185415	0.509029	0.112439	0	0	-1.22349	-0.179043	-0.361757	0	0	0	0	0	0	0	0	0	0	0	0	0	0
3.70961	-2.56591	0.33693	0.0838392	1.83789	-0.956074	0.217763	-0.123788	-0.339262	-0.220139	0.131515	-0.208388	0	0	-0.524012	0.308288	0.203934	0.526744	0.104439	0	0	-1.21675	-0.166179	-0.376985	0	0	0	0	0	0	0	0	0	0	0	0	0	0
3.71959	-2.57306	0.343411	0.103151	1.82781	-0.958059	0.217692	-0.132387	-0.342364	-0.234458	0.136855	-0.235884	0	0	-0.524359	0.303809	0.222174	0.544943	0.0967623	0	0	-1.21004	-0.152486	-0.39162	0	0	0	0	0	0	0	0	0	0	0	0	0	0
