Coordinates
version=1
nRows=60
nColumns=38
inDegrees=no

Units are S.I. units (second, meters, Newtons, ...)
If the header above contains a line with 'inDegrees', this indicates whether rotational values are in degrees (yes) or radians (no).

endheader
time	pelvis_tilt	pelvis_list	pelvis_rotation	pelvis_tx	pelvis_ty	pelvis_tz	hip_flexion_r	hip_adduction_r	hip_rotation_r	knee_angle_r	ankle_angle_r	subtalar_angle_r	mtp_angle_r	hip_flexion_l	hip_adduction_l	hip_rotation_l	knee_angle_l	ankle_angle_l	subtalar_angle_l	mtp_angle_l	lumbar_extension	lumbar_bending	lumbar_rotation	arm_flex_r	arm_add_r	arm_rot_r	elbow_flex_r	pro_sup_r	wrist_flex_r	wrist_dev_r	arm_flex_l	arm_add_l	arm_rot_l	elbow_flex_l	pro_sup_l	wrist_flex_l	wrist_dev_l
4.83	2.35568	-0.212866	-2.98679	1.40701	-0.985863	0.256909	-0.498793	-0.0695501	-0.336102	0.229286	-0.178019	0	0	-0.542383	-0.00648578	0.088279	1.08779	-0.477673	0	0	-1.3422	0.00741178	-0.209764	0	0	0	0	0	0	0	0	0	0	0	0	0	0
4.83999	2.35645	-0.200724	-2.99674	1.41627	-0.987066	0.257167	-0.503952	-0.0620714	-0.325086	0.231069	-0.173115	0	0	-0.524602	-0.00908721	0.0766338	1.07957	-0.449831	0	0	-1.3439	0.00587947	-0.188306	0	0	0	0	0	0	0	0	0	0	0	0	0	0
4.84997	2.35749	-0.188622	-3.00667	1.42552	-0.988248	0.257431	-0.508812	-0.0546934	-0.313932	0.23297	-0.168156	0	0	-0.506634	-0.0117018	0.0649033	1.07106	-0.421928	0	0	-1.34544	0.00432436	-0.166986	0	0	0	0	0	0	0	0	0	0	0	0	0	0
4.85996	2.35904	-0.176633	-3.01654	1.43475	-0.989377	0.257719	-0.513095	-0.0475796	-0.302519	0.235228	-0.162974	0	0	-0.488283	-0.0142816	0.0530425	1.06168	-0.393963	0	0	-1.3466	0.00274473	-0.146074	0	0	0	0	0	0	0	0	0	0	0	0	0	0
4.86994	2.36126	-0.164878	-3.02636	1.44397	-0.990421	0.258047	-0.516667	-0.0409296	-0.290748	0.238135	-0.157265	0	0	-0.46952	-0.0167043	0.0410756	1.05077	-0.366027	0	0	-1.34718	0.00115833	-0.125979	0	0	0	0	0	0	0	0	0	0	0	0	0	0
4.87993	2.36407	-0.153453	-3.03623	1.45323	-0.991343	0.258431	-0.519501	-0.0349189	-0.278414	0.24197	-0.150588	0	0	-0.450637	-0.0188018	0.0290213	1.03763	-0.338285	0	0	-1.34704	-0.00047719	-0.106951	0	0	0	0	0	0	0	0	0	0	0	0	0	0
4.88992	2.36753	-0.141893	-3.04596	1.4625	-0.992137	0.258907	-0.521637	-0.0289404	-0.265099	0.246308	-0.143333	0	0	-0.431724	-0.0209792	0.0170959	1.02162	-0.311012	0	0	-1.34615	-0.00168863	-0.0887753	0	0	0	0	0	0	0	0	0	0	0	0	0	0
4.8999	2.37167	-0.129635	-3.05531	1.47181	-0.992781	0.259507	-0.523157	-0.0222389	-0.250328	0.250728	-0.135831	0	0	-0.41284	-0.0237557	0.00560431	1.00232	-0.284435	0	0	-1.34441	-0.00193846	-0.0710045	0	0	0	0	0	0	0	0	0	0	0	0	0	0
4.90989	2.37651	-0.116086	-3.06402	1.48116	-0.993239	0.260263	-0.524164	-0.0140151	-0.233618	0.254856	-0.12829	0	0	-0.393997	-0.0276581	-0.0050545	0.979592	-0.258706	0	0	-1.34169	-0.000697671	-0.053095	0	0	0	0	0	0	0	0	0	0	0	0	0	0
4.91988	2.38206	-0.100652	-3.07186	1.49061	-0.993462	0.2612	-0.524761	-0.00347655	-0.214512	0.258391	-0.120787	0	0	-0.375162	-0.0331832	-0.0144162	0.953511	-0.233889	0	0	-1.33779	0.0025142	-0.0344896	0	0	0	0	0	0	0	0	0	0	0	0	0	0
4.92986	2.38829	-0.0836181	-3.07883	1.50012	-0.993469	0.262309	-0.52505	0.00913378	-0.193107	0.26129	-0.11337	0	0	-0.356673	-0.0403567	-0.023051	0.923532	-0.210538	0	0	-1.33285	0.00751518	-0.0150861	0	0	0	0	0	0	0	0	0	0	0	0	0	0
4.93985	2.39512	-0.0654099	-3.08509	1.50969	-0.993274	0.26357	-0.525119	0.0233342	-0.169742	0.263687	-0.105905	0	0	-0.338884	-0.0489654	-0.0314729	0.889248	-0.189173	0	0	-1.32707	0.0139862	0.00498764	0	0	0	0	0	0	0	0	0	0	0	0	0	0
4.94983	2.40245	-0.0464698	-3.09084	1.51931	-0.992881	0.264955	-0.525042	0.0385571	-0.144983	0.265825	-0.0980993	0	0	-0.32209	-0.0587186	-0.0401505	0.850496	-0.170193	0	0	-1.32065	0.0215464	0.0254906	0	0	0	0	0	0	0	0	0	0	0	0	0	0
4.95982	2.41013	-0.0272833	-3.09632	1.52899	-0.992278	0.266419	-0.524878	0.0541123	-0.119631	0.268123	-0.0894566	0	0	-0.306543	-0.069225	-0.0495139	0.807365	-0.15388	0	0	-1.31378	0.0296931	0.0460916	0	0	0	0	0	0	0	0	0	0	0	0	0	0
4.96981	2.41814	-0.0079626	-3.10165	1.53869	-0.991479	0.267931	-0.524671	0.0697453	-0.0943496	0.27062	-0.0800088	0	0	-0.292305	-0.0804329	-0.0598177	0.760018	-0.140478	0	0	-1.30682	0.0381836	0.066651	0	0	0	0	0	0	0	0	0	0	0	0	0	0
4.97979	2.42654	0.0118113	-3.10687	1.54838	-0.990511	0.269469	-0.524453	0.0856573	-0.0696338	0.272995	-0.0702328	0	0	-0.279182	-0.0927245	-0.0712678	0.708856	-0.130145	0	0	-1.30001	0.0470648	0.0873117	0	0	0	0	0	0	0	0	0	0	0	0	0	0
4.98978	2.43552	0.0327911	-3.11196	1.558	-0.989413	0.271003	-0.524246	0.102468	-0.0457684	0.274594	-0.0610391	0	0	-0.26676	-0.106919	-0.0840682	0.654493	-0.122906	0	0	-1.29345	0.0566696	0.108615	0	0	0	0	0	0	0	0	0	0	0	0	0	0
4.99976	2.44484	0.0544257	-3.11702	1.56758	-0.988169	0.272532	-0.524062	0.119685	-0.0224947	0.276128	-0.0519353	0	0	-0.255107	-0.122359	-0.0980392	0.597817	-0.118574	0	0	-1.28729	0.0666044	0.130583	0	0	0	0	0	0	0	0	0	0	0	0	0	0
5.00975	2.45417	0.0762238	-3.12209	1.57716	-0.986773	0.274057	-0.523908	0.136838	2.51189e-05	0.278358	-0.0424438	0	0	-0.244291	-0.138454	-0.112839	0.539791	-0.116896	0	0	-1.28167	0.0766113	0.152998	0	0	0	0	0	0	0	0	0	0	0	0	0	0
5.01974	2.46324	0.0979702	-3.12717	1.58677	-0.985235	0.275572	-0.523785	0.153684	0.0214564	0.281925	-0.032287	0	0	-0.234311	-0.154923	-0.128053	0.481477	-0.117511	0	0	-1.27667	0.0866066	0.175627	0	0	0	0	0	0	0	0	0	0	0	0	0	0
5.02972	2.47186	0.119762	-3.13228	1.59642	-0.983576	0.277058	-0.523691	0.170226	0.0414353	0.287307	-0.0213862	0	0	-0.225134	-0.171827	-0.143266	0.423972	-0.119914	0	0	-1.27226	0.0966185	0.198372	0	0	0	0	0	0	0	0	0	0	0	0	0	0
5.03971	2.48002	0.141199	-3.13756	1.60614	-0.981782	0.278521	-0.523624	0.186033	0.0597843	0.294531	-0.00959629	0	0	-0.216554	-0.188618	-0.157851	0.368238	-0.123408	0	0	-1.26827	0.106347	0.220987	0	0	0	0	0	0	0	0	0	0	0	0	0	0
5.0497	2.4877	0.162076	-3.1431	1.61592	-0.979855	0.279955	-0.523579	0.200845	0.0762709	0.303589	0.00308515	0	0	-0.208509	-0.204975	-0.171058	0.314989	-0.12719	0	0	-1.26468	0.115596	0.243301	0	0	0	0	0	0	0	0	0	0	0	0	0	0
5.05968	2.49494	0.182504	-3.14899	1.6258	-0.977804	0.281336	-0.523552	0.214677	0.0906991	0.314455	0.0166404	0	0	-0.20101	-0.220957	-0.182153	0.264892	-0.130247	0	0	-1.26133	0.12432	0.265288	0	0	0	0	0	0	0	0	0	0	0	0	0	0
5.06967	2.50183	0.202277	-3.15518	1.63576	-0.975621	0.28271	-0.523539	0.227503	0.103692	0.326935	0.0311488	0	0	-0.194051	-0.236225	-0.190067	0.218347	-0.131319	0	0	-1.25811	0.132502	0.286851	0	0	0	0	0	0	0	0	0	0	0	0	0	0
5.07965	2.50853	0.221449	-3.16159	1.64585	-0.973296	0.284105	-0.523535	0.239546	0.115889	0.340739	0.0466083	0	0	-0.187649	-0.250762	-0.193738	0.175698	-0.12886	0	0	-1.25471	0.140294	0.3079	0	0	0	0	0	0	0	0	0	0	0	0	0	0
5.08964	2.5151	0.239976	-3.16812	1.65604	-0.970868	0.28554	-0.523537	0.25094	0.127934	0.355605	0.0627057	0	0	-0.181757	-0.264568	-0.192902	0.137513	-0.122793	0	0	-1.25111	0.147733	0.328335	0	0	0	0	0	0	0	0	0	0	0	0	0	0
5.09963	2.52148	0.257347	-3.17482	1.66627	-0.968411	0.287006	-0.523544	0.261202	0.139766	0.371391	0.0791459	0	0	-0.176293	-0.277229	-0.188469	0.10454	-0.114647	0	0	-1.24757	0.154359	0.347828	0	0	0	0	0	0	0	0	0	0	0	0	0	0
5.10961	2.52761	0.273171	-3.18174	1.67652	-0.965994	0.288486	-0.523552	0.269937	0.151239	0.388001	0.095674	0	0	-0.17122	-0.288456	-0.181676	0.0774041	-0.105722	0	0	-1.24421	0.159792	0.365955	0	0	0	0	0	0	0	0	0	0	0	0	0	0
5.1196	2.53348	0.287235	-3.18893	1.68677	-0.963677	0.289961	-0.523562	0.276945	0.162318	0.405304	0.112005	0	0	-0.166493	-0.298145	-0.173877	0.0565574	-0.0970266	0	0	-1.241	0.163806	0.382333	0	0	0	0	0	0	0	0	0	0	0	0	0	0
5.12959	2.53914	0.299506	-3.1964	1.69705	-0.961515	0.291406	-0.52357	0.282214	0.173126	0.423122	0.127811	0	0	-0.162056	-0.306366	-0.166355	0.0422176	-0.0892256	0	0	-1.23782	0.166342	0.396731	0	0	0	0	0	0	0	0	0	0	0	0	0	0
5.13957	2.54474	0.309976	-3.20431	1.70737	-0.959549	0.29278	-0.523578	0.285612	0.183387	0.44109	0.142785	0	0	-0.157818	-0.313189	-0.160233	0.0343148	-0.0825225	0	0	-1.23442	0.167247	0.409027	0	0	0	0	0	0	0	0	0	0	0	0	0	0
5.14956	2.55039	0.318693	-3.21271	1.71774	-0.957817	0.294053	-0.523585	0.287113	0.192923	0.458945	0.156521	0	0	-0.153766	-0.318699	-0.156321	0.0324896	-0.0766349	0	0	-1.23071	0.166468	0.419237	0	0	0	0	0	0	0	0	0	0	0	0	0	0
5.15954	2.55607	0.325781	-3.22157	1.72817	-0.956353	0.295211	-0.52359	0.28684	0.201716	0.476572	0.168553	0	0	-0.149945	-0.323032	-0.15507	0.0361585	-0.0708226	0	0	-1.22668	0.16414	0.427439	0	0	0	0	0	0	0	0	0	0	0	0	0	0
5.16953	2.56175	0.331409	-3.23074	1.73867	-0.955185	0.296252	-0.523594	0.285048	0.209875	0.493969	0.178359	0	0	-0.146446	-0.326338	-0.156546	0.0445448	-0.063944	0	0	-1.22241	0.160523	0.43379	0	0	0	0	0	0	0	0	0	0	0	0	0	0
5.17952	2.56733	0.335774	-3.23998	1.74926	-0.954333	0.29718	-0.523597	0.282074	0.21756	0.51123	0.185462	0	0	-0.143403	-0.328771	-0.160427	0.05672	-0.054563	0	0	-1.21792	0.155954	0.438458	0	0	0	0	0	0	0	0	0	0	0	0	0	0
5.1895	2.57261	0.339079	-3.24897	1.75996	-0.953804	0.298021	-0.523599	0.278348	0.225016	0.528622	0.189409	0	0	-0.141067	-0.330472	-0.165986	0.0716212	-0.041083	0	0	-1.21333	0.150843	0.441632	0	0	0	0	0	0	0	0	0	0	0	0	0	0
5.19949	2.57751	0.341546	-3.25741	1.77079	-0.953588	0.298788	-0.523601	0.274192	0.232148	0.546228	0.189754	0	0	-0.139677	-0.33158	-0.172183	0.0881083	-0.0219926	0	0	-1.20878	0.145559	0.443504	0	0	0	0	0	0	0	0	0	0	0	0	0	0
5.20947	2.58195	0.343372	-3.26509	1.78172	-0.953652	0.299493	-0.523601	0.269753	0.238452	0.563967	0.186081	0	0	-0.139462	-0.332185	-0.177859	0.105034	0.00364579	0	0	-1.20438	0.140388	0.444252	0	0	0	0	0	0	0	0	0	0	0	0	0	0
5.21946	2.58573	0.344349	-3.27179	1.79271	-0.953998	0.300154	-0.523601	0.264769	0.243219	0.581866	0.178024	0	0	-0.140623	-0.331957	-0.182568	0.121517	0.0337294	0	0	-1.20039	0.135279	0.443872	0	0	0	0	0	0	0	0	0	0	0	0	0	0
5.22945	2.58846	0.343914	-3.27742	1.80369	-0.954656	0.300788	-0.523601	0.258545	0.245614	0.600055	0.165336	0	0	-0.143553	-0.330098	-0.185918	0.13675	0.0676412	0	0	-1.19708	0.129787	0.442128	0	0	0	0	0	0	0	0	0	0	0	0	0	0
5.23943	2.58968	0.34148	-3.28192	1.81459	-0.955632	0.301398	-0.523601	0.250346	0.244875	0.618904	0.147943	0	0	-0.148836	-0.325755	-0.187854	0.149798	0.102501	0	0	-1.1948	0.123354	0.438696	0	0	0	0	0	0	0	0	0	0	0	0	0	0
5.24942	2.58868	0.336115	-3.28538	1.82529	-0.956973	0.301969	-0.523601	0.239031	0.240188	0.638987	0.12588	0	0	-0.157332	-0.317625	-0.188439	0.15969	0.136376	0	0	-1.19413	0.114959	0.433099	0	0	0	0	0	0	0	0	0	0	0	0	0	0
5.25941	2.58441	0.326314	-3.28792	1.83561	-0.958771	0.302475	-0.5236	0.222831	0.230434	0.661194	0.099387	0	0	-0.170181	-0.303696	-0.187612	0.165578	0.169478	0	0	-1.196	0.102975	0.424566	0	0	0	0	0	0	0	0	0	0	0	0	0	0
5.26939	2.57656	0.311888	-3.2895	1.84553	-0.961015	0.302988	-0.5236	0.201367	0.215261	0.685733	0.0688603	0	0	-0.187724	-0.283562	-0.185153	0.167411	0.203825	0	0	-1.20071	0.0873943	0.41265	0	0	0	0	0	0	0	0	0	0	0	0	0	0
5.27938	2.56593	0.294572	-3.28994	1.85527	-0.96352	0.303638	-0.5236	0.176264	0.195156	0.711888	0.0349446	0	0	-0.208947	-0.259293	-0.181171	0.16613	0.238084	0	0	-1.2077	0.0703608	0.397706	0	0	0	0	0	0	0	0	0	0	0	0	0	0
5.28936	2.55342	0.276419	-3.28906	1.86498	-0.966128	0.304522	-0.523599	0.149712	0.171388	0.73875	-0.00162552	0	0	-0.232538	-0.233507	-0.176422	0.163124	0.270105	0	0	-1.21633	0.0540629	0.380705	0	0	0	0	0	0	0	0	0	0	0	0	0	0
5.29935	2.53977	0.259479	-3.28667	1.87479	-0.968707	0.305717	-0.523599	0.12403	0.145487	0.765595	-0.0398118	0	0	-0.257123	-0.208921	-0.172075	0.16026	0.298074	0	0	-1.22618	0.0404535	0.362981	0	0	0	0	0	0	0	0	0	0	0	0	0	0
5.30934	2.52569	0.24568	-3.2826	1.88479	-0.971152	0.307273	-0.523599	0.101459	0.118988	0.791705	-0.0781726	0	0	-0.281029	-0.188231	-0.169518	0.160187	0.320966	0	0	-1.23668	0.0311946	0.345973	0	0	0	0	0	0	0	0	0	0	0	0	0	0
5.31932	2.51166	0.23665	-3.27679	1.895	-0.973456	0.309194	-0.523599	0.0839301	0.0932365	0.816378	-0.115235	0	0	-0.303497	-0.173573	-0.169979	0.164021	0.338624	0	0	-1.24763	0.0274024	0.331073	0	0	0	0	0	0	0	0	0	0	0	0	0	0
5.32931	2.49795	0.233127	-3.2694	1.90534	-0.975676	0.311419	-0.523599	0.0723628	0.0690186	0.839021	-0.149363	0	0	-0.324628	-0.165853	-0.174124	0.171298	0.351473	0	0	-1.25893	0.0291513	0.319431	0	0	0	0	0	0	0	0	0	0	0	0	0	0
5.33929	2.4845	0.234902	-3.26083	1.91567	-0.97793	0.313829	-0.523599	0.0665935	0.0465732	0.85933	-0.17891	0	0	-0.345479	-0.164655	-0.181779	0.179923	0.36041	0	0	-1.27087	0.0354925	0.311707	0	0	0	0	0	0	0	0	0	0	0	0	0	0
5.34928	2.47106	0.240979	-3.25148	1.92583	-0.980318	0.316287	-0.523599	0.0656779	0.0256047	0.877325	-0.20221	0	0	-0.366678	-0.168772	-0.192397	0.188759	0.367046	0	0	-1.28375	0.0449962	0.307967	0	0	0	0	0	0	0	0	0	0	0	0	0	0
5.35927	2.45712	0.249576	-3.24166	1.93563	-0.982929	0.318657	-0.523599	0.0679979	0.00549013	0.893496	-0.217832	0	0	-0.388722	-0.17621	-0.205186	0.197128	0.373666	0	0	-1.29817	0.0557492	0.307583	0	0	0	0	0	0	0	0	0	0	0	0	0	0
5.36925	2.44205	0.258135	-3.23194	1.94491	-0.98583	0.320754	-0.523599	0.0711572	-0.0143366	0.908617	-0.224728	0	0	-0.412009	-0.18406	-0.219115	0.204634	0.382968	0	0	-1.31456	0.0651508	0.309116	0	0	0	0	0	0	0	0	0	0	0	0	0	0
5.37924	2.42556	0.264721	-3.22253	1.95367	-0.98897	0.322538	-0.523599	0.0735835	-0.033891	0.92338	-0.22248	0	0	-0.436475	-0.190167	-0.233318	0.211469	0.396476	0	0	-1.33267	0.0717833	0.311069	0	0	0	0	0	0	0	0	0	0	0	0	0	0
5.38923	2.40796	0.269386	-3.21311	1.96211	-0.992217	0.324127	-0.523599	0.0755613	-0.0529642	0.937806	-0.212154	0	0	-0.461539	-0.194684	-0.247442	0.218286	0.413925	0	0	-1.35196	0.0764171	0.312774	0	0	0	0	0	0	0	0	0	0	0	0	0	0
5.39921	2.38969	0.2727	-3.20341	1.97038	-0.995462	0.325626	-0.523599	0.0776006	-0.0715061	0.951702	-0.196137	0	0	-0.4865	-0.198341	-0.261381	0.225898	0.434226	0	0	-1.37188	0.0800363	0.314087	0	0	0	0	0	0	0	0	0	0	0	0	0	0
5.4092	2.37104	0.275089	-3.19338	1.97854	-0.998696	0.327092	-0.523599	0.0799572	-0.0894413	0.964992	-0.17697	0	0	-0.511269	-0.201471	-0.275108	0.234046	0.456045	0	0	-1.39219	0.0831594	0.315087	0	0	0	0	0	0	0	0	0	0	0	0	0	0
5.41918	2.35227	0.277087	-3.18318	1.98666	-1.00193	0.328549	-0.523599	0.0825667	-0.107034	0.977869	-0.156706	0	0	-0.535916	-0.2044	-0.28865	0.242463	0.478287	0	0	-1.41269	0.0861212	0.315943	0	0	0	0	0	0	0	0	0	0	0	0	0	0
