Coordinates
version=1
nRows=217
nColumns=38
inDegrees=no

Units are S.I. units (second, meters, Newtons, ...)
If the header above contains a line with 'inDegrees', this indicates whether rotational values are in degrees (yes) or radians (no).

endheader
time	pelvis_tilt_moment	pelvis_list_moment	pelvis_rotation_moment	pelvis_tx_force	pelvis_ty_force	pelvis_tz_force	hip_flexion_r_moment	hip_adduction_r_moment	hip_rotation_r_moment	knee_angle_r_moment	ankle_angle_r_moment	subtalar_angle_r_moment	mtp_angle_r_moment	hip_flexion_l_moment	hip_adduction_l_moment	hip_rotation_l_moment	knee_angle_l_moment	ankle_angle_l_moment	subtalar_angle_l_moment	mtp_angle_l_moment	lumbar_extension_moment	lumbar_bending_moment	lumbar_rotation_moment	arm_flex_r_moment	arm_add_r_moment	arm_rot_r_moment	elbow_flex_r_moment	pro_sup_r_moment	wrist_flex_r_moment	wrist_dev_r_moment	arm_flex_l_moment	arm_add_l_moment	arm_rot_l_moment	elbow_flex_l_moment	pro_sup_l_moment	wrist_flex_l_moment	wrist_dev_l_moment
0	0	0	0	0	0	0	0	0	0	0	0	0	0	0	0	0	0	0	0	0	0	0	0	0	0	0	0	0	0	0	0	0	0	0	0	0	0
0.00497696	78.7101	0.623543	-13.3379	-38.369	642.003	23.9189	-20.4623	18.9424	-2.49056	11.7685	2.5784	-0.0463351	-0.137855	-8.50056	15.0236	-6.43385	-6.71534	22.5563	5.47352	-0.0907062	4.79911	10.2657	1.55231	-2.46618	-3.53918	-0.0649497	-0.994096	-0.0397827	-0.052123	-0.0904729	-2.39165	3.18095	-0.00136972	-0.582986	0.00841849	-0.0508458	0.0945585
0.00995392	72.1567	0.585186	-13.5755	-53.4969	594.138	26.5647	-17.5117	19.5752	-2.71917	11.6234	2.51898	0.0340478	-0.13773	-8.75068	11.8918	-5.67953	-11.3548	25.417	7.08512	-0.0931332	4.53036	10.738	1.60664	-2.63002	-3.58292	-0.0689278	-1.04783	-0.0412784	-0.0589188	-0.0906192	-2.54732	3.22614	-0.00428698	-0.633343	0.00725875	-0.0574591	0.0947544
0.0149309	64.9198	0.104486	-13.3955	-68.79	547.049	28.8098	-13.5711	20.2886	-2.97506	11.1703	2.49139	0.113753	-0.138341	-9.30226	8.59484	-4.87344	-16.0147	27.7121	8.74023	-0.096346	4.17178	11.3882	1.70112	-2.84427	-3.61116	-0.0736927	-1.11626	-0.0429538	-0.067811	-0.0897344	-2.76504	3.25601	-0.00878624	-0.705571	0.00535706	-0.0665497	0.0939342
0.0199078	57.0759	-0.791406	-12.8307	-83.8923	500.982	30.9853	-8.87254	21.0171	-3.26298	10.4557	2.50214	0.186962	-0.139973	-10.0134	5.05327	-4.01327	-20.7535	29.4471	10.4428	-0.0999799	3.77967	12.2	1.83328	-3.09567	-3.61394	-0.0788146	-1.19398	-0.0446044	-0.0781396	-0.0875227	-3.03292	3.26049	-0.0146664	-0.795845	0.00275653	-0.077495	0.0917981
0.0248848	48.7534	-2.06514	-11.9278	-98.3828	456.087	33.3565	-3.64332	21.7099	-3.58517	9.52933	2.55364	0.249718	-0.142773	-10.7927	1.22111	-3.0966	-25.5984	30.6309	12.1963	-0.103674	3.40314	13.1504	1.99728	-3.3743	-3.58479	-0.0839929	-1.27691	-0.0460901	-0.0893889	-0.0838259	-3.34048	3.23295	-0.0217132	-0.900637	-0.000480005	-0.0897606	0.0881816
0.0298618	40.1141	-3.64505	-10.7313	-111.825	412.486	36.0874	1.90145	22.3065	-3.93778	8.43834	2.64526	0.298791	-0.146761	-11.5807	-2.91518	-2.12205	-30.5532	31.2783	14.0028	-0.107094	3.08303	14.2114	2.18532	-3.67218	-3.52036	-0.0890195	-1.36191	-0.0473205	-0.101142	-0.0786037	-3.67802	3.16988	-0.0296972	-1.01657	-0.00427067	-0.102873	0.0830376
0.0348387	31.3304	-5.43372	-9.28527	-123.808	370.307	39.249	7.56366	22.7428	-4.31113	7.22569	2.77392	0.331661	-0.151845	-12.3325	-7.34056	-1.08987	-35.607	31.4111	15.8618	-0.109953	2.85124	15.3523	2.38843	-3.98276	-3.42018	-0.0937607	-1.44663	-0.0482468	-0.113061	-0.0719201	-4.03638	3.07059	-0.0383756	-1.14036	-0.0085167	-0.116411	0.0764229
0.0398157	22.5509	-7.374	-7.66483	-133.991	329.676	42.9029	13.1788	23.0132	-4.7027	5.92663	2.9344	0.34871	-0.157869	-13.0066	-12.016	-0.00250482	-40.7398	31.0596	17.7694	-0.112023	2.73047	16.5413	2.5971	-4.30056	-3.28632	-0.0981447	-1.52935	-0.048856	-0.124874	-0.0639293	-4.40685	2.93692	-0.0474978	-1.26885	-0.0131056	-0.130004	0.0684852
0.0447926	13.9409	-9.30046	-5.89068	-142.086	290.761	46.9152	18.5851	23.0185	-5.08612	4.57264	3.12103	0.347143	-0.164581	-13.5631	-16.8835	1.13499	-45.9252	30.2625	19.7186	-0.113142	2.73437	17.7466	2.80176	-4.62093	-3.12312	-0.102152	-1.6089	-0.0491653	-0.136371	-0.0548623	-4.78121	2.773	-0.0568095	-1.39901	-0.0179142	-0.143325	0.0594495
0.0497696	5.64524	-11.0792	-4.00019	-147.892	253.716	51.1361	23.6504	22.7017	-5.43725	3.18809	3.32715	0.326005	-0.171696	-13.9691	-21.8714	2.31455	-51.1291	29.0649	21.6996	-0.11322	2.86808	18.9379	2.99324	-4.93987	-2.93683	-0.105802	-1.68457	-0.0492165	-0.147388	-0.0450118	-5.15173	2.58487	-0.066058	-1.52796	-0.0228124	-0.156098	0.0496042
0.0547465	-2.20746	-12.5965	-2.03572	-151.298	218.681	55.3908	28.2702	22.0309	-5.73291	1.79095	3.54577	0.285406	-0.178914	-14.2013	-26.9001	3.52508	-56.3107	27.5168	23.7004	-0.11224	3.12927	20.0877	3.16316	-5.25386	-2.73521	-0.109149	-1.75599	-0.0490702	-0.157805	-0.0347172	-5.51118	2.38014	-0.0749961	-1.65297	-0.0276661	-0.168082	0.0392854
0.0597235	-9.50568	-13.756	-0.0374218	-152.278	185.786	59.4813	32.3657	20.9899	-5.95034	0.394047	3.77005	0.226048	-0.185936	-14.2454	-31.8884	4.75304	-61.4237	25.6705	25.7073	-0.110249	3.50934	21.172	3.30417	-5.5596	-2.52719	-0.112263	-1.82303	-0.0487996	-0.167529	-0.0243484	-5.85274	2.16761	-0.0833846	-1.77148	-0.0323396	-0.179075	0.028862
0.0647005	-16.1614	-14.4899	1.94799	-150.896	155.164	63.2086	35.8852	19.5927	-6.07275	-0.99304	3.9936	0.149718	-0.19249	-14.0914	-36.7505	5.98204	-66.4193	23.5788	27.7055	-0.107354	3.9949	22.1711	3.4102	-5.85394	-2.32243	-0.115226	-1.88572	-0.0484848	-0.176484	-0.0142909	-6.17007	1.95689	-0.0909952	-1.88107	-0.0366993	-0.188902	0.0187199
0.0696774	-22.1161	-14.8272	3.85782	-147.304	126.964	66.4699	38.8071	17.9124	-6.10107	-2.36098	4.21056	0.0604527	-0.198368	-13.7376	-41.4319	7.19758	-71.2478	21.2931	29.6784	-0.103701	4.56914	23.0703	3.47656	-6.1337	-2.13094	-0.118121	-1.94413	-0.0482074	-0.184608	-0.0049308	-6.45721	1.75793	-0.0976129	-1.97949	-0.0406157	-0.197412	0.00924716
0.0746544	-27.3124	-14.6947	5.70534	-141.696	101.359	69.0053	41.1161	15.9114	-6.00406	-3.70763	4.41647	-0.0423277	-0.203336	-13.1853	-45.8826	8.38441	-75.8583	18.8618	31.6095	-0.0994686	5.21314	23.8596	3.5	-6.39564	-1.96265	-0.121025	-1.99833	-0.048046	-0.191841	0.00335997	-6.70865	1.58068	-0.10304	-2.06465	-0.0439666	-0.204471	0.000819214
0.0796313	-31.7261	-14.1206	7.46737	-134.346	78.5571	70.6845	42.8251	13.6357	-5.77577	-5.02711	4.60739	-0.156055	-0.207253	-12.4383	-50.0657	9.52802	-80.201	16.3294	33.482	-0.0948569	5.90684	24.5335	3.47871	-6.63644	-1.827	-0.124002	-2.04831	-0.0480716	-0.198123	0.0102366	-6.91934	1.43464	-0.107099	-2.13467	-0.0466409	-0.209966	-0.00621479
0.0846083	-35.356	-13.1616	9.12378	-125.583	58.8062	71.4215	43.9646	11.1428	-5.41723	-6.31183	4.78024	-0.277813	-0.210036	-11.4989	-53.9576	10.615	-84.2293	13.7354	35.28	-0.0900703	6.62981	25.0909	3.4123	-6.85273	-1.7326	-0.127101	-2.09402	-0.0483451	-0.203394	0.0153943	-7.08484	1.32845	-0.109638	-2.18789	-0.0485413	-0.213801	-0.0115449
0.0895853	-38.2232	-11.8959	10.6563	-115.786	42.3935	71.1799	44.58	8.49925	-4.93673	-7.55136	4.93266	-0.404397	-0.211658	-10.3656	-57.5448	11.6334	-87.9014	11.1149	36.9883	-0.0853087	7.36154	25.534	3.30168	-7.04122	-1.68679	-0.130352	-2.13532	-0.0489146	-0.207596	0.01858	-7.20137	1.26954	-0.110538	-2.223	-0.049589	-0.215902	-0.0149127
0.0945622	-40.3788	-10.4472	12.0311	-105.385	29.6323	70.016	44.7371	5.80589	-4.36121	-8.73357	5.06288	-0.531162	-0.21216	-9.03201	-60.8222	12.5724	-91.1818	8.49736	38.5932	-0.0807578	8.0816	25.8682	3.14896	-7.19882	-1.69533	-0.133767	-2.172	-0.049814	-0.210681	0.0196027	-7.26605	1.26372	-0.109717	-2.23902	-0.0497268	-0.216224	-0.0161216
0.0995392	-41.8766	-8.91456	13.2308	-94.8305	20.8783	67.9978	44.5002	3.13551	-3.71314	-9.84089	5.1697	-0.654591	-0.211611	-7.48728	-63.7901	13.4231	-94.0416	5.90758	40.0827	-0.076583	8.76938	26.1007	2.95728	-7.3228	-1.76211	-0.13734	-2.20387	-0.051062	-0.212613	0.0183425	-7.27697	1.31494	-0.107137	-2.23545	-0.0489231	-0.214756	-0.0150468
0.104516	-42.7629	-7.35792	14.2557	-84.582	16.5258	65.1926	43.9238	0.52402	-3.00429	-10.8498	5.25221	-0.772704	-0.210094	-5.71706	-66.4513	14.1774	-96.459	3.36557	41.4463	-0.0729241	9.40371	26.2404	2.73067	-7.41099	-1.8889	-0.14105	-2.23074	-0.0526622	-0.213379	0.0147571	-7.23334	1.42498	-0.102807	-2.21228	-0.0471747	-0.211524	-0.0116414
0.109493	-43.1	-5.86801	15.0836	-75.1184	16.968	61.7647	43.0762	-1.95974	-2.26428	-11.7358	5.30977	-0.882071	-0.207738	-3.70579	-68.8081	14.8283	-98.4189	0.88735	42.6752	-0.0698933	9.96242	26.2968	2.47386	-7.46182	-2.07521	-0.144862	-2.2525	-0.0546033	-0.212991	0.00888533	-7.1356	1.59339	-0.0967891	-2.17005	-0.0445086	-0.206605	-0.00594009
0.11447	-42.9465	-4.52421	15.6893	-66.9183	22.601	57.9208	42.0245	-4.25242	-1.52513	-12.4727	5.34201	-0.97944	-0.204691	-1.43868	-70.8615	15.3695	-99.9127	-1.51435	43.7621	-0.0675743	10.4219	26.2802	2.19221	-7.47447	-2.31828	-0.14873	-2.2691	-0.0568599	-0.211496	0.000846854	-6.9854	1.81737	-0.0891969	-2.10986	-0.040982	-0.200117	0.00194079
0.119447	-42.3545	-3.3929	16.0454	-60.4514	33.8128	53.905	40.8336	-6.29801	-0.819559	-13.0336	5.34887	-1.06187	-0.201113	1.09676	-72.6111	15.7961	-100.938	-3.82931	44.701	-0.0660235	10.7568	26.2007	1.89153	-7.44879	-2.61317	-0.152598	-2.28063	-0.0593936	-0.208967	-0.00916156	-6.78553	2.09194	-0.0801934	-2.03338	-0.0366817	-0.192228	0.0118072
0.124424	-41.3676	-2.52948	16.1231	-56.1719	50.9718	49.995	39.5656	-8.048	-0.1799	-13.3929	5.33067	-1.12679	-0.197169	3.90986	-74.0571	16.1048	-101.5	-6.04902	45.4873	-0.065272	10.9404	26.0688	1.57802	-7.3852	-2.95297	-0.1564	-2.28721	-0.0621538	-0.205508	-0.0208736	-6.53974	2.41012	-0.069985	-1.9427	-0.0317197	-0.183141	0.0233949
0.129401	-40.0277	-2.01114	15.8842	-54.5044	74.4081	46.5228	38.2841	-9.43809	0.351189	-13.5276	5.28816	-1.171	-0.193045	7.00317	-75.2012	16.2945	-101.609	-8.16666	46.1173	-0.0653051	10.9475	25.8995	1.2626	-7.28285	-3.32825	-0.159989	-2.28838	-0.0650504	-0.201168	-0.0339254	-6.25289	2.76245	-0.0588452	-1.84037	-0.0262421	-0.173083	0.0363428
0.134378	-38.3545	-1.83112	15.3272	-55.8464	104.42	43.7493	37.0368	-10.4773	0.766147	-13.4206	5.22286	-1.19488	-0.18888	10.378	-76.0503	16.3664	-101.281	-10.1755	46.5885	-0.0661096	10.7499	25.7023	0.952069	-7.14261	-3.72923	-0.163275	-2.28425	-0.0680121	-0.19607	-0.0479521	-5.9298	3.13903	-0.0470369	-1.72906	-0.0203955	-0.162299	0.0502873
0.139355	-36.3716	-2.01621	14.4308	-60.5735	141.238	42.0011	35.8764	-11.1458	1.04387	-13.0603	5.13675	-1.19773	-0.184833	14.0324	-76.6163	16.3245	-100.542	-12.0689	46.8993	-0.0676605	10.3194	25.4859	0.651895	-6.96568	-4.14531	-0.166175	-2.27499	-0.070965	-0.190349	-0.0625634	-5.57511	3.52918	-0.0348195	-1.61144	-0.0143299	-0.151029	0.0648391
0.144332	-34.1018	-2.58669	13.1803	-69.0281	185.015	41.6016	34.8542	-11.4318	1.16824	-12.4427	5.03263	-1.17956	-0.181055	17.9615	-76.916	16.1746	-99.4201	-13.8404	47.0495	-0.0699199	9.62923	25.258	0.367216	-6.75296	-4.56549	-0.168595	-2.26058	-0.0738294	-0.184124	-0.0773571	-5.19308	3.92183	-0.0224465	-1.49008	-0.00819488	-0.139498	0.0795972
0.149309	-31.5716	-3.55735	11.57	-81.5144	235.799	42.8604	34.0209	-11.3317	1.12852	-11.5728	4.91402	-1.14107	-0.177691	22.1576	-76.9718	15.9251	-97.9532	-15.4836	47.0399	-0.0728385	8.65516	25.0253	0.103159	-6.50467	-4.97879	-0.170425	-2.2408	-0.0765195	-0.177481	-0.0919356	-4.78736	4.30594	-0.0101568	-1.36728	-0.00213273	-0.127898	0.0941654
0.154286	-28.8145	-4.93827	9.60453	-98.2928	293.512	46.0634	33.4263	-10.8488	0.919417	-10.4644	4.78516	-1.08364	-0.174875	26.6104	-76.8121	15.5859	-96.1824	-16.9921	46.8729	-0.0763576	7.37675	24.793	-0.135215	-6.22017	-5.37462	-0.171535	-2.21509	-0.0789446	-0.170463	-0.105922	-4.36076	4.67089	0.00183544	-1.24498	0.00372738	-0.116377	0.108168
0.159263	-25.8735	-6.73455	7.2997	-119.571	357.921	51.4644	33.1196	-9.99255	0.541031	-9.14066	4.65088	-1.00921	-0.172727	31.3065	-76.4708	15.1687	-94.1543	-18.3599	46.552	-0.0804095	5.77854	24.5633	-0.343125	-5.89783	-5.74309	-0.171778	-2.18257	-0.0810113	-0.16306	-0.118973	-3.91504	5.00686	0.013349	-1.12461	0.00927479	-0.105031	0.121261
0.16424	-22.8033	-8.94504	4.68264	-145.495	428.599	59.275	33.1477	-8.77816	-0.0014606	-7.63353	4.51635	-0.920219	-0.171347	36.2288	-75.9866	14.6863	-91.9184	-19.582	46.0823	-0.0849184	3.85112	24.3354	-0.516347	-5.53506	-6.07519	-0.170992	-2.14201	-0.0826245	-0.155213	-0.130788	-3.45086	5.30493	0.0242419	-1.00705	0.0144209	-0.0938978	0.133145
0.169217	-19.6722	-11.5604	1.79145	-176.134	504.894	69.6565	33.5543	-7.22593	-0.698229	-5.9832	4.38693	-0.819477	-0.17081	41.3556	-75.4011	14.1519	-89.5264	-20.6541	45.4703	-0.0897997	1.59215	24.1045	-0.65149	-5.12851	-6.36289	-0.169003	-2.09186	-0.0836899	-0.146809	-0.141112	-2.96781	5.55725	0.0344138	-0.892608	0.0191008	-0.0829556	0.143565
0.174194	-16.5637	-14.5608	-1.32554	-211.467	585.884	82.7104	34.3774	-5.36082	-1.53537	-4.23744	4.26787	-0.710062	-0.171161	46.6596	-74.7565	13.5787	-87.0301	-21.5737	44.7237	-0.0949583	-0.992707	23.8612	-0.746216	-4.6742	-6.59904	-0.165631	-2.03029	-0.0841144	-0.137694	-0.149741	-2.46448	5.75703	0.0438046	-0.781018	0.0232733	-0.0721268	0.152314
0.179171	-45.489	-5.11696	8.49194	-12.2041	-96.431	5.93176	25.9837	-5.99454	-1.32974	-14.4176	3.89055	-0.725976	-0.134735	21.6445	-69.2623	13.053	-79.3581	-24.2059	44.1674	-0.0493959	6.79841	16.8494	-1.84066	-5.63916	-4.48953	-0.163894	-1.93824	-0.0726058	-0.164033	-0.100847	-3.39363	4.10134	0.0131747	-0.895624	0.00943893	-0.0976416	0.103565
0.184147	-44.0317	-6.69081	6.8134	-11.8309	-95.9572	5.98123	24.4619	-4.64269	-1.96694	-13.608	3.70358	-0.623764	-0.130605	22.8938	-67.5147	12.3822	-75.791	-25.1349	43.2734	-0.0492059	5.70854	16.1358	-1.89076	-5.55511	-4.50125	-0.163971	-1.93241	-0.0730877	-0.165456	-0.10361	-3.31591	4.13272	0.0130585	-0.880651	0.00990845	-0.0991802	0.10649
0.189124	-42.3641	-8.262	5.20162	-11.4419	-95.4543	5.97619	22.9361	-3.29301	-2.60254	-12.7654	3.52018	-0.522681	-0.126773	23.912	-65.6072	11.6747	-72.0833	-26.0085	42.3271	-0.0489639	4.56621	15.4686	-1.87532	-5.47907	-4.49486	-0.163682	-1.92844	-0.073411	-0.167379	-0.10569	-3.27788	4.14711	0.0115674	-0.878817	0.00983757	-0.102192	0.108747
0.194101	-40.5188	-9.79001	3.69388	-11.041	-94.9317	5.91666	21.4173	-1.97857	-3.21554	-11.9088	3.34252	-0.425106	-0.123226	24.7085	-63.5757	10.9398	-68.2795	-26.8303	41.3417	-0.0486674	3.39268	14.8394	-1.79323	-5.40608	-4.47406	-0.162921	-1.92486	-0.0735587	-0.169539	-0.107237	-3.27529	4.14776	0.00883878	-0.888239	0.00930121	-0.106435	0.11048
0.199078	-38.5344	-11.2326	2.32385	-10.6324	-94.3984	5.80391	19.9162	-0.729297	-3.78652	-11.0553	3.17236	-0.333146	-0.119942	25.2973	-61.4542	10.1856	-64.422	-27.6047	40.3303	-0.0483186	2.21133	14.2376	-1.64452	-5.33082	-4.44282	-0.161583	-1.92007	-0.0735144	-0.171654	-0.108414	-3.30304	4.1382	0.00503721	-0.906722	0.00838611	-0.11163	0.111846
0.204055	-36.4599	-12.5445	1.09924	-10.2208	-93.8643	5.64113	18.4477	0.427531	-4.29814	-10.2214	3.01184	-0.248786	-0.116923	25.6939	-59.2733	9.41947	-60.5499	-28.3364	39.3058	-0.047924	1.05233	13.6563	-1.45278	-5.25393	-4.40424	-0.159821	-1.91398	-0.0733223	-0.173631	-0.109325	-3.35031	4.12109	0.000575447	-0.930684	0.00723535	-0.117334	0.112941
0.209032	-34.3404	-13.6824	0.0342379	-9.81046	-93.3374	5.43186	17.0215	1.46919	-4.7357	-9.41905	2.862	-0.173501	-0.114137	25.918	-57.0605	8.64763	-56.6991	-29.0304	38.2802	-0.0474909	-0.0593131	13.0834	-1.22866	-5.17263	-4.3621	-0.157647	-1.90567	-0.0729952	-0.175271	-0.11012	-3.40939	4.09982	-0.00426999	-0.957266	0.00596395	-0.123196	0.113911
0.214009	-32.2221	-14.6093	-0.858896	-9.40554	-92.8254	5.18036	15.646	2.37716	-5.0875	-8.65747	2.72343	-0.1084	-0.11155	25.9914	-54.84	7.87556	-52.9021	-29.6921	37.2651	-0.0470272	-1.10013	12.5077	-0.979036	-5.08311	-4.31977	-0.155025	-1.89389	-0.072531	-0.176346	-0.110937	-3.47338	4.07739	-0.00926587	-0.983855	0.00467278	-0.128892	0.114886
0.218986	-30.1503	-15.2943	-1.57262	-9.01003	-92.3353	4.89155	14.3285	3.13691	-5.3449	-7.94306	2.59647	-0.054255	-0.109126	25.9367	-52.6331	7.10803	-49.1871	-30.3271	36.2707	-0.0465403	-2.04855	11.9196	-0.709598	-4.98151	-4.28001	-0.151909	-1.87736	-0.0719206	-0.176633	-0.111885	-3.53588	4.05624	-0.014202	-1.00804	0.00345164	-0.13412	0.115972
0.223963	-28.1676	-15.7126	-2.10493	-8.62757	-91.8733	4.5708	13.0752	3.73776	-5.50238	-7.27944	2.48118	-0.01152	-0.106833	25.7764	-50.4573	6.34907	-45.5781	-30.941	35.3067	-0.0460372	-2.88563	11.3115	-0.425476	-4.86426	-4.24484	-0.148254	-1.85486	-0.0711509	-0.175929	-0.113042	-3.59098	4.03814	-0.0188908	-1.02767	0.00237761	-0.138605	0.117241
0.22894	-26.3116	-15.8481	-2.45919	-8.26152	-91.4454	4.22381	11.8906	4.17247	-5.55733	-6.66755	2.37751	0.0196319	-0.104643	25.5319	-48.3285	5.60234	-42.0947	-31.5398	34.3813	-0.0455234	-3.59559	10.6789	-0.13124	-4.72824	-4.21555	-0.144016	-1.8253	-0.0702064	-0.174062	-0.114452	-3.63343	4.02417	-0.0231705	-1.04089	0.0015134	-0.142107	0.118735
0.233917	-24.6135	-15.6958	-2.64375	-7.91483	-91.0568	3.85649	10.7775	4.43657	-5.50972	-6.10575	2.28528	0.0392665	-0.102536	25.2229	-46.2634	4.87144	-38.7522	-32.1296	33.5018	-0.0450025	-4.16628	10.0204	0.16919	-4.57088	-4.1927	-0.139163	-1.78771	-0.0690695	-0.170891	-0.116125	-3.65874	4.01476	-0.0269072	-1.04619	0.000906397	-0.144428	0.120462
0.238894	-23.0973	-15.2585	-2.67176	-7.59015	-90.7122	3.47466	9.73714	4.52956	-5.36266	-5.59007	2.20429	0.0477125	-0.100502	24.8667	-44.2756	4.15944	-35.5619	-32.7166	32.6747	-0.0444781	-4.58927	9.33796	0.472563	-4.39018	-4.17608	-0.133667	-1.74132	-0.067721	-0.166312	-0.118035	-3.66323	4.00962	-0.0299981	-1.04242	0.000587589	-0.145411	0.122393
0.243871	-21.7791	-14.5466	-2.56008	-7.28981	-90.4159	3.08404	8.7685	4.45268	-5.12097	-5.11429	2.13433	0.0454317	-0.0985391	24.4781	-42.3781	3.4692	-32.531	-33.3073	31.9049	-0.0439537	-4.86006	8.63623	0.776309	-4.18477	-4.16476	-0.127508	-1.68552	-0.0661408	-0.16026	-0.120124	-3.64405	4.00782	-0.0323718	-1.02883	0.000571805	-0.144945	0.124472
0.248848	-20.6662	-13.5765	-2.32851	-7.0159	-90.1712	2.69012	7.8682	4.20829	-4.7907	-4.67018	2.07526	0.0329616	-0.0966559	24.07	-40.5837	2.80335	-29.6634	-33.9082	31.1969	-0.0434328	-4.97796	7.92259	1.07851	-3.95388	-4.1572	-0.120676	-1.61993	-0.0643091	-0.152706	-0.122308	-3.59925	4.00786	-0.0339875	-1.00502	0.00085865	-0.142966	0.126615
0.253825	-19.7582	-12.3703	-1.99928	-6.77033	-89.9812	2.29803	7.03063	3.80038	-4.3793	-4.24775	2.02701	0.0109228	-0.0948715	23.6532	-38.9048	2.16419	-26.9598	-34.526	30.5538	-0.0429198	-4.9459	7.20655	1.37784	-3.69739	-4.15142	-0.113172	-1.54435	-0.062208	-0.143659	-0.12448	-3.52771	4.00783	-0.0348334	-0.970967	0.00143429	-0.139454	0.128718
0.258802	-19.0473	-10.9543	-1.59619	-6.55485	-89.848	1.91246	6.2477	3.23395	-3.89506	-3.83555	1.98962	-0.0200334	-0.0932143	23.237	-37.3532	1.55358	-24.4184	-35.1678	29.9782	-0.0424193	-4.77022	6.49914	1.67344	-3.41577	-4.14508	-0.105007	-1.45883	-0.0598228	-0.133162	-0.126523	-3.42911	4.00556	-0.0349232	-0.926941	0.00227348	-0.134429	0.130666
0.263779	-18.5183	-9.35686	-1.14402	-6.37111	-89.7732	1.53767	5.5088	2.51491	-3.34687	-3.421	1.96319	-0.0592512	-0.0917212	22.8297	-35.9403	0.972858	-22.0352	-35.8406	29.4717	-0.0419368	-4.46035	5.81223	1.96476	-3.11007	-4.13569	-0.0962045	-1.36359	-0.0571431	-0.121295	-0.128311	-3.30384	3.99871	-0.0342924	-0.873502	0.00334204	-0.12795	0.132337
0.268756	-18.1494	-7.60712	-0.667856	-6.22067	-89.7573	1.17739	4.80069	1.65001	-2.74396	-2.99068	1.94792	-0.106085	-0.0904358	22.4385	-34.6762	0.422705	-19.8045	-36.5515	29.0351	-0.041478	-4.02842	5.15799	2.25148	-2.78188	-4.12075	-0.0868018	-1.25911	-0.0541637	-0.108165	-0.12972	-3.15288	3.98497	-0.032994	-0.811433	0.00459946	-0.120107	0.133611
0.273733	-17.9124	-5.73388	-0.192511	-6.10504	-89.8002	0.834907	4.10741	0.647068	-2.09583	-2.53077	1.94398	-0.159903	-0.0894053	22.0701	-33.569	-0.096888	-17.7187	-37.3076	28.6686	-0.0410488	-3.48883	4.54828	2.53331	-2.43323	-4.09786	-0.0768471	-1.14602	-0.0508857	-0.0939031	-0.130635	-2.97773	3.96213	-0.0310937	-0.741689	0.00600153	-0.111018	0.134376
0.27871	-19.9129	-3.08788	0.16993	-6.02364	-89.8473	0.507031	5.45218	-0.97446	-1.65712	-3.56748	4.35334	-0.652018	-0.0884728	21.7386	-32.6806	-0.584248	-15.7807	-38.1228	28.3718	-0.0404125	-2.88138	3.9275	2.79798	-2.05194	-4.04035	-0.0659477	-1.01898	-0.047046	-0.0782532	-0.130313	-2.76584	3.90587	-0.028639	-0.661948	0.00744357	-0.10041	0.133894
0.283687	-20.2992	-0.912053	0.560772	-5.97915	-89.9889	0.207358	5.16534	-2.30855	-0.979081	-3.333	4.94216	-0.825121	-0.0880349	21.4517	-31.913	-1.04527	-13.9654	-38.9924	28.1436	-0.0399885	-2.19105	3.42453	3.06604	-1.66313	-3.98945	-0.0549171	-0.888911	-0.0431151	-0.0620154	-0.129792	-2.54148	3.85393	-0.0257042	-0.578458	0.00900437	-0.0890667	0.133208
0.288664	-20.7407	1.30635	0.881748	-5.9728	-90.1819	-0.067766	4.86005	-3.74191	-0.290122	-3.04475	5.57723	-1.00936	-0.087986	21.2123	-31.3111	-1.47976	-12.2693	-39.9283	27.9822	-0.0396007	-1.44792	2.99574	3.32771	-1.26084	-3.92513	-0.0435261	-0.752783	-0.0389211	-0.0451162	-0.128522	-2.29817	3.78803	-0.0223821	-0.490371	0.0105842	-0.0768967	0.13177
0.293641	-21.1893	3.52295	1.11614	-6.00547	-90.4229	-0.317227	4.50703	-5.24014	0.392704	-2.68531	6.24952	-1.20132	-0.0883678	21.0286	-30.87	-1.89011	-10.683	-40.9367	27.8859	-0.0392533	-0.670831	2.64984	3.58242	-0.848117	-3.84717	-0.0318682	-0.61181	-0.0344961	-0.0277395	-0.126482	-2.03827	3.70811	-0.0187422	-0.398793	0.0121503	-0.0640638	0.129561
0.298618	-21.5902	5.72815	1.24934	-6.07791	-90.7078	-0.539231	4.06807	-6.79345	1.06606	-2.23806	6.9477	-1.39841	-0.0891955	20.9099	-30.5856	-2.27886	-9.19758	-42.0235	27.8521	-0.0389501	0.121018	2.39136	3.82895	-0.428209	-3.75506	-0.0200375	-0.467261	-0.0298734	-0.010074	-0.123651	-1.76425	3.61378	-0.0148576	-0.304864	0.0136693	-0.050734	0.126566
0.303594	-21.8872	7.89113	1.2707	-6.1905	-91.0318	-0.732873	3.50461	-8.37063	1.71825	-1.68637	7.6577	-1.59656	-0.0904785	20.8656	-30.4484	-2.64878	-7.80421	-43.1941	27.8779	-0.038695	0.909235	2.22492	4.06613	-0.00444207	-3.64948	-0.00813987	-0.320509	-0.0250964	0.00769203	-0.120055	-1.47862	3.50577	-0.0107895	-0.209635	0.0151179	-0.037071	0.12281
0.308571	-22.022	9.97765	1.17393	-6.34327	-91.3893	-0.897632	2.77575	-9.93401	2.33699	-1.01411	8.36274	-1.79104	-0.0922102	20.9052	-30.4462	-3.0026	-6.49477	-44.453	27.9604	-0.0384923	1.6765	2.15389	4.29269	0.419775	-3.53179	0.00371259	-0.172987	-0.020215	0.0253729	-0.115745	-1.18389	3.38548	-0.00659108	-0.11409	0.0164796	-0.023234	0.118346
0.313548	-21.9357	11.9487	0.957702	-6.53582	-91.7744	-1.03341	1.83942	-11.4389	2.9096	-0.205815	9.04342	-1.97635	-0.0943661	21.0384	-30.564	-3.3429	-5.26174	-45.8043	28.0963	-0.0383468	2.40706	2.18063	4.50726	0.840964	-3.40403	0.0154027	-0.0261773	-0.0152846	0.0427872	-0.110798	-0.88261	3.25493	-0.00230702	-0.0191425	0.017745	-0.00937644	0.113254
0.318525	-21.5768	13.7313	0.63106	-6.76717	-92.1808	-1.1414	0.662661	-12.8101	3.41387	0.751798	9.67781	-2.14529	-0.0969125	21.2728	-30.7822	-3.67203	-4.09801	-47.2513	28.2819	-0.038264	3.08807	2.30865	4.70882	1.25547	-3.26955	0.026801	0.118336	-0.0103707	0.0597568	-0.105336	-0.57749	3.11743	0.00203061	0.0743717	0.0189153	0.00435182	0.107654
0.323502	-20.9003	15.2304	0.213984	-7.0357	-92.6018	-1.22373	-0.780639	-13.9517	3.82441	1.87106	10.2418	-2.28948	-0.0998005	21.6148	-31.0786	-3.99198	-2.99703	-48.7965	28.5135	-0.0382498	3.70963	2.54191	4.89668	1.65951	-3.13264	0.037772	0.258916	-0.00554575	0.0761095	-0.0995093	-0.271371	2.97719	0.00639918	0.165685	0.0199996	0.0178064	0.101698
0.328479	-19.8412	16.4398	-0.284033	-7.33961	-93.0308	-1.28025	-2.54418	-14.8427	4.14896	3.16807	10.71	-2.40371	-0.102924	22.0734	-31.4411	-4.304	-1.95431	-50.4415	28.7872	-0.0383095	4.26187	2.87707	5.06904	2.04966	-2.99557	0.0482075	0.394151	-0.000864636	0.0916918	-0.0934167	0.0331671	2.83639	0.0107649	0.254009	0.020996	0.0308597	0.0954853
0.333456	-18.3537	17.2958	-0.83934	-7.67623	-93.4613	-1.31277	-4.66016	-15.4149	4.37904	4.65492	11.056	-2.48058	-0.106175	22.6537	-31.8526	-4.60901	-0.965441	-52.1869	29.0985	-0.0384492	4.73958	3.31423	5.22509	2.42217	-2.86226	0.0579852	0.5225	0.0036059	0.106352	-0.0872031	0.333121	2.69881	0.0151049	0.338593	0.0219132	0.0433823	0.0891599
0.338433	-16.3995	17.731	-1.42256	-8.04218	-93.8867	-1.32352	-7.15437	-15.5989	4.50893	6.34257	11.2532	-2.5127	-0.109422	23.3581	-32.2974	-4.90733	-0.0268027	-54.0324	29.4431	-0.0386752	5.14088	3.85317	5.36434	2.77317	-2.73675	0.0669853	0.642437	0.00779982	0.119946	-0.0810161	0.625258	2.56835	0.0193958	0.418678	0.0227609	0.0552486	0.0828697
0.34341	-13.9545	17.625	-1.98736	-8.43316	-94.301	-1.31651	-10.035	-15.2799	4.52297	8.24313	11.2756	-2.49111	-0.112545	24.1859	-32.7562	-5.19884	0.864605	-55.9767	29.8166	-0.0389932	5.46786	4.49709	5.48735	3.0989	-2.62435	0.0750844	0.752437	0.0116454	0.132343	-0.0750356	0.906229	2.45018	0.0236255	0.493594	0.0235576	0.0663399	0.0767945
0.348387	-11.0039	16.8699	-2.48267	-8.84422	-94.6988	-1.29571	-13.3034	-14.3565	4.41549	10.3674	11.0991	-2.40796	-0.115396	25.1338	-33.2135	-5.48285	1.71078	-58.0172	30.2143	-0.0394084	5.72569	5.24795	5.59494	3.3955	-2.52989	0.0821683	0.851037	0.0150763	0.14342	-0.0694256	1.17242	2.34899	0.0277746	0.562613	0.0243179	0.0765389	0.0710985
0.353364	-7.53369	15.4926	-2.88751	-9.27026	-95.0757	-1.26162	-16.9764	-12.8541	4.21804	12.7185	10.7037	-2.26145	-0.117747	26.1979	-33.6714	-5.75798	2.5121	-60.1504	30.6313	-0.0399252	5.92098	6.09789	5.68676	3.65871	-2.45477	0.0881535	0.936894	0.0180505	0.15305	-0.0642519	1.41954	2.26601	0.0317824	0.624644	0.0250276	0.0857187	0.0658476
0.358341	-3.54896	13.4541	-3.16546	-9.70531	-95.4284	-1.21693	-21.0472	-10.7429	3.94487	15.3011	10.0735	-2.0484	-0.119402	27.3706	-34.1268	-6.02265	3.26833	-62.3715	31.0628	-0.0405467	6.06385	7.04366	5.76379	3.8845	-2.40173	0.0929549	1.00872	0.0205212	0.161125	-0.0596134	1.64333	2.20386	0.035601	0.678726	0.025683	0.093761	0.0611409
0.363318	0.932957	10.7348	-3.28519	-10.143	-95.7549	-1.16412	-25.5007	-8.01507	3.6147	18.1175	9.19876	-1.76774	-0.120162	28.6415	-34.5803	-6.27492	3.97811	-64.6748	31.5041	-0.0412741	6.16646	8.0806	5.82734	4.06901	-2.3728	0.0965026	1.06535	0.0224501	0.167546	-0.0555845	1.8394	2.16445	0.0391737	0.723856	0.0262742	0.100551	0.0570534
0.368295	5.85927	7.23032	-3.18625	-10.5763	-96.0545	-1.10835	-30.2796	-4.59077	3.22985	21.165	8.07605	-1.41674	-0.119865	29.9939	-35.0253	-6.51271	4.64016	-67.0537	31.9506	-0.042108	6.24559	9.20975	5.88029	4.20827	-2.37186	0.0987153	1.10557	0.0237886	0.172223	-0.052287	2.00304	2.15156	0.0424551	0.759105	0.026803	0.105974	0.0537073
0.373272	11.212	3.06549	-2.88615	-10.999	-96.3283	-1.04858	-35.3873	-0.601324	2.83517	24.4433	6.71231	-1.00309	-0.118305	31.4192	-35.4806	-6.73338	5.249	-69.5005	32.3976	-0.0430437	6.3126	10.4163	5.92313	4.29943	-2.39679	0.0995885	1.12878	0.0245386	0.175101	-0.0496749	2.13035	2.16299	0.0453578	0.783405	0.0272332	0.109942	0.0510573
0.378249	16.9481	-1.66601	-2.40022	-11.4048	-96.579	-0.984887	-40.8018	3.84342	2.45976	27.9444	5.12382	-0.535143	-0.115325	32.906	-35.9627	-6.93422	5.79832	-72.0064	32.8401	-0.0440746	6.38072	11.6873	5.9572	4.33996	-2.44602	0.0991239	1.13454	0.0247026	0.176138	-0.0477159	2.21755	2.19713	0.0478005	0.79579	0.0275336	0.112374	0.0490715
0.383226	23.0103	-6.86395	-1.75358	-11.7877	-96.8109	-0.917304	-46.4894	8.62279	2.12473	31.6539	3.33711	-0.0232372	-0.110814	34.4423	-36.4883	-7.11238	6.28028	-74.5615	33.2735	-0.0451913	6.46321	13.0092	5.98412	4.32798	-2.51765	0.0973417	1.12258	0.0242909	0.175321	-0.0463669	2.2613	2.25208	0.0497058	0.79543	0.0276736	0.113212	0.0477077
0.388203	29.3314	-12.4304	-0.978041	-12.1422	-97.0298	-0.845969	-52.408	13.6155	1.84204	35.5519	1.38931	0.520696	-0.104725	36.017	-37.0734	-7.26496	6.68527	-77.1552	33.6931	-0.0463813	6.57252	14.3686	6.00583	4.26258	-2.60969	0.0942822	1.09298	0.0233221	0.172664	-0.0455835	2.25905	2.32587	0.0510081	0.781734	0.0276278	0.11242	0.0469218
0.39318	35.8356	-18.3009	-0.098852	-12.4634	-97.2427	-0.771834	-58.503	18.7312	1.61247	39.6135	-0.672457	1.08452	-0.0970916	37.6201	-37.7287	-7.38908	7.00218	-79.7754	34.0939	-0.0476295	6.72014	15.7539	6.02481	4.14399	-2.72093	0.0900008	1.04606	0.0218168	0.168221	-0.0453433	2.2093	2.41733	0.0516653	0.75447	0.027383	0.109997	0.0466921
0.398157	42.4579	-24.1672	0.754673	-12.7479	-97.458	-0.688875	-64.7618	23.6441	1.45225	43.7945	-2.7892	1.64545	-0.0879253	39.2489	-38.4899	-7.48168	7.21677	-82.4091	34.4706	-0.0489159	6.91175	17.136	6.04055	3.97289	-2.84415	0.0846156	0.982646	0.019841	0.162057	-0.0454629	2.11092	2.51932	0.0515882	0.713154	0.026887	0.105955	0.0468358
0.403134	49.1163	-29.8637	1.49923	-12.9925	-97.6848	-0.594727	-71.1369	28.1646	1.34962	48.0473	-4.8947	2.18507	-0.0773698	40.8993	-39.3741	-7.53992	7.31462	-85.042	34.8176	-0.0502188	7.15311	18.4957	6.05429	3.75134	-2.97567	0.0782365	0.903714	0.0174437	0.154282	-0.0458595	1.96413	2.62829	0.0507417	0.657914	0.0261217	0.100347	0.0472701
0.408111	55.7245	-35.2376	2.05274	-13.1947	-97.9324	-0.487028	-77.5737	32.1173	1.28502	52.3148	-6.91642	2.68468	-0.0656465	42.5689	-40.3936	-7.56113	7.28058	-87.6586	35.1288	-0.051514	7.4476	19.8144	6.06725	3.48241	-3.11221	0.0709853	0.810503	0.014677	0.14503	-0.0464645	1.7702	2.74108	0.0491118	0.589196	0.0250795	0.0932546	0.0479271
0.413088	62.1922	-40.1605	2.34318	-13.3526	-98.2104	-0.363796	-84.0089	35.3549	1.23401	56.5307	-8.77817	3.12586	-0.053052	44.2561	-41.5534	-7.54283	7.09945	-90.2421	35.398	-0.0527759	7.7963	21.0755	6.08072	3.17004	-3.25119	0.062991	0.704445	0.0115928	0.13446	-0.0472314	1.53137	2.85526	0.0467071	0.507761	0.023764	0.0847852	0.0487604
0.418065	68.4265	-44.5293	2.31329	-13.4645	-98.5278	-0.2236	-90.3705	37.7612	1.17147	60.6199	-10.4032	3.49068	-0.0399489	45.9598	-42.8504	-7.4828	6.75645	-92.7742	35.6183	-0.0539786	8.19794	22.2643	6.09603	2.81892	-3.39068	0.0543848	0.58711	0.00824109	0.122747	-0.048135	1.25073	2.9691	0.043556	0.414627	0.0221894	0.0750672	0.0497451
0.423041	74.3303	-48.2983	1.9397	-13.5292	-98.8923	-0.0666874	-96.5731	39.2849	1.07513	64.5006	-11.7183	3.7629	-0.0267653	47.6786	-44.2689	-7.37911	6.23791	-95.2354	35.7827	-0.0550975	8.6494	23.371	6.11491	2.43432	-3.53019	0.0452909	0.460123	0.00466415	0.110076	-0.0491908	0.932056	3.08231	0.0397112	0.311084	0.020384	0.0642434	0.050897
0.428018	79.8047	-51.4624	1.22689	-13.5458	-99.3102	0.105393	-102.521	39.9248	0.928152	68.0846	-12.6575	3.93217	-0.0139698	49.4103	-45.7822	-7.23025	5.53171	-97.6046	35.8842	-0.0561107	9.14543	24.3887	6.13917	2.02176	-3.67002	0.0358255	0.325106	0.000898664	0.0966335	-0.0504363	0.579576	3.1954	0.0352376	0.198551	0.0183836	0.0524604	0.0522536
0.432995	84.7475	-54.0529	0.20877	-13.5135	-99.7852	0.289595	-108.108	39.7268	0.722597	71.2786	-13.1665	3.99376	-0.00205249	51.1518	-47.3537	-7.03513	4.62794	-99.8594	35.9157	-0.0570006	9.67873	25.3134	6.17072	1.58674	-3.81105	0.0260931	0.183602	-0.00302492	0.0825912	-0.0519247	0.197609	3.30948	0.0302054	0.0784786	0.0162278	0.0398577	0.0538686
0.437972	89.0514	-56.1277	-1.05238	-13.4321	-100.318	0.481269	-113.217	38.7756	0.462036	73.9846	-13.2055	3.9458	0.00849778	52.8978	-48.9363	-6.79326	3.51945	-101.976	35.8708	-0.0577557	10.2402	26.1437	6.21141	1.13445	-3.95452	0.0161833	0.0370089	-0.00708275	0.0681015	-0.053719	-0.209701	3.42608	0.0246827	-0.0477499	0.0139561	0.026558	0.0558047
0.442949	92.6051	-57.7614	-2.47237	-13.3018	-100.907	0.674402	-117.724	37.1846	0.159706	76.103	-12.7533	3.79193	0.017219	54.6413	-50.4748	-6.50482	2.20241	-103.931	35.7438	-0.0583716	10.8188	26.8796	6.26291	0.66944	-4.10167	0.00616849	-0.113478	-0.0112566	0.0532859	-0.0558798	-0.63867	3.54672	0.0187264	-0.178922	0.0116033	0.0126578	0.0581228
0.447926	95.2934	-59.0201	-3.95236	-13.1239	-101.546	0.861922	-121.499	35.0712	-0.165879	77.5385	-11.8103	3.54072	0.0237102	56.3706	-51.9082	-6.17069	0.677199	-105.699	35.5309	-0.0588405	11.4042	27.5175	6.33238	0.197864	-4.25318	-0.00380353	-0.266175	-0.0155059	0.0383215	-0.0584609	-1.08693	3.67241	0.0123296	-0.314147	0.0091866	-0.00177843	0.0608762
0.452903	97.0342	-59.9616	-5.39852	-12.9	-102.227	1.03648	-124.444	32.5577	-0.489315	78.2153	-10.4018	3.20623	0.027644	58.0742	-53.1706	-5.79275	-1.05221	-107.254	35.2297	-0.0591749	11.982	28.0563	6.42083	-0.276769	-4.40892	-0.013674	-0.420153	-0.0198117	0.0232801	-0.0614822	-1.55176	3.80333	0.00551468	-0.452628	0.00672185	-0.0167015	0.0640842
0.45788	97.9398	-60.6135	-6.74111	-12.639	-102.938	1.1885	-126.623	29.7708	-0.790144	78.1596	-8.58483	2.80694	0.0289335	59.7389	-54.189	-5.37343	-2.97837	-108.569	34.841	-0.0593698	12.5229	28.4878	6.53684	-0.74687	-4.56937	-0.0232684	-0.57363	-0.0241325	0.00833678	-0.0650207	-2.03053	3.94017	-0.00175892	-0.59362	0.00421852	-0.0320845	0.0678217
0.462857	98.0883	-60.9705	-7.92317	-12.3475	-103.666	1.31051	-128.086	26.807	-1.0472	77.3946	-6.43594	2.36544	0.0275329	61.3494	-54.8927	-4.91657	-5.08813	-109.62	34.368	-0.0594525	13.0067	28.8016	6.68104	-1.20777	-4.73338	-0.0324934	-0.725382	-0.0284379	-0.00640436	-0.0690899	-2.51982	4.08204	-0.0094737	-0.736194	0.00169075	-0.0478585	0.0721001
0.467834	97.5292	-60.9997	-8.8989	-12.029	-104.395	1.39691	-128.858	23.7361	-1.2408	75.9351	-4.04537	1.90756	0.0234258	62.8843	-55.2142	-4.4275	-7.36196	-110.378	33.8175	-0.0594731	13.4152	28.9855	6.84909	-1.65754	-4.89875	-0.0413269	-0.874856	-0.0327138	-0.0209272	-0.0736674	-3.01659	4.22702	-0.0175992	-0.879627	-0.000852793	-0.0639728	0.0768947
0.472811	96.2696	-60.6462	-9.63066	-11.6846	-105.106	1.44391	-128.928	20.6021	-1.35409	73.7801	-1.50909	1.46098	0.0166231	64.3157	-55.091	-3.91313	-9.77336	-110.818	33.2001	-0.0594992	13.7336	29.0246	7.03323	-2.09642	-5.06249	-0.0497992	-1.02202	-0.0369576	-0.0352827	-0.0787037	-3.51845	4.3724	-0.0261017	-1.02342	-0.00340955	-0.0803968	0.0821532
0.477788	94.2729	-59.875	-10.0928	-11.3131	-105.778	1.45194	-128.255	17.4346	-1.37166	70.9137	1.07789	1.05411	0.00718504	65.6191	-54.4728	-3.38284	-12.2905	-110.914	32.5296	-0.0596392	13.9543	28.9226	7.22301	-2.5285	-5.21794	-0.0580078	-1.1676	-0.0411598	-0.0496552	-0.0839643	-4.0249	4.51197	-0.0349923	-1.16802	-0.00602564	-0.0971771	0.0876408
0.482765	91.6004	-58.6287	-10.2815	-10.9195	-106.392	1.42034	-126.875	14.2551	-1.28642	67.3685	3.62238	0.713983	-0.00465584	66.7645	-53.3109	-2.84715	-14.8756	-110.641	31.8242	-0.060005	14.0613	28.6741	7.40765	-2.95718	-5.36052	-0.0660591	-1.3124	-0.0453307	-0.0642202	-0.0893182	-4.53492	4.64143	-0.0442618	-1.31363	-0.00872496	-0.114354	0.0932244
0.487742	88.3345	-56.8367	-10.2072	-10.5119	-106.927	1.34987	-124.846	11.0641	-1.09879	63.1938	6.04035	0.46457	-0.0185578	67.7188	-51.5656	-2.31808	-17.4851	-109.978	31.1058	-0.0607162	14.0431	28.2703	7.57806	-3.38476	-5.48609	-0.0740213	-1.45688	-0.0494715	-0.0790946	-0.0946541	-5.04724	4.75689	-0.0538967	-1.46023	-0.0115246	-0.131937	0.0987896
0.492719	84.564	-54.4293	-9.89033	-10.0996	-107.369	1.24298	-122.237	7.84448	-0.814622	58.4467	8.26055	0.32591	-0.0341105	68.4463	-49.21	-1.80918	-20.0695	-108.906	30.3993	-0.0619025	13.8949	27.7015	7.72619	-3.81291	-5.59095	-0.0819411	-1.60126	-0.053577	-0.09435	-0.0998708	-5.56038	4.85478	-0.0638703	-1.60764	-0.0144343	-0.149902	0.104232
0.497696	80.393	-51.3678	-9.36209	-9.6927	-107.703	1.1054	-119.132	4.56601	-0.445313	53.1969	10.2258	0.313178	-0.0508235	68.9141	-46.2396	-1.33588	-22.5758	-107.41	29.7311	-0.0637018	13.6174	26.9724	7.85202	-4.24256	-5.67008	-0.0897928	-1.7454	-0.0576099	-0.110032	-0.104781	-6.07542	4.93025	-0.0742564	-1.75652	-0.0175072	-0.168299	0.109362
0.502673	75.9483	-47.6248	-8.65169	-9.3019	-107.92	0.942717	-115.639	1.20922	-0.00201794	47.5263	11.8946	0.437001	-0.0682011	69.0905	-42.6573	-0.914332	-24.9478	-105.48	29.1284	-0.0662523	13.2187	26.0785	7.95128	-4.67307	-5.72161	-0.0975623	-1.88878	-0.06155	-0.126089	-0.109322	-6.58984	4.98145	-0.0849914	-1.90613	-0.0207314	-0.187019	0.114114
0.50765	71.3714	-43.205	-7.78931	-8.93769	-108.015	0.761533	-111.884	-2.23481	0.504155	41.5254	13.2408	0.702787	-0.0857412	68.9502	-38.4834	-0.561507	-27.129	-103.109	28.6172	-0.0696873	12.7126	25.0181	8.01875	-5.10303	-5.74528	-0.105238	-2.03069	-0.0653816	-0.142423	-0.113472	-7.09951	5.00802	-0.0959504	-2.05511	-0.0240682	-0.205883	0.118463
0.512627	66.8083	-38.1538	-6.80494	-8.60958	-107.987	0.570029	-107.999	-5.7686	1.06182	35.2882	14.2521	1.11035	-0.102932	68.478	-33.7611	-0.29474	-29.0646	-100.299	28.2201	-0.0741178	12.1169	23.7979	8.05405	-5.52924	-5.74136	-0.11275	-2.1699	-0.0690708	-0.158867	-0.117204	-7.60046	5.01009	-0.107026	-2.20212	-0.0274828	-0.224698	0.122378
0.517604	62.396	-32.5322	-5.71957	-8.32629	-107.84	0.376207	-104.117	-9.37731	1.66147	28.9083	14.928	1.6548	-0.119304	67.6698	-28.5367	-0.132467	-30.7041	-97.0554	27.9544	-0.0796421	11.4536	22.4218	8.05327	-5.94777	-5.71213	-0.120051	-2.30502	-0.0725976	-0.175208	-0.120562	-8.08614	4.98973	-0.118014	-2.34485	-0.0308979	-0.24317	0.125902
0.522581	58.255	-26.4434	-4.55464	-8.09515	-107.578	0.188569	-100.361	-13.0327	2.29464	22.4755	15.2772	2.32729	-0.134428	66.5379	-22.8844	-0.0915723	-32.0051	-93.3915	27.8289	-0.0863234	10.7464	20.8971	8.01263	-6.35368	-5.66151	-0.12709	-2.43446	-0.0759462	-0.191188	-0.123637	-8.54876	4.95057	-0.128667	-2.48055	-0.0342143	-0.260954	0.129119
0.527558	54.4852	-20.0454	-3.33875	-7.9217	-107.212	0.0160381	-96.8393	-16.6935	2.95338	16.0751	15.3148	3.11608	-0.147926	65.1123	-16.92	-0.183981	-32.9362	-89.327	27.8412	-0.0941741	10.0203	19.2363	7.92952	-6.74078	-5.59524	-0.133805	-2.55638	-0.0791047	-0.206507	-0.126569	-8.97949	4.89798	-0.1387	-2.60604	-0.0373127	-0.277665	0.132169
0.532535	51.1559	-13.5138	-2.09293	-7.80963	-106.752	-0.132581	-93.6386	-20.3031	3.62941	9.78691	15.0598	4.00722	-0.159479	63.4392	-10.7658	-0.419396	-33.4783	-84.8885	27.9769	-0.103162	9.2991	17.4534	7.80241	-7.10209	-5.51978	-0.140122	-2.66877	-0.0820604	-0.220836	-0.129521	-9.3691	4.83806	-0.147825	-2.71801	-0.0400668	-0.292907	0.13521
0.537512	48.3044	-7.04355	-0.839344	-7.76068	-106.214	-0.248958	-90.8215	-23.7973	4.31343	3.6838	14.5336	4.98504	-0.16884	61.58	-4.56126	-0.802505	-33.6273	-80.1101	28.2081	-0.1132	8.60478	15.5653	7.6312	-7.43008	-5.44228	-0.145957	-2.76958	-0.084802	-0.233839	-0.132676	-9.70841	4.77753	-0.155753	-2.81314	-0.0423487	-0.306289	0.138422
0.542488	45.9349	-0.839562	0.397607	-7.77475	-105.611	-0.325862	-88.4221	-27.1096	4.99453	-2.16924	13.7588	6.03252	-0.175835	59.6068	1.54152	-1.33169	-33.3942	-75.0329	28.4936	-0.124145	7.95605	13.5912	7.41742	-7.71714	-5.37027	-0.151223	-2.85682	-0.0873203	-0.245187	-0.136228	-9.98889	4.72347	-0.16222	-2.88836	-0.0440359	-0.317452	0.141994
0.547465	44.0234	4.8938	1.59036	-7.8499	-104.962	-0.357807	-86.4461	-30.1754	5.66003	-7.71562	12.7579	7.132	-0.180375	57.5972	7.38308	-1.99789	-32.8051	-69.7048	28.7799	-0.135798	7.3675	11.5528	7.16426	-7.95598	-5.3112	-0.155834	-2.92868	-0.0896089	-0.254577	-0.140365	-10.2031	4.68286	-0.166998	-2.94098	-0.0450194	-0.326088	0.146112
0.552442	42.5197	9.98348	2.71356	-7.98261	-104.283	-0.341609	-84.8738	-32.941	6.29615	-12.9067	11.5533	8.26565	-0.182448	55.6288	12.8175	-2.78694	-31.8997	-64.1802	29.0048	-0.147917	6.84883	9.47197	6.87627	-8.14024	-5.27154	-0.159709	-2.98366	-0.0916609	-0.261758	-0.145245	-10.3454	4.6617	-0.169918	-2.96897	-0.045215	-0.331962	0.150931
0.557419	41.3567	14.2915	3.74386	-8.16785	-103.593	-0.276871	-83.6647	-35.3649	6.88874	-17.7009	10.1665	9.41635	-0.182122	53.7743	17.7156	-3.67947	-30.729	-58.5189	29.1014	-0.160224	6.40451	7.37178	6.55921	-8.26473	-5.25643	-0.162774	-3.02061	-0.0934689	-0.266538	-0.150983	-10.4119	4.66469	-0.170873	-2.97107	-0.0445683	-0.334926	0.156564
0.562396	40.4813	17.6579	4.6259	-8.39904	-102.908	-0.165626	-82.7621	-37.4287	7.42477	-22.0634	8.61805	10.5681	-0.179539	52.0855	21.9027	-4.63524	-29.3498	-52.7847	29.0002	-0.172397	6.03345	5.2808	6.22067	-8.32495	-5.27083	-0.164967	-3.0387	-0.0950295	-0.268774	-0.157678	-10.4004	4.69639	-0.169805	-2.94651	-0.0430426	-0.3349	0.163108
0.567373	39.8334	19.9921	5.31954	-8.66863	-102.243	-0.0131833	-82.0979	-39.1282	7.89294	-25.9653	6.92763	11.7066	-0.174899	50.5995	25.2551	-5.61248	-27.8239	-47.0444	28.6386	-0.184111	5.73025	3.2263	5.86857	-8.31811	-5.31709	-0.166231	-3.03746	-0.0963321	-0.268398	-0.165344	-10.3106	4.75882	-0.16673	-2.89547	-0.0406421	-0.331897	0.170578
0.57235	39.3572	21.2474	5.78638	-8.96842	-101.611	0.172219	-81.598	-40.4779	8.28484	-29.384	5.11401	12.8195	-0.168459	49.3345	27.6751	-6.56325	-26.2145	-41.366	27.9649	-0.195044	5.4865	1.23601	5.51118	-8.243	-5.39534	-0.166522	-3.01683	-0.0973603	-0.265409	-0.173917	-10.1443	4.85188	-0.161732	-2.81887	-0.0374053	-0.326008	0.178914
0.577327	39.0004	21.4221	5.99246	-9.29005	-101.023	0.379726	-81.1855	-41.5093	8.59551	-32.304	3.19544	13.8962	-0.16051	48.2914	29.0968	-7.43568	-24.5834	-35.8169	26.9439	-0.204899	5.29265	-0.662435	5.15669	-8.10004	-5.50337	-0.165805	-2.97704	-0.0980903	-0.259872	-0.183255	-9.90529	4.97328	-0.154955	-2.71835	-0.0334038	-0.317398	0.187977
0.582304	38.7042	20.6023	5.93669	-9.62566	-100.485	0.595874	-80.7853	-42.2617	8.82331	-34.7167	1.18977	14.9286	-0.151371	47.4576	29.5376	-8.19139	-22.986	-30.4621	25.5621	-0.213441	5.13993	-2.446	4.81217	-7.89164	-5.63539	-0.164051	-2.91865	-0.0984842	-0.251917	-0.193098	-9.59898	5.11725	-0.146606	-2.59634	-0.0287502	-0.306293	0.197516
0.587281	38.4193	18.8664	5.6	-9.96793	-100.001	0.806214	-80.3275	-42.7905	8.97043	-36.6219	-0.885195	15.9101	-0.141368	46.8095	29.0035	-8.78095	-21.4741	-25.3622	23.8269	-0.220462	5.02188	-4.08888	4.48454	-7.62131	-5.78471	-0.161244	-2.84245	-0.0985023	-0.241708	-0.203148	-9.23189	5.27731	-0.136918	-2.4556	-0.0235704	-0.292954	0.207241
0.592258	38.104	16.2957	4.9551	-10.3103	-99.5713	0.996039	-79.7497	-43.1605	9.04251	-38.0272	-3.01149	16.8357	-0.130823	46.3148	27.5063	-9.14848	-20.0936	-20.5716	21.7667	-0.225786	4.93534	-5.56442	4.17996	-7.29358	-5.94365	-0.15738	-2.74935	-0.0981024	-0.229441	-0.213064	-8.81112	5.44603	-0.126133	-2.29908	-0.0180014	-0.277656	0.216826
0.597235	37.7103	13.0341	4.00879	-10.6478	-99.1917	1.15035	-78.9994	-43.4308	9.04691	-38.9479	-5.17105	17.7014	-0.120046	45.9364	25.1348	-9.25855	-18.879	-16.1375	19.4331	-0.229326	4.88121	-6.85154	3.90271	-6.91438	-6.10207	-0.152464	-2.64044	-0.0972323	-0.215341	-0.222433	-8.3447	5.61372	-0.114522	-2.13009	-0.0122007	-0.260693	0.225869
0.602212	37.1917	9.2552	2.78035	-10.9768	-98.8567	1.25533	-78.0361	-43.6632	8.99341	-39.4072	-7.34568	18.5039	-0.10932	45.6354	22.0133	-9.08851	-17.8539	-12.099	16.8958	-0.231059	4.86402	-7.93302	3.65535	-6.49064	-6.24865	-0.146508	-2.51695	-0.0958373	-0.199657	-0.230806	-7.84101	5.76955	-0.102358	-1.95203	-0.00633268	-0.242363	0.233937
0.607189	36.4987	5.15851	1.31383	-11.2951	-98.5583	1.29871	-76.8312	-43.9051	8.89179	-39.4349	-9.51735	19.2406	-0.0988944	45.3771	18.3137	-8.63851	-17.0316	-8.4852	14.2385	-0.231029	4.89127	-8.79652	3.43851	-6.03029	-6.37136	-0.139545	-2.38026	-0.0938647	-0.18266	-0.237719	-7.30872	5.90206	-0.0899166	-1.76838	-0.000564517	-0.222963	0.240583
0.612166	35.5778	0.967816	-0.319992	-11.602	-98.2867	1.27044	-75.369	-44.1866	8.75087	-39.0655	-11.6687	19.9093	-0.0889852	45.1361	14.2534	-7.93778	-16.4164	-5.31373	11.5521	-0.22935	4.972	-9.43588	3.25074	-5.54227	-6.45784	-0.131628	-2.23202	-0.0912696	-0.164646	-0.242712	-6.75678	5.99944	-0.0774668	-1.58265	0.00493772	-0.202795	0.245361
0.617143	34.43	-3.20334	-2.09666	-11.8973	-98.0319	1.1649	-73.6465	-44.5344	8.5792	-38.3388	-13.7831	20.5079	-0.0797614	44.8657	9.95772	-6.98898	-15.9944	-2.59095	8.92464	-0.226113	5.11312	-9.84051	3.09024	-5.03482	-6.49942	-0.122844	-2.07392	-0.0880337	-0.145898	-0.245447	-6.19266	6.05354	-0.0652136	-1.39769	0.0100475	-0.182123	0.247945
0.62212	33.0462	-7.20349	-3.95188	-12.1817	-97.7836	0.97921	-71.6724	-44.9489	8.38249	-37.2965	-15.8457	21.0352	-0.0713514	44.5377	5.61052	-5.83383	-15.7485	-0.310201	6.43175	-0.221474	5.3192	-10.0098	2.95267	-4.5175	-6.48737	-0.113315	-1.90809	-0.0841544	-0.126743	-0.245607	-5.6244	6.05607	-0.0533656	-1.21652	0.0146391	-0.161232	0.24803
0.627097	31.435	-10.9078	-5.81866	-12.456	-97.5321	0.714164	-69.4659	-45.4116	8.16377	-35.9808	-17.8433	21.4906	-0.0638414	44.1277	1.38462	-4.52592	-15.6548	1.54573	4.13377	-0.21561	5.58978	-9.94804	2.83222	-4.00034	-6.41506	-0.103203	-1.73701	-0.0796563	-0.107538	-0.24297	-5.05981	6.00074	-0.0421059	-1.04196	0.0186071	-0.140414	0.2454
0.632074	29.6258	-14.2212	-7.63104	-12.7211	-97.2693	0.374179	-67.0556	-45.8867	7.9234	-34.4333	-19.7649	21.8744	-0.0572771	43.6147	-2.56561	-3.12694	-15.6839	3.00278	2.07421	-0.208707	5.91778	-9.66429	2.72182	-3.49371	-6.27844	-0.0927139	-1.56356	-0.0745951	-0.0886681	-0.237417	-4.50644	5.88366	-0.0315914	-0.876651	0.0218694	-0.119972	0.23994
0.637051	27.6615	-17.0491	-9.31056	-12.9772	-96.9885	-0.0333395	-64.4774	-46.3207	7.6589	-32.6934	-21.602	22.1882	-0.0516674	42.9823	-6.08078	-1.71786	-15.8022	4.09351	0.28155	-0.200971	6.28857	-9.17524	2.61301	-3.00843	-6.07542	-0.0820906	-1.39101	-0.0690538	-0.0705512	-0.228927	-3.97181	5.70271	-0.0219643	-0.723137	0.0243611	-0.100225	0.231624
0.642028	25.6158	-19.3735	-10.8148	-13.2234	-96.6852	-0.497338	-61.7735	-46.6565	7.36656	-30.7973	-23.3489	22.4348	-0.0469877	42.2131	-9.07645	-0.355644	-15.9751	4.85554	-1.23297	-0.192575	6.67995	-8.49792	2.49745	-2.55486	-5.80821	-0.0716194	-1.22294	-0.0631542	-0.0536126	-0.217632	-3.46271	5.45993	-0.0133223	-0.583558	0.0260545	-0.0814937	0.22058
0.647005	23.58	-21.2057	-12.1141	-13.4575	-96.3569	-1.00427	-58.99	-46.8332	7.04168	-28.7776	-25.0027	22.6183	-0.0431859	41.2909	-11.5009	0.910203	-16.1677	5.3294	-2.4709	-0.183681	7.06293	-7.65337	2.36672	-2.14302	-5.482	-0.0616135	-1.06316	-0.0570458	-0.0382835	-0.203788	-2.98551	5.16012	-0.00573537	-0.45978	0.0269487	-0.0640975	0.207051
0.651982	21.6501	-22.5523	-13.1771	-13.6762	-96.003	-1.5392	-56.1755	-46.7879	6.67925	-26.662	-26.5635	22.7444	-0.0401889	40.2044	-13.308	2.02525	-16.3465	5.55672	-3.44252	-0.174455	7.40334	-6.66872	2.21237	-1.78248	-5.10383	-0.0523964	-0.915568	-0.0508953	-0.0249903	-0.187733	-2.54629	4.80982	0.000741107	-0.353474	0.0270601	-0.0483569	0.191362
0.656959	19.9253	-23.4338	-13.9857	-13.8753	-95.6247	-2.08621	-53.3787	-46.4645	6.27516	-24.4734	-28.0341	22.82	-0.0379083	38.9467	-14.4787	2.94438	-16.481	5.579	-4.16549	-0.165052	7.66418	-5.57437	2.02671	-1.48181	-4.68285	-0.0442882	-0.783973	-0.0448817	-0.0141309	-0.169891	-2.15048	4.41754	0.0060748	-0.265991	0.0264266	-0.0345747	0.173919
0.661935	18.5009	-23.8796	-14.5357	-14.0494	-95.2245	-2.62911	-50.6472	-45.8187	5.82715	-22.2307	-29.4199	22.8529	-0.0362473	37.5157	-15.0192	3.63365	-16.5463	5.43647	-4.66242	-0.155619	7.80835	-4.40304	1.80337	-1.2482	-4.22977	-0.0375878	-0.671907	-0.0391862	-0.00605267	-0.150748	-1.80279	3.99327	0.0102549	-0.198315	0.0251041	-0.0230213	0.15519
0.666912	17.4608	-23.9242	-14.8355	-14.1928	-94.8062	-3.15215	-48.0247	-44.8223	5.3354	-19.949	-30.729	22.852	-0.035106	35.9158	-14.9576	4.07135	-16.5235	5.16709	-4.95895	-0.146293	7.80159	-3.18853	1.53768	-1.08706	-3.75623	-0.0325544	-0.582412	-0.0339817	-0.00103198	-0.130824	-1.50697	3.54791	0.0132909	-0.151024	0.0231634	-0.0139212	0.135674
0.671889	16.8692	-23.6011	-14.9044	-14.2997	-94.3744	-3.64063	-45.55	-43.4657	4.80277	-17.6406	-31.9708	22.826	-0.0343875	34.159	-14.3378	4.24637	-16.401	4.80594	-5.08193	-0.137201	7.61544	-1.96468	1.22704	-1.00181	-3.27401	-0.0293903	-0.51786	-0.0294217	0.00074363	-0.110642	-1.26575	3.09253	0.0152102	-0.124269	0.0206854	-0.00743903	0.115878
0.676866	16.7674	-22.9454	-14.7713	-14.3646	-93.9338	-4.08134	-43.2546	-41.7593	4.23481	-15.3156	-33.1565	22.784	-0.0340015	32.2637	-13.2191	4.16012	-16.174	4.38465	-5.05843	-0.128461	7.22959	-0.763466	0.87118	-0.993532	-2.79458	-0.0282281	-0.479787	-0.0256319	-0.000808259	-0.0907021	-1.0806	2.63793	0.0160586	-0.117732	0.017758	-0.00366665	0.0962847
0.681843	17.1761	-22.0069	-14.479	-14.383	-93.4896	-4.46272	-41.1619	-39.7345	3.63949	-12.9832	-34.298	22.734	-0.0338679	30.2523	-11.6842	3.83332	-15.8441	3.9311	-4.91539	-0.120169	6.63365	0.387632	0.472498	-1.06072	-2.32885	-0.0291208	-0.468763	-0.0227042	-0.00565097	-0.0714703	-0.951476	2.19446	0.0159057	-0.130545	0.0144765	-0.00260963	0.0773464
0.68682	18.0844	-20.8251	-14.0685	-14.3516	-93.0467	-4.77551	-39.2871	-37.4377	3.02628	-10.6519	-35.4076	22.6836	-0.0339193	28.1556	-9.81119	3.28895	-15.4187	3.46923	-4.67769	-0.112415	5.82853	1.46455	0.035608	-1.19955	-1.88601	-0.0320364	-0.484367	-0.0206883	-0.0136344	-0.0533338	-0.87707	1.77085	0.0148321	-0.161428	0.0109325	-0.0041914	0.0594399
0.691797	19.4564	-19.4444	-13.5818	-14.2691	-92.6097	-5.01273	-37.6369	-34.9269	2.40536	-8.32947	-36.4974	22.6391	-0.0341022	26.0085	-7.68224	2.5579	-14.9104	3.01902	-4.36831	-0.10528	4.82658	2.44899	-0.432642	-1.40384	-1.47357	-0.0368595	-0.525176	-0.0195918	-0.0244942	-0.0365995	-0.854615	1.37429	0.0129345	-0.208644	0.00721585	-0.00824866	0.0428652
0.696774	21.2345	-17.9125	-13.0603	-14.1356	-92.1832	-5.16961	-36.2107	-32.2709	1.78723	-6.02352	-37.5792	22.6058	-0.034376	23.8491	-5.38044	1.67718	-14.3348	2.59653	-4.00808	-0.0988255	3.65094	3.32889	-0.92355	-1.66532	-1.09712	-0.0433963	-0.58882	-0.01938	-0.0378623	-0.0214829	-0.879971	1.01021	0.010323	-0.270058	0.00341085	-0.0145367	0.0278347
0.701751	23.3436	-16.2832	-12.5417	-13.9536	-91.771	-5.24361	-35.0007	-29.5422	1.1816	-3.74144	-38.6637	22.5875	-0.034713	21.7166	-2.98709	0.687719	-13.7095	2.2141	-3.61549	-0.0930986	2.33414	4.09884	-1.427	-1.97393	-0.76029	-0.0513858	-0.672104	-0.0199797	-0.0532827	-0.0081076	-0.947733	0.682186	0.00712015	-0.343197	-0.000404545	-0.0227385	0.014472
0.706728	25.6969	-14.6165	-12.0586	-13.7272	-91.3769	-5.23432	-33.9936	-26.8127	0.596871	-1.49009	-39.7608	22.5872	-0.0350975	19.6496	-0.579258	-0.367676	-13.0529	1.88059	-3.20667	-0.0881296	0.91619	4.75988	-1.932	-2.31828	-0.46484	-0.060514	-0.771164	-0.0212846	-0.0702327	0.00349048	-1.05143	0.392067	0.00345803	-0.425326	-0.00415989	-0.0324781	0.00281623
0.711705	28.2008	-12.9768	-11.6369	-13.4621	-91.0041	-5.14333	-33.1716	-24.15	0.0396597	0.724353	-40.8789	22.6068	-0.0355237	17.6846	1.77207	-1.4463	-12.3831	1.60166	-2.79536	-0.083932	-0.55782	5.31879	-2.42729	-2.68615	-0.210813	-0.0704306	-0.88167	-0.0231629	-0.0881458	0.0133537	-1.18374	0.140079	-0.000524226	-0.513548	-0.00779285	-0.0433366	-0.00716902
0.716682	30.7604	-11.431	-11.2951	-13.1653	-90.6555	-4.97403	-32.5138	-21.6147	-0.485371	2.89664	-42.0253	22.6472	-0.0359935	15.8547	4.00354	-2.50735	-11.7165	1.3802	-2.39302	-0.0805035	-2.04032	5.78704	-2.90194	-3.06499	0.00320809	-0.0807668	-0.999029	-0.0254656	-0.106437	0.0215889	-1.33681	-0.0749211	-0.00468358	-0.604889	-0.011249	-0.0548696	-0.0155829
0.721659	33.2845	-10.0448	-11.0444	-12.845	-90.3338	-4.73141	-31.9979	-19.2584	-0.975602	5.02265	-43.2059	22.7089	-0.0365146	14.1877	6.06056	-3.51352	-11.0674	1.21664	-2.00889	-0.0778269	-3.48383	6.17933	-3.34589	-3.44241	0.179774	-0.0911526	-1.1186	-0.0280352	-0.124528	0.0283506	-1.50247	-0.255158	-0.00887601	-0.696395	-0.0144815	-0.0666244	-0.0225707
0.726636	35.6896	-8.87951	-10.8886	-12.5094	-90.0416	-4.42183	-31.6011	-17.1224	-1.43036	7.09964	-44.4255	22.7916	-0.0370972	12.7062	7.89807	-4.43221	-10.4475	1.10941	-1.65016	-0.0758718	-4.84335	6.51215	-3.75038	-3.8066	0.32222	-0.101233	-1.23588	-0.0307144	-0.141865	0.0338231	-1.67258	-0.4036	-0.0129595	-0.785211	-0.0174498	-0.0781578	-0.0283068
0.731613	37.9032	-7.98922	-10.8253	-12.1671	-89.7809	-4.05285	-31.3016	-15.2373	-1.85072	9.1263	-45.6875	22.895	-0.0377529	11.426	9.48091	-5.23656	-9.86525	1.05529	-1.32213	-0.0745966	-6.07841	6.8022	-4.10832	-4.14676	0.434304	-0.110682	-1.3467	-0.0333541	-0.157941	0.0382017	-1.83923	-0.523632	-0.0167971	-0.86866	-0.0201188	-0.0890502	-0.0329764
0.73659	39.8661	-7.41741	-10.846	-11.826	-89.5539	-3.63294	-31.0793	-13.6235	-2.2392	11.1029	-46.9946	23.0186	-0.0384918	10.3563	10.7839	-5.90597	-9.3261	1.04978	-1.02837	-0.0739502	-7.15467	7.06498	-4.41443	-4.45333	0.519881	-0.119213	-1.44733	-0.0358195	-0.172311	0.0416771	-1.99503	-0.618738	-0.02026	-0.944298	-0.022458	-0.0989196	-0.0367603
0.741567	41.5344	-7.19482	-10.9381	-11.4935	-89.3625	-3.17126	-30.9167	-12.2916	-2.59935	13.0311	-48.3489	23.1617	-0.0393215	9.49961	11.7916	-6.4264	-8.83218	1.08752	-0.770928	-0.0738749	-8.04511	7.31366	-4.66533	-4.71818	0.582621	-0.126587	-1.5346	-0.0379953	-0.184598	0.0444214	-2.13328	-0.692245	-0.0232304	-1.00997	-0.0244406	-0.107432	-0.0398219
0.746544	42.8798	-7.33795	-11.0854	-11.1758	-89.2084	-2.67743	-30.7993	-11.2445	-2.93542	14.9141	-49.7517	23.3241	-0.0402459	8.8522	12.4977	-6.79032	-8.38265	1.16254	-0.550525	-0.0743083	-8.73065	7.5582	-4.85945	-4.9348	0.625798	-0.132613	-1.60596	-0.0397888	-0.194504	0.0465787	-2.24814	-0.747116	-0.0256045	-1.06386	-0.0260432	-0.114309	-0.0422968
0.751521	43.8895	-7.8483	-11.2699	-10.8781	-89.0934	-2.16127	-30.7157	-10.4784	-3.25194	16.7562	-51.204	23.5052	-0.0412643	8.40443	12.9042	-6.99632	-7.9739	1.26861	-0.366768	-0.0751864	-9.20037	7.80492	-4.99688	-5.09823	0.652156	-0.137157	-1.65952	-0.0411315	-0.201811	0.0482588	-2.33474	-0.785826	-0.027295	-1.1045	-0.0272458	-0.119333	-0.0442882
0.756498	44.3452	-8.22536	-11.1755	-10.5847	-89.0571	-1.63191	-30.5446	-9.99442	-3.55418	18.5353	-52.7002	23.7039	-0.0425375	8.40746	13.3127	-7.37837	-8.61934	1.94444	0.204271	-0.0766284	-9.51382	8.09599	-5.07424	-5.19023	0.653383	-0.139987	-1.6917	-0.0419784	-0.205988	0.0492727	-2.37455	-0.801485	-0.0279202	-1.12732	-0.0278958	-0.121959	-0.0456017
0.761475	44.8538	-9.55509	-11.4369	-10.3412	-89.0137	-1.10046	-30.534	-9.75936	-3.84479	20.3178	-54.2542	23.9221	-0.0436741	8.15718	13.0518	-7.20136	-7.93527	1.94663	0.201373	-0.0781613	-9.53826	8.33975	-5.10561	-5.24127	0.655137	-0.141372	-1.70675	-0.0422993	-0.207822	0.0502658	-2.39675	-0.815805	-0.0281201	-1.1391	-0.0282837	-0.122944	-0.046878
0.766452	45.0505	-11.1543	-11.6736	-10.1249	-89.0156	-0.574895	-30.539	-9.7724	-4.12855	22.0767	-55.8583	24.1582	-0.0448819	8.07222	12.5557	-6.90318	-7.31038	1.96652	0.185661	-0.0799655	-9.36093	8.58465	-5.088	-5.23333	0.644348	-0.141163	-1.70209	-0.0421073	-0.206862	0.0508925	-2.38228	-0.817761	-0.0274842	-1.13544	-0.0282325	-0.1218	-0.0477688
0.771429	44.9742	-12.9778	-11.8702	-9.93565	-89.064	-0.0635259	-30.5603	-10.0184	-4.40875	23.8189	-57.5126	24.4123	-0.0461431	8.12826	11.8478	-6.49978	-6.7327	2.00196	0.158689	-0.0819935	-8.99871	8.82392	-5.02575	-5.16724	0.621621	-0.139407	-1.6782	-0.0414208	-0.203181	0.0511381	-2.3305	-0.807844	-0.0260057	-1.11637	-0.0277409	-0.118553	-0.0482574
0.776406	44.6717	-14.9747	-12.0135	-9.77279	-89.1599	0.426186	-30.6005	-10.4816	-4.68808	25.5514	-59.2169	24.6841	-0.0474371	8.29954	10.9548	-6.00912	-6.18869	2.05084	0.122138	-0.0842057	-8.47301	9.04898	-4.92357	-5.04496	0.587228	-0.136184	-1.63597	-0.040273	-0.196911	0.0509707	-2.24173	-0.786245	-0.0236988	-1.08223	-0.0268136	-0.113285	-0.0483107
0.781382	44.1923	-17.0807	-12.092	-9.6347	-89.3043	0.887669	-30.6633	-11.1455	-4.96868	27.281	-60.971	24.9735	-0.048743	8.56152	9.91337	-5.4554	-5.66405	2.1112	0.0781557	-0.0865779	-7.80844	9.24942	-4.78649	-4.86946	0.541522	-0.131599	-1.57667	-0.0387072	-0.188229	0.0503563	-2.11724	-0.753251	-0.020601	-1.03373	-0.0254644	-0.106124	-0.0478947
0.786359	43.5916	-19.2418	-12.0987	-9.51919	-89.4976	1.31551	-30.7519	-11.9947	-5.25206	29.0138	-62.7745	25.28	-0.0500392	8.88748	8.75336	-4.85769	-5.14343	2.18127	0.0284169	-0.0890892	-7.03203	9.41551	-4.61937	-4.64438	0.484472	-0.125778	-1.50185	-0.0367761	-0.177352	0.0492503	-1.95896	-0.708792	-0.0167628	-0.971812	-0.0237113	-0.0972305	-0.0469652
0.791336	42.9264	-21.4063	-12.0293	-9.42366	-89.74	1.70538	-30.8689	-13.014	-5.53923	30.755	-64.6267	25.6033	-0.0513056	9.25074	7.50495	-4.23472	-4.61115	2.2595	-0.0254911	-0.0917279	-6.17199	9.53795	-4.4269	-4.37396	0.416062	-0.118859	-1.41325	-0.0345373	-0.164521	0.0476113	-1.76944	-0.652823	-0.0122502	-0.897615	-0.0215785	-0.0867973	-0.0454819
0.796313	42.252	-23.5235	-11.8818	-9.34537	-90.0312	2.0541	-31.0152	-14.1886	-5.83068	32.5085	-66.5271	25.9427	-0.052523	9.62528	6.20016	-3.60541	-4.0517	2.34459	-0.0820137	-0.0944919	-5.25665	9.60823	-4.21355	-4.06287	0.336447	-0.11099	-1.31273	-0.0320498	-0.149999	0.0454084	-1.55171	-0.585481	-0.00714192	-0.812483	-0.0190972	-0.0750368	-0.0434157
0.80129	41.6211	-25.5485	-11.6568	-9.28152	-90.3702	2.35957	-31.1894	-15.5037	-6.12647	34.2768	-68.4746	26.2974	-0.0536742	9.98522	4.8703	-2.98707	-3.4501	2.43544	-0.139768	-0.0973857	-4.31373	9.61928	-3.98348	-3.7161	0.245944	-0.102322	-1.20223	-0.0293726	-0.134058	0.042623	-1.30921	-0.507074	-0.00152613	-0.717886	-0.0163035	-0.0621751	-0.0407497
0.806267	41.083	-27.4428	-11.3568	-9.22941	-90.7554	2.62075	-31.3871	-16.9447	-6.42619	36.0611	-70.4683	26.6667	-0.0547441	10.3046	3.54526	-2.39489	-2.79218	2.53112	-0.197579	-0.100418	-3.36957	9.5658	-3.74051	-3.33884	0.145067	-0.0930062	-1.08372	-0.0265625	-0.116977	0.0392508	-1.04559	-0.418112	0.00450291	-0.615385	-0.0132382	-0.0484449	-0.0374819
0.811244	40.6824	-29.1755	-10.9863	-9.18653	-91.1844	2.83759	-31.6011	-18.497	-6.72909	37.8602	-72.5066	27.0492	-0.0557199	10.5571	2.25288	-1.84147	-2.06499	2.63085	-0.254493	-0.103599	-2.44866	9.4445	-3.48814	-2.93634	0.034539	-0.0831932	-0.959104	-0.0236732	-0.0990309	0.0353029	-0.76466	-0.319325	0.0108477	-0.506592	-0.00994552	-0.0340795	-0.0336259
0.816221	40.459	-30.7191	-10.5515	-9.15065	-91.6539	3.01084	-31.8209	-20.1451	-7.03406	39.6717	-74.588	27.4438	-0.0565911	10.7161	1.02219	-1.33837	-1.25703	2.73382	-0.309611	-0.106938	-1.57316	9.25385	-3.22964	-2.51394	-0.0845964	-0.0730276	-0.830281	-0.0207536	-0.0804929	0.0308096	-0.470298	-0.211763	0.0174089	-0.393145	-0.00647301	-0.0193082	-0.0292143
0.821198	40.4386	-32.0039	-10.0616	-9.11994	-92.1599	3.14164	-32.0335	-21.867	-7.33969	41.4911	-76.7102	27.8489	-0.0573497	10.7595	-0.0780875	-0.914307	-0.357464	2.83879	-0.360229	-0.110463	-0.762283	8.99048	-2.96868	-2.07712	-0.209813	-0.0626404	-0.699028	-0.0178402	-0.0616303	0.0258505	-0.166557	-0.097956	0.0240742	-0.276795	-0.00287993	-0.00435665	-0.0243296
0.826175	40.6599	-33.0637	-9.52584	-9.09249	-92.6976	3.23252	-32.2223	-23.6517	-7.64406	43.3115	-78.8706	28.2624	-0.0579888	10.6543	-1.06307	-0.554474	0.640778	2.94509	-0.407739	-0.114148	-0.0331427	8.66063	-2.7074	-1.63085	-0.34096	-0.0521721	-0.567072	-0.0149801	-0.0426873	0.0204498	0.143004	0.0219178	0.0307643	-0.158994	0.000794329	0.0105726	-0.0189983
0.831152	41.15	-33.8978	-8.9539	-9.06681	-93.2617	3.28612	-32.3694	-25.4823	-7.94495	45.1244	-81.0654	28.682	-0.0585039	10.3706	-1.91682	-0.258909	1.74309	3.05143	-0.451992	-0.117976	0.600355	8.2691	-2.4483	-1.18018	-0.476724	-0.0417491	-0.436025	-0.0122094	-0.0238983	0.0146705	0.454778	0.146522	0.0373932	-0.0412366	0.00450254	0.0252869	-0.0132858
0.836129	41.932	-34.513	-8.35565	-9.04164	-93.846	3.30546	-32.4559	-27.3411	-8.23979	46.9195	-83.2902	29.1049	-0.0588921	9.87783	-2.62813	-0.0245451	2.95242	3.15616	-0.492995	-0.121908	1.12729	7.8223	-2.19361	-0.72995	-0.615814	-0.0314903	-0.30739	-0.00956051	-0.00548048	0.00858088	0.765319	0.274538	0.0438819	0.0750686	0.00819961	0.0396102	-0.00726262
0.841106	43.026	-34.9224	-7.74076	-9.01586	-94.444	3.29375	-32.4628	-29.2101	-8.52557	48.6851	-85.5394	29.5279	-0.0591521	9.14481	-3.19055	0.154347	4.26926	3.25715	-0.530852	-0.12589	1.53971	7.32802	-1.94531	-0.284796	-0.757042	-0.0215062	-0.182556	-0.00706198	0.012368	0.00225035	1.07137	0.404744	0.0501598	0.188619	0.0118437	0.0533843	-0.00100007
0.846083	44.4264	-35.0743	-7.12752	-8.98871	-95.0485	3.25383	-32.3752	-31.0624	-8.79899	50.4091	-87.8058	29.9473	-0.0592856	8.15978	-3.5415	0.26148	5.6883	3.3513	-0.562974	-0.12987	1.8343	6.78971	-1.70595	0.150287	-0.897658	-0.011893	-0.0628514	-0.0047311	0.0294521	-0.00420731	1.36926	0.534369	0.0561397	0.297961	0.0153809	0.0664521	0.00538641
0.85106	46.1525	-34.9994	-6.52646	-8.95925	-95.6526	3.18909	-32.1776	-32.8797	-9.0564	52.0774	-90.0809	30.3584	-0.059295	6.89042	-3.69001	0.31233	7.20716	3.43525	-0.589833	-0.133742	2.00863	6.2174	-1.47676	0.571373	-1.03713	-0.00274296	0.0505972	-0.00259175	0.045619	-0.0107385	1.65624	0.662835	0.0617723	0.402078	0.0187807	0.0786955	0.0118419
0.856037	48.2296	-34.7608	-5.94165	-8.92661	-96.2493	3.10303	-31.8572	-34.6467	-9.29396	53.6749	-92.3542	30.7563	-0.0591852	5.29907	-3.67599	0.332017	8.82262	3.50516	-0.612959	-0.137366	2.06229	5.62354	-1.2582	0.975084	-1.17595	0.00585862	0.156801	-0.000669576	0.0607438	-0.0173197	1.93	0.790592	0.0670271	0.500183	0.022024	0.0900201	0.0183418
0.861014	50.6659	-34.3833	-5.38069	-8.89013	-96.8318	2.99867	-31.4065	-36.3429	-9.50765	55.1863	-94.6134	31.1352	-0.0589639	3.36327	-3.5084	0.331382	10.5278	3.55638	-0.632174	-0.140594	1.99842	5.01734	-1.05081	1.35801	-1.31397	0.013839	0.254849	0.00101613	0.0747131	-0.0239135	2.188	0.917451	0.0718664	0.591456	0.025088	0.100338	0.0248479
0.865991	53.4638	-33.8899	-4.85062	-8.84929	-97.3938	2.87876	-30.823	-37.9479	-9.69338	56.596	-96.8442	31.489	-0.058642	1.06724	-3.19725	0.320086	12.3148	3.58375	-0.647044	-0.143261	1.82255	4.40737	-0.854782	1.71707	-1.45134	0.0211354	0.343941	0.0024477	0.0874336	-0.0304948	2.42784	1.04351	0.0762586	0.675186	0.0279549	0.109575	0.0313348
0.870968	56.5924	-33.1382	-4.39124	-8.80391	-97.9289	2.74452	-30.1098	-39.4227	-9.84697	57.8885	-99.0303	31.8114	-0.058232	-1.57374	-2.60259	0.264605	14.1828	3.58087	-0.650643	-0.145273	1.54341	3.78868	-0.672001	2.04924	-1.5843	0.0277278	0.423564	0.00363666	0.0988244	-0.0369387	2.64696	1.16504	0.0801357	0.750454	0.0305808	0.117662	0.0376771
0.875945	60.062	-32.2877	-3.98621	-8.75345	-98.4323	2.59923	-29.2729	-40.7625	-9.96439	59.0469	-101.153	32.0954	-0.0577504	-4.57543	-1.86306	0.213699	16.1161	3.54282	-0.647462	-0.146372	1.16963	3.1788	-0.50002	2.35245	-1.71718	0.0335465	0.493011	0.00454485	0.10884	-0.0433454	2.84354	1.28628	0.0835138	0.817061	0.0329845	0.124562	0.0439752
0.880922	195.507	-42.239	6.70375	499.461	1071.4	-72.0549	-84.0646	-43.2194	-9.99324	75.007	-101.624	31.9762	-0.13503	-13.0804	3.18586	-0.219261	29.9643	5.45886	-0.856068	-0.230379	31.1203	16.5669	2.07157	-10.7905	-6.91159	-0.221676	-3.47751	-0.112661	-0.251004	-0.178896	-10.2357	5.81988	-0.0836382	-2.59333	-0.0158691	-0.238212	0.17941
0.885899	179.134	-39.0053	5.95477	436.544	860.979	-63.4805	-76.0068	-44.6747	-10.0544	74.1144	-104.041	32.2115	-0.12022	-17.3404	3.91949	-0.15614	29.7314	5.01021	-0.803015	-0.214959	26.6409	13.7437	1.81985	-8.65351	-6.19102	-0.179435	-2.83716	-0.0944956	-0.19152	-0.163559	-8.21595	5.2067	-0.0582774	-2.04697	-0.00728941	-0.181477	0.16395
0.890876	165.361	-35.6565	5.2643	381.761	671.055	-56.4866	-68.7188	-45.924	-10.0833	73.3916	-106.452	32.3737	-0.106793	-22.1182	4.92909	-0.103265	30.0381	4.52442	-0.735014	-0.199419	22.6101	11.1816	1.60774	-6.77045	-5.57086	-0.142429	-2.2753	-0.0786807	-0.139517	-0.150748	-6.44151	4.68224	-0.0361219	-1.56659	0.000318948	-0.132054	0.151011
0.895853	154.136	-32.2578	4.6277	335.247	501.835	-51.0209	-62.2589	-46.9592	-10.0758	72.8187	-108.821	32.458	-0.0947762	-27.3181	6.19066	-0.0514457	30.8256	4.00466	-0.652995	-0.183729	19.0474	8.8874	1.43625	-5.14583	-5.0509	-0.11071	-1.79293	-0.0652334	-0.0950817	-0.140458	-4.91739	4.24626	-0.017248	-1.15336	0.00692894	-0.0900471	0.140586
0.900829	145.349	-28.9049	4.04624	296.947	353.1	-46.9627	-56.6623	-47.773	-10.0283	72.37	-111.11	32.4605	-0.0841684	-32.8379	7.64231	0.0116634	32.0251	3.45505	-0.559332	-0.167857	15.9603	6.8617	1.30557	-3.77829	-4.62886	-0.0842097	-1.38926	-0.0541196	-0.0581371	-0.13263	-3.64286	3.89672	-0.00165671	-0.806897	0.0125369	-0.0553962	0.132618
0.905806	138.819	-25.6218	3.50845	266.62	224.3	-44.2476	-51.9426	-48.3586	-9.93747	72.0162	-113.281	32.3784	-0.0749441	-38.5444	9.2799	0.0855401	33.5592	2.88016	-0.454192	-0.151803	13.3465	5.1	1.21513	-2.66158	-4.30062	-0.0627657	-1.06203	-0.0452617	-0.0284673	-0.127157	-2.61238	3.62998	0.0107129	-0.525594	0.0171576	-0.027906	0.127002
0.910783	134.32	-22.4199	2.99859	243.894	114.656	-42.801	-48.0945	-48.7082	-9.80106	71.725	-115.296	32.21	-0.0670596	-44.2938	11.1054	0.168849	35.3455	2.28568	-0.337669	-0.135607	11.1953	3.59383	1.1637	-1.78545	-4.06053	-0.0461359	-0.807795	-0.038546	-0.00574479	-0.123891	-1.81652	3.44103	0.0199727	-0.306813	0.0208202	-0.00726944	0.123588
0.91576	131.58	-19.1905	2.47324	228.28	23.2404	-42.671	-45.0949	-48.8138	-9.61755	71.4624	-117.119	31.9544	-0.0604571	-49.9184	13.2302	0.250471	37.3036	1.67771	-0.205965	-0.119397	9.48927	2.33171	1.14947	-1.13649	-3.90153	-0.0340148	-0.622123	-0.0338289	0.0104476	-0.122641	-1.24262	3.32358	0.026275	-0.147112	0.0235644	0.0069111	0.12219
0.920737	130.359	-16.1979	1.96626	219.264	-51.0026	-43.4416	-42.9053	-48.6667	-9.38651	71.1938	-118.711	31.6121	-0.055068	-55.3082	15.4098	0.355408	39.3349	1.06722	-0.0688621	-0.103217	8.2058	1.30011	1.17014	-0.698737	-3.81541	-0.026046	-0.499821	-0.0309423	0.020598	-0.123181	-0.875528	3.27029	0.0298042	-0.0424239	0.0254371	0.0151054	0.122583
0.925714	130.378	-13.5161	1.47716	216.24	-109.165	-44.9092	-41.4726	-48.2581	-9.1087	70.8853	-120.037	31.1848	-0.0508153	-60.3265	17.5736	0.482418	41.3471	0.46507	0.0701628	-0.0872314	7.31769	0.484177	1.223	-0.454267	-3.79299	-0.0218337	-0.435105	-0.0296988	0.0252491	-0.125255	-0.698068	3.27291	0.0307698	0.0117931	0.0264904	0.0178395	0.124512
0.930691	131.358	-11.2298	1.01053	218.56	-152.358	-46.846	-40.7309	-47.5795	-8.78608	70.5038	-121.065	30.6751	-0.0476158	-64.8472	19.6369	0.628191	43.2481	-0.116568	0.206866	-0.0716498	6.79396	-0.13156	1.3051	-0.383682	-3.82435	-0.0209524	-0.42175	-0.0298962	0.0249842	-0.128577	-0.691564	3.32248	0.0293999	0.0204281	0.0267796	0.0156811	0.127695
0.935668	133.024	-9.429	0.575752	225.537	-181.692	-49.0104	-40.6029	-46.6239	-8.42195	70.0182	-121.76	30.0867	-0.0453815	-68.7573	21.5052	0.786857	44.9476	-0.664654	0.336473	-0.0567155	6.60031	-0.562707	1.41335	-0.466502	-3.8991	-0.0229564	-0.453228	-0.0313221	0.0204147	-0.132846	-0.836233	3.40958	0.025936	-0.0113931	0.0263621	0.00922735	0.131833
0.940645	135.115	-8.2116	0.188323	236.455	-198.264	-51.1469	-41.0014	-45.3865	-8.02084	69.3996	-122.093	29.4243	-0.0440209	-71.9615	23.0716	0.950232	46.3592	-1.16577	0.453651	-0.0426914	6.69936	-0.824657	1.54464	-0.68151	-4.00663	-0.0273879	-0.522828	-0.0337585	0.0121691	-0.137747	-1.11154	3.52456	0.0206293	-0.0783982	0.0252967	-0.000906786	0.136615
0.945622	137.381	-7.63978	-0.141246	250.562	-203.148	-53.0408	-41.8307	-43.8658	-7.5885	68.6221	-122.035	28.6934	-0.0434403	-74.377	24.2575	1.10755	47.4042	-1.6071	0.554138	-0.0298588	7.05083	-0.93243	1.69593	-1.00706	-4.13639	-0.0337847	-0.62377	-0.0369858	0.000883399	-0.142966	-1.49651	3.6578	0.0137371	-0.175243	0.0236439	-0.0140984	0.14173
0.950599	139.59	-7.76132	-0.402546	267.082	-197.4	-54.4945	-42.9887	-42.0645	-7.1317	67.6628	-121.562	27.9001	-0.0435446	-75.9377	24.9924	1.24795	48.0121	-1.97686	0.634072	-0.0184909	7.61188	-0.900684	1.86428	-1.42136	-4.27814	-0.0416876	-0.749302	-0.0407869	-0.0128081	-0.148195	-1.96997	3.79994	0.00552048	-0.296573	0.0214656	-0.0297249	0.146872
0.955576	141.527	-8.59974	-0.58819	285.21	-182.055	-55.34	-44.369	-39.9907	-6.65802	66.5024	-120.65	27.0511	-0.0442394	-76.5929	25.2221	1.36153	48.1229	-2.26492	0.690415	-0.00883768	8.33741	-0.743842	2.04687	-1.90269	-4.42215	-0.0506461	-0.892784	-0.044951	-0.0282796	-0.153139	-2.51081	3.94206	-0.00375758	-0.437072	0.0188257	-0.0471714	0.151751
0.960553	143.001	-10.1471	-0.705974	304.117	-158.129	-55.4462	-45.8657	-37.6564	-6.17526	65.1261	-119.278	26.1531	-0.0454264	-76.3029	24.9175	1.44039	47.6888	-2.46326	0.721311	-0.0011177	9.17791	-0.474822	2.23372	-2.43191	-4.55924	-0.0603183	-1.04842	-0.0493	-0.0450044	-0.157511	-3.09675	4.07573	-0.0137676	-0.591241	0.0158037	-0.0658092	0.156081
0.96553	143.838	-12.3592	-0.771473	322.951	-126.63	-54.723	-47.3745	-35.08	-5.69153	63.5239	-117.432	25.213	-0.0470111	-75.0392	24.0761	1.47972	46.6755	-2.56661	0.726212	0.00450642	10.0831	-0.107843	2.4141	-2.99065	-4.6812	-0.070392	-1.21073	-0.0536721	-0.0624843	-0.161055	-3.70586	4.1934	-0.0241729	-0.753651	0.0124851	-0.0850244	0.159611
0.970507	143.88	-15.1571	-0.799431	340.86	-88.5668	-53.1299	-48.7931	-32.2886	-5.2152	61.6898	-115.099	24.237	-0.048906	-72.7839	22.7216	1.47851	45.0639	-2.57283	0.705885	0.0079409	11.0043	0.342196	2.58368	-3.55934	-4.78104	-0.0805002	-1.37403	-0.057899	-0.0801771	-0.163567	-4.31806	4.28865	-0.0346978	-0.919274	0.0089458	-0.104252	0.162137
0.975484	143.255	-18.4038	-0.841219	357.163	-45.0084	-50.7146	-50.0457	-29.3022	-4.75142	59.6266	-112.272	23.2319	-0.0510082	-69.7235	20.95	1.43811	42.9561	-2.49156	0.663244	0.00928629	11.8673	0.869802	2.7148	-4.12909	-4.85182	-0.0906744	-1.53602	-0.0619283	-0.0979861	-0.164791	-4.91173	4.35507	-0.0449208	-1.0834	0.0052765	-0.123004	0.163406
0.980461	142.102	-21.9322	-0.934604	371.233	2.93909	-47.5596	-51.0544	-26.156	-4.3062	57.3409	-108.951	22.2029	-0.0532289	-66.0819	18.8763	1.36249	40.484	-2.33743	0.6022	0.00877209	12.6187	1.46649	2.7909	-4.6867	-4.88829	-0.100778	-1.69302	-0.0656677	-0.115599	-0.164548	-5.46651	4.38785	-0.05447	-1.24112	0.00157498	-0.140745	0.16324
0.985438	140.483	-25.5884	-1.10593	382.399	54.238	-43.7509	-51.7516	-22.8963	-3.88543	54.8447	-105.138	21.1543	-0.0554914	-62.0019	16.5949	1.25662	37.744	-2.12365	0.526349	0.00664912	13.2134	2.12242	2.80459	-5.21713	-4.88691	-0.110586	-1.8409	-0.0690116	-0.132621	-0.16273	-5.96466	4.38372	-0.0630541	-1.38795	-0.00207043	-0.156989	0.161531
0.990415	138.399	-29.2333	-1.37203	389.998	107.925	-39.3809	-52.0868	-19.5773	-3.49414	52.1568	-100.845	20.0892	-0.0577269	-57.5585	14.183	1.12652	34.8004	-1.86161	0.439037	0.00316632	13.6143	2.82728	2.7548	-5.70481	-4.84574	-0.119826	-1.97539	-0.0718526	-0.148612	-0.159293	-6.39085	4.34094	-0.0704407	-1.51988	-0.0055775	-0.171301	0.158231
0.995392	135.811	-32.7461	-1.74255	393.419	163.121	-34.5455	-52.0313	-16.2557	-3.1361	49.3045	-96.0916	19.0095	-0.0598744	-52.7682	11.7026	0.97899	31.6893	-1.5606	0.343368	-0.00144603	13.7934	3.56998	2.64502	-6.13456	-4.76451	-0.128209	-2.09238	-0.0740915	-0.163126	-0.154256	-6.73232	4.25931	-0.0764487	-1.63334	-0.0088687	-0.183302	0.153357
1.00037	132.65	-36.022	-2.21909	392.132	219.04	-29.3465	-51.5821	-12.9901	-2.81344	46.3238	-90.9023	17.9162	-0.0618797	-47.5993	9.20232	0.821129	28.4207	-1.22767	0.242174	-0.006986	13.7311	4.33847	2.4821	-6.49242	-4.64464	-0.135454	-2.18815	-0.0756441	-0.175734	-0.147706	-6.97903	4.14029	-0.0809429	-1.7253	-0.0118705	-0.192677	0.146989
1.00535	128.835	-38.9728	-2.79555	385.72	274.999	-23.8907	-50.7644	-9.83885	-2.52653	43.2601	-85.3104	16.8087	-0.0636951	-41.981	6.71857	0.659868	24.982	-0.867701	0.137976	-0.0132834	13.4173	5.11966	2.27529	-6.76621	-4.48926	-0.141304	-2.25954	-0.0764473	-0.186044	-0.139793	-7.12379	3.9869	-0.0838315	-1.79332	-0.0145134	-0.199183	0.139275
1.01032	124.261	-41.4671	-3.43431	373.915	330.393	-18.3056	-49.6107	-6.87607	-2.27636	40.163	-79.3539	15.6846	-0.0652853	-35.8327	4.29258	0.503908	21.3524	-0.485314	0.0338442	-0.0201585	12.8665	5.87056	2.04754	-6.94077	-4.30808	-0.145371	-2.30284	-0.0764543	-0.193499	-0.131001	-7.16402	3.80854	-0.0851204	-1.83517	-0.0166963	-0.202636	0.130683
1.0153	119.06	-43.3524	-4.09407	356.783	384.669	-12.7885	-48.1828	-4.16686	-2.06153	37.0882	-73.0752	14.5398	-0.0666323	-29.2548	2.00883	0.360461	17.6059	-0.0932718	-0.0661123	-0.0273033	12.0926	6.55375	1.82502	-7.00401	-4.11173	-0.147321	-2.31536	-0.0756437	-0.197651	-0.121831	-7.10134	3.61548	-0.0849036	-1.84986	-0.0183466	-0.203005	0.121705
1.02028	113.473	-44.5257	-4.75341	334.623	437.386	-7.51947	-46.5706	-1.75282	-1.87766	34.0963	-66.5198	13.3699	-0.0677179	-22.4153	-0.0510609	0.233425	13.8474	0.294022	-0.158269	-0.0343935	11.1141	7.15306	1.61972	-6.95182	-3.90813	-0.147043	-2.29632	-0.0740357	-0.198311	-0.112618	-6.9376	3.41541	-0.0832007	-1.83687	-0.0194074	-0.200277	0.112672
1.02525	107.765	-44.9097	-5.39352	307.925	488.24	-2.66002	-44.8761	0.333782	-1.71924	31.2479	-59.7337	12.1689	-0.0685279	-15.4946	-1.81749	0.125033	10.1811	0.663083	-0.239491	-0.0411308	9.95893	7.65548	1.43823	-6.78513	-3.70531	-0.144553	-2.24627	-0.0716886	-0.195434	-0.103693	-6.67683	3.21611	-0.0800264	-1.79626	-0.0198275	-0.194503	0.103906
1.03023	102.207	-44.4513	-5.99451	277.355	537.072	1.644	-43.2027	2.0692	-1.58019	28.5989	-52.7608	10.9292	-0.0690549	-8.68086	-3.23286	0.0364939	6.70777	1.00183	-0.307107	-0.0472572	8.6647	8.05122	1.28477	-6.50933	-3.5112	-0.139957	-2.1669	-0.0686891	-0.189103	-0.0953706	-6.32619	3.02532	-0.0754287	-1.72895	-0.0195726	-0.185819	0.0957205
1.03521	97.0587	-43.1222	-6.53383	243.737	583.863	5.26665	-41.6433	3.43787	-1.45438	26.1952	-45.6404	9.64204	-0.0692998	-2.16139	-4.25403	-0.0317426	3.51961	1.30009	-0.359009	-0.0525662	7.27857	8.33377	1.16161	-6.13419	-3.33348	-0.133444	-2.06104	-0.0651501	-0.179525	-0.0879502	-5.89611	2.85051	-0.0694964	-1.63676	-0.0186294	-0.174457	0.0884113
1.04018	92.547	-40.936	-6.98769	208.024	628.72	8.12114	-40.2717	4.43724	-1.33581	24.0685	-38.4056	8.29727	-0.0692718	3.88761	-4.86032	-0.0804145	0.695076	1.55038	-0.394029	-0.0569204	5.8511	8.50463	1.06992	-5.67475	-3.1782	-0.125299	-1.93284	-0.061206	-0.167086	-0.0816509	-5.40144	2.6976	-0.0624034	-1.52297	-0.0170301	-0.160799	0.0821967
1.04516	88.8492	-37.9406	-7.32931	171.271	671.863	10.1637	-39.136	5.07448	-1.21942	22.2344	-31.0817	6.88408	-0.0689909	9.30971	-5.05502	-0.111051	-1.70513	1.7481	-0.411966	-0.0602488	4.43727	8.56924	1.00902	-5.15086	-3.05035	-0.115899	-1.78778	-0.0570162	-0.152329	-0.0766422	-4.86084	2.57148	-0.0543895	-1.39206	-0.0148417	-0.145361	0.0772465
1.05014	86.0771	-34.2268	-7.53014	134.596	713.608	11.4067	-38.2516	5.36863	-1.10143	20.689	-23.685	5.39119	-0.0684904	13.9781	-4.87065	-0.126102	-3.64268	1.892	-0.413827	-0.0625538	3.09261	8.53946	0.976347	-4.58757	-2.953	-0.105716	-1.63264	-0.0527613	-0.13598	-0.0730075	-4.29697	2.47515	-0.0457752	-1.2499	-0.0121772	-0.128804	0.0736458
1.05512	84.2614	-29.9323	-7.56031	99.1474	754.332	11.9284	-37.5952	5.35124	-0.97989	19.4067	-16.2222	3.80743	-0.0678193	17.8046	-4.37211	-0.128915	-5.10527	1.98446	-0.401981	-0.0639128	1.86993	8.43408	0.967446	-4.01505	-2.88691	-0.0953231	-1.47561	-0.0486416	-0.118959	-0.0707271	-3.73659	2.40941	-0.0369705	-1.10388	-0.00920189	-0.111955	0.071378
1.06009	83.3406	-25.2423	-7.38933	66.0664	794.444	11.8784	-37.1009	5.06671	-0.855035	18.3383	-8.69095	2.12243	-0.0670436	20.7464	-3.65767	-0.123593	-6.10912	2.03159	-0.38022	-0.0644776	0.816469	8.27894	0.976249	-3.46838	-2.85022	-0.0853822	-1.32617	-0.0448738	-0.102379	-0.0696678	-3.21035	2.37249	-0.0284798	-0.962884	-0.00613614	-0.0958046	0.0703149
1.06507	83.1567	-20.3895	-6.98782	36.4608	834.344	11.479	-36.66	4.57356	-0.729764	17.4113	-1.08136	0.327349	-0.0662483	22.8099	-2.85701	-0.114724	-6.69965	2.04323	-0.353711	-0.0644708	-0.0282078	8.10664	0.995472	-2.98704	-2.83839	-0.0766378	-1.19501	-0.0416871	-0.0875373	-0.0695805	-2.75254	2.36002	-0.0209031	-0.837286	-0.00325611	-0.0815079	0.0702129
1.07005	83.4604	-15.6412	-6.32583	11.3889	874.396	11.0092	-36.1239	3.93783	-0.609256	16.5308	6.62174	-1.58483	-0.0655321	24.0495	-2.12533	-0.106958	-6.9493	2.03247	-0.328784	-0.0641768	-0.633562	7.95582	1.01728	-2.61405	-2.84433	-0.0698972	-1.0938	-0.0393186	-0.0758876	-0.0701077	-2.40064	2.36515	-0.0149308	-0.738762	-0.000889676	-0.0703657	0.0707217
1.07502	0	0	0	0	0	0	0	0	0	0	0	0	0	0	0	0	0	0	0	0	0	0	0	0	0	0	0	0	0	0	0	0	0	0	0	0	0
