PathFileType	4	(X/Y/Z)	/tmp/tmpbcprxlnk/P20/MarkerData/DB4_P20_T04_l_comf_relabeled_segment_1.trc
DataRate	CameraRate	NumFrames	NumMarkers	Units	OrigDataRate	OrigDataStartFrame	OrigNumFrames
100.128	100.128	62	15	m	100.128	0	62
Frame#	Time	CLAV			LANK			LKNE			LMT5			LSHO			LTHI			LTIB			LTOE			RANK			RKNE			RMT5			RSHO			RTHI			RTIB			RTOE		
		X1	Y1	Z1	X2	Y2	Z2	X3	Y3	Z3	X4	Y4	Z4	X5	Y5	Z5	X6	Y6	Z6	X7	Y7	Z7	X8	Y8	Z8	X9	Y9	Z9	X10	Y10	Z10	X11	Y11	Z11	X12	Y12	Z12	X13	Y13	Z13	X14	Y14	Z14	X15	Y15	Z15

1	2.37	2.55729	-1.36505	0.119557	2.76487	-0.0545474	0.0278428	2.65744	-0.458578	-0.0142853	2.61134	-0.00488228	0.0346417	2.61316	-1.38887	-0.085731	2.63656	-0.592974	-0.0730343	2.71936	-0.383814	-0.0353589	2.57263	-0.0102272	0.10074	2.62695	-0.103355	0.273122	2.48812	-0.485639	0.301457	2.50135	-0.0217566	0.283413	2.64864	-1.4013	0.311344	2.54334	-0.638722	0.350898	2.54033	-0.348236	0.320041	2.45881	-0.0284708	0.24349
2	2.37999	2.54518	-1.36432	0.120579	2.76451	-0.0550706	0.0278579	2.65303	-0.458191	-0.0142881	2.61146	-0.00485578	0.0345818	2.60114	-1.38841	-0.0849248	2.61569	-0.632939	-0.0699652	2.71657	-0.384225	-0.0353268	2.57254	-0.0101928	0.100694	2.58605	-0.0957649	0.274167	2.47173	-0.486628	0.302824	2.4571	-0.022629	0.284876	2.63673	-1.40062	0.311812	2.5285	-0.639952	0.351914	2.51325	-0.346181	0.32045	2.41491	-0.0318774	0.245085
3	2.38997	2.5339	-1.36332	0.121746	2.76424	-0.0557199	0.0281415	2.64891	-0.457581	-0.0140921	2.61161	-0.00484545	0.0345338	2.58869	-1.38772	-0.0842824	nan	nan	nan	2.70695	-0.377986	-0.0353911	2.57249	-0.0101307	0.100607	2.54719	-0.0886286	0.274668	2.45595	-0.487156	0.304154	2.41345	-0.0244547	0.286137	2.62472	-1.39965	0.312501	2.51483	-0.640522	0.353053	2.49065	-0.343837	0.322046	2.37163	-0.0361475	0.246756
4	2.39996	2.52322	-1.36197	0.122946	2.76544	-0.056173	0.0291071	2.64468	-0.457338	-0.0137298	2.61179	-0.00484964	0.0344874	2.57632	-1.38689	-0.083633	2.61029	-0.652296	-0.0710471	2.69535	-0.369816	-0.0355009	2.57242	-0.0100681	0.100452	2.50819	-0.0827191	0.275426	2.44091	-0.487283	0.305532	2.37064	-0.0272225	0.287435	2.61263	-1.39841	0.313321	2.50203	-0.640312	0.354076	2.46765	-0.341641	0.323266	2.32936	-0.0411058	0.248456
5	2.40995	2.50993	-1.36066	0.123212	2.76847	-0.0561961	0.0306209	2.64126	-0.456712	-0.0128442	2.61205	-0.00483169	0.0344591	2.56413	-1.38577	-0.0828404	2.59771	-0.637883	-0.0704112	2.70074	-0.379761	-0.0345891	2.57235	-0.01006	0.100241	2.46871	-0.0782652	0.276725	2.42653	-0.487004	0.306947	2.32873	-0.0310093	0.288654	2.60016	-1.39711	0.313982	2.49023	-0.639369	0.3551	2.44684	-0.339289	0.324779	2.28829	-0.0468515	0.249962
6	2.41994	2.49681	-1.35927	0.123721	2.76845	-0.0570042	0.0308717	2.63803	-0.455852	-0.012026	2.6123	-0.00482673	0.0344039	2.55192	-1.38451	-0.0819355	2.58545	-0.630783	-0.0702313	2.70194	-0.385663	-0.0340816	2.57232	-0.0101571	0.100006	2.4305	-0.0747643	0.278157	2.41246	-0.486298	0.308216	2.28769	-0.0362062	0.289915	2.5876	-1.39574	0.314859	2.47913	-0.637665	0.356007	2.42516	-0.337744	0.325908	2.24894	-0.05337	0.251789
7	2.42992	2.48404	-1.35769	0.124414	2.76511	-0.0587746	0.0299775	2.63147	-0.456011	-0.0123819	2.61251	-0.00483213	0.0343215	2.53964	-1.38306	-0.0809906	2.57658	-0.630195	-0.0701821	2.69256	-0.380605	-0.0342238	2.57235	-0.0101157	0.0998709	2.39421	-0.0722169	0.279342	2.39862	-0.485199	0.309358	2.24843	-0.0422523	0.291679	2.57514	-1.39413	0.315932	2.46865	-0.635301	0.356938	2.40274	-0.336466	0.326719	2.21049	-0.0609034	0.25396
8	2.43991	2.47148	-1.35592	0.125627	2.76294	-0.060447	0.0296099	2.6247	-0.455973	-0.0128753	2.61273	-0.00481008	0.0342573	2.52731	-1.38151	-0.0800531	2.56876	-0.630501	-0.0698786	2.67939	-0.372137	-0.0342185	nan	nan	nan	2.35811	-0.0711138	0.280265	2.38513	-0.483804	0.310512	2.21258	-0.0484891	0.294142	2.56249	-1.39234	0.316973	2.45848	-0.632426	0.357903	2.38177	-0.334238	0.3276	2.1736	-0.0693976	0.256394
9	2.4499	2.45984	-1.35386	0.12707	2.76201	-0.0619369	0.0296375	2.61785	-0.455889	-0.013294	2.61296	-0.00477499	0.0342442	2.51479	-1.3799	-0.0789875	2.56049	-0.629887	-0.0693004	2.68243	-0.38244	-0.0332225	2.57265	-0.00952936	0.0998462	2.3246	-0.0704984	0.281218	2.37194	-0.482153	0.311737	2.17813	-0.0553521	0.296288	2.54966	-1.39057	0.318175	2.44821	-0.629307	0.358878	2.36163	-0.33633	0.328867	2.13857	-0.0783813	0.25846
10	2.45989	2.4486	-1.35165	0.128602	2.76197	-0.0632735	0.0300264	2.61139	-0.455393	-0.01267	2.61313	-0.00477959	0.0342123	2.50211	-1.37822	-0.0777585	2.55142	-0.628825	-0.0688059	2.68181	-0.384892	-0.0330054	2.57262	-0.00935878	0.0997229	2.2918	-0.0712331	0.282418	2.35883	-0.480246	0.312996	2.14502	-0.0626457	0.297677	2.53673	-1.38872	0.319382	2.43732	-0.626161	0.359718	nan	nan	nan	2.10548	-0.0873543	0.260411
11	2.46987	2.43436	-1.34983	0.129182	2.76363	-0.0643098	0.0310787	2.60516	-0.454614	-0.0114309	2.61329	-0.0047634	0.0342081	2.48926	-1.37659	-0.0764896	2.54201	-0.627751	-0.0684077	2.67066	-0.371659	-0.0340396	nan	nan	nan	2.26349	-0.0713966	0.283676	2.34582	-0.478256	0.314379	2.11418	-0.0700649	0.298865	2.52368	-1.38689	0.320705	2.42599	-0.623314	0.360751	2.32959	-0.345286	0.333549	2.07458	-0.0962882	0.262043
12	2.47986	2.42026	-1.34806	0.130031	2.76348	-0.0659831	0.0313265	2.59891	-0.453346	-0.00995552	2.61339	-0.00474542	0.0341979	2.4763	-1.37507	-0.0750749	2.53283	-0.626662	-0.0676605	2.65386	-0.360909	-0.0342659	nan	nan	nan	2.23491	-0.0724748	0.284931	2.33284	-0.476366	0.315788	2.08576	-0.076992	0.299737	2.51033	-1.38517	0.322067	2.41399	-0.620919	0.361881	2.30897	-0.338602	0.334281	2.04641	-0.104182	0.262615
13	2.48985	2.40716	-1.3462	0.131491	2.76227	-0.0682549	0.0310417	2.58889	-0.453109	-0.00996412	2.61337	-0.00474192	0.0341118	2.46339	-1.37362	-0.0734358	2.52381	-0.62559	-0.0665162	2.64552	-0.362796	-0.0334996	nan	nan	nan	2.21086	-0.0732308	0.285465	2.31969	-0.474689	0.317049	2.05979	-0.0830683	0.299727	2.49704	-1.38348	0.323574	2.40106	-0.619052	0.362932	2.29177	-0.339502	0.335808	2.02086	-0.11082	0.262064
14	2.49983	2.39411	-1.34446	0.132915	2.76079	-0.0708044	0.0305972	2.57848	-0.452945	-0.0102214	2.61321	-0.00478694	0.0339688	2.45049	-1.37224	-0.0717241	2.51316	-0.624939	-0.0659422	2.64773	-0.365376	-0.0335847	2.57227	-0.00871432	0.0997311	2.18864	-0.0736352	0.28608	2.30613	-0.473337	0.318102	2.036	-0.0891186	0.300092	2.48361	-1.38189	0.325258	2.38726	-0.617747	0.363939	2.2709	-0.330982	0.335887	1.99797	-0.115892	0.260539
15	2.50982	2.38073	-1.34299	0.134283	2.75925	-0.0736107	0.0300906	2.56887	-0.452316	-0.0100336	2.61324	-0.00472749	0.0340403	2.43747	-1.37107	-0.069948	2.50309	-0.623961	-0.0650465	2.63884	-0.354337	-0.03475	2.57228	-0.00858307	0.0998619	2.16822	-0.0741903	0.28746	2.29201	-0.47241	0.318985	2.01499	-0.0924995	0.29894	2.47059	-1.38044	0.326972	2.37267	-0.616892	0.36491	2.25285	-0.326019	0.336651	1.97805	-0.119124	0.258559
16	2.51981	2.36711	-1.34175	0.135443	2.75713	-0.0768342	0.029187	2.55978	-0.45149	-0.00912364	2.61426	-0.00415204	0.0349228	2.42434	-1.3701	-0.0681679	2.49312	-0.622388	-0.0637809	2.61935	-0.34398	-0.0351358	2.57246	-0.0083596	0.100156	2.15069	-0.0746047	0.289452	2.27731	-0.471889	0.319722	1.99702	-0.0929556	0.296559	2.45833	-1.37907	0.328704	2.35747	-0.616335	0.365801	2.23728	-0.325237	0.337885	1.96115	-0.120198	0.256239
17	2.5298	2.35358	-1.34087	0.13735	2.75374	-0.0806822	0.0277076	2.54801	-0.451448	-0.00915648	2.6147	-0.00385834	0.0353147	2.41132	-1.36925	-0.0662623	2.48261	-0.622081	-0.0625106	2.61008	-0.34558	-0.0350841	2.57288	-0.00802658	0.100661	2.1365	-0.0735244	0.289975	2.26211	-0.47164	0.320281	1.98277	-0.0919749	0.295057	2.44534	-1.37797	0.330759	2.34179	-0.616085	0.36659	2.22536	-0.324289	0.338519	1.94727	-0.118913	0.253912
18	2.53978	2.34004	-1.34015	0.139239	2.7504	-0.0847793	0.0264682	2.53597	-0.451375	-0.00866544	2.61463	-0.00385718	0.0352899	2.39824	-1.36867	-0.0642004	2.47193	-0.627393	-0.0617465	2.61079	-0.358271	-0.0346092	2.57316	-0.00783145	0.101062	2.12542	-0.0713463	0.289918	2.24675	-0.471503	0.32064	1.9716	-0.0892442	0.293619	2.43158	-1.37696	0.332813	2.32577	-0.616078	0.367354	2.21824	-0.321095	0.337984	1.93615	-0.115451	0.251864
19	2.54977	2.32655	-1.33954	0.140867	2.74708	-0.0891211	0.0255065	2.52379	-0.450881	-0.0082262	2.61442	-0.00393449	0.0351715	2.38477	-1.36833	-0.0622309	2.46203	-0.636741	-0.0608976	2.60054	-0.36639	-0.0337783	2.57341	-0.00766428	0.10144	2.11703	-0.0688023	0.290893	2.23164	-0.471336	0.320887	1.96311	-0.0848864	0.292086	2.41752	-1.37601	0.334877	2.30954	-0.616231	0.368128	2.20782	-0.319011	0.337942	1.92768	-0.109949	0.24982
20	2.55976	2.31354	-1.33921	0.143063	2.74293	-0.0939156	0.0244655	2.51085	-0.450209	-0.00786236	2.61421	-0.00397794	0.0350917	2.37133	-1.36818	-0.0602465	2.44696	-0.633893	-0.0598995	2.58087	-0.354099	-0.0344941	2.57363	-0.00754872	0.101759	2.11111	-0.0658033	0.291456	2.21668	-0.470837	0.320888	1.95713	-0.0785659	0.290423	2.40344	-1.37519	0.337119	2.29311	-0.616299	0.368714	2.19532	-0.317887	0.338341	1.92161	-0.102339	0.247515
21	2.56975	2.29996	-1.33906	0.145363	2.73784	-0.0992803	0.0233071	2.49724	-0.449742	-0.00686081	2.61407	-0.00401204	0.0350821	2.35887	-1.36799	-0.0578029	2.43496	-0.642025	-0.0587449	2.56912	-0.35021	-0.0346446	2.5739	-0.00756581	0.102061	2.10702	-0.0625181	0.290789	2.20223	-0.469967	0.320973	1.95324	-0.0694471	0.288772	2.38929	-1.37451	0.339488	2.27677	-0.616229	0.369125	2.18348	-0.316484	0.338441	1.91688	-0.091996	0.245021
22	2.57973	2.28603	-1.3391	0.14769	2.73224	-0.105114	0.0224801	2.4825	-0.449392	-0.00584143	2.61384	-0.00411208	0.0350738	2.34695	-1.36786	-0.0549486	2.42	-0.640478	-0.0571513	2.56274	-0.354923	-0.0341206	2.57435	-0.00761858	0.102474	2.1034	-0.0604463	0.289801	2.18858	-0.469179	0.321541	1.9497	-0.0589905	0.287082	2.37497	-1.37399	0.341916	2.26107	-0.616409	0.369498	2.17335	-0.314784	0.337755	1.91155	-0.0794728	0.243079
23	2.58972	2.2719	-1.33952	0.149868	2.72569	-0.111528	0.021988	2.46666	-0.448984	-0.0047625	2.61342	-0.00428601	0.0350251	2.33256	-1.36849	-0.053043	2.40206	-0.631533	-0.0551012	2.54463	-0.352409	-0.0336458	2.57482	-0.00749957	0.102784	2.09898	-0.0599661	0.289873	2.17529	-0.469471	0.322377	1.94527	-0.0512645	0.285656	2.36049	-1.37369	0.344363	2.24654	-0.617235	0.370091	2.16419	-0.314011	0.336653	1.90562	-0.0691663	0.242378
24	2.59971	2.25767	-1.34049	0.151936	2.71765	-0.118602	0.0217981	2.4501	-0.448466	-0.0032302	2.61284	-0.00449579	0.0350936	2.31844	-1.36946	-0.0512119	2.38863	-0.640317	-0.052776	2.52607	-0.3517	-0.0325736	2.57534	-0.00741413	0.103188	2.09419	-0.0596608	0.290399	2.16147	-0.471372	0.323195	1.94097	-0.0460714	0.285199	2.34595	-1.37369	0.346856	2.23258	-0.618476	0.371018	2.15416	-0.315414	0.336598	1.90081	-0.0628782	0.241505
25	2.60969	2.24337	-1.3419	0.154034	2.70732	-0.126236	0.0217264	2.43263	-0.447639	-0.00129965	2.61224	-0.00481119	0.0358064	2.30465	-1.37062	-0.0493951	2.37095	-0.639412	-0.0505089	2.5088	-0.357994	-0.0302208	nan	nan	nan	2.09044	-0.0593496	0.291343	2.14702	-0.474032	0.32405	1.93791	-0.0411126	0.284728	2.33132	-1.37407	0.349334	2.2184	-0.620146	0.372494	2.14293	-0.317923	0.338051	1.89758	-0.0573479	0.240474
26	2.61968	2.22901	-1.34347	0.156082	2.69507	-0.134074	0.0217607	2.41115	-0.447121	-0.000992962	2.6112	-0.00551009	0.0374686	2.29064	-1.37221	-0.0478708	2.3471	-0.62189	-0.0484182	2.49092	-0.370887	-0.0268456	nan	nan	nan	2.08816	-0.058803	0.292739	2.13248	-0.476006	0.324905	1.93608	-0.0358332	0.284188	2.31653	-1.37475	0.351617	2.20351	-0.622268	0.374429	2.13135	-0.319992	0.340423	1.8954	-0.0513671	0.239909
27	2.62967	2.21454	-1.34509	0.158019	2.68149	-0.142352	0.0220025	2.38785	-0.446019	-0.000775975	2.60895	-0.00675872	0.038971	2.27694	-1.37404	-0.0457116	2.32513	-0.613176	-0.0465909	2.47468	-0.377159	-0.0252778	2.57335	-0.00734531	0.10227	2.08615	-0.058018	0.293759	2.11863	-0.476449	0.325986	1.93464	-0.0307768	0.284522	2.30173	-1.37572	0.353806	2.18848	-0.624394	0.376646	2.12053	-0.320862	0.342883	1.89347	-0.0456961	0.24005
28	2.63966	2.20009	-1.34666	0.159847	2.66651	-0.151684	0.0221687	2.36381	-0.444144	0.000143329	2.60605	-0.00787636	0.0392363	2.26395	-1.37582	-0.0430232	2.30709	-0.618431	-0.0450669	2.45587	-0.382272	-0.0235887	2.5716	-0.00694941	0.102302	2.08393	-0.0572819	0.294384	2.10623	-0.475715	0.327595	1.93284	-0.0264748	0.286333	2.28702	-1.37687	0.35599	2.17455	-0.626039	0.379099	2.11102	-0.320442	0.344628	1.89152	-0.0408512	0.240966
29	2.64964	2.18608	-1.34795	0.161872	2.64863	-0.162125	0.021861	2.33933	-0.441449	0.00208711	2.60268	-0.00848055	0.0388787	2.25136	-1.37733	-0.040189	2.29323	-0.634014	-0.0430057	2.43392	-0.388784	-0.0215811	2.56956	-0.00572188	0.10319	2.08202	-0.0569059	0.294835	2.09645	-0.474894	0.329991	1.93074	-0.0233267	0.288958	2.27222	-1.37797	0.358084	2.16185	-0.626896	0.381372	2.10267	-0.319421	0.345961	1.88976	-0.0371261	0.241971
30	2.65963	2.17268	-1.34886	0.164069	2.62782	-0.172378	0.0218837	2.31452	-0.438296	0.00490934	2.59787	-0.0105172	0.0383635	2.23661	-1.37914	-0.0386356	2.2758	-0.638747	-0.0407839	2.40586	-0.383985	-0.0222355	2.5647	-0.00427838	0.102548	2.0809	-0.0565828	0.295068	2.08683	-0.474269	0.331917	1.92892	-0.0211772	0.290471	2.25719	-1.37886	0.360007	2.15005	-0.627071	0.383215	2.09532	-0.318482	0.347202	1.88862	-0.0346152	0.241986
31	2.66962	2.1589	-1.34971	0.165939	nan	nan	nan	2.2874	-0.436143	0.0066191	2.58868	-0.0167064	0.0379182	2.22243	-1.38065	-0.0370005	2.2555	-0.636247	-0.0386019	2.38212	-0.378851	-0.0215352	2.55707	-0.00202098	0.100459	2.08032	-0.0563473	0.295134	2.07692	-0.473828	0.333129	1.9276	-0.019678	0.290814	2.24204	-1.37961	0.361903	2.13909	-0.62704	0.384809	2.08848	-0.318079	0.348386	1.88795	-0.0328387	0.240736
32	2.67961	2.14493	-1.35055	0.167576	nan	nan	nan	2.2584	-0.435019	0.00744405	2.57306	-0.0253238	0.0371061	2.20916	-1.38187	-0.0351193	2.23445	-0.633376	-0.036626	2.36569	-0.37411	-0.0188313	2.54692	0.000342368	0.0971722	2.0799	-0.0562106	0.295118	2.06745	-0.473606	0.334032	1.92675	-0.0185665	0.291026	2.22674	-1.38023	0.363701	2.12834	-0.627337	0.386279	2.08198	-0.318145	0.349411	1.88751	-0.0313515	0.239439
33	2.68959	2.13094	-1.35131	0.168765	nan	nan	nan	2.22991	-0.43424	0.00916957	2.55152	-0.0346541	0.0351138	2.19637	-1.38298	-0.0334541	2.21406	-0.631888	-0.0345259	2.34209	-0.373109	-0.0165313	2.52992	-0.00220086	0.0913258	2.07966	-0.0561698	0.295138	2.0588	-0.473447	0.334902	1.92612	-0.0177051	0.29145	2.21141	-1.3808	0.365422	2.11814	-0.627915	0.387778	2.07585	-0.31824	0.350154	1.88706	-0.0301109	0.238905
34	2.69958	2.11708	-1.35203	0.169627	2.53922	-0.208153	0.0293471	2.20243	-0.434156	0.0118427	2.52715	-0.0427905	0.0334301	2.18399	-1.384	-0.032191	2.19413	-0.631588	-0.0325101	2.3133	-0.373677	-0.0144614	2.50604	-0.00818902	0.087111	2.07952	-0.0561513	0.295171	2.05074	-0.473133	0.335659	1.92556	-0.0170555	0.291745	2.19616	-1.38139	0.367019	2.10742	-0.628645	0.388911	2.07034	-0.31828	0.35087	1.8866	-0.0292166	0.238564
35	2.70957	2.10333	-1.3528	0.17026	2.51416	-0.214908	0.0322923	2.1757	-0.435012	0.015006	2.50018	-0.0496892	0.0317887	2.17236	-1.38504	-0.0312021	2.17437	-0.632267	-0.0307468	2.28437	-0.374147	-0.0119192	2.47843	-0.0135563	0.0853154	2.07937	-0.0561287	0.295179	2.04316	-0.472562	0.336216	1.92514	-0.0165837	0.291864	2.18111	-1.3821	0.368516	2.09674	-0.629402	0.389843	2.06539	-0.318091	0.351309	1.88621	-0.0284467	0.237972
36	2.71955	2.08964	-1.35367	0.170588	2.48704	-0.219793	0.0353201	2.14802	-0.437469	0.0169494	2.47073	-0.0552537	0.0307927	2.1603	-1.38614	-0.0303993	2.15512	-0.633564	-0.0289008	2.25656	-0.374848	-0.00868556	2.44851	-0.0177093	0.0841333	2.07916	-0.0560869	0.29517	2.03622	-0.471816	0.336646	1.92486	-0.0162402	0.291949	2.166	-1.38296	0.369745	2.08631	-0.630009	0.390611	2.06099	-0.317518	0.351103	1.8859	-0.0277114	0.237425
37	2.72954	2.07606	-1.35468	0.170787	2.45883	-0.222753	0.038418	2.12093	-0.440789	0.0191183	2.43898	-0.0594715	0.030725	2.14803	-1.38737	-0.029679	2.13653	-0.635187	-0.0267892	2.22776	-0.3777	-0.00577064	2.41593	-0.0211177	0.0828358	2.07895	-0.0560437	0.294949	2.02997	-0.470987	0.337087	1.92469	-0.0159697	0.292041	2.15079	-1.38397	0.370625	2.07624	-0.630436	0.39119	2.05755	-0.317019	0.350778	1.88561	-0.0270226	0.237137
38	2.73953	2.06266	-1.35586	0.170935	nan	nan	nan	2.09446	-0.44456	0.0215679	2.40502	-0.0622285	0.0316326	2.13579	-1.38883	-0.0292009	2.11794	-0.637164	-0.0248951	2.1989	-0.380951	-0.00292671	2.38059	-0.0238582	0.0823117	2.07877	-0.0560309	0.294621	2.02414	-0.470147	0.337444	1.92455	-0.0157628	0.292099	2.1358	-1.38521	0.371358	2.06708	-0.63088	0.39199	2.05492	-0.316722	0.350552	1.88537	-0.0263995	0.236913
39	2.74952	2.04944	-1.35725	0.171153	2.4001	-0.223552	0.044148	2.06828	-0.44867	0.0238405	2.36891	-0.0634996	0.0337057	2.12363	-1.39059	-0.0288985	2.09924	-0.639416	-0.0231727	2.17069	-0.384041	-2.86281e-05	2.34353	-0.0256116	0.0838816	2.07858	-0.0559794	0.294267	2.01846	-0.469342	0.337681	1.92444	-0.015599	0.292142	2.12116	-1.38674	0.372021	2.05791	-0.631284	0.392583	2.05245	-0.316344	0.350305	1.88516	-0.0259443	0.236647
40	2.7595	2.03625	-1.35879	0.17133	2.36966	-0.221607	0.0466377	2.0424	-0.453154	0.0258774	2.33084	-0.0634613	0.0368534	2.11152	-1.39233	-0.02852	2.0803	-0.642007	-0.0218601	2.14331	-0.387164	0.0028879	2.30524	-0.0262528	0.0874243	2.0784	-0.0559552	0.294047	2.0132	-0.468629	0.338093	1.92439	-0.0154585	0.292247	2.10678	-1.38849	0.372587	2.04913	-0.631692	0.393186	2.04984	-0.315899	0.350308	1.885	-0.0256574	0.236507
41	2.76949	2.02311	-1.36043	0.171473	2.33854	-0.217846	0.0490123	2.01707	-0.457936	0.0277514	2.2912	-0.0623956	0.0407698	2.09947	-1.39401	-0.0280089	2.06142	-0.645145	-0.021042	2.11669	-0.390617	0.00560903	2.26572	-0.0260925	0.0922297	2.07818	-0.0559282	0.293949	2.00812	-0.467936	0.338602	1.92436	-0.0153176	0.292431	2.09253	-1.39037	0.373082	2.04089	-0.631915	0.393978	2.04685	-0.315459	0.350668	1.88483	-0.025425	0.236473
42	2.77948	2.01007	-1.36218	0.171711	2.30671	-0.212567	0.0511744	1.99268	-0.462772	0.0298936	2.25034	-0.0603911	0.0450626	2.08741	-1.39565	-0.0274525	2.04341	-0.648841	-0.0201474	2.09073	-0.394274	0.00808077	2.22405	-0.0258102	0.0970962	2.07794	-0.0559142	0.293918	2.00313	-0.467266	0.3392	1.92431	-0.0151815	0.292663	2.07848	-1.39235	0.373566	2.03257	-0.632109	0.394667	2.04351	-0.315135	0.35134	1.88466	-0.0252124	0.236491
43	2.78946	1.99701	-1.36391	0.171871	2.27409	-0.206245	0.0530218	1.96921	-0.467648	0.0322145	2.20873	-0.057616	0.0497405	2.07524	-1.39725	-0.0269453	2.02453	-0.652292	-0.0186399	2.06553	-0.39751	0.0107931	2.18081	-0.0255077	0.101955	2.07772	-0.0559529	0.293921	1.99827	-0.466608	0.339773	1.92426	-0.0150553	0.292925	2.06458	-1.39435	0.373971	2.02405	-0.632389	0.395222	2.04002	-0.314806	0.35207	1.88449	-0.0250401	0.23654
44	2.79945	1.98386	-1.36551	0.171886	2.24077	-0.19876	0.0551451	1.94645	-0.472578	0.0342782	2.16671	-0.0542575	0.054666	2.06286	-1.39872	-0.0265341	2.00042	-0.650718	-0.0180764	2.04091	-0.400029	0.0134845	2.13653	-0.0250993	0.10659	2.07749	-0.0560304	0.293843	1.99376	-0.466005	0.340386	1.92425	-0.0149495	0.29317	2.0508	-1.39629	0.374332	2.01596	-0.632715	0.395888	2.03662	-0.314326	0.352473	1.88433	-0.0249013	0.236607
45	2.80944	1.97076	-1.36701	0.172027	2.20676	-0.190274	0.0575301	1.92438	-0.47746	0.0361274	2.12425	-0.0509275	0.0590924	2.05035	-1.4	-0.0261975	1.96792	-0.642081	-0.0191601	2.01665	-0.401703	0.0157853	2.0912	-0.0247272	0.11042	2.07718	-0.0561484	0.293616	1.98968	-0.465409	0.341061	1.92428	-0.0148671	0.293468	2.03708	-1.39815	0.374696	2.00886	-0.632874	0.396824	2.03393	-0.314134	0.352838	1.88419	-0.0247981	0.236732
46	2.81943	1.95772	-1.36835	0.172321	2.17205	-0.181055	0.060089	1.903	-0.482081	0.0378986	2.08087	-0.0479117	0.0622093	2.03775	-1.40108	-0.0258745	1.94406	-0.641187	-0.0193995	1.99268	-0.402395	0.0177737	2.04565	-0.0239825	0.113238	2.07686	-0.0562232	0.293293	1.98585	-0.464863	0.341679	1.92427	-0.0147888	0.293749	2.02343	-1.39987	0.375023	2.00159	-0.632907	0.397615	2.03196	-0.314146	0.353161	1.88397	-0.0246056	0.236806
47	2.82941	1.94448	-1.36939	0.172396	2.13665	-0.171349	0.0627654	1.8822	-0.486237	0.0394317	2.03649	-0.0453434	0.0641055	2.02519	-1.40191	-0.0254178	1.93117	-0.649777	-0.0185292	1.96896	-0.402004	0.0194458	2.00024	-0.0230348	0.115045	2.07654	-0.0562749	0.292886	1.98203	-0.464333	0.342192	1.92418	-0.0146938	0.293954	2.00975	-1.40139	0.375243	1.99404	-0.632963	0.398248	2.03021	-0.313886	0.35314	1.88364	-0.0242802	0.23691
48	2.8394	1.93103	-1.37023	0.172404	2.10058	-0.161333	0.0654513	1.86201	-0.489804	0.0408037	1.99235	-0.0428421	0.0653729	2.01254	-1.40248	-0.0250361	1.92682	-0.665048	-0.0172462	1.94537	-0.400551	0.0208208	1.95493	-0.0220593	0.115868	2.07623	-0.0564239	0.292504	1.978	-0.463788	0.342563	1.92403	-0.0146024	0.294023	1.99607	-1.40263	0.375387	1.98633	-0.633014	0.398656	2.02828	-0.313585	0.352902	1.88328	-0.0238395	0.237045
49	2.84939	1.91761	-1.37083	0.172268	2.06381	-0.151047	0.068098	1.84244	-0.492814	0.041973	1.94846	-0.0406215	0.0661192	1.99979	-1.40268	-0.0247817	1.91413	-0.672791	-0.0169663	1.92183	-0.398178	0.0219076	1.90913	-0.0214004	0.115865	2.07589	-0.0567523	0.292137	1.97381	-0.463274	0.342868	1.92386	-0.014539	0.294045	1.98244	-1.40357	0.375542	1.97844	-0.633003	0.398875	2.02616	-0.313469	0.35276	1.88285	-0.0233347	0.23712
50	2.85938	1.90427	-1.37109	0.172189	2.02645	-0.140802	0.0708589	1.82357	-0.49537	0.0427123	1.90435	-0.0390925	0.0663088	1.98694	-1.40252	-0.0246332	1.89635	-0.675286	-0.0170432	1.89839	-0.395138	0.0228532	1.86289	-0.0214771	0.115004	2.07546	-0.0571882	0.291794	1.96932	-0.462726	0.34304	1.92385	-0.0145995	0.294291	1.9688	-1.40423	0.375688	1.97036	-0.63288	0.398984	2.02362	-0.313433	0.35272	1.88239	-0.0228383	0.23709
51	2.86936	1.89095	-1.37098	0.172213	1.98845	-0.130772	0.0733601	1.80556	-0.497409	0.0433359	1.86014	-0.03806	0.0660609	1.97406	-1.40213	-0.0245687	1.87883	-0.676843	-0.0168232	1.87516	-0.391741	0.0238379	1.81657	-0.0223622	0.11359	2.07498	-0.0576578	0.291567	1.9646	-0.46212	0.34316	1.92405	-0.0148303	0.294774	1.95515	-1.40455	0.375742	1.962	-0.632575	0.398979	2.02062	-0.3133	0.352664	1.88196	-0.0224834	0.23701
52	2.87935	1.87751	-1.37056	0.172223	1.94983	-0.121157	0.0754388	1.78847	-0.498843	0.043909	1.81602	-0.0375509	0.0653372	1.96125	-1.40154	-0.0243969	1.86239	-0.678455	-0.0165275	1.85235	-0.388264	0.0248196	1.77054	-0.0238971	0.111936	2.07448	-0.058059	0.291291	1.95964	-0.461386	0.343211	1.92406	-0.0147968	0.294976	1.94151	-1.40452	0.375744	1.95353	-0.632102	0.399002	2.01724	-0.31298	0.352417	1.88159	-0.022121	0.237029
53	2.88934	1.86397	-1.36986	0.172213	1.9106	-0.112053	0.0772925	1.77218	-0.499708	0.0442594	1.7722	-0.0375585	0.0644505	1.94818	-1.40046	-0.024412	1.84666	-0.679659	-0.0163176	1.83007	-0.384757	0.025907	1.72485	-0.0260788	0.110219	2.07393	-0.0583667	0.290797	1.95444	-0.460525	0.343157	1.92382	-0.0144898	0.294883	1.92793	-1.40419	0.37577	1.94488	-0.631418	0.398977	2.0137	-0.312619	0.352055	1.88103	-0.0216808	0.237049
54	2.89932	1.85033	-1.36878	0.172044	1.87096	-0.103558	0.0788699	1.7565	-0.499909	0.0442619	1.72873	-0.0381616	0.0635591	1.93491	-1.39905	-0.0245429	1.83155	-0.680087	-0.0161615	1.80836	-0.381257	0.0269278	1.67957	-0.0291299	0.108561	2.0733	-0.0587546	0.290242	1.94903	-0.459589	0.34298	1.92371	-0.0143173	0.294861	1.91426	-1.40351	0.375759	1.93612	-0.630535	0.398868	2.01015	-0.312328	0.351661	1.88032	-0.0211511	0.237062
55	2.90931	1.83656	-1.36743	0.171769	1.8312	-0.0960414	0.0797809	1.74124	-0.499357	0.0441026	1.68566	-0.0396708	0.0627355	1.92148	-1.39738	-0.0247619	1.81719	-0.679664	-0.0160184	1.78732	-0.37775	0.0276546	1.63518	-0.0330716	0.107186	2.07271	-0.059329	0.289731	1.94326	-0.458545	0.342637	1.92372	-0.0143048	0.294898	1.90042	-1.40248	0.375612	1.92735	-0.629552	0.398745	2.00653	-0.312055	0.351215	1.87964	-0.0205018	0.237083
56	2.9193	1.82275	-1.3658	0.17153	1.7915	-0.0896665	0.0802066	1.7262	-0.498167	0.0437354	1.64303	-0.042308	0.0621107	1.90787	-1.39551	-0.0250392	1.80357	-0.678415	-0.0159082	1.76691	-0.374176	0.0279481	1.59174	-0.0381257	0.106299	2.0722	-0.0599627	0.289131	1.93751	-0.457507	0.342414	1.92376	-0.0143779	0.294973	1.88659	-1.40118	0.375437	1.91847	-0.62846	0.398554	2.00294	-0.311895	0.350852	1.87913	-0.0200068	0.237301
57	2.92929	1.80882	-1.36393	0.171276	1.75203	-0.0845071	0.0802515	1.71143	-0.496497	0.0431649	1.60104	-0.0461867	0.0617553	1.89409	-1.39348	-0.0253992	1.79061	-0.676347	-0.0159128	1.74697	-0.370353	0.0278226	1.54925	-0.044436	0.105887	2.07173	-0.0605418	0.288419	1.93195	-0.456472	0.342406	1.92384	-0.0144435	0.295085	1.87273	-1.39963	0.375193	1.90967	-0.627316	0.39849	1.99919	-0.31175	0.350444	1.87867	-0.0195473	0.237535
58	2.93927	1.7948	-1.36181	0.170928	1.71297	-0.0805757	0.0800813	1.69704	-0.49442	0.0425201	1.56001	-0.051423	0.0615233	1.88015	-1.39128	-0.0258586	1.77827	-0.673559	-0.0159978	1.7272	-0.36624	0.027365	1.50794	-0.0521475	0.105926	2.07133	-0.0612467	0.287556	1.92632	-0.455411	0.342483	1.924	-0.0144154	0.295024	1.85883	-1.39792	0.374932	1.90087	-0.62616	0.398507	1.99531	-0.311655	0.350082	1.87806	-0.019032	0.237779
59	2.94926	1.78071	-1.35951	0.170599	1.67449	-0.0779481	0.0795968	1.68296	-0.491899	0.041899	1.52012	-0.0578318	0.0616634	1.86613	-1.38895	-0.0263199	1.76636	-0.670255	-0.0163109	1.70725	-0.362029	0.0266016	1.46813	-0.0611417	0.106453	2.07097	-0.0624157	0.286813	1.92007	-0.4544	0.342413	1.92419	-0.0143693	0.294965	1.84485	-1.39606	0.374628	1.89193	-0.624987	0.398455	1.9914	-0.31164	0.349786	1.87742	-0.0183611	0.238163
60	2.95925	1.76662	-1.35707	0.170258	1.63696	-0.0763422	0.0790938	1.66915	-0.489109	0.0411284	1.48155	-0.0652023	0.0621975	1.85208	-1.38651	-0.0267176	1.7547	-0.666632	-0.0169413	1.68678	-0.358088	0.025422	1.4299	-0.0711809	0.107464	2.0705	-0.0639545	0.286285	1.91368	-0.4535	0.342337	1.92449	-0.0144029	0.295036	1.83081	-1.39405	0.374259	1.88287	-0.623815	0.398469	1.98741	-0.311654	0.34941	1.87695	-0.0177484	0.238534
61	2.96924	1.75248	-1.35466	0.169793	1.60062	-0.0755324	0.0787139	1.65547	-0.486322	0.0400809	1.4445	-0.0733525	0.0631622	1.83784	-1.38403	-0.0272924	1.74312	-0.662876	-0.0177699	1.66571	-0.354685	0.0239878	1.39358	-0.0818311	0.109227	2.06989	-0.0655186	0.285861	1.90717	-0.452699	0.342256	1.9249	-0.0145946	0.295263	1.81662	-1.39199	0.373714	1.87383	-0.622725	0.398634	1.98312	-0.311841	0.349024	1.87669	-0.0174004	0.238883
62	2.97922	1.73829	-1.35208	0.169451	1.56541	-0.0758876	0.0776807	1.64182	-0.483542	0.038923	1.40916	-0.0821889	0.0645808	1.82342	-1.3816	-0.0280881	1.73142	-0.659186	-0.0188541	1.6441	-0.352025	0.0224241	1.35953	-0.0928006	0.112026	2.06924	-0.0668797	0.285689	1.90044	-0.452027	0.342218	1.92511	-0.0146423	0.295357	1.80235	-1.38991	0.373039	1.86469	-0.621681	0.398828	1.9786	-0.312324	0.348811	1.87652	-0.017177	0.239143
