Coordinates
version=1
nRows=208
nColumns=38
inDegrees=no

Units are S.I. units (second, meters, Newtons, ...)
If the header above contains a line with 'inDegrees', this indicates whether rotational values are in degrees (yes) or radians (no).

endheader
time	pelvis_tilt_moment	pelvis_list_moment	pelvis_rotation_moment	pelvis_tx_force	pelvis_ty_force	pelvis_tz_force	hip_flexion_r_moment	hip_adduction_r_moment	hip_rotation_r_moment	knee_angle_r_moment	ankle_angle_r_moment	subtalar_angle_r_moment	mtp_angle_r_moment	hip_flexion_l_moment	hip_adduction_l_moment	hip_rotation_l_moment	knee_angle_l_moment	ankle_angle_l_moment	subtalar_angle_l_moment	mtp_angle_l_moment	lumbar_extension_moment	lumbar_bending_moment	lumbar_rotation_moment	arm_flex_r_moment	arm_add_r_moment	arm_rot_r_moment	elbow_flex_r_moment	pro_sup_r_moment	wrist_flex_r_moment	wrist_dev_r_moment	arm_flex_l_moment	arm_add_l_moment	arm_rot_l_moment	elbow_flex_l_moment	pro_sup_l_moment	wrist_flex_l_moment	wrist_dev_l_moment
3.66	0	0	0	0	0	0	0	0	0	0	0	0	0	0	0	0	0	0	0	0	0	0	0	0	0	0	0	0	0	0	0	0	0	0	0	0	0
3.66999	24.5323	-30.7794	-11.7869	3.56987	473.982	14.9719	-6.22005	27.3191	-0.520188	4.79158	-1.45213	0.924834	0.018361	0.113775	7.36296	-2.84244	-6.76451	0.294193	0.122546	-0.0102247	-28.5785	8.26996	1.43064	-1.48722	-1.40488	-0.319908	-1.9209	-0.0276489	-0.201663	0.0763571	-1.01403	-0.996331	-0.344363	-1.71252	-0.0197922	-0.191707	0.0566698
3.67997	28.8047	-32.8859	-14.0277	4.27783	483.046	23.6677	-5.42488	29.5645	-0.610782	4.73347	-1.534	1.02183	0.0190693	-0.54604	6.49512	-2.83073	-8.88886	0.295141	0.0959394	-0.00939762	-30.3834	8.68569	0.498681	-1.38983	-1.44567	-0.386223	-1.88689	-0.030644	-0.204765	0.0657575	-0.724603	-0.902216	-0.290337	-1.656	-0.0173767	-0.184156	0.0617398
3.68996	33.5214	-35.8239	-15.2441	-0.125389	492.237	35.8748	-5.54361	31.7399	-0.68708	4.85147	-1.62745	1.11088	0.0199183	-1.56359	5.1737	-2.77168	-11.0677	0.27501	0.0680532	-0.00818713	-30.2993	8.21555	1.05913	-1.13395	-1.17409	-0.297359	-1.79649	-0.0276586	-0.191365	0.0693386	-0.44549	-1.09261	-0.38882	-1.54129	-0.0197313	-0.179568	0.0451128
3.69994	37.3853	-39.1555	-15.3656	-11.2441	499.959	50.073	-6.99519	33.1125	-0.731095	5.11144	-1.71355	1.16004	0.0208264	-2.75454	3.24238	-2.56552	-12.901	0.236407	0.0338409	-0.00671027	-27.4001	6.76368	3.08941	-0.702929	-0.602768	-0.0563321	-1.62594	-0.0181831	-0.158111	0.0851392	-0.175563	-1.53249	-0.629696	-1.35026	-0.026327	-0.174501	0.00584462
3.70993	38.9165	-41.6242	-14.2429	-28.7512	505.647	64.1882	-9.99234	32.8328	-0.704746	5.43169	-1.77294	1.13663	0.0217637	-3.67685	0.922262	-2.24191	-14.1937	0.201615	-0.00755302	-0.00551944	-21.4507	4.33929	6.08849	-0.120295	0.17616	0.290009	-1.36844	-0.00343109	-0.106643	0.107093	0.0999518	-2.11693	-0.961517	-1.08277	-0.0353783	-0.164912	-0.0507652
3.71992	39.3556	-40.5862	-12.4519	-35.9691	519.516	74.5985	-13.1352	30.1335	-0.598234	5.37608	-1.79036	1.02996	0.0230001	-2.94527	-0.63798	-1.92682	-15.2772	0.223448	-0.055686	-0.00548943	-19.1936	1.84199	8.10673	0.183524	0.675067	0.521418	-1.28223	0.00590114	-0.0820172	0.127445	0.127973	-2.5514	-1.18939	-1.00782	-0.0429006	-0.169856	-0.0829051
3.7299	40.2468	-35.4579	-9.74446	-33.4054	540.936	78.6833	-15.4479	25.6701	-0.424138	4.9204	-1.7737	0.874556	0.02446	-2.20223	-1.07282	-1.75048	-16.0031	0.229728	-0.083955	-0.00538559	-21.2258	-0.356707	8.57167	0.159534	0.798895	0.584714	-1.37721	0.00759891	-0.0890437	0.140465	-0.0373917	-2.74372	-1.26234	-1.12563	-0.0469661	-0.186513	-0.0840076
3.73989	40.4333	-28.3181	-6.73613	-32.11	562.382	77.5391	-17.4141	20.5778	-0.207309	4.45744	-1.75015	0.703432	0.0261134	-2.50296	-0.909684	-1.65744	-16.0614	0.194692	-0.090547	-0.00494311	-23.0164	-2.00073	8.22406	0.0532446	0.7753	0.57224	-1.47837	0.00667924	-0.100402	0.144232	-0.14335	-2.79365	-1.26011	-1.23754	-0.0479055	-0.196826	-0.0770184
3.74988	45.387	-18.4262	-3.22838	-19.4354	592.27	71.1622	-18.3686	15.4392	0.049443	3.87576	-1.71786	0.547411	0.0276449	-3.73555	0.150172	-1.60552	-15.7163	0.11661	-0.0774911	-0.00386739	-31.3425	-3.18631	6.19069	-0.466509	0.312501	0.366301	-1.83232	-0.00403903	-0.154583	0.143137	-0.50331	-2.59169	-1.08771	-1.60912	-0.0456393	-0.226976	-0.0316199
3.75986	48.945	-10.7619	-0.650728	-17.5528	610.871	65.3927	-19.7191	11.073	0.286409	3.60384	-1.68798	0.40804	0.0287486	-6.09668	0.225454	-1.27247	-14.3018	0.0494926	-0.0842433	-0.00348898	-35.1627	-3.92531	4.62727	-0.763791	0.0170213	0.224045	-2.01402	-0.0106689	-0.183354	0.136989	-0.603168	-2.42871	-0.96566	-1.78557	-0.0426972	-0.23744	-0.00575855
3.76985	53.0566	-4.51405	1.25834	-17.6605	624.163	60.4948	-20.784	7.50522	0.497988	3.50613	-1.6639	0.297766	0.0295933	-9.19304	-0.343961	-0.628122	-12.187	-0.000903183	-0.114847	-0.00353965	-38.3952	-4.46388	2.92269	-1.03764	-0.295877	0.0692366	-2.16857	-0.017503	-0.209671	0.127476	-0.640244	-2.22489	-0.82913	-1.92882	-0.0388306	-0.243301	0.0195513
3.77983	55.4205	-1.54813	2.02348	-25.6049	625.738	59.0504	-21.8243	4.81293	0.649755	3.55757	-1.63978	0.210253	0.0300247	-12.6961	-2.42749	0.466234	-9.34575	0.00675761	-0.195114	-0.00467213	-37.8448	-4.86593	1.72797	-1.08688	-0.449337	-0.0227601	-2.16681	-0.0202908	-0.213284	0.114548	-0.485985	-2.05615	-0.739716	-1.91058	-0.0349208	-0.233359	0.0278135
3.78982	60.4757	0.704656	2.64411	-28.0385	629.145	56.953	-21.7885	2.68366	0.762982	3.54343	-1.60288	0.152787	0.0299227	-17.1428	-4.93578	1.7976	-6.122	0.0149802	-0.291913	-0.00572334	-40.2523	-5.02273	-0.0572506	-1.30103	-0.793697	-0.194752	-2.27523	-0.0273045	-0.235502	0.100379	-0.445624	-1.77871	-0.5819	-2.00439	-0.0298653	-0.232796	0.0520628
3.79981	65.135	0.908454	2.97012	-33.4322	626.161	55.9023	-21.2307	1.04104	0.839251	3.5013	-1.54507	0.111502	0.0290867	-22.2702	-8.27756	3.27391	-2.42902	0.0572039	-0.407892	-0.00753318	-41.2468	-4.89348	-1.53702	-1.43295	-1.0813	-0.340207	-2.32662	-0.0328009	-0.249252	0.08566	-0.346089	-1.51321	-0.44468	-2.03745	-0.0248955	-0.22682	0.0695585
3.80979	69.0304	-0.473013	3.43082	-36.8363	621.521	55.7353	-19.3407	-0.187261	0.845828	3.16526	-1.47877	0.0894801	0.0281653	-27.7653	-11.8684	4.69584	1.39736	0.114675	-0.519005	-0.00976134	-42.2624	-4.7427	-2.72464	-1.55315	-1.36619	-0.473448	-2.38207	-0.0378566	-0.262775	0.0733597	-0.296704	-1.25211	-0.317856	-2.0808	-0.0205718	-0.223076	0.0861019
3.81978	70.5613	-3.58376	4.06776	-42.0018	610.919	57.3787	-16.506	-1.06706	0.776241	2.54274	-1.40246	0.0750654	0.0271777	-33.2741	-15.6435	5.90826	5.26391	0.187916	-0.61308	-0.0124516	-41.2275	-4.63489	-3.22709	-1.53816	-1.52815	-0.544477	-2.35704	-0.039637	-0.262942	0.0635336	-0.227025	-1.04595	-0.239543	-2.05374	-0.0174796	-0.214423	0.0914683
3.82977	68.8021	-7.8326	5.08329	-50.3571	595.155	60.9599	-13.0311	-1.72301	0.632989	1.60608	-1.32783	0.060621	0.0264581	-38.4386	-19.2034	6.72309	8.98173	0.254786	-0.670088	-0.0151106	-37.2738	-4.74864	-2.84302	-1.32635	-1.51111	-0.529058	-2.21697	-0.0366965	-0.244145	0.056717	-0.126951	-0.922978	-0.228721	-1.93073	-0.0161597	-0.198756	0.0813447
3.83975	70.7651	-8.20145	8.21297	-44.9223	593.319	57.9144	-7.76107	-2.6451	0.482198	0.265254	-1.24921	0.0516996	0.0262399	-45.7321	-20.1758	6.96421	13.4804	-1.24301	-0.489073	-0.0159936	-38.3636	-5.10183	-3.018	-1.42766	-1.77111	-0.612447	-2.28626	-0.0397144	-0.25693	0.0540285	-0.337016	-0.676803	-0.131334	-2.02825	-0.0143568	-0.204223	0.0965878
3.84974	71.0343	-5.6552	11.8169	-36.1529	590.385	47.3876	-1.91779	-3.92095	0.368254	-1.24923	-1.16258	0.0337428	0.0261935	-51.9069	-18.4489	6.4466	17.1642	-1.88231	-0.295976	-0.0155648	-40.0497	-5.0585	-3.46274	-1.59603	-2.14411	-0.739868	-2.37324	-0.0445244	-0.274811	0.048267	-0.595476	-0.318236	0.0172451	-2.14483	-0.0110796	-0.209361	0.118982
3.85972	69.585	-3.11275	15.1934	-31.4046	583.557	35.9514	3.37154	-4.74417	0.231912	-2.72571	-1.09879	0.0199598	0.0265192	-57.635	-15.7916	5.58856	20.7096	-2.53397	-0.065572	-0.0139583	-39.0956	-4.79464	-3.41079	-1.59149	-2.40373	-0.817243	-2.34061	-0.0459976	-0.275732	0.0409585	-0.775128	0.0292875	0.134824	-2.15374	-0.00811003	-0.204199	0.129754
3.86971	68.8378	1.64534	18.8975	-22.6873	580.232	18.475	8.64091	-5.67836	0.139841	-4.16645	-1.05118	0.00741847	0.0273406	-63.1826	-11.4073	4.4792	24.0531	-3.18407	0.208246	-0.0103889	-39.3317	-4.4144	-3.71823	-1.66624	-2.79303	-0.946912	-2.3432	-0.0497122	-0.284553	0.0308381	-1.01892	0.489452	0.308123	-2.20351	-0.00381751	-0.2009	0.149768
3.8797	67.7652	5.88331	22.3374	-15.5242	573.241	-0.259095	13.0396	-6.3717	0.0808935	-5.40718	-1.02266	-0.000150568	0.0283521	-67.9497	-7.09347	3.38862	27.0663	-3.72916	0.452744	-0.00502152	-38.3384	-3.96042	-3.83804	-1.64745	-3.13786	-1.058	-2.27601	-0.051865	-0.284692	0.0189591	-1.23052	0.968534	0.476723	-2.1961	0.00053399	-0.191727	0.165136
3.88968	66.4245	9.13098	25.3497	-10.5843	562.042	-19.3458	16.2767	-6.92941	0.0641787	-6.36979	-1.01665	-0.00438972	0.0295877	-71.7699	-3.48846	2.40808	29.6281	-4.10649	0.631656	0.00210058	-35.9586	-3.36234	-3.82366	-1.51278	-3.4193	-1.14827	-2.12722	-0.0522907	-0.274633	0.00441507	-1.36808	1.45098	0.635161	-2.11683	0.00498373	-0.175163	0.174458
3.89967	66.8897	12.6226	28.2633	-1.02346	552.825	-42.6682	19.0248	-7.32342	0.103902	-7.04483	-1.02189	0.00683153	0.0308448	-74.9451	0.271216	1.50415	31.72	-4.29693	0.75988	0.010756	-35.6679	-2.61856	-4.3505	-1.5006	-3.84411	-1.30239	-2.04439	-0.0560317	-0.27686	-0.0128123	-1.54118	2.02395	0.849435	-2.09458	0.0108705	-0.162485	0.194968
3.90966	67.2511	14.4394	30.5404	6.49981	538.961	-65.3135	20.6826	-7.56507	0.191818	-7.41717	-1.04023	0.0251855	0.0320591	-76.9303	2.70612	0.771401	33.1309	-4.24494	0.79328	0.0202453	-34.6378	-1.61883	-4.92743	-1.41141	-4.22158	-1.44761	-1.90588	-0.0589777	-0.272497	-0.032981	-1.61121	2.58771	1.05595	-2.01313	0.0170903	-0.143679	0.211114
3.91964	65.4168	16.4889	31.9475	12.3739	519.846	-86.8959	21.7841	-7.91658	0.29949	-7.69173	-1.06711	0.0402868	0.0334844	-76.9955	4.92274	0.112928	33.5372	-3.96169	0.773881	0.0296365	-32.5484	-0.831315	-5.60891	-1.24396	-4.52327	-1.57555	-1.71133	-0.0606242	-0.260913	-0.0555655	-1.58811	3.11153	1.24665	-1.87914	0.0232568	-0.119292	0.222351
3.92963	59.4802	16.6381	31.7943	13.7635	491.297	-102.429	22.1772	-7.99066	0.343875	-7.9427	-1.12366	0.0587326	0.0355109	-74.3327	5.82566	-0.395731	32.6076	-3.47177	0.695183	0.0383073	-27.671	-0.287876	-5.70506	-0.854159	-4.58891	-1.61377	-1.39402	-0.0574528	-0.229781	-0.076519	-1.44835	3.47952	1.35372	-1.63995	0.0273188	-0.0871886	0.216724
3.93961	49.6048	15.8871	30.0508	11.5773	454.709	-111.696	22.033	-7.65408	0.284544	-8.13053	-1.215	0.0864103	0.0382996	-68.7849	6.16857	-0.773253	30.3067	-2.86006	0.614641	0.0454712	-20.9972	-0.308053	-5.36758	-0.350535	-4.47156	-1.58009	-1.01701	-0.050777	-0.187413	-0.0937809	-1.28817	3.69398	1.39166	-1.35935	0.029209	-0.0535562	0.200353
3.9496	36.3933	13.6098	26.724	3.53279	408.426	-112.779	21.0639	-6.63369	0.076602	-8.20741	-1.35085	0.131139	0.0418647	-60.67	5.63546	-1.00998	26.8484	-2.22293	0.561805	0.0505206	-12.2548	-0.852291	-4.48228	0.282768	-4.14601	-1.46309	-0.572156	-0.0400829	-0.132163	-0.106557	-1.11297	3.73508	1.35013	-1.03201	0.0285947	-0.0183841	0.17163
3.95959	20.8396	11.299	22.0462	-0.842314	360.112	-111.784	20.5766	-5.23303	-0.255612	-8.31596	-1.5004	0.191516	0.0458706	-49.8289	5.42898	-1.17763	22.4277	-1.68906	0.602619	0.0532231	-5.51978	-1.96456	-3.8694	0.722106	-3.91063	-1.37754	-0.246552	-0.0319313	-0.0924607	-0.115407	-1.08584	3.76076	1.3273	-0.818843	0.0277354	0.0051908	0.153309
3.96957	4.18213	8.69487	15.92	-9.00946	307.894	-108.363	19.7276	-3.19319	-0.734257	-8.21663	-1.66267	0.273126	0.049863	-37.4521	5.29029	-1.30313	17.6532	-1.35182	0.755592	0.0530126	0.406661	-2.91888	-3.7379	1.00976	-3.75939	-1.33123	0.0162784	-0.0259511	-0.0617945	-0.12558	-1.10701	3.81637	1.33831	-0.654936	0.0280238	0.0259699	0.142682
3.97956	-4.92817	3.19125	11.0732	18.4198	284.373	-121.152	23.2154	-0.0629979	-1.43351	-8.46726	-1.71959	0.403251	0.0518872	-23.7644	6.93269	-1.46682	12.8717	-1.32452	1.07824	0.0500794	-11.6081	-4.21018	-4.83696	-0.0363702	-4.5289	-1.57515	-0.562485	-0.0423071	-0.145445	-0.110787	-2.00155	4.15224	1.56686	-1.20642	0.0306194	-0.0278099	0.208528
3.98955	-13.1354	-6.23745	4.88861	25.4653	250.197	-123.628	24.8977	4.5083	-2.29767	-8.34602	-1.78106	0.57719	0.0524118	-11.7267	5.74147	-1.44667	9.27486	-1.59592	1.45048	0.0437386	-19.8634	-3.89134	-6.15307	-0.892889	-5.13296	-1.78219	-0.972425	-0.0554383	-0.206083	-0.105412	-2.58277	4.45971	1.77056	-1.56663	0.0348728	-0.0595632	0.258754
3.99953	-22.028	-15.9977	-1.56291	15.8287	206.055	-117.183	25.9676	9.2362	-3.19528	-8.26888	-1.83632	0.757391	0.0520663	-1.53815	3.2964	-1.30267	7.21883	-2.19394	1.89038	0.0339203	-23.7784	-2.93753	-7.29729	-1.50577	-5.47563	-1.90814	-1.20973	-0.063403	-0.240807	-0.104503	-2.9138	4.63571	1.90437	-1.75488	0.0386824	-0.0736849	0.289111
4.00952	-31.1126	-23.7236	-8.25528	-0.102254	163.012	-108.806	28.5276	13.9057	-4.24367	-8.62311	-1.83727	0.935251	0.0503873	5.92419	1.83852	-1.11642	7.17249	-3.15964	2.42813	0.0214079	-26.6441	-1.20252	-8.73233	-2.11921	-5.76186	-2.02796	-1.42784	-0.0710395	-0.271422	-0.106561	-3.1098	4.76181	2.02444	-1.89543	0.0433	-0.0815885	0.31499
4.0195	-41.269	-28.5564	-13.6973	-27.3848	116.35	-93.1245	31.524	17.7174	-5.22006	-9.39184	-1.80126	1.08585	0.0476342	10.729	1.04685	-1.05815	9.28585	-4.47343	2.99576	0.00826463	-25.0002	0.0824167	-9.38125	-2.43757	-5.68389	-2.01224	-1.48966	-0.0715014	-0.274741	-0.105372	-3.1452	4.623	2.01321	-1.90292	0.044638	-0.0797498	0.316019
4.02949	-49.1178	-26.3268	-17.6437	-50.1322	78.6544	-84.1113	36.4715	19.9171	-6.12682	-10.528	-1.59976	1.17878	0.0412844	12.7697	4.12837	-1.36759	13.3987	-6.13541	3.63952	-0.00366942	-25.6788	1.39923	-10.8801	-2.96085	-5.70408	-2.05406	-1.67368	-0.0760023	-0.294832	-0.105161	-3.12668	4.47944	2.03329	-1.98337	0.0474084	-0.0836515	0.327107
4.03948	-57.1121	-22.2765	-20.5743	-80.3791	37.1995	-68.365	40.2907	21.4417	-6.8586	-11.6202	-1.32913	1.23982	0.0323185	13.6439	7.9303	-2.01151	18.8355	-7.98855	4.20844	-0.0130741	-22.6736	2.28873	-11.455	-3.19337	-5.35569	-1.95558	-1.71426	-0.0737132	-0.289398	-0.099842	-2.94487	4.05598	1.91347	-1.93592	0.0465628	-0.0800464	0.313295
4.04946	-59.2075	-11.0609	-20.6044	-98.8067	9.33648	-62.884	45.1549	20.7086	-7.2913	-12.777	-0.834362	1.20761	0.0182392	12.23	15.7604	-3.17296	25.5478	-9.98761	4.75605	-0.0195321	-25.0812	2.71369	-12.9341	-3.79579	-5.2068	-1.94092	-1.99389	-0.0781755	-0.317024	-0.0894607	-2.8559	3.65252	1.84694	-2.07077	0.0466419	-0.0952344	0.320285
4.05945	-57.8055	-0.208324	-18.749	-122.162	-20.7132	-51.8918	47.7267	19.4282	-7.39393	-13.6053	-0.269584	1.125	0.00148815	9.24111	23.222	-4.57509	33.1369	-11.952	5.08321	-0.0227191	-25.6006	2.46874	-13.36	-4.18529	-4.76927	-1.80191	-2.18265	-0.0771559	-0.327243	-0.0704502	-2.73528	3.02353	1.6629	-2.1383	0.0428399	-0.110146	0.309148
4.06944	-52.8036	10.4503	-15.0779	-142.943	-48.8308	-39.5025	49.117	17.3899	-7.20266	-14.3683	0.383326	0.973639	-0.0174318	5.01754	30.4673	-6.14756	41.1542	-13.7702	5.11933	-0.0228255	-26.679	1.60888	-13.2194	-4.52504	-4.22952	-1.60938	-2.37353	-0.0743972	-0.335474	-0.0440503	-2.67275	2.2972	1.4291	-2.2219	0.0367017	-0.131055	0.293571
4.07942	-46.3275	20.4225	-10.6166	-159.888	-78.4893	-25.6019	49.4213	14.8971	-6.82509	-15.157	1.08911	0.760706	-0.037177	0.832284	37.0534	-7.7827	48.9035	-15.3024	4.76978	-0.0205778	-27.8339	0.215728	-12.8401	-4.7872	-3.64006	-1.39386	-2.53087	-0.0704129	-0.339788	-0.0159506	-2.62443	1.5606	1.18262	-2.29246	0.0296475	-0.152225	0.275761
4.08941	-40.774	24.9435	-6.71303	-179.746	-114.073	-3.44031	47.8637	13.3986	-6.49089	-15.9317	1.71759	0.538707	-0.054637	-2.55634	40.6455	-9.17219	55.9543	-16.415	3.90475	-0.0168276	-26.1684	-1.66252	-11.3245	-4.76288	-2.84298	-1.07925	-2.53481	-0.060588	-0.321186	0.0154979	-2.58595	0.74127	0.86238	-2.26348	0.0199499	-0.166973	0.24127
4.09939	-35.628	26.4291	-3.41537	-193.846	-149.909	19.8524	46.0959	12.224	-6.276	-17.0032	2.29345	0.307556	-0.0694787	-5.32862	42.316	-10.2642	62.1166	-17.0737	2.54813	-0.0123532	-24.5565	-3.62705	-9.74865	-4.64437	-2.08446	-0.779063	-2.49164	-0.0506151	-0.299137	0.0437872	-2.52995	0.0116484	0.566115	-2.20723	0.0107438	-0.178225	0.207286
4.10938	-31.1703	21.4872	-1.76724	-214.937	-191.473	52.543	42.0299	12.7704	-6.21723	-17.9516	2.64361	0.125881	-0.0781042	-7.72474	40.3769	-10.8496	67.4228	-17.2324	0.702377	-0.00783263	-19.0191	-5.9989	-7.11519	-4.15798	-1.11616	-0.3884	-2.2402	-0.0343901	-0.248055	0.0704169	-2.39226	-0.769323	0.202771	-1.99721	-0.000254357	-0.176031	0.153453
4.11937	-25.0638	14.5938	-1.0297	-224.607	-222.523	81.3286	38.7025	13.401	-6.36205	-19.2247	2.8656	-0.0176444	-0.0818902	-9.85546	36.9709	-11.0706	71.6299	-16.9289	-1.45185	-0.00341609	-16.9522	-8.01712	-5.21852	-3.84958	-0.413076	-0.103473	-2.09999	-0.0235244	-0.217306	0.0935064	-2.3193	-1.35071	-0.0619345	-1.88238	-0.00887044	-0.180485	0.117952
4.12935	-16.5423	6.58738	-1.08007	-226.192	-241.412	104.624	35.4769	14.0207	-6.58874	-20.5828	2.90378	-0.106092	-0.0798998	-12.1725	32.6209	-10.991	74.8293	-16.2024	-3.72867	0.000888254	-17.7643	-9.55437	-3.90553	-3.68167	0.0535011	0.0896703	-2.05165	-0.0171627	-0.203538	0.11339	-2.30724	-1.75018	-0.2405	-1.8486	-0.01544	-0.190431	0.0980353
4.13934	-9.01097	-4.47735	-2.90793	-228.985	-254.048	127.849	31.1928	15.4068	-6.88016	-21.6999	2.70188	-0.119572	-0.0717198	-13.7421	26.5803	-10.5799	76.8081	-15.0442	-5.96635	0.00459352	-17.0733	-10.7047	-2.19356	-3.37049	0.508695	0.28737	-1.92386	-0.00926552	-0.179975	0.129843	-2.28335	-2.08057	-0.415058	-1.75946	-0.0217532	-0.19385	0.0732563
4.14933	-3.38831	-17.1499	-6.11663	-231.851	-258.112	147.65	26.1579	17.2612	-7.14417	-22.6242	2.32196	-0.0773954	-0.0593664	-14.6476	19.9142	-9.99638	77.6415	-13.5227	-7.94148	0.00794847	-14.2138	-11.3313	0.0552545	-2.8096	0.958135	0.48922	-1.67786	0.000716911	-0.141702	0.140134	-2.16759	-2.33375	-0.594395	-1.57875	-0.0277489	-0.186881	0.0395049
4.15931	0.581941	-29.5637	-10.395	-227.14	-238.156	155.312	22.0063	18.9857	-7.53526	-23.6738	1.87774	0.00741354	-0.0457788	-14.8539	13.9429	-9.38784	77.2412	-11.7312	-9.453	0.0116382	-12.7086	-10.5908	2.1492	-2.25246	1.14219	0.597386	-1.48527	0.00712677	-0.113795	0.144197	-2.05474	-2.3808	-0.702145	-1.44577	-0.0316851	-0.181161	0.0150552
4.1693	2.39993	-40.0446	-15.1064	-222.981	-192.595	147.613	17.9473	20.1275	-7.78627	-24.9056	1.39741	0.100828	-0.0317716	-15.3906	9.62948	-8.91153	76.0502	-9.78503	-10.3493	0.0162266	-9.62817	-8.18633	4.42835	-1.46921	1.15139	0.63965	-1.22279	0.0126886	-0.079081	0.136297	-1.7754	-2.24193	-0.771018	-1.24512	-0.0334274	-0.16423	-0.0128763
4.17928	8.52827	-42.8466	-16.2254	-187.239	-88.996	109.374	18.0305	19.046	-8.11698	-26.8171	1.04721	0.188424	-0.0205086	-16.8449	9.74465	-8.88915	74.075	-7.83681	-10.5071	0.0229331	-18.8562	-5.02023	4.33894	-1.28185	0.273025	0.336997	-1.47086	0.000383895	-0.124563	0.123951	-1.76811	-1.60993	-0.570873	-1.51653	-0.0305474	-0.186243	0.0211671
4.18927	12.0515	-40.6613	-16.1798	-144.925	64.4118	34.6519	19.3946	15.4605	-8.01372	-29.5381	0.733599	0.230912	-0.00935801	-19.2301	13.5964	-9.27868	71.412	-5.95789	-9.98857	0.0323055	-28.7551	1.97649	4.09455	-0.837011	-1.06369	-0.141145	-1.73236	-0.0175117	-0.177471	0.092457	-1.47139	-0.589582	-0.262729	-1.77531	-0.0231475	-0.198992	0.0614142
4.19926	16.3046	-30.8771	-13.125	-84.2851	290.353	-87.7495	22.7244	8.28111	-7.23755	-33.3698	0.458695	0.202065	0.00254759	-22.9524	22.6182	-10.2765	68.0702	-4.27464	-8.86633	0.0455691	-45.0128	13.0575	2.74683	-0.391594	-3.20295	-0.927723	-2.24517	-0.0484398	-0.273772	0.0427177	-1.00428	0.985129	0.251601	-2.24159	-0.010056	-0.222399	0.133952
4.20924	22.5775	-13.0636	-6.33136	4.3677	603.677	-268.47	27.6076	-3.26508	-5.46437	-38.6192	0.178671	0.0744853	0.0169991	-27.0413	37.5835	-12.0217	63.77	-2.85616	-7.30961	0.0634258	-70.9223	29.0366	0.225569	0.0351076	-6.34264	-2.08839	-3.12052	-0.0959034	-0.430488	-0.0241466	-0.404084	3.22517	1.0123	-3.02647	0.00868198	-0.267856	0.249862
4.21923	27.3646	11.1302	3.07773	111.776	1013.94	-510.188	31.7055	-19.7678	-2.27336	-45.3458	-0.215723	-0.18293	0.0368892	-30.8436	57.4091	-14.4134	58.3128	-1.76878	-5.59034	0.0869585	-101.296	50.942	-2.22294	0.944186	-10.3083	-3.55166	-4.14018	-0.154126	-0.615085	-0.115031	0.611071	6.07149	1.93041	-3.93484	0.0320252	-0.316473	0.382219
4.22921	31.9525	41.6354	14.8282	245.769	1524.46	-827.612	34.6212	-42.1482	2.4502	-53.6009	-0.769184	-0.577547	0.06344	-33.6577	82.4989	-17.4706	51.5303	-1.05662	-3.97941	0.116245	-138.388	80.4955	-4.64672	2.34372	-15.3151	-5.39095	-5.36086	-0.226621	-0.839315	-0.232632	2.04592	9.70655	3.06677	-5.01355	0.0612645	-0.372279	0.54063
4.2392	37.8841	77.3693	28.2445	424.549	2150.82	-1210.26	36.4117	-70.1798	8.49781	-63.6266	-1.53762	-1.09552	0.0980138	-32.6772	112.151	-21.0408	42.5153	-0.745188	-2.7807	0.15139	-188.371	116.709	-7.71615	3.96067	-21.4246	-7.63398	-7.02603	-0.317668	-1.13576	-0.364285	3.74921	14.0208	4.42389	-6.49577	0.093851	-0.463199	0.743683
4.24919	0.641054	-1.4847	6.78739	-0.687653	-1.92525	2.17737	19.3041	0.863242	-4.80761	-18.3274	0.728086	0.0309225	-0.0106049	-12.6182	25.3089	-8.8628	54.2861	7.63549	-5.77254	0.0206276	-27.9138	-5.90066	0.782082	0.65585	-0.90928	-0.311264	-1.029	-0.015659	-0.126385	0.0284191	-0.0156785	-0.27391	-0.133671	-1.23032	-0.0185232	-0.133961	0.0477238
4.25917	0.36178	-1.69754	7.35468	2.74357	1.211	-0.0792666	16.4246	-1.48054	-3.38891	-15.8731	0.805877	-0.115041	-0.0121731	-11.8245	22.6443	-7.75247	51.7451	9.46428	-6.11246	0.0195207	-26.6762	-5.54698	1.43375	0.822049	-0.892594	-0.293291	-0.982863	-0.0137642	-0.118621	0.0277414	-0.0276096	-0.282831	-0.160297	-1.21506	-0.0195607	-0.132693	0.0412716
4.26916	0.516983	-2.24721	7.60374	0.664503	1.01499	-0.460975	12.8462	-3.68137	-1.84833	-13.27	0.913382	-0.276036	-0.0144889	-10.6986	19.6352	-6.60539	49.2643	11.2563	-6.33664	0.0183837	-25.2264	-5.30034	2.04751	0.90985	-0.88542	-0.274574	-0.953829	-0.0119268	-0.112624	0.0283144	-0.124149	-0.288212	-0.17821	-1.22042	-0.0204915	-0.132967	0.0371761
4.27915	0.166715	-2.60426	7.5669	0.51022	-0.705439	1.41317	9.10886	-5.6102	-0.316089	-10.751	1.04539	-0.434683	-0.0174129	-7.81275	16.8699	-5.47009	46.4773	13.0643	-6.45843	0.0169912	-25.3566	-5.34461	2.25221	0.816362	-0.943027	-0.280066	-1.00985	-0.0119271	-0.118547	0.0317748	-0.348717	-0.2783	-0.166256	-1.30945	-0.0212819	-0.141058	0.0428806
4.28913	0.139737	-3.21623	7.19284	0.730828	-0.170434	2.4411	5.0001	-6.89632	0.949463	-7.94915	1.17062	-0.562012	-0.0208418	-6.07516	14.2937	-4.49671	43.9129	14.8101	-6.4758	0.0166089	-23.6025	-5.09302	2.77242	1.05186	-0.894188	-0.264	-0.927798	-0.00987873	-0.106849	0.0276213	-0.247148	-0.297849	-0.198197	-1.25004	-0.0218719	-0.134904	0.0332588
4.29912	-0.834397	-2.75715	6.41175	-0.674801	1.99244	0.765835	0.47265	-7.96586	2.14389	-5.36311	1.2892	-0.666379	-0.0244204	-2.01694	12.7468	-3.65164	40.8442	16.6142	-6.41205	0.0159032	-23.7365	-4.6434	2.6535	0.941118	-0.996201	-0.297208	-0.991848	-0.0111296	-0.114995	0.0275662	-0.399008	-0.247189	-0.165318	-1.3288	-0.0214759	-0.140299	0.0409002
4.3091	-1.65982	-2.02324	5.79368	-2.57931	3.25789	1.7597	-4.22525	-7.96048	2.9606	-2.5394	1.37971	-0.712801	-0.0283435	1.14444	11.8196	-3.03942	37.9469	18.3923	-6.2665	0.0156025	-22.2279	-4.75685	2.71322	1.05582	-0.945041	-0.290933	-0.94382	-0.00996377	-0.107984	0.0234487	-0.318687	-0.282419	-0.182722	-1.29179	-0.0214934	-0.135241	0.0354373
4.31909	-3.26451	-0.851842	5.17565	-2.11469	-0.302395	2.45553	-8.8565	-6.85212	3.44066	0.358247	1.43614	-0.692987	-0.0324502	5.30778	11.9857	-2.63198	34.8744	20.1978	-6.06482	0.0149341	-20.9467	-5.18207	2.48	1.12287	-0.888743	-0.290847	-0.89763	-0.00923048	-0.102303	0.0185234	-0.231261	-0.312428	-0.187646	-1.25192	-0.0210435	-0.129315	0.0321278
4.32908	-4.79588	1.32094	4.80094	-1.15488	-2.14355	0.687407	-13.4761	-5.0607	3.69016	3.15971	1.44143	-0.616834	-0.036043	10.1604	13.4521	-2.42196	31.68	21.9949	-5.81516	0.0140556	-20.7901	-5.79397	1.8544	1.03091	-0.889729	-0.312568	-0.91548	-0.00998026	-0.105845	0.0153949	-0.252681	-0.316439	-0.161928	-1.27573	-0.0202183	-0.128768	0.0372167
4.33906	-4.46019	2.62024	4.43262	-0.825041	0.864027	0.202927	-19.665	-1.21829	3.79409	7.48036	-0.412352	-0.415924	-0.0390357	14.3697	15.6532	-2.40595	28.5699	23.7112	-5.53762	0.0134638	-19.6	-6.90866	1.35126	1.02879	-0.78916	-0.30335	-0.872038	-0.00908573	-0.100561	0.0111826	-0.184755	-0.378678	-0.165761	-1.23805	-0.0197024	-0.122806	0.0351548
4.34905	-3.27905	3.21747	3.8296	0.750586	-0.455266	-0.446298	-24.9076	3.43142	3.55526	11.1568	-1.09292	-0.215489	-0.0408627	17.7815	18.0534	-2.47821	25.7646	25.3137	-5.26199	0.0130892	-18.5353	-7.85502	0.833781	1.06476	-0.652457	-0.285595	-0.801001	-0.00800989	-0.0924048	0.00629286	-0.0405659	-0.446152	-0.176007	-1.16186	-0.0190167	-0.113881	0.0306525
4.35904	-0.716517	3.23179	2.95683	-2.62127	-0.363095	0.360311	-30.6944	8.82652	3.2326	15.0854	-1.79739	0.00363077	-0.0408345	20.2456	20.4014	-2.63103	23.2082	26.7509	-5.00398	0.0130902	-16.573	-8.94663	0.422334	1.09246	-0.445071	-0.240565	-0.703029	-0.00585478	-0.0792642	0.00237832	0.114847	-0.556109	-0.204747	-1.05103	-0.0183987	-0.102071	0.0220721
4.36902	1.53045	2.21359	1.51372	-0.386301	-1.49769	-2.34141	-36.1054	14.2315	2.85522	18.8805	-2.45703	0.223576	-0.0383226	22.9933	22.7075	-2.7702	20.6961	28.0066	-4.78804	0.0132865	-14.5065	-9.12242	0.0855879	1.16082	-0.258244	-0.202275	-0.582965	-0.00414432	-0.064192	-0.00323673	0.349738	-0.617875	-0.22658	-0.898985	-0.0170135	-0.0864818	0.0118302
4.37901	4.35637	-1.24496	-1.12176	1.53558	0.231107	-1.64112	-41.8744	20.1937	2.42149	22.8419	-3.04628	0.43448	-0.0323312	25.7682	23.964	-2.73161	18.3253	29.0193	-4.63437	0.0140073	-11.8475	-8.85748	0.048879	1.24486	-0.0122752	-0.134777	-0.449544	-0.00155062	-0.0453168	-0.00645788	0.610686	-0.723233	-0.275809	-0.719036	-0.01603	-0.0698437	-0.00335117
4.38899	6.6693	-4.89475	-4.35098	0.959115	0.911836	-1.1158	-47.7252	25.3167	1.95477	26.5749	-3.47757	0.587811	-0.0227709	28.509	24.6969	-2.60126	16.1151	29.7436	-4.52168	0.0149552	-8.10457	-8.26096	0.200433	1.29593	0.258224	-0.0497957	-0.303729	0.0016192	-0.0231969	-0.00847262	0.855247	-0.834662	-0.333257	-0.51292	-0.0147674	-0.0508973	-0.0212971
4.39898	8.06647	-7.90627	-7.92479	1.56645	1.58962	-0.298262	-53.3067	28.9384	1.43051	29.7917	-3.69862	0.656067	-0.0099458	31.437	25.0556	-2.39063	14.0106	30.1252	-4.43274	0.0162559	-3.85985	-7.39249	0.519349	1.33993	0.562751	0.0533391	-0.152782	0.00524528	0.00103541	-0.00878501	1.11455	-0.972788	-0.406999	-0.287959	-0.0136411	-0.0311498	-0.0422329
4.40897	7.49215	-10.276	-11.6082	4.15878	-3.61883	0.91213	-57.7021	30.7641	0.838241	32.0799	-3.65908	0.632641	0.00448895	34.5552	24.9865	-2.09133	12.0607	30.1282	-4.35595	0.0177425	1.13777	-6.23653	1.04814	1.38771	0.909289	0.178321	0.0174824	0.00953381	0.029103	-0.00769923	1.39778	-1.13313	-0.497746	-0.0280805	-0.0125288	-0.00911206	-0.0671658
4.41895	7.43149	-10.0903	-15.4715	-1.71642	-3.11091	-0.0966374	-62.0376	30.5517	0.25116	33.5391	-3.39113	0.510936	0.0190992	36.835	25.078	-1.87604	10.3792	29.6772	-4.24395	0.0198755	5.74645	-4.8304	1.54428	1.21446	1.23288	0.311288	0.0920555	0.0131686	0.0476742	0.000466454	1.48755	-1.33057	-0.586156	0.143618	-0.0119318	0.00366891	-0.0860622
4.42894	4.44884	-9.5662	-18.4969	-0.299496	-0.7577	-0.231477	-63.8653	29.0733	-0.283107	33.6551	-2.99899	0.356528	0.0326794	39.1623	25.4461	-1.7744	8.62614	28.7528	-4.09533	0.0230321	10.0671	-2.8262	2.36112	1.12386	1.62888	0.474014	0.167766	0.0174497	0.0683383	0.0117542	1.67631	-1.60785	-0.719186	0.334093	-0.0124692	0.0150973	-0.111054
4.43893	0.170971	-6.26159	-20.4907	0.805533	3.06974	1.26812	-63.5964	25.7458	-0.683086	32.446	-2.60677	0.175751	0.0437507	41.0755	26.1768	-1.80311	7.00423	27.3662	-3.89864	0.0268774	12.4734	-0.931683	2.82284	0.808271	2.01277	0.637473	0.130374	0.0205588	0.0755439	0.0304428	1.69093	-1.94805	-0.847084	0.411186	-0.0139953	0.0142557	-0.126931
4.44891	-4.65058	-2.95169	-21.8051	-0.505441	2.81607	1.62013	-60.9221	21.8592	-0.889545	30.166	-2.41727	0.035686	0.0511672	42.0946	26.8099	-1.9184	5.73176	25.5628	-3.66886	0.0309937	13.4587	1.60678	3.318	0.303569	2.34922	0.802445	-0.00835572	0.0227457	0.0711045	0.0569476	1.48935	-2.30132	-0.965359	0.382094	-0.0164395	0.00155421	-0.134586
4.4589	-8.52306	0.236008	-22.1867	-7.82403	7.24907	2.78473	-56.816	17.7314	-0.911519	27.3091	-2.67659	-0.0429215	0.0551068	41.0208	27.1311	-2.20626	4.71889	23.3498	-3.39197	0.035714	13.9385	4.25778	4.3653	-0.152244	2.76051	1.00891	-0.17144	0.0263459	0.0668864	0.0899749	1.23234	-2.75984	-1.13376	0.315409	-0.0211195	-0.0182743	-0.146265
4.46888	-11.4855	4.78125	-21.7776	-14.1721	8.61524	-5.58694	-51.4084	12.9061	-0.737206	24.1353	-3.56224	-0.0419233	0.0551438	39.118	28.3176	-2.70113	3.83521	20.8893	-3.08038	0.039561	12.1492	8.12245	5.29005	-0.717598	2.97922	1.15884	-0.439258	0.0272603	0.0465774	0.125393	0.787303	-3.09585	-1.2452	0.122749	-0.0257694	-0.0497473	-0.143893
4.47887	-11.7316	8.97957	-22.4117	-8.46113	8.9941	10.615	-44.5631	8.02153	-0.361492	20.8802	-5.19085	0.0426578	0.0510192	40.5376	27.1793	-2.21917	2.96256	18.4194	-2.87427	0.0413198	1.17317	10.8697	4.873	-1.79103	3.11705	1.27695	-1.01639	0.0244806	-0.0167077	0.179001	-0.182781	-3.56329	-1.31282	-0.455128	-0.0346201	-0.122297	-0.107749
4.48886	-9.02356	5.35464	-23.4618	-8.91589	43.7432	65.7485	-38.2013	8.50386	0.137967	19.2286	-7.80084	0.321816	0.0448846	41.9219	22.7522	-1.18387	1.57173	15.7658	-2.70862	0.0458258	-11.2961	10.9845	5.19449	-2.55778	3.74872	1.5562	-1.5627	0.0279235	-0.0665107	0.244715	-0.93691	-4.56165	-1.59274	-1.03411	-0.0506075	-0.204727	-0.095642
4.49884	-6.80562	6.20305	-23.8737	-25.5823	71.9965	107.255	-33.5381	7.20706	0.612288	18.721	-11.1449	0.577389	0.0357707	41.3998	19.0998	-0.587108	-0.0226064	13.0964	-2.4868	0.0502363	-20.1461	10.4638	5.08683	-3.21161	4.22377	1.7569	-1.99966	0.0301491	-0.106615	0.293303	-1.52595	-5.3261	-1.7929	-1.49174	-0.0621417	-0.266855	-0.0841557
4.50883	-9.9188	11.235	-21.9448	-43.9792	88.5495	126.596	-28.9587	3.96208	1.04137	18.9531	-15.0419	0.776094	0.0247643	40.5358	17.8238	-0.641667	-2.18492	10.5487	-2.19461	0.0534627	-24.8814	9.77142	4.57546	-3.55423	4.39738	1.81896	-2.2631	0.0298753	-0.133277	0.314678	-1.79632	-5.6845	-1.86971	-1.76817	-0.0673941	-0.299931	-0.0734529
4.51882	-18.8834	15.2116	-18.407	-58.1431	96.7826	129.663	-23.4276	0.817106	1.35735	19.8372	-19.2785	0.91981	0.0141011	40.7962	17.8462	-0.943574	-4.98806	8.24475	-1.88281	0.054671	-26.4205	9.38596	4.0384	-3.55317	4.26455	1.75334	-2.38055	0.0273707	-0.148991	0.312704	-1.80434	-5.66057	-1.84094	-1.90585	-0.0677007	-0.310262	-0.0634471
4.5288	-30.8626	21.3811	-13.7458	-67.2769	97.2015	120.106	-17.5089	-4.04654	1.59584	20.8527	-23.4775	0.877851	0.00460647	43.0524	18.6154	-1.03173	-8.11965	6.35672	-1.59162	0.0507638	-29.1675	8.19252	2.9275	-3.50035	3.71149	1.52921	-2.50261	0.0208838	-0.175643	0.295795	-1.95552	-5.25615	-1.65849	-2.12313	-0.0649872	-0.319427	-0.0334234
4.53879	-45.5157	25.9313	-8.8663	-70.817	90.1872	101.263	-10.5076	-9.08988	1.7721	21.7357	-27.3335	0.655322	-0.00360935	47.7375	19.4208	-0.594618	-11.524	4.95997	-1.35686	0.0408114	-33.1311	6.8842	1.80254	-3.42238	2.80004	1.18987	-2.65112	0.0115625	-0.212768	0.271029	-2.33539	-4.54368	-1.36038	-2.44074	-0.0607778	-0.332912	0.0134233
4.54877	-59.9851	26.4376	-4.12592	-67.2702	78.6801	77.1545	-3.17403	-12.3022	1.72591	23.1667	-30.7363	0.304534	-0.00842743	51.4646	19.8613	-0.0113115	-14.9693	3.88362	-1.12687	0.0282192	-34.1868	6.11644	1.75236	-2.79931	1.91757	0.858038	-2.58338	0.00459204	-0.223869	0.233831	-2.31683	-3.74764	-1.10221	-2.5411	-0.0558491	-0.325779	0.0393078
4.55876	-72.3662	22.846	-0.444031	-60.0418	68.1594	59.5171	4.16278	-12.299	1.32604	25.4038	-33.5863	-0.109758	-0.00951094	53.34	19.5279	0.443073	-18.2758	3.05059	-0.897687	0.0154583	-32.8278	5.75811	2.02402	-1.89846	1.22254	0.574862	-2.36937	-0.000303499	-0.214871	0.190772	-1.89119	-3.0404	-0.911952	-2.44131	-0.0503098	-0.301126	0.0454275
4.56875	-78.6212	16.6792	1.7521	-55.4242	62.1723	50.8211	9.82231	-9.22095	0.625704	28.7209	-35.8384	-0.570839	-0.0069416	52.4411	18.0824	0.76029	-21.0274	2.4368	-0.683234	0.00321172	-30.5544	5.50618	2.56142	-0.912949	0.776018	0.373474	-2.09393	-0.00274735	-0.194069	0.15131	-1.26328	-2.52966	-0.807993	-2.23873	-0.0459472	-0.270847	0.0368822
4.57873	-81.1107	12.2864	3.4381	-54.7445	60.1789	47.6256	14.0508	-5.84865	-0.17023	32.155	-37.3528	-1.14501	-0.00271459	51.7323	16.421	0.984561	-23.3469	2.19194	-0.534683	-0.0113223	-31.7213	4.36621	2.48431	-0.446107	0.318485	0.187033	-2.0258	-0.00647076	-0.19773	0.127832	-1.13339	-2.13145	-0.682305	-2.27267	-0.0437216	-0.26541	0.0483499
4.58872	-78.4166	9.56887	4.70943	-56.0709	59.8986	47.5242	16.5499	-2.13489	-0.963628	35.6714	-38.1667	-1.80728	0.00259561	50.9007	15.045	0.962192	-25.118	2.25271	-0.436503	-0.0275167	-36.6557	3.089	1.97539	-0.486979	-0.135132	0.028232	-2.17228	-0.011445	-0.22618	0.122869	-1.47513	-1.85278	-0.546892	-2.53725	-0.0439942	-0.286156	0.0783293
4.59871	-74.4172	5.81998	5.42948	-57.4318	58.9477	46.9321	18.2518	2.78795	-1.91387	39.4002	-38.4137	-2.48275	0.00973469	46.8408	14.4335	0.33597	-26.708	2.27751	-0.306994	-0.0386222	-36.6764	3.48978	2.23149	-0.173557	-0.202106	-0.00897237	-2.10606	-0.012122	-0.220878	0.114327	-1.20562	-1.77617	-0.548321	-2.47358	-0.0435623	-0.279702	0.072772
4.60869	-68.2863	3.8044	5.91986	-59.194	58.1048	47.4928	19.0025	6.99581	-2.73772	42.5886	-38.0113	-3.22816	0.015981	43.4291	14.1395	-0.461667	-28.0636	2.41948	-0.222689	-0.0479129	-39.3126	3.98279	2.11795	-0.281195	-0.261192	-0.0221451	-2.20724	-0.0138051	-0.234517	0.120409	-1.30015	-1.78007	-0.537922	-2.57923	-0.0446646	-0.292337	0.0814996
4.61868	-60.2692	3.02916	6.24865	-60.814	57.093	48.7458	19.0654	10.3537	-3.39678	45.107	-37.0248	-4.027	0.0212544	39.9939	13.9273	-1.22226	-29.1608	2.55756	-0.171603	-0.0536682	-43.3157	4.60472	1.97403	-0.610669	-0.253307	0.00481941	-2.3905	-0.0152004	-0.255946	0.137074	-1.58142	-1.87402	-0.543811	-2.76191	-0.0471964	-0.315598	0.094746
4.62866	-51.4482	2.06904	6.43649	-62.3447	56.0206	48.7489	18.7967	13.6027	-3.95868	47.0993	-35.5581	-4.8197	0.025896	35.1541	13.7852	-1.96839	-29.9859	2.53306	-0.12016	-0.0532985	-45.4401	5.7513	2.27877	-0.783199	-0.0845622	0.0877074	-2.47879	-0.0143486	-0.262503	0.153108	-1.65696	-2.04474	-0.606243	-2.81551	-0.0497816	-0.328546	0.0934411
4.63865	-40.9404	2.13713	6.38145	-63.1191	54.1037	48.3713	18.1249	15.8757	-4.33676	48.3389	-33.6127	-5.62281	0.0290511	30.1844	13.4132	-2.55157	-30.2701	2.39677	-0.0815791	-0.0488452	-48.861	7.02166	2.39842	-1.14502	0.0914	0.183364	-2.63643	-0.013944	-0.277064	0.175863	-1.88079	-2.24056	-0.661033	-2.9337	-0.0528997	-0.349175	0.0983376
4.64864	-29.3035	2.27285	6.15277	-62.6633	51.6871	47.5167	17.211	17.8183	-4.5733	48.9881	-31.2712	-6.39404	0.0311156	24.9183	12.9286	-3.02025	-29.9952	2.14846	-0.0436392	-0.0414861	-52.6164	8.41017	2.57823	-1.54574	0.299462	0.296554	-2.80202	-0.0131703	-0.29184	0.201613	-2.13451	-2.45685	-0.723573	-3.05464	-0.0563724	-0.371316	0.103002
4.65862	-18.0666	2.30168	6.27099	-60.1308	47.7511	43.5627	16.2754	19.7306	-4.7286	49.2129	-28.6109	-7.10983	0.0326867	18.3956	12.8683	-3.61816	-29.2692	1.75761	0.023839	-0.0316042	-53.7797	10.1272	3.2219	-1.62201	0.614617	0.435194	-2.80402	-0.010273	-0.285597	0.218793	-2.05764	-2.67196	-0.825916	-2.98676	-0.0588424	-0.37503	0.0903366
4.66861	-8.61865	2.20256	6.86866	-54.0909	42.5082	36.6418	15.4875	21.3852	-4.8057	49.0008	-25.661	-7.78519	0.0338528	11.2838	13.1171	-4.30741	-28.2927	1.28225	0.10951	-0.0207327	-52.0227	11.8672	4.31777	-1.2986	0.99769	0.579613	-2.61253	-0.00536354	-0.256013	0.223213	-1.61641	-2.84438	-0.955786	-2.71341	-0.0598578	-0.357174	0.0600815
4.6786	-3.94199	2.4098	8.47335	-40.3978	32.618	27.0242	15.8201	21.9517	-4.78153	47.9333	-22.4009	-8.46024	0.0341525	5.57457	13.8344	-5.12817	-27.2874	0.844817	0.198456	-0.011595	-48.4668	13.1019	5.67506	-0.675379	1.33813	0.695667	-2.28111	0.000390869	-0.211819	0.215502	-0.98112	-2.9151	-1.07466	-2.31949	-0.0595201	-0.324602	0.021787
4.68858	-3.06902	2.18795	10.4143	-19.5989	17.6434	15.0925	16.8409	21.7666	-4.67136	46.2282	-18.8931	-9.14198	0.0337504	1.4222	14.5123	-5.76776	-25.7382	0.323111	0.120406	-0.00432455	-43.5583	13.8303	7.24679	0.239482	1.57901	0.763882	-1.82569	0.00632667	-0.156191	0.194862	-0.187829	-2.84703	-1.16597	-1.83124	-0.0577345	-0.279241	-0.0212322
4.69857	-4.6651	2.43799	12.2224	1.06458	-1.31382	3.59021	17.9813	20.248	-4.43484	43.958	-15.1536	-9.87116	0.0319557	0.111535	14.7281	-6.31708	-24.7834	0.164526	0.200612	-0.00137042	-40.1449	14.162	8.25416	0.884883	1.6158	0.767674	-1.47998	0.00954481	-0.117458	0.175365	0.314019	-2.64786	-1.17408	-1.47853	-0.054999	-0.243601	-0.0460643
4.70855	-3.40258	1.04714	11.7051	-3.64093	-7.8605	0.561901	16.2947	19.6371	-4.11361	42.2401	-11.3593	-10.5953	0.0297485	-0.400443	13.0766	-6.17507	-23.5654	0.0918263	0.213997	-0.000143115	-37.4569	13.7371	8.82163	0.957125	1.58734	0.775809	-1.35927	0.0115888	-0.102408	0.170579	0.236569	-2.51184	-1.14545	-1.37711	-0.0533781	-0.231029	-0.0508151
4.71854	-2.38728	-1.7837	10.1477	-3.11983	4.7907	3.05209	13.3111	19.0276	-3.69349	40.6956	-7.60839	-11.2996	0.0289378	0.435687	10.3726	-5.59556	-22.5079	0.091428	0.173153	-3.39046e-05	-35.6368	12.9547	9.39265	1.18672	1.55337	0.766626	-1.25315	0.013206	-0.089557	0.163235	0.2862	-2.41898	-1.13716	-1.30546	-0.0527285	-0.221519	-0.0569891
4.72853	-1.42774	-3.44261	8.67339	-5.51589	2.28191	3.20745	9.75245	17.9229	-3.20433	39.4137	-3.83295	-11.9767	0.0276056	0.998584	7.547	-4.8409	-20.9162	0.128703	0.110783	-0.00119251	-32.692	12.2616	9.3861	1.40651	1.40216	0.697402	-1.10609	0.0129929	-0.0756798	0.145976	0.424813	-2.17605	-1.0654	-1.17305	-0.0490255	-0.201054	-0.0594435
4.73851	-1.29955	-4.08717	6.84201	-6.39838	4.04085	3.74356	7.62763	16.7581	-2.77907	37.8407	-0.0455965	-12.5739	0.0261272	1.329	4.92081	-3.90521	-19.4032	0.175939	0.0277445	-0.00245669	-31.4049	11.8737	8.36815	1.34164	1.16468	0.584651	-1.09087	0.00948244	-0.0797619	0.130986	0.50483	-1.90389	-0.944398	-1.13515	-0.0440585	-0.18775	-0.0484903
4.7485	-0.464333	-3.35202	5.0651	-2.38365	2.57911	1.30935	6.15942	15.2697	-2.35311	36.2605	3.75026	-13.1018	0.024529	1.14421	2.66671	-2.88761	-17.7304	0.222345	-0.0649015	-0.00376441	-31.5212	12.0691	6.66676	1.15717	0.855989	0.434851	-1.1351	0.00345025	-0.0937134	0.115226	0.644131	-1.57449	-0.786096	-1.11925	-0.0377454	-0.175493	-0.0303175
4.75848	1.0468	-2.76073	2.59186	-2.49682	2.66029	2.70982	5.22796	14.3575	-1.98627	34.7526	7.56284	-13.5435	0.0224569	0.206524	0.159435	-1.63664	-15.8844	0.263408	-0.177128	-0.00483268	-32.3365	12.404	4.63119	0.748985	0.625869	0.315876	-1.2684	-0.0028341	-0.115792	0.107674	0.696787	-1.3498	-0.645317	-1.16484	-0.0321291	-0.170941	-0.00885845
4.76847	0.813473	-1.16127	0.749418	-1.22909	-0.541308	-0.813708	4.94365	12.7391	-1.57307	33.0886	11.4246	-13.9437	0.0202243	-1.14375	-1.85898	-0.461795	-13.7907	0.306429	-0.286083	-0.00604826	-31.9177	13.142	2.73262	0.47543	0.412828	0.195394	-1.34002	-0.00867289	-0.130221	0.095224	0.892759	-1.10988	-0.514741	-1.13754	-0.0258127	-0.158504	0.00616768
4.77846	0.897072	-2.06807	-1.591	-2.23334	-2.50749	1.93415	4.22636	11.7846	-1.20194	31.6509	15.2965	-14.287	0.0187415	-3.1587	-5.17358	1.10211	-11.4054	0.352976	-0.434209	-0.00685672	-29.8016	13.3547	1.71953	0.51485	0.36495	0.133645	-1.28946	-0.0109022	-0.126519	0.0810131	1.22577	-0.997702	-0.465271	-1.02112	-0.0215157	-0.140217	0.00469256
4.78844	-0.852034	-0.946622	-2.48084	-1.64663	0.956685	0.890376	5.55234	9.67043	-0.796373	29.5544	19.2965	-14.6122	0.0172643	-5.01217	-7.62549	2.49653	-9.33637	0.393297	-0.563417	-0.00739075	-29.6094	13.3683	0.582824	0.327748	0.313478	0.0856797	-1.36765	-0.0137953	-0.136931	0.0770796	1.33304	-0.955942	-0.419349	-1.04466	-0.0189361	-0.137785	0.0121819
4.79843	-5.05937	2.20658	-2.5428	-5.18074	0.00971424	0.134911	8.73645	7.06028	-0.414677	26.986	23.4555	-14.9147	0.0151225	-6.36155	-9.08502	3.61553	-7.50892	0.459849	-0.658279	-0.00878988	-30.3273	13.0791	-0.986595	-0.236435	0.294246	0.0635414	-1.57935	-0.0172025	-0.161047	0.0846746	1.1656	-0.994516	-0.366953	-1.19028	-0.0171575	-0.148286	0.0295466
4.80842	-6.76448	4.25159	-1.9336	-4.19792	1.99366	2.06854	10.9218	4.75063	-0.0293749	24.7726	27.638	-15.1855	0.014478	-8.80994	-10.9578	4.6864	-5.20834	0.510776	-0.739134	-0.0102023	-30.5253	12.2085	-1.7664	-0.367177	0.341559	0.0578059	-1.64862	-0.0182928	-0.168521	0.0854045	1.23978	-1.06382	-0.367695	-1.2323	-0.0167795	-0.150759	0.0327098
4.8184	-6.19798	5.09914	-0.792201	-2.8854	2.32207	2.91868	12.121	2.72507	0.324595	22.9026	31.8607	-15.4118	0.0150775	-12.6234	-13.1836	5.65489	-2.38511	0.548214	-0.804443	-0.0117935	-29.3645	11.2345	-1.9027	-0.107289	0.344187	0.0289832	-1.5682	-0.018226	-0.160408	0.0746316	1.51065	-1.04612	-0.37459	-1.16075	-0.0160272	-0.141015	0.0259362
4.82839	-3.47525	4.48921	-0.321518	-1.62623	2.67005	3.31285	14.8447	2.18496	0.446826	21.0114	36.2033	-15.5208	0.0152947	-17.3664	-15.0241	6.45817	0.458588	0.556079	-0.830269	-0.013254	-31.1609	11.0205	-2.21449	-0.205163	0.280887	0.00628732	-1.66793	-0.0200169	-0.173019	0.0779472	1.48027	-1.02436	-0.356304	-1.25451	-0.0162623	-0.150119	0.0336406
4.83837	-1.70483	4.20738	0.885896	-4.12547	1.22278	-2.12304	16.9548	1.60042	0.563281	19.2444	40.631	-15.5611	0.0163294	-22.6238	-16.0435	6.78943	3.51774	0.537852	-0.800792	-0.0147671	-30.1785	11.1251	-2.14968	0.00797635	0.0947516	-0.0717574	-1.61762	-0.0215992	-0.170751	0.06535	1.60817	-0.832429	-0.303909	-1.22397	-0.0142245	-0.142092	0.0348516
4.84836	-2.3686	1.47123	1.4834	0.600737	-0.197838	4.56955	20.3454	2.86092	0.408684	17.3539	45.1522	-15.4564	0.0178473	-27.3504	-17.3989	6.9005	6.31425	0.48446	-0.740511	-0.0154194	-28.3751	10.3119	-1.77249	0.46272	-0.0107946	-0.133761	-1.46955	-0.0214657	-0.156986	0.0478684	1.88169	-0.69881	-0.289001	-1.12229	-0.0130465	-0.127958	0.0269027
4.85835	-1.69734	0.310559	2.02482	-3.05621	0.520704	1.569	23.8662	4.95332	0.14314	15.7301	49.7762	-15.2052	0.0193434	-32.9054	-16.5409	6.52152	9.19339	0.349802	-0.590776	-0.0152235	-27.774	10.7326	-1.65824	0.531586	-0.258988	-0.219644	-1.48402	-0.0237516	-0.162259	0.0392674	1.82009	-0.476549	-0.214309	-1.16508	-0.0110991	-0.1268	0.0350425
4.86833	-2.5813	-1.52181	2.48514	-1.38778	-2.00757	0.767644	26.9086	7.62888	-0.195298	14.289	54.4459	-14.8187	0.0217608	-38.2279	-15.5427	5.92601	12.1159	0.155498	-0.418272	-0.0135051	-24.5633	11.0043	-1.09634	1.05287	-0.528663	-0.336728	-1.28951	-0.0247037	-0.145621	0.013303	2.06354	-0.165391	-0.14376	-1.02638	-0.00772224	-0.104893	0.0295544
4.87832	-1.6729	-5.892	2.26823	-1.04829	-0.113212	0.187643	28.4995	11.6038	-0.68351	13.449	59.0928	-14.2496	0.0253031	-44.358	-15.2542	5.34006	15.2032	-0.126243	-0.260755	-0.00928649	-20.1071	11.7701	0.0692091	1.83691	-0.837887	-0.469059	-0.995331	-0.0248022	-0.118055	-0.0204309	2.40073	0.206518	-0.0778821	-0.815587	-0.00406392	-0.0749586	0.017181
4.88831	-0.00218607	-9.63727	2.79898	-0.755335	-0.980607	1.71725	30.3113	15.9968	-1.21258	12.8445	63.7756	-13.511	0.0285637	-50.4605	-14.6354	4.65032	18.2188	-0.470378	-0.100232	-0.00326866	-16.7614	11.8813	1.23717	2.41859	-1.11424	-0.572947	-0.780716	-0.0245834	-0.0986044	-0.044761	2.49783	0.503142	-0.0190465	-0.701471	-0.00198711	-0.0567626	0.0111041
4.89829	0.345176	-10.5696	3.79704	-2.068	0.352605	-0.804425	33.0344	20.215	-1.70208	12.221	68.4613	-12.6064	0.0312056	-56.6819	-12.7004	3.84144	21.504	-1.80555	0.10361	0.00414316	-14.0256	11.9668	1.90136	2.62728	-1.42655	-0.677433	-0.696364	-0.0256575	-0.0937488	-0.0607081	2.3096	0.782819	0.072024	-0.706117	0.00022858	-0.0493814	0.0174014
4.90828	0.0620637	-8.86014	5.78147	-1.20713	0.821078	-0.399791	36.341	23.8289	-2.00835	11.7711	73.0466	-11.5525	0.0334234	-61.5034	-10.0004	2.96076	24.0993	-2.65965	0.298593	0.0129893	-13.4099	10.9672	1.97177	2.4649	-1.66565	-0.746511	-0.766292	-0.0273626	-0.105441	-0.0626319	1.89195	0.927368	0.154568	-0.850338	0.000794103	-0.0585551	0.0341113
4.91826	0.79187	-6.25732	7.98242	-1.34894	2.49638	3.76277	38.2697	27.1587	-2.20882	11.9715	77.3337	-10.345	0.0360617	-66.347	-7.85505	2.1675	26.5205	-3.31163	0.445131	0.0234275	-11.9353	9.57039	1.54551	2.33866	-1.8789	-0.830395	-0.793356	-0.0294395	-0.113537	-0.0704816	1.62631	1.05982	0.241165	-0.934314	0.00247834	-0.0598924	0.0485043
4.92825	-0.976878	-4.11308	10.1506	0.911986	0.687223	0.226287	38.4506	29.0945	-2.32252	12.5435	81.1353	-9.01565	0.0405231	-70.062	-6.65453	1.40823	28.4028	-3.67205	0.507176	0.0350862	-5.94384	8.87611	1.7838	2.92531	-2.22957	-1.00096	-0.491018	-0.030507	-0.0887094	-0.109984	1.82547	1.41246	0.351438	-0.735076	0.00749734	-0.0263933	0.0443449
4.93824	-0.624421	-0.957415	13.6544	-0.936945	2.45682	1.97499	40.1298	31.014	-2.44713	13.337	84.4467	-7.51882	0.0438886	-71.1807	-4.15356	0.567078	28.8771	-3.61198	0.534955	0.0438588	-7.78553	6.35177	2.0901	2.40259	-2.29178	-0.969022	-0.732097	-0.0302506	-0.114869	-0.0876728	1.00147	1.28698	0.365899	-1.07901	0.00316795	-0.0630667	0.0677898
4.94822	-1.0176	2.10476	15.4531	-1.88624	0.766381	-0.0883271	41.1855	33.0168	-2.65748	14.7843	87.0229	-5.85466	0.0467454	-70.4419	-1.42523	-0.0929387	28.3569	-3.26991	0.531729	0.0511264	-10.6076	4.85854	1.6431	1.67568	-2.40469	-0.961029	-1.0447	-0.0323769	-0.150423	-0.0641954	0.233378	1.2276	0.419447	-1.42779	0.000896998	-0.0986935	0.0975344
4.95821	-1.65266	3.88549	16.1994	-0.302568	3.32928	-0.0538139	42.3736	35.1413	-3.02742	16.5159	88.6531	-4.04399	0.0502538	-69.3704	0.849214	-0.565247	27.861	-2.98333	0.572522	0.0571748	-14.0973	3.6472	1.01378	0.947801	-2.48693	-0.94804	-1.37713	-0.0349423	-0.187884	-0.0396148	-0.429354	1.14726	0.462979	-1.76932	-0.00131072	-0.134457	0.126152
4.9682	-5.69827	1.57395	14.893	0.0514254	2.25903	3.19161	41.1715	37.1102	-3.52101	19.131	89.1203	-2.13426	0.0548353	-62.7727	0.651255	-0.82419	24.3914	-2.20254	0.451997	0.0614761	-16.8809	2.50256	0.536743	0.375107	-2.58339	-0.946724	-1.64066	-0.0371215	-0.218254	-0.0207453	-0.976898	1.10421	0.505532	-2.04952	-0.00307223	-0.163425	0.150185
4.97818	-45.541	-63.9773	12.2097	394.732	-535.528	797.163	53.4083	94.5291	-11.5638	25.9842	89.7991	0.612292	0.0177081	-10.7938	-56.8499	0.304819	9.50275	-0.585844	-0.752122	0.0633754	-4.04067	-88.4137	0.992426	4.27511	7.01845	1.94578	1.25603	0.083576	0.196152	0.111297	2.8775	-7.69259	-2.63411	-0.0313328	-0.106458	-0.143357	-0.25565
4.98817	-48.1366	-36.7303	14.1133	325.641	-441.641	545.504	50.861	74.2292	-9.49392	27.5223	87.5248	1.54164	0.0315467	-10.114	-36.0047	-0.456886	8.36778	-0.587822	-0.216238	0.0613639	-10.3886	-65.5741	-0.0609513	3.13391	3.81777	0.955268	0.44422	0.0438356	0.06407	0.0598362	1.71466	-4.82356	-1.58484	-0.63473	-0.0742311	-0.147241	-0.118037
4.99815	-52.0595	-16.9979	14.2845	258.314	-372.946	349.389	47.9291	57.9127	-7.90448	29.4676	83.8804	2.12105	0.0428182	-7.14035	-20.0762	-1.05925	6.98356	-0.851723	0.426265	0.0559167	-14.6645	-46.9549	-1.14445	2.07538	1.29748	0.176242	-0.227681	0.0122315	-0.0426753	0.0206452	0.706357	-2.55801	-0.74112	-1.12591	-0.0479405	-0.150028	-0.00646397
5.00814	-52.9023	-1.80664	14.3104	202.809	-317.912	196.462	46.1119	44.813	-6.66873	31.5656	78.9589	2.48018	0.0498177	-3.87972	-7.06791	-1.49476	6.34908	-1.51087	1.29531	0.0466904	-22.148	-32.276	-2.88523	0.700848	-0.603988	-0.389093	-1.01479	-0.0147097	-0.153919	0.0116997	-0.293093	-0.885316	-0.0763658	-1.69312	-0.028394	-0.174445	0.0961593
5.01813	-54.1753	5.39087	13.0444	141.896	-288.858	94.6932	43.1104	35.5271	-5.80646	33.5973	72.7164	2.7372	0.0544821	-0.864138	0.443768	-1.73314	6.88013	-2.56806	2.32183	0.0340586	-24.2346	-21.0295	-4.15487	-0.233802	-1.88455	-0.780929	-1.48292	-0.0324585	-0.220692	-0.00131075	-0.954582	0.283559	0.389953	-2.00314	-0.0131646	-0.179518	0.162021
5.02811	-58.0028	8.36205	10.5034	80.5296	-277.172	33.6338	40.3638	29.1967	-5.33181	34.9262	65.3484	2.90896	0.0571433	2.09106	5.18952	-1.90895	8.67338	-4.06482	3.53473	0.0195101	-21.8814	-12.9242	-4.90236	-0.773409	-2.60004	-1.01188	-1.68934	-0.0419675	-0.24987	-0.0158975	-1.33262	0.974149	0.66854	-2.11301	-0.0024568	-0.171107	0.19546
5.0381	-61.1771	10.6684	8.35499	22.9504	-273.361	-0.762798	38.0568	24.1946	-4.94062	35.4228	57.171	2.95359	0.0567679	4.06986	9.18013	-2.20714	12.0063	-6.00522	4.8846	0.00568286	-18.2531	-7.44686	-5.4508	-1.13745	-2.84909	-1.10056	-1.78247	-0.0458678	-0.259694	-0.0235781	-1.51758	1.25283	0.793493	-2.1324	0.00387727	-0.16138	0.20805
5.04809	-60.8051	13.2782	6.26399	-23.8234	-265.964	-20.8438	36.5258	20.2747	-4.64644	35.0867	48.5748	2.86468	0.0517552	4.97421	13.86	-2.68423	16.6536	-8.29829	6.27544	-0.0057057	-17.969	-3.23446	-6.33408	-1.70336	-2.71896	-1.05198	-1.99053	-0.047636	-0.276448	-0.00908055	-1.63068	1.18727	0.803748	-2.21005	0.00611968	-0.167716	0.215114
5.05807	-55.0835	18.3532	5.44422	-57.9642	-250.312	-33.5133	35.6448	16.4508	-4.21464	33.8327	39.9785	2.61346	0.0415246	4.35419	20.0419	-3.38908	22.4765	-10.7902	7.56833	-0.0136206	-22.2567	-0.377918	-7.73769	-2.5269	-2.30445	-0.895199	-2.36022	-0.0486948	-0.307623	0.0281467	-1.71132	0.845271	0.729484	-2.3894	0.00460824	-0.193836	0.222991
5.06806	-48.5689	20.5548	4.91948	-95.2325	-242.073	-31.2074	33.1625	13.827	-3.64985	31.6565	31.6507	2.2537	0.0289002	3.14614	24.498	-4.20983	28.8903	-13.2	8.4942	-0.017914	-23.2301	1.00132	-8.18687	-2.90294	-1.7158	-0.689663	-2.49288	-0.0449281	-0.309572	0.055785	-1.63849	0.369839	0.574579	-2.41152	0.00114069	-0.20603	0.210468
5.07804	-46.2767	17.7034	3.46665	-139.622	-246.304	-13.1223	28.8924	12.8501	-3.04325	28.3324	23.9229	1.82568	0.0162764	3.1818	26.2667	-5.09808	35.0011	-15.2609	8.88345	-0.0191956	-17.5637	1.17096	-7.01874	-2.55404	-1.04762	-0.47515	-2.23759	-0.0352287	-0.266123	0.0594984	-1.38762	-0.139716	0.354668	-2.18239	-0.00305521	-0.190653	0.170619
5.08803	-42.1828	17.3136	2.68427	-169.569	-240.451	-1.30616	26.6217	11.2577	-2.45911	23.5169	17.3431	1.30301	0.000743867	2.70465	29.674	-6.16173	41.0106	-16.9114	8.78935	-0.0174007	-16.2785	1.40456	-6.34782	-2.47257	-0.413482	-0.254925	-2.15608	-0.0278848	-0.243399	0.076503	-1.20786	-0.637385	0.152349	-2.07654	-0.00794764	-0.191091	0.142529
5.09802	-38.0526	18.5872	2.49242	-186.578	-227.504	3.53878	26.4921	9.12876	-2.00368	17.3084	12.1234	0.751312	-0.0172149	2.23918	33.9241	-7.30468	46.4475	-18.0067	8.14081	-0.0131301	-18.2516	1.80663	-6.08934	-2.59336	0.120462	-0.0554402	-2.20721	-0.0229927	-0.237964	0.10122	-1.11077	-1.06482	-0.0126403	-2.07167	-0.0127853	-0.202813	0.126243
5.108	-33.5304	20.8769	2.65343	-191.102	-209.025	1.15381	28.1176	6.75953	-1.79598	10.0835	8.30095	0.23727	-0.0360887	1.7017	38.6139	-8.42726	51.1337	-18.4692	6.92116	-0.00731304	-23.2433	2.56045	-6.27202	-2.88592	0.515342	0.107143	-2.37503	-0.0209032	-0.248995	0.130869	-1.07437	-1.38127	-0.127112	-2.15211	-0.0169957	-0.223221	0.122134
5.11799	-30.785	20.2685	2.03481	-195.057	-195.694	1.32996	29.2371	5.70832	-1.92863	2.52397	5.66539	-0.161866	-0.0518297	1.49433	41.5015	-9.33538	54.8178	-18.2312	5.09886	-0.000998465	-25.7369	2.9748	-6.10188	-2.88398	0.742038	0.198062	-2.38959	-0.0189109	-0.246795	0.14314	-0.958682	-1.53512	-0.199174	-2.13097	-0.0193144	-0.228412	0.114556
5.12798	-30.182	17.0529	0.234644	-200.944	-186.469	2.93866	29.6661	5.94183	-2.37462	-4.98672	4.0329	-0.435963	-0.0625413	1.67778	42.7563	-9.9845	57.3945	-17.3158	2.76926	0.00506192	-25.4079	3.36882	-5.70107	-2.65176	0.808985	0.219053	-2.27024	-0.0172759	-0.232896	0.138828	-0.777106	-1.52856	-0.224887	-2.01373	-0.0193144	-0.218324	0.104336
5.13796	-27.7245	12.5571	-2.21699	-200.495	-173.149	1.48189	29.8936	6.79412	-3.0668	-11.9563	3.20111	-0.596706	-0.0679277	1.41354	43.065	-10.3611	59.0647	-15.8166	0.0902827	0.0108199	-26.68	4.20086	-5.47787	-2.49674	0.771964	0.211788	-2.21014	-0.0173707	-0.227828	0.136168	-0.627017	-1.43041	-0.215292	-1.93936	-0.0186911	-0.212194	0.101126
5.14795	-25.0777	7.81916	-5.12188	-195.398	-158.154	-3.03329	29.4727	7.95693	-3.83922	-18.0393	2.89309	-0.6552	-0.067241	1.64003	42.9058	-10.5271	59.5884	-13.7896	-2.76364	0.0157093	-28.2394	5.28112	-5.29919	-2.33346	0.647602	0.175307	-2.15515	-0.018466	-0.225167	0.131035	-0.477658	-1.25161	-0.177928	-1.86916	-0.0172828	-0.205169	0.10111
5.15793	-25.5273	-0.699602	-9.11838	-198.264	-150.902	-2.94299	26.8947	10.0443	-4.51529	-22.932	2.80198	-0.619888	-0.0595848	2.86718	40.2877	-10.3655	58.9248	-11.2781	-5.68733	0.0194497	-24.3028	6.02434	-3.96467	-1.67356	0.441733	0.0960399	-1.83175	-0.0169759	-0.192738	0.103296	-0.235198	-0.974279	-0.14147	-1.62229	-0.01452	-0.175098	0.0858442
5.16792	-25.6082	-7.97824	-12.4084	-191.511	-137.544	-8.45531	25.0826	11.2281	-5.11528	-26.8506	2.90815	-0.540047	-0.0498234	4.47638	37.7877	-10.0844	57.3438	-8.44491	-8.43528	0.0223246	-22.8076	7.08986	-2.71457	-1.15992	0.212857	0.024954	-1.61617	-0.0164872	-0.172526	0.0844383	-0.0866555	-0.698694	-0.0998482	-1.46839	-0.0126962	-0.156691	0.0776001
5.17791	-23.9128	-14.5357	-15.37	-178.889	-118.734	-17.7135	23.7361	11.9995	-5.76833	-29.6145	3.06769	-0.415445	-0.0397638	5.46154	35.264	-9.6798	55.3274	-5.42405	-10.8726	0.0247617	-23.4687	8.52122	-1.5775	-0.794491	-0.0207948	-0.033184	-1.5004	-0.0167772	-0.163309	0.07432	-0.0258687	-0.437846	-0.0568069	-1.39796	-0.0117809	-0.14897	0.0754678
5.18789	-25.7451	-22.0799	-19.1952	-172.052	-104.436	-26.4783	21.9559	12.9331	-6.41591	-31.3376	3.14941	-0.261146	-0.0296031	6.87006	32.0781	-9.16719	52.7198	-2.27803	-12.9224	0.026481	-19.9882	10.4879	0.150354	-0.165849	-0.254909	-0.105713	-1.2272	-0.0155557	-0.135013	0.050784	0.145328	-0.138125	-0.0223967	-1.19423	-0.0093637	-0.124337	0.06156
5.19788	-27.22	-28.4946	-22.9404	-165.909	-87.7393	-36.3584	20.5021	13.6801	-7.16772	-32.1078	3.12792	-0.0861659	-0.0206303	7.41501	29.1982	-8.63209	50.0529	0.851315	-14.4887	0.0279594	-16.3867	12.7154	1.76232	0.400697	-0.447306	-0.165083	-0.981688	-0.0143854	-0.108683	0.0297451	0.319208	0.12423	0.00247275	-1.00007	-0.0070174	-0.101152	0.0474089
5.20787	-27.9227	-31.9747	-25.5399	-157.446	-66.9062	-48.7793	20.0766	13.8973	-8.00727	-32.1151	3.0181	0.0916398	-0.0138804	6.8775	27.5689	-8.18838	47.5214	3.8736	-15.5187	0.0292318	-14.1504	14.8554	2.84364	0.774285	-0.593185	-0.209506	-0.836187	-0.0141323	-0.0932502	0.0161815	0.461303	0.322889	0.0236789	-0.873814	-0.0051815	-0.0861308	0.0385526
5.21785	-26.1444	-32.3156	-26.7707	-149.019	-42.8853	-63.4191	19.9792	13.5533	-8.77041	-31.2966	2.80149	0.256274	-0.00892084	4.54909	27.2747	-7.85337	45.4546	6.72921	-16.0252	0.0303742	-13.4047	16.8838	3.33313	0.947967	-0.686143	-0.237708	-0.792712	-0.0148123	-0.089022	0.0103844	0.579199	0.454354	0.0411919	-0.815542	-0.00386009	-0.0793516	0.0351889
5.22784	-23.1866	-28.9962	-25.7011	-134.247	-13.4338	-80.564	21.1572	12.3131	-9.34037	-30.1668	2.54555	0.381237	-0.00622346	1.484	28.8155	-7.70116	43.6288	9.41718	-16.0475	0.0312483	-15.8216	18.4134	3.14847	0.865753	-0.72864	-0.244426	-0.906309	-0.0166793	-0.102805	0.0172437	0.612173	0.488333	0.0519905	-0.891917	-0.00423525	-0.089078	0.0417028
5.23782	-18.4188	-23.6673	-22.9386	-113.382	20.3101	-97.2346	22.0546	10.4438	-9.43814	-28.6939	2.22061	0.451027	-0.00419077	-1.07314	31.4074	-7.65956	41.7903	11.9734	-15.6908	0.0318901	-21.4962	19.3592	2.63488	0.617815	-0.714381	-0.222228	-1.14581	-0.0188898	-0.130792	0.0362939	0.549844	0.414717	0.0433058	-1.09726	-0.00705508	-0.115656	0.0557422
5.24781	-14.422	-16.96	-18.6425	-90.6388	54.0248	-111.687	21.6869	7.87544	-8.85511	-26.9349	1.83815	0.448173	-0.00209753	-1.85152	34.6157	-7.69989	39.6327	14.4446	-15.065	0.0321811	-27.7752	19.4262	2.16168	0.412679	-0.67425	-0.194894	-1.39101	-0.0206015	-0.159832	0.0562261	0.465036	0.273771	0.0171634	-1.34271	-0.0112881	-0.147139	0.0703836
5.2578	-12.0372	-9.66732	-13.1611	-67.827	84.818	-123.124	20.3752	4.62093	-7.6831	-25.0468	1.45187	0.374457	-0.000326449	-1.13019	37.8478	-7.73805	37.2543	16.8487	-14.2809	0.0321944	-33.485	18.6139	1.87072	0.332376	-0.633195	-0.175926	-1.5863	-0.0216139	-0.183996	0.0716843	0.394852	0.102029	-0.0199794	-1.57927	-0.016146	-0.177097	0.0826792
5.26778	-12.826	-3.02728	-7.03076	-50.3299	104.729	-131.878	18.2574	1.04126	-6.05215	-21.8561	0.344068	0.244013	0.000135272	-0.0456725	40.4368	-7.7215	34.9092	19.1953	-13.4432	0.0319686	-35.3435	17.3155	2.15832	0.571569	-0.613402	-0.184925	-1.60352	-0.0212361	-0.188209	0.0709369	0.454648	-0.0297466	-0.062957	-1.681	-0.0196503	-0.189535	0.0835558
5.27777	-16.0312	2.52342	-1.26755	-39.6515	119.345	-137.247	16.6272	-2.66323	-4.5149	-20.415	0.402103	0.0826397	-0.000389164	1.00467	42.241	-7.61956	32.7413	21.4977	-12.6175	0.0316157	-34.3762	15.5675	2.89387	1.03671	-0.595542	-0.208006	-1.48322	-0.0196346	-0.176692	0.0587652	0.607618	-0.137663	-0.113547	-1.67319	-0.0221629	-0.188438	0.0751747
5.28775	-20.8489	6.02103	3.37888	-38.2198	122.705	-142.149	14.5759	-5.95969	-3.03173	-18.6056	0.488203	-0.0818682	-0.00190598	1.24651	43.1551	-7.45236	30.8915	23.7753	-11.8552	0.0311823	-29.3791	14.4784	4.3384	1.75906	-0.564557	-0.235885	-1.20136	-0.0165178	-0.144842	0.0342357	0.895175	-0.186555	-0.174547	-1.50792	-0.0227869	-0.168716	0.0533208
5.29774	-24.282	9.07244	7.93656	-25.3792	128.391	-141.716	12.3827	-9.25639	-1.35814	-16.9874	0.576183	-0.267321	-0.00291971	3.78033	43.8373	-7.18889	28.6176	26.1006	-11.1623	0.0302035	-28.9365	12.8782	5.30881	2.26255	-0.524687	-0.245201	-1.06476	-0.0144001	-0.130954	0.023211	1.05999	-0.304713	-0.238435	-1.48498	-0.0257884	-0.167736	0.0424751
5.30773	-27.2173	11.0866	11.228	-19.4743	125.005	-140.107	9.44734	-11.9338	0.189572	-14.9308	0.658874	-0.434535	-0.00431402	5.50976	43.8477	-6.85568	26.7135	28.4372	-10.5667	0.0292448	-26.4824	11.7317	6.19999	2.78659	-0.494844	-0.267171	-0.872201	-0.0124936	-0.110438	0.00613324	1.30431	-0.36118	-0.286358	-1.37676	-0.0267246	-0.155646	0.0277741
5.31771	-28.7997	12.0102	12.9489	-20.8897	114.742	-137.255	5.63246	-13.5108	1.46777	-12.3778	0.725147	-0.563266	-0.00621123	6.18317	43.5097	-6.53926	25.2257	30.783	-10.0611	0.0285575	-22.4231	11.2339	6.98978	3.2738	-0.419725	-0.277717	-0.652861	-0.0104243	-0.0851288	-0.0123619	1.60938	-0.399043	-0.333043	-1.20203	-0.0261897	-0.135854	0.00902321
5.3277	-27.248	14.935	14.3272	-10.9938	108.542	-132.777	0.96289	-15.2447	2.83594	-9.88318	0.778474	-0.694044	-0.00778927	8.89797	44.0991	-6.27729	23.4438	33.1774	-9.6092	0.0280928	-24.0615	10.9488	6.61741	3.28962	-0.283499	-0.248579	-0.675289	-0.0100945	-0.0878694	-0.00879039	1.74124	-0.541187	-0.374747	-1.22157	-0.0279261	-0.140906	0.00723044
5.33769	-24.1129	17.3258	14.4429	0.174342	100.59	-123.12	-4.22734	-15.3007	3.779	-7.04121	0.798788	-0.757393	-0.00977611	12.0924	44.9241	-6.01705	21.7223	35.6097	-9.23176	0.0276986	-27.1516	10.4492	5.65787	3.10654	-0.0962698	-0.200463	-0.767424	-0.010108	-0.0984379	0.00177016	1.81461	-0.73812	-0.415145	-1.28974	-0.0301105	-0.152065	0.010538
5.34767	-19.8381	18.1431	13.2371	3.04482	85.412	-112.179	-9.94641	-13.8717	4.26069	-3.70239	0.807691	-0.756701	-0.0128807	13.8589	45.4101	-5.78972	20.4828	38.0484	-8.94429	0.0274401	-27.937	10.1961	5.08295	3.00168	0.179835	-0.121542	-0.776827	-0.00831372	-0.0964335	0.00987477	1.9246	-0.960226	-0.480306	-1.27201	-0.0317951	-0.154449	0.00471411
5.35766	-14.3401	17.6409	10.9409	-0.101282	64.8593	-101.654	-15.8898	-11.0171	4.32618	-0.0511317	0.799897	-0.695258	-0.0168391	14.2949	45.9271	-5.65595	19.7345	40.4829	-8.73149	0.0273755	-27.0882	10.3125	4.82383	2.93403	0.533936	-0.0116967	-0.73412	-0.00506135	-0.0855516	0.017852	2.05058	-1.20483	-0.566999	-1.19401	-0.0332158	-0.151224	-0.00802368
5.36764	-7.86163	16.5873	7.98393	1.55611	47.4072	-88.0833	-21.7761	-7.12053	4.15413	3.57677	0.757634	-0.589545	-0.0207424	15.5451	46.7528	-5.53217	18.9756	42.9357	-8.58516	0.0276009	-28.2302	10.3462	4.35728	2.73072	0.966503	0.135236	-0.760223	-0.00126399	-0.0813398	0.0354072	2.08959	-1.54657	-0.675976	-1.18694	-0.0364623	-0.158359	-0.0175434
5.37763	-1.06521	14.41	4.71243	0.45522	24.9483	-73.5334	-27.3897	-2.23201	3.74094	7.30168	0.683623	-0.443153	-0.0246066	15.9972	47.5972	-5.44793	18.5639	45.4045	-8.50757	0.0276755	-28.0694	10.1896	4.30488	2.61544	1.45291	0.30433	-0.718047	0.00409522	-0.0673776	0.0512095	2.13349	-1.91275	-0.807149	-1.12455	-0.0398551	-0.160424	-0.0338453
5.38762	5.92477	12.4125	1.41861	6.53447	7.05289	-56.2987	-32.6792	2.9716	3.26613	10.8094	0.549642	-0.281379	-0.0270045	17.6444	48.8289	-5.32224	18.0399	47.8994	-8.48969	0.0279639	-30.1665	9.7449	3.97438	2.38678	1.96115	0.487503	-0.741108	0.009397	-0.0613937	0.0738992	2.09139	-2.34451	-0.9458	-1.13892	-0.0448172	-0.17243	-0.044865
5.3976	13.4639	7.88807	-2.61957	4.59748	-16.9385	-41.2099	-37.9883	8.95211	2.65219	14.617	0.320979	-0.0999601	-0.0271525	17.3716	49.223	-5.18618	18.1134	50.392	-8.55282	0.0282957	-28.7402	9.66428	4.57668	2.40738	2.48935	0.679926	-0.620019	0.0165475	-0.0361955	0.0878271	2.13682	-2.72138	-1.10262	-1.01741	-0.0485453	-0.169543	-0.069113
5.40759	21.523	2.00361	-7.32666	1.27014	-41.2368	-27.8951	-43.5809	15.182	2.03959	18.6251	-0.0442543	0.0797844	-0.0233323	16.5771	49.1244	-5.02429	18.4908	52.8942	-8.68523	0.0289262	-26.0224	10.008	5.4686	2.49901	2.9979	0.86815	-0.460647	0.0238651	-0.00588603	0.098702	2.22008	-3.0474	-1.25637	-0.848409	-0.0514176	-0.161155	-0.0970047
5.41758	29.392	-2.66797	-12.0333	5.96627	-60.5302	-13.788	-49.2622	20.5172	1.51443	22.4578	-0.528937	0.218814	-0.0150227	17.1834	49.2429	-4.78093	18.7129	55.441	-8.86774	0.0296285	-25.3049	10.3734	5.8555	2.44996	3.45734	1.04173	-0.382278	0.029837	0.0131273	0.113923	2.24555	-3.36985	-1.39007	-0.752302	-0.0546746	-0.160537	-0.116683
5.42756	36.3423	-5.6695	-16.2661	17.8929	-75.2196	2.49067	-54.9199	24.7402	1.05891	26.0457	-1.09615	0.30851	-0.00308088	19.2885	49.6239	-4.42355	18.7335	58.032	-9.08899	0.0302267	-26.3682	10.2323	5.83262	2.31878	3.85834	1.19296	-0.356073	0.0347128	0.0235733	0.130587	2.2159	-3.69579	-1.50579	-0.719689	-0.0584289	-0.16612	-0.129243
5.43755	41.9232	-8.73647	-20.0056	28.1666	-90.9106	17.1158	-60.4236	28.2631	0.639454	29.4612	-1.69939	0.363573	0.0107968	21.1512	49.8495	-4.06571	18.9136	60.622	-9.33878	0.0307009	-25.7424	9.82999	6.25956	2.35057	4.20997	1.32338	-0.253975	0.0398381	0.0424389	0.13955	2.23964	-3.96097	-1.61655	-0.625483	-0.0612568	-0.163637	-0.146686
5.44753	46.0786	-11.8552	-23.4857	35.8345	-107.268	29.0344	-65.6344	31.1237	0.280899	32.5665	-2.28521	0.392088	0.0249624	22.6755	49.9995	-3.77539	19.2892	63.1685	-9.59382	0.0312044	-23.4518	9.54141	6.93067	2.45994	4.52396	1.43837	-0.112768	0.0448038	0.0660566	0.143583	2.30673	-4.16268	-1.71682	-0.484647	-0.0628705	-0.154646	-0.167084
5.45752	48.3317	-11.7493	-26.1893	49.741	-118.333	40.7277	-70.172	32.3943	0.0403775	34.8881	-2.79227	0.386062	0.0381205	25.651	51.0301	-3.50215	19.4741	65.6396	-9.81122	0.0318427	-23.4839	9.05239	6.65313	2.32099	4.76833	1.52509	-0.0945952	0.0475445	0.0724859	0.152644	2.27931	-4.36211	-1.77906	-0.45155	-0.0645178	-0.155607	-0.174271
5.46751	49.6023	-14.5149	-29.2402	50.3929	-134.103	46.9829	-74.006	33.8752	-0.108097	36.771	-3.21223	0.397003	0.048943	26.3549	50.8717	-3.37643	20.2764	67.9294	-9.99715	0.0327483	-18.836	9.16008	7.25725	2.38194	5.02369	1.61695	0.0366524	0.0513796	0.0955901	0.153405	2.35725	-4.46082	-1.8459	-0.282367	-0.0638234	-0.140417	-0.193764
5.47749	48.647	-15.6497	-31.5803	50.1825	-148.995	48.3658	-76.3538	34.3392	-0.157769	37.7166	-3.50876	0.405228	0.057101	26.5758	51.3238	-3.5027	21.2606	69.9884	-10.0781	0.0340293	-13.8765	9.73997	7.27726	2.24596	5.24518	1.69617	0.0879636	0.0536252	0.109344	0.157341	2.39669	-4.50988	-1.87909	-0.147257	-0.0617799	-0.126952	-0.206576
5.48748	44.6977	-12.8723	-32.8103	63.7739	-155.959	54.1894	-75.8002	33.2501	-0.139315	37.2044	-3.66524	0.40705	0.0626322	28.7459	52.8186	-3.63248	21.9377	71.7833	-10.0275	0.0355953	-14.2982	10.3723	5.41539	1.55723	5.43317	1.76442	-0.120611	0.0527703	0.0893537	0.178144	2.20628	-4.64055	-1.86594	-0.242619	-0.0611517	-0.13778	-0.194643
5.49747	38.2326	-9.06822	-32.5041	78.7462	-160.525	60.5108	-72.8636	31.1888	-0.10199	35.5375	-3.69491	0.403174	0.0655634	30.6765	54.3569	-3.82232	22.7222	73.1911	-9.82925	0.0373127	-15.7204	10.6155	3.46067	0.806963	5.61365	1.83349	-0.363778	0.051989	0.0649292	0.201794	1.91255	-4.80626	-1.85116	-0.397705	-0.061483	-0.154916	-0.178438
5.50745	29.6556	-3.43377	-31.013	94.8247	-162.773	65.5211	-68.0803	27.6894	-0.126304	32.8767	-3.60392	0.365231	0.0663392	32.2655	55.8579	-4.12529	23.646	74.0827	-9.46932	0.0394847	-17.9656	10.6671	1.23706	-0.0477544	5.7788	1.89947	-0.652761	0.0508467	0.0346424	0.228434	1.5288	-4.98434	-1.82462	-0.605983	-0.0621737	-0.177184	-0.156943
5.51744	19.8301	1.98755	-28.5416	102.808	-165.057	68.7831	-62.1463	23.4443	-0.205367	29.5198	-3.39963	0.297966	0.0647345	32.3634	56.4445	-4.52458	24.9054	74.3282	-8.9536	0.0415851	-18.4454	10.0966	-0.417262	-0.765404	5.93901	1.96423	-0.870173	0.0507282	0.0136764	0.249916	1.13984	-5.13991	-1.80498	-0.768417	-0.0625393	-0.193637	-0.140875
5.52742	9.9752	6.4854	-26.2643	99.9901	-165.808	67.2189	-56.096	18.7478	-0.348501	25.8951	-3.10041	0.197096	0.0608781	30.8154	55.7421	-4.99909	26.4898	73.7905	-8.30407	0.0439886	-16.3207	9.62581	-1.57174	-1.38444	6.09928	2.03064	-1.03255	0.051207	0.00107032	0.267188	0.780623	-5.23413	-1.78386	-0.869022	-0.0616562	-0.202256	-0.130471
5.53741	-1.08214	11.3891	-23.7293	100.3	-157.349	66.696	-49.4451	13.437	-0.467803	21.8673	-2.71066	0.0751024	0.0547064	30.4697	54.6299	-5.34385	27.7406	72.4247	-7.56696	0.046118	-15.9292	9.16244	-3.01727	-2.08432	6.22931	2.08752	-1.2572	0.0510119	-0.0202309	0.287912	0.348813	-5.34721	-1.75217	-1.04879	-0.0616801	-0.219188	-0.113142
5.5474	-12.1011	14.9766	-21.4964	99.7711	-140.773	67.2988	-43.1598	8.3436	-0.53905	17.9366	-2.24146	-0.0589433	0.0458145	31.176	52.5579	-5.42259	28.6109	70.1434	-6.81669	0.0476795	-16.06	8.61694	-4.14479	-2.69004	6.33482	2.13795	-1.46901	0.051135	-0.040685	0.307422	-0.0990416	-5.46214	-1.72593	-1.25116	-0.0625573	-0.238777	-0.095754
5.55738	-22.3856	15.6691	-19.8815	88.6763	-119.959	63.6706	-38.2065	4.39285	-0.60369	14.7298	-1.72593	-0.19302	0.0343946	31.3882	49.2524	-5.37317	29.2067	66.8408	-6.13046	0.0490548	-13.1119	8.05956	-4.32824	-3.01854	6.40959	2.17554	-1.56625	0.0520865	-0.0466895	0.317007	-0.436721	-5.48569	-1.70453	-1.35314	-0.06213	-0.246317	-0.0882914
5.56737	-31.683	13.9645	-19.1923	81.5011	-86.2021	64.287	-34.1864	1.84785	-0.604667	12.1257	-1.20512	-0.304593	0.0215683	33.9151	45.0303	-4.87826	28.951	62.5923	-5.64626	0.0491288	-12.161	7.4839	-4.42043	-3.24701	6.40242	2.182	-1.67424	0.0523289	-0.0572025	0.324389	-0.767069	-5.49892	-1.67616	-1.50949	-0.0628379	-0.259618	-0.0766313
5.57736	-40.9254	7.7275	-18.8382	70.4763	-46.9459	65.3092	-30.1469	1.16683	-0.615091	9.93339	-0.721481	-0.367155	0.00880504	36.7705	39.4023	-3.98375	28.0349	57.4211	-5.47099	0.0478654	-9.57641	6.70397	-3.40228	-3.08761	6.30978	2.15493	-1.64668	0.0531914	-0.0533487	0.318836	-0.962107	-5.42351	-1.65539	-1.57891	-0.063147	-0.262856	-0.074253
5.58734	-51.9404	-0.326518	-18.4287	68.1521	2.73781	68.705	-24.7907	1.02699	-0.618493	7.38045	-0.259521	-0.394839	-0.00317274	41.6155	33.1499	-2.69756	26.0408	51.5071	-5.71677	0.0450586	-8.86473	5.82382	-2.49363	-2.82114	6.06386	2.06552	-1.62376	0.0521502	-0.0553693	0.306895	-1.09672	-5.27723	-1.60431	-1.68014	-0.0634511	-0.267899	-0.0661207
5.59733	-59.8101	-11.7201	-19.6806	57.7138	55.3181	68.3093	-19.9568	2.53355	-0.644766	5.28424	0.103846	-0.365716	-0.0131067	44.5054	25.3311	-1.14346	23.738	44.9902	-6.42505	0.0413158	-5.99023	5.60911	-0.918559	-2.31598	5.74183	1.9476	-1.50911	0.0508221	-0.0473	0.285198	-1.07608	-5.0038	-1.54326	-1.67916	-0.0619915	-0.26091	-0.065316
5.60731	-65.7323	-20.7094	-21.4027	69.2398	121.569	76.3	-14.5637	3.77455	-0.619421	2.82806	0.3857	-0.320305	-0.019992	50.4295	17.6803	0.770948	20.2575	38.3499	-7.61807	0.0340107	-11.0194	4.95571	-0.941887	-2.06713	5.19945	1.74619	-1.57533	0.0452317	-0.0707678	0.2685	-1.15271	-4.73953	-1.42014	-1.88607	-0.0625093	-0.275446	-0.0392345
5.6173	-67.2116	-29.3062	-24.2775	66.5822	183.175	75.0843	-11.4017	5.58802	-0.645145	1.31186	0.497355	-0.255762	-0.0225551	52.6793	9.89653	2.58643	16.7028	31.7031	-9.1081	0.0256432	-12.2688	4.81899	-0.375871	-1.65481	4.6631	1.54591	-1.53429	0.0401456	-0.0794321	0.243813	-1.06883	-4.37279	-1.29904	-1.94115	-0.0604778	-0.272929	-0.0249146
5.62729	-64.9188	-37.0305	-28.185	50.9952	237.671	65.047	-10.1713	7.73497	-0.767745	0.686107	0.451176	-0.176871	-0.0211263	51.176	2.45122	4.16083	13.1672	25.3429	-10.6764	0.0173057	-9.72327	5.68269	0.518739	-1.18827	4.21363	1.3758	-1.42107	0.0358652	-0.0754091	0.216438	-0.835847	-3.94406	-1.18935	-1.85149	-0.0559406	-0.255085	-0.0223059
5.63727	-60.1941	-42.8137	-31.9218	27.2049	286.398	51.1902	-10.4794	9.8922	-0.932875	0.734653	0.27872	-0.0885964	-0.0165116	47.285	-3.89598	5.38497	9.48556	19.5723	-12.0228	0.00889651	-5.21517	6.80122	1.59982	-0.705054	3.86635	1.24023	-1.26305	0.0327217	-0.0629059	0.189205	-0.542524	-3.53504	-1.10173	-1.68427	-0.0506102	-0.22983	-0.0275767
5.64726	-54.6687	-46.3122	-34.6585	20.3462	338.006	45.2744	-10.5036	11.8747	-1.08064	0.703466	0.0469041	0.00952621	-0.0101474	45.404	-8.49987	6.27971	5.12032	14.7234	-12.8392	-0.00187541	-6.02084	7.52283	1.85537	-0.407057	3.53803	1.11404	-1.2183	0.0290042	-0.0665341	0.17239	-0.347227	-3.26181	-1.02405	-1.656	-0.0483322	-0.222465	-0.021736
5.65725	-48.8402	-48.6908	-35.8905	12.4068	381.088	38.9796	-10.7747	14.2447	-1.23564	0.995362	-0.233732	0.128361	-0.00305737	42.2915	-10.8154	6.52513	0.733913	10.7006	-12.7393	-0.0123397	-5.6597	8.37338	2.56641	-0.0214087	3.3343	1.03454	-1.11023	0.0272913	-0.0593729	0.156583	-0.098656	-3.05287	-0.989614	-1.56135	-0.0465588	-0.210577	-0.0256509
5.66723	-43.0285	-50.3936	-35.811	3.71516	416.976	32.4985	-10.8997	17.0224	-1.40862	1.48455	-0.527603	0.265741	0.00378647	38.0764	-10.9178	6.10332	-3.45432	7.42146	-11.4948	-0.0207959	-4.3954	9.64026	3.62626	0.402098	3.25782	1.00435	-0.967842	0.0273816	-0.0445845	0.143979	0.174842	-2.9105	-0.994412	-1.42566	-0.0454004	-0.196832	-0.0371202
5.67722	-37.8231	-50.1398	-34.0227	13.0949	452.968	32.1671	-9.60622	19.4305	-1.56322	1.52323	-0.774985	0.397648	0.00960158	35.7152	-8.61761	4.9718	-7.62878	4.87111	-9.04364	-0.0282039	-8.03346	10.7695	3.91728	0.617389	3.21764	0.99471	-0.948276	0.0271464	-0.0458055	0.143764	0.338654	-2.89701	-1.01078	-1.43014	-0.0472194	-0.201436	-0.0379007
5.6872	-32.9548	-49.7295	-31.2192	21.3081	481.884	31.5879	-7.74899	22.215	-1.74258	1.59471	-0.995393	0.542036	0.0142388	32.2783	-4.47819	3.16093	-11.1979	2.76351	-5.44646	-0.030955	-10.7634	12.3894	4.41779	0.818854	3.28316	1.02829	-0.916574	0.0283115	-0.0421336	0.147537	0.50275	-2.93076	-1.05491	-1.40964	-0.049373	-0.205231	-0.0438513
5.69719	-28.634	-49.1031	-27.9517	26.4473	504.797	29.9978	-5.5323	25.0127	-1.94228	1.68078	-1.1769	0.685736	0.0175993	27.8515	0.817371	0.815829	-14.169	0.982429	-0.992755	-0.0279289	-12.1935	14.6022	4.98975	0.967519	3.45603	1.10304	-0.884552	0.0305743	-0.0347331	0.155411	0.667361	-2.9976	-1.11875	-1.36264	-0.0513252	-0.207299	-0.0541262
5.70718	-25.072	-48.282	-24.8738	22.6625	521.525	26.8328	-3.55958	27.6603	-2.15956	1.90001	-1.31923	0.819	0.0197467	22.4262	6.33853	-1.77324	-16.7413	-0.439526	3.75812	-0.0197187	-11.1011	17.1988	5.61623	1.06169	3.7223	1.20859	-0.836905	0.0336847	-0.0217452	0.164429	0.834358	-3.06577	-1.1904	-1.26577	-0.0520613	-0.203422	-0.069311
5.71716	-23.0372	-46.7535	-21.8186	17.5519	536.606	25.2952	-1.73639	29.6325	-2.35809	1.99536	-1.4096	0.922747	0.0208498	18.2128	11.5519	-4.42708	-19.6454	-1.30614	8.3577	-0.0103559	-9.92458	19.2813	5.96948	1.07554	3.98484	1.30835	-0.812285	0.0364606	-0.0117385	0.173891	0.94821	-3.1398	-1.24993	-1.19224	-0.0525297	-0.200692	-0.0813171
5.72715	0	0	0	0	0	0	0	0	0	0	0	0	0	0	0	0	0	0	0	0	0	0	0	0	0	0	0	0	0	0	0	0	0	0	0	0	0
