nColumns=19
nRows=326
DataType=double
version=3
OpenSimVersion=4.1
endheader
time	ground_force_calcn_l_vx	ground_force_calcn_l_vy	ground_force_calcn_l_vz	ground_force_calcn_l_px	ground_force_calcn_l_py	ground_force_calcn_l_pz	ground_force_calcn_l_mx	ground_force_calcn_l_my	ground_force_calcn_l_mz	ground_force_calcn_r_vx	ground_force_calcn_r_vy	ground_force_calcn_r_vz	ground_force_calcn_r_px	ground_force_calcn_r_py	ground_force_calcn_r_pz	ground_force_calcn_r_mx	ground_force_calcn_r_my	ground_force_calcn_r_mz
0	0	0	0	0	0.058744	0	0	0	0	0	0	0	0	0.0240164	0	0	0	0
0.00398773	0	0	0	0	-0.00586269	0	0	0	0	-5.09614	-43.0366	15.666	0.259658	-0.00586269	0.410294	0.0401763	0.339287	-0.123506
0.00797546	0	0	0	0	-0.00586025	0	0	0	0	-4.76501	-13.639	9.40401	0.259547	-0.00586025	0.406488	0.0401591	0.114948	-0.0792562
0.0119632	0	0	0	0	-0.0058578	0	0	0	0	-4.42961	15.8065	3.12698	0.258299	-0.0058578	0.421934	0.00551556	-0.0196816	-0.00389358
0.0159509	0	0	0	0	-0.00585534	0	0	0	0	-4.0859	45.333	-3.17694	0.260052	-0.00585534	0.420242	0.0202772	-0.224975	0.0157663
0.0199387	0	0	0	0	-0.00585287	0	0	0	0	-3.72864	74.969	-9.52046	0.260258	-0.00585287	0.420457	0.0212082	-0.426418	0.0541516
0.0239264	0	0	0	0	-0.00585037	0	0	0	0	-3.35149	104.732	-15.9155	0.260381	-0.00585037	0.420961	0.0200436	-0.626349	0.0951826
0.0279141	0	0	0	0	-0.00584785	0	0	0	0	-2.94714	134.62	-22.3715	0.260483	-0.00584785	0.421543	0.018083	-0.826001	0.137267
0.0319018	0	0	0	0	-0.0058453	0	0	0	0	-2.50732	164.606	-28.8944	0.260572	-0.0058453	0.422157	0.0156209	-1.02551	0.180015
0.0358896	0	0	0	0	-0.00584272	0	0	0	0	-2.02294	194.632	-35.4847	0.260649	-0.00584272	0.422802	0.0127271	-1.22451	0.223249
0.0398773	0	0	0	0	-0.00584011	0	0	0	0	-1.48418	224.608	-42.1367	0.26071	-0.00584011	0.423486	0.00939826	-1.42228	0.266821
0.043865	0	0	0	0	-0.00583748	0	0	0	0	-0.880396	254.438	-48.8375	0.260754	-0.00583748	0.424219	0.00559782	-1.61779	0.310523
0.0478528	0	0	0	0	-0.00583484	0	0	0	0	-0.201275	284.049	-55.5653	0.260777	-0.00583484	0.425011	0.00128246	-1.80986	0.354043
0.0518405	0	0	0	0	-0.00583219	0	0	0	0	0.560577	313.38	-62.2896	0.260777	-0.00583219	0.425868	-0.00357306	-1.99745	0.397028
0.0558282	0	0	0	0	-0.00582954	0	0	0	0	1.40864	342.373	-68.9722	0.260751	-0.00582954	0.426795	-0.00896841	-2.1798	0.439127
0.059816	0	0	0	0	-0.00582691	0	0	0	0	2.34203	370.968	-75.5698	0.2607	-0.00582691	0.427796	-0.0148769	-2.35644	0.480031
0.0638037	0	0	0	0	-0.0058243	0	0	0	0	3.35585	399.108	-82.0377	0.26062	-0.0058243	0.428871	-0.0212504	-2.52729	0.519492
0.0677914	0	0	0	0	-0.00582171	0	0	0	0	4.44198	426.742	-88.334	0.260512	-0.00582171	0.430018	-0.0280271	-2.69257	0.557352
0.0717791	0	0	0	0	-0.00581917	0	0	0	0	5.59052	453.827	-94.4237	0.260375	-0.00581917	0.431237	-0.0351411	-2.85268	0.593532
0.0757669	0	0	0	0	-0.00581666	0	0	0	0	6.79062	480.325	-100.28	0.26021	-0.00581666	0.432524	-0.0425285	-3.0082	0.628038
0.0797546	0	0	0	0	-0.00581419	0	0	0	0	8.03072	506.201	-105.884	0.260019	-0.00581419	0.433876	-0.0501276	-3.1597	0.660924
0.0837423	0	0	0	0	-0.00581177	0	0	0	0	9.29869	531.418	-111.217	0.259803	-0.00581177	0.435288	-0.0578764	-3.30762	0.69223
0.0877301	0	0	0	0	-0.00580939	0	0	0	0	10.5823	555.937	-116.261	0.259564	-0.00580939	0.436752	-0.0657115	-3.45214	0.721934
0.0917178	0	0	0	0	-0.00580706	0	0	0	0	11.8696	579.72	-120.994	0.259305	-0.00580706	0.438263	-0.073566	-3.59302	0.7499
0.0957055	0	0	0	0	-0.00580479	0	0	0	0	13.1494	602.724	-125.386	0.259031	-0.00580479	0.439808	-0.0813689	-3.72968	0.775891
0.0996933	0	0	0	0	-0.00580258	0	0	0	0	14.4114	624.902	-129.405	0.258744	-0.00580258	0.441376	-0.0890473	-3.86123	0.799588
0.103681	0	0	0	0	-0.00580045	0	0	0	0	15.6474	646.203	-133.019	0.258449	-0.00580045	0.442954	-0.0965299	-3.98648	0.820606
0.107669	0	0	0	0	-0.00579839	0	0	0	0	16.8511	666.571	-136.195	0.25815	-0.00579839	0.444531	-0.103754	-4.10413	0.83856
0.111656	0	0	0	0	-0.00579643	0	0	0	0	18.0182	685.95	-138.902	0.257848	-0.00579643	0.446092	-0.110663	-4.21292	0.853099
0.115644	0	0	0	0	-0.00579456	0	0	0	0	19.1448	704.279	-141.116	0.257546	-0.00579456	0.447625	-0.11721	-4.3118	0.863953
0.119632	0	0	0	0	-0.0057928	0	0	0	0	20.2269	721.503	-142.817	0.257247	-0.0057928	0.44912	-0.123348	-4.39988	0.870928
0.12362	0	0	0	0	-0.00579116	0	0	0	0	21.2612	737.565	-143.989	0.256953	-0.00579116	0.450566	-0.129036	-4.47632	0.87388
0.127607	0	0	0	0	-0.00578963	0	0	0	0	22.2451	752.413	-144.627	0.256664	-0.00578963	0.451957	-0.134233	-4.54025	0.872716
0.131595	0	0	0	0	-0.00578821	0	0	0	0	23.1769	766.002	-144.729	0.256382	-0.00578821	0.453284	-0.138904	-4.59081	0.867393
0.135583	0	0	0	0	-0.00578692	0	0	0	0	24.0557	778.289	-144.304	0.256107	-0.00578692	0.454546	-0.14302	-4.62722	0.857939
0.139571	0	0	0	0	-0.00578575	0	0	0	0	24.8807	789.241	-143.364	0.255839	-0.00578575	0.45574	-0.146558	-4.64895	0.844475
0.143558	0	0	0	0	-0.00578469	0	0	0	0	25.651	798.832	-141.932	0.255579	-0.00578469	0.456865	-0.1495	-4.65578	0.827215
0.147546	0	0	0	0	-0.00578373	0	0	0	0	26.365	807.045	-140.034	0.255326	-0.00578373	0.457924	-0.151836	-4.64777	0.806455
0.151534	0	0	0	0	-0.00578288	0	0	0	0	27.0209	813.874	-137.7	0.255079	-0.00578288	0.458919	-0.15356	-4.62527	0.782553
0.155521	0	0	0	0	-0.00578212	0	0	0	0	27.6171	819.323	-134.967	0.254838	-0.00578212	0.459857	-0.154674	-4.58876	0.755908
0.159509	0	0	0	0	-0.00578143	0	0	0	0	28.1521	823.408	-131.874	0.2546	-0.00578143	0.460742	-0.155183	-4.53889	0.726931
0.163497	0	0	0	0	-0.00578082	0	0	0	0	28.625	826.155	-128.462	0.254365	-0.00578082	0.461583	-0.155099	-4.47638	0.696047
0.167485	0	0	0	0	-0.00578026	0	0	0	0	29.035	827.603	-124.773	0.254132	-0.00578026	0.462386	-0.15444	-4.40212	0.663682
0.171472	0	0	0	0	-0.00577975	0	0	0	0	29.3817	827.797	-120.851	0.253898	-0.00577975	0.46316	-0.153231	-4.3171	0.63026
0.17546	0	0	0	0	-0.00577928	0	0	0	0	29.6653	826.791	-116.739	0.253662	-0.00577928	0.463912	-0.151501	-4.22242	0.596188
0.179448	0	0	0	0	-0.00577883	0	0	0	0	29.886	824.648	-112.479	0.253423	-0.00577883	0.464653	-0.149285	-4.11924	0.561851
0.183436	0	0	0	0	-0.00577839	0	0	0	0	30.045	821.436	-108.112	0.253179	-0.00577839	0.46539	-0.146623	-4.00871	0.527598
0.187423	0	0	0	0	-0.00577795	0	0	0	0	30.1439	817.234	-103.675	0.252929	-0.00577795	0.466131	-0.143557	-3.89197	0.493738
0.191411	0	0	0	0	-0.00577751	0	0	0	0	30.1851	812.124	-99.2048	0.252671	-0.00577751	0.466885	-0.140126	-3.77007	0.460532
0.195399	0	0	0	0	-0.00577704	0	0	0	0	30.1713	806.192	-94.7349	0.252404	-0.00577704	0.467658	-0.136375	-3.64399	0.428202
0.199387	0	0	0	0	-0.00577655	0	0	0	0	30.106	799.53	-90.2948	0.252126	-0.00577655	0.468458	-0.132343	-3.51465	0.396926
0.203374	0	0	0	0	-0.00577603	0	0	0	0	29.9927	792.233	-85.911	0.251837	-0.00577603	0.469291	-0.12807	-3.38287	0.366843
0.207362	0	0	0	0	-0.00577546	0	0	0	0	29.8353	784.397	-81.6062	0.251535	-0.00577546	0.470162	-0.123592	-3.24936	0.338053
0.21135	0	0	0	0	-0.00577485	0	0	0	0	29.6377	776.119	-77.4	0.251219	-0.00577485	0.471076	-0.118943	-3.11475	0.310624
0.215337	0	0	0	0	-0.00577419	0	0	0	0	29.404	767.496	-73.3085	0.250889	-0.00577419	0.472036	-0.11415	-2.97951	0.284592
0.219325	0	0	0	0	-0.00577347	0	0	0	0	29.1381	758.621	-69.3451	0.250544	-0.00577347	0.473046	-0.109239	-2.84408	0.259976
0.223313	0	0	0	0	-0.0057727	0	0	0	0	28.8441	749.587	-65.5202	0.250184	-0.0057727	0.474107	-0.104235	-2.7088	0.236772
0.227301	0	0	0	0	-0.00577187	0	0	0	0	28.5257	740.48	-61.8418	0.249808	-0.00577187	0.475224	-0.0991558	-2.57392	0.214963
0.231288	0	0	0	0	-0.00577098	0	0	0	0	28.1868	731.383	-58.3157	0.249417	-0.00577098	0.476396	-0.0940217	-2.43965	0.194522
0.235276	0	0	0	0	-0.00577003	0	0	0	0	27.831	722.372	-54.9457	0.249009	-0.00577003	0.477624	-0.088849	-2.30613	0.175411
0.239264	0	0	0	0	-0.00576901	0	0	0	0	27.4621	713.517	-51.7338	0.248587	-0.00576901	0.478909	-0.0836539	-2.17349	0.157589
0.243252	0	0	0	0	-0.00576794	0	0	0	0	27.0836	704.881	-48.6803	0.248151	-0.00576794	0.48025	-0.0784509	-2.04177	0.141008
0.247239	0	0	0	0	-0.0057668	0	0	0	0	26.6991	696.523	-45.7842	0.2477	-0.0057668	0.481645	-0.0732532	-1.91102	0.125616
0.251227	0	0	0	0	-0.0057656	0	0	0	0	26.3118	688.492	-43.0429	0.247236	-0.0057656	0.483092	-0.0680733	-1.78125	0.111359
0.255215	0	0	0	0	-0.00576435	0	0	0	0	25.9247	680.833	-40.4528	0.24676	-0.00576435	0.48459	-0.0629232	-1.65248	0.098185
0.259202	0	0	0	0	-0.00576304	0	0	0	0	25.5402	673.583	-38.0092	0.246272	-0.00576304	0.486136	-0.0578126	-1.52472	0.0860374
0.26319	0	0	0	0	-0.00576168	0	0	0	0	25.1602	666.773	-35.7062	0.245775	-0.00576168	0.487727	-0.0527498	-1.39793	0.0748602
0.267178	0	0	0	0	-0.00576027	0	0	0	0	24.7862	660.427	-33.5375	0.245269	-0.00576027	0.48936	-0.0477417	-1.27207	0.0645978
0.271166	0	0	0	0	-0.0057588	0	0	0	0	24.4196	654.563	-31.496	0.244755	-0.0057588	0.491033	-0.0427946	-1.1471	0.0551957
0.275153	0	0	0	0	-0.0057573	0	0	0	0	24.0615	649.191	-29.5742	0.244235	-0.0057573	0.492741	-0.0379143	-1.02294	0.0466007
0.279141	0	0	0	0	-0.00575575	0	0	0	0	23.7134	644.319	-27.7644	0.24371	-0.00575575	0.494483	-0.0331066	-0.899542	0.0387622
0.283129	0	0	0	0	-0.00575416	0	0	0	0	23.3766	639.949	-26.0583	0.24318	-0.00575416	0.496254	-0.0283776	-0.776854	0.031633
0.287117	0	0	0	0	-0.00575254	0	0	0	0	23.0527	636.076	-24.4477	0.242648	-0.00575254	0.498052	-0.0237339	-0.654871	0.02517
0.291104	0	0	0	0	-0.00575088	0	0	0	0	22.7436	632.694	-22.9239	0.242112	-0.00575088	0.499873	-0.0191828	-0.533636	0.0193348
0.295092	0	0	0	0	-0.00574919	0	0	0	0	22.4514	629.792	-21.4788	0.241576	-0.00574919	0.501716	-0.0147321	-0.413254	0.0140939
0.29908	0	0	0	0	-0.00574748	0	0	0	0	22.1785	627.357	-20.1042	0.241037	-0.00574748	0.503578	-0.0103899	-0.293896	0.00941816
0.303067	0	0	0	0	-0.00574574	0	0	0	0	21.9272	625.372	-18.7925	0.240499	-0.00574574	0.505456	-0.0061635	-0.175786	0.00528238
0.307055	0	0	0	0	-0.00574398	0	0	0	0	21.7003	623.82	-17.5363	0.239959	-0.00574398	0.507348	-0.00205911	-0.0591936	0.001664
0.311043	0	0	0	0	-0.0057422	0	0	0	0	21.5004	622.683	-16.3286	0.23942	-0.0057422	0.509254	0.00191819	0.0555535	-0.00145678
0.315031	0	0	0	0	-0.0057404	0	0	0	0	21.3306	621.941	-15.1628	0.238881	-0.0057404	0.51117	0.00576406	0.168064	-0.00409736
0.319018	0	0	0	0	-0.00573858	0	0	0	0	21.1935	621.577	-14.0322	0.238343	-0.00573858	0.513096	0.00947546	0.277903	-0.00627371
0.323006	0	0	0	0	-0.00573675	0	0	0	0	21.0921	621.574	-12.9306	0.237805	-0.00573675	0.51503	0.0130505	0.384593	-0.0080007
0.326994	0	0	0	0	-0.00573491	0	0	0	0	21.0292	621.916	-11.8517	0.237267	-0.00573491	0.516972	0.0164883	0.487625	-0.00929254
0.330982	0	0	0	0	-0.00573306	0	0	0	0	21.0075	622.59	-10.789	0.23673	-0.00573306	0.51892	0.0197885	0.586463	-0.010163
0.334969	0	0	0	0	-0.0057312	0	0	0	0	21.0297	623.584	-9.73633	0.236192	-0.0057312	0.520873	0.0229503	0.680533	-0.0106255
0.338957	0	0	0	0	-0.00572934	0	0	0	0	21.0985	624.89	-8.68701	0.235655	-0.00572934	0.522829	0.0259728	0.769253	-0.0106939
0.342945	0	0	0	0	-0.00572747	0	0	0	0	21.2162	626.501	-7.63442	0.235119	-0.00572747	0.524787	0.0288536	0.852027	-0.0103826
0.346933	0	0	0	0	-0.0057256	0	0	0	0	21.385	628.415	-6.57164	0.234582	-0.0057256	0.526745	0.0315886	0.928254	-0.0097072
0.35092	0	0	0	0	-0.00572374	0	0	0	0	21.6068	630.632	-5.49147	0.234047	-0.00572374	0.5287	0.034171	0.997337	-0.0086847
0.354908	0	0	0	0	-0.00572188	0	0	0	0	21.8832	633.151	-4.3864	0.233513	-0.00572188	0.53065	0.0365909	1.05869	-0.0073345
0.358896	0	0	0	0	-0.00572003	0	0	0	0	22.2153	635.979	-3.24858	0.232982	-0.00572003	0.532593	0.0388351	1.11177	-0.00567894
0.362883	0	0	0	0	-0.00571819	0	0	0	0	22.6037	639.12	-2.06984	0.232453	-0.00571819	0.534525	0.0408873	1.15609	-0.00374408
0.366871	0	0	0	0	-0.00571636	0	0	0	0	23.0486	642.582	-0.841607	0.231929	-0.00571636	0.536443	0.0427275	1.19122	-0.00156017
0.370859	0	0	0	0	-0.00571455	0	0	0	0	23.5494	646.373	0.444983	0.231409	-0.00571455	0.538343	0.0443332	1.21683	0.000837706
0.374847	0	0	0	0	-0.00571277	0	0	0	0	24.1051	650.503	1.79912	0.230896	-0.00571277	0.540222	0.0456785	1.23268	0.00340929
0.378834	0	0	0	0	-0.00571101	0	0	0	0	24.714	654.98	3.23022	0.23039	-0.00571101	0.542076	0.0467358	1.23861	0.00610857
0.382822	0	0	0	0	-0.00570928	0	0	0	0	25.3737	659.814	4.74783	0.229892	-0.00570928	0.5439	0.0474757	1.23455	0.00888349
0.38681	0	0	0	0	-0.00570758	0	0	0	0	26.0815	665.013	6.36156	0.229404	-0.00570758	0.54569	0.0478685	1.22053	0.0116757
0.390798	0	0	0	0	-0.00570592	0	0	0	0	26.8341	670.583	8.08088	0.228927	-0.00570592	0.547443	0.0478853	1.19665	0.0144203
0.394785	0	0	0	0	-0.0057043	0	0	0	0	27.6278	676.531	9.915	0.228464	-0.0057043	0.549154	0.0474991	1.16313	0.0170464
0.398773	-0.0611427	-3.19724	0.358056	0.359388	-0.00570272	1.10228	-0.00596593	-0.311968	0.034937	28.4585	682.859	11.8727	0.228015	-0.00570272	0.55082	0.0466854	1.12021	0.0194769
0.402761	-0.0737931	-3.87484	0.473577	0.35858	-0.00570119	1.10178	-0.00610918	-0.32079	0.0392065	29.3217	689.566	13.9622	0.227582	-0.00570119	0.552438	0.0454228	1.06822	0.0216291
0.406748	-0.0842292	-4.62137	0.603724	0.357759	-0.0056997	1.10136	-0.00599847	-0.329116	0.0429948	30.2129	696.646	16.191	0.227167	-0.0056997	0.554004	0.0436941	1.0075	0.0234155
0.410736	-0.0918157	-5.43657	0.749051	0.356977	-0.00569826	1.10106	-0.00568672	-0.336721	0.0463934	31.1268	704.091	18.5654	0.22677	-0.00569826	0.555517	0.0414886	0.938476	0.0247456
0.414724	-0.0958316	-6.319	0.909942	0.356258	-0.00569688	1.10088	-0.00521107	-0.34361	0.0494802	32.0582	711.886	21.0907	0.226393	-0.00569688	0.556974	0.0388013	0.861622	0.0255268
0.418712	-0.0954575	-7.26567	1.08657	0.355608	-0.00569553	1.10083	-0.00459543	-0.349778	0.0523085	33.0016	720.011	23.7709	0.226038	-0.00569553	0.558375	0.0356342	0.777448	0.0256672
0.422699	-0.0898078	-8.27161	1.27885	0.355026	-0.00569424	1.10092	-0.00385673	-0.355219	0.0549192	33.951	728.44	26.6085	0.225704	-0.00569424	0.559718	0.031997	0.686517	0.0250772
0.426687	-0.0779078	-9.32985	1.48645	0.354508	-0.005693	1.10116	-0.00300567	-0.359943	0.0573468	34.9004	737.142	29.6048	0.225393	-0.005693	0.561004	0.0279049	0.589387	0.0236707
0.430675	-0.0586622	-10.4315	1.70876	0.354048	-0.0056918	1.10156	-0.00204651	-0.363916	0.0596123	35.8439	746.078	32.7592	0.225106	-0.0056918	0.562233	0.0233781	0.486607	0.0213662
0.434663	-0.0308903	-11.5653	1.94482	0.353639	-0.00569064	1.10213	-0.000980517	-0.367103	0.0617322	36.7752	755.207	36.0704	0.224843	-0.00569064	0.563407	0.0184407	0.378694	0.0180873
0.43865	0.0066902	-12.7174	2.19321	0.353276	-0.00568952	1.10289	0.000194371	-0.369478	0.0637193	37.6889	764.48	39.5355	0.224604	-0.00568952	0.564526	0.0131145	0.266014	0.0137571
0.442638	0.055457	-13.8709	2.45201	0.352952	-0.00568844	1.10385	0.00148297	-0.370921	0.0655691	38.5799	773.844	43.1504	0.224389	-0.00568844	0.565593	0.00741953	0.148823	0.0082985
0.446626	0.116852	-15.0059	2.71878	0.35266	-0.0056874	1.10503	0.0028904	-0.371179	0.0672506	39.4435	783.241	46.9093	0.224199	-0.0056874	0.566611	0.00137344	0.0272727	0.0016334
0.450613	0.192413	-16.0988	2.99045	0.352389	-0.00568639	1.10643	0.00441626	-0.369499	0.0686366	40.2757	792.611	50.8051	0.224033	-0.00568639	0.567581	-0.00500923	-0.0985799	-0.00631882
0.454601	0.283726	-17.1223	3.26329	0.35213	-0.0056854	1.10809	0.00605131	-0.365184	0.0695995	41.0725	801.886	54.8288	0.223891	-0.0056854	0.568506	-0.0117169	-0.228756	-0.0156412
0.458589	0.392415	-18.0445	3.53284	0.351875	-0.00568444	1.11	0.00777546	-0.357542	0.070001	41.8304	811	58.9701	0.223773	-0.00568444	0.569389	-0.0187393	-0.363314	-0.0264176
0.462577	0.520187	-18.8295	3.79376	0.351629	-0.00543366	1.11224	0.00957228	-0.346493	0.0698114	42.546	819.881	63.2176	0.223678	-0.0056835	0.570232	-0.0260668	-0.502318	-0.0387317
0.466564	0.66874	-19.4363	4.03988	0.351379	-0.00543366	1.11471	0.0114246	-0.332044	0.0690163	43.2158	828.455	67.5587	0.223606	-0.00568258	0.571038	-0.0336893	-0.645831	-0.0526661
0.470552	0.839749	-19.819	4.26404	0.351128	-0.00543367	1.11748	0.0133103	-0.314138	0.0675867	43.8363	836.648	71.9799	0.223558	-0.00568167	0.571811	-0.041596	-0.793892	-0.0683014
0.47454	1.03483	-19.927	4.45809	0.350872	-0.00543369	1.12054	0.0152026	-0.292744	0.0654932	44.4038	844.383	76.4668	0.223532	-0.00568077	0.572553	-0.0497724	-0.946472	-0.0857119
0.478528	1.25548	-19.7052	4.61281	0.350605	-0.00543372	1.12388	0.017066	-0.267855	0.0627025	44.9148	851.583	81.0045	0.223529	-0.00567988	0.573266	-0.0581981	-1.10343	-0.104961
0.482515	1.50301	-19.0936	4.71784	0.35032	-0.00543375	1.1275	0.0188516	-0.239482	0.0591739	45.3652	858.168	85.5777	0.223547	-0.005679	0.573953	-0.0668471	-1.26454	-0.126102
0.486503	1.77848	-18.0276	4.7617	0.350001	-0.0054338	1.13136	0.0204878	-0.207675	0.054854	45.7512	864.061	90.1705	0.223588	-0.00567812	0.574616	-0.0756874	-1.42944	-0.149172
0.490491	2.08271	-16.4375	4.73172	0.349622	-0.00543386	1.13541	0.0218573	-0.172507	0.0496578	46.0687	869.181	94.7667	0.223649	-0.00567724	0.575259	-0.0846798	-1.59766	-0.174192
0.494479	2.41614	-14.2496	4.61406	0.349123	-0.00543394	1.13953	0.0227307	-0.134059	0.0434086	46.3138	873.451	99.3496	0.223732	-0.00567635	0.575883	-0.0937782	-1.7686	-0.201168
0.498466	2.77873	-11.3861	4.39377	0.348335	-0.00543403	1.14352	0.0225557	-0.0924239	0.0356654	46.4823	876.792	103.902	0.223835	-0.00567546	0.57649	-0.102927	-1.94151	-0.230074
0.502454	3.16997	-7.76622	4.05471	0.346579	-0.00543414	1.14676	0.0196122	-0.0480486	0.0250859	46.5701	879.128	108.407	0.223958	-0.00567457	0.577082	-0.112061	-2.11544	-0.260858
0.506442	3.58867	-3.30629	3.57964	0.338371	-0.00543426	1.14625	0.00810386	-0.0074662	0.00808347	46.5728	880.383	112.845	0.224101	-0.00567366	0.577661	-0.121102	-2.28923	-0.293427
0.510429	4.03294	2.07934	2.95035	0.366388	-0.00543441	1.18408	0.00635312	0.0032756	0.0046477	46.4862	880.486	117.197	0.224262	-0.00567275	0.578229	-0.129963	-2.4616	-0.32765
0.514417	4.50007	8.47745	2.14775	0.35173	-0.00543458	1.1773	0.0270998	0.051052	0.0129339	46.3056	879.367	121.441	0.224443	-0.00567182	0.578789	-0.138547	-2.63107	-0.363353
0.518405	4.98637	15.9743	1.15203	0.350304	-0.00543478	1.17973	0.0328916	0.105371	0.00759911	46.0267	876.959	125.557	0.224642	-0.00567087	0.579341	-0.146746	-2.79598	-0.400308
0.522393	5.48713	24.6545	-0.0571976	0.34971	-0.00543499	1.18361	0.0346404	0.155644	-0.000361089	45.6449	873.203	129.519	0.22486	-0.00566991	0.57989	-0.154443	-2.95455	-0.438238
0.52638	5.99648	34.5985	-1.50057	0.349296	-0.00543524	1.18783	0.0351269	0.202676	-0.00879025	45.1559	868.042	133.303	0.225096	-0.00566892	0.580437	-0.161515	-3.10484	-0.476803
0.530368	6.50723	45.8813	-3.19871	0.348949	-0.0054355	1.19191	0.0349189	0.246207	-0.0171648	44.5553	861.427	136.882	0.225352	-0.0056679	0.580984	-0.167833	-3.24486	-0.515613
0.534356	7.01083	58.5688	-5.17182	0.348635	-0.0054358	1.19555	0.0341614	0.285386	-0.0252005	43.8394	853.313	140.228	0.225626	-0.00566685	0.581536	-0.173266	-3.37254	-0.55422
0.538344	7.49719	72.7155	-7.43924	0.348339	-0.00543612	1.19851	0.0328975	0.319074	-0.0326432	43.0051	843.665	143.31	0.225919	-0.00566576	0.582096	-0.17769	-3.48589	-0.592134
0.542331	7.95461	88.3609	-10.019	0.348055	-0.00543647	1.20052	0.0311369	0.345873	-0.0392175	42.05	832.457	146.098	0.226231	-0.00566463	0.582666	-0.180988	-3.58299	-0.628823
0.546319	8.36955	105.527	-12.9271	0.347782	-0.00543684	1.20148	0.0288828	0.364166	-0.0446108	40.9729	819.671	148.56	0.226563	-0.00566344	0.58325	-0.183055	-3.66204	-0.66372
0.550307	8.72657	124.211	-16.1772	0.347516	-0.00543724	1.20134	0.0261418	0.372094	-0.0484614	39.7739	805.297	150.663	0.226914	-0.0056622	0.583853	-0.183804	-3.72145	-0.696245
0.554294	9.00821	144.387	-19.7794	0.34726	-0.00543766	1.20015	0.0229343	0.3676	-0.0503572	38.4547	789.337	152.374	0.227285	-0.00566089	0.584479	-0.183173	-3.75989	-0.725812
0.558282	9.19487	165.994	-23.7399	0.347014	-0.00543809	1.19797	0.0192999	0.348419	-0.0498298	37.0184	771.804	153.662	0.227677	-0.00565951	0.585132	-0.181129	-3.77638	-0.751858
0.56227	9.26472	188.936	-28.0598	0.346781	-0.00543854	1.195	0.0153032	0.31208	-0.0463485	35.4702	752.721	154.495	0.228087	-0.00565804	0.585818	-0.177667	-3.77032	-0.773854
0.566258	9.1939	213.076	-32.7343	0.346563	-0.005439	1.19141	0.0110409	0.255881	-0.0393103	33.8167	732.126	154.844	0.228518	-0.00565649	0.586542	-0.172818	-3.74148	-0.791319
0.570245	8.95698	238.232	-37.7517	0.346364	-0.00543947	1.18739	0.00665398	0.176978	-0.0280451	32.0668	710.07	154.682	0.228967	-0.00565484	0.587309	-0.166641	-3.69	-0.803831
0.574233	8.52781	264.181	-43.0913	0.346187	-0.00543992	1.1831	0.00234431	0.0726238	-0.0118459	30.2312	686.618	153.986	0.229434	-0.00565308	0.588124	-0.159226	-3.61638	-0.811037
0.578221	7.88185	290.704	-48.7208	0.346037	-0.00544037	1.17869	-0.00161602	-0.0596031	0.00998925	28.3225	661.85	152.737	0.229918	-0.00565121	0.588992	-0.150698	-3.52157	-0.812684
0.582209	6.99881	317.631	-54.5912	0.345917	-0.00544079	1.17426	-0.004882	-0.221563	0.03808	26.3553	635.864	150.922	0.230418	-0.00564922	0.589918	-0.141207	-3.40685	-0.808615
0.586196	5.86462	344.817	-60.6404	0.345832	-0.00544119	1.16991	-0.00704747	-0.414364	0.0728711	24.3458	608.774	148.534	0.230932	-0.00564711	0.590906	-0.130923	-3.27377	-0.798761
0.590184	4.47249	372.126	-66.7968	0.345782	-0.00544156	1.16573	-0.00766883	-0.638073	0.114534	22.3117	580.708	145.572	0.231458	-0.00564487	0.59196	-0.120039	-3.12426	-0.783188
0.594172	2.82351	399.434	-72.9842	0.345772	-0.0054419	1.16177	-0.00630327	-0.891705	0.162931	20.2718	551.809	142.044	0.231994	-0.0056425	0.593083	-0.108762	-2.96056	-0.762092
0.59816	0.927003	426.632	-79.128	0.345801	-0.0054422	1.15809	-0.00254928	-1.17325	0.217604	18.2457	522.237	137.967	0.232536	-0.00564	0.594278	-0.0973082	-2.78519	-0.735807
0.602147	-1.20048	453.626	-85.1628	0.345869	-0.00544246	1.15471	0.00391611	-1.47978	0.277811	16.2536	492.16	133.365	0.233083	-0.00563737	0.595546	-0.0858941	-2.60087	-0.704782
0.606135	-3.5368	480.334	-91.039	0.345977	-0.00544269	1.15167	0.0133109	-1.80776	0.342629	14.315	461.758	128.27	0.233631	-0.00563461	0.596889	-0.074726	-2.41043	-0.669583
0.610123	-6.05528	506.681	-96.7241	0.34612	-0.00544289	1.14898	0.0257305	-2.15302	0.411006	12.4486	431.22	122.723	0.234177	-0.00563174	0.598306	-0.0639915	-2.21667	-0.630855
0.61411	-8.72464	532.59	-102.197	0.346297	-0.00544306	1.14666	0.041131	-2.51081	0.481792	10.6715	400.737	116.775	0.234717	-0.00562874	0.599794	-0.0538552	-2.02237	-0.589319
0.618098	-11.5089	557.989	-107.44	0.346503	-0.0054432	1.14469	0.0593154	-2.87581	0.553734	8.99869	370.502	110.481	0.235249	-0.00562565	0.60135	-0.0444513	-1.83019	-0.545749
0.622086	-14.3679	582.808	-112.434	0.346734	-0.00544333	1.14308	0.0799272	-3.2421	0.625459	7.44254	340.706	103.906	0.235767	-0.00562247	0.602968	-0.0358802	-1.64254	-0.500926
0.626074	-17.2589	606.979	-117.152	0.346985	-0.00544345	1.14181	0.102462	-3.60346	0.695502	6.01255	311.535	97.1183	0.23627	-0.00561921	0.604639	-0.0282084	-1.4616	-0.455639
0.630061	-20.138	630.433	-121.564	0.347251	-0.00544356	1.14087	0.12629	-3.95358	0.76235	4.7151	283.165	90.1923	0.236754	-0.00561591	0.606354	-0.0214686	-1.28929	-0.410659
0.634049	-22.9611	653.098	-125.631	0.347526	-0.00544366	1.14024	0.150688	-4.2861	0.824484	3.55336	255.756	83.2033	0.237215	-0.00561258	0.6081	-0.01566	-1.12714	-0.366685
0.638037	-25.6861	674.899	-129.32	0.347806	-0.00544377	1.13988	0.174885	-4.59508	0.880479	2.52741	229.457	76.2255	0.23765	-0.00560925	0.609865	-0.0107535	-0.976276	-0.324319
0.642025	-28.2754	695.756	-132.594	0.348085	-0.00544388	1.13978	0.198139	-4.87548	0.929148	1.63441	204.392	69.3303	0.238056	-0.00560596	0.611635	-0.00669617	-0.837392	-0.284046
0.646012	-30.6987	715.587	-135.426	0.34836	-0.005444	1.13991	0.219807	-5.1237	0.969666	0.868926	180.666	62.5833	0.23843	-0.00560272	0.613391	-0.00341883	-0.710838	-0.246237
0.65	-32.9346	734.314	-137.791	0.348626	-0.00544413	1.14023	0.239404	-5.33779	1.00161	0.223667	158.358	56.0436	0.23877	-0.00559958	0.615121	-0.000842645	-0.596599	-0.211139
0.653988	-34.9698	751.862	-139.672	0.34888	-0.00544426	1.14072	0.256616	-5.51733	1.02494	-0.309943	137.524	49.762	0.239074	-0.00559655	0.61681	0.00111427	-0.494408	-0.178898
0.657975	-36.7978	768.16	-141.055	0.349119	-0.00544441	1.14136	0.271285	-5.66311	1.0399	-0.741351	118.194	43.7816	0.239341	-0.00559367	0.618447	0.00253257	-0.403768	-0.149565
0.661963	-38.4166	783.138	-141.934	0.349342	-0.00544457	1.14211	0.283373	-5.77666	1.04695	-1.08058	100.378	38.1369	0.239567	-0.00559096	0.620028	0.00348806	-0.324014	-0.123104
0.665951	-39.8268	796.734	-142.305	0.349548	-0.00544474	1.14297	0.292917	-5.8598	1.04662	-1.33807	84.0673	32.8544	0.239751	-0.00558841	0.621553	0.0040489	-0.254381	-0.0994147
0.669939	-41.0304	808.893	-142.172	0.349735	-0.00544491	1.1439	0.300004	-5.91442	1.03952	-1.52433	69.2376	27.9523	0.239887	-0.00558606	0.623026	0.0042715	-0.194019	-0.0783285
0.673926	-42.0304	819.566	-141.544	0.349904	-0.00544509	1.1449	0.304749	-5.94241	1.02629	-1.64961	55.8502	23.4411	0.239967	-0.00558389	0.624456	0.00419615	-0.142068	-0.0596278
0.677914	-42.8313	828.717	-140.437	0.350055	-0.00544527	1.14594	0.3073	-5.94577	1.00759	-1.72357	43.8547	19.3238	0.239972	-0.00558191	0.625857	0.00383958	-0.0976945	-0.0430473
0.681902	-43.4397	836.322	-138.873	0.350188	-0.00544546	1.147	0.307838	-5.92665	0.984135	-1.75497	33.1917	15.5971	0.239867	-0.00558011	0.62726	0.00318157	-0.0601729	-0.0282759
0.68589	-43.8645	842.371	-136.879	0.350304	-0.00544566	1.14809	0.306574	-5.88742	0.956663	-1.75141	23.7945	12.2525	0.239563	-0.0055785	0.628736	0.00213307	-0.0289797	-0.0149225
0.689877	-44.1165	846.869	-134.485	0.350404	-0.00544585	1.14919	0.303737	-5.8306	0.925917	-1.71927	15.5907	9.27662	0.238817	-0.00557706	0.63046	0.000461067	-0.00418103	-0.00248776
0.693865	-44.2079	849.837	-131.726	0.350489	-0.00544605	1.1503	0.299563	-5.75869	0.892606	-1.66392	8.50389	6.65286	0.236689	-0.0055758	0.633036	-0.00240729	0.012303	0.00962506
0.697853	-44.1512	851.308	-128.638	0.350559	-0.00544626	1.15141	0.294268	-5.67398	0.857373	-1.59005	2.4544	4.362	0.226281	-0.00557469	0.642675	-0.00592893	0.0091519	0.0162649
0.70184	-43.9589	851.329	-125.259	0.350616	-0.00544647	1.15251	0.288049	-5.57851	0.820785	-1.50178	-2.63896	2.38296	0.236947	-0.00557373	0.60999	0.0157887	0.0277444	-0.0250529
0.705828	-43.6432	849.96	-121.628	0.350662	-0.00544668	1.15362	0.281078	-5.47406	0.78333	-1.40275	-6.8581	0.693551	0.241433	-0.00557291	0.623357	0.0143124	0.0699739	-0.00707637
0.709816	-43.2161	847.272	-117.785	0.350697	-0.0054469	1.15473	0.273508	-5.36224	0.74544	-1.29623	-10.2845	-0.729061	0.242213	-0.00557221	0.626829	0.0104778	0.083133	0.00589323
0.713804	-42.6899	843.345	-113.768	0.350722	-0.00544712	1.15583	0.265476	-5.24451	0.707491	-1.18505	-12.9978	-1.90783	0.242312	-0.00557164	0.628479	0.00828532	0.0908743	0.0133386
0.717791	-42.0765	838.269	-109.616	0.35074	-0.00544735	1.15695	0.257107	-5.12222	0.669804	-1.07171	-15.0747	-2.86549	0.242298	-0.00557117	0.629507	0.00684097	0.0962257	0.0182911
0.721779	-41.388	832.143	-105.364	0.350751	-0.00544759	1.15807	0.248513	-4.99658	0.632655	-0.958299	-16.589	-3.62427	0.242265	-0.0055708	0.630233	0.00577321	0.0999393	0.0218342
0.725767	-40.6362	825.069	-101.047	0.350757	-0.00544783	1.15921	0.239789	-4.86863	0.596266	-0.846557	-17.6106	-4.20568	0.242233	-0.00557051	0.630779	0.00491578	0.102261	0.0244215
0.729755	-39.8327	817.154	-96.6973	0.350758	-0.00544809	1.16036	0.23102	-4.7393	0.560821	-0.737877	-18.2056	-4.6303	0.242204	-0.0055703	0.631205	0.00418776	0.103324	0.0262789
0.733742	-38.9886	808.507	-92.3447	0.350756	-0.00544835	1.16154	0.22228	-4.60942	0.526472	-0.633383	-18.4354	-4.91765	0.24218	-0.00557015	0.631541	0.00354906	0.1033	0.0275553
0.73773	-38.1146	799.237	-88.0171	0.350753	-0.00544862	1.16274	0.213634	-4.47976	0.49334	-0.533946	-18.3569	-5.08604	0.242159	-0.00557006	0.631808	0.0029768	0.102341	0.0283551
0.741718	-37.2212	789.455	-83.7401	0.350748	-0.00544891	1.16398	0.205142	-4.35102	0.461527	-0.440215	-18.0219	-5.15251	0.242144	-0.00557003	0.63202	0.00245818	0.100635	0.0287718
0.745706	-36.3183	779.268	-79.5367	0.350743	-0.0054492	1.16526	0.196857	-4.22388	0.431114	-0.352685	-17.4777	-5.13279	0.242136	-0.00557003	0.632188	0.00198469	0.0983535	0.0288841
0.749693	-35.4154	768.782	-75.4277	0.350738	-0.00544951	1.16657	0.188827	-4.09897	0.402163	-0.271654	-16.7665	-5.04127	0.242134	-0.00557007	0.632319	0.00154973	0.0956491	0.0287593
0.753681	-34.5212	758.099	-71.4312	0.350735	-0.00544983	1.16794	0.181092	-3.97686	0.374716	-0.19728	-15.9258	-4.89098	0.242143	-0.00557014	0.632421	0.0011482	0.0926907	0.0284662
0.757669	-33.6437	747.319	-67.563	0.350734	-0.00545016	1.16935	0.173687	-3.85807	0.348797	-0.129578	-14.9888	-4.69371	0.242166	-0.00557023	0.632501	0.00077503	0.0896505	0.0280739
0.761656	-32.7897	736.532	-63.836	0.350735	-0.00545051	1.17082	0.16664	-3.74311	0.324419	-0.0684618	-13.9846	-4.46	0.242206	-0.00557034	0.632562	0.000424219	0.0866544	0.0276361
0.765644	-31.9651	725.825	-60.2612	0.350739	-0.00545087	1.17235	0.159972	-3.63245	0.301582	-0.0137573	-12.9386	-4.19918	0.242272	-0.00557046	0.632611	8.93092e-05	0.0839943	0.02726
0.769632	-31.1747	715.28	-56.847	0.350745	-0.00545124	1.17393	0.153703	-3.52659	0.280277	0.0347784	-11.8728	-3.91951	0.242376	-0.00557059	0.632653	-0.000239675	0.0818217	0.0270112
0.77362	-30.4221	704.969	-53.5996	0.350755	-0.00545163	1.17558	0.147844	-3.42598	0.260481	0.077455	-10.8056	-3.62814	0.242528	-0.00557073	0.632693	-0.000575226	0.0802487	0.0269446
0.777607	-29.7097	694.96	-50.5233	0.350769	-0.00545203	1.17728	0.142403	-3.33105	0.242166	0.114585	-9.75231	-3.33123	0.242745	-0.00557087	0.632737	-0.000932119	0.0793328	0.0270988
0.781595	-29.0388	685.311	-47.6204	0.350785	-0.00545244	1.17906	0.137384	-3.24225	0.225295	0.146534	-8.72599	-3.03402	0.243047	-0.00557101	0.632794	-0.00132866	0.0791209	0.0275103
0.785583	-28.4097	676.076	-44.8911	0.350805	-0.00545287	1.18089	0.132787	-3.15998	0.209821	0.173714	-7.73707	-2.7409	0.243466	-0.00557115	0.632874	-0.00178832	0.0796501	0.0282166
0.789571	-27.8216	667.298	-42.3344	0.350829	-0.00545331	1.18279	0.128608	-3.08467	0.195696	0.196544	-6.79389	-2.45547	0.24404	-0.00557129	0.632992	-0.00233979	0.0808788	0.0292315
0.793558	-27.2726	659.015	-39.9475	0.350856	-0.00545376	1.18475	0.124841	-3.01665	0.18286	0.215439	-5.90298	-2.18058	0.244824	-0.00557142	0.63317	-0.00301874	0.082713	0.0305544
0.797546	-26.7603	651.255	-37.7264	0.350887	-0.00545423	1.18678	0.121473	-2.95623	0.17125	0.230776	-5.06899	-1.91847	0.245894	-0.00557155	0.633443	-0.00387074	0.0850207	0.032178
0.801534	-26.2816	644.045	-35.6659	0.350921	-0.0054547	1.18886	0.118489	-2.90362	0.160797	0.242921	-4.2945	-1.67086	0.247367	-0.00557166	0.633867	-0.00495649	0.087624	0.0340918
0.805521	-25.8332	637.4	-33.7601	0.350958	-0.00545519	1.191	0.115872	-2.85899	0.151427	0.252222	-3.58097	-1.43895	0.249419	-0.00557178	0.634542	-0.00635995	0.0902967	0.0362841
0.809509	-25.4117	631.335	-32.0016	0.350997	-0.0054557	1.1932	0.113605	-2.82242	0.143065	0.258988	-2.92865	-1.2235	0.252344	-0.00557188	0.635649	-0.00820475	0.0927799	0.0387605
0.813497	-25.014	625.856	-30.3827	0.351038	-0.00545621	1.19545	0.111665	-2.79388	0.135631	0	0	0	0	-0.00545621	0	0	0	0
0.817485	-24.6374	620.969	-28.8946	0.351081	-0.00545673	1.19775	0.110032	-2.77329	0.129045	0	0	0	0	-0.00545673	0	0	0	0
0.821472	-24.28	616.67	-27.5281	0.351125	-0.00545727	1.2001	0.108685	-2.76041	0.123224	0	0	0	0	-0.00545727	0	0	0	0
0.82546	-23.9406	612.956	-26.2734	0.351169	-0.00545782	1.20249	0.107602	-2.75495	0.118087	0	0	0	0	-0.00545782	0	0	0	0
0.829448	-23.6196	609.817	-25.1205	0.351213	-0.00545838	1.20493	0.106764	-2.75647	0.113549	0	0	0	0	-0.00545838	0	0	0	0
0.833436	-23.3182	607.241	-24.059	0.351256	-0.00545894	1.20741	0.106156	-2.76445	0.109528	0	0	0	0	-0.00545894	0	0	0	0
0.837423	-23.0392	605.214	-23.0781	0.351299	-0.00545952	1.20992	0.105762	-2.77826	0.105941	0	0	0	0	-0.00545952	0	0	0	0
0.841411	-22.7864	603.718	-22.1669	0.35134	-0.00546011	1.21247	0.105576	-2.79719	0.102705	0	0	0	0	-0.00546011	0	0	0	0
0.845399	-22.5648	602.737	-21.3141	0.351381	-0.00546071	1.21505	0.105594	-2.82055	0.0997409	0	0	0	0	-0.00546071	0	0	0	0
0.849387	-22.38	602.251	-20.5085	0.35142	-0.00546132	1.21765	0.105818	-2.8476	0.0969693	0	0	0	0	-0.00546132	0	0	0	0
0.853374	-22.238	602.243	-19.7386	0.351457	-0.00546193	1.22028	0.106257	-2.87762	0.0943143	0	0	0	0	-0.00546193	0	0	0	0
0.857362	-22.1448	602.695	-18.9929	0.351493	-0.00546255	1.22292	0.10692	-2.90995	0.0917021	0	0	0	0	-0.00546255	0	0	0	0
0.86135	-22.1061	603.593	-18.2597	0.351526	-0.00546317	1.22558	0.107822	-2.94401	0.0890614	0	0	0	0	-0.00546317	0	0	0	0
0.865337	-22.1269	604.926	-17.5274	0.351557	-0.0054638	1.22825	0.108976	-2.9793	0.0863238	0	0	0	0	-0.0054638	0	0	0	0
0.869325	-22.2107	606.684	-16.7842	0.351585	-0.00546443	1.23093	0.110397	-3.01548	0.0834244	0	0	0	0	-0.00546443	0	0	0	0
0.873313	-22.3598	608.861	-16.018	0.351609	-0.00546507	1.2336	0.112095	-3.05235	0.0803017	0	0	0	0	-0.00546507	0	0	0	0
0.877301	-22.5748	611.452	-15.2171	0.351628	-0.00546571	1.23627	0.114079	-3.08991	0.076898	0	0	0	0	-0.00546571	0	0	0	0
0.881288	-22.8542	614.457	-14.3697	0.351642	-0.00546635	1.23893	0.116352	-3.12825	0.0731574	0	0	0	0	-0.00546635	0	0	0	0
0.885276	-23.1949	617.88	-13.4644	0.351649	-0.00546699	1.24158	0.118911	-3.16761	0.0690264	0	0	0	0	-0.00546699	0	0	0	0
0.889264	-23.5924	621.723	-12.4898	0.351649	-0.00546763	1.24419	0.121746	-3.20834	0.0644522	0	0	0	0	-0.00546763	0	0	0	0
0.893252	-24.0406	625.994	-11.4348	0.351641	-0.00546828	1.24678	0.124845	-3.25086	0.0593824	0	0	0	0	-0.00546828	0	0	0	0
0.897239	-24.5327	630.7	-10.289	0.351623	-0.00546893	1.24932	0.128192	-3.29562	0.0537634	0	0	0	0	-0.00546893	0	0	0	0
0.901227	-25.0617	635.849	-9.04188	0.351596	-0.00546957	1.25182	0.131764	-3.34304	0.0475385	0	0	0	0	-0.00546957	0	0	0	0
0.905215	-25.6204	641.448	-7.68356	0.351558	-0.00547021	1.25426	0.135542	-3.39351	0.040649	0	0	0	0	-0.00547021	0	0	0	0
0.909202	-26.202	647.501	-6.20457	0.351509	-0.00547085	1.25665	0.139502	-3.44735	0.0330337	0	0	0	0	-0.00547085	0	0	0	0
0.91319	-26.8006	654.011	-4.59613	0.351449	-0.00547149	1.25896	0.143623	-3.50482	0.0246305	0	0	0	0	-0.00547149	0	0	0	0
0.917178	-27.411	660.978	-2.85014	0.351378	-0.00547212	1.2612	0.147883	-3.566	0.0153766	0	0	0	0	-0.00547212	0	0	0	0
0.921166	-28.0289	668.398	-0.959257	0.351295	-0.00547275	1.26336	0.152258	-3.63085	0.00521084	0	0	0	0	-0.00547275	0	0	0	0
0.925153	-28.651	676.26	1.08299	0.351202	-0.00547336	1.26544	0.156722	-3.69916	-0.005924	0	0	0	0	-0.00547336	0	0	0	0
0.929141	-29.2747	684.549	3.28211	0.351098	-0.00547397	1.26742	0.161253	-3.77068	-0.0180787	0	0	0	0	-0.00547397	0	0	0	0
0.933129	-29.8981	693.244	5.64247	0.350983	-0.00547457	1.26932	0.165829	-3.84505	-0.0312958	0	0	0	0	-0.00547457	0	0	0	0
0.937117	-30.5195	702.316	8.16736	0.350858	-0.00547515	1.27111	0.170426	-3.92186	-0.0456079	0	0	0	0	-0.00547515	0	0	0	0
0.941104	-31.1379	711.733	10.8588	0.350723	-0.00547572	1.27281	0.175024	-4.0006	-0.0610366	0	0	0	0	-0.00547572	0	0	0	0
0.945092	-31.7524	721.453	13.7178	0.350579	-0.00547628	1.27442	0.1796	-4.08073	-0.0775913	0	0	0	0	-0.00547628	0	0	0	0
0.94908	-32.3628	731.431	16.7439	0.350425	-0.00547683	1.27593	0.184136	-4.16165	-0.0952686	0	0	0	0	-0.00547683	0	0	0	0
0.953067	-32.9697	741.612	19.9361	0.350264	-0.00547737	1.27734	0.188611	-4.24257	-0.114049	0	0	0	0	-0.00547737	0	0	0	0
0.957055	-33.5745	751.94	23.2918	0.350096	-0.00547789	1.27866	0.193005	-4.32258	-0.133894	0	0	0	0	-0.00547789	0	0	0	0
0.961043	-34.1792	762.353	26.8073	0.349921	-0.00547839	1.27989	0.197293	-4.40054	-0.15474	0	0	0	0	-0.00547839	0	0	0	0
0.965031	-34.7864	772.783	30.4777	0.349741	-0.00547888	1.28104	0.201449	-4.4752	-0.176497	0	0	0	0	-0.00547888	0	0	0	0
0.969018	-35.3985	783.163	34.2966	0.349557	-0.00547936	1.2821	0.205442	-4.54523	-0.199047	0	0	0	0	-0.00547936	0	0	0	0
0.973006	-36.0181	793.421	38.2568	0.349369	-0.00547982	1.28309	0.209239	-4.60921	-0.222244	0	0	0	0	-0.00547982	0	0	0	0
0.976994	-36.6474	803.485	42.3502	0.349179	-0.00548026	1.284	0.212803	-4.66565	-0.245918	0	0	0	0	-0.00548026	0	0	0	0
0.980982	-37.2881	813.283	46.5679	0.348987	-0.00548069	1.28485	0.216091	-4.71312	-0.269869	0	0	0	0	-0.00548069	0	0	0	0
0.984969	-37.9414	822.742	50.9001	0.348795	-0.00548111	1.28563	0.219059	-4.7502	-0.293878	0	0	0	0	-0.00548111	0	0	0	0
0.988957	-38.6076	831.793	55.3361	0.348603	-0.0054815	1.28635	0.221659	-4.7756	-0.317703	0	0	0	0	-0.0054815	0	0	0	0
0.992945	-39.2858	840.366	59.8638	0.348412	-0.00548189	1.28702	0.22384	-4.78818	-0.341088	0	0	0	0	-0.00548189	0	0	0	0
0.996933	-39.974	848.395	64.47	0.348221	-0.00548225	1.28764	0.225549	-4.78699	-0.363765	0	0	0	0	-0.00548225	0	0	0	0
1.00092	-40.6688	855.816	69.14	0.348032	-0.00548261	1.28821	0.226733	-4.77127	-0.385463	0	0	0	0	-0.00548261	0	0	0	0
1.00491	-41.3652	862.568	73.8581	0.347845	-0.00548295	1.28875	0.227335	-4.7405	-0.40591	0	0	0	0	-0.00548295	0	0	0	0
1.0089	-42.0572	868.59	78.607	0.347659	-0.00548328	1.28925	0.227304	-4.69442	-0.424843	0	0	0	0	-0.00548328	0	0	0	0
1.01288	-42.7371	873.826	83.369	0.347474	-0.0054836	1.28971	0.226593	-4.63304	-0.442024	0	0	0	0	-0.0054836	0	0	0	0
1.01687	-43.3962	878.222	88.1251	0.347289	-0.0054839	1.29015	0.225161	-4.55665	-0.457237	0	0	0	0	-0.0054839	0	0	0	0
1.02086	-44.0248	881.724	92.8559	0.347106	-0.0054842	1.29057	0.222979	-4.46581	-0.470302	0	0	0	0	-0.0054842	0	0	0	0
1.02485	-44.6123	884.282	97.5414	0.346921	-0.0054845	1.29096	0.220032	-4.36136	-0.481083	0	0	0	0	-0.0054845	0	0	0	0
1.02883	-45.1478	885.848	102.161	0.346736	-0.00548479	1.29134	0.216318	-4.24438	-0.489486	0	0	0	0	-0.00548479	0	0	0	0
1.03282	-45.6197	886.374	106.694	0.346549	-0.00548507	1.29171	0.211849	-4.11616	-0.495466	0	0	0	0	-0.00548507	0	0	0	0
1.03681	-46.0165	885.815	111.119	0.346359	-0.00548536	1.29207	0.206662	-3.97822	-0.499037	0	0	0	0	-0.00548536	0	0	0	0
1.0408	-46.3269	884.128	115.414	0.346166	-0.00548564	1.29242	0.200806	-3.83229	-0.500268	0	0	0	0	-0.00548564	0	0	0	0
1.04479	-46.5394	881.272	119.559	0.345968	-0.00548593	1.29277	0.19435	-3.68022	-0.499281	0	0	0	0	-0.00548593	0	0	0	0
1.04877	-46.6433	877.209	123.53	0.345765	-0.00548623	1.29312	0.187377	-3.52396	-0.49625	0	0	0	0	-0.00548623	0	0	0	0
1.05276	-46.6286	871.903	127.306	0.345556	-0.00548653	1.29347	0.179986	-3.36555	-0.491402	0	0	0	0	-0.00548653	0	0	0	0
1.05675	-46.486	865.322	130.864	0.34534	-0.00548684	1.29383	0.172283	-3.20699	-0.484996	0	0	0	0	-0.00548684	0	0	0	0
1.06074	-46.2075	857.437	134.18	0.345116	-0.00548716	1.29419	0.164377	-3.05022	-0.477326	0	0	0	0	-0.00548716	0	0	0	0
1.06472	-45.786	848.223	137.23	0.344884	-0.00548749	1.29457	0.15638	-2.89708	-0.468705	0	0	0	0	-0.00548749	0	0	0	0
1.06871	-45.2159	837.66	139.992	0.344643	-0.00548783	1.29496	0.148403	-2.74927	-0.459466	0	0	0	0	-0.00548783	0	0	0	0
1.0727	-44.4933	825.735	142.441	0.344392	-0.0054882	1.29537	0.140545	-2.60833	-0.449942	0	0	0	0	-0.0054882	0	0	0	0
1.07669	-43.6159	812.439	144.553	0.344132	-0.00548857	1.2958	0.132902	-2.47558	-0.440467	0	0	0	0	-0.00548857	0	0	0	0
1.08067	-42.5832	797.771	146.304	0.343861	-0.00548897	1.29625	0.12555	-2.3521	-0.431355	0	0	0	0	-0.00548897	0	0	0	0
1.08466	-41.3968	781.736	147.672	0.34358	-0.00548939	1.29673	0.118549	-2.23867	-0.422892	0	0	0	0	-0.00548939	0	0	0	0
1.08865	-40.0604	764.347	148.635	0.343289	-0.00548983	1.29725	0.111938	-2.13577	-0.415323	0	0	0	0	-0.00548983	0	0	0	0
1.09264	-38.5798	745.629	149.173	0.342987	-0.00549029	1.29779	0.105737	-2.04358	-0.408844	0	0	0	0	-0.00549029	0	0	0	0
1.09663	-36.963	725.613	149.266	0.342675	-0.00549078	1.29838	0.0999446	-1.96199	-0.403602	0	0	0	0	-0.00549078	0	0	0	0
1.10061	-35.22	704.342	148.899	0.342352	-0.00549129	1.29901	0.0945389	-1.89062	-0.399679	0	0	0	0	-0.00549129	0	0	0	0
1.1046	-33.3632	681.868	148.058	0.342021	-0.00549182	1.29968	0.089481	-1.82879	-0.397094	0	0	0	0	-0.00549182	0	0	0	0
1.10859	-31.4067	658.257	146.733	0.34168	-0.00549238	1.30041	0.0847166	-1.77559	-0.395798	0	0	0	0	-0.00549238	0	0	0	0
1.11258	-29.3665	633.584	144.918	0.341332	-0.00549297	1.30119	0.0801816	-1.72992	-0.39568	0	0	0	0	-0.00549297	0	0	0	0
1.11656	-27.2604	607.937	142.611	0.340976	-0.00549358	1.30202	0.0758059	-1.69055	-0.396573	0	0	0	0	-0.00549358	0	0	0	0
1.12055	-25.1076	581.419	139.816	0.340615	-0.00549421	1.30291	0.0715168	-1.65612	-0.398253	0	0	0	0	-0.00549421	0	0	0	0
1.12454	-22.9282	554.141	136.541	0.340249	-0.00549487	1.30387	0.0672463	-1.62524	-0.400462	0	0	0	0	-0.00549487	0	0	0	0
1.12853	-20.7433	526.231	132.803	0.33988	-0.00549555	1.30489	0.0629311	-1.59648	-0.402897	0	0	0	0	-0.00549555	0	0	0	0
1.13252	-18.574	497.824	128.622	0.339511	-0.00549625	1.30597	0.0585178	-1.5684	-0.405225	0	0	0	0	-0.00549625	0	0	0	0
1.1365	-16.4415	469.065	124.026	0.339142	-0.00549696	1.30713	0.0539656	-1.5396	-0.407089	0	0	0	0	-0.00549696	0	0	0	0
1.14049	-14.3662	440.11	119.049	0.338776	-0.0054977	1.30835	0.0492502	-1.50879	-0.408124	0	0	0	0	-0.0054977	0	0	0	0
1.14448	-12.3674	411.12	113.73	0.338414	-0.00549844	1.30964	0.0443668	-1.47484	-0.407993	0	0	0	0	-0.00549844	0	0	0	0
1.14847	-10.4629	382.26	108.114	0.33806	-0.0054992	1.311	0.0393267	-1.43679	-0.406367	0	0	0	0	-0.0054992	0	0	0	0
1.15245	-8.66809	353.7	102.253	0.337716	-0.00549996	1.31243	0.0341594	-1.39387	-0.402962	0	0	0	0	-0.00549996	0	0	0	0
1.15644	-6.99604	325.604	96.2018	0.337384	-0.00550072	1.31391	0.0289109	-1.34555	-0.397551	0	0	0	0	-0.00550072	0	0	0	0
1.16043	-5.45701	298.136	90.018	0.337067	-0.00550148	1.31545	0.0236401	-1.29155	-0.389964	0	0	0	0	-0.00550148	0	0	0	0
1.16442	-4.05812	271.449	83.7615	0.336769	-0.00550224	1.31704	0.0184155	-1.23182	-0.380104	0	0	0	0	-0.00550224	0	0	0	0
1.1684	-2.80331	245.683	77.4912	0.336492	-0.00550298	1.31867	0.0133103	-1.16652	-0.367932	0	0	0	0	-0.00550298	0	0	0	0
1.17239	-1.69351	220.964	71.263	0.336241	-0.0055037	1.32033	0.00840042	-1.09606	-0.35349	0	0	0	0	-0.0055037	0	0	0	0
1.17638	-0.7269	197.397	65.1288	0.336018	-0.00550439	1.32201	0.00375986	-1.02102	-0.336876	0	0	0	0	-0.00550439	0	0	0	0
1.18037	0.100648	175.065	59.1352	0.335827	-0.00550505	1.3237	-0.000541666	-0.942165	-0.318254	0	0	0	0	-0.00550505	0	0	0	0
1.18436	0.795194	154.034	53.3239	0.335669	-0.00550568	1.3254	-0.00444147	-0.860339	-0.297835	0	0	0	0	-0.00550568	0	0	0	0
1.18834	1.36466	134.348	47.7312	0.335547	-0.00550627	1.32708	-0.00788731	-0.776486	-0.275871	0	0	0	0	-0.00550627	0	0	0	0
1.19233	1.81867	116.033	42.3884	0.335463	-0.00550682	1.32874	-0.010841	-0.691664	-0.252675	0	0	0	0	-0.00550682	0	0	0	0
1.19632	2.16814	99.0984	37.3214	0.335419	-0.00550733	1.33038	-0.01328	-0.606986	-0.228597	0	0	0	0	-0.00550733	0	0	0	0
1.20031	2.42472	83.5373	32.5503	0.335417	-0.0055078	1.33197	-0.0151964	-0.523551	-0.204001	0	0	0	0	-0.0055078	0	0	0	0
1.20429	2.60026	69.328	28.0895	0.335462	-0.00550822	1.33351	-0.0165915	-0.442362	-0.179231	0	0	0	0	-0.00550822	0	0	0	0
1.20828	2.70628	56.4363	23.9479	0.335564	-0.0055086	1.33502	-0.0174715	-0.364347	-0.154606	0	0	0	0	-0.0055086	0	0	0	0
1.21227	2.75356	44.8167	20.1289	0.335736	-0.00550894	1.33649	-0.0178346	-0.290274	-0.130373	0	0	0	0	-0.00550894	0	0	0	0
1.21626	2.7518	34.4143	16.6307	0.336006	-0.00550925	1.33797	-0.017651	-0.220745	-0.106675	0	0	0	0	-0.00550925	0	0	0	0
1.22025	2.70936	25.1664	13.4469	0.336421	-0.00550952	1.3395	-0.0168146	-0.156185	-0.0834529	0	0	0	0	-0.00550952	0	0	0	0
1.22423	2.63315	17.0036	10.5668	0.337083	-0.00550975	1.3413	-0.0150278	-0.0970421	-0.0603064	0	0	0	0	-0.00550975	0	0	0	0
1.22822	2.52912	9.85073	7.97615	0.33824	-0.00550996	1.34407	-0.0114091	-0.0444375	-0.0359811	0	0	0	0	-0.00550996	0	0	0	0
1.23221	2.40248	3.62872	5.65795	0.341385	-0.00551013	1.35339	-0.00367281	-0.00554744	-0.00864964	0	0	0	0	-0.00551013	0	0	0	0
1.2362	2.25785	-1.74407	3.59311	0.312459	-0.00551028	1.31824	-0.00536648	0.00414533	-0.00854014	0	0	0	0	-0.00551028	0	0	0	0
1.24018	2.09922	-6.35001	1.76106	0.32525	-0.00551041	1.33885	-0.0205122	0.062048	-0.0172079	0	0	0	0	-0.00551041	0	0	0	0
1.24417	1.93003	-10.271	0.140267	0.329361	-0.00551052	1.34122	-0.020688	0.110095	-0.00150353	0	0	0	0	-0.00551052	0	0	0	0
1.24816	1.75312	-13.5874	-1.29122	0.331163	-0.00551061	1.34241	-0.0188988	0.146474	0.0139195	0	0	0	0	-0.00551061	0	0	0	0
1.25215	1.57083	-16.3771	-2.5554	0.332177	-0.00551068	1.34329	-0.0169581	0.176802	0.0275872	0	0	0	0	-0.00551068	0	0	0	0
1.25613	1.385	-18.7143	-3.67391	0.332858	-0.00551074	1.34401	-0.0150237	0.203002	0.0398524	0	0	0	0	-0.00551074	0	0	0	0
1.26012	1.19708	-20.6693	-4.66777	0.333374	-0.00551079	1.34463	-0.0130877	0.225977	0.0510325	0	0	0	0	-0.00551079	0	0	0	0
1.26411	1.00812	-22.3077	-5.5571	0.333799	-0.00551083	1.34518	-0.0111332	0.246355	0.0613699	0	0	0	0	-0.00551083	0	0	0	0
1.2681	0.818852	-23.6897	-6.36083	0.334171	-0.00551086	1.34568	-0.00914709	0.264629	0.0710544	0	0	0	0	-0.00551086	0	0	0	0
1.27209	0.629755	-24.87	-7.0965	0.334508	-0.00551088	1.34615	-0.00712083	0.281213	0.0802423	0	0	0	0	-0.00551088	0	0	0	0
1.27607	0.441097	-25.8971	-7.78006	0.334823	-0.00551091	1.34658	-0.00505036	0.296509	0.0890781	0	0	0	0	-0.00551091	0	0	0	0
1.28006	0.252967	-26.8132	-8.42568	0.335121	-0.00551092	1.34699	-0.00293269	0.31085	0.0976802	0	0	0	0	-0.00551092	0	0	0	0
1.28405	0.0653304	-27.6545	-9.0455	0.335407	-0.00551094	1.34739	-0.000766571	0.324491	0.106138	0	0	0	0	-0.00551094	0	0	0	0
1.28804	-0.121929	-28.4502	-9.64958	0.33568	-0.00551095	1.34777	0.00144702	0.33764	0.114519	0	0	0	0	-0.00551095	0	0	0	0
1.29202	-0.308952	-29.2229	-10.2456	0.335942	-0.00551097	1.34815	0.00370518	0.350463	0.122873	0	0	0	0	-0.00551097	0	0	0	0
1.29601	0	0	0	0	0.281432	0	0	0	0	0	0	0	0	0.0329222	0	0	0	0
