Coordinates
version=1
nRows=203
nColumns=38
inDegrees=no

Units are S.I. units (second, meters, Newtons, ...)
If the header above contains a line with 'inDegrees', this indicates whether rotational values are in degrees (yes) or radians (no).

endheader
time	pelvis_tilt	pelvis_list	pelvis_rotation	pelvis_tx	pelvis_ty	pelvis_tz	hip_flexion_r	hip_adduction_r	hip_rotation_r	knee_angle_r	ankle_angle_r	subtalar_angle_r	mtp_angle_r	hip_flexion_l	hip_adduction_l	hip_rotation_l	knee_angle_l	ankle_angle_l	subtalar_angle_l	mtp_angle_l	lumbar_extension	lumbar_bending	lumbar_rotation	arm_flex_r	arm_add_r	arm_rot_r	elbow_flex_r	pro_sup_r	wrist_flex_r	wrist_dev_r	arm_flex_l	arm_add_l	arm_rot_l	elbow_flex_l	pro_sup_l	wrist_flex_l	wrist_dev_l
0	-2.70779	0.131692	0.000711444	2.75517	-0.999207	0.189717	-0.484067	-0.23169	-0.123395	0.00373744	0.0951404	0	0	-0.487623	0.141897	0.13892	1.23426e-10	-0.0247634	0	0	-0.55462	0.0294888	0.00121059	0	0	0	0	0	0	0	0	0	0	0	0	0	0
0.0099823	-2.70585	0.121427	-0.0195123	2.75694	-0.999313	0.189613	-0.473286	-0.23167	-0.106673	0.0118416	0.09677	0	0	-0.487313	0.142617	0.123643	1.24415e-10	-0.0293235	0	0	-0.563548	0.0326556	0.014964	0	0	0	0	0	0	0	0	0	0	0	0	0	0
0.0199646	-2.70393	0.111201	-0.0396649	2.75871	-0.999415	0.18955	-0.46249	-0.231591	-0.0900457	0.0200404	0.0984491	0	0	-0.486999	0.143287	0.108239	1.24327e-10	-0.033745	0	0	-0.572456	0.0357116	0.0288759	0	0	0	0	0	0	0	0	0	0	0	0	0	0
0.0299469	-2.70205	0.101129	-0.0595909	2.76048	-0.999507	0.18954	-0.451638	-0.23147	-0.0736391	0.028534	0.100203	0	0	-0.486655	0.143928	0.0924188	1.20832e-10	-0.0377188	0	0	-0.58138	0.0385646	0.0431642	0	0	0	0	0	0	0	0	0	0	0	0	0	0
0.0399292	-2.70024	0.0913092	-0.0791943	2.76225	-0.999582	0.189586	-0.440711	-0.231342	-0.0575919	0.0374655	0.102071	0	0	-0.486279	0.144583	0.0760448	1.10177e-10	-0.0410724	0	0	-0.590321	0.0411663	0.0579854	0	0	0	0	0	0	0	0	0	0	0	0	0	0
0.0499115	-2.69849	0.0818466	-0.098355	2.76403	-0.999634	0.189681	-0.42976	-0.231243	-0.0420963	0.0468754	0.104085	0	0	-0.485889	0.1453	0.0591801	8.69829e-11	-0.043748	0	0	-0.599225	0.0435159	0.0733482	0	0	0	0	0	0	0	0	0	0	0	0	0	0
0.0598938	-2.69678	0.0729064	-0.116847	2.76578	-0.999661	0.189818	-0.418948	-0.23122	-0.0274488	0.0566689	0.106258	0	0	-0.485527	0.146129	0.0421305	4.47895e-11	-0.0457749	0	0	-0.607965	0.045641	0.0890322	0	0	0	0	0	0	0	0	0	0	0	0	0	0
0.0698761	-2.6952	0.0647491	-0.134186	2.76746	-0.999664	0.189994	-0.408512	-0.23129	-0.014189	0.066595	0.108553	0	0	-0.485175	0.147072	0.0255317	-2.3629e-11	-0.0472344	0	0	-0.616216	0.0473582	0.104465	0	0	0	0	0	0	0	0	0	0	0	0	0	0
0.0798584	-2.69378	0.0574339	-0.150187	2.76904	-0.999649	0.190199	-0.398549	-0.231429	-0.00253945	0.0765247	0.110927	0	0	-0.484823	0.148101	0.00972539	-1.25494e-10	-0.0482254	0	0	-0.623847	0.0486308	0.11932	0	0	0	0	0	0	0	0	0	0	0	0	0	0
0.0898407	-2.6925	0.0509286	-0.164843	2.77052	-0.999621	0.190421	-0.389106	-0.231615	0.00747652	0.0863675	0.113337	0	0	-0.484485	0.1492	-0.00514184	-2.6768e-10	-0.0488467	0	0	-0.630846	0.0495201	0.133418	0	0	0	0	0	0	0	0	0	0	0	0	0	0
0.099823	-2.69132	0.0451904	-0.178208	2.77189	-0.99958	0.190644	-0.380254	-0.231853	0.0159507	0.096011	0.115754	0	0	-0.484207	0.150378	-0.0189912	-4.55746e-10	-0.0491901	0	0	-0.63727	0.0501383	0.146622	0	0	0	0	0	0	0	0	0	0	0	0	0	0
0.109805	-2.69025	0.0402344	-0.190229	2.77314	-0.999529	0.190861	-0.372089	-0.232155	0.0229328	0.105262	0.118125	0	0	-0.483985	0.151631	-0.031658	-6.92935e-10	-0.0493383	0	0	-0.643082	0.0504305	0.158724	0	0	0	0	0	0	0	0	0	0	0	0	0	0
0.119788	-2.68925	0.0360051	-0.200963	2.77428	-0.999471	0.191061	-0.364662	-0.23252	0.0286348	0.113973	0.120403	0	0	-0.483828	0.152948	-0.0430926	-9.77972e-10	-0.0493555	0	0	-0.648331	0.0503855	0.169665	0	0	0	0	0	0	0	0	0	0	0	0	0	0
0.12977	-2.68829	0.0324207	-0.210505	2.77531	-0.999407	0.191233	-0.358033	-0.23295	0.0333362	0.122012	0.122534	0	0	-0.483769	0.154314	-0.0533246	-1.30264e-09	-0.049288	0	0	-0.653121	0.0500326	0.179455	0	0	0	0	0	0	0	0	0	0	0	0	0	0
0.139752	-2.68729	0.0293984	-0.218937	2.77624	-0.999337	0.191365	-0.3523	-0.233454	0.0373185	0.129251	0.124466	0	0	-0.483874	0.155715	-0.0624057	-1.64889e-09	-0.0491621	0	0	-0.657602	0.0494299	0.188117	0	0	0	0	0	0	0	0	0	0	0	0	0	0
0.149735	-2.68621	0.0269153	-0.226214	2.77709	-0.999265	0.191454	-0.347564	-0.234027	0.0407434	0.135531	0.126137	0	0	-0.484165	0.157109	-0.0703037	-1.98578e-09	-0.048984	0	0	-0.661834	0.0484699	0.195611	0	0	0	0	0	0	0	0	0	0	0	0	0	0
0.159717	-2.68502	0.0249359	-0.232348	2.77785	-0.999188	0.191499	-0.343889	-0.234672	0.0437955	0.140773	0.127533	0	0	-0.484671	0.158468	-0.0770157	-2.26593e-09	-0.0487472	0	0	-0.665912	0.0470106	0.201953	0	0	0	0	0	0	0	0	0	0	0	0	0	0
0.169699	-2.68364	0.0234373	-0.237374	2.77855	-0.999109	0.191506	-0.341309	-0.235411	0.0466225	0.144981	0.128662	0	0	-0.485439	0.159791	-0.0825785	-2.42214e-09	-0.0484377	0	0	-0.669961	0.0448814	0.20718	0	0	0	0	0	0	0	0	0	0	0	0	0	0
0.179681	-2.68201	0.0224009	-0.241338	2.77921	-0.999028	0.191477	-0.339829	-0.236275	0.0492993	0.148251	0.129557	0	0	-0.486529	0.161095	-0.0870624	-2.36468e-09	-0.048032	0	0	-0.674141	0.0419098	0.211335	0	0	0	0	0	0	0	0	0	0	0	0	0	0
0.189664	-2.68002	0.021809	-0.24429	2.77984	-0.998944	0.19141	-0.339429	-0.237296	0.0518313	0.150741	0.13027	0	0	-0.488007	0.162402	-0.0905672	-1.98017e-09	-0.0474945	0	0	-0.678635	0.0379409	0.214446	0	0	0	0	0	0	0	0	0	0	0	0	0	0
0.199646	-2.67761	0.0216458	-0.246282	2.78046	-0.998855	0.191305	-0.340068	-0.238507	0.0541815	0.152632	0.130867	0	0	-0.489928	0.163738	-0.0932154	-1.13199e-09	-0.0467812	0	0	-0.683627	0.0328548	0.216531	0	0	0	0	0	0	0	0	0	0	0	0	0	0
0.209628	-2.67473	0.0219014	-0.247381	2.78108	-0.998757	0.191162	-0.341687	-0.239942	0.0562993	0.15409	0.131408	0	0	-0.492326	0.165138	-0.095139	3.36128e-10	-0.0458538	0	0	-0.689267	0.0265871	0.2176	0	0	0	0	0	0	0	0	0	0	0	0	0	0
0.219611	-2.67137	0.0225743	-0.24767	2.78172	-0.998651	0.190986	-0.344193	-0.241633	0.0581434	0.15525	0.131936	0	0	-0.495192	0.16664	-0.0964608	2.59222e-09	-0.044697	0	0	-0.695629	0.0191626	0.21767	0	0	0	0	0	0	0	0	0	0	0	0	0	0
0.229593	-2.66759	0.0236531	-0.247257	2.78236	-0.998537	0.190785	-0.347429	-0.243593	0.0596878	0.156214	0.132473	0	0	-0.498447	0.16827	-0.0972951	5.80124e-09	-0.0433245	0	0	-0.702672	0.0107668	0.216791	0	0	0	0	0	0	0	0	0	0	0	0	0	0
0.239575	-2.66356	0.0250941	-0.246281	2.783	-0.998418	0.190564	-0.351144	-0.245787	0.0609295	0.157035	0.133015	0	0	-0.501917	0.170021	-0.0977496	1.01023e-08	-0.0417853	0	0	-0.710175	0.00182966	0.215067	0	0	0	0	0	0	0	0	0	0	0	0	0	0
0.249558	-2.6596	0.0268022	-0.244947	2.78361	-0.9983	0.19033	-0.35495	-0.24812	0.0619028	0.157716	0.133522	0	0	-0.505293	0.17184	-0.0979315	1.55764e-08	-0.0401776	0	0	-0.717678	-0.00688756	0.212697	0	0	0	0	0	0	0	0	0	0	0	0	0	0
0.25954	-2.65594	0.0286246	-0.243482	2.78416	-0.998186	0.190093	-0.358591	-0.250465	0.0626617	0.158196	0.133998	0	0	-0.508387	0.173649	-0.0977944	2.22042e-08	-0.0386837	0	0	-0.724749	-0.0149187	0.20991	0	0	0	0	0	0	0	0	0	0	0	0	0	0
0.269522	-2.65265	0.0304268	-0.242062	2.78463	-0.99808	0.189863	-0.36196	-0.25272	0.0632494	0.158395	0.134465	0	0	-0.511132	0.175381	-0.0972238	2.98119e-08	-0.0374917	0	0	-0.731096	-0.0220998	0.206916	0	0	0	0	0	0	0	0	0	0	0	0	0	0
0.279504	-2.64974	0.0321671	-0.240707	2.78504	-0.997982	0.189645	-0.365087	-0.254843	0.063667	0.158298	0.134929	0	0	-0.513559	0.177003	-0.0961956	3.80057e-08	-0.0366175	0	0	-0.736666	-0.0285543	0.203857	0	0	0	0	0	0	0	0	0	0	0	0	0	0
0.289487	-2.64728	0.0338514	-0.239388	2.78536	-0.997894	0.18944	-0.367876	-0.256809	0.06394	0.157966	0.135345	0	0	-0.515587	0.178489	-0.0948624	4.60959e-08	-0.0359564	0	0	-0.741409	-0.0340668	0.200823	0	0	0	0	0	0	0	0	0	0	0	0	0	0
0.299469	-2.64534	0.0354494	-0.238102	2.78561	-0.997818	0.189245	-0.370234	-0.258575	0.0641102	0.15748	0.135665	0	0	-0.517154	0.179806	-0.0934346	5.3015e-08	-0.0353918	0	0	-0.745276	-0.0384468	0.19788	0	0	0	0	0	0	0	0	0	0	0	0	0	0
0.309451	-2.64395	0.0369035	-0.236898	2.78578	-0.997756	0.189056	-0.372089	-0.260099	0.0642426	0.156905	0.135858	0	0	-0.518234	0.180925	-0.092094	5.72372e-08	-0.0348617	0	0	-0.74824	-0.0415755	0.195095	0	0	0	0	0	0	0	0	0	0	0	0	0	0
0.319434	-2.64309	0.0381395	-0.235871	2.78588	-0.997706	0.188874	-0.373389	-0.261344	0.0644254	0.156284	0.135913	0	0	-0.518825	0.18183	-0.0909621	5.67111e-08	-0.0343735	0	0	-0.750296	-0.0433976	0.192539	0	0	0	0	0	0	0	0	0	0	0	0	0	0
0.329416	-2.64277	0.0390727	-0.235149	2.78593	-0.99767	0.1887	-0.374099	-0.262276	0.0647607	0.155627	0.135842	0	0	-0.518943	0.182509	-0.0900909	4.88166e-08	-0.0340036	0	0	-0.751447	-0.043906	0.190294	0	0	0	0	0	0	0	0	0	0	0	0	0	0
0.339398	-2.64296	0.0396035	-0.234902	2.78594	-0.997647	0.188541	-0.374203	-0.26286	0.0653534	0.154899	0.135676	0	0	-0.518615	0.182956	-0.0894387	3.03706e-08	-0.0339164	0	0	-0.751685	-0.0431276	0.18845	0	0	0	0	0	0	0	0	0	0	0	0	0	0
0.349381	-2.64362	0.0396999	-0.23519	2.78592	-0.997638	0.188399	-0.373701	-0.263091	0.0662788	0.154131	0.135412	0	0	-0.517869	0.18318	-0.0891265	-2.29523e-09	-0.0340818	0	0	-0.751083	-0.0411492	0.187084	0	0	0	0	0	0	0	0	0	0	0	0	0	0
0.359363	-2.6447	0.0393283	-0.236099	2.78589	-0.997641	0.188282	-0.372618	-0.262974	0.0675962	0.15332	0.135072	0	0	-0.516754	0.1832	-0.0891833	-5.3151e-08	-0.0345451	0	0	-0.74973	-0.0381054	0.186265	0	0	0	0	0	0	0	0	0	0	0	0	0	0
0.369345	-2.64611	0.0384613	-0.237722	2.78584	-0.997656	0.1882	-0.371012	-0.262523	0.0693583	0.152425	0.134699	0	0	-0.515336	0.183042	-0.0895251	-1.26144e-07	-0.0354231	0	0	-0.747715	-0.0341999	0.186057	0	0	0	0	0	0	0	0	0	0	0	0	0	0
0.379327	-2.64776	0.0371483	-0.240025	2.78579	-0.997679	0.188159	-0.368995	-0.261789	0.0715772	0.151458	0.134316	0	0	-0.51371	0.18275	-0.0901642	-2.24692e-07	-0.0366693	0	0	-0.745208	-0.0297491	0.1865	0	0	0	0	0	0	0	0	0	0	0	0	0	0
0.38931	-2.6495	0.0355251	-0.242832	2.78574	-0.997707	0.188158	-0.366742	-0.260872	0.0741972	0.150504	0.133927	0	0	-0.512009	0.182391	-0.0912264	-3.50963e-07	-0.0380525	0	0	-0.742516	-0.0252166	0.187592	0	0	0	0	0	0	0	0	0	0	0	0	0	0
0.399292	-2.65128	0.0336848	-0.246068	2.7857	-0.997737	0.188198	-0.364292	-0.259841	0.0771825	0.149598	0.133531	0	0	-0.51025	0.182018	-0.0927945	-5.04893e-07	-0.0394518	0	0	-0.739812	-0.0206752	0.189268	0	0	0	0	0	0	0	0	0	0	0	0	0	0
0.409274	-2.65305	0.0317028	-0.249634	2.78567	-0.997769	0.188276	-0.361712	-0.258747	0.0805071	0.148799	0.133116	0	0	-0.508479	0.181666	-0.0949998	-6.82933e-07	-0.0407088	0	0	-0.737242	-0.0162811	0.191469	0	0	0	0	0	0	0	0	0	0	0	0	0	0
0.419257	-2.65468	0.0296512	-0.253416	2.78565	-0.997799	0.18839	-0.359166	-0.257649	0.084133	0.148148	0.132684	0	0	-0.506827	0.181374	-0.0979181	-8.7652e-07	-0.041692	0	0	-0.73501	-0.0124051	0.194161	0	0	0	0	0	0	0	0	0	0	0	0	0	0
0.429239	-2.6561	0.0275851	-0.257352	2.78566	-0.997827	0.18854	-0.356742	-0.256595	0.0880488	0.147655	0.132237	0	0	-0.505355	0.181171	-0.101591	-1.07031e-06	-0.0423429	0	0	-0.733254	-0.00916333	0.197304	0	0	0	0	0	0	0	0	0	0	0	0	0	0
0.439221	-2.65738	0.0254952	-0.261485	2.7857	-0.997855	0.188727	-0.354374	-0.255571	0.0922901	0.147271	0.131758	0	0	-0.50399	0.181054	-0.106024	-1.24026e-06	-0.0427064	0	0	-0.731932	-0.00630432	0.200864	0	0	0	0	0	0	0	0	0	0	0	0	0	0
0.449204	-2.65879	0.0232995	-0.265976	2.78572	-0.997891	0.188953	-0.351802	-0.254496	0.0969585	0.146911	0.131202	0	0	-0.502498	0.180971	-0.11122	-1.35169e-06	-0.0429123	0	0	-0.730755	-0.00319068	0.204828	0	0	0	0	0	0	0	0	0	0	0	0	0	0
0.459186	-2.6605	0.020849	-0.271037	2.78572	-0.997938	0.189221	-0.348848	-0.253259	0.102177	0.146456	0.130558	0	0	-0.500734	0.180852	-0.117076	-1.35762e-06	-0.0431695	0	0	-0.729372	0.000595512	0.209272	0	0	0	0	0	0	0	0	0	0	0	0	0	0
0.469168	-2.66255	0.0180912	-0.276669	2.78569	-0.997994	0.189523	-0.345497	-0.251812	0.108036	0.145895	0.129798	0	0	-0.498679	0.180652	-0.123676	-1.19762e-06	-0.0434139	0	0	-0.727646	0.0050701	0.21431	0	0	0	0	0	0	0	0	0	0	0	0	0	0
0.47915	-2.66479	0.0150518	-0.282738	2.78562	-0.998055	0.18985	-0.341972	-0.250187	0.114545	0.145229	0.128918	0	0	-0.4965	0.180371	-0.131046	-7.97818e-07	-0.0435168	0	0	-0.725699	0.00978207	0.220043	0	0	0	0	0	0	0	0	0	0	0	0	0	0
0.489133	-2.66704	0.0117956	-0.289078	2.78551	-0.998116	0.190198	-0.338559	-0.248445	0.121681	0.144406	0.127914	0	0	-0.494395	0.180035	-0.139106	-7.24211e-08	-0.043397	0	0	-0.723728	0.014299	0.226504	0	0	0	0	0	0	0	0	0	0	0	0	0	0
0.499115	-2.66915	0.00840989	-0.295505	2.78536	-0.99818	0.190566	-0.335552	-0.246656	0.129391	0.143316	0.12677	0	0	-0.492534	0.179672	-0.147663	1.07227e-06	-0.043037	0	0	-0.72191	0.018281	0.233636	0	0	0	0	0	0	0	0	0	0	0	0	0	0
0.509097	-2.67099	0.00499743	-0.301804	2.78514	-0.998247	0.190956	-0.333241	-0.244883	0.137594	0.141793	0.12545	0	0	-0.491053	0.179298	-0.156438	2.73069e-06	-0.0424581	0	0	-0.720343	0.0214883	0.241281	0	0	0	0	0	0	0	0	0	0	0	0	0	0
0.51908	-2.67252	0.00167659	-0.307707	2.78484	-0.998319	0.191367	-0.331903	-0.24318	0.146163	0.139639	0.123906	0	0	-0.490043	0.17891	-0.165071	4.98661e-06	-0.0417004	0	0	-0.719035	0.0237721	0.249176	0	0	0	0	0	0	0	0	0	0	0	0	0	0
0.529062	-2.67372	-0.00141063	-0.312879	2.78441	-0.998398	0.191795	-0.331817	-0.241594	0.154916	0.13663	0.122077	0	0	-0.489568	0.178486	-0.173124	7.8967e-06	-0.0408128	0	0	-0.717895	0.0250526	0.25694	0	0	0	0	0	0	0	0	0	0	0	0	0	0
0.539044	-2.67458	-0.00409004	-0.316912	2.78377	-0.998483	0.192234	-0.333269	-0.240175	0.16358	0.132519	0.119897	0	0	-0.489662	0.177989	-0.180078	1.14681e-05	-0.0398461	0	0	-0.716751	0.0252973	0.264073	0	0	0	0	0	0	0	0	0	0	0	0	0	0
0.549027	-2.67516	-0.00616644	-0.31934	2.78288	-0.998573	0.192674	-0.336539	-0.238971	0.171829	0.127062	0.117308	0	0	-0.490338	0.17737	-0.185347	1.56295e-05	-0.0388355	0	0	-0.715368	0.0244974	0.269977	0	0	0	0	0	0	0	0	0	0	0	0	0	0
0.559009	-2.67549	-0.00742765	-0.319686	2.78167	-0.998661	0.193104	-0.341881	-0.238034	0.179288	0.120049	0.114264	0	0	-0.49159	0.176579	-0.188314	2.01959e-05	-0.0377998	0	0	-0.713478	0.0226417	0.274002	0	0	0	0	0	0	0	0	0	0	0	0	0	0
0.568991	-2.67561	-0.00764273	-0.31751	2.78009	-0.998743	0.193521	-0.349484	-0.237438	0.18556	0.111348	0.110753	0	0	-0.493394	0.175599	-0.188387	2.48269e-05	-0.0367531	0	0	-0.710817	0.019684	0.275488	0	0	0	0	0	0	0	0	0	0	0	0	0	0
0.578973	-2.67554	-0.00658714	-0.31249	2.77811	-0.998814	0.193926	-0.35942	-0.237275	0.190272	0.100967	0.106803	0	0	-0.495703	0.174451	-0.185075	2.89816e-05	-0.0357085	0	0	-0.707167	0.0155468	0.273829	0	0	0	0	0	0	0	0	0	0	0	0	0	0
0.588956	-2.67529	-0.00410338	-0.304515	2.77574	-0.998869	0.194325	-0.371575	-0.237628	0.193156	0.0891076	0.102486	0	0	-0.49844	0.173195	-0.178115	3.18727e-05	-0.0346709	0	0	-0.702418	0.0101633	0.26856	0	0	0	0	0	0	0	0	0	0	0	0	0	0
0.598938	-2.67485	-0.000151967	-0.293804	2.77308	-0.998906	0.194725	-0.385596	-0.238571	0.1942	0.0761747	0.0979173	0	0	-0.501496	0.171941	-0.167618	3.2425e-05	-0.0336296	0	0	-0.696616	0.00351642	0.259522	0	0	0	0	0	0	0	0	0	0	0	0	0	0
0.60892	-2.67417	0.00515599	-0.280952	2.77024	-0.998922	0.195138	-0.400888	-0.240162	0.193747	0.0627371	0.0932442	0	0	-0.504718	0.170835	-0.154146	2.9247e-05	-0.032548	0	0	-0.689968	-0.00427701	0.247027	0	0	0	0	0	0	0	0	0	0	0	0	0	0
0.618903	-2.67321	0.0115579	-0.266853	2.76745	-0.998921	0.195573	-0.41665	-0.24243	0.192488	0.0494303	0.0886193	0	0	-0.507909	0.170022	-0.138665	2.0625e-05	-0.0313457	0	0	-0.682806	-0.0128179	0.231872	0	0	0	0	0	0	0	0	0	0	0	0	0	0
0.628885	-2.67174	0.018587	-0.252675	2.76497	-0.998903	0.196024	-0.432046	-0.245387	0.191513	0.0370029	0.0842182	0	0	-0.511007	0.169649	-0.122758	4.55498e-06	-0.0297756	0	0	-0.67586	-0.0219058	0.21533	0	0	0	0	0	0	0	0	0	0	0	0	0	0
0.638867	-2.66961	0.0255908	-0.240018	2.76318	-0.998879	0.196492	-0.445916	-0.249015	0.192439	0.0261309	0.0801682	0	0	-0.513789	0.16986	-0.108667	-2.11717e-05	-0.0275465	0	0	-0.670038	-0.0309103	0.199139	0	0	0	0	0	0	0	0	0	0	0	0	0	0
0.64885	-2.66686	0.0320151	-0.23016	2.76214	-0.998847	0.196993	-0.457561	-0.253285	0.196378	0.0171227	0.0766001	0	0	-0.516158	0.170806	-0.0978923	-5.88092e-05	-0.0245945	0	0	-0.665816	-0.0394953	0.184701	0	0	0	0	0	0	0	0	0	0	0	0	0	0
0.658832	-2.66378	0.0373589	-0.224107	2.76167	-0.998783	0.197552	-0.466728	-0.258116	0.203981	0.0100273	0.0736406	0	0	-0.518113	0.172626	-0.0912962	-0.000110401	-0.0210588	0	0	-0.663242	-0.0475223	0.17317	0	0	0	0	0	0	0	0	0	0	0	0	0	0
0.668814	-2.66067	0.0412492	-0.222431	2.76157	-0.998672	0.19818	-0.473296	-0.263357	0.215532	0.0047238	0.0714013	0	0	-0.519639	0.175326	-0.0895524	-0.000177407	-0.0169346	0	0	-0.662029	-0.0549765	0.165511	0	0	0	0	0	0	0	0	0	0	0	0	0	0
0.678796	-2.65776	0.0433581	-0.225451	2.7617	-0.998508	0.198874	-0.477266	-0.268796	0.23111	0.000991492	0.0699705	0	0	-0.520767	0.178811	-0.0930042	-0.000260192	-0.0122711	0	0	-0.661877	-0.0618289	0.162487	0	0	0	0	0	0	0	0	0	0	0	0	0	0
0.688779	-2.65525	0.0433644	-0.233298	2.76192	-0.99829	0.199625	-0.478714	-0.274141	0.250678	-0.00143708	0.0693717	0	0	-0.521562	0.18287	-0.101731	-0.000357356	-0.00717831	0	0	-0.662549	-0.0680087	0.164686	0	0	0	0	0	0	0	0	0	0	0	0	0	0
0.698761	-2.65337	0.0409428	-0.245926	2.76217	-0.998028	0.200421	-0.477744	-0.27899	0.274075	-0.00283924	0.0695733	0	0	-0.522084	0.187163	-0.115872	-0.000464919	-0.00164074	0	0	-0.663998	-0.0734169	0.172543	0	0	0	0	0	0	0	0	0	0	0	0	0	0
0.708743	-2.65231	0.0357454	-0.263238	2.76239	-0.997742	0.201251	-0.474479	-0.282868	0.301106	-0.00347805	0.07042	0	0	-0.522405	0.191274	-0.135482	-0.000575351	0.00430098	0	0	-0.666255	-0.077941	0.186371	0	0	0	0	0	0	0	0	0	0	0	0	0	0
0.718726	-2.65228	0.0274471	-0.285112	2.76259	-0.997452	0.202116	-0.46907	-0.285279	0.331564	-0.0035884	0.0716434	0	0	-0.522604	0.194755	-0.160519	-0.000676505	0.0105546	0	0	-0.669366	-0.0815248	0.20637	0	0	0	0	0	0	0	0	0	0	0	0	0	0
0.728708	-2.65345	0.0158324	-0.311395	2.76278	-0.997177	0.203045	-0.461704	-0.285764	0.3652	-0.0033706	0.0729124	0	0	-0.522759	0.197184	-0.190808	-0.000750523	0.0169884	0	0	-0.673331	-0.0842856	0.232596	0	0	0	0	0	0	0	0	0	0	0	0	0	0
0.73869	-2.65605	0.000817926	-0.341902	2.76301	-0.996932	0.204111	-0.452556	-0.283901	0.401695	-0.00298937	0.073958	0	0	-0.522881	0.198163	-0.226214	-0.000772829	0.0235236	0	0	-0.678065	-0.0860639	0.26486	0	0	0	0	0	0	0	0	0	0	0	0	0	0
0.748673	-2.66029	-0.0174995	-0.376295	2.76331	-0.996727	0.205422	-0.441898	-0.279337	0.440574	-0.00257595	0.07449	0	0	-0.522985	0.197323	-0.266333	-0.000711393	0.0300487	0	0	-0.683353	-0.0868395	0.302695	0	0	0	0	0	0	0	0	0	0	0	0	0	0
0.758655	-2.66635	-0.0387776	-0.413883	2.76371	-0.996568	0.207125	-0.430144	-0.271748	0.480858	-0.00223188	0.0743064	0	0	-0.523073	0.194264	-0.31041	-0.000526513	0.0365253	0	0	-0.688903	-0.0868126	0.345161	0	0	0	0	0	0	0	0	0	0	0	0	0	0
0.768637	-2.67442	-0.0623464	-0.453343	2.76417	-0.99646	0.209389	-0.417942	-0.260822	0.520805	-0.00203316	0.0732263	0	0	-0.523148	0.188515	-0.356977	-0.000171424	0.0429249	0	0	-0.694274	-0.0863168	0.390596	0	0	0	0	0	0	0	0	0	0	0	0	0	0
0.778619	-2.68468	-0.087155	-0.492427	2.76459	-0.996419	0.21239	-0.406264	-0.246199	0.557519	-0.00203359	0.0710727	0	0	-0.52322	0.179447	-0.403575	0.000405868	0.0492484	0	0	-0.698853	-0.0857146	0.436352	0	0	0	0	0	0	0	0	0	0	0	0	0	0
0.788602	-2.69704	-0.112205	-0.529776	2.76496	-0.996418	0.216262	-0.395547	-0.228079	0.589866	-0.0022668	0.0681675	0	0	-0.523289	0.167004	-0.448495	0.00125906	0.0555201	0	0	-0.702065	-0.0857561	0.480683	0	0	0	0	0	0	0	0	0	0	0	0	0	0
0.798584	-2.71133	-0.136875	-0.564846	2.7653	-0.996438	0.221031	-0.386082	-0.206774	0.61711	-0.00274623	0.0645402	0	0	-0.523359	0.1514	-0.490861	0.00243782	0.0617509	0	0	-0.703285	-0.0872498	0.522696	0	0	0	0	0	0	0	0	0	0	0	0	0	0
0.808566	-2.72716	-0.160544	-0.597639	2.76569	-0.996428	0.226643	-0.37771	-0.183086	0.63959	-0.00346281	0.0607859	0	0	-0.523423	0.133351	-0.530292	0.00397931	0.067968	0	0	-0.702277	-0.0906608	0.562151	0	0	0	0	0	0	0	0	0	0	0	0	0	0
0.818549	-2.74412	-0.182742	-0.62808	2.76616	-0.996358	0.232955	-0.370298	-0.157856	0.658051	-0.00438019	0.0574202	0	0	-0.523479	0.11356	-0.566391	0.00589648	0.0741912	0	0	-0.699058	-0.0961483	0.599102	0	0	0	0	0	0	0	0	0	0	0	0	0	0
0.828531	-2.76174	-0.203156	-0.65599	2.76668	-0.996218	0.239698	-0.363807	-0.131909	0.672937	-0.00542766	0.0546184	0	0	-0.523525	0.0927603	-0.598704	0.00816279	0.0804273	0	0	-0.693608	-0.103573	0.633736	0	0	0	0	0	0	0	0	0	0	0	0	0	0
0.838513	-2.77952	-0.221648	-0.681297	2.7672	-0.996016	0.246489	-0.358254	-0.1061	0.684448	-0.00649099	0.0521823	0	0	-0.523562	0.0718033	-0.626893	0.0106931	0.0866579	0	0	-0.68621	-0.112202	0.666175	0	0	0	0	0	0	0	0	0	0	0	0	0	0
0.848496	-2.79695	-0.238165	-0.703685	2.76762	-0.995778	0.25294	-0.353773	-0.0811539	0.69289	-0.00740207	0.0497857	0	0	-0.52359	0.051381	-0.650572	0.0134029	0.0928857	0	0	-0.677403	-0.121126	0.696415	0	0	0	0	0	0	0	0	0	0	0	0	0	0
0.858478	-2.81358	-0.252809	-0.7227	2.76783	-0.995551	0.25872	-0.350635	-0.0575154	0.6987	-0.00792835	0.0469618	0	0	-0.523611	0.0318807	-0.669484	0.0163352	0.0991032	0	0	-0.667949	-0.129454	0.724339	0	0	0	0	0	0	0	0	0	0	0	0	0	0
0.86846	-2.82881	-0.265615	-0.738187	2.76779	-0.995358	0.263552	-0.348771	-0.0357935	0.702365	-0.00776376	0.0437747	0	0	-0.523625	0.0138886	-0.683846	0.019549	0.105314	0	0	-0.659088	-0.136386	0.74965	0	0	0	0	0	0	0	0	0	0	0	0	0	0
0.878442	-2.84191	-0.276428	-0.750272	2.76752	-0.995188	0.26724	-0.347761	-0.0168537	0.704367	-0.00652353	0.0409955	0	0	-0.523634	-0.00172442	-0.694157	0.0231001	0.11155	0	0	-0.652057	-0.141579	0.772131	0	0	0	0	0	0	0	0	0	0	0	0	0	0
0.888425	-2.85235	-0.285149	-0.75923	2.76704	-0.995027	0.269711	-0.347192	-0.00125936	0.705148	-0.00374316	0.0393765	0	0	-0.523638	-0.0143157	-0.701059	0.0270359	0.117828	0	0	-0.64754	-0.145206	0.791603	0	0	0	0	0	0	0	0	0	0	0	0	0	0
0.898407	-2.85979	-0.291781	-0.765366	2.76636	-0.994861	0.270968	-0.346688	0.010751	0.705085	0.00111395	0.0395775	0	0	-0.523638	-0.0235367	-0.705234	0.0314437	0.124167	0	0	-0.646076	-0.147567	0.807981	0	0	0	0	0	0	0	0	0	0	0	0	0	0
0.908389	-2.86412	-0.296426	-0.76891	2.76554	-0.994676	0.271106	-0.345904	0.0193151	0.704487	0.00865784	0.042095	0	0	-0.523634	-0.0294171	-0.707336	0.0364548	0.130599	0	0	-0.647705	-0.149239	0.821144	0	0	0	0	0	0	0	0	0	0	0	0	0	0
0.918372	-2.86546	-0.299234	-0.770061	2.76459	-0.994463	0.270302	-0.344511	0.0248775	0.703594	0.0195145	0.0472299	0	0	-0.523626	-0.0322825	-0.707945	0.0421751	0.137151	0	0	-0.652072	-0.150792	0.831039	0	0	0	0	0	0	0	0	0	0	0	0	0	0
0.928354	-2.86398	-0.300418	-0.769003	2.76357	-0.994212	0.268751	-0.342265	0.0280333	0.702583	0.0342363	0.0550797	0	0	-0.523612	-0.0326358	-0.707552	0.0487803	0.143865	0	0	-0.658791	-0.152782	0.837698	0	0	0	0	0	0	0	0	0	0	0	0	0	0
0.938336	-2.85997	-0.300184	-0.765899	2.76251	-0.993907	0.266652	-0.339003	0.0294116	0.701576	0.0532247	0.0655482	0	0	-0.523593	-0.0310314	-0.706552	0.0564263	0.150801	0	0	-0.667324	-0.155725	0.841276	0	0	0	0	0	0	0	0	0	0	0	0	0	0
0.948319	-2.85359	-0.298712	-0.760882	2.76151	-0.993529	0.264175	-0.334652	0.0295671	0.70065	0.076816	0.0784681	0	0	-0.523567	-0.0279727	-0.705242	0.0653546	0.158034	0	0	-0.677243	-0.160228	0.842003	0	0	0	0	0	0	0	0	0	0	0	0	0	0
0.958301	-2.84508	-0.296066	-0.75416	2.76059	-0.993055	0.261494	-0.329119	0.0289477	0.699851	0.10523	0.0935961	0	0	-0.523533	-0.0237975	-0.703841	0.0755872	0.16561	0	0	-0.68834	-0.166521	0.84006	0	0	0	0	0	0	0	0	0	0	0	0	0	0
0.968283	-2.83465	-0.292245	-0.745838	2.75979	-0.992465	0.258777	-0.322406	0.0278933	0.699197	0.138506	0.110593	0	0	-0.52349	-0.0188055	-0.702492	0.0871483	0.173552	0	0	-0.700076	-0.175112	0.835511	0	0	0	0	0	0	0	0	0	0	0	0	0	0
0.978265	-2.82253	-0.287246	-0.736005	2.75912	-0.991745	0.25618	-0.314545	0.0267109	0.698689	0.176558	0.128983	0	0	-0.523438	-0.0132938	-0.701284	0.100007	0.181851	0	0	-0.712023	-0.186322	0.828321	0	0	0	0	0	0	0	0	0	0	0	0	0	0
0.988248	-2.809	-0.281104	-0.724734	2.75859	-0.990892	0.253833	-0.305598	0.0257107	0.69832	0.219144	0.148163	0	0	-0.523378	-0.00759144	-0.700264	0.114073	0.190471	0	0	-0.723985	-0.2001	0.818441	0	0	0	0	0	0	0	0	0	0	0	0	0	0
0.99823	-2.79438	-0.273877	-0.712077	2.75818	-0.989908	0.251842	-0.295703	0.0251596	0.698069	0.26578	0.167455	0	0	-0.523314	-0.00202058	-0.699446	0.129194	0.199355	0	0	-0.736005	-0.215971	0.805912	0	0	0	0	0	0	0	0	0	0	0	0	0	0
1.00821	-2.77904	-0.265641	-0.698068	2.75782	-0.988796	0.250299	-0.285093	0.0252817	0.697915	0.315736	0.186181	0	0	-0.523249	0.00310197	-0.698821	0.145203	0.208439	0	0	-0.747935	-0.233385	0.790878	0	0	0	0	0	0	0	0	0	0	0	0	0	0
1.01819	-2.76329	-0.256557	-0.682909	2.75749	-0.987563	0.249252	-0.273968	0.0262939	0.697834	0.368306	0.203689	0	0	-0.523192	0.00753075	-0.698371	0.161983	0.217637	0	0	-0.759654	-0.251923	0.773574	0	0	0	0	0	0	0	0	0	0	0	0	0	0
1.02818	-2.7474	-0.246832	-0.666932	2.75722	-0.986215	0.248724	-0.262465	0.0284085	0.697808	0.422848	0.21944	0	0	-0.523153	0.0110885	-0.698069	0.179479	0.226968	0	0	-0.771095	-0.271351	0.754309	0	0	0	0	0	0	0	0	0	0	0	0	0	0
1.03816	-2.73155	-0.23666	-0.650609	2.75703	-0.98475	0.248711	-0.250667	0.0317258	0.697819	0.478771	0.233063	0	0	-0.523149	0.0137722	-0.697884	0.197673	0.236424	0	0	-0.782258	-0.291736	0.733416	0	0	0	0	0	0	0	0	0	0	0	0	0	0
1.04814	-2.71589	-0.226186	-0.634651	2.75696	-0.98316	0.249178	-0.238502	0.0362076	0.697854	0.535525	0.244418	0	0	-0.523197	0.0158478	-0.697789	0.216386	0.24605	0	0	-0.793227	-0.31304	0.7114	0	0	0	0	0	0	0	0	0	0	0	0	0	0
1.05812	-2.70054	-0.215561	-0.619907	2.75707	-0.981432	0.250033	-0.225864	0.0416415	0.697901	0.592486	0.25355	0	0	-0.523323	0.0178061	-0.697758	0.235364	0.25583	0	0	-0.804099	-0.335383	0.688847	0	0	0	0	0	0	0	0	0	0	0	0	0	0
1.06811	-2.68554	-0.204907	-0.607168	2.75737	-0.979565	0.251158	-0.212667	0.0477022	0.697953	0.648889	0.260647	0	0	-0.523554	0.0202087	-0.697767	0.254305	0.265679	0	0	-0.81498	-0.359006	0.666295	0	0	0	0	0	0	0	0	0	0	0	0	0	0
1.07809	-2.67113	-0.194303	-0.596952	2.75777	-0.97758	0.252466	-0.198863	0.0541086	0.698001	0.703734	0.265967	0	0	-0.523922	0.0234926	-0.697798	0.27268	0.275462	0	0	-0.825761	-0.383514	0.644308	0	0	0	0	0	0	0	0	0	0	0	0	0	0
1.08807	-2.65757	-0.183761	-0.589111	2.7581	-0.975516	0.253942	-0.184644	0.0607567	0.698029	0.755812	0.269814	0	0	-0.524457	0.0276443	-0.697834	0.290079	0.285076	0	0	-0.8362	-0.408322	0.623198	0	0	0	0	0	0	0	0	0	0	0	0	0	0
1.09805	-2.64506	-0.173264	-0.583173	2.75822	-0.973408	0.255643	-0.170247	0.0677353	0.698023	0.804067	0.272445	0	0	-0.525187	0.0323544	-0.697865	0.306261	0.294486	0	0	-0.845911	-0.432819	0.603274	0	0	0	0	0	0	0	0	0	0	0	0	0	0
1.10804	-2.63367	-0.162761	-0.578662	2.75805	-0.971275	0.257632	-0.155886	0.0751049	0.69797	0.847706	0.27404	0	0	-0.526133	0.0373219	-0.69788	0.321171	0.30373	0	0	-0.854646	-0.456691	0.584644	0	0	0	0	0	0	0	0	0	0	0	0	0	0
1.11802	-2.62331	-0.15213	-0.575283	2.75755	-0.969117	0.259935	-0.141679	0.082716	0.697858	0.886135	0.274743	0	0	-0.527297	0.0425028	-0.697873	0.334795	0.312835	0	0	-0.862363	-0.479973	0.56715	0	0	0	0	0	0	0	0	0	0	0	0	0	0
1.128	-2.61382	-0.141198	-0.572993	2.75672	-0.966932	0.262515	-0.127595	0.0901722	0.697677	0.918919	0.274638	0	0	-0.528658	0.0481736	-0.697841	0.347045	0.321761	0	0	-0.869171	-0.502969	0.550397	0	0	0	0	0	0	0	0	0	0	0	0	0	0
1.13798	-2.60504	-0.129778	-0.571993	2.75556	-0.964723	0.265272	-0.11346	0.0969008	0.697419	0.945753	0.273742	0	0	-0.530159	0.0548725	-0.697781	0.357733	0.330388	0	0	-0.875274	-0.526165	0.533777	0	0	0	0	0	0	0	0	0	0	0	0	0	0
1.14796	-2.59685	-0.117644	-0.572656	2.75404	-0.962493	0.268061	-0.0989614	0.102201	0.697081	0.966472	0.272074	0	0	-0.531689	0.0633569	-0.697695	0.366546	0.338541	0	0	-0.880868	-0.549889	0.516678	0	0	0	0	0	0	0	0	0	0	0	0	0	0
1.15795	-2.58914	-0.104481	-0.575348	2.75214	-0.960242	0.270711	-0.0836991	0.105296	0.696667	0.981061	0.269716	0	0	-0.533077	0.0744782	-0.697588	0.373137	0.346006	0	0	-0.886055	-0.574238	0.498695	0	0	0	0	0	0	0	0	0	0	0	0	0	0
1.16793	-2.58184	-0.0898642	-0.580289	2.74982	-0.957959	0.273084	-0.0672354	0.105465	0.696191	0.989693	0.266812	0	0	-0.534067	0.0889908	-0.69747	0.377287	0.352577	0	0	-0.89079	-0.59909	0.479821	0	0	0	0	0	0	0	0	0	0	0	0	0	0
1.17791	-2.57495	-0.07337	-0.58745	2.74703	-0.955625	0.275107	-0.0491239	0.102277	0.695683	0.992676	0.263477	0	0	-0.53431	0.107293	-0.697355	0.378961	0.358144	0	0	-0.894885	-0.62452	0.460313	0	0	0	0	0	0	0	0	0	0	0	0	0	0
1.18789	-2.56865	-0.0546382	-0.596585	2.74377	-0.953218	0.276798	-0.0289056	0.095699	0.69519	0.990406	0.259722	0	0	-0.533346	0.129334	-0.697263	0.378331	0.362725	0	0	-0.897955	-0.650769	0.440665	0	0	0	0	0	0	0	0	0	0	0	0	0	0
1.19788	-2.56323	-0.033378	-0.607262	2.74001	-0.950708	0.27821	-0.00611742	0.0859632	0.694785	0.983316	0.255512	0	0	-0.53061	0.154724	-0.697225	0.375768	0.366411	0	0	-0.899523	-0.678005	0.421433	0	0	0	0	0	0	0	0	0	0	0	0	0	0
1.20786	-2.55907	-0.00927623	-0.61901	2.73576	-0.948053	0.279435	0.0197365	0.0734095	0.69457	0.971879	0.250889	0	0	-0.525433	0.182954	-0.697278	0.371768	0.369386	0	0	-0.898955	-0.706492	0.403023	0	0	0	0	0	0	0	0	0	0	0	0	0	0
1.21784	-2.55662	0.0179527	-0.631281	2.73103	-0.945204	0.28059	0.0491307	0.0585106	0.69468	0.956536	0.245958	0	0	-0.517073	0.213363	-0.697467	0.366909	0.371914	0	0	-0.895452	-0.736448	0.385761	0	0	0	0	0	0	0	0	0	0	0	0	0	0
1.22782	-2.5565	0.0484235	-0.643671	2.72587	-0.942119	0.281767	0.0826033	0.0419794	0.695155	0.937646	0.240352	0	0	-0.504711	0.245248	-0.697849	0.361742	0.374244	0	0	-0.888037	-0.767989	0.370046	0	0	0	0	0	0	0	0	0	0	0	0	0	0
1.23781	-2.55946	0.0820243	-0.655986	2.72034	-0.938772	0.28304	0.120702	0.0247793	0.695961	0.915461	0.233228	0	0	-0.487501	0.277874	-0.698485	0.356705	0.376565	0	0	-0.875495	-0.80114	0.356515	0	0	0	0	0	0	0	0	0	0	0	0	0	0
1.24779	-2.56635	0.118479	-0.668031	2.7145	-0.935149	0.284478	0.163788	0.00791313	0.697094	0.890056	0.223931	0	0	-0.464696	0.310454	-0.699439	0.352114	0.378999	0	0	-0.856414	-0.835808	0.346061	0	0	0	0	0	0	0	0	0	0	0	0	0	0
1.25777	-2.57788	0.157822	-0.679233	2.70834	-0.931211	0.286196	0.212186	-0.00790568	0.698569	0.861899	0.212268	0	0	-0.435753	0.342304	-0.700772	0.348281	0.381698	0	0	-0.829506	-0.872013	0.339537	0	0	0	0	0	0	0	0	0	0	0	0	0	0
1.26775	-2.59477	0.199912	-0.689076	2.70185	-0.926941	0.288223	0.266065	-0.0220865	0.700414	0.831272	0.198298	0	0	-0.400225	0.372857	-0.702533	0.3454	0.384772	0	0	-0.793526	-0.909569	0.337782	0	0	0	0	0	0	0	0	0	0	0	0	0	0
1.27773	-2.6174	0.244551	-0.696816	2.69492	-0.922327	0.290537	0.325268	-0.0343421	0.702651	0.798792	0.182538	0	0	-0.35823	0.401723	-0.704742	0.343531	0.388302	0	0	-0.747615	-0.947971	0.341354	0	0	0	0	0	0	0	0	0	0	0	0	0	0
1.28772	-2.64623	0.291307	-0.701765	2.68744	-0.917398	0.293035	0.38943	-0.0444741	0.70528	0.764781	0.165771	0	0	-0.309993	0.428542	-0.707378	0.342578	0.39229	0	0	-0.691068	-0.98654	0.350828	0	0	0	0	0	0	0	0	0	0	0	0	0	0
1.2977	-2.68127	0.339641	-0.703197	2.67929	-0.912179	0.295639	0.457861	-0.052406	0.708246	0.729991	0.148795	0	0	-0.256337	0.45305	-0.710354	0.342441	0.396765	0	0	-0.62385	-1.02445	0.366397	0	0	0	0	0	0	0	0	0	0	0	0	0	0
1.30768	-2.72226	0.388761	-0.70053	2.67044	-0.906724	0.298248	0.529466	-0.0582034	0.71142	0.694915	0.132544	0	0	-0.198392	0.474984	-0.713489	0.343013	0.401715	0	0	-0.546561	-1.06076	0.387854	0	0	0	0	0	0	0	0	0	0	0	0	0	0
1.31766	-2.76832	0.437749	-0.693114	2.66086	-0.901087	0.300839	0.602682	-0.0621232	0.714567	0.660479	0.117884	0	0	-0.138029	0.494053	-0.716484	0.34435	0.407207	0	0	-0.46106	-1.09443	0.414054	0	0	0	0	0	0	0	0	0	0	0	0	0	0
1.32765	-2.81809	0.485432	-0.680551	2.65065	-0.89536	0.303372	0.675475	-0.0645297	0.717319	0.627427	0.105324	0	0	-0.0774791	0.509964	-0.718885	0.346585	0.413301	0	0	-0.370274	-1.12433	0.443092	0	0	0	0	0	0	0	0	0	0	0	0	0	0
1.33763	-2.86968	0.530434	-0.662784	2.63995	-0.889673	0.305774	0.745386	-0.0659104	0.719146	0.596269	0.0949769	0	0	-0.0192838	0.522498	-0.720056	0.34985	0.420003	0	0	-0.27807	-1.14919	0.472461	0	0	0	0	0	0	0	0	0	0	0	0	0	0
1.34761	-2.92121	0.571473	-0.639849	2.62894	-0.884196	0.307929	0.809992	-0.0668388	0.719326	0.567211	0.0865973	0	0	0.0342088	0.531456	-0.719155	0.354212	0.427242	0	0	-0.188847	-1.16774	0.499631	0	0	0	0	0	0	0	0	0	0	0	0	0	0
1.35759	-2.97053	0.607353	-0.611918	2.61784	-0.879127	0.309683	0.866794	-0.0679844	0.716929	0.540207	0.0796726	0	0	0.0807509	0.53665	-0.715125	0.359756	0.434866	0	0	-0.107408	-1.17864	0.521988	0	0	0	0	0	0	0	0	0	0	0	0	0	0
1.36758	-3.01527	0.636871	-0.579286	2.60691	-0.874702	0.310851	0.91309	-0.0700594	0.710816	0.514927	0.0734855	0	0	0.118111	0.537812	-0.706696	0.366617	0.442642	0	0	-0.0390879	-1.18041	0.536732	0	0	0	0	0	0	0	0	0	0	0	0	0	0
1.37756	-3.05283	0.658823	-0.542373	2.59645	-0.871185	0.311227	0.946005	-0.0737299	0.699657	0.490695	0.0671179	0	0	0.144141	0.534547	-0.692431	0.374968	0.450286	0	0	0.0105385	-1.17152	0.541072	0	0	0	0	0	0	0	0	0	0	0	0	0	0
1.38754	-3.08036	0.672023	-0.501276	2.58674	-0.868847	0.310647	0.962603	-0.0797794	0.682002	0.46731	0.0599786	0	0	0.156335	0.526317	-0.67081	0.385147	0.457562	0	0	0.0351506	-1.15039	0.531699	0	0	0	0	0	0	0	0	0	0	0	0	0	0
1.39752	-3.09497	0.675292	-0.456104	2.57807	-0.867977	0.308927	0.959915	-0.0889773	0.656381	0.444271	0.0514045	0	0	0.152323	0.512478	-0.640366	0.39763	0.464274	0	0	0.028069	-1.11555	0.505105	0	0	0	0	0	0	0	0	0	0	0	0	0	0
1.4075	-3.09402	0.667533	-0.407203	2.57071	-0.868852	0.305883	0.935298	-0.101823	0.621487	0.420763	0.0405691	0	0	0.130218	0.492355	-0.599907	0.412855	0.470234	0	0	-0.016588	-1.06585	0.458557	0	0	0	0	0	0	0	0	0	0	0	0	0	0
1.41749	-3.07567	0.647899	-0.355328	2.56487	-0.871697	0.301334	0.887021	-0.118287	0.576425	0.395765	0.0264845	0	0	0.0891112	0.465386	-0.548811	0.431041	0.475249	0	0	-0.102492	-1.00064	0.391188	0	0	0	0	0	0	0	0	0	0	0	0	0	0
1.42747	-3.03941	0.616082	-0.301239	2.56056	-0.876601	0.29522	0.815174	-0.137811	0.521065	0.369142	0.00861787	0	0	0.029197	0.43132	-0.487434	0.452159	0.479244	0	0	-0.230183	-0.920319	0.304235	0	0	0	0	0	0	0	0	0	0	0	0	0	0
1.43745	-2.98697	0.572764	-0.246219	2.55757	-0.883443	0.287602	0.722551	-0.158945	0.456481	0.340886	-0.0135765	0	0	-0.0468722	0.390482	-0.417613	0.475774	0.482221	0	0	-0.394675	-0.826934	0.202629	0	0	0	0	0	0	0	0	0	0	0	0	0	0
1.44743	-2.92327	0.520111	-0.191884	2.55542	-0.891769	0.27883	0.615973	-0.179173	0.385507	0.312136	-0.0401298	0	0	-0.133426	0.344114	-0.343279	0.500863	0.484385	0	0	-0.583435	-0.724903	0.0959468	0	0	0	0	0	0	0	0	0	0	0	0	0	0
1.45742	-2.85817	0.462441	-0.140591	2.55316	-0.900668	0.269506	0.507837	-0.194387	0.313379	0.284339	-0.0710061	0	0	-0.219781	0.29478	-0.271146	0.525363	0.485984	0	0	-0.772921	-0.621508	0.000301181	0	0	0	0	0	0	0	0	0	0	0	0	0	0
1.4674	-2.7981	0.403461	-0.0935226	2.55018	-0.909476	0.260243	0.406703	-0.202678	0.244037	0.259397	-0.105235	0	0	-0.299131	0.244537	-0.205143	0.54793	0.486954	0	0	-0.947461	-0.522221	-0.0759481	0	0	0	0	0	0	0	0	0	0	0	0	0	0
1.47738	-2.7467	0.346028	-0.0514596	2.54609	-0.917741	0.251573	0.317517	-0.203607	0.180354	0.238347	-0.14143	0	0	-0.367685	0.194764	-0.14881	0.568127	0.48683	0	0	-1.09819	-0.430782	-0.130056	0	0	0	0	0	0	0	0	0	0	0	0	0	0
1.48736	-2.70555	0.292798	-0.0153363	2.54063	-0.92511	0.244011	0.243043	-0.1982	0.124855	0.222016	-0.177739	0	0	-0.423879	0.147331	-0.103942	0.585836	0.485071	0	0	-1.22143	-0.350087	-0.163061	0	0	0	0	0	0	0	0	0	0	0	0	0	0
1.49735	-2.67475	0.245783	0.0142945	2.5338	-0.931413	0.237825	0.184043	-0.188283	0.0792946	0.210798	-0.212579	0	0	-0.467699	0.104213	-0.0701593	0.601302	0.481127	0	0	-1.31713	-0.281845	-0.178137	0	0	0	0	0	0	0	0	0	0	0	0	0	0
1.50733	-2.65347	0.205562	0.0373414	2.52569	-0.936661	0.233078	0.13967	-0.175169	0.0439043	0.204432	-0.244721	0	0	-0.500122	0.0662651	-0.046598	0.614949	0.474357	0	0	-1.38735	-0.226287	-0.179131	0	0	0	0	0	0	0	0	0	0	0	0	0	0
1.51731	-2.64033	0.17182	0.0541173	2.51645	-0.940967	0.229706	0.108163	-0.159799	0.0179292	0.202491	-0.273063	0	0	-0.522678	0.0335353	-0.032131	0.627319	0.464058	0	0	-1.43533	-0.18258	-0.169792	0	0	0	0	0	0	0	0	0	0	0	0	0	0
1.52729	-2.63364	0.143836	0.065203	2.50626	-0.944495	0.227566	0.087127	-0.142931	0.000212653	0.204296	-0.296807	0	0	-0.537132	0.00565337	-0.0254781	0.639147	0.449584	0	0	-1.46514	-0.14931	-0.153443	0	0	0	0	0	0	0	0	0	0	0	0	0	0
1.53727	-2.63178	0.120676	0.0713162	2.49526	-0.947423	0.22647	0.0741773	-0.12516	-0.0107343	0.209258	-0.315454	0	0	-0.545257	-0.0179121	-0.0251149	0.650957	0.430201	0	0	-1.48052	-0.124779	-0.132776	0	0	0	0	0	0	0	0	0	0	0	0	0	0
1.54726	-2.63316	0.101498	0.073277	2.48362	-0.949926	0.226224	0.0668583	-0.107064	-0.0162336	0.216633	-0.328868	0	0	-0.548691	-0.0377106	-0.0294874	0.66335	0.405332	0	0	-1.48521	-0.107283	-0.109916	0	0	0	0	0	0	0	0	0	0	0	0	0	0
1.55724	-2.63634	0.0855412	0.0719416	2.47148	-0.952158	0.226645	0.0629687	-0.0891298	-0.0174343	0.225785	-0.337154	0	0	-0.548858	-0.0543067	-0.0371172	0.676833	0.374483	0	0	-1.48247	-0.095221	-0.0864378	0	0	0	0	0	0	0	0	0	0	0	0	0	0
1.56722	-2.64017	0.0721011	0.0681612	2.45893	-0.954244	0.227569	0.0607668	-0.0716909	-0.0153542	0.236411	-0.34048	0	0	-0.546934	-0.0683012	-0.046692	0.691703	0.337165	0	0	-1.47462	-0.087101	-0.063402	0	0	0	0	0	0	0	0	0	0	0	0	0	0
1.5772	-2.64363	0.0602431	0.0626423	2.44611	-0.956307	0.228858	0.0584202	-0.0546188	-0.0112076	0.247458	-0.339568	0	0	-0.543842	-0.080617	-0.0576365	0.708256	0.29306	0	0	-1.46399	-0.0814642	-0.0414033	0	0	0	0	0	0	0	0	0	0	0	0	0	0
1.58719	-2.64599	0.0495038	0.0558227	2.4331	-0.958427	0.230403	0.0547318	-0.0380619	-0.00551491	0.258446	-0.334937	0	0	-0.540274	-0.091549	-0.0691454	0.726562	0.242332	0	0	-1.45217	-0.0775116	-0.020759	0	0	0	0	0	0	0	0	0	0	0	0	0	0
1.59717	-2.64673	0.0396433	0.0480771	2.42	-0.960649	0.232116	0.0489525	-0.0222311	0.001621	0.269331	-0.326918	0	0	-0.536721	-0.101216	-0.0804733	0.746589	0.185455	0	0	-1.44011	-0.0747177	-0.00161625	0	0	0	0	0	0	0	0	0	0	0	0	0	0
1.60715	-2.64538	0.0301952	0.0396022	2.40693	-0.963021	0.23393	0.040147	-0.00699962	0.00975437	0.279227	-0.316353	0	0	-0.533509	-0.110004	-0.0915211	0.768368	0.123335	0	0	-1.42868	-0.0726225	0.016103	0	0	0	0	0	0	0	0	0	0	0	0	0	0
1.61713	-2.64176	0.0206998	0.0305228	2.39397	-0.965561	0.235793	0.0278875	0.00781939	0.0184173	0.287736	-0.303902	0	0	-0.530833	-0.118307	-0.102342	0.791748	0.0572286	0	0	-1.41781	-0.0708406	0.0326809	0	0	0	0	0	0	0	0	0	0	0	0	0	0
1.62712	-2.63567	0.0108704	0.0209862	2.38117	-0.968263	0.237668	0.0118266	0.0223288	0.0274658	0.294499	-0.290186	0	0	-0.528789	-0.126466	-0.113098	0.816729	-0.0109211	0	0	-1.40745	-0.0691151	0.0484786	0	0	0	0	0	0	0	0	0	0	0	0	0	0
1.6371	-2.62709	0.000507377	0.0111397	2.36858	-0.971106	0.239522	-0.00812131	0.0365931	0.0368787	0.299381	-0.27572	0	0	-0.527404	-0.134705	-0.123817	0.843225	-0.0785765	0	0	-1.39772	-0.0672791	0.0638509	0	0	0	0	0	0	0	0	0	0	0	0	0	0
1.64708	-2.61608	-0.0105005	0.0011315	2.35624	-0.974058	0.241326	-0.0318376	0.0506193	0.0466793	0.302441	-0.260924	0	0	-0.526651	-0.143101	-0.134346	0.87109	-0.142682	0	0	-1.38858	-0.0652385	0.079125	0	0	0	0	0	0	0	0	0	0	0	0	0	0
1.65706	-2.60281	-0.0222428	-0.00893198	2.34413	-0.977089	0.24307	-0.0590315	0.0644198	0.0568598	0.303865	-0.246152	0	0	-0.526464	-0.151757	-0.144744	0.899898	-0.200526	0	0	-1.37979	-0.0629415	0.0945909	0	0	0	0	0	0	0	0	0	0	0	0	0	0
1.66704	-2.58753	-0.0347557	-0.0189833	2.33226	-0.980176	0.24475	-0.0893674	0.0779767	0.0674757	0.30382	-0.231715	0	0	-0.52675	-0.160746	-0.155272	0.92904	-0.250035	0	0	-1.37128	-0.0603968	0.110493	0	0	0	0	0	0	0	0	0	0	0	0	0	0
1.67703	-2.57056	-0.0480469	-0.0289984	2.32061	-0.983292	0.246365	-0.122325	0.0912556	0.0785629	0.302633	-0.217806	0	0	-0.527386	-0.17005	-0.166105	0.957806	-0.289437	0	0	-1.36291	-0.0576785	0.127018	0	0	0	0	0	0	0	0	0	0	0	0	0	0
1.68701	-2.55231	-0.0620725	-0.0389462	2.30914	-0.986404	0.247912	-0.157321	0.104197	0.0901819	0.300646	-0.204535	0	0	-0.528217	-0.179615	-0.177331	0.985472	-0.317521	0	0	-1.35487	-0.0549176	0.144265	0	0	0	0	0	0	0	0	0	0	0	0	0	0
1.69699	-2.5331	-0.0766925	-0.0487799	2.29784	-0.989476	0.249394	-0.193909	0.116678	0.102491	0.29798	-0.191968	0	0	-0.529052	-0.189391	-0.18904	1.0115	-0.333825	0	0	-1.34804	-0.0523312	0.162227	0	0	0	0	0	0	0	0	0	0	0	0	0	0
1.70697	-2.51334	-0.0917509	-0.058452	2.28671	-0.992464	0.250813	-0.231573	0.128588	0.115588	0.294777	-0.1801	0	0	-0.529652	-0.199322	-0.201223	1.03537	-0.33868	0	0	-1.34385	-0.0502056	0.180768	0	0	0	0	0	0	0	0	0	0	0	0	0	0
1.71696	-2.49348	-0.10709	-0.0679256	2.27571	-0.99533	0.252171	-0.269698	0.139844	0.129488	0.291217	-0.168886	0	0	-0.529726	-0.209361	-0.213797	1.05657	-0.3332	0	0	-1.34282	-0.0487046	0.199722	0	0	0	0	0	0	0	0	0	0	0	0	0	0
1.72694	-2.4741	-0.122579	-0.0771814	2.26482	-0.998036	0.25347	-0.307543	0.150426	0.144121	0.287557	-0.158218	0	0	-0.528921	-0.2195	-0.226631	1.07458	-0.319123	0	0	-1.34474	-0.0478729	0.218928	0	0	0	0	0	0	0	0	0	0	0	0	0	0
1.73692	-2.45573	-0.138041	-0.0862043	2.254	-1.00056	0.254705	-0.344395	0.160292	0.159386	0.284028	-0.147966	0	0	-0.526825	-0.22967	-0.239624	1.08897	-0.297985	0	0	-1.34905	-0.0476789	0.238217	0	0	0	0	0	0	0	0	0	0	0	0	0	0
1.7469	-2.43893	-0.153295	-0.094998	2.24322	-1.00286	0.255871	-0.379492	0.169425	0.175202	0.280888	-0.137969	0	0	-0.522972	-0.239807	-0.252638	1.09937	-0.271379	0	0	-1.35498	-0.048033	0.257413	0	0	0	0	0	0	0	0	0	0	0	0	0	0
1.75688	-2.4243	-0.168153	-0.103605	2.23246	-1.00493	0.256966	-0.412022	0.177838	0.191515	0.278453	-0.128025	0	0	-0.516865	-0.249849	-0.265537	1.10552	-0.240848	0	0	-1.36156	-0.048821	0.276325	0	0	0	0	0	0	0	0	0	0	0	0	0	0
1.76687	-2.41243	-0.182434	-0.112109	2.22169	-1.00672	0.257988	-0.441153	0.185563	0.208277	0.277109	-0.117882	0	0	-0.508011	-0.259728	-0.2782	1.10721	-0.207852	0	0	-1.36779	-0.0499193	0.294747	0	0	0	0	0	0	0	0	0	0	0	0	0	0
1.77685	-2.40379	-0.195939	-0.120608	2.2109	-1.0082	0.258938	-0.466163	0.19262	0.225505	0.277234	-0.107261	0	0	-0.495985	-0.269371	-0.290545	1.10438	-0.173794	0	0	-1.37282	-0.0512165	0.312463	0	0	0	0	0	0	0	0	0	0	0	0	0	0
1.78683	-2.39875	-0.208801	-0.12913	2.20008	-1.00937	0.25981	-0.486713	0.199281	0.242912	0.278683	-0.0962284	0	0	-0.480519	-0.279077	-0.302673	1.09701	-0.140053	0	0	-1.3761	-0.0523979	0.329395	0	0	0	0	0	0	0	0	0	0	0	0	0	0
1.79681	-2.39743	-0.22117	-0.13765	2.18924	-1.01023	0.260597	-0.502776	0.205812	0.260217	0.281241	-0.0848566	0	0	-0.461617	-0.289144	-0.314704	1.08513	-0.107899	0	0	-1.37732	-0.0531554	0.345516	0	0	0	0	0	0	0	0	0	0	0	0	0	0
1.8068	-2.39966	-0.233216	-0.146119	2.17838	-1.01079	0.261294	-0.514695	0.212443	0.277203	0.284667	-0.0732127	0	0	-0.439671	-0.299797	-0.326766	1.06875	-0.0784624	0	0	-1.37643	-0.0532299	0.360811	0	0	0	0	0	0	0	0	0	0	0	0	0	0
1.81678	-2.40506	-0.245147	-0.154538	2.16748	-1.01107	0.2619	-0.523017	0.219379	0.293817	0.288751	-0.0613394	0	0	-0.415333	-0.311203	-0.339056	1.04782	-0.052707	0	0	-1.37351	-0.0524713	0.37542	0	0	0	0	0	0	0	0	0	0	0	0	0	0
1.82676	-2.4132	-0.257155	-0.162943	2.15653	-1.01107	0.262419	-0.52838	0.226777	0.31014	0.293335	-0.049252	0	0	-0.389362	-0.32345	-0.35178	1.02233	-0.0314357	0	0	-1.36877	-0.0508124	0.38954	0	0	0	0	0	0	0	0	0	0	0	0	0	0
1.83674	-2.42362	-0.269398	-0.171385	2.14553	-1.01081	0.262858	-0.531426	0.234745	0.326371	0.298304	-0.0369511	0	0	-0.362517	-0.336556	-0.365104	0.992312	-0.0152428	0	0	-1.36248	-0.0482394	0.403363	0	0	0	0	0	0	0	0	0	0	0	0	0	0
1.84673	-2.4359	-0.281997	-0.179913	2.13446	-1.01031	0.263219	-0.53275	0.24336	0.342766	0.30358	-0.0244449	0	0	-0.335489	-0.350484	-0.379117	0.957848	-0.00446077	0	0	-1.35493	-0.0447575	0.417054	0	0	0	0	0	0	0	0	0	0	0	0	0	0
1.85671	-2.44964	-0.295035	-0.188547	2.12331	-1.00957	0.263499	-0.532868	0.252672	0.359586	0.309119	-0.0117633	0	0	-0.308862	-0.36515	-0.393777	0.919065	0.000871001	0	0	-1.34648	-0.0403585	0.430734	0	0	0	0	0	0	0	0	0	0	0	0	0	0
1.86669	-2.46456	-0.308568	-0.197314	2.11207	-1.0086	0.263697	-0.532208	0.262703	0.377025	0.314867	0.00109972	0	0	-0.283038	-0.380459	-0.408921	0.876233	0.000996461	0	0	-1.33735	-0.0350265	0.44447	0	0	0	0	0	0	0	0	0	0	0	0	0	0
1.87667	-2.48048	-0.322609	-0.206246	2.10071	-1.0074	0.263807	-0.531103	0.273439	0.395246	0.320748	0.0141792	0	0	-0.258244	-0.39629	-0.42424	0.829746	-0.00360718	0	0	-1.32765	-0.0287399	0.458274	0	0	0	0	0	0	0	0	0	0	0	0	0	0
1.88665	-2.49727	-0.337139	-0.215381	2.08922	-1.00597	0.263826	-0.529803	0.284843	0.414376	0.326671	0.027526	0	0	-0.234544	-0.412515	-0.439291	0.780102	-0.0122894	0	0	-1.31738	-0.0214718	0.472113	0	0	0	0	0	0	0	0	0	0	0	0	0	0
1.89664	-2.51491	-0.352117	-0.224766	2.07755	-1.00431	0.263748	-0.528482	0.296851	0.434487	0.332525	0.041187	0	0	-0.211876	-0.429008	-0.453499	0.727875	-0.0242791	0	0	-1.30647	-0.0131946	0.485918	0	0	0	0	0	0	0	0	0	0	0	0	0	0
1.90662	-2.53341	-0.367484	-0.234445	2.06567	-1.00242	0.263574	-0.527252	0.309384	0.455572	0.338199	0.0551905	0	0	-0.190093	-0.44566	-0.466179	0.673685	-0.0387455	0	0	-1.29477	-0.00388592	0.499608	0	0	0	0	0	0	0	0	0	0	0	0	0	0
1.9166	-2.55272	-0.383175	-0.244369	2.05357	-1.00032	0.263289	-0.526178	0.322378	0.477574	0.343642	0.0694537	0	0	-0.16909	-0.462324	-0.476472	0.617977	-0.0548747	0	0	-1.28245	0.00651257	0.513136	0	0	0	0	0	0	0	0	0	0	0	0	0	0
1.92658	-2.5728	-0.399136	-0.254445	2.04124	-0.998007	0.262882	-0.525287	0.335796	0.50039	0.348837	0.0838602	0	0	-0.148751	-0.47889	-0.48343	0.561151	-0.071926	0	0	-1.26969	0.0180773	0.526456	0	0	0	0	0	0	0	0	0	0	0	0	0	0
1.93657	-2.59363	-0.415316	-0.26463	2.02868	-0.995512	0.26236	-0.524583	0.349577	0.523799	0.353724	0.0983405	0	0	-0.128943	-0.495319	-0.486234	0.503622	-0.0892481	0	0	-1.2565	0.0308221	0.539509	0	0	0	0	0	0	0	0	0	0	0	0	0	0
1.94655	-2.61518	-0.431657	-0.274877	2.01589	-0.992855	0.261728	-0.52405	0.363646	0.547574	0.358305	0.112791	0	0	-0.109611	-0.511563	-0.484187	0.44568	-0.106306	0	0	-1.24298	0.0447088	0.552272	0	0	0	0	0	0	0	0	0	0	0	0	0	0
1.95653	-2.63741	-0.448105	-0.285195	2.00288	-0.990058	0.261006	-0.523664	0.377912	0.57146	0.362566	0.127155	0	0	-0.0907188	-0.527624	-0.476878	0.38757	-0.122704	0	0	-1.22911	0.059621	0.564735	0	0	0	0	0	0	0	0	0	0	0	0	0	0
1.96651	-2.66021	-0.464608	-0.295546	1.98969	-0.987149	0.260206	-0.523398	0.3923	0.595278	0.366586	0.141332	0	0	-0.0723154	-0.543478	-0.464182	0.329374	-0.13822	0	0	-1.21502	0.0754134	0.576951	0	0	0	0	0	0	0	0	0	0	0	0	0	0
1.9765	-2.68336	-0.481124	-0.305806	1.97634	-0.984161	0.259328	-0.52322	0.406793	0.61895	0.37054	0.155176	0	0	-0.0544923	-0.559081	-0.446271	0.27103	-0.152813	0	0	-1.20104	0.09196	0.589019	0	0	0	0	0	0	0	0	0	0	0	0	0	0
1.98648	-2.70665	-0.497634	-0.31583	1.9629	-0.98112	0.258376	-0.523104	0.421405	0.642442	0.374598	0.168572	0	0	-0.0372939	-0.574424	-0.423677	0.21245	-0.166608	0	0	-1.18748	0.109142	0.601035	0	0	0	0	0	0	0	0	0	0	0	0	0	0
1.99646	-2.72991	-0.514135	-0.325531	1.9494	-0.97805	0.257357	-0.523027	0.436142	0.665703	0.378854	0.181514	0	0	-0.0206683	-0.589544	-0.397362	0.153607	-0.179835	0	0	-1.17447	0.126815	0.613061	0	0	0	0	0	0	0	0	0	0	0	0	0	0
2.00644	-2.75308	-0.53063	-0.334924	1.93587	-0.974967	0.25629	-0.52297	0.450981	0.688731	0.383306	0.1941	0	0	-0.00446042	-0.604513	-0.368622	0.0945482	-0.19275	0	0	-1.16195	0.144806	0.625127	0	0	0	0	0	0	0	0	0	0	0	0	0	0
2.01642	-2.77616	-0.547123	-0.344144	1.92233	-0.97188	0.255199	-0.522919	0.465874	0.711624	0.387868	0.206513	0	0	0.0115504	-0.619418	-0.338844	0.0353814	-0.205561	0	0	-1.14971	0.162933	0.637224	0	0	0	0	0	0	0	0	0	0	0	0	0	0
