Coordinates
version=1
nRows=34
nColumns=38
inDegrees=no

Units are S.I. units (second, meters, Newtons, ...)
If the header above contains a line with 'inDegrees', this indicates whether rotational values are in degrees (yes) or radians (no).

endheader
time	pelvis_tilt	pelvis_list	pelvis_rotation	pelvis_tx	pelvis_ty	pelvis_tz	hip_flexion_r	hip_adduction_r	hip_rotation_r	knee_angle_r	ankle_angle_r	subtalar_angle_r	mtp_angle_r	hip_flexion_l	hip_adduction_l	hip_rotation_l	knee_angle_l	ankle_angle_l	subtalar_angle_l	mtp_angle_l	lumbar_extension	lumbar_bending	lumbar_rotation	arm_flex_r	arm_add_r	arm_rot_r	elbow_flex_r	pro_sup_r	wrist_flex_r	wrist_dev_r	arm_flex_l	arm_add_l	arm_rot_l	elbow_flex_l	pro_sup_l	wrist_flex_l	wrist_dev_l
2.06	2.75922	0.443887	-3.06185	-3.78407	-1.03635	0.248642	-0.524576	0.41192	-0.04538	0.415604	0.279153	0	0	0.393039	-0.496307	0.0724468	0.590975	-0.0574914	0	0	-1.10033	0.387748	0.384008	0	0	0	0	0	0	0	0	0	0	0	0	0	0
2.06999	2.74784	0.426711	-3.02994	-3.77316	-1.03536	0.250611	-0.52441	0.408524	-0.0690301	0.452808	0.247997	0	0	0.385067	-0.474847	0.0981801	0.614492	-0.0509256	0	0	-1.10194	0.395664	0.357582	0	0	0	0	0	0	0	0	0	0	0	0	0	0
2.07998	2.73652	0.408769	-2.99749	-3.76223	-1.0344	0.252549	-0.524234	0.404729	-0.0935135	0.490191	0.216543	0	0	0.376825	-0.452652	0.123839	0.637842	-0.044287	0	0	-1.10329	0.403443	0.330195	0	0	0	0	0	0	0	0	0	0	0	0	0	0
2.08996	2.72542	0.388854	-2.96372	-3.75127	-1.03351	0.25441	-0.52403	0.399855	-0.120163	0.528048	0.184383	0	0	0.367929	-0.428579	0.149307	0.660755	-0.0375497	0	0	-1.10401	0.410848	0.300282	0	0	0	0	0	0	0	0	0	0	0	0	0	0
2.09995	2.71483	0.365605	-2.92783	-3.74027	-1.03277	0.256152	-0.523774	0.393056	-0.150467	0.566719	0.151148	0	0	0.358007	-0.401346	0.174427	0.682919	-0.0308402	0	0	-1.10367	0.417575	0.266021	0	0	0	0	0	0	0	0	0	0	0	0	0	0
2.10994	2.70516	0.33781	-2.88929	-3.72915	-1.03221	0.257805	-0.523439	0.383378	-0.185478	0.606338	0.116719	0	0	0.34628	-0.369716	0.199911	0.703494	-0.0237542	0	0	-1.10171	0.423439	0.225677	0	0	0	0	0	0	0	0	0	0	0	0	0	0
2.11993	2.69677	0.304584	-2.84781	-3.71788	-1.03187	0.259434	-0.522993	0.37002	-0.225757	0.646868	0.0812084	0	0	0.332041	-0.332746	0.226458	0.721769	-0.0160882	0	0	-1.09778	0.42834	0.178016	0	0	0	0	0	0	0	0	0	0	0	0	0	0
2.12991	2.6899	0.265603	-2.80349	-3.70645	-1.03179	0.26114	-0.522409	0.352439	-0.27115	0.688124	0.0450013	0	0	0.314745	-0.290054	0.254561	0.737184	-0.00783916	0	0	-1.09185	0.432257	0.122598	0	0	0	0	0	0	0	0	0	0	0	0	0	0
2.1399	2.68477	0.221316	-2.75712	-3.69489	-1.03201	0.263067	-0.521663	0.330407	-0.320555	0.729845	0.00873721	0	0	0.294072	-0.242087	0.284263	0.749322	0.000848904	0	0	-1.08423	0.435221	0.0601267	0	0	0	0	0	0	0	0	0	0	0	0	0	0
2.14989	2.68143	0.172612	-2.71003	-3.68324	-1.03257	0.26539	-0.520746	0.303832	-0.37224	0.771724	-0.0267374	0	0	0.269808	-0.189731	0.315154	0.757849	0.00975848	0	0	-1.07551	0.437204	-0.00785152	0	0	0	0	0	0	0	0	0	0	0	0	0	0
2.15988	2.67966	0.121396	-2.66439	-3.67152	-1.03353	0.267977	-0.519665	0.272888	-0.424973	0.813647	-0.0605763	0	0	0.242126	-0.135554	0.345771	0.762616	0.0186702	0	0	-1.06656	0.437589	-0.0784818	0	0	0	0	0	0	0	0	0	0	0	0	0	0
2.16987	2.67902	0.0694559	-2.62268	-3.65973	-1.03495	0.270758	-0.518457	0.237519	-0.47764	0.855424	-0.0920134	0	0	0.211028	-0.0818859	0.374302	0.763407	0.0273615	0	0	-1.0584	0.435639	-0.148711	0	0	0	0	0	0	0	0	0	0	0	0	0	0
2.17985	2.67888	0.0184116	-2.58764	-3.64784	-1.03693	0.273735	-0.517199	0.197411	-0.529441	0.896848	-0.120541	0	0	0.176356	-0.0307302	0.398628	0.759958	0.035618	0	0	-1.05221	0.430534	-0.215346	0	0	0	0	0	0	0	0	0	0	0	0	0	0
2.18984	2.67826	-0.0298946	-2.56172	-3.63584	-1.03948	0.276548	-0.516002	0.153989	-0.575854	0.936847	-0.144663	0	0	0.138527	0.0152754	0.416356	0.75234	0.0432709	0	0	-1.04936	0.421157	-0.275307	0	0	0	0	0	0	0	0	0	0	0	0	0	0
2.19983	2.67627	-0.0743706	-2.54654	-3.62366	-1.04263	0.278898	-0.515039	0.108495	-0.614017	0.974233	-0.163318	0	0	0.0977501	0.0545596	0.425725	0.740608	0.0501804	0	0	-1.05078	0.4066	-0.32664	0	0	0	0	0	0	0	0	0	0	0	0	0	0
2.20982	2.67219	-0.114402	-2.54287	-3.61122	-1.04635	0.280553	-0.514498	0.0621312	-0.642283	1.00781	-0.175967	0	0	0.0541681	0.0863268	0.425607	0.724844	0.0562647	0	0	-1.05698	0.386306	-0.368215	0	0	0	0	0	0	0	0	0	0	0	0	0	0
2.2198	2.66547	-0.149582	-2.55074	-3.59845	-1.0506	0.281366	-0.514402	0.0161592	-0.659845	1.03657	-0.18257	0	0	0.00804492	0.110318	0.415553	0.705265	0.0615193	0	0	-1.06807	0.360252	-0.39947	0	0	0	0	0	0	0	0	0	0	0	0	0	0
2.22979	2.65578	-0.179445	-2.56939	-3.58538	-1.05529	0.281298	-0.514434	-0.0279904	-0.66645	1.05978	-0.183468	0	0	-0.0400179	0.126573	0.395865	0.682331	0.0660305	0	0	-1.08371	0.32916	-0.42022	0	0	0	0	0	0	0	0	0	0	0	0	0	0
2.23978	2.64314	-0.203306	-2.59723	-3.57214	-1.06025	0.280445	-0.513798	-0.0687019	-0.662227	1.0771	-0.17913	0	0	-0.0888465	0.135361	0.367712	0.656859	0.0699331	0	0	-1.10309	0.29469	-0.430614	0	0	0	0	0	0	0	0	0	0	0	0	0	0
2.24977	2.62794	-0.221093	-2.63227	-3.55886	-1.06533	0.279001	-0.511788	-0.104892	-0.647618	1.08847	-0.169905	0	0	-0.13742	0.137678	0.332835	0.629661	0.0733269	0	0	-1.12513	0.258513	-0.431667	0	0	0	0	0	0	0	0	0	0	0	0	0	0
2.25975	2.61098	-0.233409	-2.67202	-3.54569	-1.07034	0.277268	-0.507796	-0.136062	-0.623426	1.09404	-0.155896	0	0	-0.184844	0.135271	0.293687	0.601525	0.0762771	0	0	-1.14852	0.222331	-0.425301	0	0	0	0	0	0	0	0	0	0	0	0	0	0
2.26974	2.59363	-0.241615	-2.71332	-3.53277	-1.07509	0.275665	-0.501333	-0.162344	-0.590952	1.09422	-0.136889	0	0	-0.230265	0.130712	0.253647	0.573276	0.0788168	0	0	-1.17156	0.187955	-0.414456	0	0	0	0	0	0	0	0	0	0	0	0	0	0
2.27973	2.57692	-0.246326	-2.75435	-3.5202	-1.07946	0.274471	-0.492066	-0.18459	-0.552246	1.08954	-0.112648	0	0	-0.272885	0.125499	0.214596	0.545497	0.0809799	0	0	-1.19301	0.156485	-0.401059	0	0	0	0	0	0	0	0	0	0	0	0	0	0
2.28972	2.5616	-0.247989	-2.79395	-3.50808	-1.08337	0.273702	-0.479537	-0.202793	-0.508717	1.08027	-0.0851024	0	0	-0.311915	0.120427	0.177454	0.51879	0.0828059	0	0	-1.21225	0.128248	-0.386459	0	0	0	0	0	0	0	0	0	0	0	0	0	0
2.29971	2.54833	-0.247356	-2.83139	-3.49637	-1.08677	0.273496	-0.463605	-0.217384	-0.462006	1.06661	-0.0559992	0	0	-0.347094	0.116518	0.143037	0.493403	0.0843881	0	0	-1.22866	0.103401	-0.371801	0	0	0	0	0	0	0	0	0	0	0	0	0	0
2.30969	2.53744	-0.244834	-2.86656	-3.48499	-1.08966	0.273909	-0.444565	-0.229669	-0.415639	1.04896	-0.0269215	0	0	-0.378414	0.114246	0.111447	0.469359	0.0857999	0	0	-1.24194	0.0817454	-0.357761	0	0	0	0	0	0	0	0	0	0	0	0	0	0
2.31968	2.52923	-0.241349	-2.89941	-3.47366	-1.0921	0.275162	-0.42331	-0.241621	-0.374261	1.0276	0.000826403	0	0	-0.406589	0.114522	0.0830471	0.446194	0.0871355	0	0	-1.25156	0.0630539	-0.345006	0	0	0	0	0	0	0	0	0	0	0	0	0	0
2.32967	2.52333	-0.236998	-2.92948	-3.46223	-1.0942	0.27741	-0.400474	-0.253996	-0.341393	1.0034	0.0249588	0	0	-0.432481	0.116876	0.0582024	0.423608	0.0884548	0	0	-1.25785	0.047953	-0.333421	0	0	0	0	0	0	0	0	0	0	0	0	0	0
2.33966	2.51934	-0.231844	-2.95662	-3.45066	-1.09607	0.280649	-0.37652	-0.267023	-0.318438	0.977104	0.0443403	0	0	-0.456715	0.120698	0.0368687	0.401471	0.0898008	0	0	-1.26132	0.0366398	-0.32278	0	0	0	0	0	0	0	0	0	0	0	0	0	0
2.34964	2.51696	-0.225973	-2.98085	-3.43899	-1.09777	0.284703	-0.351698	-0.280446	-0.304789	0.949237	0.0590071	0	0	-0.479548	0.125297	0.0186912	0.379889	0.0912231	0	0	-1.2626	0.0288805	-0.312837	0	0	0	0	0	0	0	0	0	0	0	0	0	0
2.35963	2.51605	-0.219509	-3.00225	-3.42738	-1.09934	0.289213	-0.326015	-0.293509	-0.297895	0.920044	0.0701366	0	0	-0.500795	0.129909	0.00311183	0.359264	0.0927952	0	0	-1.26235	0.0240477	-0.303389	0	0	0	0	0	0	0	0	0	0	0	0	0	0
2.36962	2.51626	-0.212512	-3.02147	-3.41583	-1.10083	0.293996	-0.299634	-0.306006	-0.295914	0.889978	0.07868	0	0	-0.520708	0.134195	-0.0106576	0.339409	0.0945306	0	0	-1.26102	0.02145	-0.294152	0	0	0	0	0	0	0	0	0	0	0	0	0	0
2.37961	2.5173	-0.205084	-3.03934	-3.40425	-1.10229	0.299049	-0.272687	-0.318431	-0.29809	0.85967	0.0853455	0	0	-0.539766	0.138263	-0.0233253	0.319893	0.0963618	0	0	-1.2588	0.0204194	-0.284859	0	0	0	0	0	0	0	0	0	0	0	0	0	0
2.3896	2.5187	-0.197628	-3.0567	-3.39264	-1.10373	0.304164	-0.245654	-0.330882	-0.301734	0.829212	0.0916214	0	0	-0.558476	0.142328	-0.0355363	0.30052	0.0982693	0	0	-1.25621	0.0198638	-0.275614	0	0	0	0	0	0	0	0	0	0	0	0	0	0
